{
  "type": "FeatureCollection",
  "features": [
    {
      "type": "Feature",
      "geometry": {
        "type": "MultiLineString",
        "coordinates": [[[-90.39476,38.8119,136],[-90.39475,38.81191,136],[-90.39473,38.81193,136],[-90.39465,38.81197,137],[-90.39457,38.81203,137],[-90.39448,38.8121,137],[-90.39447,38.81211,137],[-90.39446,38.81212,137],[-90.39441,38.81216,138],[-90.3944,38.81217,138],[-90.39432,38.81223,137],[-90.3941,38.81242,137],[-90.39391,38.81257,136],[-90.3936,38.81277,134],[-90.3935,38.81282,134],[-90.39349,38.81284,133],[-90.39316,38.81306,132],[-90.39296,38.81323,133],[-90.39279,38.81335,135],[-90.39277,38.81336,135],[-90.39269,38.81341,136],[-90.39261,38.81348,137],[-90.39257,38.81359,138],[-90.39255,38.81362,138],[-90.39243,38.81382,137],[-90.39238,38.81389,135],[-90.39219,38.81408,145],[-90.39222,38.81419,151],[-90.39236,38.81426,152],[-90.39263,38.81437,152],[-90.3927,38.81441,153],[-90.39292,38.8146,149],[-90.393,38.81479,147],[-90.3931,38.81503,146],[-90.39309,38.81524,145],[-90.3929,38.81543,145],[-90.3928,38.81547,146],[-90.39262,38.81563,149],[-90.39262,38.81566,149],[-90.39261,38.81589,145],[-90.39261,38.81606,145],[-90.39238,38.81623,149],[-90.39229,38.81632,149],[-90.3922,38.81646,148],[-90.39213,38.81657,148],[-90.39208,38.81659,149],[-90.39202,38.81666,149],[-90.39181,38.81684,150],[-90.39172,38.81689,149],[-90.39166,38.81704,144],[-90.39151,38.81711,144],[-90.39145,38.81722,140],[-90.39145,38.81723,139],[-90.3913,38.81727,141],[-90.39112,38.81736,142],[-90.39094,38.81742,143],[-90.39085,38.81752,141],[-90.39064,38.81772,140],[-90.39034,38.81782,141],[-90.39019,38.81789,143],[-90.38989,38.81801,145],[-90.38958,38.81806,146],[-90.38952,38.81806,146],[-90.38944,38.81803,147],[-90.38922,38.81803,150],[-90.38905,38.81803,153],[-90.38899,38.81813,151],[-90.38897,38.81814,151],[-90.38889,38.81816,152],[-90.38881,38.81821,152],[-90.38872,38.81827,151],[-90.38861,38.81832,150],[-90.38844,38.81842,146],[-90.38826,38.81854,141],[-90.38821,38.81861,139],[-90.38814,38.81866,140],[-90.38801,38.81867,142],[-90.3879,38.81876,142],[-90.38789,38.81877,142],[-90.38784,38.81879,142],[-90.38757,38.81894,140],[-90.38752,38.81898,139],[-90.38736,38.81912,134],[-90.38725,38.81919,132],[-90.3872,38.81918,132],[-90.38714,38.81922,132],[-90.38701,38.81927,132],[-90.38696,38.8193,132],[-90.38678,38.8194,132],[-90.38665,38.8195,131],[-90.38659,38.81951,131],[-90.38653,38.8195,131],[-90.38644,38.81953,131],[-90.3863,38.81959,132],[-90.38624,38.81958,133],[-90.38613,38.81962,133],[-90.38605,38.81963,133],[-90.38586,38.81966,133],[-90.38579,38.81966,133],[-90.38566,38.81965,133],[-90.38553,38.81958,136],[-90.38543,38.81952,139],[-90.38524,38.81947,140],[-90.38501,38.81944,141],[-90.38496,38.81943,141],[-90.38471,38.81939,142],[-90.38443,38.81936,144],[-90.38421,38.81934,146],[-90.38406,38.81933,147],[-90.38408,38.81933,147],[-90.3843,38.81934,145],[-90.38455,38.81939,143],[-90.38466,38.81941,142],[-90.38475,38.81942,142],[-90.38505,38.81945,140],[-90.38524,38.81946,141],[-90.38545,38.81951,139],[-90.38561,38.81963,134],[-90.38571,38.81962,135],[-90.38582,38.81964,134],[-90.38601,38.81961,134],[-90.3862,38.8196,133],[-90.38632,38.81959,131],[-90.38639,38.81958,131],[-90.3865,38.81951,131],[-90.38653,38.81951,131],[-90.38656,38.81952,131],[-90.3867,38.81943,132],[-90.38677,38.81936,133],[-90.38695,38.81928,132],[-90.38709,38.81922,132],[-90.3871,38.81921,132],[-90.3872,38.81914,133],[-90.38741,38.81905,136],[-90.38744,38.819,138],[-90.38751,38.81891,141],[-90.38779,38.8188,143],[-90.38787,38.81876,142],[-90.38803,38.81865,141],[-90.38812,38.81862,140],[-90.38814,38.8186,141],[-90.38823,38.8186,139],[-90.38831,38.81845,145],[-90.38844,38.81837,148],[-90.38868,38.81825,152],[-90.38886,38.81809,156],[-90.3889,38.81807,156],[-90.38896,38.81809,153],[-90.3892,38.81807,149],[-90.38929,38.81808,147],[-90.38937,38.81808,146],[-90.3894,38.81809,146],[-90.38943,38.81808,146],[-90.3895,38.81805,147],[-90.38973,38.81797,148],[-90.38988,38.81791,147],[-90.39001,38.81788,146],[-90.39019,38.81786,143],[-90.39037,38.81776,142],[-90.39052,38.81772,141],[-90.39056,38.81771,141],[-90.39071,38.8176,141],[-90.39077,38.81753,142],[-90.39082,38.81751,141],[-90.39084,38.81749,142],[-90.39095,38.81736,144],[-90.39093,38.81736,145],[-90.39086,38.81744,143],[-90.39071,38.81762,141],[-90.39064,38.81763,142],[-90.39061,38.81757,143],[-90.39055,38.81761,143],[-90.39057,38.81763,142],[-90.39053,38.81767,142],[-90.39047,38.81776,141],[-90.39023,38.81771,145],[-90.39026,38.81764,146],[-90.39034,38.81754,147],[-90.3902,38.81755,148],[-90.39006,38.81749,151],[-90.39004,38.81746,152],[-90.38989,38.81746,154],[-90.38999,38.81745,153],[-90.39009,38.81745,152],[-90.39018,38.81744,151],[-90.39022,38.81744,151],[-90.39018,38.81734,154],[-90.39016,38.81732,154],[-90.3902,38.81739,152],[-90.39027,38.81747,149],[-90.39033,38.81747,149],[-90.39037,38.81744,149],[-90.39054,38.81737,150],[-90.39054,38.81732,152],[-90.39054,38.81725,155],[-90.39052,38.81721,156],[-90.39051,38.81717,157],[-90.39052,38.81709,160],[-90.39051,38.817,163],[-90.3905,38.81697,164],[-90.39053,38.81686,166],[-90.39053,38.81687,165],[-90.39061,38.81682,165],[-90.39069,38.81681,165],[-90.39074,38.81678,165],[-90.39076,38.81676,165],[-90.39089,38.81669,166],[-90.39103,38.81675,164],[-90.39104,38.81676,163],[-90.39105,38.81678,163],[-90.39114,38.81678,162],[-90.39121,38.81676,161],[-90.39125,38.81674,161],[-90.39128,38.81669,162],[-90.39135,38.81667,162],[-90.3914,38.8166,163],[-90.39152,38.81647,165],[-90.39154,38.81644,165],[-90.39161,38.81626,169],[-90.39164,38.81616,172],[-90.39168,38.81594,177],[-90.39171,38.81577,179],[-90.3917,38.81568,180],[-90.39155,38.81557,183],[-90.3914,38.81548,185],[-90.39134,38.81545,185],[-90.39117,38.81543,186],[-90.39093,38.81545,185],[-90.39074,38.81547,184],[-90.39067,38.81545,184],[-90.39044,38.81541,181],[-90.39015,38.81535,180],[-90.38994,38.81527,182],[-90.38989,38.81523,183],[-90.38972,38.81508,187],[-90.38957,38.81491,189],[-90.3895,38.81478,190],[-90.3895,38.81472,191],[-90.38951,38.81457,190],[-90.38952,38.81448,189],[-90.38948,38.81442,189],[-90.38938,38.81435,190],[-90.38914,38.81424,192],[-90.38899,38.81421,192],[-90.38889,38.81417,192],[-90.38862,38.81409,196],[-90.3886,38.81408,196],[-90.38855,38.81406,196],[-90.38826,38.81394,198],[-90.38813,38.81392,198],[-90.38791,38.81394,199],[-90.38767,38.81398,200],[-90.38744,38.81399,200],[-90.38714,38.81404,200],[-90.38708,38.81405,200],[-90.38697,38.81407,200],[-90.38693,38.81408,201],[-90.38666,38.8141,200],[-90.38647,38.81415,199],[-90.38651,38.81414,199],[-90.38655,38.81413,199],[-90.38658,38.81413,199],[-90.38688,38.81411,201],[-90.38693,38.81409,201],[-90.38699,38.81407,200],[-90.3873,38.81404,200],[-90.38751,38.814,200],[-90.38765,38.81394,200],[-90.38753,38.81386,199],[-90.38757,38.81377,198],[-90.38764,38.81345,195],[-90.38766,38.8133,194],[-90.38767,38.8133,194],[-90.38785,38.81328,195],[-90.38791,38.81322,194],[-90.38801,38.81315,192],[-90.38806,38.81302,190],[-90.38807,38.81296,189],[-90.3881,38.81285,187],[-90.38816,38.81281,185],[-90.38826,38.81276,181],[-90.38837,38.81272,177],[-90.38847,38.81265,173],[-90.38851,38.81263,172],[-90.38857,38.81256,170],[-90.38858,38.81242,168],[-90.38863,38.81239,166],[-90.3887,38.81235,165],[-90.38872,38.81232,164],[-90.38882,38.81219,162],[-90.38875,38.81211,161],[-90.38873,38.81207,161],[-90.38868,38.81192,161],[-90.3887,38.81186,161],[-90.38878,38.81168,161],[-90.38887,38.81159,159],[-90.38898,38.81154,156],[-90.38914,38.81147,152],[-90.38927,38.81141,152],[-90.38934,38.81143,152],[-90.38943,38.81138,152],[-90.38947,38.81133,151],[-90.38952,38.81129,151],[-90.38952,38.81127,151],[-90.38956,38.81123,151],[-90.38966,38.81122,150],[-90.38976,38.81124,149],[-90.38986,38.8112,148],[-90.38997,38.81116,147],[-90.39021,38.81123,143],[-90.39029,38.81123,142],[-90.39049,38.81127,142],[-90.39059,38.8113,142],[-90.39087,38.81125,141],[-90.3909,38.81127,141],[-90.3911,38.81151,142],[-90.39117,38.8116,143],[-90.39114,38.81161,143],[-90.39095,38.81175,147],[-90.39096,38.8119,149],[-90.39093,38.81203,149],[-90.39092,38.8121,149],[-90.39089,38.81227,148],[-90.3909,38.81228,148],[-90.39102,38.81251,142],[-90.39111,38.81274,146],[-90.39112,38.81282,147],[-90.39121,38.81298,150],[-90.39134,38.81312,150],[-90.39136,38.81315,150],[-90.39143,38.81326,149],[-90.39157,38.81336,148],[-90.39157,38.81344,147],[-90.39167,38.81357,143],[-90.39177,38.8137,142],[-90.3918,38.81372,142],[-90.39212,38.81394,137],[-90.3923,38.8141,146],[-90.39233,38.8141,146],[-90.39232,38.8141,146],[-90.39247,38.81396,140],[-90.39259,38.8138,138],[-90.39259,38.81379,138],[-90.39265,38.81362,138],[-90.3927,38.81356,137],[-90.39276,38.81344,136],[-90.39271,38.8134,136],[-90.39246,38.8133,137],[-90.39226,38.81317,137],[-90.39212,38.81306,137],[-90.39187,38.81289,137],[-90.39169,38.81278,138],[-90.39171,38.8125,135],[-90.39187,38.8123,136],[-90.39193,38.81225,136],[-90.39213,38.81217,136],[-90.39238,38.81229,135],[-90.39263,38.81244,134],[-90.39289,38.81259,134],[-90.39319,38.81274,134],[-90.39351,38.8129,133],[-90.39353,38.8129,133],[-90.39361,38.81282,133],[-90.39366,38.81276,134],[-90.39391,38.81261,135],[-90.3941,38.81243,137],[-90.39438,38.81221,138],[-90.39466,38.81196,137],[-90.39489,38.81179,134],[-90.39513,38.81164,132]]],
        "bbox": [
          -90.38406,
          38.81966,
          -90.39513,
          38.81116
        ]
      },
      "properties": {
        "name": "5.6.2014"
      }
    }
  ]
}