{
  "type": "FeatureCollection",
  "features": [
    {
      "type": "Feature",
      "geometry": {
        "type": "MultiLineString",
        "coordinates": [[[-90.39503,38.81174,133],[-90.39499,38.81175,133],[-90.39494,38.81175,133],[-90.39491,38.81174,133],[-90.39487,38.81176,134],[-90.39485,38.81179,134],[-90.39482,38.81181,135],[-90.39478,38.81183,135],[-90.39475,38.81183,135],[-90.39475,38.81186,135],[-90.39472,38.81187,136],[-90.39469,38.81199,136],[-90.39468,38.81206,136],[-90.39471,38.81201,136],[-90.39474,38.812,136],[-90.39474,38.81197,136],[-90.39475,38.81194,136],[-90.39475,38.81191,136],[-90.39476,38.81188,136],[-90.39479,38.81186,135],[-90.39482,38.81184,135],[-90.39485,38.81181,134],[-90.39487,38.81179,134],[-90.3949,38.81177,134],[-90.39493,38.81175,133],[-90.39496,38.81174,133],[-90.39499,38.81172,133],[-90.39502,38.8117,133],[-90.39505,38.81167,133],[-90.39507,38.81165,132],[-90.3951,38.81163,132],[-90.39512,38.8116,132],[-90.39512,38.81158,132],[-90.39514,38.81155,132],[-90.3951,38.81154,132],[-90.39508,38.81156,132],[-90.39507,38.81159,132],[-90.39505,38.81161,132],[-90.39503,38.81164,132],[-90.39501,38.81166,132],[-90.39498,38.81168,133],[-90.39495,38.8117,133],[-90.39492,38.81172,133],[-90.3949,38.81174,134],[-90.39488,38.81177,134],[-90.39486,38.81179,134],[-90.39483,38.81181,134],[-90.39481,38.81183,135],[-90.39478,38.81185,135],[-90.39475,38.81187,136],[-90.39473,38.81189,136],[-90.39472,38.81192,136],[-90.39476,38.81192,136],[-90.39478,38.81189,136],[-90.39481,38.81187,135],[-90.39484,38.81185,135],[-90.39486,38.81183,134],[-90.39489,38.8118,134],[-90.39492,38.81178,134],[-90.39495,38.81176,133],[-90.39498,38.81174,133],[-90.39501,38.81172,133],[-90.39503,38.81169,133],[-90.39505,38.81166,132],[-90.39507,38.81163,132],[-90.39509,38.81161,132],[-90.39511,38.81158,132],[-90.39512,38.81155,132],[-90.39513,38.81158,132],[-90.39511,38.8116,132],[-90.3951,38.81163,132],[-90.39509,38.81165,132],[-90.39506,38.81168,133],[-90.39503,38.8117,133],[-90.395,38.81172,133],[-90.39497,38.81173,133],[-90.39494,38.81175,133],[-90.3949,38.81176,134],[-90.39488,38.81178,134],[-90.39485,38.8118,134],[-90.39482,38.81183,135],[-90.3948,38.81185,135],[-90.39477,38.81187,135],[-90.39474,38.8119,136],[-90.39471,38.81193,136],[-90.39468,38.81195,137],[-90.39465,38.81197,137],[-90.39462,38.81199,137],[-90.3946,38.81201,137],[-90.39457,38.81204,137],[-90.39454,38.81206,137],[-90.39451,38.81208,137],[-90.39449,38.81211,137],[-90.39446,38.81213,137],[-90.39443,38.81215,138],[-90.39441,38.81218,138],[-90.39439,38.81219,138],[-90.39435,38.81221,138],[-90.39433,38.81223,137],[-90.3943,38.81225,137],[-90.39427,38.81227,137],[-90.39424,38.8123,137],[-90.39422,38.81232,137],[-90.3942,38.81234,137],[-90.39418,38.81237,137],[-90.39417,38.81239,137],[-90.39414,38.81241,137],[-90.3941,38.81242,137],[-90.39407,38.81244,137],[-90.39404,38.81246,137],[-90.39401,38.81248,137],[-90.39399,38.8125,137],[-90.39397,38.81252,136],[-90.39395,38.81255,136],[-90.39392,38.81258,136],[-90.3939,38.8126,135],[-90.39387,38.81262,135],[-90.39385,38.81265,135],[-90.39382,38.81267,135],[-90.39379,38.8127,134],[-90.39376,38.81271,134],[-90.39372,38.81273,134],[-90.39369,38.81275,134],[-90.39366,38.81277,134],[-90.39363,38.81279,133],[-90.3936,38.8128,133],[-90.39356,38.81282,133],[-90.39353,38.81284,133],[-90.39349,38.81285,133],[-90.39346,38.81287,133],[-90.39343,38.81289,133],[-90.3934,38.81291,133],[-90.39337,38.81293,133],[-90.39336,38.81295,133],[-90.39333,38.81298,133],[-90.3933,38.81299,133],[-90.39327,38.81301,133],[-90.39323,38.81303,133],[-90.39321,38.81305,133],[-90.39318,38.81308,132],[-90.39316,38.81309,132],[-90.39313,38.81311,132],[-90.39309,38.81314,132],[-90.39306,38.81315,132],[-90.39303,38.81318,133],[-90.393,38.81319,133],[-90.39298,38.81321,133],[-90.39295,38.81324,133],[-90.39293,38.81326,133],[-90.3929,38.81328,134],[-90.39287,38.8133,134],[-90.39284,38.81332,134],[-90.39281,38.81334,134],[-90.39279,38.81336,135],[-90.39276,38.81338,135],[-90.39274,38.81341,136],[-90.39272,38.81343,136],[-90.3927,38.81345,136],[-90.39267,38.81348,137],[-90.39265,38.8135,137],[-90.39262,38.81352,137],[-90.3926,38.81355,138],[-90.39258,38.81358,138],[-90.39257,38.8136,138],[-90.39256,38.81364,138],[-90.39254,38.81366,138],[-90.39252,38.81368,138],[-90.39251,38.81371,138],[-90.39249,38.81374,138],[-90.39247,38.81378,138],[-90.39245,38.81381,137],[-90.39243,38.81383,137],[-90.39241,38.81386,136],[-90.39238,38.81388,135],[-90.39236,38.8139,136],[-90.39233,38.81393,137],[-90.39231,38.81395,138],[-90.39228,38.81397,138],[-90.39227,38.814,140],[-90.39227,38.81403,142],[-90.39227,38.81406,144],[-90.39229,38.81409,146],[-90.39231,38.81412,148],[-90.39234,38.81415,149],[-90.39237,38.81417,150],[-90.3924,38.81419,150],[-90.39243,38.81421,151],[-90.39245,38.81423,151],[-90.39248,38.81425,151],[-90.39251,38.81426,151],[-90.39254,38.81428,152],[-90.39256,38.81431,152],[-90.39258,38.81433,152],[-90.3926,38.81436,153],[-90.39263,38.81438,153],[-90.39266,38.8144,153],[-90.39269,38.81442,153],[-90.39272,38.81443,153],[-90.39276,38.81445,153],[-90.39278,38.81447,152],[-90.39281,38.81449,152],[-90.39284,38.81451,151],[-90.39286,38.81454,150],[-90.39289,38.81457,150],[-90.39291,38.81458,149],[-90.39293,38.81461,149],[-90.39294,38.81464,148],[-90.39297,38.81466,148],[-90.39299,38.81469,147],[-90.39301,38.81471,146],[-90.39304,38.81475,146],[-90.39305,38.81477,146],[-90.39305,38.81482,146],[-90.39304,38.81485,147],[-90.39303,38.81488,147],[-90.39304,38.81491,147],[-90.39306,38.81493,147],[-90.39308,38.81496,147],[-90.39311,38.81498,146],[-90.39314,38.81499,146],[-90.39317,38.81501,145],[-90.39318,38.81504,144],[-90.39319,38.81507,144],[-90.3932,38.8151,143],[-90.39321,38.81513,143],[-90.39322,38.81516,142],[-90.39322,38.81519,142],[-90.39322,38.81521,142],[-90.39321,38.81525,142],[-90.39319,38.81528,142],[-90.39318,38.8153,142],[-90.39315,38.81532,142],[-90.39312,38.81534,142],[-90.39309,38.81535,142],[-90.39305,38.81537,143],[-90.39301,38.81539,143],[-90.39298,38.8154,144],[-90.39295,38.81542,144],[-90.39292,38.81544,144],[-90.39289,38.81546,144],[-90.39287,38.81548,144],[-90.39285,38.81551,144],[-90.39283,38.81553,144],[-90.39282,38.81556,143],[-90.3928,38.81559,143],[-90.39279,38.81563,143],[-90.39279,38.81566,142],[-90.39279,38.81569,142],[-90.39279,38.81573,141],[-90.39278,38.81576,141],[-90.39278,38.81578,140],[-90.39277,38.81581,140],[-90.39276,38.81584,140],[-90.39276,38.81587,140],[-90.39277,38.81589,140],[-90.39275,38.81592,140],[-90.39271,38.81594,142],[-90.39267,38.81595,143],[-90.39264,38.81597,144],[-90.39261,38.816,145],[-90.39261,38.81603,145],[-90.3926,38.81606,145],[-90.39257,38.81608,146],[-90.39254,38.81609,147],[-90.39251,38.81611,148],[-90.39249,38.81614,148],[-90.39246,38.81616,149],[-90.39245,38.81619,148],[-90.39244,38.81622,148],[-90.39243,38.81625,147],[-90.39243,38.81628,147],[-90.39241,38.8163,147],[-90.3924,38.81633,146],[-90.39239,38.81636,146],[-90.39237,38.81639,145],[-90.39236,38.81642,145],[-90.39234,38.81645,145],[-90.39232,38.81647,146],[-90.3923,38.8165,146],[-90.39227,38.81652,146],[-90.39224,38.81654,146],[-90.39222,38.81656,147],[-90.3922,38.81659,147],[-90.39218,38.81661,147],[-90.39215,38.81663,147],[-90.39212,38.81665,148],[-90.39211,38.81669,147],[-90.39209,38.81671,148],[-90.39206,38.81673,148],[-90.39203,38.81676,149],[-90.392,38.81678,149],[-90.39196,38.81682,149],[-90.39194,38.81685,149],[-90.39192,38.81687,149],[-90.39189,38.8169,149],[-90.39186,38.81691,149],[-90.39183,38.81693,148],[-90.39178,38.81694,148],[-90.39175,38.81694,148],[-90.39171,38.81695,147],[-90.39167,38.81696,147],[-90.39163,38.81696,148],[-90.39159,38.81698,148],[-90.39156,38.81699,147],[-90.39153,38.81701,147],[-90.39149,38.81703,147],[-90.39146,38.81704,147],[-90.39143,38.81706,147],[-90.3914,38.81705,148],[-90.39135,38.81705,149],[-90.39131,38.81707,148],[-90.39128,38.81708,149],[-90.39125,38.8171,148],[-90.39124,38.81713,147],[-90.39122,38.81716,146],[-90.39121,38.81718,145],[-90.3912,38.81721,144],[-90.39117,38.81724,144],[-90.39114,38.81726,144],[-90.39111,38.81728,144],[-90.39109,38.8173,144],[-90.39106,38.81734,143],[-90.39102,38.81737,143],[-90.39101,38.81739,143],[-90.39098,38.81743,142],[-90.39094,38.81747,141],[-90.39091,38.81749,141],[-90.39089,38.81751,141],[-90.39086,38.81753,141],[-90.39082,38.81755,141],[-90.39079,38.81757,141],[-90.39075,38.81757,141],[-90.39071,38.81758,142],[-90.39066,38.81759,142],[-90.39063,38.8176,142],[-90.3906,38.81761,142],[-90.39056,38.81763,143],[-90.39053,38.81764,143],[-90.39048,38.81765,143],[-90.39044,38.81766,143],[-90.3904,38.81767,143],[-90.39036,38.81768,144],[-90.39032,38.8177,144],[-90.39029,38.81772,144],[-90.39025,38.81773,144],[-90.39022,38.81774,144],[-90.39018,38.81773,145],[-90.39014,38.81773,146],[-90.3901,38.81774,146],[-90.39007,38.81774,147],[-90.39003,38.81775,147],[-90.38999,38.81776,148],[-90.38996,38.81778,148],[-90.38994,38.8178,148],[-90.38991,38.81783,148],[-90.38987,38.81785,148],[-90.38983,38.81785,148],[-90.38979,38.81785,149],[-90.38975,38.81784,149],[-90.3897,38.81785,150],[-90.38966,38.81786,150],[-90.38962,38.81787,150],[-90.38957,38.81789,150],[-90.38953,38.81791,149],[-90.38949,38.81793,149],[-90.38946,38.81794,149],[-90.38942,38.81795,149],[-90.38938,38.81796,150],[-90.38934,38.81796,150],[-90.3893,38.81795,151],[-90.38927,38.81797,151],[-90.38923,38.81798,151],[-90.38918,38.81798,152],[-90.38914,38.81799,152],[-90.38911,38.818,153],[-90.38907,38.818,154],[-90.389,38.81797,156],[-90.38898,38.81794,158],[-90.38898,38.81788,160],[-90.38899,38.81785,160],[-90.38898,38.81782,161],[-90.38894,38.81783,162],[-90.38893,38.81785,162],[-90.38892,38.81788,161],[-90.38891,38.81791,160],[-90.38889,38.81794,160],[-90.38887,38.81797,159],[-90.38884,38.818,159],[-90.38881,38.81803,159],[-90.38879,38.81806,158],[-90.38876,38.81809,158],[-90.38874,38.81812,157],[-90.38871,38.81814,157],[-90.38869,38.81816,156],[-90.38866,38.81819,155],[-90.38863,38.81821,155],[-90.38861,38.81824,154],[-90.38859,38.81826,153],[-90.38856,38.81828,152],[-90.38853,38.8183,151],[-90.3885,38.81832,150],[-90.38846,38.81833,150],[-90.38843,38.81834,149],[-90.38839,38.81835,149],[-90.38837,38.81838,148],[-90.38837,38.8184,147],[-90.38836,38.81844,145],[-90.38834,38.81846,144],[-90.38832,38.81848,143],[-90.3883,38.81851,142],[-90.38827,38.81853,142],[-90.38825,38.81855,141],[-90.38822,38.81857,141],[-90.38818,38.81859,140],[-90.38817,38.81862,140],[-90.38813,38.81863,140],[-90.38809,38.81863,141],[-90.38805,38.81864,141],[-90.38801,38.81864,142],[-90.38797,38.81865,142],[-90.38793,38.81866,143],[-90.3879,38.81868,143],[-90.38787,38.8187,143],[-90.38784,38.81871,143],[-90.38781,38.81873,143],[-90.38778,38.81874,144],[-90.38774,38.81876,144],[-90.38771,38.81877,143],[-90.38767,38.81879,143],[-90.38764,38.8188,143],[-90.3876,38.81882,143],[-90.38757,38.81884,143],[-90.38755,38.81886,142],[-90.38753,38.81889,141],[-90.38751,38.81891,141],[-90.38748,38.81893,140],[-90.38745,38.81895,140],[-90.38742,38.81897,139],[-90.38739,38.81899,139],[-90.38735,38.81901,138],[-90.38732,38.81902,138],[-90.38728,38.81904,137],[-90.38725,38.81905,137],[-90.38722,38.81906,136],[-90.38718,38.81907,136],[-90.38715,38.81909,135],[-90.38712,38.81911,134],[-90.38708,38.81912,134],[-90.38705,38.81914,133],[-90.38703,38.81916,132],[-90.387,38.81918,132],[-90.38697,38.81919,132],[-90.38694,38.81921,132],[-90.38692,38.81924,133],[-90.38689,38.81926,133],[-90.38686,38.81927,133],[-90.38683,38.81928,133],[-90.38679,38.81929,133],[-90.38676,38.81931,133],[-90.38674,38.81933,133],[-90.38671,38.81935,133],[-90.38668,38.81937,133],[-90.38666,38.81939,132],[-90.38664,38.81942,132],[-90.38662,38.81944,131],[-90.3866,38.81946,131],[-90.38661,38.81949,131],[-90.38659,38.81951,131],[-90.38657,38.81953,131],[-90.38653,38.81954,131],[-90.38649,38.81955,131],[-90.38646,38.81956,131],[-90.38643,38.81958,131],[-90.38639,38.81959,131],[-90.38636,38.8196,131],[-90.38633,38.81961,131],[-90.38628,38.81961,132],[-90.38625,38.81962,132],[-90.38621,38.81963,132],[-90.38617,38.81964,132],[-90.38613,38.81965,132],[-90.38608,38.81966,132],[-90.38605,38.81967,132],[-90.38601,38.81967,132],[-90.38597,38.81968,132],[-90.38592,38.81968,132],[-90.38589,38.81969,132],[-90.38585,38.8197,131],[-90.38582,38.81971,131],[-90.38578,38.8197,131],[-90.38581,38.81971,131],[-90.38585,38.81972,131],[-90.38588,38.81972,131],[-90.38592,38.81972,131],[-90.38595,38.81972,131],[-90.38599,38.81971,131],[-90.38603,38.81971,131],[-90.38607,38.8197,131],[-90.3861,38.81968,132],[-90.38613,38.81967,132],[-90.38617,38.81967,132],[-90.38621,38.81966,132],[-90.38625,38.81966,131],[-90.38629,38.81965,131],[-90.38632,38.81964,131],[-90.38636,38.81964,131],[-90.3864,38.81963,131],[-90.38643,38.81963,131],[-90.38647,38.81961,131],[-90.3865,38.8196,131],[-90.38654,38.81958,131],[-90.38658,38.81956,131],[-90.38661,38.81955,131],[-90.38664,38.81953,131],[-90.38666,38.81951,131],[-90.3867,38.8195,131],[-90.38673,38.8195,131],[-90.38676,38.81949,131],[-90.38679,38.81947,131],[-90.38683,38.81945,131],[-90.38683,38.81942,132],[-90.38687,38.81941,132],[-90.3869,38.81939,132],[-90.38694,38.81938,132],[-90.38697,38.81938,132],[-90.38701,38.81937,132],[-90.38704,38.81936,132],[-90.38707,38.81933,132],[-90.38709,38.81931,132],[-90.38712,38.81929,132],[-90.38714,38.81926,132],[-90.38718,38.81924,132],[-90.38721,38.81922,132],[-90.38725,38.8192,132],[-90.38728,38.81919,132],[-90.38731,38.81917,132],[-90.38734,38.81916,132],[-90.38737,38.81914,133],[-90.3874,38.81913,133],[-90.38741,38.81911,134],[-90.38742,38.81907,136],[-90.38743,38.81903,137],[-90.38743,38.819,138],[-90.38743,38.81898,139],[-90.38744,38.81895,140],[-90.38746,38.81892,141],[-90.38749,38.81889,142],[-90.38751,38.81887,142],[-90.38754,38.81886,142],[-90.38758,38.81885,142],[-90.38761,38.81885,142],[-90.38765,38.81884,142],[-90.38768,38.81883,143],[-90.38772,38.81882,143],[-90.38776,38.81882,143],[-90.3878,38.81881,142],[-90.38782,38.81879,142],[-90.38786,38.81877,142],[-90.38789,38.81875,142],[-90.38792,38.81874,142],[-90.38795,38.81872,142],[-90.38799,38.81871,141],[-90.38803,38.8187,141],[-90.38806,38.81868,141],[-90.38808,38.81866,141],[-90.38811,38.81864,140],[-90.38814,38.81862,140],[-90.38817,38.8186,140],[-90.38819,38.81858,141],[-90.38823,38.81856,141],[-90.38825,38.81854,141],[-90.38826,38.81851,143],[-90.38828,38.81848,143],[-90.3883,38.81846,144],[-90.38833,38.81844,145],[-90.38836,38.81843,145],[-90.38839,38.81841,146],[-90.38843,38.81839,147],[-90.38846,38.81838,148],[-90.38849,38.81837,148],[-90.38851,38.81835,149],[-90.38855,38.81833,150],[-90.38858,38.81832,150],[-90.38862,38.81831,150],[-90.38864,38.81828,152],[-90.38867,38.81826,152],[-90.38869,38.81823,153],[-90.38872,38.81821,153],[-90.38874,38.81818,154],[-90.38875,38.81816,155],[-90.38876,38.81813,156],[-90.38878,38.8181,157],[-90.38881,38.81809,157],[-90.38885,38.81809,156],[-90.38888,38.81808,156],[-90.38892,38.81807,155],[-90.38895,38.81805,155],[-90.38897,38.81803,155],[-90.389,38.81802,155],[-90.38904,38.81802,154],[-90.38907,38.81803,153],[-90.38911,38.81803,152],[-90.38915,38.81802,151],[-90.38919,38.81802,150],[-90.38922,38.81801,150],[-90.38926,38.81801,150],[-90.3893,38.81801,149],[-90.38934,38.81801,149],[-90.38939,38.81802,148],[-90.38943,38.81802,147],[-90.38947,38.81801,147],[-90.3895,38.81801,147],[-90.38954,38.818,148],[-90.38957,38.81801,147],[-90.38961,38.818,147],[-90.38964,38.81799,148],[-90.38968,38.81798,148],[-90.38972,38.81797,148],[-90.38975,38.81796,148],[-90.38979,38.81793,147],[-90.38982,38.81791,147],[-90.38983,38.81789,148],[-90.38985,38.81786,148],[-90.38989,38.81785,147],[-90.38992,38.81783,147],[-90.38995,38.81782,147],[-90.38997,38.8178,147],[-90.39,38.81778,147],[-90.39003,38.81777,147],[-90.39006,38.81776,147],[-90.3901,38.81773,147],[-90.39013,38.81771,146],[-90.39016,38.81769,146],[-90.39019,38.81768,146],[-90.39022,38.81767,146],[-90.39026,38.81766,145],[-90.3903,38.81765,145],[-90.39032,38.81763,145],[-90.39035,38.81761,145],[-90.39038,38.81759,145],[-90.39041,38.81757,146],[-90.39044,38.81755,146],[-90.39046,38.81754,146],[-90.39049,38.81751,146],[-90.39051,38.81748,147],[-90.39055,38.81747,147],[-90.39058,38.81747,146],[-90.39062,38.81747,146],[-90.39065,38.81744,146],[-90.39065,38.81741,147],[-90.39067,38.81739,148],[-90.39069,38.81737,148],[-90.39073,38.81735,148],[-90.39076,38.81735,148],[-90.3908,38.81736,147],[-90.39083,38.81734,147],[-90.39086,38.81732,147],[-90.39089,38.81731,147],[-90.39092,38.81729,147],[-90.39094,38.81727,147],[-90.39097,38.81725,147],[-90.391,38.81723,147],[-90.39103,38.81721,147],[-90.39105,38.81719,148],[-90.39108,38.81717,148],[-90.39112,38.81715,148],[-90.39115,38.81714,148],[-90.39118,38.81712,149],[-90.39122,38.81711,148],[-90.39125,38.8171,148],[-90.39129,38.81707,149],[-90.39132,38.81706,149],[-90.39135,38.81704,149],[-90.39138,38.81702,149],[-90.39142,38.81701,149],[-90.39146,38.817,149],[-90.39149,38.81699,149],[-90.39153,38.81697,149],[-90.39156,38.81696,149],[-90.3916,38.81695,148],[-90.39164,38.81694,148],[-90.39168,38.81693,148],[-90.39171,38.81691,149],[-90.39172,38.81688,149],[-90.39174,38.81685,150],[-90.39175,38.81683,150],[-90.39177,38.8168,151],[-90.39181,38.8168,151],[-90.39183,38.81677,151],[-90.39186,38.81674,151],[-90.39188,38.81672,151],[-90.39192,38.8167,151],[-90.39195,38.81669,150],[-90.39199,38.81666,150],[-90.39201,38.81664,150],[-90.39203,38.81661,150],[-90.39207,38.81659,149],[-90.39209,38.81657,149],[-90.39213,38.81655,149],[-90.39215,38.81652,149],[-90.39216,38.81649,149],[-90.39218,38.81647,149],[-90.39221,38.81644,148],[-90.39223,38.81642,148],[-90.39225,38.8164,148],[-90.39226,38.81637,148],[-90.39227,38.81634,149],[-90.39229,38.81632,149],[-90.3923,38.81629,150],[-90.39232,38.81626,150],[-90.39234,38.81624,150],[-90.39235,38.81621,151],[-90.39236,38.81618,151],[-90.39237,38.81616,151],[-90.3924,38.81614,151],[-90.39243,38.81612,150],[-90.39246,38.8161,150],[-90.39249,38.81609,149],[-90.39253,38.81608,147],[-90.39256,38.81607,146],[-90.39257,38.81604,146],[-90.39258,38.81601,146],[-90.39259,38.81598,145],[-90.39259,38.81595,145],[-90.39259,38.81592,145],[-90.3926,38.81589,145],[-90.39259,38.81586,145],[-90.39258,38.81583,146],[-90.39258,38.8158,147],[-90.39257,38.81577,148],[-90.39257,38.81575,148],[-90.39258,38.81571,149],[-90.39259,38.81568,149],[-90.39261,38.81565,149],[-90.39262,38.81562,149],[-90.39262,38.81559,150],[-90.39263,38.81557,150],[-90.39264,38.81554,150],[-90.39267,38.81552,149],[-90.3927,38.8155,149],[-90.39273,38.81548,148],[-90.39276,38.81546,148],[-90.39279,38.81544,147],[-90.39282,38.81542,147],[-90.39285,38.81541,147],[-90.39288,38.81539,146],[-90.39291,38.81537,146],[-90.39294,38.81535,146],[-90.39297,38.81533,146],[-90.39299,38.8153,146],[-90.39301,38.81527,147],[-90.39302,38.81525,147],[-90.39304,38.81522,146],[-90.39304,38.81519,146],[-90.39305,38.81516,146],[-90.39305,38.81513,147],[-90.39304,38.81511,147],[-90.39303,38.81507,147],[-90.39303,38.81504,147],[-90.39302,38.81501,148],[-90.39301,38.81498,148],[-90.393,38.81495,148],[-90.39299,38.81493,148],[-90.39297,38.81491,148],[-90.39296,38.81488,148],[-90.39296,38.81485,148],[-90.39295,38.81481,148],[-90.39295,38.81478,148],[-90.39294,38.81475,148],[-90.39293,38.81473,148],[-90.39292,38.8147,148],[-90.3929,38.81467,149],[-90.39289,38.81464,149],[-90.39287,38.81462,150],[-90.39285,38.8146,150],[-90.39282,38.81458,151],[-90.3928,38.81455,152],[-90.39277,38.81453,152],[-90.39275,38.8145,153],[-90.39273,38.81447,153],[-90.39269,38.81445,153],[-90.39266,38.81444,154],[-90.39262,38.81443,154],[-90.39259,38.81441,154],[-90.39256,38.81439,154],[-90.39252,38.81437,154],[-90.3925,38.81435,153],[-90.39247,38.81434,153],[-90.39243,38.81432,153],[-90.3924,38.8143,152],[-90.39237,38.81427,152],[-90.39235,38.81425,152],[-90.39233,38.81422,151],[-90.3923,38.8142,151],[-90.39227,38.81417,150],[-90.39225,38.81415,149],[-90.39222,38.81413,148],[-90.39219,38.81411,147],[-90.39217,38.81409,146],[-90.39213,38.81407,145],[-90.39211,38.81405,144],[-90.39207,38.81402,143],[-90.39204,38.814,142],[-90.39202,38.81397,140],[-90.39201,38.81394,139],[-90.39198,38.81392,138],[-90.39195,38.8139,138],[-90.39192,38.81388,138],[-90.39189,38.81387,140],[-90.39186,38.81385,141],[-90.39183,38.81383,142],[-90.39182,38.8138,142],[-90.39179,38.81378,142],[-90.39176,38.81377,143],[-90.39173,38.81375,144],[-90.3917,38.81373,144],[-90.39168,38.8137,144],[-90.39166,38.81367,144],[-90.39164,38.81365,144],[-90.39162,38.81363,144],[-90.3916,38.8136,144],[-90.39159,38.81357,145],[-90.39158,38.81354,145],[-90.39157,38.81351,146],[-90.39155,38.81348,147],[-90.39153,38.81346,147],[-90.39151,38.81343,148],[-90.3915,38.81341,148],[-90.39149,38.81338,149],[-90.39148,38.81335,149],[-90.39145,38.81334,150],[-90.39141,38.81333,150],[-90.39138,38.81332,151],[-90.39135,38.81329,151],[-90.39134,38.81327,151],[-90.39133,38.81324,151],[-90.3913,38.81322,151],[-90.39127,38.8132,152],[-90.39124,38.81319,152],[-90.39121,38.81316,152],[-90.39119,38.81314,153],[-90.39118,38.81311,153],[-90.39117,38.81308,153],[-90.39116,38.81306,153],[-90.39114,38.81303,152],[-90.39112,38.813,152],[-90.39111,38.81297,151],[-90.39109,38.81294,151],[-90.39107,38.81291,150],[-90.39105,38.81289,150],[-90.39103,38.81287,150],[-90.39102,38.81283,149],[-90.39102,38.81281,149],[-90.39102,38.81278,148],[-90.39102,38.81275,147],[-90.39102,38.81272,147],[-90.39101,38.81269,146],[-90.391,38.81265,145],[-90.39099,38.81262,145],[-90.39099,38.81259,144],[-90.39098,38.81256,143],[-90.39098,38.81252,142],[-90.39098,38.8125,142],[-90.39097,38.81247,143],[-90.39095,38.81244,144],[-90.39095,38.81241,144],[-90.39093,38.81239,145],[-90.39091,38.81235,146],[-90.39091,38.81232,147],[-90.3909,38.81229,148],[-90.3909,38.81226,148],[-90.3909,38.81223,149],[-90.39089,38.8122,149],[-90.39089,38.81217,149],[-90.39088,38.81214,149],[-90.39087,38.81211,149],[-90.39087,38.81208,149],[-90.39088,38.81205,149],[-90.39089,38.81202,149],[-90.39091,38.81199,149],[-90.39092,38.81197,149],[-90.39092,38.81194,149],[-90.39091,38.81191,149],[-90.39092,38.81188,149],[-90.39092,38.81185,148],[-90.39091,38.81182,148],[-90.3909,38.81179,147],[-90.39091,38.81176,147],[-90.39092,38.81174,147],[-90.39095,38.81171,146],[-90.39097,38.81168,146],[-90.391,38.81166,145],[-90.39101,38.81163,145],[-90.39103,38.8116,144],[-90.39104,38.81157,144],[-90.39105,38.81154,143],[-90.39105,38.81152,143],[-90.39104,38.81149,142],[-90.39102,38.81146,142],[-90.391,38.81143,142],[-90.39098,38.81141,142],[-90.39096,38.81138,141],[-90.39095,38.81135,141],[-90.39093,38.81133,141],[-90.39091,38.8113,141],[-90.39088,38.81128,141],[-90.39086,38.81126,141],[-90.39083,38.81124,141],[-90.39079,38.81124,142],[-90.39076,38.81125,142],[-90.39072,38.81125,142],[-90.39068,38.81126,142],[-90.39064,38.81127,142],[-90.3906,38.81127,142],[-90.39056,38.81129,142],[-90.39051,38.8113,142],[-90.39047,38.81131,142],[-90.39043,38.81131,142],[-90.3904,38.81129,142],[-90.39038,38.81126,142],[-90.39037,38.81123,142],[-90.39035,38.81121,142],[-90.39032,38.8112,142],[-90.39028,38.8112,142],[-90.39024,38.81118,143],[-90.3902,38.81118,144],[-90.39016,38.81118,144],[-90.39013,38.81117,144],[-90.39009,38.81115,145],[-90.39006,38.81114,145],[-90.39002,38.81113,146],[-90.38998,38.81114,147],[-90.38995,38.81115,147],[-90.38991,38.81116,148],[-90.38987,38.81116,148],[-90.38984,38.81116,149],[-90.3898,38.81117,149],[-90.38975,38.81117,150],[-90.38972,38.81116,150],[-90.38967,38.81116,151],[-90.38964,38.81118,151],[-90.38961,38.8112,151],[-90.38958,38.81121,151],[-90.38953,38.81122,151],[-90.38949,38.81123,151],[-90.38946,38.81124,151],[-90.38943,38.81126,152],[-90.38941,38.81128,152],[-90.38937,38.8113,152],[-90.38933,38.81131,152],[-90.3893,38.81132,152],[-90.38927,38.81134,152],[-90.38924,38.81135,152],[-90.3892,38.81137,152],[-90.38917,38.81139,152],[-90.38914,38.8114,152],[-90.38911,38.81142,153],[-90.38909,38.81144,153],[-90.38906,38.81146,154],[-90.38903,38.81147,155],[-90.38899,38.81148,156],[-90.38896,38.81149,156],[-90.38892,38.8115,157],[-90.38889,38.81152,158],[-90.38886,38.81153,159],[-90.38883,38.81156,160],[-90.3888,38.81158,161],[-90.38877,38.81159,161],[-90.38874,38.81162,162],[-90.38871,38.81163,163],[-90.38867,38.81164,163],[-90.38864,38.81166,164],[-90.38862,38.81169,164],[-90.38861,38.81172,164],[-90.3886,38.81175,164],[-90.38862,38.81177,163],[-90.38864,38.81181,162],[-90.38865,38.81183,162],[-90.38867,38.81186,161],[-90.38869,38.81188,161],[-90.38872,38.81191,160],[-90.38874,38.81194,159],[-90.38876,38.81196,159],[-90.38878,38.81199,159],[-90.38879,38.81202,159],[-90.3888,38.81204,159],[-90.3888,38.81208,160],[-90.3888,38.81211,161],[-90.38879,38.81214,161],[-90.38877,38.81216,162],[-90.38875,38.81218,162],[-90.38872,38.8122,162],[-90.38869,38.81222,163],[-90.38867,38.81224,163],[-90.38864,38.81226,164],[-90.38863,38.81229,165],[-90.38864,38.81232,165],[-90.38865,38.81235,165],[-90.38865,38.81238,166],[-90.38864,38.81241,166],[-90.38863,38.81244,167],[-90.38862,38.81247,168],[-90.3886,38.81249,168],[-90.38859,38.81252,169],[-90.38857,38.81255,170],[-90.38854,38.81257,170],[-90.38852,38.8126,171],[-90.3885,38.81262,172],[-90.38847,38.81264,173],[-90.38845,38.81267,174],[-90.38843,38.81269,175],[-90.38839,38.81271,176],[-90.38835,38.81271,178],[-90.38831,38.8127,179],[-90.38828,38.8127,179],[-90.38827,38.81272,180],[-90.38826,38.81275,181],[-90.38826,38.81278,182],[-90.38823,38.81279,183],[-90.3882,38.81277,183],[-90.38821,38.81274,182],[-90.38826,38.81274,181],[-90.38827,38.81277,181],[-90.38828,38.8128,181],[-90.38828,38.81283,182],[-90.38825,38.81281,182],[-90.38822,38.81283,184],[-90.38819,38.81282,184],[-90.38815,38.81282,185],[-90.38813,38.81285,186],[-90.38811,38.81286,187],[-90.38809,38.81289,188],[-90.3881,38.81292,188],[-90.3881,38.81295,188],[-90.38808,38.81297,189],[-90.38806,38.81299,190],[-90.38806,38.81302,190],[-90.38805,38.81305,190],[-90.38805,38.81308,191],[-90.38804,38.8131,191],[-90.38803,38.81313,192],[-90.38801,38.81316,193],[-90.38799,38.81318,193],[-90.38798,38.81321,194],[-90.38796,38.81324,194],[-90.38793,38.81326,194],[-90.3879,38.81328,195],[-90.38787,38.81329,195],[-90.38783,38.8133,195],[-90.38779,38.81331,195],[-90.38776,38.81331,195],[-90.38773,38.81334,195],[-90.38772,38.81336,195],[-90.38771,38.81339,195],[-90.38769,38.81342,195],[-90.38767,38.81344,195],[-90.38767,38.81347,196],[-90.38766,38.8135,196],[-90.38766,38.81354,196],[-90.38767,38.81356,196],[-90.38766,38.8136,197],[-90.38765,38.81362,197],[-90.38761,38.81364,197],[-90.3876,38.81366,197],[-90.38759,38.81369,197],[-90.38758,38.81372,197],[-90.38758,38.81375,198],[-90.38759,38.81378,198],[-90.3876,38.81381,199],[-90.38762,38.81383,199],[-90.38764,38.81385,199],[-90.38765,38.81388,199],[-90.38766,38.81391,200],[-90.38767,38.81394,200],[-90.38771,38.81394,200],[-90.38775,38.81393,200],[-90.38779,38.81393,199],[-90.38783,38.81392,199],[-90.38786,38.81392,199],[-90.3879,38.81392,199],[-90.38795,38.81392,199],[-90.38799,38.81392,199],[-90.38803,38.81392,199],[-90.38807,38.81391,199],[-90.38811,38.81391,198],[-90.38815,38.81392,198],[-90.38819,38.81392,198],[-90.38823,38.81392,198],[-90.38827,38.81393,198],[-90.38831,38.81394,198],[-90.38835,38.81394,197],[-90.38838,38.81396,197],[-90.38841,38.81397,197],[-90.38844,38.81399,197],[-90.38847,38.814,197],[-90.3885,38.81402,196],[-90.38854,38.81403,196],[-90.38857,38.81405,196],[-90.3886,38.81407,196],[-90.38864,38.81408,195],[-90.38868,38.81409,195],[-90.38871,38.8141,195],[-90.38875,38.81411,194],[-90.38879,38.81412,194],[-90.38882,38.81414,193],[-90.38885,38.81415,193],[-90.38889,38.81417,192],[-90.38893,38.81418,192],[-90.38897,38.81419,192],[-90.38902,38.8142,192],[-90.38906,38.81421,192],[-90.3891,38.81422,192],[-90.38913,38.81424,192],[-90.38917,38.81425,192],[-90.38922,38.81427,191],[-90.38927,38.81428,191],[-90.3893,38.81429,190],[-90.38937,38.8143,189],[-90.38943,38.81433,189],[-90.38946,38.81435,189],[-90.38949,38.81437,189],[-90.38953,38.8144,189],[-90.38954,38.81443,189],[-90.38953,38.81446,189],[-90.38954,38.81449,189],[-90.38954,38.81452,190],[-90.38955,38.81455,190],[-90.38956,38.81458,190],[-90.38956,38.81461,190],[-90.38956,38.81464,190],[-90.38956,38.81467,191],[-90.38957,38.81471,191],[-90.38957,38.81473,191],[-90.38958,38.81477,190],[-90.38959,38.81479,190],[-90.3896,38.81483,190],[-90.3896,38.81485,190],[-90.38962,38.81488,189],[-90.38964,38.81491,189],[-90.38967,38.81495,189],[-90.38969,38.81497,189],[-90.38972,38.815,188],[-90.38975,38.81503,188],[-90.38977,38.81505,187],[-90.3898,38.81508,187],[-90.38982,38.8151,186],[-90.38984,38.81513,186],[-90.38986,38.81515,185],[-90.38989,38.81517,184],[-90.38993,38.8152,184],[-90.38998,38.81522,183],[-90.39002,38.81524,182],[-90.39006,38.81526,182],[-90.39008,38.81527,182],[-90.39012,38.81529,181],[-90.39015,38.8153,181],[-90.39018,38.81532,181],[-90.39022,38.81533,181],[-90.39025,38.81535,180],[-90.39029,38.81537,180],[-90.39034,38.81538,181],[-90.39037,38.81539,181],[-90.39042,38.81541,181],[-90.39045,38.81542,181],[-90.39049,38.81544,182],[-90.39052,38.81545,182],[-90.39056,38.81546,182],[-90.3906,38.81547,183],[-90.39064,38.81548,183],[-90.39067,38.81549,183],[-90.39071,38.8155,184],[-90.39074,38.81551,184],[-90.39078,38.81552,184],[-90.39082,38.81552,185],[-90.39087,38.81552,185],[-90.3909,38.81551,185],[-90.39093,38.8155,185],[-90.39097,38.81551,185],[-90.39099,38.81553,185],[-90.39103,38.81553,185],[-90.39106,38.81552,185],[-90.39108,38.8155,186],[-90.39109,38.81547,186],[-90.3911,38.81544,186],[-90.39111,38.81541,186],[-90.39114,38.8154,186],[-90.39118,38.81538,186],[-90.39122,38.81537,186],[-90.39126,38.81538,186],[-90.3913,38.8154,185],[-90.39134,38.81541,185],[-90.39138,38.81542,185],[-90.39141,38.81543,185],[-90.39144,38.81545,184],[-90.39146,38.81547,184],[-90.39147,38.8155,184],[-90.39148,38.81553,184],[-90.39152,38.81553,183],[-90.39155,38.81555,183],[-90.39158,38.81557,183],[-90.39162,38.8156,182],[-90.39165,38.81562,182],[-90.39167,38.81564,182],[-90.3917,38.81566,181],[-90.39174,38.81566,180],[-90.39177,38.81566,179],[-90.39181,38.81565,178],[-90.39184,38.81566,178],[-90.39188,38.81566,177],[-90.39192,38.81566,176],[-90.39195,38.81568,174],[-90.39192,38.81566,176],[-90.39193,38.81563,176],[-90.39196,38.81561,176],[-90.39197,38.81558,176],[-90.39198,38.81555,176],[-90.39198,38.81552,176],[-90.39197,38.81549,176],[-90.39196,38.81546,176],[-90.39195,38.81544,176],[-90.39193,38.81541,177],[-90.39193,38.81538,176],[-90.39193,38.81535,176],[-90.39194,38.81531,176],[-90.39194,38.81528,176],[-90.39194,38.81525,175],[-90.39195,38.81522,173],[-90.39195,38.81519,172],[-90.39195,38.81516,171],[-90.39195,38.81513,170],[-90.39193,38.8151,170],[-90.39193,38.81507,169],[-90.39192,38.81504,168],[-90.39191,38.81501,167],[-90.39191,38.81498,167],[-90.39192,38.81495,166],[-90.39192,38.81492,165],[-90.39191,38.81489,166],[-90.3919,38.81486,165],[-90.3919,38.81483,165],[-90.3919,38.8148,165],[-90.3919,38.81477,164],[-90.39188,38.81474,165],[-90.39187,38.81472,165],[-90.39185,38.81468,164],[-90.39185,38.81465,164],[-90.39185,38.81463,164],[-90.39184,38.8146,164],[-90.39183,38.81457,164],[-90.39182,38.81454,163],[-90.39182,38.81451,163],[-90.39181,38.81448,163],[-90.39181,38.81445,163],[-90.3918,38.81442,162],[-90.39179,38.81439,161],[-90.39178,38.81437,161],[-90.3918,38.81434,160],[-90.3918,38.81431,159],[-90.39178,38.81428,159],[-90.39177,38.81426,158],[-90.39177,38.81423,158],[-90.3918,38.81421,156],[-90.39184,38.81421,155],[-90.39187,38.81419,154],[-90.39188,38.81416,153],[-90.39191,38.81415,152],[-90.39194,38.81415,151],[-90.39198,38.81415,151],[-90.39202,38.81414,150],[-90.39205,38.81414,150],[-90.39209,38.81413,149],[-90.39212,38.81412,148],[-90.39216,38.81412,148],[-90.3922,38.8141,146],[-90.39223,38.81409,146],[-90.39226,38.81407,144],[-90.39228,38.81404,143],[-90.39231,38.81402,142],[-90.39233,38.814,141],[-90.39236,38.81397,139],[-90.39238,38.81394,138],[-90.3924,38.81392,137],[-90.39241,38.81389,136],[-90.39243,38.81386,137],[-90.39244,38.81384,137],[-90.39246,38.81381,137],[-90.39247,38.81378,138],[-90.39248,38.81375,138],[-90.39249,38.81373,138],[-90.3925,38.8137,138],[-90.39251,38.81367,138],[-90.39253,38.81364,138],[-90.39256,38.81361,138],[-90.39258,38.81358,138],[-90.3926,38.81356,138],[-90.39261,38.81353,137],[-90.39263,38.8135,137],[-90.39265,38.81347,137],[-90.39267,38.81344,136],[-90.39269,38.81342,136],[-90.39271,38.8134,136],[-90.39274,38.81337,135],[-90.39277,38.81335,135],[-90.3928,38.81333,134],[-90.39283,38.81331,134],[-90.39286,38.81329,134],[-90.39289,38.81327,134],[-90.39292,38.81324,133],[-90.39294,38.81323,133],[-90.39297,38.8132,133],[-90.393,38.81318,133],[-90.39303,38.81316,133],[-90.39305,38.81313,133],[-90.39308,38.81311,132],[-90.3931,38.81309,132],[-90.39313,38.81307,132],[-90.39316,38.81304,133],[-90.39319,38.81302,133],[-90.39321,38.81299,133],[-90.39324,38.81297,133],[-90.39327,38.81295,133],[-90.3933,38.81293,133],[-90.39333,38.81292,133],[-90.39336,38.8129,134],[-90.39338,38.81288,134],[-90.39342,38.81288,133],[-90.39346,38.81286,133],[-90.39349,38.81284,133],[-90.39353,38.81281,134],[-90.39355,38.81279,134],[-90.39356,38.81277,134],[-90.39359,38.81275,134],[-90.39364,38.81272,134],[-90.39368,38.81271,134],[-90.39372,38.8127,134],[-90.39375,38.8127,134],[-90.39379,38.81269,134],[-90.39383,38.81268,134],[-90.39386,38.81265,135],[-90.39388,38.81263,135],[-90.3939,38.81259,135],[-90.39391,38.81257,136],[-90.39393,38.81254,136],[-90.39395,38.81252,136],[-90.39398,38.8125,137],[-90.394,38.81248,137],[-90.39403,38.81246,137],[-90.39406,38.81244,137],[-90.39408,38.81241,137],[-90.39411,38.81238,137],[-90.39414,38.81235,137],[-90.39417,38.81233,137],[-90.3942,38.8123,137],[-90.39423,38.81228,137],[-90.39425,38.81226,137],[-90.39429,38.81224,137],[-90.39433,38.81221,138],[-90.39437,38.81219,138],[-90.3944,38.81217,138],[-90.39443,38.81214,138],[-90.39445,38.81212,137],[-90.39447,38.8121,137],[-90.3945,38.81207,137],[-90.39453,38.81204,137],[-90.39455,38.81202,137],[-90.39458,38.812,137],[-90.39461,38.81197,137],[-90.39463,38.81195,137],[-90.39468,38.81193,137],[-90.39471,38.81191,136],[-90.39474,38.81188,136],[-90.39478,38.81185,135],[-90.39482,38.81181,135],[-90.3949,38.81174,134]]],
        "bbox": [
          -90.38578,
          38.81972,
          -90.39514,
          38.81113
        ]
      },
      "properties": {
        "name": "3.26.2022B"
      }
    }
  ]
}