{
  "type": "FeatureCollection",
  "features": [
    {
      "type": "Feature",
      "geometry": {
        "type": "MultiLineString",
        "coordinates": [[[-90.39483,38.81186,135],[-90.39479,38.81188,135],[-90.39474,38.81189,136],[-90.3947,38.81193,136],[-90.39468,38.81198,137],[-90.39466,38.81201,137],[-90.39463,38.81204,137],[-90.39461,38.81207,137],[-90.39458,38.81209,137],[-90.39455,38.81212,137],[-90.39452,38.81215,137],[-90.3945,38.81217,137],[-90.39447,38.8122,137],[-90.39444,38.81222,138],[-90.39441,38.81224,137],[-90.39439,38.81226,137],[-90.39436,38.81228,137],[-90.39433,38.81229,137],[-90.39429,38.81231,137],[-90.39426,38.81234,137],[-90.39424,38.81236,137],[-90.39421,38.81238,137],[-90.39417,38.8124,137],[-90.39414,38.81243,137],[-90.39412,38.81246,137],[-90.3941,38.81248,137],[-90.39408,38.8125,137],[-90.39405,38.81252,136],[-90.39402,38.81254,136],[-90.39399,38.81257,136],[-90.39395,38.8126,135],[-90.39393,38.81262,135],[-90.39389,38.81265,135],[-90.39386,38.81267,135],[-90.39384,38.81269,134],[-90.39381,38.81271,134],[-90.39368,38.81276,134],[-90.39362,38.81276,134],[-90.39358,38.81277,134],[-90.39355,38.81279,134],[-90.39353,38.81282,133],[-90.39351,38.81284,133],[-90.39348,38.81287,133],[-90.39345,38.81289,133],[-90.39341,38.81291,133],[-90.39338,38.81293,133],[-90.39334,38.81294,133],[-90.3933,38.81297,133],[-90.39327,38.81298,133],[-90.39323,38.81299,133],[-90.3932,38.813,133],[-90.39316,38.81302,133],[-90.39312,38.81303,133],[-90.3931,38.81306,132],[-90.39308,38.81309,132],[-90.39306,38.81312,132],[-90.39304,38.81315,133],[-90.39302,38.81317,133],[-90.39299,38.8132,133],[-90.39294,38.81321,133],[-90.39292,38.81324,133],[-90.3929,38.81328,134],[-90.39287,38.81331,134],[-90.39284,38.81333,134],[-90.39282,38.81336,134],[-90.3928,38.81338,135],[-90.39263,38.81358,138],[-90.39261,38.8136,138],[-90.39259,38.81363,138],[-90.39256,38.81365,138],[-90.39254,38.81369,138],[-90.39253,38.81372,138],[-90.39253,38.81375,138],[-90.39251,38.81378,138],[-90.39248,38.8138,138],[-90.39245,38.81383,137],[-90.39243,38.81386,137],[-90.3924,38.81389,136],[-90.39238,38.81391,137],[-90.39235,38.81394,137],[-90.39232,38.81397,139],[-90.39229,38.81399,140],[-90.39225,38.81401,141],[-90.39221,38.81402,141],[-90.39221,38.81405,143],[-90.39224,38.81407,144],[-90.39226,38.81409,146],[-90.39228,38.81413,148],[-90.39229,38.81415,149],[-90.39231,38.81418,150],[-90.39232,38.81421,151],[-90.39234,38.81424,151],[-90.39242,38.8143,152],[-90.39246,38.81431,153],[-90.3925,38.81431,153],[-90.39254,38.81429,152],[-90.39258,38.8143,152],[-90.39261,38.81432,152],[-90.39263,38.81434,152],[-90.39267,38.81439,152],[-90.39269,38.81442,153],[-90.3927,38.81444,153],[-90.39273,38.81447,153],[-90.39275,38.8145,153],[-90.39277,38.81452,152],[-90.3928,38.81455,152],[-90.39288,38.8147,149],[-90.39288,38.81475,149],[-90.39288,38.81479,149],[-90.39289,38.81483,149],[-90.39289,38.81487,149],[-90.3929,38.8149,149],[-90.39291,38.81494,149],[-90.39294,38.81496,148],[-90.393,38.815,148],[-90.39304,38.81502,147],[-90.39307,38.81505,147],[-90.39311,38.81509,146],[-90.39292,38.81537,146],[-90.39288,38.81539,146],[-90.39285,38.81541,147],[-90.39284,38.81544,146],[-90.39282,38.81547,146],[-90.39278,38.8155,146],[-90.39275,38.81551,147],[-90.39271,38.81553,148],[-90.39268,38.81555,149],[-90.39265,38.81558,149],[-90.39264,38.81561,149],[-90.39261,38.81564,149],[-90.3926,38.81567,149],[-90.3926,38.8157,148],[-90.39261,38.81573,147],[-90.39262,38.81576,146],[-90.39263,38.8158,145],[-90.39263,38.81583,144],[-90.39264,38.81586,144],[-90.39264,38.8159,144],[-90.39264,38.81594,144],[-90.39263,38.81598,144],[-90.39263,38.816,144],[-90.39263,38.81603,144],[-90.39261,38.81607,145],[-90.39254,38.81614,147],[-90.39249,38.81616,148],[-90.39245,38.81617,149],[-90.39241,38.81618,150],[-90.39241,38.81621,149],[-90.39242,38.81624,148],[-90.39245,38.81622,148],[-90.39242,38.8162,149],[-90.39241,38.81623,148],[-90.39238,38.81622,150],[-90.39235,38.8162,151],[-90.39233,38.81622,151],[-90.39231,38.81625,151],[-90.39232,38.81628,150],[-90.39229,38.8163,150],[-90.39229,38.81633,149],[-90.39227,38.81635,149],[-90.39225,38.81638,148],[-90.39223,38.81641,148],[-90.39222,38.81644,148],[-90.39221,38.81648,148],[-90.39219,38.81652,148],[-90.39216,38.81654,148],[-90.39213,38.81656,149],[-90.39212,38.81659,148],[-90.3921,38.81661,149],[-90.39207,38.81663,149],[-90.39204,38.81665,149],[-90.39202,38.81668,149],[-90.392,38.81671,149],[-90.39197,38.81674,150],[-90.39195,38.81676,150],[-90.39193,38.81678,150],[-90.39189,38.8168,150],[-90.39186,38.81684,150],[-90.39183,38.81687,149],[-90.39162,38.8169,150],[-90.39158,38.81692,150],[-90.39148,38.81695,151],[-90.39145,38.81697,150],[-90.39143,38.81699,150],[-90.39139,38.81701,150],[-90.39136,38.81705,148],[-90.39134,38.81708,147],[-90.39131,38.81709,148],[-90.39127,38.8171,148],[-90.39124,38.81713,147],[-90.39122,38.81716,146],[-90.3912,38.81718,146],[-90.39118,38.8172,145],[-90.39115,38.81723,145],[-90.39114,38.81726,144],[-90.39102,38.81737,143],[-90.39099,38.81739,143],[-90.39096,38.81741,143],[-90.39095,38.81745,142],[-90.39097,38.81748,141],[-90.391,38.81747,141],[-90.39097,38.81748,141],[-90.39093,38.8175,140],[-90.3909,38.81749,141],[-90.39088,38.81745,143],[-90.39085,38.81744,143],[-90.3908,38.81743,144],[-90.39075,38.81744,145],[-90.39072,38.81746,145],[-90.39069,38.81749,144],[-90.39066,38.81752,144],[-90.39067,38.81755,143],[-90.3907,38.81757,142],[-90.39069,38.8176,142],[-90.39065,38.81763,142],[-90.39061,38.81762,142],[-90.39061,38.81766,141],[-90.39059,38.81768,141],[-90.3906,38.8177,141],[-90.39061,38.81773,140],[-90.39058,38.81776,140],[-90.39055,38.81777,140],[-90.39051,38.81778,140],[-90.39048,38.81778,140],[-90.39044,38.81778,141],[-90.3904,38.81779,141],[-90.39036,38.8178,141],[-90.39033,38.81782,141],[-90.3903,38.81785,142],[-90.39028,38.81787,141],[-90.39025,38.81789,142],[-90.39021,38.81791,142],[-90.39018,38.81792,142],[-90.39015,38.81794,142],[-90.39011,38.81794,143],[-90.39007,38.81793,144],[-90.39003,38.81794,144],[-90.39,38.81795,144],[-90.38996,38.81795,145],[-90.38992,38.81796,145],[-90.38989,38.81797,145],[-90.38985,38.81798,146],[-90.38981,38.818,146],[-90.38978,38.81802,146],[-90.38975,38.81804,146],[-90.38971,38.81805,147],[-90.38965,38.81806,146],[-90.3896,38.81806,146],[-90.38955,38.81805,147],[-90.38952,38.81804,147],[-90.38948,38.81802,147],[-90.38943,38.81802,147],[-90.38938,38.81802,148],[-90.38933,38.81801,149],[-90.38929,38.818,150],[-90.38924,38.81801,150],[-90.38921,38.81803,150],[-90.38917,38.81805,150],[-90.38912,38.81806,150],[-90.38909,38.81807,151],[-90.38905,38.81809,151],[-90.38903,38.81811,151],[-90.389,38.81813,151],[-90.38896,38.81815,151],[-90.38893,38.81815,152],[-90.38889,38.81815,153],[-90.38885,38.81816,153],[-90.38883,38.81818,153],[-90.38882,38.81821,152],[-90.3888,38.81824,151],[-90.38878,38.81828,149],[-90.38875,38.8183,149],[-90.38871,38.81831,149],[-90.38867,38.81832,149],[-90.38864,38.81834,149],[-90.38862,38.81837,148],[-90.3886,38.81839,147],[-90.38857,38.81841,146],[-90.38854,38.81843,145],[-90.3885,38.81845,144],[-90.38845,38.81846,144],[-90.38841,38.81848,143],[-90.38839,38.81851,142],[-90.38839,38.81854,141],[-90.38836,38.81856,140],[-90.38833,38.81858,139],[-90.38832,38.81861,138],[-90.3883,38.81863,138],[-90.38827,38.81866,138],[-90.38823,38.81868,139],[-90.3882,38.8187,139],[-90.38816,38.81871,139],[-90.38811,38.81873,140],[-90.38807,38.81874,140],[-90.38803,38.81876,140],[-90.388,38.81877,140],[-90.38796,38.81878,141],[-90.38792,38.8188,141],[-90.38789,38.81882,141],[-90.38786,38.81884,141],[-90.38782,38.81885,142],[-90.38778,38.81886,142],[-90.38774,38.81888,142],[-90.38771,38.81889,141],[-90.38767,38.8189,141],[-90.38764,38.81891,141],[-90.38759,38.81893,140],[-90.38756,38.81895,140],[-90.38753,38.81898,139],[-90.38751,38.81901,138],[-90.38748,38.81904,137],[-90.38747,38.81907,136],[-90.38744,38.8191,135],[-90.3874,38.81911,134],[-90.38736,38.81913,133],[-90.38731,38.81915,133],[-90.38728,38.81916,132],[-90.38724,38.81917,132],[-90.38721,38.81918,132],[-90.38718,38.81921,132],[-90.38715,38.81923,132],[-90.38712,38.81924,132],[-90.38708,38.81924,132],[-90.38707,38.81927,132],[-90.38704,38.81929,132],[-90.387,38.81929,132],[-90.38696,38.81929,132],[-90.38693,38.81929,132],[-90.3869,38.81931,132],[-90.38687,38.81933,132],[-90.38684,38.81935,132],[-90.38681,38.81936,132],[-90.38678,38.81938,132],[-90.38676,38.81941,132],[-90.38675,38.81943,132],[-90.38673,38.81946,131],[-90.38672,38.81948,131],[-90.38669,38.81946,131],[-90.38673,38.81944,132],[-90.38683,38.81937,132],[-90.38687,38.81935,132],[-90.38691,38.81934,132],[-90.38694,38.81931,132],[-90.38698,38.81931,132],[-90.38698,38.81934,132],[-90.387,38.8193,132],[-90.38702,38.81928,132],[-90.38705,38.81927,132],[-90.38702,38.81925,132],[-90.38707,38.81925,132],[-90.38709,38.81922,132],[-90.38712,38.8192,132],[-90.38716,38.81919,132],[-90.38719,38.81918,132],[-90.38723,38.81916,132],[-90.38726,38.81915,132],[-90.38727,38.81912,134],[-90.38728,38.8191,134],[-90.38731,38.81907,136],[-90.38735,38.81908,135],[-90.38738,38.81911,134],[-90.38734,38.81912,134],[-90.38738,38.81909,135],[-90.38743,38.81906,136],[-90.38748,38.81906,136],[-90.38751,38.81904,137],[-90.38747,38.81906,136],[-90.38743,38.81907,136],[-90.38739,38.81908,135],[-90.38736,38.81909,135],[-90.38732,38.81911,134],[-90.38728,38.81911,134],[-90.38727,38.81908,135],[-90.38727,38.81905,137],[-90.3873,38.81907,136],[-90.38736,38.81905,136],[-90.38746,38.81903,137],[-90.38747,38.819,138],[-90.38746,38.81897,139],[-90.38747,38.81894,140],[-90.38749,38.81892,141],[-90.38753,38.81889,141],[-90.38757,38.81887,142],[-90.38761,38.81886,142],[-90.38765,38.81886,142],[-90.38769,38.81885,142],[-90.38773,38.81882,143],[-90.38776,38.8188,143],[-90.3878,38.81877,143],[-90.38782,38.81875,143],[-90.38783,38.81872,143],[-90.38787,38.8187,143],[-90.38791,38.81868,143],[-90.38795,38.81866,142],[-90.38799,38.81864,142],[-90.38803,38.81864,142],[-90.38807,38.81864,141],[-90.38811,38.81864,140],[-90.38814,38.81862,140],[-90.38818,38.8186,140],[-90.3882,38.81858,141],[-90.38823,38.81854,142],[-90.38833,38.81845,144],[-90.38836,38.81843,145],[-90.38839,38.81841,146],[-90.38843,38.8184,147],[-90.38847,38.81839,147],[-90.3885,38.81837,148],[-90.38853,38.81835,149],[-90.38854,38.81832,150],[-90.38857,38.81829,152],[-90.38858,38.81826,153],[-90.38861,38.81824,154],[-90.38865,38.81823,154],[-90.38868,38.81823,153],[-90.38872,38.81821,153],[-90.38875,38.81818,154],[-90.38877,38.81815,155],[-90.38879,38.81813,156],[-90.38882,38.8181,156],[-90.38883,38.81805,158],[-90.38886,38.81804,158],[-90.3889,38.81805,156],[-90.38894,38.81804,156],[-90.38897,38.81803,155],[-90.38901,38.81802,155],[-90.38904,38.818,154],[-90.38907,38.81799,154],[-90.38911,38.81799,153],[-90.38915,38.818,152],[-90.38919,38.81801,151],[-90.38922,38.81803,150],[-90.38925,38.81801,150],[-90.38928,38.818,150],[-90.38932,38.81801,149],[-90.38936,38.81801,149],[-90.3894,38.818,148],[-90.38944,38.81799,148],[-90.38947,38.81797,148],[-90.38951,38.81795,149],[-90.38955,38.81794,149],[-90.38958,38.81793,149],[-90.38962,38.81791,149],[-90.38966,38.8179,149],[-90.3897,38.8179,149],[-90.38974,38.8179,148],[-90.38977,38.81788,148],[-90.3898,38.81786,148],[-90.38983,38.81783,149],[-90.38984,38.8178,149],[-90.38987,38.81778,149],[-90.38989,38.81775,149],[-90.38991,38.81772,149],[-90.38994,38.81769,150],[-90.38998,38.81768,149],[-90.39002,38.81768,149],[-90.39006,38.81768,148],[-90.39009,38.81767,148],[-90.39014,38.81767,147],[-90.39019,38.81767,146],[-90.39023,38.81767,146],[-90.39027,38.81766,145],[-90.39031,38.81766,145],[-90.39034,38.81764,145],[-90.39038,38.81762,145],[-90.39041,38.8176,145],[-90.39047,38.81759,144],[-90.39049,38.81757,145],[-90.39053,38.81755,145],[-90.39056,38.81753,145],[-90.39059,38.8175,145],[-90.39063,38.8175,144],[-90.39063,38.81747,145],[-90.39059,38.81748,146],[-90.39055,38.81748,146],[-90.39052,38.81748,147],[-90.39054,38.81746,147],[-90.3905,38.81745,148],[-90.39046,38.81745,148],[-90.39042,38.81745,149],[-90.39038,38.81744,149],[-90.39034,38.81743,150],[-90.39031,38.81741,151],[-90.39035,38.81742,150],[-90.3904,38.81743,149],[-90.39045,38.81743,149],[-90.39049,38.81743,149],[-90.39053,38.81742,149],[-90.39056,38.81739,149],[-90.39056,38.81736,151],[-90.39057,38.81733,151],[-90.39054,38.8173,153],[-90.3905,38.81728,154],[-90.39054,38.81728,154],[-90.39051,38.81726,154],[-90.39054,38.81724,155],[-90.39051,38.81721,156],[-90.39047,38.81722,156],[-90.39044,38.81721,156],[-90.39041,38.81723,156],[-90.39038,38.81723,156],[-90.39036,38.8172,157],[-90.39036,38.81717,158],[-90.39036,38.81702,163],[-90.39038,38.81699,164],[-90.39039,38.81695,165],[-90.39041,38.81693,166],[-90.3904,38.8169,166],[-90.3904,38.81687,166],[-90.39045,38.81687,166],[-90.39048,38.81687,166],[-90.39053,38.81684,166],[-90.39054,38.81681,166],[-90.3905,38.81685,166],[-90.39048,38.81687,166],[-90.39044,38.81689,166],[-90.3904,38.81687,166],[-90.39038,38.81685,167],[-90.39036,38.81683,167],[-90.39035,38.81679,167],[-90.39035,38.81676,167],[-90.39034,38.81673,168],[-90.39029,38.81671,168],[-90.39026,38.81671,168],[-90.39027,38.81674,168],[-90.39029,38.81676,168],[-90.39034,38.81683,167],[-90.39034,38.81688,167],[-90.39038,38.81688,166],[-90.39042,38.81689,166],[-90.39049,38.8169,165],[-90.39053,38.81689,165],[-90.39056,38.81687,165],[-90.39059,38.81685,165],[-90.39062,38.81683,165],[-90.39066,38.81681,165],[-90.3907,38.8168,165],[-90.3908,38.81679,164],[-90.39082,38.81677,165],[-90.3908,38.81675,165],[-90.39083,38.81673,165],[-90.39085,38.81676,165],[-90.39084,38.81673,165],[-90.39086,38.8167,166],[-90.39088,38.81667,166],[-90.39085,38.81669,166],[-90.39081,38.81669,166],[-90.39078,38.81669,166],[-90.39076,38.81666,167],[-90.39072,38.81666,167],[-90.39069,38.81669,167],[-90.39068,38.81671,166],[-90.39067,38.81674,166],[-90.39066,38.81678,166],[-90.39065,38.81681,165],[-90.39066,38.81684,165],[-90.3907,38.81685,164],[-90.39069,38.81688,164],[-90.39068,38.81691,164],[-90.39065,38.81692,164],[-90.39065,38.81689,164],[-90.39065,38.81686,165],[-90.39061,38.81686,165],[-90.39063,38.81689,164],[-90.39065,38.81693,164],[-90.39069,38.81696,162],[-90.39066,38.81693,164],[-90.39064,38.81691,164],[-90.39063,38.81688,165],[-90.39062,38.81685,165],[-90.39063,38.81682,165],[-90.39064,38.81679,166],[-90.39065,38.81676,166],[-90.39066,38.81674,166],[-90.39065,38.81671,167],[-90.39061,38.81669,167],[-90.39058,38.81671,167],[-90.39056,38.81674,167],[-90.39052,38.81676,167],[-90.3905,38.81673,167],[-90.39048,38.8167,167],[-90.39044,38.81669,168],[-90.39039,38.8167,168],[-90.39043,38.8167,168],[-90.39048,38.81671,167],[-90.39051,38.81671,167],[-90.39055,38.8167,167],[-90.39057,38.81668,167],[-90.39054,38.81667,168],[-90.3905,38.81667,168],[-90.39046,38.81668,168],[-90.39043,38.8167,168],[-90.39041,38.8166,169],[-90.39043,38.81657,169],[-90.39044,38.81654,170],[-90.39045,38.81651,170],[-90.39049,38.8165,170],[-90.39049,38.81647,171],[-90.39046,38.81644,171],[-90.39049,38.81645,171],[-90.39053,38.81646,171],[-90.39056,38.81649,171],[-90.39059,38.81649,171],[-90.39063,38.81649,171],[-90.39063,38.81652,170],[-90.3906,38.81654,170],[-90.39062,38.81656,169],[-90.39065,38.81658,169],[-90.39066,38.81655,170],[-90.39069,38.81657,169],[-90.3907,38.8166,168],[-90.39071,38.81657,169],[-90.39074,38.81655,169],[-90.39078,38.81653,170],[-90.39082,38.81652,170],[-90.39085,38.81651,170],[-90.39087,38.81648,171],[-90.39088,38.81646,172],[-90.39089,38.81643,172],[-90.39085,38.81641,173],[-90.39086,38.81638,173],[-90.39091,38.81638,173],[-90.39096,38.81638,173],[-90.39096,38.81635,173],[-90.39095,38.81631,174],[-90.39094,38.81629,174],[-90.39092,38.81627,174],[-90.39092,38.81623,175],[-90.39091,38.8162,175],[-90.3909,38.81617,176],[-90.39094,38.81615,176],[-90.39098,38.81613,176],[-90.39098,38.81609,176],[-90.39098,38.81606,177],[-90.39102,38.81604,177],[-90.39105,38.81602,178],[-90.39108,38.81599,178],[-90.39111,38.81596,179],[-90.39113,38.81594,179],[-90.39114,38.81591,180],[-90.39114,38.81588,180],[-90.39113,38.81585,181],[-90.39113,38.81583,181],[-90.39113,38.8158,182],[-90.39112,38.81577,182],[-90.39111,38.81574,183],[-90.39112,38.8157,183],[-90.39112,38.81567,184],[-90.39112,38.81564,184],[-90.39116,38.81564,184],[-90.39118,38.81561,184],[-90.39118,38.81558,185],[-90.39117,38.81555,185],[-90.39118,38.81553,185],[-90.39119,38.8155,185],[-90.3912,38.81544,186],[-90.39117,38.81542,186],[-90.39121,38.81541,186],[-90.39125,38.81541,186],[-90.39128,38.81543,185],[-90.39133,38.81544,185],[-90.39136,38.81546,185],[-90.3914,38.81548,185],[-90.39144,38.8155,184],[-90.39147,38.81552,184],[-90.3915,38.81554,184],[-90.39153,38.81556,183],[-90.39155,38.81559,183],[-90.39157,38.81562,182],[-90.39159,38.81565,182],[-90.39161,38.81567,182],[-90.39164,38.81569,181],[-90.39168,38.8157,181],[-90.39172,38.81569,180],[-90.39185,38.8157,177],[-90.3918,38.81575,177],[-90.3918,38.81578,177],[-90.39175,38.81578,178],[-90.39171,38.81577,179],[-90.39167,38.81576,180],[-90.39164,38.81574,181],[-90.39161,38.81571,181],[-90.39158,38.81569,182],[-90.39155,38.81566,182],[-90.39152,38.81563,183],[-90.39149,38.81561,183],[-90.39146,38.81559,184],[-90.39143,38.81556,184],[-90.39139,38.81554,185],[-90.39136,38.81553,185],[-90.39132,38.81551,185],[-90.39128,38.81549,185],[-90.39124,38.81548,185],[-90.3912,38.81548,185],[-90.39116,38.81548,186],[-90.39112,38.81548,186],[-90.39108,38.81548,186],[-90.39105,38.81549,186],[-90.39102,38.8155,185],[-90.39099,38.81552,185],[-90.39096,38.81553,185],[-90.39093,38.81554,185],[-90.39089,38.81555,185],[-90.39085,38.81556,185],[-90.39081,38.81556,184],[-90.39077,38.81556,184],[-90.39073,38.81555,183],[-90.3907,38.81553,183],[-90.39066,38.81553,183],[-90.39063,38.81552,183],[-90.39059,38.81551,182],[-90.39055,38.81551,182],[-90.39051,38.81551,181],[-90.39047,38.8155,181],[-90.39044,38.81548,181],[-90.3904,38.81546,180],[-90.39036,38.81544,180],[-90.39033,38.81543,180],[-90.39028,38.81543,179],[-90.39025,38.81542,179],[-90.3902,38.81541,179],[-90.39017,38.8154,180],[-90.39013,38.81539,180],[-90.39009,38.81537,180],[-90.39005,38.81535,180],[-90.39002,38.81533,181],[-90.38999,38.8153,181],[-90.38995,38.81528,182],[-90.38993,38.81527,182],[-90.38989,38.81525,183],[-90.38985,38.81524,183],[-90.38981,38.81522,184],[-90.38979,38.8152,184],[-90.38975,38.81518,185],[-90.38972,38.81515,185],[-90.3897,38.81514,186],[-90.38967,38.81511,186],[-90.38964,38.81509,187],[-90.38961,38.81506,187],[-90.38958,38.81504,187],[-90.38955,38.81501,188],[-90.38952,38.81499,188],[-90.3895,38.81497,188],[-90.38949,38.81493,188],[-90.38947,38.8149,189],[-90.38947,38.81487,189],[-90.38946,38.81484,189],[-90.38947,38.81481,190],[-90.38947,38.81478,190],[-90.38946,38.81475,190],[-90.38945,38.81472,191],[-90.38946,38.81468,190],[-90.38946,38.81465,190],[-90.38946,38.81461,190],[-90.38946,38.81458,190],[-90.38946,38.81455,190],[-90.38946,38.81452,190],[-90.38945,38.81448,190],[-90.38943,38.81445,190],[-90.38941,38.81442,190],[-90.38939,38.81439,190],[-90.38935,38.81437,190],[-90.38932,38.81435,190],[-90.38928,38.81433,191],[-90.38922,38.81431,191],[-90.38919,38.8143,192],[-90.38915,38.81428,192],[-90.38911,38.81426,192],[-90.38908,38.81424,192],[-90.38905,38.81423,192],[-90.38902,38.81423,192],[-90.38902,38.81426,192],[-90.38899,38.81428,192],[-90.38895,38.81428,192],[-90.3889,38.81427,192],[-90.38887,38.81426,193],[-90.38883,38.81426,193],[-90.38879,38.81423,194],[-90.38876,38.81421,194],[-90.38872,38.8142,195],[-90.38868,38.81418,196],[-90.38865,38.81416,196],[-90.38861,38.81415,196],[-90.38857,38.81414,197],[-90.38853,38.81413,197],[-90.38848,38.81411,197],[-90.38843,38.81409,197],[-90.38838,38.81407,198],[-90.38833,38.81404,198],[-90.38829,38.81402,198],[-90.38824,38.81401,198],[-90.38819,38.81399,198],[-90.38814,38.81399,199],[-90.3881,38.814,199],[-90.38803,38.81401,199],[-90.38798,38.81401,199],[-90.38793,38.81402,199],[-90.38788,38.81402,199],[-90.38763,38.81401,200],[-90.38764,38.81399,200],[-90.3876,38.81396,200],[-90.38757,38.81393,200],[-90.38754,38.81391,200],[-90.38752,38.81389,199],[-90.38749,38.81387,199],[-90.38747,38.81384,199],[-90.38748,38.81381,198],[-90.38749,38.81377,198],[-90.38748,38.81374,197],[-90.38747,38.81372,197],[-90.38747,38.81368,196],[-90.38748,38.81354,195],[-90.38749,38.81351,195],[-90.38752,38.81349,195],[-90.38755,38.81345,195],[-90.38756,38.81341,194],[-90.38755,38.81339,194],[-90.38754,38.81335,194],[-90.38756,38.81333,194],[-90.38761,38.81333,194],[-90.38765,38.81332,194],[-90.38768,38.81331,195],[-90.38772,38.8133,195],[-90.38777,38.81329,195],[-90.3878,38.81328,195],[-90.38783,38.81325,194],[-90.38787,38.81324,194],[-90.38789,38.81321,194],[-90.38791,38.81318,193],[-90.38793,38.81315,193],[-90.38796,38.81312,192],[-90.38798,38.81308,191],[-90.388,38.81304,191],[-90.38801,38.813,190],[-90.38801,38.81296,190],[-90.38802,38.81292,189],[-90.38803,38.81288,189],[-90.38804,38.81284,188],[-90.38808,38.81281,187],[-90.38813,38.8128,186],[-90.38818,38.81278,184],[-90.38822,38.81276,182],[-90.38826,38.81274,181],[-90.38831,38.81275,180],[-90.38834,38.81273,178],[-90.38837,38.81271,177],[-90.3884,38.81268,176],[-90.38844,38.81266,174],[-90.38847,38.81265,173],[-90.3885,38.81263,172],[-90.38853,38.81264,171],[-90.38857,38.81261,170],[-90.38857,38.81258,170],[-90.3886,38.81256,169],[-90.3886,38.81253,169],[-90.38859,38.81249,169],[-90.38858,38.81246,168],[-90.38859,38.81243,168],[-90.38855,38.81242,168],[-90.38852,38.81239,168],[-90.38851,38.81236,168],[-90.38853,38.81233,167],[-90.38854,38.81231,166],[-90.38857,38.81228,165],[-90.38859,38.81226,165],[-90.38864,38.81224,164],[-90.38868,38.81224,163],[-90.38871,38.81223,163],[-90.38874,38.81222,163],[-90.38876,38.81219,162],[-90.38878,38.81217,162],[-90.38878,38.81211,161],[-90.38874,38.81211,161],[-90.38871,38.81209,161],[-90.38867,38.81207,162],[-90.38864,38.81205,162],[-90.38863,38.81201,162],[-90.38861,38.81198,162],[-90.38858,38.81196,162],[-90.38855,38.81195,163],[-90.38851,38.81194,163],[-90.38848,38.81192,164],[-90.38848,38.81189,164],[-90.38849,38.81186,164],[-90.3885,38.81182,164],[-90.38851,38.81179,164],[-90.38853,38.81175,164],[-90.38855,38.81172,164],[-90.38857,38.81169,165],[-90.3886,38.81167,165],[-90.38863,38.81165,164],[-90.38866,38.81162,164],[-90.38869,38.81159,163],[-90.3887,38.81156,163],[-90.38871,38.81153,162],[-90.38873,38.81151,162],[-90.38877,38.81151,161],[-90.3888,38.81153,160],[-90.38884,38.81152,160],[-90.38887,38.81151,159],[-90.38891,38.81151,158],[-90.38895,38.8115,157],[-90.38891,38.81151,158],[-90.38886,38.8115,159]],[[-90.39033,38.81113,142],[-90.39039,38.81117,142],[-90.39046,38.8112,142],[-90.3905,38.81121,142],[-90.39054,38.81122,142],[-90.39058,38.81123,142],[-90.39061,38.81123,142],[-90.39066,38.81122,142],[-90.3907,38.81121,142],[-90.39073,38.8112,141],[-90.39077,38.81119,141],[-90.3908,38.81117,141],[-90.39082,38.8112,141],[-90.39085,38.81121,141],[-90.39088,38.81124,141],[-90.3909,38.81126,141],[-90.3909,38.81128,141],[-90.39101,38.81135,141],[-90.39104,38.81138,141],[-90.39105,38.81141,141],[-90.39106,38.81145,142],[-90.39106,38.81148,142],[-90.39106,38.81152,143],[-90.39103,38.81154,143],[-90.391,38.81156,144],[-90.39096,38.81158,144],[-90.39093,38.8116,145],[-90.39091,38.81163,145],[-90.39093,38.81165,146],[-90.39091,38.81168,146],[-90.39089,38.81172,147],[-90.39087,38.81175,147],[-90.39087,38.81177,147],[-90.39086,38.81181,148],[-90.39087,38.81184,148],[-90.39087,38.81187,148],[-90.39086,38.81191,148],[-90.39086,38.81194,149],[-90.39085,38.81197,149],[-90.39084,38.812,149],[-90.39084,38.81203,149],[-90.39084,38.81206,149],[-90.39086,38.81208,149],[-90.3909,38.81208,149],[-90.3909,38.81205,149],[-90.39087,38.81204,149],[-90.39087,38.81207,149],[-90.3909,38.81209,149],[-90.39088,38.81211,149],[-90.39086,38.81209,149],[-90.39083,38.81214,149],[-90.39087,38.81215,149],[-90.3909,38.81218,149],[-90.39093,38.8122,149],[-90.39094,38.81223,149],[-90.39094,38.81226,148],[-90.39093,38.81229,148],[-90.39093,38.81232,147],[-90.39094,38.81235,146],[-90.39096,38.81239,145],[-90.39097,38.81241,144],[-90.39097,38.81244,144],[-90.39097,38.81247,143],[-90.39099,38.8125,142],[-90.39099,38.81253,143],[-90.391,38.81257,143],[-90.39101,38.8126,144],[-90.391,38.81263,145],[-90.39101,38.81266,145],[-90.39102,38.81269,146],[-90.39101,38.81273,147],[-90.39101,38.81276,148],[-90.39102,38.81279,148],[-90.39107,38.81284,149],[-90.39109,38.81288,149],[-90.39111,38.81291,150],[-90.39112,38.81293,150],[-90.39113,38.81297,151],[-90.39114,38.813,152],[-90.39115,38.81304,153],[-90.39116,38.81307,153],[-90.39117,38.81309,153],[-90.3912,38.81312,152],[-90.39124,38.81314,152],[-90.39128,38.81315,151],[-90.39132,38.81317,151],[-90.39132,38.8132,151],[-90.39133,38.81324,151],[-90.39136,38.81327,151],[-90.39139,38.81329,150],[-90.39144,38.81331,150],[-90.39151,38.81335,149],[-90.39153,38.81336,148],[-90.39156,38.81339,147],[-90.39158,38.81342,147],[-90.3916,38.81345,146],[-90.39161,38.81348,146],[-90.39163,38.81351,145],[-90.39164,38.81354,144],[-90.39164,38.81357,144],[-90.39165,38.8136,143],[-90.39167,38.81363,143],[-90.3917,38.81366,143],[-90.39171,38.81368,143],[-90.39174,38.81371,143],[-90.39177,38.81373,143],[-90.3918,38.81375,142],[-90.39183,38.81378,141],[-90.39186,38.81379,141],[-90.39189,38.81382,140],[-90.39193,38.81385,138],[-90.39196,38.81387,137],[-90.39199,38.81389,137],[-90.39203,38.81392,138],[-90.39205,38.81394,138],[-90.39209,38.81396,139],[-90.39213,38.81398,140],[-90.39217,38.814,140],[-90.3922,38.81403,142],[-90.39224,38.81406,144],[-90.39228,38.81408,145],[-90.39233,38.81407,145],[-90.39234,38.81403,142],[-90.39234,38.81399,140],[-90.39235,38.81396,139],[-90.39236,38.81392,137],[-90.39238,38.81388,135],[-90.39241,38.81385,136],[-90.39243,38.81382,137],[-90.39246,38.8138,137],[-90.39249,38.81379,138],[-90.39252,38.81381,138],[-90.39256,38.81382,138],[-90.39257,38.81379,138],[-90.39256,38.81377,138],[-90.39255,38.81361,138],[-90.39254,38.81358,138],[-90.39255,38.81355,138],[-90.39255,38.81352,138],[-90.39257,38.81348,137],[-90.39259,38.81345,137],[-90.39261,38.81342,136],[-90.39263,38.8134,136],[-90.39265,38.81337,136],[-90.39267,38.81335,135],[-90.3927,38.81333,135],[-90.39274,38.81331,135],[-90.39277,38.81329,134],[-90.39281,38.81327,134],[-90.39285,38.81324,134],[-90.39289,38.81322,133],[-90.39291,38.8132,133],[-90.39294,38.81318,133],[-90.39296,38.81316,133],[-90.39299,38.81314,133],[-90.39301,38.81312,133],[-90.39304,38.81309,133],[-90.39307,38.81307,132],[-90.3931,38.81305,133],[-90.39313,38.81303,133],[-90.39315,38.813,133],[-90.3932,38.81297,133],[-90.39325,38.81294,133],[-90.39328,38.81292,133],[-90.39331,38.8129,134],[-90.39334,38.81288,134],[-90.39337,38.81287,134],[-90.3934,38.81285,134],[-90.39343,38.81284,134],[-90.39346,38.81283,134],[-90.39349,38.81281,134],[-90.39352,38.8128,134],[-90.39356,38.81278,134],[-90.39359,38.81276,134],[-90.39362,38.81275,134],[-90.39365,38.81273,134],[-90.39368,38.81271,134],[-90.39371,38.81269,134],[-90.39375,38.81267,134],[-90.39379,38.81265,135],[-90.39383,38.81262,135],[-90.39387,38.8126,135],[-90.3939,38.81257,136],[-90.39393,38.81254,136],[-90.39397,38.81251,136],[-90.394,38.81248,137],[-90.39402,38.81246,137],[-90.39406,38.81244,137],[-90.39409,38.8124,137],[-90.39411,38.81237,137],[-90.39414,38.81235,137],[-90.39416,38.81233,137],[-90.39419,38.81231,137],[-90.39421,38.81229,137],[-90.39424,38.81227,137],[-90.39428,38.81224,137],[-90.39431,38.81222,138],[-90.39435,38.8122,138],[-90.39438,38.81218,138],[-90.3944,38.81216,138],[-90.39443,38.81214,138],[-90.39446,38.81212,137],[-90.39448,38.8121,137],[-90.39451,38.81208,137],[-90.39454,38.81206,137],[-90.39456,38.81204,137],[-90.39459,38.81202,137],[-90.39461,38.81199,137],[-90.39463,38.81197,137],[-90.39466,38.81194,137],[-90.39469,38.81192,136],[-90.39471,38.8119,136],[-90.39474,38.81188,136],[-90.39476,38.81185,135],[-90.39478,38.81183,135],[-90.39481,38.81181,135],[-90.39483,38.81179,134],[-90.39486,38.81176,134],[-90.39489,38.81174,134],[-90.39492,38.81172,133],[-90.39496,38.8117,133],[-90.39499,38.81168,133],[-90.39492,38.8117,133]]],
        "bbox": [
          -90.38669,
          38.81948,
          -90.39499,
          38.81113
        ]
      },
      "properties": {
        "name": "11.28.2020A"
      }
    }
  ]
}