{
  "type": "FeatureCollection",
  "features": [
    {
      "type": "Feature",
      "geometry": {
        "type": "MultiLineString",
        "coordinates": [[[-90.39086,38.81121,141],[-90.39093,38.81125,141],[-90.39098,38.8113,141],[-90.39103,38.81135,141],[-90.39107,38.8114,141],[-90.39112,38.81144,141],[-90.39115,38.81148,141],[-90.39118,38.81153,142],[-90.39117,38.81158,142],[-90.3911,38.81161,144],[-90.39105,38.81164,145],[-90.391,38.81168,146],[-90.39096,38.81172,146],[-90.39093,38.81176,147],[-90.39091,38.81181,148],[-90.3909,38.81186,148],[-90.39091,38.81191,149],[-90.39092,38.81197,149],[-90.39093,38.81202,149],[-90.39092,38.81208,149],[-90.39091,38.81214,149],[-90.3909,38.8122,149],[-90.39091,38.81226,148],[-90.39092,38.81231,147],[-90.39093,38.81237,146],[-90.39095,38.81243,144],[-90.39097,38.81248,143],[-90.39098,38.81254,143],[-90.39099,38.81259,144],[-90.391,38.81264,145],[-90.39101,38.81269,146],[-90.39103,38.81274,147],[-90.39104,38.81279,148],[-90.39105,38.81284,149],[-90.39107,38.81289,150],[-90.39114,38.81293,150],[-90.3912,38.81296,150],[-90.39124,38.813,150],[-90.39128,38.81304,151],[-90.3913,38.81309,151],[-90.39133,38.81314,151],[-90.39135,38.81318,151],[-90.39138,38.81322,150],[-90.39141,38.81325,150],[-90.39144,38.81329,149],[-90.39148,38.81333,149],[-90.39151,38.81336,149],[-90.39155,38.8134,148],[-90.39161,38.8134,147],[-90.39166,38.81341,145],[-90.39169,38.81344,145],[-90.39172,38.81348,144],[-90.39175,38.81352,143],[-90.39177,38.81356,142],[-90.39179,38.81361,142],[-90.39181,38.81365,142],[-90.39184,38.8137,141],[-90.39186,38.81373,141],[-90.39189,38.81377,140],[-90.39193,38.81381,139],[-90.39197,38.81385,138],[-90.39202,38.81389,136],[-90.39206,38.81393,138],[-90.39211,38.81397,139],[-90.39215,38.814,141],[-90.39219,38.81402,141],[-90.39223,38.81405,143],[-90.39228,38.81409,146],[-90.39233,38.81412,148],[-90.39239,38.81416,150],[-90.39231,38.81418,150],[-90.39223,38.8142,151],[-90.39214,38.81421,152],[-90.39206,38.81423,152],[-90.39197,38.81425,153],[-90.39191,38.8142,153],[-90.39187,38.81413,152],[-90.3918,38.81413,153],[-90.39188,38.81416,153],[-90.39191,38.8142,153],[-90.39189,38.81424,155],[-90.39186,38.81429,157],[-90.39182,38.81433,159],[-90.39184,38.81439,160],[-90.39185,38.81444,161],[-90.39186,38.8145,162],[-90.39188,38.81455,162],[-90.39192,38.8146,161],[-90.39194,38.81466,162],[-90.39194,38.81472,163],[-90.39195,38.81478,163],[-90.39196,38.81483,163],[-90.39197,38.81488,164],[-90.39198,38.81493,164],[-90.39198,38.81499,164],[-90.39199,38.81505,166],[-90.392,38.8151,168],[-90.39202,38.81515,169],[-90.39203,38.8152,170],[-90.39203,38.81526,173],[-90.39203,38.81531,173],[-90.39203,38.81537,173],[-90.39204,38.81542,173],[-90.39204,38.81547,173],[-90.39205,38.81553,173],[-90.39205,38.81558,172],[-90.39206,38.81563,171],[-90.39205,38.81568,170],[-90.39205,38.81573,169],[-90.39205,38.81579,168],[-90.39204,38.81571,170],[-90.39204,38.81565,171],[-90.39195,38.81566,175],[-90.39186,38.81566,177],[-90.39177,38.81566,179],[-90.39169,38.81566,181],[-90.3917,38.81572,180],[-90.39173,38.81578,178],[-90.39174,38.81586,177],[-90.39175,38.81591,176],[-90.39176,38.81596,174],[-90.39177,38.81602,172],[-90.39177,38.81607,171],[-90.39177,38.81612,170],[-90.39177,38.81616,169],[-90.39176,38.81621,167],[-90.39175,38.81625,166],[-90.39174,38.81629,165],[-90.39173,38.81634,163],[-90.39172,38.81639,162],[-90.39166,38.81643,162],[-90.39163,38.81648,162],[-90.39159,38.81654,161],[-90.39155,38.8166,160],[-90.39151,38.81665,159],[-90.39143,38.81667,160],[-90.39136,38.81666,162],[-90.39129,38.81669,162],[-90.39125,38.81673,162],[-90.39121,38.81678,161],[-90.39116,38.81682,160],[-90.39107,38.81683,161],[-90.39098,38.81681,163],[-90.39097,38.81672,165],[-90.39092,38.81678,164],[-90.39084,38.81682,164],[-90.39073,38.81684,164],[-90.39063,38.81684,165],[-90.39054,38.81685,166],[-90.39045,38.81688,166],[-90.39046,38.81696,165],[-90.39047,38.81702,163],[-90.39051,38.81708,160],[-90.39051,38.81716,158],[-90.39054,38.81724,155],[-90.39055,38.81733,152],[-90.39058,38.81742,148],[-90.39063,38.81747,145],[-90.39057,38.81751,145],[-90.39047,38.81752,146],[-90.39038,38.81754,147],[-90.3903,38.81758,147],[-90.39033,38.81763,145],[-90.39029,38.81771,144],[-90.39029,38.81777,143],[-90.39027,38.81783,142],[-90.39023,38.81788,142],[-90.39016,38.81791,143],[-90.39009,38.81791,144],[-90.39001,38.81792,145],[-90.38993,38.81793,146],[-90.38987,38.81796,146],[-90.3898,38.81798,147],[-90.38972,38.818,147],[-90.38965,38.81801,147],[-90.38957,38.81803,147],[-90.3895,38.81805,147],[-90.38943,38.81806,146],[-90.38936,38.81807,147],[-90.38929,38.81807,148],[-90.38922,38.81805,149],[-90.38918,38.818,151],[-90.38912,38.81799,153],[-90.38905,38.81803,153],[-90.389,38.81807,153],[-90.38893,38.81811,153],[-90.38886,38.81811,155],[-90.3888,38.8181,157],[-90.38872,38.81811,158],[-90.38865,38.81813,158],[-90.38857,38.81814,159],[-90.38865,38.81817,157],[-90.3886,38.81822,155],[-90.38854,38.81827,152],[-90.38849,38.81833,150],[-90.38848,38.8184,147],[-90.38847,38.81846,144],[-90.38845,38.81853,141],[-90.38842,38.81859,138],[-90.38835,38.81861,138],[-90.38828,38.81864,138],[-90.38821,38.81866,139],[-90.38815,38.81869,140],[-90.38807,38.8187,140],[-90.388,38.81871,141],[-90.38793,38.81872,142],[-90.38786,38.81874,143],[-90.38781,38.81877,143],[-90.38775,38.8188,143],[-90.3877,38.81882,143],[-90.38764,38.81884,142],[-90.38758,38.81887,142],[-90.38751,38.8189,141],[-90.38746,38.81893,140],[-90.38741,38.81897,139],[-90.38735,38.819,138],[-90.38731,38.81904,137],[-90.38726,38.81908,135],[-90.38722,38.81912,134],[-90.38717,38.81916,132],[-90.38724,38.81919,132],[-90.38728,38.81926,132],[-90.3873,38.81933,132],[-90.38731,38.81923,132],[-90.38731,38.81917,132],[-90.38727,38.8192,132],[-90.38722,38.81924,132],[-90.38718,38.81928,132],[-90.38718,38.81933,132],[-90.38712,38.81936,132],[-90.38706,38.81938,132],[-90.38701,38.81939,132],[-90.38696,38.81941,132],[-90.38691,38.81943,132],[-90.38686,38.81946,131],[-90.38682,38.81948,131],[-90.38678,38.8195,131],[-90.38674,38.81953,131],[-90.3867,38.81955,131],[-90.38667,38.81958,131],[-90.38662,38.81961,131],[-90.38658,38.81964,131],[-90.38662,38.81967,131],[-90.38659,38.8197,131],[-90.38655,38.81972,131],[-90.38653,38.81967,131],[-90.38658,38.81963,131],[-90.38665,38.81962,131],[-90.38671,38.8196,131],[-90.38677,38.81957,131],[-90.38683,38.81954,131],[-90.38689,38.81951,131],[-90.38695,38.81947,131],[-90.387,38.81943,132],[-90.38706,38.8194,132],[-90.38714,38.81937,132],[-90.3872,38.81933,132],[-90.38726,38.8193,132],[-90.3872,38.81926,132],[-90.38719,38.8192,132],[-90.38723,38.81916,132],[-90.38727,38.81912,134],[-90.38728,38.81906,136],[-90.38735,38.81904,137],[-90.38743,38.81904,137],[-90.3875,38.81903,137],[-90.38753,38.81897,139],[-90.38755,38.81889,141],[-90.38758,38.81884,143],[-90.38762,38.81879,144],[-90.38769,38.81875,144],[-90.38778,38.81873,144],[-90.38785,38.8187,143],[-90.38792,38.81867,143],[-90.38798,38.81864,142],[-90.3879,38.81861,144],[-90.38797,38.81859,143],[-90.38805,38.81857,143],[-90.38812,38.81855,143],[-90.38819,38.81854,142],[-90.38827,38.81852,142],[-90.38833,38.8185,142],[-90.38839,38.81848,143],[-90.38844,38.81844,145],[-90.38846,38.81837,148],[-90.38848,38.81831,151],[-90.38851,38.81826,153],[-90.38856,38.81821,155],[-90.38859,38.81817,157],[-90.38864,38.81812,159],[-90.38858,38.81809,161],[-90.3886,38.81803,163],[-90.38867,38.81801,162],[-90.38876,38.81798,161],[-90.38884,38.81795,160],[-90.38894,38.81793,159],[-90.38902,38.81792,157],[-90.3891,38.81791,156],[-90.38919,38.81789,154],[-90.38927,38.81788,153],[-90.38936,38.81786,152],[-90.38945,38.81785,151],[-90.38954,38.81784,151],[-90.38963,38.81782,150],[-90.38971,38.8178,150],[-90.3898,38.81778,150],[-90.38991,38.81776,149],[-90.39,38.81774,148],[-90.39008,38.81772,147],[-90.39016,38.8177,146],[-90.39025,38.81767,145],[-90.39033,38.81764,145],[-90.3904,38.81762,145],[-90.39048,38.81759,144],[-90.39055,38.81756,144],[-90.39063,38.81753,144],[-90.39071,38.8175,143],[-90.39079,38.81747,143],[-90.39086,38.81744,143],[-90.39094,38.81741,143],[-90.39101,38.81738,143],[-90.39108,38.81736,142],[-90.39114,38.81733,142],[-90.39118,38.81725,144],[-90.3912,38.8172,145],[-90.39118,38.81714,148],[-90.39123,38.81708,149],[-90.39131,38.81705,149],[-90.39142,38.81705,147],[-90.3915,38.81701,148],[-90.39159,38.81697,148],[-90.39167,38.81693,148],[-90.39173,38.81687,149],[-90.39181,38.81685,150],[-90.39173,38.81683,150],[-90.3918,38.8168,151],[-90.39188,38.81678,150],[-90.39193,38.81673,150],[-90.39196,38.81666,150],[-90.39199,38.81662,150],[-90.39204,38.81657,150],[-90.3921,38.81654,150],[-90.39215,38.8165,149],[-90.3922,38.81647,148],[-90.39224,38.81642,148],[-90.39228,38.81638,148],[-90.39233,38.81633,148],[-90.39235,38.81628,149],[-90.39238,38.81623,149],[-90.39241,38.81618,150],[-90.39244,38.81614,150],[-90.39247,38.81609,149],[-90.39252,38.81605,148],[-90.39257,38.81601,146],[-90.39262,38.81596,145],[-90.39266,38.81591,143],[-90.39269,38.81586,142],[-90.39268,38.8158,143],[-90.39261,38.81577,146],[-90.39254,38.81574,149],[-90.39249,38.8157,152],[-90.39249,38.81563,154],[-90.3925,38.81558,155],[-90.39256,38.81552,153],[-90.39262,38.81547,152],[-90.39269,38.81541,151],[-90.39276,38.81535,151],[-90.39283,38.81531,150],[-90.3929,38.81527,149],[-90.39296,38.81523,148],[-90.39302,38.8152,147],[-90.39307,38.81516,146],[-90.39313,38.81511,145],[-90.39317,38.81506,144],[-90.39316,38.815,145],[-90.39308,38.81498,147],[-90.39298,38.81496,148],[-90.39292,38.81493,148],[-90.39286,38.81489,149],[-90.39281,38.81484,150],[-90.3928,38.81479,151],[-90.3928,38.81473,151],[-90.39281,38.81467,151],[-90.39281,38.81461,151],[-90.39281,38.81454,152],[-90.39279,38.81449,152],[-90.39275,38.81444,153],[-90.3927,38.81441,153],[-90.39264,38.81438,153],[-90.39259,38.81435,152],[-90.39254,38.81431,152],[-90.39249,38.81427,152],[-90.39243,38.81425,151],[-90.39236,38.81423,151],[-90.39229,38.81422,151],[-90.39222,38.8142,151],[-90.39218,38.81418,151],[-90.39213,38.81414,149],[-90.39211,38.81409,146],[-90.3921,38.81404,144],[-90.39208,38.81399,141],[-90.39204,38.81395,139],[-90.39199,38.81391,138],[-90.39195,38.81387,138],[-90.3919,38.81384,139],[-90.39186,38.8138,141],[-90.3918,38.81377,142],[-90.39175,38.81374,143],[-90.3917,38.8137,144],[-90.39165,38.81367,144],[-90.3916,38.81363,144],[-90.39155,38.81359,146],[-90.39151,38.81355,147],[-90.39148,38.81351,148],[-90.3915,38.81346,148],[-90.39153,38.81341,148],[-90.39153,38.81336,148],[-90.39148,38.81332,149],[-90.39143,38.81329,150],[-90.39137,38.81326,150],[-90.39132,38.81323,151],[-90.39127,38.81321,152],[-90.39122,38.81317,152],[-90.39117,38.81313,153],[-90.39112,38.81309,153],[-90.39108,38.81305,154],[-90.39104,38.81301,153],[-90.39101,38.81297,152],[-90.39098,38.81292,151],[-90.39097,38.81287,151],[-90.39096,38.81283,150],[-90.39094,38.81278,149],[-90.39092,38.81274,148],[-90.3909,38.81269,147],[-90.39088,38.81264,147],[-90.39089,38.8126,145],[-90.39095,38.81257,144],[-90.39097,38.81252,142],[-90.39097,38.81247,143],[-90.39095,38.81242,144],[-90.39095,38.81238,145],[-90.39093,38.81234,146],[-90.39091,38.81228,148],[-90.39089,38.81223,149],[-90.39087,38.81218,149],[-90.39085,38.81213,149],[-90.39084,38.81207,149],[-90.39082,38.81202,149],[-90.39082,38.81196,149],[-90.39083,38.81191,148],[-90.39084,38.81186,148],[-90.39085,38.81181,148],[-90.39085,38.81176,147],[-90.39086,38.81171,147],[-90.39087,38.81167,146],[-90.39092,38.81163,145],[-90.39097,38.8116,145],[-90.39104,38.81157,144],[-90.39108,38.81153,143],[-90.39112,38.81149,142],[-90.39115,38.81145,141],[-90.39112,38.81141,141],[-90.39107,38.81138,141],[-90.39102,38.81136,141],[-90.39098,38.81132,141],[-90.39094,38.81129,141],[-90.3909,38.81126,141],[-90.39085,38.81122,141],[-90.3908,38.81118,141],[-90.39076,38.81114,141],[-90.39073,38.81109,141],[-90.39072,38.81104,140],[-90.39078,38.81101,140],[-90.39082,38.81096,139],[-90.39084,38.81092,138],[-90.39083,38.81087,138],[-90.39081,38.81084,138],[-90.3908,38.8108,138],[-90.39079,38.81076,138],[-90.39077,38.81073,138],[-90.39073,38.81073,139],[-90.39069,38.81076,139],[-90.39076,38.81074,138]]],
        "bbox": [
          -90.38653,
          38.81972,
          -90.39317,
          38.81073
        ]
      },
      "properties": {
        "name": "12.26.2025"
      }
    }
  ]
}