{
  "type": "FeatureCollection",
  "features": [
    {
      "type": "Feature",
      "geometry": {
        "type": "MultiLineString",
        "coordinates": [[[-90.39486,38.81179,134],[-90.39483,38.81181,134],[-90.3948,38.81184,135],[-90.39476,38.81187,135],[-90.39473,38.81189,136],[-90.3947,38.81192,136],[-90.39468,38.81195,137],[-90.39465,38.81198,137],[-90.39463,38.81199,137],[-90.3946,38.81201,137],[-90.39457,38.81204,137],[-90.39453,38.81206,137],[-90.3945,38.81208,137],[-90.39447,38.81211,137],[-90.39444,38.81214,138],[-90.39441,38.81216,138],[-90.39438,38.81218,138],[-90.39435,38.81221,138],[-90.39432,38.81223,137],[-90.39429,38.81226,137],[-90.39427,38.81229,137],[-90.39424,38.81232,137],[-90.39422,38.81234,137],[-90.39419,38.81237,137],[-90.39416,38.8124,137],[-90.39413,38.81242,137],[-90.3941,38.81245,137],[-90.39407,38.81247,137],[-90.39404,38.8125,137],[-90.39401,38.81251,136],[-90.39398,38.81253,136],[-90.39395,38.81255,136],[-90.39391,38.81257,136],[-90.39388,38.81258,136],[-90.39383,38.81261,135],[-90.3938,38.81262,135],[-90.39377,38.81265,135],[-90.39373,38.81267,134],[-90.39371,38.81269,134],[-90.39368,38.81272,134],[-90.39366,38.81274,134],[-90.39363,38.81277,134],[-90.3936,38.81279,133],[-90.39358,38.81281,133],[-90.39354,38.81284,133],[-90.39351,38.81285,133],[-90.39347,38.81287,133],[-90.39344,38.81289,133],[-90.39339,38.81291,133],[-90.39336,38.81293,133],[-90.39332,38.81295,133],[-90.39328,38.81298,133],[-90.39325,38.81301,133],[-90.39322,38.81303,133],[-90.39319,38.81305,133],[-90.39316,38.81309,132],[-90.39314,38.81312,132],[-90.39312,38.81314,132],[-90.39309,38.81316,132],[-90.39305,38.81319,133],[-90.39302,38.81322,133],[-90.393,38.81325,133],[-90.39297,38.81327,133],[-90.39296,38.8133,133],[-90.39294,38.81333,133],[-90.39291,38.81336,134],[-90.39288,38.81337,134],[-90.39286,38.8134,135],[-90.39283,38.81342,135],[-90.39281,38.81344,135],[-90.39278,38.81346,136],[-90.39276,38.81348,136],[-90.39274,38.81351,137],[-90.39273,38.81354,137],[-90.3927,38.81357,137],[-90.39266,38.81359,138],[-90.39263,38.81362,138],[-90.3926,38.81365,138],[-90.39258,38.81367,138],[-90.39257,38.8137,138],[-90.39256,38.81373,138],[-90.39254,38.81377,138],[-90.39253,38.8138,138],[-90.39251,38.81383,138],[-90.39249,38.81385,137],[-90.39247,38.81388,137],[-90.39245,38.81391,138],[-90.39243,38.81393,138],[-90.39241,38.81396,140],[-90.39238,38.81398,140],[-90.39236,38.81401,142],[-90.39233,38.81404,143],[-90.39229,38.81407,145],[-90.39226,38.81409,146],[-90.39223,38.8141,146],[-90.39227,38.8141,146],[-90.39231,38.81411,147],[-90.39233,38.81413,148],[-90.39235,38.81416,150],[-90.39238,38.81418,150],[-90.39241,38.8142,150],[-90.39244,38.81422,151],[-90.39248,38.81425,151],[-90.39251,38.81427,152],[-90.39254,38.81429,152],[-90.39257,38.81431,152],[-90.3926,38.81433,152],[-90.39263,38.81435,152],[-90.39266,38.81437,152],[-90.3927,38.81439,152],[-90.39273,38.81442,152],[-90.39275,38.81445,153],[-90.39278,38.81447,152],[-90.39282,38.81449,151],[-90.39286,38.8145,151],[-90.39289,38.81452,150],[-90.39293,38.81454,149],[-90.39295,38.81457,148],[-90.39297,38.8146,148],[-90.39299,38.81464,147],[-90.39299,38.81467,147],[-90.39299,38.81471,147],[-90.39298,38.81475,147],[-90.39298,38.81479,147],[-90.39298,38.81482,147],[-90.393,38.81485,147],[-90.39302,38.81488,147],[-90.39303,38.81492,147],[-90.39305,38.81495,147],[-90.39307,38.81498,147],[-90.39311,38.815,146],[-90.39313,38.81503,146],[-90.39315,38.81505,145],[-90.39317,38.81508,144],[-90.39319,38.8151,144],[-90.3932,38.81513,143],[-90.3932,38.81517,143],[-90.39319,38.8152,143],[-90.39316,38.81523,143],[-90.39314,38.81526,143],[-90.39311,38.81529,144],[-90.39308,38.81532,144],[-90.39305,38.81534,144],[-90.39303,38.81536,144],[-90.393,38.81539,143],[-90.39296,38.81542,144],[-90.39293,38.81544,144],[-90.39289,38.81546,144],[-90.39286,38.81547,145],[-90.39281,38.81548,146],[-90.39277,38.8155,146],[-90.39273,38.81551,148],[-90.39271,38.81554,148],[-90.39269,38.81557,148],[-90.39267,38.8156,148],[-90.39264,38.81563,148],[-90.39262,38.81567,148],[-90.39261,38.8157,148],[-90.39261,38.81573,147],[-90.39261,38.81576,147],[-90.39261,38.81578,146],[-90.39262,38.81581,145],[-90.39264,38.81585,144],[-90.39265,38.81588,144],[-90.39267,38.81591,143],[-90.39268,38.81595,143],[-90.39268,38.81598,143],[-90.39268,38.81602,143],[-90.39266,38.81605,143],[-90.39263,38.81608,144],[-90.3926,38.81611,145],[-90.39256,38.81613,146],[-90.39252,38.81615,147],[-90.39248,38.81617,148],[-90.39244,38.81619,149],[-90.39241,38.81621,149],[-90.39239,38.81624,149],[-90.39237,38.81626,149],[-90.39234,38.81628,149],[-90.39232,38.81632,148],[-90.39229,38.81635,148],[-90.39229,38.81638,147],[-90.39229,38.81641,147],[-90.39229,38.81645,146],[-90.39225,38.81647,147],[-90.39223,38.8165,147],[-90.39221,38.81653,147],[-90.3922,38.81657,147],[-90.39219,38.81661,147],[-90.39216,38.81663,147],[-90.39213,38.81666,147],[-90.3921,38.81668,148],[-90.39207,38.8167,148],[-90.39202,38.81672,149],[-90.39199,38.81673,149],[-90.39198,38.81676,149],[-90.39195,38.81679,149],[-90.39192,38.81681,150],[-90.39189,38.81683,150],[-90.39187,38.81685,149],[-90.39184,38.81688,149],[-90.39182,38.81691,149],[-90.39181,38.81694,148],[-90.39179,38.81697,147],[-90.39177,38.817,146],[-90.39175,38.81702,145],[-90.39172,38.81703,144],[-90.39167,38.81706,143],[-90.39164,38.81707,143],[-90.3916,38.81709,143],[-90.39156,38.8171,143],[-90.39152,38.81711,143],[-90.39149,38.81713,143],[-90.39146,38.81715,143],[-90.39145,38.81718,141],[-90.39143,38.8172,141],[-90.39141,38.81722,140],[-90.39138,38.81725,140],[-90.39135,38.81728,140],[-90.39133,38.8173,140],[-90.3913,38.81732,140],[-90.39125,38.81734,140],[-90.39121,38.81735,140],[-90.39118,38.81736,141],[-90.39114,38.81738,141],[-90.3911,38.8174,141],[-90.39107,38.81742,141],[-90.39104,38.81745,141],[-90.39101,38.81747,140],[-90.39098,38.8175,140],[-90.39095,38.81752,140],[-90.39092,38.81754,140],[-90.39088,38.81756,140],[-90.39085,38.81759,140],[-90.39083,38.81762,139],[-90.39084,38.81764,139],[-90.39081,38.81766,139],[-90.39077,38.81767,139],[-90.39074,38.81769,139],[-90.39071,38.81771,139],[-90.39067,38.81773,139],[-90.39064,38.81774,139],[-90.3906,38.81776,139],[-90.39056,38.81778,139],[-90.39052,38.81779,140],[-90.39047,38.8178,140],[-90.39043,38.81781,141],[-90.39039,38.81782,141],[-90.39035,38.81784,141],[-90.39033,38.81787,141],[-90.3903,38.81789,141],[-90.39026,38.81791,141],[-90.39022,38.81791,142],[-90.39018,38.81791,142],[-90.39014,38.81792,143],[-90.3901,38.81792,144],[-90.39006,38.81793,144],[-90.39002,38.81795,144],[-90.38997,38.81796,145],[-90.38993,38.81797,145],[-90.38989,38.81798,145],[-90.38985,38.81799,146],[-90.3898,38.818,146],[-90.38976,38.81802,146],[-90.38972,38.81804,147],[-90.38969,38.81806,146],[-90.38965,38.81806,146],[-90.38961,38.81806,146],[-90.38956,38.81806,146],[-90.38953,38.81804,147],[-90.3895,38.81803,147],[-90.38945,38.81803,147],[-90.38941,38.81803,147],[-90.38937,38.81803,148],[-90.38933,38.81802,149],[-90.38929,38.81801,149],[-90.38924,38.81801,150],[-90.38919,38.81802,150],[-90.38914,38.81802,151],[-90.3891,38.81803,152],[-90.38907,38.81804,152],[-90.38904,38.81807,152],[-90.389,38.81808,153],[-90.38896,38.81809,153],[-90.38892,38.8181,154],[-90.38889,38.81812,154],[-90.38887,38.81815,153],[-90.38885,38.81818,152],[-90.38883,38.81821,151],[-90.3888,38.81824,151],[-90.38877,38.81827,150],[-90.38872,38.81829,150],[-90.38867,38.81829,151],[-90.38863,38.81831,150],[-90.3886,38.81836,148],[-90.38854,38.81838,148],[-90.38848,38.8184,147],[-90.38843,38.81843,145],[-90.38838,38.81846,144],[-90.38837,38.8185,142],[-90.38834,38.81852,141],[-90.3883,38.81854,141],[-90.38829,38.81857,140],[-90.38828,38.8186,139],[-90.38825,38.81862,139],[-90.38823,38.81865,139],[-90.3882,38.81867,139],[-90.38818,38.81869,139],[-90.38815,38.8187,139],[-90.38809,38.8187,140],[-90.38806,38.8187,140],[-90.38802,38.81872,141],[-90.38799,38.81873,141],[-90.38796,38.81875,141],[-90.38792,38.81877,141],[-90.38789,38.8188,141],[-90.38786,38.81881,142],[-90.38782,38.81883,142],[-90.38779,38.81884,142],[-90.38775,38.81885,142],[-90.38771,38.81887,142],[-90.38767,38.81888,142],[-90.38763,38.81889,141],[-90.38759,38.81891,141],[-90.38756,38.81893,140],[-90.38753,38.81895,140],[-90.3875,38.81898,139],[-90.38747,38.819,138],[-90.38745,38.81903,137],[-90.38743,38.81906,136],[-90.3874,38.81909,135],[-90.38737,38.8191,135],[-90.38733,38.81912,134],[-90.3873,38.81914,133],[-90.38727,38.81917,132],[-90.38724,38.81918,132],[-90.3872,38.81919,132],[-90.38717,38.81921,132],[-90.38714,38.81924,132],[-90.38711,38.81925,132],[-90.38709,38.81928,132],[-90.38705,38.8193,132],[-90.38701,38.81931,132],[-90.38697,38.81932,132],[-90.38693,38.81934,132],[-90.38689,38.81935,132],[-90.38686,38.81936,132],[-90.38682,38.81937,132],[-90.38679,38.81939,132],[-90.38677,38.81942,132],[-90.38674,38.81944,132],[-90.3867,38.81946,131],[-90.38666,38.81947,131],[-90.38666,38.8195,131],[-90.38667,38.81954,131],[-90.38667,38.81957,131],[-90.38664,38.81959,131],[-90.3866,38.8196,131],[-90.38657,38.81962,131],[-90.38655,38.81965,131],[-90.38652,38.81967,131],[-90.38648,38.81969,131],[-90.38643,38.8197,131],[-90.38639,38.81971,131],[-90.38635,38.81972,131],[-90.3863,38.81973,131],[-90.38626,38.81974,131],[-90.38622,38.81974,131],[-90.38618,38.81975,131],[-90.38614,38.81976,131],[-90.38609,38.81977,131],[-90.38605,38.81977,131],[-90.38601,38.81977,131],[-90.38598,38.81978,131],[-90.38593,38.81979,131],[-90.38589,38.8198,131],[-90.38584,38.8198,131],[-90.3858,38.8198,131],[-90.38577,38.81981,131],[-90.38572,38.81982,131],[-90.38569,38.81982,131],[-90.38565,38.81982,131],[-90.38561,38.81981,131],[-90.38557,38.8198,131],[-90.38552,38.81979,131],[-90.38549,38.81978,131],[-90.38544,38.81977,131],[-90.3854,38.81976,131],[-90.38537,38.81976,131],[-90.38533,38.81977,131],[-90.38528,38.81979,131],[-90.38524,38.8198,131],[-90.38519,38.8198,131],[-90.38514,38.8198,131],[-90.3851,38.8198,131],[-90.38506,38.8198,131],[-90.38503,38.81981,131],[-90.38499,38.81981,131],[-90.38495,38.81981,132],[-90.38491,38.81981,133],[-90.38487,38.81981,134],[-90.38482,38.81981,135],[-90.38477,38.81981,136],[-90.38472,38.81981,137],[-90.38469,38.81982,137],[-90.38465,38.81983,136],[-90.38463,38.81985,136],[-90.38461,38.81989,134],[-90.38459,38.81992,133],[-90.38458,38.81995,132],[-90.38456,38.81997,132],[-90.38453,38.81999,131],[-90.3845,38.82001,131],[-90.38448,38.82003,131],[-90.38449,38.82,131],[-90.3845,38.81997,132],[-90.38451,38.81994,133],[-90.38452,38.81991,134],[-90.38456,38.81991,134],[-90.38457,38.81988,135],[-90.38456,38.81994,133],[-90.38453,38.81996,132],[-90.38452,38.81999,131],[-90.3845,38.82002,131],[-90.38448,38.82005,131],[-90.38446,38.82007,131],[-90.38446,38.8201,131],[-90.38443,38.82012,131]],[[-90.38434,38.82008,131],[-90.38437,38.82007,131],[-90.38441,38.82007,131],[-90.38444,38.82006,131],[-90.38446,38.82002,131],[-90.38447,38.82,131],[-90.38449,38.81997,132],[-90.3845,38.81995,132],[-90.38451,38.81992,133],[-90.38453,38.8199,134],[-90.38454,38.81992,133],[-90.38453,38.81995,132],[-90.38451,38.81998,131],[-90.38448,38.82,131],[-90.38447,38.82003,131],[-90.38445,38.82006,131],[-90.38443,38.82009,131],[-90.38442,38.82012,131],[-90.38442,38.8201,131],[-90.38444,38.82007,131],[-90.38446,38.82004,131],[-90.38448,38.82001,131],[-90.38449,38.81998,131],[-90.38449,38.81995,132],[-90.3845,38.81992,133],[-90.38453,38.81989,134],[-90.38455,38.81987,135],[-90.38457,38.81984,136],[-90.38459,38.81981,137],[-90.38462,38.8198,137],[-90.38466,38.8198,137],[-90.3847,38.81979,138],[-90.38474,38.81978,138],[-90.38478,38.81977,137],[-90.38481,38.81978,136],[-90.38486,38.81978,135],[-90.3849,38.81979,133],[-90.38494,38.8198,132],[-90.38498,38.8198,131],[-90.38502,38.8198,131],[-90.38506,38.8198,131],[-90.3851,38.8198,131],[-90.38514,38.8198,131],[-90.38518,38.8198,131],[-90.38521,38.81978,131],[-90.38525,38.81977,131],[-90.38528,38.81976,131],[-90.38532,38.81975,131],[-90.38536,38.81974,131],[-90.38539,38.81974,131],[-90.38544,38.81974,131],[-90.38549,38.81974,131],[-90.38553,38.81975,131],[-90.38557,38.81976,131],[-90.38561,38.81976,131],[-90.38565,38.81976,131],[-90.38569,38.81977,131],[-90.38572,38.81978,131],[-90.38577,38.81978,131],[-90.38582,38.81977,131],[-90.38585,38.81978,131],[-90.38587,38.8198,131],[-90.38585,38.81982,131],[-90.38582,38.81984,131],[-90.38593,38.81976,131],[-90.38596,38.81975,131],[-90.386,38.81975,131],[-90.38604,38.81975,131],[-90.38608,38.81973,131],[-90.38612,38.81972,131],[-90.38616,38.81971,131],[-90.38619,38.81971,131],[-90.38623,38.8197,131],[-90.38628,38.81969,131],[-90.38632,38.81968,131],[-90.38636,38.81967,131],[-90.38641,38.81965,131],[-90.38645,38.81964,131],[-90.38648,38.81961,131],[-90.3865,38.81958,131],[-90.38653,38.81957,131],[-90.38657,38.81956,131],[-90.38662,38.81954,131],[-90.38665,38.81953,131],[-90.38668,38.81951,131],[-90.38669,38.81948,131],[-90.38672,38.81946,131],[-90.38675,38.81944,132],[-90.38677,38.8194,132],[-90.38679,38.81938,132],[-90.38683,38.81937,132],[-90.38686,38.81935,132],[-90.3869,38.81934,132],[-90.38692,38.81932,132],[-90.38696,38.81929,132],[-90.387,38.81928,132],[-90.38704,38.81926,132],[-90.38707,38.81924,132],[-90.38711,38.81922,132],[-90.38717,38.81921,132],[-90.3872,38.81918,132],[-90.38723,38.81916,132],[-90.38727,38.81914,133],[-90.3873,38.81912,134],[-90.38734,38.8191,135],[-90.38738,38.81909,135],[-90.38742,38.81908,135],[-90.38745,38.81906,136],[-90.38746,38.81903,137],[-90.38747,38.819,138],[-90.3875,38.81897,139],[-90.38752,38.81894,140],[-90.38754,38.81891,141],[-90.38757,38.81888,142],[-90.38761,38.81887,142],[-90.38766,38.81886,142],[-90.38769,38.81885,142],[-90.38773,38.81885,142],[-90.38778,38.81885,142],[-90.38781,38.81883,142],[-90.38784,38.81881,142],[-90.38787,38.81879,142],[-90.3879,38.81876,142],[-90.38793,38.81874,142],[-90.38796,38.81872,142],[-90.38801,38.8187,141],[-90.38804,38.81869,141],[-90.3881,38.81869,140],[-90.38814,38.81867,140],[-90.38817,38.81865,140],[-90.38819,38.81863,139],[-90.38823,38.81861,139],[-90.38825,38.81859,140],[-90.38826,38.81856,141],[-90.38829,38.81854,141],[-90.38834,38.81852,141],[-90.38836,38.81849,143],[-90.38837,38.81847,144],[-90.3884,38.81844,145],[-90.38843,38.81842,146],[-90.38847,38.8184,147],[-90.3885,38.81838,148],[-90.38853,38.81834,149],[-90.38855,38.81832,150],[-90.38858,38.8183,151],[-90.3886,38.81827,152],[-90.38863,38.81826,153],[-90.38868,38.81824,153],[-90.38871,38.81823,153],[-90.38874,38.81822,153],[-90.38877,38.81821,152],[-90.3888,38.81818,153],[-90.38881,38.81815,154],[-90.38882,38.81812,155],[-90.38884,38.81809,156],[-90.38888,38.81807,156],[-90.38891,38.81806,156],[-90.38894,38.81806,155],[-90.38899,38.81805,154],[-90.38903,38.81804,153],[-90.38906,38.81803,153],[-90.38909,38.81801,153],[-90.38913,38.81799,153],[-90.38917,38.81799,152],[-90.3892,38.818,151],[-90.38924,38.818,150],[-90.38927,38.81798,151],[-90.38932,38.81798,150],[-90.38935,38.81798,149],[-90.38939,38.81797,149],[-90.38943,38.81797,149],[-90.38947,38.81797,148],[-90.38951,38.81797,148],[-90.38956,38.81798,148],[-90.38959,38.81799,148],[-90.38963,38.81799,148],[-90.38967,38.81798,148],[-90.38972,38.81797,148],[-90.38976,38.81797,147],[-90.3898,38.81796,147],[-90.38984,38.81794,147],[-90.38988,38.81793,146],[-90.38992,38.81792,146],[-90.38996,38.81792,145],[-90.39,38.81792,145],[-90.39004,38.81791,145],[-90.39008,38.8179,144],[-90.39012,38.81789,144],[-90.39016,38.81788,143],[-90.3902,38.81787,143],[-90.39024,38.81785,142],[-90.39027,38.81784,142],[-90.3903,38.81782,142],[-90.39033,38.8178,142],[-90.39037,38.81779,141],[-90.39041,38.81778,141],[-90.39045,38.81778,141],[-90.39049,38.81778,140],[-90.39053,38.81776,140],[-90.39056,38.81775,140],[-90.39059,38.81772,140],[-90.39063,38.8177,140],[-90.39067,38.81769,140],[-90.39071,38.81767,140],[-90.39074,38.81765,140],[-90.39078,38.81763,140],[-90.39082,38.81762,139],[-90.39084,38.8176,140],[-90.39083,38.81757,140],[-90.39083,38.81753,141],[-90.39084,38.81751,141],[-90.39088,38.81749,141],[-90.39091,38.81747,142],[-90.39094,38.81745,142],[-90.39096,38.81743,142],[-90.39097,38.8174,143],[-90.39098,38.81737,144],[-90.391,38.81734,144],[-90.39102,38.81732,144],[-90.39104,38.81729,145],[-90.39106,38.81727,145],[-90.39109,38.81724,145],[-90.39112,38.81722,145],[-90.39115,38.81721,145],[-90.3912,38.8172,145],[-90.39124,38.81719,145],[-90.39128,38.81719,144],[-90.39133,38.81718,143],[-90.39137,38.81716,143],[-90.3914,38.81714,144],[-90.39144,38.81712,144],[-90.39147,38.81711,144],[-90.39149,38.81708,145],[-90.39151,38.81706,146],[-90.39155,38.81705,145],[-90.39158,38.81702,146],[-90.39162,38.817,146],[-90.39167,38.81699,146],[-90.3917,38.81698,146],[-90.39173,38.81696,147],[-90.39176,38.81693,148],[-90.39179,38.8169,149],[-90.39181,38.81688,149],[-90.39183,38.81685,150],[-90.39184,38.81682,150],[-90.39186,38.8168,150],[-90.39187,38.81677,151],[-90.3919,38.81674,151],[-90.39191,38.81671,151],[-90.39195,38.81668,150],[-90.39198,38.81666,150],[-90.392,38.81664,150],[-90.39203,38.81662,150],[-90.39206,38.81659,150],[-90.39208,38.81658,149],[-90.39211,38.81655,149],[-90.39212,38.81653,149],[-90.39213,38.8165,149],[-90.39214,38.81646,150],[-90.39216,38.81643,150],[-90.39219,38.8164,149],[-90.39222,38.81638,149],[-90.39224,38.81636,149],[-90.39225,38.81633,150],[-90.39227,38.8163,150],[-90.3923,38.8163,149],[-90.39234,38.81629,149],[-90.39238,38.81627,148],[-90.39239,38.81625,149],[-90.39242,38.81623,148],[-90.39245,38.8162,148],[-90.39248,38.81617,148],[-90.3925,38.81615,148],[-90.39253,38.81612,147],[-90.39256,38.8161,146],[-90.39259,38.81608,145],[-90.39262,38.81605,145],[-90.39262,38.81602,145],[-90.39262,38.81599,145],[-90.3926,38.81597,145],[-90.39259,38.81593,145],[-90.39257,38.81589,146],[-90.39257,38.81587,146],[-90.39256,38.81583,147],[-90.39255,38.8158,148],[-90.39255,38.81578,148],[-90.39255,38.81575,149],[-90.39256,38.81571,149],[-90.39256,38.81568,150],[-90.39258,38.81564,150],[-90.39259,38.81561,151],[-90.39262,38.81558,150],[-90.39264,38.81555,150],[-90.39266,38.81552,150],[-90.39268,38.81549,150],[-90.39271,38.81548,149],[-90.39275,38.81546,148],[-90.39278,38.81544,148],[-90.39282,38.81543,147],[-90.39284,38.81541,147],[-90.39287,38.81539,147],[-90.39291,38.81537,146],[-90.39294,38.81535,146],[-90.39296,38.81532,147],[-90.39299,38.81529,147],[-90.39301,38.81527,147],[-90.39304,38.81524,146],[-90.39306,38.81522,146],[-90.39308,38.81519,146],[-90.39309,38.81516,146],[-90.39308,38.81513,146],[-90.39307,38.81509,147],[-90.39305,38.81506,147],[-90.39303,38.81503,148],[-90.393,38.81501,148],[-90.39297,38.81499,148],[-90.39294,38.81497,148],[-90.39292,38.81495,148],[-90.39289,38.81493,149],[-90.39286,38.8149,149],[-90.39286,38.81486,149],[-90.39286,38.81484,149],[-90.39288,38.8148,149],[-90.39289,38.81477,149],[-90.3929,38.81474,149],[-90.3929,38.8147,149],[-90.3929,38.81466,149],[-90.39289,38.81463,149],[-90.39287,38.8146,150],[-90.39285,38.81456,150],[-90.39281,38.81454,152],[-90.39277,38.81452,152],[-90.39274,38.81451,153],[-90.39269,38.8145,153],[-90.39266,38.81448,154],[-90.39263,38.81444,154],[-90.3926,38.81442,154],[-90.39259,38.8144,154],[-90.39256,38.81437,153],[-90.39253,38.81436,153],[-90.3925,38.81433,153],[-90.39247,38.81431,153],[-90.39243,38.81429,152],[-90.3924,38.81428,152],[-90.39236,38.81426,152],[-90.39233,38.81425,152],[-90.3923,38.81423,151],[-90.39227,38.8142,151],[-90.39225,38.81417,150],[-90.39224,38.81414,149],[-90.39223,38.81411,147],[-90.39221,38.81408,145],[-90.3922,38.81405,143],[-90.39216,38.81402,142],[-90.39213,38.814,141],[-90.3921,38.81398,140],[-90.39207,38.81396,139],[-90.39203,38.81394,139],[-90.39199,38.81392,138],[-90.39195,38.81391,139],[-90.39191,38.81388,139],[-90.39188,38.81386,140],[-90.39185,38.81384,141],[-90.39182,38.81381,142],[-90.39179,38.81379,142],[-90.39176,38.81376,143],[-90.39175,38.81374,143],[-90.39172,38.81371,143],[-90.39169,38.81369,144],[-90.39167,38.81367,144],[-90.39164,38.81364,144],[-90.39161,38.8136,144],[-90.39159,38.81357,145],[-90.39157,38.81354,146],[-90.39157,38.81351,146],[-90.39156,38.81348,146],[-90.39155,38.81345,147],[-90.39155,38.81342,147],[-90.39152,38.81339,148],[-90.3915,38.81336,149],[-90.39147,38.81335,149],[-90.39142,38.81333,150],[-90.39139,38.81332,150],[-90.39135,38.81331,151],[-90.39132,38.8133,151],[-90.39129,38.81328,152],[-90.39127,38.81326,152],[-90.39125,38.81323,152],[-90.39121,38.8132,153],[-90.39119,38.81316,153],[-90.39117,38.81313,153],[-90.39115,38.8131,153],[-90.39113,38.81307,153],[-90.39112,38.81304,153],[-90.39111,38.813,152],[-90.39109,38.81297,152],[-90.39106,38.81294,151],[-90.39105,38.81291,150],[-90.39104,38.81287,150],[-90.39102,38.81285,149],[-90.391,38.81282,149],[-90.39099,38.81278,148],[-90.39098,38.81275,148],[-90.39098,38.81272,147],[-90.39096,38.81268,146],[-90.39096,38.81265,146],[-90.39095,38.81262,145],[-90.39095,38.81259,144],[-90.39095,38.81256,144],[-90.39095,38.81253,143],[-90.39095,38.8125,142],[-90.39094,38.81247,143],[-90.39093,38.81244,144],[-90.39091,38.8124,145],[-90.3909,38.81238,146],[-90.39088,38.81234,147],[-90.39087,38.81231,147],[-90.39086,38.81227,148],[-90.39084,38.81223,149],[-90.39083,38.8122,149],[-90.39083,38.81216,149],[-90.39083,38.81214,149],[-90.39081,38.81211,149],[-90.39081,38.81208,149],[-90.39083,38.81205,149],[-90.39085,38.81202,149],[-90.39087,38.81198,149],[-90.39088,38.81195,149],[-90.39088,38.81192,149],[-90.39088,38.81189,148],[-90.39087,38.81185,148],[-90.39088,38.81182,148],[-90.39088,38.81179,147],[-90.39089,38.81176,147],[-90.3909,38.81173,147],[-90.39092,38.81169,146],[-90.39094,38.81167,146],[-90.39098,38.81165,145],[-90.391,38.81163,145],[-90.39104,38.8116,144],[-90.39106,38.81157,143],[-90.39107,38.81154,143],[-90.39107,38.8115,142],[-90.39106,38.81147,142],[-90.39105,38.81144,142],[-90.39102,38.8114,141],[-90.39099,38.81138,141],[-90.39096,38.81136,141],[-90.39093,38.81133,141],[-90.3909,38.81131,141],[-90.39088,38.81129,141],[-90.39086,38.81126,141],[-90.39083,38.81124,141],[-90.3908,38.81121,141],[-90.39076,38.81121,141],[-90.39073,38.81122,141],[-90.39069,38.81124,142],[-90.39066,38.81126,142],[-90.39062,38.81128,142],[-90.39058,38.81128,142],[-90.39053,38.81126,142],[-90.39049,38.81125,142],[-90.39045,38.81123,142],[-90.39041,38.81121,142],[-90.39038,38.81119,142],[-90.39034,38.81118,142],[-90.39031,38.81117,142],[-90.39027,38.81116,143],[-90.39023,38.81117,143],[-90.39017,38.81117,144],[-90.39012,38.81117,145],[-90.39008,38.81116,145],[-90.39004,38.81115,146],[-90.39,38.81114,146],[-90.38996,38.81113,147],[-90.38992,38.81113,147],[-90.38987,38.81114,148],[-90.38984,38.81115,149],[-90.38981,38.81116,149],[-90.38977,38.81118,150],[-90.38973,38.81118,150],[-90.38969,38.81117,150],[-90.38964,38.81116,151],[-90.3896,38.81116,151],[-90.38955,38.81117,151],[-90.38951,38.81118,151],[-90.38948,38.81121,151],[-90.38946,38.81124,151],[-90.38944,38.81127,152],[-90.38943,38.8113,152],[-90.38941,38.81133,152],[-90.3894,38.81137,152],[-90.38939,38.8114,152],[-90.38936,38.81143,152],[-90.38932,38.81142,152],[-90.38929,38.8114,152],[-90.38924,38.8114,152],[-90.3892,38.81142,152],[-90.38916,38.81144,152],[-90.38914,38.81146,152],[-90.3891,38.81149,153],[-90.38907,38.81152,154],[-90.38903,38.81153,155],[-90.389,38.81153,156],[-90.38895,38.81153,157],[-90.3889,38.81154,158],[-90.38886,38.81155,159],[-90.38882,38.81154,160],[-90.38879,38.81153,161],[-90.38877,38.81156,161],[-90.38877,38.81159,161],[-90.38875,38.81163,162],[-90.38871,38.81165,163],[-90.38869,38.81167,163],[-90.38868,38.81171,163],[-90.38865,38.81174,163],[-90.38863,38.81176,163],[-90.3886,38.81179,163],[-90.38859,38.81182,163],[-90.38858,38.81185,163],[-90.38859,38.81189,162],[-90.38859,38.81193,162],[-90.3886,38.81196,162],[-90.38863,38.81198,161],[-90.38866,38.81199,161],[-90.38869,38.81201,161],[-90.38871,38.81204,161],[-90.38873,38.81206,161],[-90.38875,38.81209,161],[-90.38879,38.8121,161],[-90.38882,38.81212,160],[-90.38884,38.81215,161],[-90.38884,38.81218,161],[-90.38883,38.81221,162],[-90.3888,38.81224,162],[-90.38877,38.81226,163],[-90.38874,38.81229,163],[-90.38871,38.81232,164],[-90.38868,38.81233,165],[-90.38865,38.81235,165],[-90.38864,38.81239,166],[-90.38862,38.81243,167],[-90.38862,38.81246,168],[-90.38864,38.81248,168],[-90.38864,38.81252,168],[-90.38861,38.81254,169],[-90.3886,38.81257,169],[-90.38859,38.8126,169],[-90.38858,38.81263,170],[-90.38855,38.81266,171],[-90.38853,38.81268,172],[-90.38851,38.8127,172],[-90.38848,38.81272,174],[-90.38844,38.81274,175],[-90.3884,38.81276,177],[-90.38837,38.81279,179],[-90.38833,38.8128,180],[-90.3883,38.8128,181],[-90.38826,38.8128,182],[-90.38822,38.81281,183],[-90.38819,38.81283,184],[-90.38816,38.81284,185],[-90.38813,38.81285,186],[-90.38813,38.81288,187],[-90.38814,38.81291,187],[-90.38813,38.81294,187],[-90.38813,38.81297,188],[-90.38813,38.813,188],[-90.38812,38.81304,189],[-90.3881,38.81308,190],[-90.38808,38.8131,191],[-90.38807,38.81313,192],[-90.38805,38.81315,192],[-90.38802,38.81318,193],[-90.388,38.81321,193],[-90.38796,38.81324,194],[-90.38792,38.81326,194],[-90.38788,38.81326,195],[-90.38786,38.81329,195],[-90.38783,38.81331,195],[-90.38778,38.81331,195],[-90.38775,38.81332,195],[-90.38771,38.81332,195],[-90.38767,38.81332,195],[-90.38763,38.81332,194],[-90.3876,38.81333,194],[-90.38759,38.81336,194],[-90.38759,38.81338,194],[-90.3876,38.81341,195],[-90.38761,38.81344,195],[-90.38762,38.81347,195],[-90.38764,38.8135,196],[-90.38764,38.81352,196],[-90.38764,38.81356,196],[-90.38764,38.8136,196],[-90.38763,38.81363,197],[-90.38762,38.81366,197],[-90.3876,38.81369,197],[-90.38759,38.81372,197],[-90.38758,38.81375,198],[-90.38756,38.81377,198],[-90.38754,38.8138,198],[-90.38755,38.81382,199],[-90.38756,38.81385,199],[-90.38758,38.81387,199],[-90.38761,38.81389,199],[-90.38767,38.81391,200],[-90.38772,38.81392,200],[-90.38776,38.81392,200],[-90.38781,38.81392,199],[-90.38785,38.81392,199],[-90.38788,38.81391,199],[-90.38793,38.8139,199],[-90.38798,38.8139,199],[-90.38801,38.8139,199],[-90.38805,38.8139,199],[-90.38809,38.81391,198],[-90.38813,38.81392,198],[-90.38817,38.81393,198],[-90.3882,38.81394,198],[-90.38824,38.81395,198],[-90.38829,38.81395,198],[-90.38833,38.81397,198],[-90.38836,38.81397,198],[-90.3884,38.81399,197],[-90.38843,38.81401,197],[-90.38846,38.81404,197],[-90.38849,38.81405,197],[-90.38853,38.81407,197],[-90.38856,38.81409,196],[-90.38859,38.81411,196],[-90.38863,38.81412,196],[-90.38867,38.81413,195],[-90.38873,38.81414,195],[-90.38877,38.81415,194],[-90.38881,38.81417,194],[-90.38885,38.81419,193],[-90.38889,38.8142,192],[-90.38894,38.81421,192],[-90.38898,38.81422,192],[-90.38903,38.81422,192],[-90.38908,38.81423,192],[-90.38912,38.81423,192],[-90.38916,38.81425,192],[-90.38919,38.81427,192],[-90.38923,38.81429,191],[-90.38927,38.81432,191],[-90.38931,38.81433,190],[-90.38934,38.81435,190],[-90.38938,38.81437,190],[-90.38942,38.81438,189],[-90.38945,38.8144,189],[-90.38947,38.81443,189],[-90.38949,38.81446,189],[-90.3895,38.81449,190],[-90.3895,38.81452,190],[-90.3895,38.81455,190],[-90.3895,38.81458,190],[-90.38949,38.81463,190],[-90.38949,38.81467,190],[-90.38949,38.8147,191],[-90.38949,38.81473,191],[-90.38949,38.81476,190],[-90.3895,38.8148,190],[-90.3895,38.81484,189],[-90.38951,38.81487,189],[-90.38952,38.81491,189],[-90.38954,38.81493,189],[-90.38954,38.81496,188],[-90.38955,38.81499,188],[-90.38957,38.81501,188],[-90.3896,38.81504,187],[-90.38963,38.81506,187],[-90.38967,38.81507,187],[-90.38971,38.81506,187],[-90.38974,38.81508,187],[-90.38978,38.8151,186],[-90.38981,38.81511,186],[-90.38984,38.81513,186],[-90.38987,38.81516,185],[-90.3899,38.81518,184],[-90.38992,38.81521,183],[-90.38995,38.81524,183],[-90.38998,38.81527,182],[-90.39001,38.81529,181],[-90.39004,38.81532,181],[-90.39006,38.81534,180],[-90.3901,38.81536,180],[-90.39012,38.81539,180],[-90.39015,38.81541,179],[-90.39019,38.81541,179],[-90.39023,38.81541,180],[-90.39027,38.81541,180],[-90.39031,38.81542,180],[-90.39034,38.81543,180],[-90.39038,38.81544,180],[-90.39041,38.81546,180],[-90.39045,38.81548,181],[-90.39048,38.8155,181],[-90.39053,38.81549,182],[-90.39057,38.81549,182],[-90.39061,38.81548,183],[-90.39065,38.81548,183],[-90.39068,38.81549,183],[-90.39072,38.8155,184],[-90.39076,38.81551,184],[-90.3908,38.81552,184],[-90.39085,38.81553,185],[-90.39089,38.81553,185],[-90.39093,38.81553,185],[-90.39097,38.81551,185],[-90.391,38.81549,185],[-90.39105,38.81548,186],[-90.39109,38.81546,186],[-90.39114,38.81544,186],[-90.39118,38.81544,186],[-90.39123,38.81544,185],[-90.39127,38.81545,185],[-90.39131,38.81545,185],[-90.39135,38.81545,185],[-90.3914,38.81546,185],[-90.39144,38.81547,184],[-90.39147,38.8155,184],[-90.3915,38.81551,184],[-90.39154,38.81553,183],[-90.39157,38.81556,183],[-90.3916,38.81558,183],[-90.39162,38.8156,182],[-90.39166,38.81562,182],[-90.3917,38.81564,181],[-90.39173,38.81566,180],[-90.39177,38.81567,179],[-90.3918,38.81566,178],[-90.39185,38.81566,177],[-90.39189,38.81566,176],[-90.39193,38.81566,176],[-90.39197,38.81566,174],[-90.39201,38.81568,172],[-90.39202,38.81571,171],[-90.39205,38.81572,169],[-90.39197,38.81572,173],[-90.39197,38.81556,176],[-90.39198,38.81552,176],[-90.39198,38.81549,175],[-90.39198,38.81545,175],[-90.39197,38.81541,176],[-90.39197,38.81537,175],[-90.39197,38.81535,175],[-90.39196,38.8153,175],[-90.39195,38.81527,175],[-90.39196,38.81524,174],[-90.39197,38.81521,172],[-90.39198,38.81518,171],[-90.392,38.81515,169],[-90.392,38.81512,168],[-90.392,38.81508,167],[-90.39199,38.81505,166],[-90.39197,38.81502,166],[-90.39194,38.81499,166],[-90.39193,38.81496,166],[-90.39191,38.81493,166],[-90.39189,38.8149,166],[-90.39189,38.81486,166],[-90.39191,38.81483,165],[-90.39191,38.8148,165],[-90.3919,38.81477,164],[-90.39189,38.81473,164],[-90.39188,38.8147,164],[-90.39187,38.81467,164],[-90.39187,38.81464,164],[-90.39187,38.81461,163],[-90.39186,38.81458,163],[-90.39184,38.81455,163],[-90.39182,38.81453,163],[-90.3918,38.8145,163],[-90.39178,38.81447,164],[-90.39178,38.81445,163],[-90.39179,38.81441,162],[-90.3918,38.81437,161],[-90.39179,38.81434,160],[-90.39178,38.81432,160],[-90.39177,38.81428,159],[-90.39177,38.81426,158],[-90.39177,38.81423,158],[-90.3918,38.81421,156],[-90.39184,38.8142,155],[-90.39186,38.81417,154],[-90.39189,38.81414,152],[-90.39192,38.81412,150],[-90.39194,38.8141,148],[-90.39198,38.81408,147],[-90.39203,38.81407,146],[-90.39206,38.81408,146],[-90.39211,38.81408,146],[-90.39215,38.81408,145],[-90.39221,38.81408,145],[-90.39224,38.81408,145],[-90.39227,38.81406,144],[-90.3923,38.81403,142],[-90.39233,38.814,141],[-90.39232,38.81397,139],[-90.39232,38.81394,137],[-90.39234,38.81391,136],[-90.39237,38.81389,135],[-90.3924,38.81386,136],[-90.3924,38.81383,136],[-90.39237,38.81381,136],[-90.39241,38.8138,137],[-90.39244,38.81381,137],[-90.39245,38.81378,137],[-90.39246,38.81375,138],[-90.39247,38.81372,138],[-90.39247,38.81368,138],[-90.39248,38.81366,138],[-90.39249,38.81363,138],[-90.39252,38.81359,138],[-90.39254,38.81357,138],[-90.39256,38.81354,138],[-90.3926,38.81351,137],[-90.39262,38.81348,137],[-90.39265,38.81345,137],[-90.39267,38.81342,136],[-90.39268,38.81339,136],[-90.3927,38.81336,135],[-90.39273,38.81334,135],[-90.39276,38.81332,135],[-90.39279,38.8133,134],[-90.39281,38.81328,134],[-90.39283,38.81325,134],[-90.39286,38.81322,134],[-90.39289,38.81319,133],[-90.39292,38.81317,133],[-90.39295,38.81314,133],[-90.39299,38.81312,133],[-90.39302,38.8131,133],[-90.39305,38.81308,133],[-90.39308,38.81306,132],[-90.39311,38.81303,133],[-90.39314,38.81301,133],[-90.39316,38.81298,133],[-90.39319,38.81296,133],[-90.39322,38.81294,133],[-90.39325,38.81291,134],[-90.39327,38.81289,134],[-90.39331,38.81287,134],[-90.39335,38.81285,134],[-90.39339,38.81284,134],[-90.39342,38.81282,134],[-90.39345,38.8128,134],[-90.39349,38.81279,134],[-90.39353,38.81276,134],[-90.39357,38.81275,134],[-90.3936,38.81273,134],[-90.39364,38.81271,134],[-90.39367,38.81268,134],[-90.39371,38.81266,134],[-90.39374,38.81264,135],[-90.39378,38.81262,135],[-90.39381,38.8126,135],[-90.39384,38.81258,136],[-90.39386,38.81255,136],[-90.3939,38.81253,136],[-90.39393,38.81251,136],[-90.39397,38.81249,137],[-90.394,38.81247,137],[-90.39402,38.81244,137],[-90.39404,38.81242,137],[-90.39406,38.8124,137],[-90.39409,38.81237,137],[-90.39413,38.81238,137],[-90.39415,38.81236,137],[-90.39418,38.81233,137],[-90.3942,38.81231,137],[-90.39423,38.81228,137],[-90.39425,38.81226,137],[-90.39428,38.81224,137],[-90.39431,38.81221,138],[-90.39433,38.81219,138],[-90.39436,38.81217,138],[-90.39438,38.81214,138],[-90.39441,38.81211,138],[-90.39445,38.81208,137],[-90.39448,38.81206,137],[-90.39451,38.81203,137],[-90.39455,38.812,137],[-90.39458,38.81198,137],[-90.39461,38.81196,137],[-90.39464,38.81194,137],[-90.39467,38.81192,136],[-90.3947,38.81189,136],[-90.39473,38.81187,136],[-90.39476,38.81184,135],[-90.39479,38.81182,135],[-90.39481,38.81179,134],[-90.39484,38.81177,134],[-90.39486,38.81175,134],[-90.39489,38.81174,134],[-90.39493,38.81174,133],[-90.39492,38.81172,133],[-90.3949,38.81169,133],[-90.39491,38.81166,133],[-90.39527,38.81154,132],[-90.3953,38.81151,133],[-90.39532,38.81149,133],[-90.39535,38.81146,133],[-90.39538,38.81144,133],[-90.39543,38.81142,133],[-90.39546,38.8114,133],[-90.39549,38.81138,133],[-90.39552,38.81136,133],[-90.39555,38.81134,133],[-90.39557,38.81132,133],[-90.3956,38.8113,133],[-90.39563,38.81126,133],[-90.39563,38.81123,134],[-90.3956,38.81121,134],[-90.39556,38.8112,134],[-90.3955,38.8112,134],[-90.39542,38.8112,133],[-90.39534,38.8112,133],[-90.39526,38.81122,132],[-90.39515,38.81124,132],[-90.39506,38.81127,132],[-90.39494,38.81129,131],[-90.39482,38.81131,131],[-90.3947,38.81131,131],[-90.39456,38.81131,132],[-90.39442,38.81131,133],[-90.39428,38.81129,133],[-90.39414,38.81127,133],[-90.394,38.81126,133],[-90.39385,38.81125,133],[-90.3937,38.81123,133],[-90.39354,38.81122,133],[-90.39339,38.81121,134],[-90.39324,38.81119,134],[-90.39308,38.81118,136],[-90.39292,38.81117,137],[-90.39276,38.81116,138],[-90.39259,38.81114,140],[-90.39242,38.81113,139],[-90.39225,38.81111,138],[-90.39208,38.8111,136],[-90.39191,38.81109,135],[-90.39174,38.81108,135],[-90.39156,38.81107,135],[-90.39139,38.81106,135],[-90.39122,38.81105,136],[-90.39105,38.81104,138]]],
        "bbox": [
          -90.38434,
          38.82012,
          -90.39563,
          38.81104
        ]
      },
      "properties": {
        "name": "11.4.2020C"
      }
    }
  ]
}