{
  "type": "FeatureCollection",
  "features": [
    {
      "type": "Feature",
      "geometry": {
        "type": "MultiLineString",
        "coordinates": [[[-90.39499,38.81167,133],[-90.39497,38.81171,133],[-90.39493,38.81172,133],[-90.3949,38.81174,134],[-90.39487,38.81175,134],[-90.39483,38.81177,134],[-90.39481,38.81179,134],[-90.39478,38.81181,135],[-90.39476,38.81185,135],[-90.39474,38.81188,136],[-90.39471,38.8119,136],[-90.39467,38.81192,136],[-90.39464,38.81196,137],[-90.39459,38.812,137],[-90.39455,38.81204,137],[-90.39452,38.81206,137],[-90.3945,38.81208,137],[-90.39446,38.81211,137],[-90.39443,38.81213,138],[-90.3944,38.81215,138],[-90.39438,38.81217,138],[-90.39435,38.81221,138],[-90.39433,38.81223,137],[-90.3943,38.81226,137],[-90.39427,38.81228,137],[-90.39425,38.81231,137],[-90.39423,38.81233,137],[-90.39419,38.81236,137],[-90.39416,38.81239,137],[-90.39414,38.81242,137],[-90.39411,38.81244,137],[-90.39409,38.81247,137],[-90.39406,38.8125,137],[-90.39403,38.81252,136],[-90.39399,38.81254,136],[-90.39395,38.81254,136],[-90.39392,38.81256,136],[-90.39388,38.8126,135],[-90.39385,38.81262,135],[-90.39381,38.81264,135],[-90.39378,38.81265,135],[-90.39375,38.81267,134],[-90.39371,38.8127,134],[-90.39367,38.81272,134],[-90.39363,38.81273,134],[-90.3936,38.81275,134],[-90.39357,38.81278,134],[-90.39354,38.81281,134],[-90.39351,38.81283,133],[-90.39348,38.81286,133],[-90.39344,38.81289,133],[-90.3934,38.81291,133],[-90.39337,38.81292,133],[-90.39333,38.81296,133],[-90.3933,38.81298,133],[-90.39327,38.813,133],[-90.39323,38.81301,133],[-90.3932,38.81303,133],[-90.39317,38.81305,133],[-90.39313,38.81307,132],[-90.39311,38.8131,132],[-90.39309,38.81313,132],[-90.39308,38.81316,132],[-90.39305,38.81318,133],[-90.39301,38.8132,133],[-90.39297,38.81322,133],[-90.39294,38.81325,133],[-90.39292,38.81327,133],[-90.3929,38.81329,134],[-90.39289,38.81333,134],[-90.39287,38.81335,134],[-90.39284,38.81338,135],[-90.39282,38.81342,135],[-90.3928,38.81345,136],[-90.39278,38.81347,136],[-90.39274,38.8135,136],[-90.39271,38.81352,137],[-90.39268,38.81354,137],[-90.39265,38.81357,138],[-90.39262,38.8136,138],[-90.39261,38.81362,138],[-90.39259,38.81366,138],[-90.39257,38.81369,138],[-90.39253,38.81371,138],[-90.3925,38.81372,138],[-90.39249,38.81375,138],[-90.39252,38.81377,138],[-90.3925,38.81379,138],[-90.39245,38.81382,137],[-90.39242,38.81385,136],[-90.39238,38.81389,135],[-90.39235,38.81394,137],[-90.39229,38.814,140],[-90.39226,38.814,140],[-90.39223,38.81398,138],[-90.39218,38.81398,139],[-90.39213,38.81397,139],[-90.39209,38.81396,139],[-90.39205,38.81395,139],[-90.39202,38.81393,138],[-90.39199,38.8139,137],[-90.39194,38.81388,138],[-90.39191,38.81387,139],[-90.39187,38.81384,140],[-90.39185,38.81382,141],[-90.39183,38.81379,142],[-90.39183,38.81376,141],[-90.3918,38.81374,142],[-90.39177,38.81373,143],[-90.39173,38.81371,143],[-90.39172,38.81367,143],[-90.39169,38.81364,143],[-90.39166,38.81362,143],[-90.39165,38.81358,143],[-90.39165,38.81355,144],[-90.39164,38.81351,145],[-90.39163,38.81348,145],[-90.39161,38.81344,146],[-90.39159,38.81341,147],[-90.39156,38.81339,147],[-90.39152,38.81336,148],[-90.39147,38.81335,149],[-90.39143,38.81337,150],[-90.39142,38.8134,150],[-90.3914,38.81343,150],[-90.39136,38.81345,151],[-90.39131,38.81345,152],[-90.39128,38.81347,152],[-90.39127,38.81349,152],[-90.39126,38.81352,153],[-90.39123,38.81354,153],[-90.39125,38.81351,153],[-90.39127,38.81348,152],[-90.3913,38.81345,152],[-90.39133,38.81344,151],[-90.39135,38.81341,151],[-90.39137,38.81337,151],[-90.39137,38.81334,151],[-90.39135,38.81332,151],[-90.39131,38.81328,151],[-90.3913,38.81325,152],[-90.3913,38.81322,151],[-90.39126,38.8132,152],[-90.39123,38.81318,152],[-90.3912,38.81316,153],[-90.39118,38.81313,153],[-90.39118,38.81309,153],[-90.39117,38.81306,153],[-90.39116,38.81303,152],[-90.39115,38.813,152],[-90.39112,38.81297,151],[-90.3911,38.81295,151],[-90.39108,38.81291,150],[-90.39107,38.81288,150],[-90.39106,38.81284,149],[-90.39104,38.81281,148],[-90.39103,38.81278,148],[-90.39103,38.81275,147],[-90.39104,38.81273,146],[-90.39105,38.8127,146],[-90.39105,38.81267,145],[-90.39103,38.81264,145],[-90.39102,38.8126,144],[-90.39101,38.81258,143],[-90.391,38.81254,143],[-90.391,38.81251,142],[-90.391,38.81247,143],[-90.391,38.81244,143],[-90.39098,38.8124,144],[-90.39096,38.81238,145],[-90.39093,38.81236,146],[-90.39088,38.81235,146],[-90.39085,38.81233,147],[-90.39083,38.8123,148],[-90.39084,38.81227,148],[-90.39085,38.81224,149],[-90.39086,38.81221,149],[-90.39088,38.81218,149],[-90.39089,38.81215,149],[-90.39091,38.81211,149],[-90.39093,38.81208,149],[-90.39094,38.81205,149],[-90.39095,38.81201,150],[-90.39096,38.81199,150],[-90.39097,38.81196,150],[-90.39097,38.81193,150],[-90.39096,38.81189,149],[-90.39097,38.81186,149],[-90.39097,38.81183,148],[-90.39098,38.81179,148],[-90.39098,38.81176,147],[-90.391,38.81172,146],[-90.39102,38.81169,146],[-90.39105,38.81166,145],[-90.39107,38.81164,144],[-90.3911,38.81161,144],[-90.39111,38.81158,143],[-90.39112,38.81155,143],[-90.3911,38.81152,142],[-90.39107,38.81149,142],[-90.39106,38.81146,142],[-90.39107,38.81142,141],[-90.39104,38.81139,141],[-90.39102,38.81136,141],[-90.391,38.81134,141],[-90.39097,38.8113,141],[-90.39095,38.81128,141],[-90.39092,38.81125,141],[-90.39091,38.81122,141],[-90.39088,38.8112,141],[-90.39086,38.81117,141],[-90.39083,38.81116,141],[-90.39077,38.81116,141],[-90.39073,38.81117,141],[-90.39069,38.81119,141],[-90.39063,38.81121,142],[-90.3906,38.81123,142],[-90.39058,38.81125,142],[-90.39055,38.81128,142],[-90.39052,38.81128,142],[-90.39048,38.81126,142],[-90.39044,38.81125,142],[-90.39041,38.81122,142],[-90.39039,38.8112,142],[-90.39036,38.81119,142],[-90.39032,38.81117,142],[-90.39028,38.81116,142],[-90.39023,38.81117,143],[-90.39019,38.81117,144],[-90.39014,38.81117,144],[-90.3901,38.81117,145],[-90.39006,38.81116,145],[-90.39003,38.81114,146],[-90.38998,38.81114,147],[-90.38992,38.81113,147],[-90.38988,38.81113,148],[-90.38985,38.81114,149],[-90.38981,38.81116,149],[-90.38979,38.81118,149],[-90.38974,38.8112,150],[-90.3897,38.8112,150],[-90.38966,38.81119,150],[-90.38962,38.81119,151],[-90.38959,38.81119,151],[-90.38955,38.81119,151],[-90.38951,38.8112,151],[-90.38947,38.81121,151],[-90.38945,38.81124,151],[-90.38942,38.81126,152],[-90.3894,38.81129,152],[-90.38938,38.81131,152],[-90.38935,38.81134,152],[-90.38934,38.81136,152],[-90.38931,38.81138,152],[-90.38927,38.81137,152],[-90.38923,38.81136,152],[-90.38919,38.81136,152],[-90.38916,38.81138,152],[-90.38913,38.8114,152],[-90.38911,38.81142,153],[-90.38908,38.81144,154],[-90.38905,38.81146,154],[-90.38902,38.81148,155],[-90.38898,38.81149,156],[-90.38893,38.81151,157],[-90.3889,38.81152,158],[-90.38886,38.81153,159],[-90.38883,38.81155,160],[-90.3888,38.81157,161],[-90.38876,38.81156,161],[-90.38874,38.81159,162],[-90.38873,38.81162,162],[-90.38872,38.81165,163],[-90.38871,38.81168,163],[-90.38868,38.8117,163],[-90.38865,38.81172,163],[-90.38862,38.81173,164],[-90.38859,38.81175,164],[-90.38855,38.81178,164],[-90.38854,38.8118,164],[-90.38853,38.81183,164],[-90.38854,38.81186,163],[-90.38856,38.81189,163],[-90.38858,38.81192,162],[-90.38861,38.81194,162],[-90.38862,38.81197,162],[-90.38864,38.812,161],[-90.38867,38.81203,161],[-90.3887,38.81205,161],[-90.38873,38.81207,161],[-90.38875,38.81209,161],[-90.38876,38.81212,161],[-90.38877,38.81215,161],[-90.38874,38.81217,162],[-90.38871,38.81219,162],[-90.38868,38.81221,163],[-90.38864,38.81223,163],[-90.38861,38.81224,164],[-90.38858,38.81226,165],[-90.38857,38.8123,166],[-90.38856,38.81233,166],[-90.38856,38.81237,167],[-90.38857,38.8124,167],[-90.38859,38.81242,168],[-90.3886,38.81245,168],[-90.38859,38.81248,169],[-90.38859,38.81251,169],[-90.3886,38.81254,169],[-90.38859,38.81257,169],[-90.38858,38.8126,170],[-90.38856,38.81263,170],[-90.38851,38.81265,172],[-90.38847,38.81266,173],[-90.38844,38.81266,174],[-90.38841,38.81267,175],[-90.38838,38.81268,176],[-90.38833,38.81269,178],[-90.3883,38.81271,179],[-90.38827,38.81274,181],[-90.38823,38.81273,181],[-90.38821,38.81271,182],[-90.38822,38.81268,181],[-90.38822,38.81266,180],[-90.3882,38.81263,180],[-90.38821,38.8126,179],[-90.38824,38.81261,179],[-90.38825,38.81264,179],[-90.38823,38.81267,180],[-90.38824,38.8127,181],[-90.38822,38.81272,182],[-90.38819,38.81274,183],[-90.38816,38.81276,184],[-90.38813,38.81278,185],[-90.3881,38.81278,186],[-90.38806,38.81279,187],[-90.38803,38.8128,188],[-90.38803,38.81283,188],[-90.38803,38.81286,188],[-90.38803,38.81289,189],[-90.38803,38.81292,189],[-90.38804,38.81295,189],[-90.38804,38.81298,190],[-90.38804,38.81301,190],[-90.38803,38.81304,191],[-90.38801,38.81307,191],[-90.388,38.81309,191],[-90.38799,38.81312,192],[-90.38797,38.81314,192],[-90.38793,38.81316,193],[-90.3879,38.81318,193],[-90.38788,38.8132,194],[-90.38788,38.81323,194],[-90.38791,38.81325,194],[-90.3879,38.81327,195],[-90.38787,38.81329,195],[-90.38783,38.81331,195],[-90.3878,38.81332,195],[-90.38775,38.81333,195],[-90.38772,38.81332,195],[-90.38769,38.8133,195],[-90.38765,38.81329,194],[-90.38762,38.81328,194],[-90.38757,38.81328,194],[-90.38754,38.8133,194],[-90.38753,38.81333,194],[-90.38752,38.81336,194],[-90.38752,38.81339,194],[-90.38752,38.81343,194],[-90.38753,38.81346,195],[-90.38754,38.81349,195],[-90.38754,38.81353,195],[-90.38754,38.81356,195],[-90.38754,38.81359,196],[-90.38754,38.81362,196],[-90.38754,38.81365,196],[-90.38753,38.81368,197],[-90.38753,38.81372,197],[-90.38753,38.81374,197],[-90.38754,38.81377,198],[-90.38758,38.81376,198],[-90.38761,38.81379,198],[-90.38763,38.81381,199],[-90.38765,38.81383,199],[-90.38766,38.81386,199],[-90.38767,38.81389,199],[-90.38768,38.81392,200],[-90.38771,38.81394,200],[-90.38774,38.81395,200],[-90.38781,38.81394,199],[-90.38788,38.81394,199],[-90.38793,38.81394,199],[-90.38794,38.81391,199],[-90.38796,38.81393,199],[-90.38801,38.81394,199],[-90.38805,38.81394,199],[-90.38808,38.81394,199],[-90.38812,38.81394,198],[-90.38816,38.81393,198],[-90.3882,38.81394,198],[-90.38824,38.81396,198],[-90.38828,38.81398,198],[-90.38831,38.81399,198],[-90.38834,38.814,198],[-90.38838,38.81402,198],[-90.38841,38.81403,197],[-90.38843,38.81406,197],[-90.38846,38.81407,197],[-90.3885,38.81409,197],[-90.38854,38.8141,197],[-90.3886,38.81413,196],[-90.38863,38.81413,196],[-90.38868,38.81414,195],[-90.38872,38.81414,195],[-90.38876,38.81414,194],[-90.38879,38.81415,194],[-90.38884,38.81416,193],[-90.38887,38.81417,193],[-90.38891,38.81418,192],[-90.38894,38.81419,192],[-90.38899,38.81419,192],[-90.38902,38.8142,192],[-90.38906,38.81421,192],[-90.3891,38.81422,192],[-90.38913,38.81423,192],[-90.38917,38.81425,192],[-90.3892,38.81426,192],[-90.38923,38.81427,191],[-90.38927,38.81429,191],[-90.3893,38.81431,190],[-90.38932,38.81433,190],[-90.38935,38.81435,190],[-90.38939,38.81436,189],[-90.38943,38.81437,189],[-90.38943,38.8144,189],[-90.38947,38.81439,189],[-90.3895,38.8144,189],[-90.38952,38.81443,189],[-90.38953,38.81445,189],[-90.38954,38.81448,189],[-90.38958,38.81449,189],[-90.38962,38.81448,189],[-90.38959,38.8145,189],[-90.38956,38.81453,190],[-90.38956,38.81459,190],[-90.38955,38.81462,190],[-90.38953,38.81465,190],[-90.38952,38.81468,191],[-90.38951,38.81472,191],[-90.38951,38.81475,190],[-90.38952,38.81478,190],[-90.38951,38.81481,190],[-90.3895,38.81484,189],[-90.38949,38.81487,189],[-90.3895,38.8149,189],[-90.38951,38.81492,189],[-90.38951,38.81495,188],[-90.38949,38.81497,188],[-90.38952,38.81499,188],[-90.38955,38.81501,188],[-90.38959,38.81503,188],[-90.38963,38.81505,187],[-90.38966,38.81507,187],[-90.38969,38.81509,187],[-90.38971,38.81511,186],[-90.38973,38.81514,185],[-90.38975,38.81516,185],[-90.38978,38.81518,184],[-90.38981,38.81521,184],[-90.38983,38.81522,183],[-90.38986,38.81524,183],[-90.38989,38.81526,182],[-90.38992,38.81528,182],[-90.38995,38.8153,181],[-90.38998,38.81532,181],[-90.39002,38.81533,181],[-90.39005,38.81536,180],[-90.39005,38.81539,180],[-90.39009,38.8154,179],[-90.39013,38.81541,179],[-90.39017,38.81542,179],[-90.39021,38.81543,179],[-90.39025,38.81544,179],[-90.39029,38.81544,179],[-90.39032,38.81545,180],[-90.39037,38.81546,180],[-90.3904,38.81545,181],[-90.39043,38.81543,181],[-90.39044,38.81541,181],[-90.39046,38.81543,181],[-90.39049,38.81544,182],[-90.39054,38.81544,182],[-90.39057,38.81543,183],[-90.39061,38.81543,183],[-90.39065,38.81544,183],[-90.39068,38.81545,184],[-90.39071,38.81547,184],[-90.39075,38.81548,184],[-90.39079,38.81548,185],[-90.39083,38.81548,185],[-90.39086,38.8155,185],[-90.39085,38.81552,185],[-90.39082,38.81554,185],[-90.39079,38.81556,184],[-90.39075,38.81558,183],[-90.39072,38.81558,183],[-90.39072,38.81561,183],[-90.39075,38.81563,183],[-90.39077,38.81565,183],[-90.39079,38.81567,183],[-90.39082,38.81569,183],[-90.39085,38.81569,184],[-90.39089,38.81571,183],[-90.39091,38.81574,183],[-90.39091,38.81577,183],[-90.39093,38.81579,183],[-90.39097,38.81577,183],[-90.39099,38.81575,183],[-90.391,38.81571,183],[-90.39101,38.81568,184],[-90.39101,38.81565,184],[-90.39101,38.81562,184],[-90.391,38.81559,185],[-90.391,38.81556,185],[-90.391,38.81553,185],[-90.39098,38.8155,185],[-90.39097,38.81548,185],[-90.39096,38.81544,186],[-90.39098,38.81542,186],[-90.39101,38.8154,186],[-90.39104,38.81539,186],[-90.39108,38.81538,186],[-90.39111,38.81539,186],[-90.39114,38.81541,186],[-90.39115,38.81543,186],[-90.39116,38.81546,186],[-90.39119,38.81548,185],[-90.39121,38.81551,185],[-90.39121,38.81553,185],[-90.39121,38.81557,185],[-90.39122,38.81559,185],[-90.39122,38.81562,184],[-90.39121,38.81559,185],[-90.39123,38.81557,185],[-90.39125,38.81555,185],[-90.39126,38.81552,185],[-90.3913,38.8155,185],[-90.39133,38.81547,185],[-90.39135,38.81544,185],[-90.39138,38.81542,185],[-90.39141,38.81543,185],[-90.39143,38.81546,184],[-90.39146,38.81548,184],[-90.39149,38.8155,184],[-90.39153,38.81552,183],[-90.39155,38.81554,183],[-90.39158,38.81557,183],[-90.3916,38.81559,183],[-90.39162,38.81562,182],[-90.39163,38.81564,182],[-90.39165,38.81567,181],[-90.39168,38.81569,181],[-90.39171,38.81571,180],[-90.39174,38.8157,179],[-90.39179,38.8157,178],[-90.39182,38.81568,178],[-90.39185,38.81567,177],[-90.39188,38.81565,177],[-90.39186,38.81563,178],[-90.39183,38.81562,178],[-90.39181,38.81564,179],[-90.39176,38.81573,178],[-90.39173,38.81578,178],[-90.39172,38.81581,178],[-90.39173,38.81584,177],[-90.39173,38.81587,177],[-90.39173,38.81591,176],[-90.39172,38.81594,176],[-90.39171,38.81597,175],[-90.39171,38.816,175],[-90.39171,38.81603,174],[-90.3917,38.81607,173],[-90.39169,38.8161,173],[-90.39169,38.81613,172],[-90.39168,38.81616,171],[-90.39168,38.81619,170],[-90.39167,38.81622,170],[-90.39166,38.81625,169],[-90.39164,38.81629,168],[-90.39163,38.81632,167],[-90.39161,38.81634,166],[-90.39159,38.81636,166],[-90.39157,38.81639,166],[-90.39155,38.81642,165],[-90.39153,38.81644,165],[-90.39151,38.81647,165],[-90.39149,38.81649,165],[-90.39146,38.81652,165],[-90.39144,38.81654,164],[-90.39142,38.81657,164],[-90.3914,38.81659,164],[-90.39138,38.81662,163],[-90.39135,38.8166,164],[-90.39132,38.81662,164],[-90.39129,38.81664,164],[-90.39126,38.81667,163],[-90.39122,38.81668,164],[-90.39118,38.81667,164],[-90.39114,38.81666,165],[-90.39111,38.81668,165],[-90.39109,38.81671,164],[-90.39105,38.81671,165],[-90.39102,38.81669,165],[-90.391,38.81667,166],[-90.39099,38.81664,167],[-90.39095,38.81665,166],[-90.39091,38.81667,166],[-90.39088,38.81666,166],[-90.39084,38.81665,167],[-90.39081,38.81668,166],[-90.39079,38.81671,166],[-90.39078,38.81674,166],[-90.39075,38.81675,166],[-90.39072,38.81677,165],[-90.39069,38.81677,166],[-90.39065,38.81676,166],[-90.39061,38.81676,166],[-90.39058,38.81677,166],[-90.39056,38.81679,166],[-90.39054,38.81681,166],[-90.39052,38.81684,166],[-90.3905,38.81687,166],[-90.39047,38.81685,166],[-90.39046,38.81688,166],[-90.39046,38.81691,166],[-90.39046,38.81695,165],[-90.39048,38.81698,164],[-90.39049,38.817,163],[-90.39051,38.81703,162],[-90.39051,38.81706,161],[-90.39051,38.81709,160],[-90.39049,38.81712,159],[-90.39047,38.81714,159],[-90.39046,38.81717,158],[-90.39046,38.8172,157],[-90.39047,38.81723,156],[-90.39047,38.81727,154],[-90.39047,38.8173,153],[-90.39048,38.81733,152],[-90.39051,38.81736,151],[-90.39055,38.81737,150],[-90.3906,38.81738,149],[-90.39058,38.81735,151],[-90.39058,38.81733,151],[-90.39061,38.81732,151],[-90.39064,38.81731,151],[-90.39069,38.81731,150],[-90.39072,38.8173,150],[-90.39076,38.81731,149],[-90.39077,38.81734,148],[-90.39079,38.81736,147],[-90.39083,38.81738,145],[-90.3908,38.8174,145],[-90.39077,38.81742,145],[-90.39074,38.81744,145],[-90.39072,38.81747,144],[-90.39068,38.81749,144],[-90.39065,38.8175,144],[-90.39063,38.81752,144],[-90.39059,38.81751,145],[-90.39056,38.81749,146],[-90.39053,38.81748,147],[-90.3905,38.81747,147],[-90.39048,38.8175,146],[-90.39045,38.81752,146],[-90.39044,38.81755,146],[-90.39047,38.81752,146],[-90.39048,38.81749,147],[-90.39047,38.81746,148],[-90.39043,38.81745,148],[-90.39039,38.81746,149],[-90.39043,38.81746,148],[-90.39046,38.81748,147],[-90.39049,38.8175,146],[-90.39049,38.81752,146],[-90.39051,38.81755,145],[-90.39052,38.81758,144],[-90.39051,38.81761,144],[-90.39052,38.81764,143],[-90.39056,38.81765,142],[-90.3906,38.81766,141],[-90.39063,38.81768,141],[-90.39061,38.81771,140],[-90.39059,38.81773,140],[-90.39057,38.81776,140],[-90.39053,38.81777,140],[-90.39049,38.81778,140],[-90.39045,38.81778,141],[-90.39041,38.81779,141],[-90.39038,38.81779,141],[-90.39034,38.8178,142],[-90.39031,38.81781,142],[-90.39027,38.81783,142],[-90.39026,38.81785,142],[-90.39024,38.81787,142],[-90.3902,38.81788,143],[-90.39016,38.81788,143],[-90.39013,38.81788,144],[-90.39009,38.81789,144],[-90.39005,38.81789,145],[-90.39002,38.81788,145],[-90.38998,38.81787,146],[-90.38994,38.81787,147],[-90.3899,38.81788,147],[-90.38986,38.81789,147],[-90.38982,38.81791,147],[-90.38979,38.81793,147],[-90.38975,38.81795,148],[-90.38971,38.81796,148],[-90.38968,38.81797,148],[-90.38964,38.81798,148],[-90.3896,38.81799,148],[-90.38957,38.81801,147],[-90.38953,38.81801,147],[-90.38949,38.818,148],[-90.38947,38.81799,148],[-90.38945,38.81796,149],[-90.38942,38.81794,149],[-90.38939,38.81793,150],[-90.38934,38.81793,151],[-90.38931,38.81794,151],[-90.38927,38.81795,151],[-90.38923,38.81795,152],[-90.38919,38.81796,152],[-90.38914,38.81796,153],[-90.3891,38.81796,154],[-90.38907,38.81797,155],[-90.38903,38.81797,156],[-90.38899,38.81798,156],[-90.38896,38.81799,157],[-90.38892,38.818,157],[-90.38888,38.81799,159],[-90.38883,38.81799,159],[-90.38881,38.81802,159],[-90.38878,38.81804,159],[-90.38874,38.81805,160],[-90.38871,38.81806,160],[-90.38868,38.81808,160],[-90.38866,38.81811,159],[-90.38864,38.81814,158],[-90.38863,38.81817,157],[-90.38861,38.8182,156],[-90.3886,38.81823,154],[-90.38858,38.81826,153],[-90.38856,38.81829,152],[-90.38853,38.81829,152],[-90.3885,38.81831,151],[-90.38846,38.81833,150],[-90.3884,38.81835,149],[-90.38836,38.81837,148],[-90.38833,38.81838,148],[-90.38831,38.81842,146],[-90.38831,38.81845,145],[-90.38829,38.81848,143],[-90.38827,38.8185,143],[-90.38825,38.81853,142],[-90.38822,38.81855,141],[-90.38819,38.81858,141],[-90.38816,38.8186,140],[-90.38813,38.81861,140],[-90.3881,38.81862,141],[-90.38806,38.81864,141],[-90.38802,38.81865,142],[-90.38797,38.81866,142],[-90.38793,38.81867,143],[-90.3879,38.81869,143],[-90.38786,38.81871,143],[-90.38782,38.81874,143],[-90.38779,38.81876,143],[-90.38776,38.81878,143],[-90.38772,38.81879,143],[-90.38768,38.8188,143],[-90.38765,38.81881,143],[-90.3876,38.81882,143],[-90.38757,38.81883,143],[-90.38753,38.81886,142],[-90.38749,38.81889,142],[-90.38747,38.81892,141],[-90.38745,38.81895,140],[-90.38744,38.81898,139],[-90.38743,38.819,138],[-90.38741,38.81903,137],[-90.38738,38.81906,136],[-90.38735,38.81908,135],[-90.38731,38.81909,135],[-90.38728,38.81911,134],[-90.38725,38.81912,134],[-90.38721,38.81913,133],[-90.38717,38.81915,132],[-90.38714,38.81917,132],[-90.3871,38.81919,132],[-90.38707,38.8192,132],[-90.38704,38.81923,132],[-90.38701,38.81924,132],[-90.38697,38.81925,132],[-90.38694,38.81927,132],[-90.3869,38.81929,132],[-90.38687,38.8193,133],[-90.38683,38.81932,133],[-90.38679,38.81934,133],[-90.38677,38.81937,132],[-90.38675,38.8194,132],[-90.38673,38.81943,132],[-90.38671,38.81945,131],[-90.38668,38.81946,131],[-90.38664,38.81946,131],[-90.38659,38.81947,131],[-90.38656,38.81948,131],[-90.38653,38.81951,131],[-90.3865,38.81952,131],[-90.38654,38.81951,131],[-90.38658,38.81951,131],[-90.38661,38.81951,131],[-90.38665,38.8195,131],[-90.38668,38.81949,131],[-90.38665,38.81948,131],[-90.38662,38.8195,131],[-90.38665,38.81948,131],[-90.38666,38.81945,131],[-90.38669,38.81943,132],[-90.38665,38.81943,132],[-90.38662,38.8194,132],[-90.38663,38.81937,133],[-90.38667,38.81936,133],[-90.38671,38.81936,133],[-90.38676,38.81935,133],[-90.3868,38.81933,133],[-90.38684,38.81932,133],[-90.38687,38.81931,132],[-90.38691,38.8193,132],[-90.38696,38.81929,132],[-90.38702,38.81929,132],[-90.38707,38.81927,132],[-90.38711,38.81925,132],[-90.38714,38.81924,132],[-90.38718,38.81922,132],[-90.38721,38.81921,132],[-90.38725,38.81919,132],[-90.38728,38.81918,132],[-90.38733,38.81917,132],[-90.38738,38.81915,133],[-90.38742,38.81913,134],[-90.38744,38.8191,135],[-90.38746,38.81907,136],[-90.38746,38.81904,137],[-90.38747,38.81901,138],[-90.38747,38.81898,139],[-90.38748,38.81895,140],[-90.38749,38.81892,141],[-90.3875,38.8189,141],[-90.38753,38.81887,142],[-90.38756,38.81885,142],[-90.38761,38.81884,143],[-90.38766,38.81883,143],[-90.3877,38.81883,143],[-90.38774,38.81882,143],[-90.38778,38.81881,143],[-90.38781,38.8188,142],[-90.38784,38.81877,142],[-90.38787,38.81875,142],[-90.38791,38.81872,142],[-90.38794,38.81871,142],[-90.388,38.81869,141],[-90.38803,38.81868,141],[-90.38806,38.81866,141],[-90.3881,38.81865,141],[-90.38815,38.81864,140],[-90.38819,38.81863,139],[-90.38822,38.81862,139],[-90.38826,38.81861,139],[-90.38828,38.81858,139],[-90.38831,38.81856,140],[-90.38833,38.81852,141],[-90.38835,38.8185,142],[-90.38835,38.81847,144],[-90.38836,38.81844,145],[-90.38838,38.81842,146],[-90.38841,38.8184,147],[-90.38845,38.81838,148],[-90.38849,38.81837,148],[-90.38853,38.81835,149],[-90.38858,38.81834,149],[-90.38861,38.81832,150],[-90.38864,38.81829,151],[-90.38866,38.81827,152],[-90.38871,38.81825,152],[-90.38873,38.81822,153],[-90.38874,38.81819,154],[-90.38874,38.81816,155],[-90.38871,38.81813,157],[-90.38868,38.81809,160],[-90.38867,38.81806,161],[-90.38869,38.81803,161],[-90.38873,38.81802,161],[-90.38877,38.81801,160],[-90.3888,38.81801,160],[-90.38884,38.818,159],[-90.38889,38.818,158],[-90.38895,38.818,157],[-90.38898,38.81801,156],[-90.38902,38.818,155],[-90.38906,38.81799,154],[-90.3891,38.81798,154],[-90.38914,38.81798,153],[-90.38918,38.81799,151],[-90.38923,38.81799,151],[-90.38927,38.818,150],[-90.38931,38.81798,150],[-90.38935,38.81798,149],[-90.38939,38.81798,149],[-90.38943,38.81798,148],[-90.38947,38.81797,148],[-90.38952,38.81797,148],[-90.38955,38.81797,148],[-90.38959,38.818,147],[-90.38962,38.81801,147],[-90.38967,38.81803,147],[-90.38973,38.81802,147],[-90.38979,38.81798,147],[-90.38983,38.81796,146],[-90.38986,38.81794,146],[-90.3899,38.81793,146],[-90.38994,38.81793,146],[-90.38998,38.81792,145],[-90.39003,38.81791,145],[-90.39006,38.8179,144],[-90.3901,38.8179,144],[-90.39013,38.81789,144],[-90.39017,38.81788,143],[-90.39021,38.81788,142],[-90.39025,38.81787,142],[-90.39029,38.81787,141],[-90.39033,38.81785,141],[-90.39041,38.81782,141],[-90.39044,38.81779,141],[-90.39048,38.81777,141],[-90.39052,38.81776,140],[-90.39055,38.81776,140],[-90.39058,38.81775,140],[-90.39062,38.81773,140],[-90.39066,38.81771,140],[-90.3907,38.81769,140],[-90.39073,38.81767,140],[-90.39077,38.81765,140],[-90.39081,38.81763,139],[-90.39085,38.81761,139],[-90.39085,38.81757,140],[-90.39085,38.81753,141],[-90.39086,38.8175,141],[-90.39089,38.81747,142],[-90.39091,38.81745,142],[-90.39095,38.81743,142],[-90.39099,38.81741,142],[-90.39102,38.81739,142],[-90.39104,38.81737,143],[-90.39106,38.81733,144],[-90.39108,38.81731,144],[-90.39109,38.81728,144],[-90.39111,38.81726,144],[-90.39114,38.81724,144],[-90.39117,38.81721,145],[-90.3912,38.81719,145],[-90.39122,38.81717,146],[-90.39125,38.81716,146],[-90.39129,38.81714,146],[-90.39132,38.81712,146],[-90.39136,38.8171,146],[-90.3914,38.81707,147],[-90.39142,38.81705,147],[-90.39145,38.81703,148],[-90.39149,38.81701,148],[-90.39152,38.817,148],[-90.39157,38.81699,147],[-90.3916,38.81698,147],[-90.39164,38.81698,147],[-90.39169,38.81697,147],[-90.39174,38.81696,147],[-90.39177,38.81695,148],[-90.39181,38.81693,148],[-90.39183,38.8169,149],[-90.39185,38.81688,149],[-90.39186,38.81685,150],[-90.39191,38.81682,150],[-90.39194,38.8168,150],[-90.39197,38.81678,149],[-90.39199,38.81674,149],[-90.39201,38.81672,149],[-90.39203,38.81669,149],[-90.39206,38.81666,149],[-90.39209,38.81664,148],[-90.39213,38.81662,148],[-90.39216,38.81661,147],[-90.39219,38.81658,147],[-90.39222,38.81656,147],[-90.39225,38.81654,146],[-90.39226,38.81651,146],[-90.39228,38.81648,146],[-90.39229,38.81646,146],[-90.39231,38.81643,146],[-90.39232,38.8164,146],[-90.39233,38.81637,147],[-90.39232,38.81634,148],[-90.39232,38.81631,149],[-90.39233,38.81628,149],[-90.39235,38.81625,150],[-90.39236,38.81622,150],[-90.39239,38.8162,150],[-90.39242,38.81618,149],[-90.39244,38.81615,149],[-90.39246,38.81612,149],[-90.39249,38.81611,149],[-90.39253,38.81609,147],[-90.39256,38.81607,146],[-90.39257,38.81604,146],[-90.39258,38.81601,146],[-90.39259,38.81598,145],[-90.39257,38.81595,146],[-90.39256,38.81591,146],[-90.39255,38.81588,147],[-90.39253,38.81585,147],[-90.39253,38.81582,148],[-90.39255,38.8158,148],[-90.39256,38.81577,148],[-90.39257,38.81574,148],[-90.39257,38.81571,149],[-90.39257,38.81568,150],[-90.39256,38.81565,151],[-90.39256,38.81562,151],[-90.39257,38.8156,152],[-90.3926,38.81557,151],[-90.39263,38.81554,151],[-90.39265,38.81552,150],[-90.39267,38.8155,150],[-90.39271,38.81549,149],[-90.39275,38.8155,147],[-90.3928,38.81549,146],[-90.39285,38.81547,145],[-90.39288,38.81545,145],[-90.39292,38.81543,144],[-90.39296,38.81542,144],[-90.393,38.81542,143],[-90.39303,38.81542,142],[-90.39307,38.81543,140],[-90.3931,38.81541,140],[-90.39312,38.81539,140],[-90.39315,38.81536,141],[-90.39315,38.81534,141],[-90.39315,38.81531,142],[-90.39315,38.81527,143],[-90.39315,38.81524,143],[-90.39315,38.81521,144],[-90.39315,38.81518,144],[-90.39315,38.81514,144],[-90.39313,38.81511,145],[-90.39311,38.81508,146],[-90.3931,38.81506,146],[-90.39308,38.81503,147],[-90.39307,38.815,147],[-90.39304,38.81497,147],[-90.39302,38.81494,147],[-90.39301,38.81492,147],[-90.39299,38.81488,148],[-90.39297,38.81486,148],[-90.39297,38.81483,148],[-90.39297,38.8148,148],[-90.39296,38.81476,148],[-90.39296,38.81473,148],[-90.39296,38.8147,148],[-90.39294,38.81467,148],[-90.39293,38.81464,149],[-90.39291,38.81461,149],[-90.39287,38.81458,150],[-90.39285,38.81456,150],[-90.39282,38.81454,151],[-90.39278,38.81451,152],[-90.39275,38.81449,153],[-90.39272,38.81448,153],[-90.39268,38.81446,154],[-90.39265,38.81443,154],[-90.39263,38.81441,153],[-90.39261,38.81438,153],[-90.39258,38.81436,153],[-90.39254,38.81434,153],[-90.3925,38.81432,153],[-90.39246,38.8143,152],[-90.39243,38.81429,152],[-90.39238,38.81427,152],[-90.39235,38.81426,152],[-90.39232,38.81423,151],[-90.3923,38.8142,151],[-90.39228,38.81417,150],[-90.39227,38.81414,149],[-90.39225,38.81411,147],[-90.39225,38.81408,145],[-90.39225,38.81405,143],[-90.39227,38.81402,141],[-90.3923,38.81399,140],[-90.39232,38.81397,139],[-90.39235,38.81395,138],[-90.39237,38.81392,137],[-90.3924,38.8139,136],[-90.39242,38.81387,136],[-90.39245,38.81384,137],[-90.39247,38.81382,137],[-90.39249,38.81379,138],[-90.39252,38.81376,138],[-90.39254,38.81374,138],[-90.39256,38.81371,138],[-90.39257,38.81368,138],[-90.39258,38.81365,138],[-90.39259,38.81362,138],[-90.3926,38.81358,138],[-90.39261,38.81356,138],[-90.39262,38.81353,137],[-90.39264,38.8135,137],[-90.39267,38.81346,136],[-90.3927,38.81343,136],[-90.39273,38.8134,136],[-90.39276,38.81338,135],[-90.39278,38.81335,135],[-90.39281,38.81333,134],[-90.39286,38.81329,134],[-90.3929,38.81327,134],[-90.39293,38.81324,133],[-90.39296,38.81321,133],[-90.39299,38.81318,133],[-90.39301,38.81316,133],[-90.39305,38.81313,133],[-90.39307,38.81311,132],[-90.3931,38.8131,132],[-90.39313,38.81308,132],[-90.39316,38.81305,133],[-90.39319,38.81303,133],[-90.39325,38.81299,133],[-90.39328,38.81295,133],[-90.39332,38.81292,133],[-90.39334,38.8129,134],[-90.39338,38.81288,134],[-90.39342,38.81286,134],[-90.39345,38.81284,134],[-90.39349,38.81282,134],[-90.39352,38.8128,134],[-90.39356,38.81278,134],[-90.3936,38.81275,134],[-90.39363,38.81273,134],[-90.39364,38.81271,134],[-90.3936,38.8127,134],[-90.39352,38.8127,134],[-90.39348,38.8127,134],[-90.39346,38.81272,134],[-90.39353,38.81273,134],[-90.39359,38.81273,134],[-90.39363,38.8127,134],[-90.3937,38.81266,134],[-90.39375,38.81263,135],[-90.39381,38.81259,135],[-90.39388,38.81254,136],[-90.39395,38.8125,137],[-90.394,38.81246,137],[-90.39405,38.81241,137],[-90.3941,38.81237,137],[-90.39413,38.81235,137],[-90.39416,38.81232,137],[-90.39419,38.8123,137],[-90.39421,38.81228,137],[-90.39425,38.81225,137],[-90.39427,38.81223,137],[-90.39429,38.8122,138],[-90.39431,38.81218,138],[-90.39433,38.81215,138],[-90.39435,38.81213,138],[-90.39438,38.81211,138],[-90.3944,38.81209,138],[-90.39444,38.81206,138],[-90.39449,38.81202,137],[-90.39454,38.81198,137],[-90.3946,38.81193,137],[-90.39466,38.81188,136],[-90.39472,38.81183,135],[-90.39477,38.81178,134],[-90.39482,38.81173,134],[-90.39483,38.81167,133],[-90.39484,38.81162,133],[-90.39489,38.81157,132],[-90.39496,38.81155,132],[-90.39501,38.81155,132],[-90.39505,38.81157,132]]],
        "bbox": [
          -90.3865,
          38.81952,
          -90.39505,
          38.81113
        ]
      },
      "properties": {
        "name": "4.22.2021A"
      }
    }
  ]
}