{
  "type": "FeatureCollection",
  "features": [
    {
      "type": "Feature",
      "geometry": {
        "type": "MultiLineString",
        "coordinates": [[[-90.39077,38.81074,138],[-90.39081,38.81076,138],[-90.39084,38.81078,138],[-90.39086,38.8108,138],[-90.39088,38.81083,137],[-90.39088,38.81086,137],[-90.39088,38.81088,138],[-90.39086,38.81091,138],[-90.39085,38.81095,139],[-90.39084,38.81099,139],[-90.39084,38.81103,140],[-90.39082,38.81107,140],[-90.39081,38.81109,140],[-90.39081,38.81112,141],[-90.39079,38.81114,141],[-90.39077,38.81117,141],[-90.39073,38.81118,141],[-90.39069,38.81119,141],[-90.39065,38.81121,142],[-90.39063,38.81124,142],[-90.39059,38.81125,142],[-90.39055,38.81125,142],[-90.39052,38.81124,142],[-90.3905,38.81121,142],[-90.39046,38.81121,142],[-90.39043,38.8112,142],[-90.39039,38.81119,142],[-90.39036,38.81117,142],[-90.39031,38.81117,142],[-90.39027,38.81118,143],[-90.39023,38.81118,143],[-90.39019,38.81117,144],[-90.39015,38.81115,144],[-90.39012,38.81115,145],[-90.39008,38.81114,145],[-90.39005,38.81113,146],[-90.39001,38.81113,146],[-90.38997,38.81113,147],[-90.38993,38.81112,147],[-90.38989,38.81113,148],[-90.38985,38.81115,149],[-90.38982,38.81116,149],[-90.38979,38.81118,149],[-90.38975,38.81118,150],[-90.38971,38.81118,150],[-90.38968,38.81117,150],[-90.38965,38.81115,151],[-90.38961,38.81114,151],[-90.38957,38.81115,151],[-90.38953,38.81116,151],[-90.3895,38.81117,151],[-90.38949,38.8112,151],[-90.38948,38.81123,151],[-90.38943,38.81126,152],[-90.3894,38.81128,152],[-90.38938,38.81131,152],[-90.38934,38.81131,152],[-90.3893,38.81131,152],[-90.38927,38.81132,152],[-90.38924,38.81135,152],[-90.38921,38.81137,152],[-90.38918,38.81139,152],[-90.38914,38.81141,152],[-90.38911,38.81141,153],[-90.38908,38.81143,154],[-90.38905,38.81143,154],[-90.38902,38.81145,155],[-90.38898,38.81146,156],[-90.38894,38.81146,157],[-90.38891,38.81148,158],[-90.38888,38.81149,158],[-90.38884,38.8115,159],[-90.38881,38.81152,160],[-90.38879,38.81155,161],[-90.38877,38.81158,161],[-90.38875,38.81161,162],[-90.38872,38.81164,163],[-90.38869,38.81166,163],[-90.38866,38.81169,163],[-90.38863,38.81171,164],[-90.38862,38.81174,164],[-90.3886,38.81176,164],[-90.38859,38.81179,163],[-90.38859,38.81182,163],[-90.38858,38.81185,163],[-90.38858,38.81188,163],[-90.3886,38.81191,162],[-90.38863,38.81194,161],[-90.38866,38.81196,161],[-90.38869,38.81199,161],[-90.38871,38.81203,161],[-90.38872,38.81206,161],[-90.38874,38.81209,161],[-90.38875,38.81212,161],[-90.38876,38.81214,161],[-90.38877,38.81217,162],[-90.38878,38.8122,162],[-90.38875,38.81221,162],[-90.38873,38.81224,163],[-90.38873,38.81227,163],[-90.38872,38.8123,164],[-90.38869,38.8123,164],[-90.38865,38.81229,164],[-90.38862,38.81229,165],[-90.38859,38.81231,165],[-90.38858,38.81234,166],[-90.38857,38.81237,167],[-90.38855,38.81239,168],[-90.38857,38.81242,168],[-90.38858,38.81245,168],[-90.38857,38.81248,169],[-90.38856,38.81251,170],[-90.38852,38.81254,171],[-90.3885,38.81256,172],[-90.38848,38.81259,172],[-90.38844,38.8126,173],[-90.38841,38.81261,174],[-90.38838,38.81263,175],[-90.38836,38.81265,176],[-90.38834,38.81268,177],[-90.38831,38.8127,179],[-90.38829,38.81273,180],[-90.38827,38.81275,181],[-90.38829,38.81272,180],[-90.38825,38.81274,181],[-90.38821,38.81275,183],[-90.38819,38.81276,183],[-90.38815,38.81278,185],[-90.38812,38.8128,186],[-90.38809,38.81282,187],[-90.38807,38.81284,188],[-90.38807,38.81288,188],[-90.38806,38.81291,189],[-90.38805,38.81294,189],[-90.38805,38.81297,190],[-90.38806,38.813,190],[-90.38807,38.81303,190],[-90.38807,38.81306,190],[-90.38805,38.81308,191],[-90.38803,38.81311,192],[-90.388,38.81313,192],[-90.38798,38.81315,193],[-90.38795,38.81317,193],[-90.38793,38.81319,193],[-90.38792,38.81322,194],[-90.3879,38.81324,194],[-90.38786,38.81325,194],[-90.38783,38.81326,195],[-90.38779,38.81326,195],[-90.38776,38.81326,195],[-90.38772,38.81328,195],[-90.38769,38.8133,195],[-90.38765,38.81331,194],[-90.38763,38.81333,194],[-90.38764,38.81337,195],[-90.38764,38.8134,195],[-90.38764,38.81343,195],[-90.38763,38.81346,195],[-90.38761,38.81348,195],[-90.3876,38.81351,196],[-90.38757,38.81353,195],[-90.38754,38.81352,195],[-90.38757,38.81354,196],[-90.38758,38.81358,196],[-90.38758,38.81362,196],[-90.38757,38.81365,196],[-90.38756,38.81369,197],[-90.38756,38.81372,197],[-90.38755,38.81375,198],[-90.38753,38.81377,198],[-90.38751,38.8138,198],[-90.38751,38.81382,199],[-90.38751,38.81385,199],[-90.38754,38.81388,199],[-90.38756,38.81391,200],[-90.3876,38.81392,200],[-90.38763,38.81393,200],[-90.38767,38.81394,200],[-90.38771,38.81395,200],[-90.38776,38.81395,200],[-90.3878,38.81394,199],[-90.38783,38.81394,199],[-90.38787,38.81393,199],[-90.3879,38.81392,199],[-90.38793,38.8139,199],[-90.38797,38.8139,199],[-90.38801,38.81389,199],[-90.38805,38.81389,199],[-90.3881,38.8139,198],[-90.38813,38.81391,198],[-90.38817,38.81392,198],[-90.3882,38.81393,198],[-90.38824,38.81394,198],[-90.38828,38.81396,198],[-90.38831,38.81397,198],[-90.38835,38.81398,198],[-90.38839,38.814,197],[-90.38843,38.81402,197],[-90.38847,38.81404,197],[-90.3885,38.81405,197],[-90.38855,38.81406,196],[-90.38859,38.81407,196],[-90.38863,38.81407,195],[-90.38867,38.81408,195],[-90.3887,38.81409,195],[-90.38875,38.81411,194],[-90.38878,38.81412,194],[-90.38881,38.81414,193],[-90.38884,38.81415,193],[-90.38887,38.81416,193],[-90.38892,38.81417,192],[-90.38896,38.81417,192],[-90.389,38.81418,192],[-90.38904,38.81418,192],[-90.38908,38.81417,192],[-90.38912,38.81418,192],[-90.38916,38.81419,192],[-90.3892,38.8142,192],[-90.38923,38.81422,191],[-90.38927,38.81423,191],[-90.38931,38.81425,190],[-90.38934,38.81427,190],[-90.38937,38.81429,189],[-90.3894,38.81431,189],[-90.38942,38.81434,189],[-90.38943,38.81437,189],[-90.38944,38.8144,189],[-90.38946,38.81443,189],[-90.38948,38.81446,189],[-90.3895,38.81449,190],[-90.38951,38.81452,190],[-90.38951,38.81455,190],[-90.38953,38.81458,190],[-90.38954,38.81461,190],[-90.38954,38.81464,190],[-90.38954,38.81467,191],[-90.38953,38.81471,191],[-90.38953,38.81474,191],[-90.38951,38.81477,190],[-90.38953,38.8148,190],[-90.38955,38.81481,190],[-90.38956,38.81484,190],[-90.38955,38.81487,189],[-90.38956,38.8149,189],[-90.38956,38.81493,189],[-90.38956,38.81496,188],[-90.38958,38.81498,188],[-90.38962,38.815,188],[-90.38965,38.81502,188],[-90.38968,38.81504,188],[-90.38971,38.81505,187],[-90.38974,38.81508,187],[-90.38977,38.81511,186],[-90.38979,38.81513,186],[-90.38982,38.81515,185],[-90.38984,38.81517,185],[-90.38986,38.8152,184],[-90.3899,38.81522,183],[-90.38994,38.81523,183],[-90.38998,38.81523,183],[-90.39002,38.81525,182],[-90.39006,38.81527,182],[-90.39009,38.81528,181],[-90.39012,38.8153,181],[-90.39014,38.81532,181],[-90.39018,38.81534,181],[-90.39022,38.81535,180],[-90.39027,38.81536,180],[-90.39031,38.81538,180],[-90.39035,38.81539,181],[-90.39038,38.8154,181],[-90.39035,38.81541,180],[-90.39031,38.81541,180],[-90.39036,38.81541,180],[-90.3904,38.81542,181],[-90.39044,38.81542,181],[-90.39048,38.81542,182],[-90.39051,38.81543,182],[-90.39055,38.81544,182],[-90.39059,38.81545,183],[-90.39062,38.81545,183],[-90.39067,38.81545,184],[-90.39071,38.81545,184],[-90.39075,38.81545,184],[-90.39079,38.81545,185],[-90.39083,38.81544,185],[-90.39086,38.81544,185],[-90.3909,38.81543,186],[-90.39095,38.81541,186],[-90.39098,38.8154,186],[-90.39102,38.81538,186],[-90.39106,38.81538,186],[-90.3911,38.81538,186],[-90.39114,38.81538,186],[-90.39118,38.81539,186],[-90.39122,38.8154,186],[-90.39126,38.81541,185],[-90.3913,38.81542,185],[-90.39134,38.81544,185],[-90.39136,38.81546,185],[-90.39139,38.81547,185],[-90.39143,38.81547,184],[-90.39147,38.81547,184],[-90.3915,38.81549,184],[-90.39152,38.81552,183],[-90.39155,38.81554,183],[-90.39157,38.81556,183],[-90.3916,38.81559,183],[-90.39163,38.81562,182],[-90.39167,38.81564,182],[-90.3917,38.81566,181],[-90.39174,38.81567,180],[-90.39178,38.81567,179],[-90.39182,38.81567,178],[-90.39186,38.81567,177],[-90.39189,38.81566,176],[-90.39192,38.81567,176],[-90.3919,38.81565,176],[-90.39187,38.81566,177],[-90.39184,38.81565,178],[-90.3918,38.81564,179],[-90.39177,38.81565,179],[-90.39173,38.81566,180],[-90.39173,38.81569,180],[-90.39175,38.81572,179],[-90.39175,38.81575,178],[-90.39176,38.81579,177],[-90.39175,38.81582,177],[-90.39173,38.81584,177],[-90.39171,38.81587,178],[-90.39174,38.8159,176],[-90.39174,38.81592,176],[-90.39174,38.81595,175],[-90.39174,38.81598,174],[-90.39174,38.81601,174],[-90.39173,38.81604,173],[-90.39172,38.81607,173],[-90.39171,38.8161,173],[-90.3917,38.81613,172],[-90.3917,38.81617,170],[-90.39169,38.8162,170],[-90.39168,38.81623,169],[-90.39166,38.81626,168],[-90.39165,38.81629,167],[-90.39165,38.81631,167],[-90.39163,38.81634,166],[-90.39163,38.81636,165],[-90.39163,38.81639,164],[-90.39162,38.81642,164],[-90.39158,38.81645,164],[-90.39155,38.81648,164],[-90.39153,38.81651,163],[-90.39151,38.81653,163],[-90.39148,38.81655,163],[-90.39145,38.81656,164],[-90.39144,38.81659,163],[-90.39143,38.81662,162],[-90.3914,38.81663,162],[-90.39137,38.81664,163],[-90.39134,38.81666,162],[-90.39131,38.81668,162],[-90.39128,38.8167,162],[-90.39125,38.81672,162],[-90.39122,38.81673,162],[-90.3912,38.81675,162],[-90.39117,38.81677,162],[-90.39114,38.81679,161],[-90.39113,38.81682,161],[-90.3911,38.81682,161],[-90.39107,38.8168,162],[-90.39103,38.8168,162],[-90.39101,38.81677,163],[-90.39097,38.81676,164],[-90.39095,38.81673,165],[-90.39093,38.81671,165],[-90.39091,38.81668,166],[-90.39087,38.81667,166],[-90.39084,38.81669,166],[-90.39082,38.81671,166],[-90.39079,38.81673,166],[-90.39077,38.81676,165],[-90.39075,38.81678,165],[-90.39074,38.81681,165],[-90.39071,38.81683,165],[-90.39068,38.8168,165],[-90.39065,38.81681,165],[-90.39061,38.81681,166],[-90.39058,38.81683,166],[-90.39056,38.81686,165],[-90.39053,38.81688,165],[-90.3905,38.8169,165],[-90.39047,38.81691,165],[-90.39047,38.81694,165],[-90.39048,38.81697,164],[-90.39049,38.817,163],[-90.3905,38.81703,162],[-90.39052,38.81705,161],[-90.39054,38.81708,160],[-90.39056,38.8171,159],[-90.39056,38.81713,158],[-90.39053,38.81715,158],[-90.39055,38.81718,157],[-90.39057,38.8172,156],[-90.39054,38.81719,157],[-90.39051,38.81721,156],[-90.39053,38.81724,155],[-90.39052,38.81727,154],[-90.39053,38.8173,153],[-90.39053,38.81733,152],[-90.39055,38.81735,151],[-90.39058,38.81737,150],[-90.39059,38.81739,149],[-90.39059,38.81742,148],[-90.39055,38.81743,148],[-90.39053,38.81745,147],[-90.39052,38.81748,147],[-90.39051,38.81751,146],[-90.39051,38.81753,145],[-90.39048,38.81755,145],[-90.39044,38.81756,145],[-90.3904,38.81758,145],[-90.39038,38.81759,145],[-90.39034,38.81761,145],[-90.39031,38.81763,145],[-90.39028,38.81765,145],[-90.39024,38.81766,146],[-90.39021,38.81767,146],[-90.39018,38.81769,146],[-90.39014,38.81771,146],[-90.39011,38.81773,146],[-90.39007,38.81775,147],[-90.39004,38.81776,147],[-90.39,38.81779,147],[-90.38997,38.81781,147],[-90.38994,38.81782,147],[-90.38991,38.81784,147],[-90.38988,38.81787,147],[-90.38985,38.81788,148],[-90.38981,38.81789,148],[-90.38977,38.81789,148],[-90.38973,38.81789,149],[-90.38969,38.8179,149],[-90.38964,38.81791,149],[-90.38961,38.81793,149],[-90.38957,38.81794,149],[-90.38954,38.81795,148],[-90.38953,38.81798,148],[-90.38956,38.818,148],[-90.38953,38.81799,148],[-90.3895,38.81797,148],[-90.38947,38.81797,148],[-90.38943,38.81798,148],[-90.38939,38.81798,149],[-90.38935,38.81797,150],[-90.38932,38.81796,150],[-90.38928,38.81796,151],[-90.38925,38.81797,151],[-90.3892,38.81798,151],[-90.38917,38.81799,152],[-90.38913,38.81799,153],[-90.38909,38.81801,153],[-90.38906,38.81803,153],[-90.38901,38.81804,154],[-90.38897,38.81804,155],[-90.38893,38.81804,156],[-90.3889,38.81804,157],[-90.38889,38.81807,156],[-90.38888,38.8181,155],[-90.38884,38.81812,155],[-90.38881,38.81814,155],[-90.38878,38.81817,154],[-90.38876,38.81819,153],[-90.38872,38.8182,154],[-90.38869,38.81821,154],[-90.38865,38.81823,154],[-90.38862,38.81824,154],[-90.38859,38.81826,153],[-90.38859,38.8183,151],[-90.38857,38.81832,150],[-90.38855,38.81835,149],[-90.38853,38.81838,148],[-90.38849,38.81839,147],[-90.38845,38.81839,147],[-90.38841,38.8184,147],[-90.38838,38.81842,146],[-90.38836,38.81845,144],[-90.38835,38.81848,143],[-90.38832,38.81851,142],[-90.38829,38.81853,141],[-90.38827,38.81856,140],[-90.38826,38.81859,139],[-90.38824,38.81861,139],[-90.38821,38.81864,139],[-90.38818,38.81866,139],[-90.38814,38.81867,140],[-90.3881,38.81867,140],[-90.38807,38.81868,141],[-90.38803,38.81869,141],[-90.38799,38.8187,141],[-90.38796,38.81871,142],[-90.38792,38.81872,142],[-90.38789,38.81874,142],[-90.38786,38.81876,142],[-90.38783,38.81878,142],[-90.38779,38.8188,143],[-90.38775,38.81881,143],[-90.38771,38.81882,143],[-90.38767,38.81882,143],[-90.38764,38.81883,143],[-90.38761,38.81885,142],[-90.38757,38.81888,142],[-90.38755,38.8189,141],[-90.38752,38.81893,140],[-90.38749,38.81895,140],[-90.38746,38.81898,139],[-90.38745,38.81901,138],[-90.38742,38.81903,137],[-90.38739,38.81905,136],[-90.38735,38.81907,136],[-90.38731,38.81908,135],[-90.38728,38.81909,135],[-90.38724,38.8191,134],[-90.38723,38.81913,133],[-90.3872,38.81915,132],[-90.38717,38.81917,132],[-90.38713,38.81918,132],[-90.3871,38.8192,132],[-90.38708,38.81922,132],[-90.38707,38.81925,132],[-90.38705,38.81927,132],[-90.387,38.81928,132],[-90.38697,38.81929,132],[-90.38694,38.81931,132],[-90.38691,38.81933,132],[-90.38688,38.81931,132],[-90.38691,38.81933,132],[-90.38692,38.81936,132],[-90.38693,38.81938,132],[-90.38692,38.81941,132],[-90.38691,38.81944,132],[-90.38689,38.81946,131],[-90.38685,38.81948,131],[-90.38682,38.81949,131],[-90.3868,38.81952,131],[-90.38678,38.81955,131],[-90.38676,38.81957,131],[-90.38673,38.81958,131],[-90.38669,38.81959,131],[-90.38665,38.8196,131],[-90.38661,38.81961,131],[-90.38657,38.81962,131],[-90.38654,38.81963,131],[-90.38651,38.81965,131],[-90.38648,38.81966,131],[-90.38648,38.81964,131],[-90.38651,38.81962,131],[-90.38654,38.8196,131],[-90.38654,38.81957,131],[-90.3865,38.81957,131],[-90.38649,38.81959,131],[-90.38652,38.81959,131],[-90.38654,38.81957,131],[-90.38658,38.81956,131],[-90.38661,38.81955,131],[-90.38663,38.81952,131],[-90.38665,38.8195,131],[-90.38665,38.81947,131],[-90.38668,38.81945,131],[-90.38671,38.81943,132],[-90.38674,38.8194,132],[-90.38676,38.81938,132],[-90.38678,38.81936,133],[-90.38681,38.81935,132],[-90.38684,38.81932,133],[-90.38687,38.8193,133],[-90.3869,38.81929,132],[-90.38694,38.81928,132],[-90.38698,38.81928,132],[-90.38702,38.81926,132],[-90.38706,38.81924,132],[-90.38708,38.81922,132],[-90.38712,38.81921,132],[-90.38716,38.8192,132],[-90.38719,38.81918,132],[-90.38722,38.81916,132],[-90.38724,38.81914,133],[-90.38727,38.81912,134],[-90.38731,38.8191,134],[-90.38735,38.81909,135],[-90.38739,38.81909,135],[-90.38742,38.81907,136],[-90.38743,38.81904,137],[-90.38744,38.81901,138],[-90.38747,38.81899,138],[-90.3875,38.81896,139],[-90.38753,38.81894,140],[-90.38756,38.81891,141],[-90.3876,38.8189,141],[-90.38764,38.81889,141],[-90.38767,38.81888,142],[-90.38771,38.81889,141],[-90.38774,38.81888,142],[-90.38778,38.81885,142],[-90.38781,38.81883,142],[-90.38784,38.81881,142],[-90.38788,38.8188,142],[-90.38791,38.81878,141],[-90.38795,38.81877,141],[-90.38798,38.81875,141],[-90.38802,38.81874,141],[-90.38806,38.81873,140],[-90.38809,38.81873,140],[-90.38813,38.81872,140],[-90.38816,38.8187,139],[-90.38819,38.81868,139],[-90.38821,38.81866,139],[-90.38823,38.81863,139],[-90.38826,38.8186,139],[-90.38828,38.81858,139],[-90.38832,38.81857,139],[-90.38832,38.81853,141],[-90.38833,38.8185,142],[-90.38835,38.81847,144],[-90.38839,38.81845,144],[-90.38842,38.81843,145],[-90.38846,38.81842,146],[-90.38849,38.81841,146],[-90.38853,38.81839,147],[-90.38855,38.81837,148],[-90.38857,38.81835,149],[-90.3886,38.81833,150],[-90.38864,38.81834,149],[-90.38868,38.81834,148],[-90.38871,38.81832,149],[-90.38874,38.81829,149],[-90.38876,38.81827,150],[-90.38879,38.81823,151],[-90.38882,38.81821,152],[-90.38883,38.81818,153],[-90.38884,38.81814,154],[-90.38885,38.81811,155],[-90.38888,38.81809,155],[-90.38892,38.81809,154],[-90.38896,38.81808,154],[-90.389,38.81806,153],[-90.38903,38.81804,153],[-90.38905,38.81802,153],[-90.38909,38.81801,153],[-90.38913,38.81801,152],[-90.38917,38.81801,151],[-90.3892,38.818,151],[-90.38923,38.81802,150],[-90.38927,38.81802,149],[-90.3893,38.81802,149],[-90.38935,38.81802,148],[-90.38939,38.81801,148],[-90.38943,38.818,148],[-90.38947,38.81799,148],[-90.3895,38.81797,148],[-90.38955,38.81796,148],[-90.38958,38.81794,149],[-90.38961,38.81792,149],[-90.38964,38.8179,149],[-90.38968,38.81788,149],[-90.38973,38.81788,149],[-90.38977,38.81787,149],[-90.3898,38.81787,148],[-90.38985,38.81786,148],[-90.38988,38.81786,147],[-90.38991,38.81784,147],[-90.38994,38.81782,147],[-90.38998,38.81781,147],[-90.39001,38.8178,147],[-90.39005,38.8178,146],[-90.39006,38.81777,147],[-90.39006,38.81774,147],[-90.39007,38.81771,147],[-90.39011,38.8177,147],[-90.39014,38.81771,146],[-90.39019,38.81771,145],[-90.39023,38.81771,145],[-90.39027,38.81769,145],[-90.39031,38.81769,144],[-90.39035,38.81769,144],[-90.39036,38.81772,143],[-90.39039,38.81774,142],[-90.39043,38.81775,142],[-90.39047,38.81776,141],[-90.39051,38.81777,140],[-90.39054,38.81776,140],[-90.39055,38.81773,141],[-90.39055,38.8177,141],[-90.39056,38.81767,142],[-90.39056,38.81764,143],[-90.39055,38.81761,143],[-90.39055,38.81758,144],[-90.39059,38.81757,144],[-90.39062,38.81755,144],[-90.39066,38.81757,143],[-90.3907,38.81757,142],[-90.39074,38.81757,142],[-90.39077,38.81756,141],[-90.39081,38.81753,141],[-90.39084,38.81752,141],[-90.39087,38.81749,141],[-90.3909,38.81747,142],[-90.39093,38.81745,142],[-90.39095,38.81743,142],[-90.39097,38.81741,143],[-90.391,38.81738,143],[-90.39103,38.81735,144],[-90.39106,38.81733,144],[-90.39109,38.81732,143],[-90.39112,38.81731,143],[-90.39116,38.81729,143],[-90.39118,38.81727,143],[-90.39122,38.81725,143],[-90.39126,38.81724,142],[-90.39129,38.81722,142],[-90.39133,38.81719,143],[-90.39136,38.81717,143],[-90.3914,38.81716,143],[-90.39143,38.81715,143],[-90.39147,38.81713,143],[-90.3915,38.81711,144],[-90.39154,38.81709,144],[-90.39157,38.81708,144],[-90.39161,38.81707,143],[-90.39165,38.81706,143],[-90.39167,38.81704,144],[-90.39168,38.81702,145],[-90.3917,38.81699,146],[-90.39173,38.81697,147],[-90.39176,38.81695,148],[-90.39179,38.81693,148],[-90.39182,38.81691,149],[-90.39185,38.8169,149],[-90.39188,38.81687,149],[-90.3919,38.81684,149],[-90.39192,38.81681,150],[-90.39194,38.81678,150],[-90.39195,38.81675,150],[-90.39197,38.81672,150],[-90.392,38.81671,149],[-90.39203,38.81668,149],[-90.39205,38.81665,149],[-90.39209,38.81664,148],[-90.39213,38.81664,148],[-90.39215,38.81662,147],[-90.39216,38.81659,148],[-90.39218,38.81655,148],[-90.39219,38.81653,148],[-90.3922,38.8165,148],[-90.39221,38.81646,148],[-90.39222,38.81643,148],[-90.39222,38.8164,148],[-90.39223,38.81637,149],[-90.39224,38.81635,149],[-90.39227,38.81634,149],[-90.39228,38.81631,150],[-90.39229,38.81629,150],[-90.39233,38.81628,149],[-90.39236,38.81626,149],[-90.39239,38.81624,149],[-90.39243,38.81623,148],[-90.39246,38.8162,148],[-90.39248,38.81618,148],[-90.39249,38.81614,148],[-90.39251,38.81611,148],[-90.39252,38.81609,148],[-90.39255,38.81606,147],[-90.39257,38.81604,146],[-90.3926,38.81602,145],[-90.39261,38.81598,145],[-90.39261,38.81594,145],[-90.39262,38.8159,145],[-90.39262,38.81588,145],[-90.39262,38.81585,145],[-90.39262,38.81581,145],[-90.39262,38.81578,146],[-90.39261,38.81576,147],[-90.39259,38.81573,148],[-90.39258,38.8157,149],[-90.39258,38.81567,150],[-90.39258,38.81564,150],[-90.3926,38.81561,150],[-90.39262,38.81559,150],[-90.39265,38.81556,150],[-90.39268,38.81553,149],[-90.3927,38.81551,149],[-90.39272,38.81549,148],[-90.39274,38.81546,149],[-90.39277,38.81543,148],[-90.39279,38.81541,148],[-90.39281,38.81538,149],[-90.39284,38.81536,149],[-90.39288,38.81534,148],[-90.39291,38.81533,148],[-90.39295,38.8153,147],[-90.39298,38.81528,147],[-90.39301,38.81526,147],[-90.39305,38.81523,146],[-90.39307,38.8152,146],[-90.39308,38.81517,146],[-90.39309,38.81514,146],[-90.3931,38.81511,146],[-90.39307,38.81511,146],[-90.3931,38.81509,146],[-90.39311,38.81506,146],[-90.3931,38.81503,146],[-90.39308,38.815,147],[-90.39306,38.81498,147],[-90.39304,38.81495,147],[-90.39302,38.81493,147],[-90.39301,38.8149,147],[-90.39299,38.81487,147],[-90.39298,38.81484,147],[-90.39297,38.81481,148],[-90.39297,38.81478,148],[-90.39296,38.81474,148],[-90.39295,38.81471,148],[-90.39294,38.81468,148],[-90.39293,38.81464,149],[-90.39291,38.81462,149],[-90.39289,38.81459,150],[-90.39287,38.81457,150],[-90.39284,38.81455,151],[-90.39282,38.81453,151],[-90.3928,38.8145,152],[-90.39278,38.81447,152],[-90.39276,38.81444,153],[-90.39274,38.81441,152],[-90.39271,38.81439,152],[-90.39269,38.81437,152],[-90.39266,38.81435,152],[-90.39263,38.81433,152],[-90.3926,38.8143,151],[-90.39256,38.81429,151],[-90.39252,38.81427,152],[-90.39249,38.81425,151],[-90.39245,38.81422,151],[-90.39242,38.81419,150],[-90.39239,38.81417,150],[-90.39236,38.81415,149],[-90.39234,38.81412,148],[-90.39232,38.8141,146],[-90.3923,38.81407,145],[-90.39227,38.81404,143],[-90.39223,38.81402,141],[-90.3922,38.814,140],[-90.39217,38.81398,139],[-90.39213,38.81396,139],[-90.3921,38.81395,138],[-90.39207,38.81392,137],[-90.39204,38.81391,137],[-90.392,38.81388,137],[-90.39199,38.81386,137],[-90.39197,38.81383,138],[-90.39195,38.81381,138],[-90.39192,38.81379,139],[-90.39188,38.81377,140],[-90.39185,38.81375,141],[-90.39182,38.81372,142],[-90.39179,38.8137,142],[-90.39177,38.81367,142],[-90.39175,38.81364,142],[-90.39173,38.81362,142],[-90.39171,38.81359,142],[-90.3917,38.81356,143],[-90.3917,38.81353,143],[-90.39169,38.8135,144],[-90.39168,38.81347,144],[-90.39167,38.81343,145],[-90.39165,38.8134,146],[-90.39164,38.81338,146],[-90.3916,38.81335,147],[-90.39155,38.81334,148],[-90.39152,38.81333,149],[-90.39148,38.81331,149],[-90.39146,38.81329,149],[-90.39144,38.81326,149],[-90.39143,38.81323,149],[-90.39143,38.81319,149],[-90.3914,38.81316,150],[-90.39136,38.81314,150],[-90.39133,38.81312,151],[-90.39129,38.8131,151],[-90.39126,38.81308,151],[-90.39124,38.81306,152],[-90.39123,38.81303,151],[-90.39122,38.813,151],[-90.39119,38.81298,150],[-90.39116,38.81296,150],[-90.39114,38.81293,150],[-90.39113,38.8129,149],[-90.39112,38.81287,149],[-90.39109,38.81284,148],[-90.39108,38.81281,148],[-90.39108,38.81278,147],[-90.39107,38.81275,147],[-90.39107,38.81272,146],[-90.39107,38.81269,145],[-90.39106,38.81266,145],[-90.39105,38.81263,144],[-90.39103,38.8126,144],[-90.39102,38.81257,143],[-90.39101,38.81254,143],[-90.39101,38.81251,142],[-90.39101,38.81248,142],[-90.39099,38.81245,143],[-90.39098,38.81242,144],[-90.39097,38.81239,145],[-90.39096,38.81235,146],[-90.39096,38.81232,147],[-90.39096,38.81229,147],[-90.39094,38.81226,148],[-90.39091,38.81224,149],[-90.39089,38.81222,149],[-90.39088,38.81219,149],[-90.39091,38.81218,149],[-90.39093,38.81216,149],[-90.39094,38.81213,149],[-90.39094,38.8121,149],[-90.39093,38.81207,149],[-90.39093,38.81203,149],[-90.39093,38.812,149],[-90.39093,38.81197,150],[-90.39093,38.81194,149],[-90.39092,38.81191,149],[-90.39092,38.81187,149],[-90.39093,38.81183,148],[-90.39095,38.8118,148],[-90.39096,38.81177,147],[-90.39097,38.81174,147],[-90.391,38.81172,146],[-90.39103,38.8117,146],[-90.39105,38.81166,145],[-90.39106,38.81162,144],[-90.39107,38.81159,144],[-90.39107,38.81155,143],[-90.39107,38.81152,143],[-90.39106,38.81149,142],[-90.39105,38.81146,142],[-90.39104,38.81144,142],[-90.39102,38.81141,141],[-90.39101,38.81138,141],[-90.39101,38.81134,141],[-90.39099,38.81131,141],[-90.39097,38.81128,141],[-90.39095,38.81126,141],[-90.39093,38.81124,141],[-90.3909,38.81122,141],[-90.39089,38.81118,140],[-90.39087,38.81115,140],[-90.39087,38.81112,140],[-90.39088,38.81109,140],[-90.39088,38.81106,140],[-90.39088,38.81102,139],[-90.39088,38.81099,139],[-90.39088,38.81095,138],[-90.39088,38.81092,138],[-90.39089,38.81089,138],[-90.39088,38.81086,137],[-90.39086,38.81083,137],[-90.39084,38.8108,138],[-90.39081,38.81078,138],[-90.39078,38.81077,138],[-90.39074,38.81076,138]]],
        "bbox": [
          -90.38648,
          38.81966,
          -90.39311,
          38.81074
        ]
      },
      "properties": {
        "name": "9.27.2020A"
      }
    }
  ]
}