{
  "type": "FeatureCollection",
  "features": [
    {
      "type": "Feature",
      "geometry": {
        "type": "MultiLineString",
        "coordinates": [[[-90.39513,38.81156,132],[-90.3951,38.81158,132],[-90.39507,38.81159,132],[-90.39505,38.81161,132],[-90.39501,38.81164,132],[-90.39498,38.81166,133],[-90.39496,38.81168,133],[-90.39493,38.81171,133],[-90.39487,38.81182,134],[-90.39478,38.81186,135],[-90.39475,38.81189,136],[-90.39473,38.81191,136],[-90.3947,38.81193,136],[-90.39466,38.81195,137],[-90.39462,38.81196,137],[-90.39457,38.81199,137],[-90.39455,38.81201,137],[-90.39453,38.81204,137],[-90.39451,38.81207,137],[-90.39447,38.8121,137],[-90.39445,38.81212,137],[-90.39442,38.81215,138],[-90.3944,38.81218,138],[-90.39437,38.81221,138],[-90.39411,38.81241,137],[-90.39408,38.81243,137],[-90.39405,38.81245,137],[-90.39403,38.81248,137],[-90.394,38.81251,136],[-90.39397,38.81253,136],[-90.39395,38.81255,136],[-90.39391,38.81258,136],[-90.39388,38.81261,135],[-90.39385,38.81263,135],[-90.39382,38.81265,135],[-90.39376,38.81268,134],[-90.39373,38.8127,134],[-90.39369,38.81271,134],[-90.39366,38.81274,134],[-90.39362,38.81275,134],[-90.39359,38.81275,134],[-90.39353,38.81278,134],[-90.3935,38.81283,134],[-90.39349,38.81285,133],[-90.39347,38.81288,133],[-90.39344,38.8129,133],[-90.3934,38.81291,133],[-90.39335,38.81293,133],[-90.39331,38.81294,133],[-90.39327,38.81295,133],[-90.39324,38.81296,133],[-90.3932,38.81298,133],[-90.39317,38.813,133],[-90.39314,38.81301,133],[-90.3931,38.81303,133],[-90.39307,38.81304,133],[-90.39304,38.81305,133],[-90.393,38.81306,133],[-90.39297,38.81308,133],[-90.39295,38.81312,133],[-90.39293,38.81315,133],[-90.39291,38.81318,133],[-90.39287,38.81318,133],[-90.39284,38.8132,134],[-90.39282,38.81323,134],[-90.3928,38.81326,134],[-90.39277,38.81329,134],[-90.39273,38.81333,135],[-90.39269,38.81335,135],[-90.39265,38.81338,136],[-90.39261,38.81342,136],[-90.39258,38.81345,137],[-90.39256,38.81349,137],[-90.39253,38.81355,138],[-90.39251,38.81359,138],[-90.39253,38.81363,138],[-90.39247,38.81366,138],[-90.39244,38.81378,137],[-90.39239,38.81383,136],[-90.39225,38.81407,144],[-90.3922,38.8141,146],[-90.39216,38.81411,147],[-90.39213,38.81409,146],[-90.39211,38.81405,144],[-90.39211,38.81402,142],[-90.39206,38.81403,143],[-90.39203,38.81404,144],[-90.392,38.81405,145],[-90.39197,38.81407,147],[-90.39194,38.81409,148],[-90.39189,38.81411,150],[-90.39182,38.81414,153],[-90.39179,38.81418,156],[-90.39178,38.81426,158],[-90.39179,38.8143,159],[-90.39182,38.81435,159],[-90.39183,38.81439,160],[-90.39181,38.81444,162],[-90.39181,38.81449,163],[-90.39185,38.81452,162],[-90.39186,38.81456,163],[-90.39186,38.8146,163],[-90.39188,38.81465,163],[-90.39188,38.81468,164],[-90.39188,38.81473,165],[-90.39188,38.81477,165],[-90.39189,38.81482,165],[-90.39191,38.81487,165],[-90.39193,38.81491,165],[-90.39194,38.81496,165],[-90.39194,38.815,166],[-90.39193,38.81504,167],[-90.39192,38.81509,169],[-90.39191,38.81514,171],[-90.39189,38.81518,173],[-90.39187,38.81522,175],[-90.39188,38.81526,176],[-90.39187,38.81531,177],[-90.39186,38.81535,177],[-90.39185,38.81539,178],[-90.39186,38.81543,178],[-90.39188,38.81547,178],[-90.39192,38.81551,178],[-90.39194,38.81556,178],[-90.39194,38.81559,177],[-90.39191,38.81561,177],[-90.3919,38.81564,177],[-90.39193,38.81565,176],[-90.3919,38.81564,177],[-90.39175,38.81574,179],[-90.39174,38.81577,178],[-90.39177,38.81579,177],[-90.39178,38.81582,177],[-90.39178,38.81586,176],[-90.39178,38.81589,175],[-90.39177,38.81592,175],[-90.39176,38.81595,174],[-90.39177,38.816,173],[-90.39176,38.81604,172],[-90.39175,38.81607,172],[-90.39173,38.81609,172],[-90.39171,38.81612,172],[-90.39171,38.81616,171],[-90.3917,38.81619,170],[-90.39167,38.81621,170],[-90.39165,38.81623,169],[-90.39166,38.81626,168],[-90.39165,38.8163,167],[-90.39165,38.81633,166],[-90.39164,38.81636,165],[-90.39161,38.81639,165],[-90.39159,38.81642,165],[-90.39156,38.81645,164],[-90.39152,38.81647,165],[-90.39147,38.81649,165],[-90.39145,38.81651,165],[-90.39144,38.81654,164],[-90.39145,38.81657,163],[-90.39147,38.81659,162],[-90.39149,38.81657,162],[-90.39149,38.81654,163],[-90.39146,38.81653,164],[-90.39143,38.81655,164],[-90.39145,38.81658,163],[-90.39143,38.81661,162]],[[-90.39143,38.81661,162],[-90.39144,38.81665,161],[-90.39141,38.81663,162],[-90.39137,38.81662,163],[-90.39133,38.81662,164],[-90.3913,38.81664,164],[-90.39127,38.81666,163],[-90.39128,38.81668,163],[-90.39126,38.81671,162],[-90.39123,38.81672,162],[-90.39119,38.81673,162],[-90.39116,38.81674,163],[-90.39114,38.81677,162],[-90.39112,38.8168,162],[-90.39109,38.81681,162],[-90.39105,38.81681,162],[-90.39101,38.81681,162],[-90.39102,38.81678,163],[-90.39104,38.81675,164],[-90.39104,38.81672,164],[-90.39101,38.81671,165],[-90.39099,38.81669,165],[-90.39095,38.81666,166],[-90.39091,38.81665,167],[-90.39096,38.81668,166],[-90.39094,38.81671,165],[-90.39091,38.81669,166],[-90.3909,38.81672,165],[-90.39087,38.81672,165],[-90.39085,38.81669,166],[-90.39082,38.81669,166],[-90.39081,38.81672,166],[-90.3908,38.81675,165],[-90.39083,38.81676,165],[-90.39085,38.81672,165],[-90.39088,38.81674,165],[-90.39084,38.81675,165],[-90.39081,38.81677,165],[-90.39078,38.81677,165],[-90.39075,38.81676,165],[-90.39075,38.81673,166],[-90.39074,38.81675,166],[-90.39077,38.81676,165],[-90.39079,38.81679,165],[-90.39083,38.81677,165],[-90.39083,38.81674,165],[-90.39087,38.81673,165],[-90.39089,38.81675,165],[-90.39089,38.81678,164],[-90.39087,38.8168,164],[-90.39084,38.81681,164],[-90.3908,38.81682,164],[-90.39077,38.8168,165],[-90.39074,38.81679,165],[-90.39069,38.81676,166],[-90.3907,38.81673,166],[-90.3907,38.8167,166],[-90.39067,38.81668,167],[-90.39064,38.81667,167],[-90.39061,38.81665,168],[-90.39058,38.81664,168],[-90.39054,38.81664,168],[-90.39051,38.81666,168],[-90.39048,38.81667,168],[-90.39047,38.81664,168],[-90.39047,38.81667,168],[-90.39045,38.81669,168],[-90.39049,38.8167,167],[-90.39051,38.81672,167],[-90.39054,38.81674,167],[-90.39057,38.81675,167],[-90.3906,38.81677,166],[-90.39063,38.81679,166],[-90.39065,38.81683,165],[-90.39063,38.81685,165],[-90.3906,38.81687,165],[-90.39057,38.81689,165],[-90.39053,38.8169,165],[-90.3905,38.81691,165],[-90.39047,38.81689,166],[-90.39045,38.81686,166],[-90.39043,38.81683,166],[-90.39043,38.8168,167],[-90.39043,38.81678,167],[-90.39043,38.81675,167],[-90.39042,38.81678,167],[-90.39043,38.81681,167],[-90.39043,38.81684,166],[-90.39045,38.81687,166],[-90.39047,38.8169,166],[-90.39048,38.81693,165],[-90.3905,38.81696,164],[-90.39051,38.81699,163],[-90.39053,38.81702,162],[-90.39052,38.81704,162],[-90.39049,38.81707,161],[-90.39048,38.8171,160],[-90.39048,38.81712,159],[-90.39047,38.81715,158],[-90.39046,38.81718,157],[-90.39048,38.81721,156],[-90.3905,38.81723,155],[-90.39051,38.81726,154],[-90.39051,38.81729,153],[-90.39054,38.81731,152],[-90.39056,38.81734,151],[-90.39057,38.81736,150],[-90.39055,38.81738,150],[-90.39053,38.81741,149],[-90.39052,38.81743,148],[-90.39049,38.8174,150],[-90.39051,38.81738,150],[-90.39052,38.81734,151],[-90.39056,38.81735,151],[-90.39058,38.81738,149],[-90.39058,38.81741,148],[-90.39058,38.81743,148],[-90.39054,38.81744,148],[-90.39053,38.81742,149],[-90.39048,38.81742,149],[-90.39044,38.81744,149],[-90.39041,38.81745,149],[-90.3904,38.81748,148],[-90.39043,38.8175,147],[-90.39043,38.81753,146],[-90.39041,38.81756,146],[-90.39039,38.81758,146],[-90.39039,38.81761,145],[-90.39036,38.81764,145],[-90.39034,38.81766,144],[-90.3903,38.81768,144],[-90.39026,38.81769,145],[-90.39021,38.81768,146],[-90.39017,38.81768,146],[-90.39013,38.81768,147],[-90.39009,38.81769,147],[-90.39006,38.81771,147],[-90.39003,38.81773,148],[-90.39,38.81774,148],[-90.38996,38.81775,148],[-90.38992,38.81777,148],[-90.38991,38.8178,148],[-90.38991,38.81783,148],[-90.38992,38.81787,147],[-90.3899,38.81789,147],[-90.38989,38.81792,146],[-90.38987,38.81794,146],[-90.38983,38.81796,146],[-90.38979,38.81798,147],[-90.38976,38.81799,147],[-90.38972,38.818,147],[-90.38968,38.818,147],[-90.38964,38.81799,148],[-90.38961,38.81798,148],[-90.38957,38.81798,148],[-90.38955,38.81796,148],[-90.38953,38.81793,149],[-90.38948,38.81793,149],[-90.38944,38.81793,149],[-90.38941,38.81795,149],[-90.38937,38.81796,150],[-90.38933,38.81795,150],[-90.38931,38.81799,150],[-90.3893,38.81804,149],[-90.38927,38.81801,150],[-90.38923,38.81798,151],[-90.3892,38.81797,152],[-90.38915,38.81797,153],[-90.38912,38.81798,153],[-90.38909,38.818,153],[-90.38906,38.81802,153],[-90.38902,38.81802,154],[-90.389,38.818,155],[-90.38896,38.81799,157],[-90.38893,38.81802,156],[-90.38892,38.81805,156],[-90.3889,38.81808,155],[-90.38887,38.81809,156],[-90.38883,38.81809,156],[-90.38881,38.81812,156],[-90.38878,38.81815,155],[-90.38875,38.81817,155],[-90.38872,38.8182,154],[-90.3887,38.81822,153],[-90.38868,38.81825,152],[-90.38866,38.81827,152],[-90.38863,38.81829,151],[-90.38861,38.81832,150],[-90.38859,38.81835,149],[-90.38855,38.81836,148],[-90.3885,38.81838,148],[-90.38847,38.81841,146],[-90.38846,38.81844,145],[-90.38844,38.81847,144],[-90.38841,38.81848,143],[-90.38837,38.8185,142],[-90.38834,38.81852,141],[-90.38831,38.81855,140],[-90.38829,38.81857,140],[-90.38826,38.81859,139],[-90.38822,38.81861,139],[-90.38818,38.81862,140],[-90.38813,38.81864,140],[-90.3881,38.81865,141],[-90.38806,38.81866,141],[-90.38802,38.81867,141],[-90.388,38.81869,141],[-90.38796,38.81871,142],[-90.38793,38.81873,142],[-90.3879,38.81875,142],[-90.38786,38.81876,142],[-90.38783,38.81878,142],[-90.3878,38.81879,143],[-90.38777,38.8188,143],[-90.38773,38.81882,143],[-90.38771,38.81886,142],[-90.38768,38.81888,142],[-90.38765,38.8189,141],[-90.38762,38.81891,141],[-90.38758,38.81893,140],[-90.38755,38.81895,140],[-90.38753,38.81898,139],[-90.38752,38.81901,138],[-90.3875,38.81904,137],[-90.38747,38.81905,136],[-90.38743,38.81905,136],[-90.38739,38.81905,136],[-90.38735,38.81906,136],[-90.38733,38.81909,135],[-90.38731,38.81911,134],[-90.3873,38.81915,132],[-90.38727,38.81914,133],[-90.38724,38.81917,132],[-90.38721,38.8192,132],[-90.3872,38.81923,132],[-90.38718,38.81924,132],[-90.38717,38.81927,132],[-90.38711,38.81929,132],[-90.38711,38.81932,132],[-90.38711,38.81935,132],[-90.38711,38.81938,132],[-90.38711,38.81941,132],[-90.3871,38.81943,132],[-90.38713,38.81946,131],[-90.38716,38.81947,131],[-90.38713,38.81945,131],[-90.38714,38.81948,131],[-90.38715,38.81944,132],[-90.38716,38.8194,132],[-90.38716,38.81937,132],[-90.38717,38.81935,132],[-90.38719,38.81932,132],[-90.3872,38.81929,132],[-90.38721,38.81926,132],[-90.38723,38.81923,132],[-90.38726,38.81923,132],[-90.38726,38.8192,132],[-90.38724,38.81918,132],[-90.38721,38.81918,132],[-90.38718,38.81919,132],[-90.38714,38.81922,132],[-90.38712,38.81925,132],[-90.38708,38.81926,132],[-90.38704,38.81927,132],[-90.38701,38.81929,132],[-90.38698,38.81932,132],[-90.38694,38.81933,132],[-90.3869,38.81935,132],[-90.38687,38.81937,132],[-90.38684,38.81938,132],[-90.38681,38.81941,132],[-90.38679,38.81944,132],[-90.38675,38.81945,131],[-90.38671,38.81944,132],[-90.38668,38.81945,131],[-90.38665,38.81947,131],[-90.38662,38.81947,131],[-90.38658,38.81947,131],[-90.38654,38.81948,131],[-90.38651,38.81947,131],[-90.38647,38.81949,131],[-90.38644,38.8195,131],[-90.3864,38.8195,131],[-90.38637,38.81951,131],[-90.38633,38.81953,132],[-90.38629,38.81954,132],[-90.38625,38.81955,133],[-90.38622,38.81956,133],[-90.38617,38.81958,134],[-90.38613,38.81959,134],[-90.38609,38.8196,134],[-90.38606,38.81962,134],[-90.38602,38.81962,134],[-90.38598,38.81962,134],[-90.38594,38.81962,134],[-90.38589,38.81961,135],[-90.38586,38.81962,135],[-90.38582,38.81963,134],[-90.38578,38.81963,134],[-90.38575,38.81963,134],[-90.38571,38.81964,134],[-90.38567,38.81964,134],[-90.38573,38.81962,135],[-90.38575,38.8196,135],[-90.38577,38.81957,137],[-90.38578,38.81955,137],[-90.38581,38.81952,139],[-90.38585,38.8195,139],[-90.38587,38.81948,140],[-90.38588,38.81944,141],[-90.38588,38.81941,142],[-90.38592,38.81942,141],[-90.38595,38.81944,140],[-90.38594,38.81947,139],[-90.38591,38.81949,139],[-90.38587,38.8195,139],[-90.38584,38.81952,138],[-90.38581,38.81953,138],[-90.38578,38.81955,137],[-90.38575,38.81957,137],[-90.38573,38.81959,136],[-90.38576,38.81961,135],[-90.3858,38.81961,135],[-90.38583,38.81962,135],[-90.38586,38.81963,134],[-90.3859,38.81964,133],[-90.38594,38.81964,133],[-90.38599,38.81964,133],[-90.38602,38.81964,133],[-90.38606,38.81963,133],[-90.38617,38.81961,133],[-90.38621,38.81959,133],[-90.38624,38.81957,133],[-90.38627,38.81955,133],[-90.3863,38.81952,132],[-90.38633,38.8195,132],[-90.38637,38.8195,131],[-90.38641,38.8195,131],[-90.38644,38.81949,131],[-90.38648,38.81949,131],[-90.38652,38.81947,131],[-90.38654,38.81944,131],[-90.3866,38.81943,132],[-90.38666,38.81943,132],[-90.38669,38.8194,132],[-90.38669,38.81937,133],[-90.38671,38.81934,133],[-90.38674,38.81932,133],[-90.38678,38.8193,133],[-90.38681,38.81929,133],[-90.38684,38.81927,133],[-90.38688,38.81927,133],[-90.38692,38.81927,132],[-90.38696,38.81927,132],[-90.387,38.81925,132],[-90.38704,38.81925,132],[-90.38708,38.81924,132],[-90.38711,38.81922,132],[-90.38715,38.8192,132],[-90.38718,38.81917,132],[-90.3872,38.81915,132],[-90.38723,38.81913,133],[-90.38727,38.8191,134],[-90.38731,38.81907,136],[-90.38733,38.81905,136],[-90.38734,38.81902,138],[-90.38735,38.81898,139],[-90.38736,38.81895,140],[-90.38738,38.81893,141],[-90.38741,38.8189,142],[-90.38744,38.81889,142],[-90.38748,38.81888,142],[-90.38753,38.81887,142],[-90.38758,38.81886,142],[-90.38761,38.81886,142],[-90.38766,38.81885,142],[-90.3877,38.81882,143],[-90.38775,38.81881,143],[-90.38779,38.8188,143],[-90.38783,38.81877,143],[-90.38788,38.81875,142],[-90.38793,38.81874,142],[-90.38797,38.81873,141],[-90.388,38.81872,141],[-90.38804,38.8187,141],[-90.38806,38.81867,141],[-90.38807,38.81864,141],[-90.3881,38.81862,141],[-90.38812,38.8186,141],[-90.38815,38.81859,141],[-90.38818,38.81857,141],[-90.38822,38.81855,141],[-90.38826,38.81854,141],[-90.38829,38.81853,141],[-90.3883,38.8185,143],[-90.3883,38.81847,144],[-90.38833,38.81844,145],[-90.38838,38.81841,146],[-90.38846,38.81838,148],[-90.38849,38.81835,149],[-90.38851,38.81832,150],[-90.38854,38.81829,152],[-90.38859,38.81827,152],[-90.38863,38.81826,153],[-90.38869,38.81824,153],[-90.38873,38.81823,152],[-90.38877,38.8182,153],[-90.38883,38.81815,154],[-90.38887,38.8181,155],[-90.38891,38.81808,155],[-90.38896,38.81808,154],[-90.389,38.81805,154],[-90.38906,38.81803,153],[-90.38912,38.81801,152],[-90.38919,38.81801,151],[-90.38925,38.818,150],[-90.38929,38.818,150],[-90.38933,38.81799,149],[-90.38937,38.818,149],[-90.38941,38.818,148],[-90.38945,38.81801,148],[-90.38949,38.81803,147],[-90.38953,38.81805,147],[-90.38957,38.81805,147],[-90.3896,38.81804,147],[-90.38964,38.81803,147],[-90.38967,38.81801,147],[-90.38967,38.81797,148],[-90.38988,38.81792,146],[-90.38991,38.81791,146],[-90.38993,38.81789,146],[-90.38996,38.81787,146],[-90.38998,38.81785,147],[-90.39,38.81782,147],[-90.39002,38.81779,147],[-90.39004,38.81776,147],[-90.39007,38.81774,147],[-90.3901,38.81772,147],[-90.39012,38.8177,147],[-90.39015,38.81767,147],[-90.39019,38.81766,146],[-90.39023,38.81764,146],[-90.39027,38.81764,146],[-90.39032,38.81762,145],[-90.39035,38.8176,146],[-90.39038,38.81758,146],[-90.39041,38.81756,146],[-90.39045,38.81754,146],[-90.39048,38.81753,146],[-90.39051,38.81751,146],[-90.3905,38.81748,147],[-90.39052,38.81746,147],[-90.39056,38.81745,147],[-90.39058,38.81742,148],[-90.39061,38.8174,148],[-90.39065,38.8174,148],[-90.39069,38.81739,147],[-90.3907,38.81742,146],[-90.39069,38.81745,145],[-90.39065,38.81744,146],[-90.39064,38.81741,147],[-90.39062,38.81739,148],[-90.39059,38.81737,150],[-90.39057,38.81735,151],[-90.39058,38.81732,152],[-90.39061,38.81731,151],[-90.39065,38.81731,151],[-90.39069,38.8173,150],[-90.39072,38.81728,151],[-90.39075,38.81726,151],[-90.39071,38.81728,151],[-90.39068,38.81728,151],[-90.39064,38.81729,152],[-90.39059,38.81731,152],[-90.39053,38.81731,152],[-90.39049,38.81732,152],[-90.39052,38.81733,152],[-90.39054,38.8173,153],[-90.39054,38.81728,154],[-90.39053,38.81725,155],[-90.39053,38.81721,156],[-90.39053,38.81718,157],[-90.39053,38.81715,158],[-90.39052,38.81712,159],[-90.39052,38.8171,160],[-90.39052,38.81707,161],[-90.39053,38.81704,162],[-90.39052,38.81701,163],[-90.3905,38.81698,164],[-90.3905,38.81695,165],[-90.3905,38.81689,165],[-90.39053,38.81687,165],[-90.39056,38.81685,166],[-90.39059,38.81683,165],[-90.39061,38.81681,166],[-90.39064,38.8168,165],[-90.39067,38.81678,166],[-90.39074,38.8168,165],[-90.39075,38.81683,164],[-90.39077,38.81685,164],[-90.39075,38.81682,164],[-90.39079,38.81684,164],[-90.3908,38.81681,164],[-90.39082,38.81679,164],[-90.39084,38.81676,165],[-90.39084,38.81673,165],[-90.39083,38.8167,166],[-90.39083,38.81667,166],[-90.39082,38.8167,166],[-90.39082,38.81673,165],[-90.39082,38.81676,165],[-90.39086,38.81674,165],[-90.39087,38.8167,166],[-90.3909,38.81668,166],[-90.39093,38.8167,165],[-90.39096,38.81672,165],[-90.39098,38.81674,164],[-90.391,38.81677,163],[-90.39101,38.8168,163],[-90.39104,38.81681,162],[-90.39107,38.81684,161],[-90.3911,38.81685,160],[-90.39115,38.81683,160],[-90.39118,38.81681,160],[-90.39121,38.81679,160],[-90.39125,38.81678,160],[-90.39126,38.81675,161],[-90.39129,38.81672,161],[-90.39132,38.81671,161],[-90.39135,38.81669,161],[-90.39136,38.81665,162],[-90.39139,38.81663,163],[-90.39142,38.8166,163],[-90.39144,38.81658,163],[-90.39144,38.81655,164],[-90.39141,38.81654,165],[-90.39143,38.81657,164],[-90.39142,38.8166,163],[-90.39145,38.81657,163],[-90.39146,38.81655,164],[-90.3915,38.81653,163],[-90.39146,38.81653,164],[-90.39147,38.8165,165],[-90.39149,38.81647,165],[-90.39151,38.81645,166],[-90.39156,38.81642,165],[-90.3916,38.81639,165],[-90.39161,38.81637,166],[-90.39164,38.81635,166],[-90.39167,38.81633,166],[-90.39169,38.8163,166],[-90.3917,38.81627,167],[-90.39171,38.81623,168],[-90.39171,38.81613,172],[-90.39171,38.81609,173],[-90.3917,38.81605,174],[-90.3917,38.81602,174],[-90.39171,38.81598,175],[-90.39171,38.81595,176],[-90.39171,38.81592,176],[-90.39173,38.81589,176],[-90.39176,38.81588,176],[-90.39179,38.81587,175],[-90.3918,38.81583,176],[-90.3918,38.8158,176],[-90.39179,38.81577,177],[-90.39178,38.81574,178],[-90.39177,38.81571,178],[-90.39176,38.81568,179],[-90.39175,38.81565,180],[-90.39172,38.81563,180],[-90.39168,38.81561,182],[-90.39164,38.81559,182],[-90.39162,38.81557,183],[-90.3916,38.81554,183],[-90.39158,38.81551,183],[-90.39156,38.81549,183],[-90.39153,38.81547,183],[-90.39149,38.81545,184],[-90.39145,38.81544,184],[-90.39141,38.81544,185],[-90.39137,38.81544,185],[-90.39132,38.81543,185],[-90.39128,38.81543,185],[-90.39124,38.81542,186],[-90.3912,38.81542,186],[-90.39115,38.81542,186],[-90.39111,38.81542,186],[-90.39107,38.81543,186],[-90.39104,38.81544,186],[-90.39101,38.81545,186],[-90.39096,38.81546,185],[-90.39092,38.81547,185],[-90.39088,38.81546,185],[-90.39085,38.81545,185],[-90.39081,38.81545,185],[-90.39077,38.81545,185],[-90.39074,38.81546,184],[-90.3907,38.81547,184],[-90.39066,38.81547,183],[-90.39062,38.81547,183],[-90.39058,38.81546,182],[-90.39054,38.81544,182],[-90.3905,38.81543,182],[-90.39047,38.81541,182],[-90.39043,38.8154,181],[-90.39039,38.8154,181],[-90.39035,38.81539,181],[-90.39031,38.81538,180],[-90.39027,38.81537,180],[-90.39023,38.81536,180],[-90.3902,38.81535,180],[-90.39016,38.81534,181],[-90.39012,38.81532,181],[-90.39009,38.81531,181],[-90.39006,38.81529,181],[-90.39003,38.81527,182],[-90.39,38.81525,182],[-90.38997,38.81523,183],[-90.38993,38.81522,183],[-90.3899,38.8152,184],[-90.38986,38.81517,185],[-90.38983,38.81516,185],[-90.3898,38.81514,185],[-90.38976,38.81512,186],[-90.38973,38.81509,187],[-90.3897,38.81506,187],[-90.38968,38.81503,188],[-90.38965,38.815,188],[-90.38963,38.81497,189],[-90.38961,38.81495,189],[-90.38958,38.81493,189],[-90.38956,38.8149,189],[-90.38953,38.81488,189],[-90.38955,38.81486,189],[-90.38956,38.81483,190],[-90.38956,38.81479,190],[-90.38955,38.81477,190],[-90.38954,38.81474,191],[-90.38955,38.81471,191],[-90.38957,38.81467,191],[-90.38959,38.81465,190],[-90.38961,38.81461,190],[-90.3896,38.81458,190],[-90.38959,38.81455,190],[-90.38958,38.81451,189],[-90.38958,38.81447,189],[-90.38958,38.81444,189],[-90.38951,38.81437,188],[-90.38949,38.81435,188],[-90.38944,38.81432,189],[-90.3894,38.81429,189],[-90.38936,38.81425,189],[-90.38933,38.81424,190],[-90.38929,38.81423,190],[-90.38925,38.81422,191],[-90.38922,38.81421,191],[-90.38918,38.8142,192],[-90.38913,38.81418,192],[-90.38908,38.81417,192],[-90.38904,38.81416,192],[-90.38901,38.81415,192],[-90.38897,38.81414,192],[-90.38893,38.81413,192],[-90.3889,38.81413,192],[-90.38886,38.81413,193],[-90.38883,38.81414,193],[-90.38879,38.81414,194],[-90.38874,38.81412,194],[-90.3887,38.8141,195],[-90.38868,38.81408,195],[-90.38864,38.81407,195],[-90.38861,38.81406,196],[-90.38857,38.81405,196],[-90.38853,38.81404,196],[-90.38851,38.81401,196],[-90.38848,38.81399,196],[-90.38844,38.81398,197],[-90.3884,38.81396,197],[-90.38837,38.81396,197],[-90.38832,38.81395,198],[-90.38827,38.81395,198],[-90.38823,38.81396,198],[-90.38819,38.81396,198],[-90.38815,38.81396,198],[-90.38811,38.81397,199],[-90.38808,38.81397,199],[-90.38804,38.81397,199],[-90.38801,38.81397,199],[-90.38797,38.81396,199],[-90.38775,38.81397,200],[-90.38772,38.81396,200],[-90.38769,38.81394,200],[-90.38766,38.81393,200],[-90.38762,38.81392,200],[-90.38759,38.8139,200],[-90.38756,38.81389,199],[-90.38753,38.81387,199],[-90.38753,38.81383,199],[-90.38754,38.81378,198],[-90.38755,38.81375,198],[-90.38756,38.81371,197],[-90.38756,38.81368,197],[-90.38757,38.81362,196],[-90.38759,38.81359,196],[-90.3876,38.81355,196],[-90.38761,38.81353,196],[-90.38763,38.81349,196],[-90.38764,38.81345,195],[-90.38765,38.81342,195],[-90.38765,38.81345,195],[-90.38765,38.81348,196],[-90.38766,38.81345,195],[-90.38764,38.81341,195],[-90.38764,38.81338,195],[-90.38766,38.81336,195],[-90.38769,38.81334,195],[-90.38772,38.81332,195],[-90.38775,38.8133,195],[-90.38778,38.81328,195],[-90.3878,38.81324,194],[-90.38784,38.81321,194],[-90.38788,38.81319,194],[-90.38791,38.81317,193],[-90.38791,38.81313,193],[-90.38792,38.81309,192],[-90.38794,38.81306,191],[-90.38796,38.81302,191],[-90.38798,38.81299,190],[-90.38801,38.81297,190],[-90.38805,38.81292,189],[-90.38807,38.81287,188],[-90.38809,38.81282,187],[-90.38811,38.81279,186],[-90.38813,38.81276,185],[-90.38818,38.81275,183],[-90.38822,38.81275,182],[-90.38826,38.81275,181],[-90.3883,38.81274,180],[-90.38833,38.81273,179],[-90.38837,38.81272,177],[-90.38841,38.81272,176],[-90.38845,38.8127,174],[-90.38848,38.81268,173],[-90.38852,38.81265,172],[-90.38856,38.81264,171],[-90.38859,38.81263,170],[-90.38861,38.81261,169],[-90.38863,38.81258,168],[-90.38863,38.81255,168],[-90.38863,38.81252,168],[-90.38865,38.8125,168],[-90.38866,38.81247,167],[-90.38867,38.81244,166],[-90.38865,38.81241,166],[-90.38864,38.81239,166],[-90.38864,38.81235,165],[-90.38863,38.81233,165],[-90.38863,38.8123,165],[-90.38866,38.81228,164],[-90.38869,38.81224,163],[-90.38871,38.81222,163],[-90.38874,38.81219,162],[-90.38878,38.81217,162],[-90.38881,38.81215,161],[-90.38883,38.81212,160],[-90.38882,38.8121,160],[-90.38879,38.81208,160],[-90.38877,38.81206,160],[-90.38874,38.81203,160],[-90.38871,38.81201,160],[-90.38868,38.81199,161],[-90.38865,38.81197,161],[-90.38862,38.81194,161],[-90.3886,38.81191,162],[-90.38859,38.81187,163],[-90.38859,38.81183,163],[-90.38859,38.81179,163],[-90.38861,38.81175,164],[-90.38863,38.81171,164],[-90.38866,38.81168,164],[-90.38869,38.81166,163],[-90.38872,38.81163,162],[-90.38876,38.8116,161],[-90.38879,38.81158,161],[-90.38883,38.81155,160],[-90.38885,38.81153,159],[-90.38889,38.81154,158],[-90.38892,38.81156,158],[-90.38896,38.81155,157],[-90.389,38.81153,156],[-90.38904,38.81151,155],[-90.38908,38.81149,154],[-90.38912,38.81146,153],[-90.38914,38.81144,152],[-90.38918,38.81142,152],[-90.38922,38.81141,152],[-90.38927,38.81139,152],[-90.38931,38.81138,152],[-90.38934,38.81136,152],[-90.38937,38.81133,152],[-90.3894,38.81129,152],[-90.38943,38.81127,152],[-90.38947,38.81124,151],[-90.38951,38.81122,151],[-90.38954,38.8112,151],[-90.38958,38.81118,151],[-90.38961,38.81117,151],[-90.38965,38.81116,151],[-90.38969,38.81116,150],[-90.38971,38.81114,150],[-90.38974,38.81112,150],[-90.38978,38.81112,150],[-90.38982,38.81113,149],[-90.38986,38.81113,148],[-90.3899,38.81113,148],[-90.38994,38.81114,147],[-90.38999,38.81114,146],[-90.39004,38.81114,146],[-90.39008,38.81115,145],[-90.39012,38.81116,145],[-90.39015,38.81117,144],[-90.39019,38.81119,144],[-90.39023,38.8112,143],[-90.39027,38.81122,143],[-90.39031,38.81125,142],[-90.39034,38.81127,142],[-90.39038,38.81128,142],[-90.39042,38.81128,142],[-90.39056,38.81125,142],[-90.39061,38.81124,142],[-90.39066,38.81123,142],[-90.39071,38.81126,142],[-90.39075,38.81127,142],[-90.39079,38.81128,142],[-90.39083,38.8113,142],[-90.39089,38.81132,142],[-90.39094,38.81135,141],[-90.39098,38.81139,141],[-90.39101,38.81142,142],[-90.39104,38.81146,142],[-90.39107,38.8115,142],[-90.39109,38.81153,143],[-90.39109,38.81157,143],[-90.39107,38.81159,144],[-90.39105,38.81162,144],[-90.39103,38.81164,145],[-90.391,38.81166,145],[-90.39097,38.81169,146],[-90.39094,38.81172,147],[-90.39093,38.81175,147],[-90.39091,38.81178,147],[-90.3909,38.81182,148],[-90.39088,38.81185,148],[-90.39088,38.81188,148],[-90.39089,38.81191,149],[-90.39091,38.81194,149],[-90.39092,38.81197,149],[-90.39091,38.81201,149],[-90.3909,38.81205,149],[-90.39089,38.81209,149],[-90.39089,38.81212,149],[-90.39092,38.8121,149],[-90.39094,38.81208,149],[-90.39091,38.81209,149],[-90.39088,38.81212,149],[-90.39088,38.81215,149],[-90.3909,38.81217,149],[-90.39091,38.81222,149],[-90.39092,38.81226,148],[-90.39094,38.81231,147],[-90.39095,38.81235,146],[-90.39095,38.81238,145],[-90.39094,38.81243,144],[-90.39093,38.81247,143],[-90.39093,38.81251,143],[-90.39093,38.81254,143],[-90.39093,38.81257,144],[-90.39093,38.81261,145],[-90.39094,38.81264,146],[-90.39094,38.81267,146],[-90.39095,38.8127,147],[-90.39098,38.81273,147],[-90.391,38.81276,148],[-90.39102,38.81279,148],[-90.39104,38.81282,149],[-90.39106,38.81285,149],[-90.39107,38.81288,150],[-90.39108,38.81292,150],[-90.39109,38.81296,151],[-90.39109,38.813,152],[-90.39111,38.81303,153],[-90.39114,38.81305,153],[-90.39118,38.81307,153],[-90.39122,38.81309,152],[-90.39123,38.81312,152],[-90.39124,38.81315,152],[-90.39127,38.81317,152],[-90.3913,38.81319,151],[-90.39134,38.81321,151],[-90.39137,38.81324,150],[-90.39139,38.81327,150],[-90.39142,38.8133,150],[-90.39145,38.81331,149],[-90.39149,38.81334,149],[-90.39151,38.81336,149],[-90.39154,38.81339,148],[-90.39155,38.81342,147],[-90.39156,38.81345,147],[-90.39157,38.81348,146],[-90.39157,38.81351,146],[-90.39158,38.81354,145],[-90.39159,38.81357,145],[-90.39162,38.81361,144],[-90.39164,38.81365,144],[-90.39166,38.81368,144],[-90.39168,38.81371,144],[-90.3917,38.81375,144],[-90.39172,38.81378,144],[-90.39175,38.81381,144],[-90.39177,38.81383,143],[-90.39181,38.81386,142],[-90.39183,38.81388,142],[-90.39185,38.81391,142],[-90.39187,38.81393,142],[-90.39191,38.81394,141],[-90.39196,38.81397,141],[-90.39202,38.81404,144],[-90.39208,38.81405,144],[-90.39213,38.81406,144],[-90.39217,38.81405,143],[-90.3922,38.81403,142],[-90.39224,38.81402,141],[-90.39228,38.81397,138],[-90.39232,38.81391,136],[-90.39233,38.81388,134],[-90.39236,38.81386,135],[-90.3924,38.81384,136],[-90.39244,38.81381,137],[-90.39251,38.81366,138],[-90.39254,38.81363,138],[-90.39258,38.81359,138],[-90.39262,38.81354,137],[-90.39263,38.8135,137],[-90.39265,38.81346,137],[-90.39267,38.81342,136],[-90.39269,38.8134,136],[-90.39272,38.81337,135],[-90.39275,38.81336,135],[-90.39278,38.81334,135],[-90.39282,38.81332,134],[-90.39285,38.8133,134],[-90.39288,38.81328,134],[-90.39298,38.81325,133],[-90.39303,38.81321,133],[-90.39306,38.81318,132],[-90.39311,38.8132,132],[-90.39314,38.81324,132],[-90.39319,38.81324,132],[-90.39323,38.81322,132],[-90.39326,38.81319,132],[-90.39328,38.81317,132],[-90.3933,38.81314,132],[-90.39334,38.81312,132],[-90.39337,38.8131,132],[-90.39341,38.81309,132],[-90.39345,38.81308,132],[-90.3935,38.81308,132],[-90.39352,38.81312,132],[-90.39358,38.81314,132],[-90.39363,38.81316,132],[-90.3937,38.81323,132],[-90.39372,38.81327,132],[-90.39375,38.81331,132],[-90.39379,38.81335,132],[-90.39384,38.81338,132],[-90.39389,38.81341,132],[-90.39394,38.81343,132],[-90.39399,38.81345,132],[-90.39403,38.81348,132],[-90.39408,38.8135,132],[-90.39412,38.81352,132],[-90.39417,38.81355,133],[-90.39422,38.81358,133],[-90.39427,38.81361,133],[-90.39431,38.81364,133],[-90.39435,38.81368,133],[-90.39455,38.81376,134],[-90.39452,38.81374,134],[-90.39451,38.81371,134],[-90.39448,38.81368,134],[-90.39445,38.81367,134],[-90.3944,38.81366,133],[-90.39436,38.81364,133],[-90.39434,38.81361,133],[-90.39433,38.81358,133],[-90.3943,38.81357,133],[-90.39421,38.81352,133],[-90.39416,38.81349,132],[-90.39412,38.81347,132],[-90.39409,38.81345,132],[-90.39406,38.81342,132],[-90.39402,38.81339,132],[-90.39399,38.81337,132],[-90.39397,38.81335,132],[-90.39394,38.81334,132],[-90.3939,38.81333,132],[-90.39385,38.81331,132],[-90.39382,38.81329,132],[-90.39379,38.81328,132],[-90.39377,38.81326,132],[-90.39373,38.81323,132],[-90.3937,38.81321,132],[-90.39368,38.81318,132],[-90.39367,38.81315,132],[-90.39365,38.81311,132],[-90.39365,38.81308,132],[-90.39365,38.81305,132],[-90.39365,38.81302,132],[-90.39366,38.81298,132],[-90.39366,38.81287,133],[-90.39369,38.81282,133],[-90.39373,38.8128,133],[-90.39376,38.81278,133],[-90.39381,38.81276,134],[-90.39384,38.81274,134],[-90.39388,38.81271,134],[-90.39395,38.81268,134],[-90.39398,38.81266,134],[-90.39401,38.81264,135],[-90.39403,38.81262,135],[-90.39405,38.81259,135],[-90.39406,38.81256,136],[-90.39408,38.81253,136],[-90.39411,38.8125,137],[-90.39413,38.81248,137],[-90.39416,38.81245,137],[-90.39419,38.81242,137],[-90.39423,38.8124,137],[-90.39426,38.81238,137],[-90.39429,38.81236,137],[-90.39432,38.81234,137],[-90.39436,38.81231,137],[-90.39438,38.81228,137],[-90.39441,38.81225,137],[-90.39442,38.81222,138],[-90.39444,38.81219,138],[-90.39446,38.81216,137],[-90.39449,38.81214,137],[-90.39451,38.81211,137],[-90.39455,38.81208,137],[-90.39458,38.81206,137],[-90.39461,38.81204,137],[-90.39463,38.81201,137],[-90.39465,38.81199,137],[-90.39468,38.81197,137],[-90.39471,38.81194,136],[-90.39475,38.81192,136],[-90.39478,38.81189,136],[-90.39481,38.81187,135],[-90.39484,38.81185,135],[-90.39487,38.81184,135],[-90.3949,38.81182,134],[-90.39492,38.81179,134],[-90.39494,38.81176,133],[-90.39497,38.81174,133],[-90.395,38.81172,133],[-90.39503,38.8117,133],[-90.39507,38.81167,133],[-90.39511,38.81165,132],[-90.39514,38.81162,132],[-90.39516,38.8116,132],[-90.39515,38.81157,132]]],
        "bbox": [
          -90.38567,
          38.81964,
          -90.39516,
          38.81112
        ]
      },
      "properties": {
        "name": "11.18.2020"
      }
    }
  ]
}