{
  "type": "FeatureCollection",
  "features": [
    {
      "type": "Feature",
      "geometry": {
        "type": "MultiLineString",
        "coordinates": [[[-90.39526,38.81176,133],[-90.39523,38.81175,133],[-90.39519,38.81173,133],[-90.39515,38.81173,133],[-90.39511,38.81173,133],[-90.39507,38.81173,133],[-90.39503,38.81174,133],[-90.39499,38.81175,133],[-90.39495,38.81175,133],[-90.39493,38.81176,134],[-90.3949,38.81179,134],[-90.39487,38.81181,134],[-90.39484,38.81184,135],[-90.39483,38.81186,135],[-90.3948,38.81189,135],[-90.39477,38.81191,136],[-90.39474,38.81192,136],[-90.39472,38.81195,136],[-90.3947,38.81197,136],[-90.39466,38.812,137],[-90.39464,38.81202,137],[-90.39462,38.81204,137],[-90.39459,38.81207,137],[-90.39456,38.81209,137],[-90.39453,38.81211,137],[-90.39451,38.81214,137],[-90.39448,38.81216,137],[-90.39445,38.81218,137],[-90.39442,38.81219,138],[-90.39439,38.81222,138],[-90.39436,38.81224,137],[-90.39434,38.81226,137],[-90.3943,38.81228,137],[-90.39428,38.81231,137],[-90.39425,38.81233,137],[-90.39422,38.81235,137],[-90.39419,38.81238,137],[-90.39416,38.8124,137],[-90.39414,38.81242,137],[-90.39409,38.81245,137],[-90.39407,38.81247,137],[-90.39405,38.8125,137],[-90.39402,38.81251,136],[-90.394,38.81254,136],[-90.39397,38.81255,136],[-90.39395,38.81258,136],[-90.39392,38.8126,135],[-90.39389,38.81262,135],[-90.39385,38.81264,135],[-90.39382,38.81266,135],[-90.39379,38.81268,134],[-90.39377,38.8127,134],[-90.39374,38.81272,134],[-90.39371,38.81274,134],[-90.39367,38.81277,134],[-90.39365,38.81279,133],[-90.39361,38.81281,133],[-90.39358,38.81282,133],[-90.39354,38.81284,133],[-90.39351,38.81286,133],[-90.39348,38.81288,133],[-90.39344,38.8129,133],[-90.39341,38.81292,133],[-90.39338,38.81295,133],[-90.39335,38.81296,133],[-90.39331,38.81299,133],[-90.39329,38.81301,133],[-90.39326,38.81303,133],[-90.39321,38.81304,133],[-90.39319,38.81306,132],[-90.39317,38.81308,132],[-90.39315,38.81312,132],[-90.39312,38.81313,132],[-90.3931,38.81316,132],[-90.39307,38.81319,132],[-90.39304,38.81322,133],[-90.39301,38.81323,133],[-90.39298,38.81325,133],[-90.39295,38.81328,133],[-90.39294,38.81331,133],[-90.39291,38.81333,134],[-90.39288,38.81334,134],[-90.39284,38.81336,134],[-90.39283,38.8134,135],[-90.39279,38.81341,135],[-90.39277,38.81344,136],[-90.39275,38.81347,136],[-90.39275,38.8135,136],[-90.39273,38.81352,137],[-90.3927,38.81354,137],[-90.39269,38.81357,137],[-90.39266,38.8136,138],[-90.39263,38.81361,138],[-90.3926,38.81364,138],[-90.39258,38.81367,138],[-90.39258,38.8137,138],[-90.39258,38.81373,138],[-90.39256,38.81377,138],[-90.39254,38.81379,138],[-90.39251,38.81381,138],[-90.39251,38.81384,138],[-90.39249,38.81386,137],[-90.39248,38.81389,137],[-90.39247,38.81392,138],[-90.39244,38.81394,139],[-90.39241,38.81397,140],[-90.39239,38.81399,141],[-90.39237,38.81403,143],[-90.39235,38.81406,144],[-90.39233,38.81408,145],[-90.39229,38.8141,146],[-90.39226,38.81408,145],[-90.39229,38.8141,146],[-90.3923,38.81413,148],[-90.39231,38.81415,149],[-90.39233,38.81418,150],[-90.39236,38.8142,151],[-90.39239,38.81422,151],[-90.39242,38.81423,151],[-90.39245,38.81425,151],[-90.39248,38.81427,152],[-90.39252,38.81428,152],[-90.39255,38.8143,152],[-90.39257,38.81432,152],[-90.3926,38.81435,152],[-90.39263,38.81438,153],[-90.39266,38.8144,153],[-90.3927,38.81442,153],[-90.39273,38.81445,153],[-90.39276,38.81447,153],[-90.39279,38.81449,152],[-90.39282,38.81451,151],[-90.39285,38.81453,151],[-90.39288,38.81454,150],[-90.39292,38.81456,149],[-90.39294,38.81458,149],[-90.39296,38.81462,148],[-90.39298,38.81465,147],[-90.39299,38.81468,147],[-90.393,38.81471,147],[-90.39302,38.81474,146],[-90.39302,38.81478,147],[-90.39302,38.81481,147],[-90.39302,38.81485,147],[-90.39303,38.81488,147],[-90.39303,38.81491,147],[-90.39305,38.81493,147],[-90.39307,38.81496,147],[-90.39311,38.81498,146],[-90.39312,38.81501,146],[-90.39313,38.81504,146],[-90.39315,38.81506,145],[-90.39316,38.81509,145],[-90.39317,38.81512,144],[-90.39318,38.81515,143],[-90.39319,38.81519,143],[-90.3932,38.81522,142],[-90.39319,38.81525,142],[-90.39318,38.81528,142],[-90.39317,38.81531,141],[-90.39313,38.81533,142],[-90.3931,38.81534,143],[-90.39308,38.81536,142],[-90.39306,38.81539,142],[-90.39303,38.81541,142],[-90.39303,38.81544,141],[-90.39302,38.81547,140],[-90.39298,38.81546,142],[-90.39295,38.81544,143],[-90.39291,38.81543,145],[-90.39288,38.81543,145],[-90.39285,38.81545,146],[-90.39282,38.81547,146],[-90.39279,38.8155,146],[-90.39277,38.81553,146],[-90.39275,38.81555,146],[-90.39274,38.81558,146],[-90.39273,38.81561,145],[-90.39268,38.81563,147],[-90.39265,38.81565,148],[-90.39265,38.81568,147],[-90.39266,38.81571,146],[-90.39267,38.81574,145],[-90.39267,38.81578,144],[-90.39268,38.8158,143],[-90.39268,38.81584,143],[-90.39269,38.81587,142],[-90.3927,38.8159,142],[-90.39271,38.81593,142],[-90.3927,38.81596,142],[-90.3927,38.816,142],[-90.39269,38.81603,142],[-90.39267,38.81605,143],[-90.39265,38.81608,144],[-90.39262,38.81611,145],[-90.39258,38.81613,146],[-90.39255,38.81615,146],[-90.39251,38.81616,147],[-90.39247,38.81617,148],[-90.39244,38.81618,149],[-90.39242,38.81622,148],[-90.39239,38.81624,149],[-90.39236,38.81627,149],[-90.39237,38.8163,148],[-90.39236,38.81632,148],[-90.39234,38.81636,147],[-90.39233,38.81639,146],[-90.39233,38.81641,146],[-90.39232,38.81644,146],[-90.3923,38.81647,146],[-90.39229,38.81651,146],[-90.39227,38.81654,146],[-90.39225,38.81657,146],[-90.39222,38.8166,146],[-90.39219,38.81661,147],[-90.39217,38.81664,147],[-90.39215,38.81666,147],[-90.39213,38.81669,147],[-90.3921,38.81671,148],[-90.39206,38.81671,148],[-90.39202,38.81672,149],[-90.39201,38.81675,149],[-90.392,38.81678,149],[-90.39199,38.81681,149],[-90.39197,38.81683,149],[-90.39193,38.81685,149],[-90.3919,38.81688,149],[-90.39188,38.81691,149],[-90.39188,38.81693,148],[-90.39186,38.81696,148],[-90.39181,38.81697,147],[-90.39177,38.81699,146],[-90.39174,38.81701,145],[-90.39171,38.81702,145],[-90.39167,38.81703,144],[-90.39163,38.81705,144],[-90.39159,38.81706,144],[-90.39156,38.81708,144],[-90.39153,38.81709,144],[-90.39149,38.8171,144],[-90.39147,38.81712,144],[-90.39145,38.81715,143],[-90.39141,38.81718,142],[-90.39137,38.81719,142],[-90.39134,38.8172,142],[-90.3913,38.81723,142],[-90.39126,38.81724,142],[-90.39121,38.81725,143],[-90.39117,38.81727,143],[-90.39114,38.81729,143],[-90.39112,38.81731,143],[-90.39109,38.81733,143],[-90.39107,38.81736,143],[-90.39105,38.81739,142],[-90.39102,38.81741,142],[-90.39098,38.81742,142],[-90.39094,38.81743,142],[-90.3909,38.81743,143],[-90.39087,38.81743,143],[-90.39083,38.81744,143],[-90.39079,38.81747,143],[-90.39075,38.81748,143],[-90.39071,38.8175,143],[-90.39066,38.8175,144],[-90.39062,38.81749,145],[-90.39059,38.81751,145],[-90.39056,38.81752,145],[-90.39052,38.81751,146],[-90.39049,38.81749,147],[-90.39045,38.81751,146],[-90.39042,38.81751,147],[-90.39038,38.81752,147],[-90.39035,38.81754,147],[-90.39032,38.81753,147],[-90.39028,38.81751,148],[-90.39026,38.81748,149],[-90.39024,38.81745,150],[-90.39021,38.81742,151],[-90.39018,38.8174,152],[-90.39016,38.81737,153],[-90.39014,38.81735,154],[-90.39012,38.81732,155],[-90.3901,38.8173,155],[-90.39008,38.81727,156],[-90.39008,38.81724,157],[-90.39007,38.81721,158],[-90.39004,38.81718,158],[-90.39001,38.81716,159],[-90.38999,38.81714,160],[-90.38996,38.81711,161],[-90.38996,38.81707,161],[-90.38994,38.81704,162],[-90.38993,38.81701,163],[-90.38993,38.81698,164],[-90.38992,38.81695,164],[-90.38992,38.81692,165],[-90.38991,38.81689,165],[-90.38987,38.81688,165],[-90.38986,38.81685,165],[-90.38982,38.81683,165],[-90.38979,38.81681,166],[-90.38975,38.81679,166],[-90.38973,38.81677,166],[-90.3897,38.81674,166],[-90.38969,38.81671,167],[-90.38966,38.81669,167],[-90.38964,38.81666,167],[-90.38963,38.81664,167],[-90.38964,38.8166,168],[-90.38963,38.81657,168],[-90.38963,38.81654,168],[-90.3896,38.81652,168],[-90.38957,38.81651,168],[-90.38956,38.81647,168],[-90.38957,38.81644,169],[-90.38957,38.8164,169],[-90.38955,38.81637,169],[-90.38955,38.81634,169],[-90.38955,38.8163,170],[-90.38957,38.81627,170],[-90.38956,38.81624,171],[-90.38956,38.81621,171],[-90.38959,38.8162,171],[-90.38963,38.81621,171],[-90.38967,38.81622,171],[-90.38971,38.81622,171],[-90.38974,38.81624,171],[-90.38976,38.81626,171],[-90.38979,38.81628,171],[-90.3898,38.81631,171],[-90.38984,38.81633,170],[-90.38987,38.81635,170],[-90.38991,38.81636,170],[-90.38996,38.81637,171],[-90.38999,38.81639,170],[-90.39003,38.81641,170],[-90.39006,38.81643,170],[-90.39011,38.81644,170],[-90.39014,38.81644,171],[-90.39017,38.81646,170],[-90.39021,38.81648,170],[-90.39024,38.8165,170],[-90.39026,38.81653,170],[-90.39026,38.81656,170],[-90.39027,38.81659,169],[-90.3903,38.81661,169],[-90.39031,38.81665,169],[-90.39031,38.81668,168],[-90.39035,38.81668,168],[-90.39038,38.8167,168],[-90.3904,38.81673,167],[-90.39041,38.81675,167],[-90.39042,38.81678,167],[-90.39043,38.81675,167],[-90.39039,38.81676,167],[-90.39039,38.81679,167],[-90.3904,38.81682,167],[-90.39044,38.81685,166],[-90.39047,38.81687,166],[-90.39048,38.81689,166],[-90.39053,38.81689,165],[-90.39057,38.81686,165],[-90.39058,38.81684,165],[-90.39059,38.81681,166],[-90.39062,38.81679,166],[-90.39067,38.81678,166],[-90.39071,38.81678,165],[-90.39075,38.8168,165],[-90.39078,38.81681,164],[-90.3908,38.81685,163],[-90.39082,38.81681,164],[-90.39083,38.81678,164],[-90.39083,38.81673,165],[-90.39086,38.81671,166],[-90.39089,38.81671,165],[-90.39093,38.81672,165],[-90.39098,38.81671,165],[-90.39102,38.81669,165],[-90.39105,38.8167,165],[-90.39109,38.81673,164],[-90.39112,38.81675,163],[-90.39115,38.81678,162],[-90.39118,38.81675,162],[-90.3912,38.81673,162],[-90.39123,38.81673,162],[-90.39127,38.8167,162],[-90.39128,38.81668,163],[-90.39132,38.81667,162],[-90.39135,38.81665,163],[-90.39137,38.81662,163],[-90.3914,38.8166,163],[-90.39143,38.81658,163],[-90.39145,38.81656,164],[-90.39147,38.81658,162],[-90.39151,38.81659,161],[-90.39149,38.81661,161],[-90.39152,38.81662,160],[-90.39153,38.81659,161],[-90.39152,38.81656,162],[-90.39154,38.81652,163],[-90.39155,38.81649,163],[-90.39156,38.81646,164],[-90.39157,38.81643,165],[-90.39159,38.81641,165],[-90.39161,38.81638,165],[-90.39165,38.81635,165],[-90.39167,38.81633,166],[-90.39169,38.8163,166],[-90.39171,38.81627,167],[-90.39171,38.81624,168],[-90.39171,38.81621,169],[-90.39172,38.81618,169],[-90.39174,38.81615,170],[-90.39177,38.81613,170],[-90.39179,38.8161,170],[-90.39179,38.81607,171],[-90.39176,38.81605,172],[-90.39176,38.81602,173],[-90.39177,38.81599,173],[-90.39178,38.81594,174],[-90.39177,38.81591,175],[-90.39176,38.81588,176],[-90.39178,38.81585,176],[-90.39179,38.81582,176],[-90.39179,38.81579,177],[-90.39177,38.81576,178],[-90.39176,38.81573,178],[-90.39175,38.8157,179],[-90.39172,38.81568,180],[-90.39168,38.81568,181],[-90.39164,38.81567,181],[-90.39161,38.81565,182],[-90.3916,38.81562,182],[-90.39157,38.8156,183],[-90.39154,38.81558,183],[-90.39152,38.81555,184],[-90.39149,38.81552,184],[-90.39144,38.8155,184],[-90.39141,38.81549,185],[-90.39135,38.81549,185],[-90.39131,38.81547,185],[-90.39127,38.81544,185],[-90.39124,38.81543,185],[-90.3912,38.81543,186],[-90.39116,38.81543,186],[-90.39112,38.81544,186],[-90.39108,38.81545,186],[-90.39105,38.81547,186],[-90.39102,38.8155,185],[-90.39098,38.81551,185],[-90.39094,38.81553,185],[-90.39091,38.81554,185],[-90.39087,38.81556,185],[-90.39082,38.81555,184],[-90.39079,38.81555,184],[-90.39074,38.81555,184],[-90.39069,38.81554,183],[-90.39066,38.81552,183],[-90.39062,38.8155,183],[-90.39058,38.8155,182],[-90.39054,38.81552,182],[-90.3905,38.81552,181],[-90.39046,38.81551,181],[-90.39043,38.81549,180],[-90.3904,38.81546,180],[-90.39037,38.81544,180],[-90.39034,38.81542,180],[-90.39029,38.81542,180],[-90.39025,38.81542,179],[-90.39021,38.81541,179],[-90.39017,38.8154,180],[-90.39014,38.81539,180],[-90.3901,38.81537,180],[-90.39007,38.81536,180],[-90.39003,38.81534,180],[-90.38998,38.81532,181],[-90.38995,38.81531,181],[-90.38993,38.81528,182],[-90.3899,38.81525,183],[-90.38987,38.81523,183],[-90.38984,38.8152,184],[-90.38981,38.81518,184],[-90.38978,38.81516,185],[-90.38976,38.81514,185],[-90.38973,38.81511,186],[-90.38969,38.8151,186],[-90.38965,38.81508,187],[-90.38962,38.81506,187],[-90.38959,38.81505,187],[-90.38957,38.81502,188],[-90.38955,38.81498,188],[-90.38954,38.81495,188],[-90.38954,38.81492,189],[-90.38952,38.81489,189],[-90.38951,38.81486,189],[-90.38948,38.81484,189],[-90.38947,38.8148,190],[-90.38949,38.81478,190],[-90.3895,38.81474,191],[-90.3895,38.8147,191],[-90.3895,38.81467,190],[-90.38949,38.81464,190],[-90.38949,38.81461,190],[-90.38949,38.81458,190],[-90.3895,38.81454,190],[-90.38951,38.81451,190],[-90.38951,38.81448,189],[-90.3895,38.81445,189],[-90.38947,38.81443,189],[-90.38945,38.8144,189],[-90.38942,38.81438,189],[-90.38938,38.81436,190],[-90.38934,38.81436,190],[-90.38932,38.81433,190],[-90.38929,38.8143,190],[-90.38925,38.81428,191],[-90.38922,38.81427,191],[-90.38918,38.81426,192],[-90.38914,38.81424,192],[-90.3891,38.81423,192],[-90.38906,38.81422,192],[-90.38902,38.81422,192],[-90.38897,38.81421,192],[-90.38893,38.81421,192],[-90.38889,38.81421,192],[-90.38886,38.81419,193],[-90.38882,38.81417,194],[-90.38879,38.81415,194],[-90.38875,38.81415,194],[-90.38871,38.81414,195],[-90.38865,38.81414,196],[-90.38861,38.81412,196],[-90.38858,38.8141,196],[-90.38854,38.81408,196],[-90.38851,38.81407,197],[-90.38846,38.81406,197],[-90.38843,38.81405,197],[-90.38839,38.81404,198],[-90.38837,38.81401,198],[-90.38834,38.81398,198],[-90.3883,38.81397,198],[-90.38826,38.81396,198],[-90.3882,38.81394,198],[-90.38816,38.81394,198],[-90.38812,38.81392,198],[-90.38808,38.81393,199],[-90.38805,38.81394,199],[-90.38801,38.81394,199],[-90.38798,38.81396,199],[-90.38794,38.81397,199],[-90.38788,38.81397,199],[-90.38785,38.81398,199],[-90.38781,38.81397,199],[-90.38777,38.81396,200],[-90.38772,38.81397,200],[-90.38768,38.81396,200],[-90.38765,38.81394,200],[-90.38762,38.81392,200],[-90.38759,38.8139,200],[-90.38756,38.81388,199],[-90.38753,38.81386,199],[-90.38752,38.81383,199],[-90.38752,38.81379,198],[-90.38752,38.81376,198],[-90.38752,38.81373,197],[-90.38753,38.8137,197],[-90.38754,38.81367,197],[-90.38755,38.81364,196],[-90.38755,38.81361,196],[-90.38757,38.81357,196],[-90.38758,38.81354,196],[-90.38758,38.81351,195],[-90.38758,38.81348,195],[-90.38759,38.81344,195],[-90.3876,38.81341,195],[-90.3876,38.81338,195],[-90.3876,38.81334,194],[-90.3876,38.81331,194],[-90.38763,38.81329,194],[-90.38766,38.81328,194],[-90.3877,38.81328,194],[-90.38775,38.81329,195],[-90.38779,38.81329,195],[-90.38782,38.81327,195],[-90.38787,38.81326,195],[-90.3879,38.81324,194],[-90.38793,38.81322,194],[-90.38795,38.81319,193],[-90.38795,38.81315,193],[-90.38797,38.81313,192],[-90.38796,38.8131,192],[-90.38798,38.81307,191],[-90.388,38.81304,191],[-90.38801,38.81301,190],[-90.38801,38.81297,190],[-90.38801,38.81294,190],[-90.38802,38.8129,189],[-90.38803,38.81286,188],[-90.38806,38.81284,188],[-90.38806,38.81281,188],[-90.38806,38.81277,187],[-90.3881,38.81275,186],[-90.38814,38.81275,185],[-90.38817,38.81273,183],[-90.38822,38.81271,181],[-90.38827,38.81271,180],[-90.3883,38.81272,179],[-90.38834,38.81272,178],[-90.38836,38.81269,177],[-90.38839,38.81268,176],[-90.38841,38.81265,175],[-90.38844,38.81263,174],[-90.38848,38.81264,173],[-90.38852,38.81263,172],[-90.38854,38.8126,171],[-90.38854,38.81258,171],[-90.38855,38.81254,170],[-90.38854,38.81252,170],[-90.38857,38.81249,169],[-90.38857,38.81246,169],[-90.38855,38.81243,168],[-90.38854,38.81239,168],[-90.38854,38.81236,167],[-90.38854,38.81233,167],[-90.38855,38.81231,166],[-90.38857,38.81227,165],[-90.38863,38.81226,164],[-90.38868,38.81225,163],[-90.38871,38.81223,163],[-90.38872,38.8122,162],[-90.38874,38.81218,162],[-90.38877,38.81215,161],[-90.38879,38.81212,161],[-90.38879,38.81209,160],[-90.38879,38.81206,160],[-90.38874,38.81206,161],[-90.38871,38.81205,161],[-90.38869,38.81203,161],[-90.38868,38.812,161],[-90.38867,38.81197,161],[-90.38865,38.81195,161],[-90.38862,38.81192,162],[-90.38859,38.81187,163],[-90.38857,38.81184,163],[-90.38858,38.81181,163],[-90.3886,38.81178,163],[-90.38861,38.81175,164],[-90.38864,38.81173,163],[-90.38866,38.8117,163],[-90.38868,38.81167,163],[-90.38869,38.81164,163],[-90.38871,38.81161,163],[-90.38872,38.81158,162],[-90.38876,38.81156,161],[-90.38878,38.81153,161],[-90.3888,38.8115,160],[-90.38885,38.81149,159],[-90.38889,38.8115,158],[-90.38891,38.81147,158],[-90.38895,38.81147,157],[-90.38898,38.81147,156],[-90.38902,38.81146,155],[-90.38905,38.81143,154],[-90.3891,38.81141,153],[-90.38913,38.8114,152],[-90.38918,38.81139,152],[-90.38921,38.8114,152],[-90.38927,38.81141,152],[-90.38932,38.81139,152],[-90.38935,38.81138,152],[-90.38937,38.81136,152],[-90.38937,38.81131,152],[-90.38939,38.81127,152],[-90.38941,38.81124,152],[-90.38945,38.81123,151],[-90.3895,38.81123,151],[-90.38953,38.8112,151],[-90.38953,38.81117,151],[-90.38956,38.81115,151],[-90.38959,38.81115,151],[-90.38964,38.81115,151],[-90.38968,38.81116,151],[-90.3897,38.81119,150],[-90.38972,38.81121,150],[-90.38976,38.81122,149],[-90.3898,38.81121,149],[-90.38983,38.8112,148],[-90.38987,38.81118,148],[-90.38991,38.81116,148],[-90.38993,38.81114,147],[-90.38996,38.81112,147],[-90.38999,38.81113,146],[-90.39002,38.81114,146],[-90.39006,38.81115,145],[-90.39011,38.81116,145],[-90.39013,38.81117,144],[-90.39017,38.81118,144],[-90.39022,38.81118,143],[-90.39026,38.81119,143],[-90.39029,38.81118,142],[-90.39034,38.81118,142],[-90.39038,38.81117,142],[-90.39042,38.81119,142],[-90.39044,38.81122,142],[-90.39048,38.81124,142],[-90.39052,38.81125,142],[-90.39054,38.81126,142],[-90.39058,38.81128,142],[-90.39062,38.81128,142],[-90.39065,38.81126,142],[-90.39069,38.81124,142],[-90.39071,38.81121,142],[-90.39074,38.8112,141],[-90.39078,38.81119,141],[-90.39082,38.81119,141],[-90.39085,38.8112,141],[-90.39089,38.81123,141],[-90.3909,38.81126,141],[-90.39092,38.81129,141],[-90.39094,38.81132,141],[-90.39097,38.81135,141],[-90.39099,38.81137,141],[-90.39102,38.81139,141],[-90.39104,38.81141,141],[-90.39105,38.81144,142],[-90.39107,38.81147,142],[-90.3911,38.81149,142],[-90.39111,38.81152,142],[-90.39111,38.81155,143],[-90.3911,38.81159,143],[-90.39109,38.81162,144],[-90.39107,38.81164,144],[-90.39104,38.81166,145],[-90.39101,38.81168,145],[-90.39099,38.81171,146],[-90.39096,38.81173,147],[-90.39094,38.81176,147],[-90.39093,38.81179,147],[-90.39093,38.81182,148],[-90.39093,38.81186,148],[-90.39094,38.81189,149],[-90.39095,38.81192,149],[-90.39094,38.81196,150],[-90.39094,38.81199,150],[-90.39093,38.81202,149],[-90.39091,38.81205,149],[-90.3909,38.81209,149],[-90.39089,38.81212,149],[-90.39089,38.81215,149],[-90.3909,38.81218,149],[-90.39091,38.81222,149],[-90.39092,38.81226,148],[-90.39095,38.81228,148],[-90.39096,38.81232,147],[-90.39098,38.81235,146],[-90.391,38.81237,145],[-90.39099,38.81241,144],[-90.39099,38.81244,143],[-90.39099,38.81247,143],[-90.39099,38.8125,142],[-90.39098,38.81253,143],[-90.39098,38.81257,143],[-90.391,38.81259,144],[-90.39101,38.81263,145],[-90.39101,38.81266,145],[-90.39101,38.81269,146],[-90.39102,38.81272,147],[-90.39102,38.81276,147],[-90.39102,38.81279,148],[-90.39102,38.81283,149],[-90.39104,38.81286,149],[-90.39106,38.81289,150],[-90.39108,38.81292,150],[-90.39109,38.81295,151],[-90.39111,38.81298,152],[-90.39114,38.81301,152],[-90.39116,38.81303,152],[-90.3912,38.81304,152],[-90.3912,38.81307,152],[-90.39122,38.8131,152],[-90.39124,38.81313,152],[-90.39127,38.81315,151],[-90.39131,38.81317,151],[-90.39133,38.8132,151],[-90.39135,38.81322,151],[-90.39138,38.81324,150],[-90.3914,38.81326,150],[-90.39141,38.81329,150],[-90.39145,38.81331,149],[-90.39148,38.81333,149],[-90.39151,38.81334,149],[-90.39154,38.81336,148],[-90.39157,38.81339,147],[-90.3916,38.8134,147],[-90.39163,38.81342,146],[-90.39165,38.81345,145],[-90.39167,38.81349,144],[-90.39167,38.81352,144],[-90.39166,38.81355,143],[-90.39167,38.81358,143],[-90.39168,38.8136,143],[-90.39171,38.81363,142],[-90.39173,38.81366,143],[-90.39175,38.81369,143],[-90.39177,38.81371,142],[-90.39179,38.81374,142],[-90.39181,38.81378,142],[-90.39184,38.8138,141],[-90.39188,38.81382,140],[-90.39192,38.81383,139],[-90.39195,38.81385,138],[-90.39198,38.81388,137],[-90.392,38.8139,137],[-90.39203,38.81393,138],[-90.39206,38.81396,139],[-90.39209,38.81398,140],[-90.39212,38.81399,140],[-90.39215,38.81401,141],[-90.39219,38.81403,142],[-90.39223,38.81404,142],[-90.39226,38.81405,143],[-90.3923,38.81404,143],[-90.39232,38.81401,141],[-90.39233,38.81399,140],[-90.39237,38.81396,139],[-90.3924,38.81393,138],[-90.39242,38.8139,137],[-90.39245,38.81388,137],[-90.39249,38.81386,137],[-90.3925,38.81383,138],[-90.3925,38.8138,138],[-90.39251,38.81377,138],[-90.39252,38.81374,138],[-90.39255,38.81372,138],[-90.39257,38.81369,138],[-90.39257,38.81365,138],[-90.39257,38.81362,138],[-90.39258,38.81359,138],[-90.39262,38.81357,138],[-90.39265,38.81356,138],[-90.39268,38.81354,137],[-90.3927,38.81351,137],[-90.39273,38.81348,136],[-90.39274,38.81345,136],[-90.39269,38.81342,136],[-90.39265,38.8134,136],[-90.39262,38.81338,136],[-90.39258,38.81337,136],[-90.39255,38.81335,136],[-90.39251,38.81334,136],[-90.39247,38.81334,137],[-90.39243,38.81333,137],[-90.3924,38.81331,137],[-90.39238,38.81328,137],[-90.39234,38.81326,137],[-90.39231,38.81324,137],[-90.39228,38.81322,137],[-90.39224,38.81322,138],[-90.39221,38.81319,138],[-90.39218,38.81318,138],[-90.39214,38.81316,138],[-90.39211,38.81314,138],[-90.39208,38.81312,138],[-90.39205,38.81311,138],[-90.39203,38.81308,138],[-90.392,38.81305,138],[-90.39197,38.81303,138],[-90.39194,38.81302,138],[-90.39192,38.81299,138],[-90.39189,38.81296,138],[-90.39186,38.81294,138],[-90.39183,38.81292,138],[-90.3918,38.8129,138],[-90.39177,38.81288,139],[-90.39173,38.81285,139],[-90.3917,38.81284,139],[-90.39166,38.81283,139],[-90.39163,38.81282,140],[-90.39159,38.8128,140],[-90.39156,38.8128,140],[-90.39154,38.81277,140],[-90.39154,38.81274,140],[-90.39152,38.81271,139],[-90.39152,38.81268,139],[-90.39153,38.81265,138],[-90.39154,38.81262,137],[-90.39156,38.81259,137],[-90.39157,38.81257,136],[-90.3916,38.81254,135],[-90.39162,38.81251,135],[-90.39165,38.81248,135],[-90.39167,38.81246,135],[-90.3917,38.81243,135],[-90.39173,38.81241,135],[-90.39176,38.81238,136],[-90.39177,38.81235,136],[-90.39177,38.81231,136],[-90.39179,38.81229,136],[-90.39183,38.81227,136],[-90.39186,38.81225,137],[-90.39189,38.81223,137],[-90.3919,38.8122,137],[-90.39193,38.81217,137],[-90.39196,38.81216,137],[-90.39199,38.81214,137],[-90.39202,38.81213,137],[-90.39206,38.81212,137],[-90.39211,38.81213,136],[-90.39215,38.81214,136],[-90.39218,38.81216,136],[-90.39221,38.81219,136],[-90.39226,38.8122,135],[-90.3923,38.81222,135],[-90.39232,38.81224,135],[-90.39235,38.81227,135],[-90.39239,38.81228,135],[-90.39242,38.8123,135],[-90.39245,38.81232,135],[-90.39247,38.81234,135],[-90.39252,38.81235,135],[-90.39255,38.81238,135],[-90.39257,38.8124,135],[-90.39259,38.81243,135],[-90.39261,38.81245,135],[-90.39265,38.81247,134],[-90.39268,38.81248,134],[-90.39272,38.8125,134],[-90.39274,38.81253,134],[-90.39277,38.81257,134],[-90.39281,38.81259,134],[-90.39284,38.81261,134],[-90.39287,38.81263,134],[-90.3929,38.81265,134],[-90.39294,38.81266,134],[-90.39298,38.81268,134],[-90.393,38.8127,134],[-90.39304,38.81272,134],[-90.39307,38.81273,134],[-90.3931,38.81275,134],[-90.39314,38.81277,134],[-90.39317,38.81278,134],[-90.3932,38.8128,134],[-90.39324,38.81282,134],[-90.39327,38.81283,134],[-90.39331,38.81285,134],[-90.39334,38.81287,134],[-90.39337,38.81289,134],[-90.39341,38.8129,133],[-90.39344,38.81289,133],[-90.39347,38.81287,133],[-90.3935,38.81285,133],[-90.39353,38.81283,133],[-90.39357,38.81281,133],[-90.3936,38.8128,133],[-90.39363,38.81278,133],[-90.39366,38.81276,134],[-90.39369,38.81275,134],[-90.39371,38.81273,134],[-90.39375,38.81271,134],[-90.39378,38.81269,134],[-90.3938,38.81266,135],[-90.39382,38.81264,135],[-90.39386,38.81261,135],[-90.39389,38.8126,135],[-90.39392,38.81257,136],[-90.39394,38.81254,136],[-90.39397,38.81252,136],[-90.39401,38.8125,137],[-90.39404,38.81248,137],[-90.39407,38.81246,137],[-90.39409,38.81244,137],[-90.39412,38.81242,137],[-90.39416,38.8124,137],[-90.3942,38.81238,137],[-90.39421,38.81235,137],[-90.39424,38.81233,137],[-90.39425,38.8123,137],[-90.39427,38.81227,137],[-90.3943,38.81225,137],[-90.39433,38.81223,137],[-90.39437,38.81221,138],[-90.3944,38.81219,138],[-90.39442,38.81216,138],[-90.39445,38.81214,137],[-90.39448,38.81213,137],[-90.39451,38.81211,137],[-90.39454,38.81209,137],[-90.39457,38.81207,137],[-90.39459,38.81205,137],[-90.39461,38.81202,137],[-90.39463,38.81199,137],[-90.39467,38.81198,137],[-90.3947,38.81195,137],[-90.39472,38.81193,136],[-90.39475,38.8119,136],[-90.39479,38.81188,135],[-90.39481,38.81186,135],[-90.39483,38.81183,135],[-90.39486,38.81181,134],[-90.39488,38.81179,134],[-90.39491,38.81176,134],[-90.39494,38.81174,133],[-90.39497,38.81173,133],[-90.39501,38.81171,133],[-90.39504,38.8117,133],[-90.39507,38.81168,133],[-90.3951,38.81166,132],[-90.39513,38.81164,132],[-90.39516,38.81162,132]]],
        "bbox": [
          -90.38752,
          38.81754,
          -90.39526,
          38.81112
        ]
      },
      "properties": {
        "name": "10.21.2023"
      }
    }
  ]
}