{
  "type": "FeatureCollection",
  "features": [
    {
      "type": "Feature",
      "geometry": {
        "type": "MultiLineString",
        "coordinates": [[[-90.39078,38.81073,138],[-90.3908,38.81076,138],[-90.39082,38.81079,138],[-90.39082,38.81082,138],[-90.39082,38.81085,138],[-90.39082,38.81088,138],[-90.39082,38.81091,138],[-90.39083,38.81095,139],[-90.39084,38.81098,139],[-90.39086,38.81101,139],[-90.39084,38.81104,140],[-90.39083,38.81107,140],[-90.39083,38.8111,140],[-90.39082,38.81113,141],[-90.39082,38.81116,141],[-90.39084,38.8112,141],[-90.39085,38.81122,141],[-90.39087,38.81126,141],[-90.39089,38.81129,141],[-90.39091,38.81132,141],[-90.39092,38.81135,142],[-90.39094,38.81137,142],[-90.39095,38.8114,142],[-90.39098,38.81143,142],[-90.39101,38.81146,142],[-90.39103,38.81148,142],[-90.39105,38.81151,143],[-90.39105,38.81154,143],[-90.39104,38.81157,144],[-90.39102,38.8116,144],[-90.391,38.81162,145],[-90.39097,38.81165,145],[-90.39095,38.81168,146],[-90.39093,38.81172,147],[-90.39091,38.81175,147],[-90.3909,38.81178,147],[-90.39089,38.81181,148],[-90.39089,38.81184,148],[-90.39088,38.81188,148],[-90.39088,38.81191,149],[-90.39088,38.81194,149],[-90.39088,38.81197,149],[-90.39087,38.81201,149],[-90.39085,38.81204,149],[-90.39084,38.81207,149],[-90.39083,38.81211,149],[-90.39082,38.81214,149],[-90.39082,38.81218,149],[-90.39083,38.81221,149],[-90.39084,38.81224,149],[-90.39086,38.81227,148],[-90.39087,38.8123,148],[-90.39088,38.81233,147],[-90.39091,38.81237,146],[-90.39093,38.81239,145],[-90.39095,38.81242,144],[-90.39096,38.81245,143],[-90.39096,38.81249,142],[-90.39096,38.81253,143],[-90.39096,38.81257,144],[-90.39096,38.8126,144],[-90.39097,38.81263,145],[-90.39098,38.81267,146],[-90.391,38.8127,146],[-90.39101,38.81274,147],[-90.391,38.81276,148],[-90.39101,38.8128,149],[-90.39102,38.81282,149],[-90.39104,38.81285,149],[-90.39105,38.81289,150],[-90.39107,38.81292,151],[-90.39109,38.81295,151],[-90.3911,38.81298,152],[-90.39111,38.81301,152],[-90.39111,38.81304,153],[-90.39112,38.81306,153],[-90.39114,38.8131,153],[-90.39117,38.81312,153],[-90.3912,38.81314,153],[-90.39124,38.81316,152],[-90.39126,38.81319,152],[-90.39128,38.81323,152],[-90.39128,38.81326,152],[-90.39131,38.81328,151],[-90.39135,38.8133,151],[-90.39139,38.81331,150],[-90.39143,38.81333,150],[-90.39148,38.81334,149],[-90.39152,38.81336,148],[-90.39155,38.81338,148],[-90.39158,38.81341,147],[-90.39158,38.81344,147],[-90.39158,38.81348,146],[-90.39157,38.8135,146],[-90.39156,38.81353,146],[-90.39158,38.81357,145],[-90.39161,38.81359,144],[-90.39163,38.81363,144],[-90.39165,38.81365,144],[-90.39168,38.81368,144],[-90.39171,38.8137,143],[-90.39175,38.81373,143],[-90.39177,38.81374,143],[-90.3918,38.81377,142],[-90.39182,38.81379,142],[-90.39185,38.81381,141],[-90.39188,38.81383,140],[-90.39191,38.81384,139],[-90.39195,38.81387,138],[-90.39198,38.81389,137],[-90.39201,38.81392,138],[-90.39205,38.81394,138],[-90.39209,38.81396,139],[-90.39212,38.81399,140],[-90.39215,38.814,141],[-90.3922,38.81401,141],[-90.39224,38.81402,141],[-90.39227,38.81405,143],[-90.3923,38.81407,145],[-90.39232,38.8141,146],[-90.39236,38.81413,148],[-90.39239,38.81415,149],[-90.39242,38.81418,150],[-90.39243,38.81421,151],[-90.39245,38.81424,151],[-90.39248,38.81426,152],[-90.39251,38.81429,152],[-90.39254,38.8143,152],[-90.39257,38.81431,152],[-90.39261,38.81434,152],[-90.39264,38.81436,152],[-90.39266,38.81439,153],[-90.39269,38.81442,153],[-90.39271,38.81444,153],[-90.39274,38.81447,153],[-90.39277,38.81449,152],[-90.3928,38.81452,152],[-90.39284,38.81454,151],[-90.39288,38.81455,150],[-90.39291,38.81457,149],[-90.39295,38.81459,148],[-90.39298,38.81461,147],[-90.39301,38.81463,147],[-90.39302,38.81466,146],[-90.39303,38.81468,146],[-90.39305,38.81471,146],[-90.39306,38.81474,146],[-90.39306,38.81477,146],[-90.39307,38.8148,146],[-90.39308,38.81483,146],[-90.39309,38.81486,146],[-90.39312,38.8149,145],[-90.39314,38.81493,145],[-90.39317,38.81496,145],[-90.39318,38.81499,145],[-90.39319,38.81502,144],[-90.39322,38.81505,144],[-90.39323,38.81508,143],[-90.39323,38.81512,143],[-90.39322,38.81515,143],[-90.39321,38.81518,142],[-90.39319,38.81522,143],[-90.39317,38.81525,143],[-90.39315,38.81529,143],[-90.39314,38.81531,142],[-90.39312,38.81534,142],[-90.39309,38.81537,142],[-90.39304,38.81538,143],[-90.393,38.8154,143],[-90.39296,38.81542,144],[-90.39293,38.81544,144],[-90.3929,38.81546,144],[-90.39287,38.81548,144],[-90.39282,38.8155,145],[-90.39279,38.81552,145],[-90.39277,38.81554,145],[-90.39274,38.81556,146],[-90.39272,38.81558,146],[-90.39269,38.8156,147],[-90.39265,38.81561,149],[-90.39263,38.81563,149],[-90.39264,38.81567,148],[-90.39265,38.81569,147],[-90.39266,38.81572,146],[-90.39267,38.81576,144],[-90.39266,38.8158,144],[-90.39266,38.81582,144],[-90.39265,38.81585,144],[-90.39263,38.81589,144],[-90.39262,38.81592,145],[-90.39261,38.81595,145],[-90.39259,38.81599,145],[-90.39258,38.81601,146],[-90.39255,38.81604,147],[-90.39253,38.81606,147],[-90.3925,38.81608,148],[-90.39246,38.8161,150],[-90.39243,38.81612,150],[-90.39241,38.81615,150],[-90.3924,38.81618,150],[-90.39238,38.8162,150],[-90.39237,38.81624,149],[-90.39235,38.81626,149],[-90.39232,38.81634,148],[-90.39231,38.81642,146],[-90.39228,38.8165,146],[-90.39224,38.81655,146],[-90.39218,38.81661,147],[-90.39213,38.81668,147],[-90.39206,38.81674,148],[-90.39195,38.81679,149],[-90.39183,38.81682,150],[-90.39171,38.81687,150],[-90.39169,38.81695,147],[-90.39163,38.817,146],[-90.39157,38.81705,145],[-90.3915,38.81708,145],[-90.39142,38.81713,144],[-90.39131,38.81715,145],[-90.39116,38.81718,146],[-90.39102,38.8172,148],[-90.39099,38.81728,146],[-90.3909,38.81734,146],[-90.39088,38.81742,144],[-90.39084,38.81748,142],[-90.39079,38.81752,142],[-90.39076,38.81758,141],[-90.39074,38.81762,141],[-90.39075,38.81766,140],[-90.39074,38.81769,139],[-90.3907,38.8177,139],[-90.39066,38.81771,140],[-90.39062,38.81771,140],[-90.39058,38.81772,141],[-90.39055,38.81774,140],[-90.39051,38.81776,140],[-90.39047,38.81777,141],[-90.39043,38.81777,141],[-90.3904,38.81778,141],[-90.39035,38.81779,142],[-90.39031,38.8178,142],[-90.39027,38.81782,142],[-90.39023,38.81783,143],[-90.39019,38.81784,143],[-90.39015,38.81785,144],[-90.39011,38.81785,145],[-90.39007,38.81786,145],[-90.39003,38.81787,145],[-90.38999,38.81788,146],[-90.38996,38.81789,146],[-90.38991,38.81791,146],[-90.38987,38.81793,146],[-90.38983,38.81794,147],[-90.38979,38.81796,147],[-90.38976,38.81797,147],[-90.38973,38.81798,147],[-90.38968,38.81799,148],[-90.38964,38.81799,148],[-90.38959,38.818,147],[-90.38956,38.818,148],[-90.38952,38.81798,148],[-90.38948,38.81797,148],[-90.38944,38.81797,148],[-90.3894,38.81797,149],[-90.38936,38.81796,150],[-90.38932,38.81796,150],[-90.38928,38.81797,151],[-90.38923,38.81797,151],[-90.3892,38.81796,152],[-90.38916,38.81796,153],[-90.38912,38.81797,153],[-90.38908,38.81799,154],[-90.38905,38.81801,154],[-90.38902,38.81803,154],[-90.38897,38.81803,155],[-90.38894,38.81803,156],[-90.38891,38.81805,156],[-90.38888,38.81808,156],[-90.38885,38.8181,156],[-90.38883,38.81812,155],[-90.38879,38.81815,155],[-90.38876,38.81818,154],[-90.38874,38.8182,153],[-90.38872,38.81823,153],[-90.38868,38.81824,153],[-90.38864,38.81824,153],[-90.3886,38.81826,153],[-90.38858,38.81829,152],[-90.38854,38.8183,151],[-90.38851,38.81832,150],[-90.38847,38.81834,149],[-90.38843,38.81835,149],[-90.3884,38.81838,148],[-90.38838,38.8184,147],[-90.38836,38.81843,145],[-90.38834,38.81846,144],[-90.38831,38.81847,144],[-90.3883,38.81851,142],[-90.38828,38.81854,141],[-90.38825,38.81857,140],[-90.38822,38.81858,140],[-90.38818,38.81861,140],[-90.38814,38.81863,140],[-90.38811,38.81865,140],[-90.38807,38.81865,141],[-90.38803,38.81865,141],[-90.38799,38.81866,142],[-90.38796,38.81868,142],[-90.38793,38.8187,142],[-90.38789,38.81872,142],[-90.38784,38.81873,143],[-90.38781,38.81875,143],[-90.38777,38.81876,143],[-90.38774,38.81878,143],[-90.38771,38.81879,143],[-90.38767,38.8188,143],[-90.38764,38.81881,143],[-90.38761,38.81882,143],[-90.38758,38.81884,143],[-90.38755,38.81887,142],[-90.38753,38.81889,141],[-90.3875,38.81891,141],[-90.38747,38.81894,140],[-90.38745,38.81897,139],[-90.38742,38.819,138],[-90.3874,38.81903,137],[-90.38738,38.81906,136],[-90.38735,38.81908,135],[-90.38732,38.8191,135],[-90.38728,38.81912,134],[-90.38724,38.81913,133],[-90.3872,38.81914,133],[-90.38717,38.81916,132],[-90.38717,38.81919,132],[-90.38717,38.81922,132],[-90.38714,38.81924,132],[-90.38711,38.81926,132],[-90.38707,38.81928,132],[-90.38703,38.81929,132],[-90.387,38.81931,132],[-90.38696,38.81932,132],[-90.38692,38.81934,132],[-90.38688,38.81935,132],[-90.38684,38.81936,132],[-90.38681,38.81939,132],[-90.38677,38.81941,132],[-90.38675,38.81944,132],[-90.38672,38.81946,131],[-90.38669,38.81948,131],[-90.38666,38.81946,131],[-90.38666,38.81949,131],[-90.38667,38.81952,131],[-90.38668,38.81955,131],[-90.38664,38.81956,131],[-90.38659,38.81956,131],[-90.38655,38.81957,131],[-90.38651,38.81958,131],[-90.38648,38.81961,131],[-90.38646,38.81963,131],[-90.38643,38.81964,131],[-90.38638,38.81966,131],[-90.38634,38.81968,131],[-90.38629,38.81969,131],[-90.38624,38.8197,131],[-90.3862,38.81971,131],[-90.38616,38.81971,131],[-90.38612,38.81971,131],[-90.38608,38.81972,131],[-90.38604,38.81972,131],[-90.386,38.81973,131],[-90.38597,38.81973,131],[-90.38592,38.81975,131],[-90.38587,38.81976,131],[-90.38583,38.81976,131],[-90.3858,38.81977,131],[-90.38576,38.81977,131],[-90.38572,38.81978,131],[-90.38568,38.81979,131],[-90.38564,38.81979,131],[-90.38561,38.81981,131],[-90.38559,38.81979,131],[-90.38556,38.81977,131],[-90.38551,38.81976,131],[-90.38546,38.81976,131],[-90.38543,38.81975,131],[-90.38538,38.81975,131],[-90.38533,38.81975,131],[-90.38529,38.81976,131],[-90.38525,38.81976,131],[-90.38521,38.81977,131],[-90.38518,38.81977,131],[-90.38513,38.81978,131],[-90.38512,38.8198,131],[-90.38508,38.81981,131],[-90.38504,38.81981,131],[-90.385,38.81982,131],[-90.38496,38.81982,132],[-90.38492,38.81983,132],[-90.38488,38.81983,133],[-90.38485,38.81983,134],[-90.3848,38.81983,135],[-90.38476,38.81982,136],[-90.38473,38.81981,137],[-90.38477,38.81981,136],[-90.3848,38.81981,135],[-90.38484,38.81981,134],[-90.38488,38.81981,133],[-90.38492,38.81981,133],[-90.38496,38.81981,132],[-90.385,38.8198,131],[-90.38503,38.8198,131],[-90.38505,38.81982,131],[-90.38509,38.81982,131],[-90.38512,38.81981,131],[-90.38517,38.8198,131],[-90.38521,38.8198,131],[-90.38525,38.8198,131],[-90.38529,38.81979,131],[-90.38533,38.81979,131],[-90.38537,38.81978,131],[-90.38541,38.81978,131],[-90.38545,38.81978,131],[-90.38548,38.81979,131],[-90.38552,38.8198,131],[-90.38556,38.81981,131],[-90.3856,38.81981,131],[-90.38564,38.81981,131],[-90.38568,38.81981,131],[-90.38575,38.81981,131],[-90.38579,38.8198,131],[-90.38584,38.81979,131],[-90.38588,38.81979,131],[-90.38591,38.81978,131],[-90.38595,38.81977,131],[-90.38599,38.81977,131],[-90.38604,38.81976,131],[-90.38608,38.81975,131],[-90.38612,38.81974,131],[-90.38616,38.81973,131],[-90.38619,38.81973,131],[-90.38623,38.81973,131],[-90.38627,38.81971,131],[-90.38631,38.81969,131],[-90.38636,38.81968,131],[-90.3864,38.81967,131],[-90.38644,38.81965,131],[-90.38648,38.81963,131],[-90.38651,38.8196,131],[-90.38655,38.81958,131],[-90.3866,38.81957,131],[-90.38663,38.81956,131],[-90.38666,38.81954,131],[-90.38666,38.81952,131],[-90.38666,38.81949,131],[-90.38669,38.81946,131],[-90.38673,38.81944,132],[-90.38677,38.81941,132],[-90.38681,38.81939,132],[-90.38685,38.81937,132],[-90.3869,38.81935,132],[-90.38698,38.81935,132],[-90.38718,38.81936,132],[-90.38734,38.81922,132],[-90.38743,38.81912,134],[-90.3875,38.81901,138],[-90.38755,38.81891,141],[-90.38766,38.81881,143],[-90.38784,38.81878,142],[-90.38813,38.81872,140],[-90.38828,38.81861,138],[-90.38834,38.8185,142],[-90.38834,38.8184,147],[-90.38846,38.81835,149],[-90.38858,38.8183,151],[-90.38873,38.81819,154],[-90.38886,38.8181,155],[-90.38892,38.818,157],[-90.38903,38.81796,156],[-90.38917,38.81806,149],[-90.38929,38.81803,149],[-90.38941,38.81805,147],[-90.38952,38.81808,146],[-90.38963,38.81807,146],[-90.38972,38.81805,147],[-90.3898,38.81807,145],[-90.38988,38.81804,145],[-90.38994,38.818,144],[-90.39001,38.81799,144],[-90.39008,38.81796,143],[-90.39016,38.81797,142],[-90.39026,38.81798,141],[-90.39036,38.81796,140],[-90.39049,38.81783,140],[-90.39062,38.81775,139],[-90.39069,38.81765,141],[-90.39081,38.81761,140],[-90.39093,38.81755,139],[-90.39101,38.81751,139],[-90.39101,38.81746,141],[-90.39101,38.81743,142],[-90.39101,38.8174,142],[-90.39101,38.81738,143],[-90.39103,38.81734,144],[-90.39107,38.81732,144],[-90.3911,38.81731,143],[-90.39113,38.81729,143],[-90.39118,38.81725,144],[-90.39122,38.81721,144],[-90.39129,38.81716,145],[-90.39138,38.81713,145],[-90.39145,38.81707,146],[-90.39156,38.81708,144],[-90.39166,38.81706,143],[-90.39175,38.81701,145],[-90.39188,38.81695,148],[-90.39198,38.81687,149],[-90.39207,38.81678,148],[-90.3921,38.81669,148],[-90.39216,38.81664,147],[-90.39226,38.81659,146],[-90.39231,38.81652,145],[-90.39233,38.81646,145],[-90.39236,38.81639,146],[-90.39233,38.81632,148],[-90.39235,38.81626,149],[-90.39243,38.81624,148],[-90.39248,38.81618,148],[-90.39254,38.81613,147],[-90.39262,38.81613,144],[-90.39269,38.81606,142],[-90.39272,38.81597,141],[-90.39273,38.8159,141],[-90.39275,38.81584,140],[-90.39275,38.81577,141],[-90.39274,38.81571,143],[-90.39269,38.81565,146],[-90.39271,38.81559,147],[-90.39273,38.81552,147],[-90.39277,38.81548,147],[-90.39284,38.81543,147],[-90.39293,38.81542,144],[-90.393,38.81537,144],[-90.39306,38.81532,144],[-90.39312,38.81526,144],[-90.39319,38.81521,143],[-90.39323,38.81512,143],[-90.39321,38.81504,144],[-90.39317,38.81498,145],[-90.39318,38.81491,144],[-90.39317,38.81484,144],[-90.39312,38.8148,145],[-90.3931,38.81473,145],[-90.39308,38.81466,145],[-90.39304,38.81461,146],[-90.39299,38.81457,147],[-90.39294,38.81454,149],[-90.39289,38.81451,150],[-90.39284,38.81448,151],[-90.3928,38.81445,152],[-90.39275,38.81442,152],[-90.39273,38.81437,151],[-90.39268,38.81433,151],[-90.39265,38.81429,151],[-90.39259,38.81428,151],[-90.39255,38.81427,151],[-90.3925,38.81425,151],[-90.39244,38.81421,151],[-90.3924,38.81417,150],[-90.39236,38.81413,148],[-90.39232,38.8141,146],[-90.39228,38.81405,143],[-90.39224,38.81404,142],[-90.3922,38.81405,143],[-90.39217,38.81404,143],[-90.39214,38.81405,144],[-90.39216,38.81403,142],[-90.3922,38.814,140],[-90.39223,38.81397,138],[-90.39227,38.81394,136],[-90.39229,38.81392,135],[-90.39232,38.8139,135],[-90.39235,38.81388,135],[-90.39239,38.81385,136],[-90.39243,38.81383,137],[-90.39247,38.81381,137],[-90.3925,38.81379,138],[-90.39253,38.81377,138],[-90.39256,38.81376,138],[-90.39255,38.81373,138],[-90.39255,38.81371,138],[-90.39256,38.81367,138],[-90.39258,38.81364,138],[-90.39259,38.81362,138],[-90.39261,38.81359,138],[-90.39263,38.81356,138],[-90.39266,38.81353,137],[-90.39267,38.8135,137],[-90.39269,38.81347,136],[-90.39271,38.81345,136],[-90.39274,38.81342,136],[-90.39277,38.81339,135],[-90.39279,38.81336,135],[-90.39282,38.81334,134],[-90.39284,38.81331,134],[-90.39285,38.81329,134],[-90.39288,38.81326,134],[-90.39291,38.81323,133],[-90.39295,38.8132,133],[-90.39298,38.81317,133],[-90.39301,38.81314,133],[-90.39304,38.8131,133],[-90.39308,38.81308,132],[-90.39311,38.81306,132],[-90.39314,38.81303,133],[-90.39318,38.81301,133],[-90.39321,38.81299,133],[-90.39324,38.81296,133],[-90.39328,38.81294,133],[-90.39331,38.81292,133],[-90.39334,38.8129,134],[-90.39337,38.81288,134],[-90.39341,38.81287,134],[-90.39345,38.81286,134],[-90.39348,38.81284,134],[-90.39351,38.81283,133],[-90.39355,38.81281,134],[-90.39357,38.81279,134],[-90.39362,38.81277,134],[-90.39366,38.81275,134],[-90.39369,38.81273,134],[-90.39371,38.81271,134],[-90.39374,38.81268,134],[-90.39376,38.81266,135],[-90.39379,38.81264,135],[-90.39381,38.81263,135],[-90.39384,38.81261,135],[-90.39388,38.81258,136],[-90.39391,38.81255,136],[-90.39394,38.81253,136],[-90.39397,38.8125,137],[-90.394,38.81249,137],[-90.39404,38.81247,137],[-90.39407,38.81245,137],[-90.39411,38.81242,137],[-90.39415,38.8124,137],[-90.39418,38.81238,137],[-90.39422,38.81235,137],[-90.39425,38.81233,137],[-90.39428,38.8123,137],[-90.39431,38.81228,137],[-90.39434,38.81225,137],[-90.39437,38.81222,138],[-90.3944,38.8122,138],[-90.39444,38.81218,138],[-90.39447,38.81215,137],[-90.3945,38.81212,137],[-90.39454,38.81209,137],[-90.39457,38.81206,137],[-90.3946,38.81203,137],[-90.39464,38.81201,137],[-90.39467,38.81198,137],[-90.3947,38.81195,137],[-90.39466,38.81197,137],[-90.39462,38.81199,137],[-90.39459,38.81201,137],[-90.39457,38.81203,137],[-90.39453,38.81205,137],[-90.3945,38.81207,137],[-90.39447,38.8121,137],[-90.39445,38.81211,137],[-90.3944,38.81214,138],[-90.39437,38.81216,138],[-90.39434,38.81219,138],[-90.39431,38.81222,138],[-90.39429,38.81224,137],[-90.39427,38.81226,137],[-90.39425,38.81228,137],[-90.39421,38.81231,137],[-90.39417,38.81233,137],[-90.39414,38.81235,137],[-90.39411,38.81238,137],[-90.39409,38.8124,137],[-90.39406,38.81242,137],[-90.39403,38.81245,137],[-90.394,38.81248,137],[-90.39398,38.8125,137],[-90.39394,38.81252,136],[-90.3939,38.81254,136],[-90.39387,38.81257,136],[-90.39383,38.81259,135],[-90.39379,38.81261,135],[-90.39375,38.81263,135],[-90.39372,38.81266,135],[-90.39369,38.81268,134],[-90.39366,38.8127,134],[-90.39364,38.81272,134],[-90.39361,38.81274,134],[-90.39358,38.81275,134],[-90.39354,38.81277,134],[-90.3935,38.81279,134],[-90.39347,38.81281,134],[-90.39343,38.81283,134],[-90.3934,38.81286,134],[-90.39337,38.81288,134],[-90.39334,38.8129,134],[-90.39332,38.81293,133],[-90.39329,38.81295,133],[-90.39326,38.81298,133],[-90.39323,38.813,133],[-90.39319,38.81301,133],[-90.39316,38.81302,133],[-90.39312,38.81304,133],[-90.39309,38.81306,132],[-90.39306,38.81308,132],[-90.39303,38.81311,133],[-90.39299,38.81313,133],[-90.39296,38.81315,133],[-90.39293,38.81318,133],[-90.3929,38.8132,133],[-90.39288,38.81323,134],[-90.39285,38.81326,134],[-90.39281,38.81328,134],[-90.39278,38.81331,134],[-90.39275,38.81332,135],[-90.39273,38.81335,135],[-90.39271,38.81338,135],[-90.39269,38.81341,136],[-90.39267,38.81343,136],[-90.39265,38.81346,137],[-90.39263,38.81349,137],[-90.3926,38.81352,137],[-90.39258,38.81355,138],[-90.39255,38.81358,138],[-90.39253,38.8136,138],[-90.39251,38.81362,138],[-90.3925,38.81365,138],[-90.39248,38.81368,138],[-90.39246,38.81371,138],[-90.39244,38.81373,138],[-90.39243,38.81376,137],[-90.39242,38.81379,137],[-90.39241,38.81383,136],[-90.39239,38.81386,136],[-90.39236,38.81388,135],[-90.39234,38.8139,135],[-90.39232,38.81393,137],[-90.3923,38.81395,138],[-90.39227,38.81398,139],[-90.39224,38.814,140],[-90.39221,38.81402,141],[-90.39218,38.81405,143],[-90.39215,38.81407,145],[-90.39212,38.81408,146],[-90.39208,38.81409,147],[-90.39204,38.81409,147],[-90.392,38.81409,147],[-90.39197,38.81408,147],[-90.39194,38.81411,149],[-90.39194,38.81414,150],[-90.39192,38.81417,152],[-90.3919,38.81419,153],[-90.39186,38.81418,154],[-90.39183,38.81417,154],[-90.39181,38.8142,156],[-90.39182,38.81423,156],[-90.39181,38.81426,157],[-90.3918,38.81429,158],[-90.39182,38.81432,159],[-90.39182,38.81435,159],[-90.39181,38.81438,161],[-90.39181,38.81441,162],[-90.39181,38.81444,162],[-90.39179,38.81447,163],[-90.3918,38.8145,163],[-90.39181,38.81453,164],[-90.39183,38.81456,163],[-90.39183,38.81459,164],[-90.39183,38.81462,164],[-90.39185,38.81465,164],[-90.39186,38.81469,164],[-90.39188,38.81472,164],[-90.39189,38.81475,164],[-90.3919,38.81478,165],[-90.3919,38.81482,165],[-90.39187,38.81484,166],[-90.39186,38.81488,167],[-90.39187,38.81491,167],[-90.39188,38.81494,167],[-90.39189,38.81496,167],[-90.39191,38.81499,167],[-90.39193,38.81503,167],[-90.39194,38.81506,168],[-90.39193,38.81509,169],[-90.39194,38.81512,170],[-90.39194,38.81515,171],[-90.39194,38.81519,172],[-90.39196,38.81524,174],[-90.392,38.81529,174],[-90.39203,38.81535,173],[-90.39204,38.81541,173],[-90.39206,38.81547,172],[-90.39204,38.81552,173],[-90.39202,38.81556,174],[-90.392,38.81559,174],[-90.39196,38.81566,175],[-90.39189,38.81568,176],[-90.39181,38.81569,178],[-90.39175,38.81569,179],[-90.39171,38.81568,180],[-90.39168,38.81566,181],[-90.39165,38.81565,182],[-90.39162,38.81563,182],[-90.3916,38.81561,182],[-90.39157,38.81558,183],[-90.39153,38.81555,183],[-90.3915,38.81553,184],[-90.39147,38.8155,184],[-90.39145,38.81548,184],[-90.39141,38.81547,185],[-90.39138,38.81547,185],[-90.39133,38.81545,185],[-90.39129,38.81544,185],[-90.39125,38.81543,185],[-90.39121,38.81543,186],[-90.39117,38.81544,186],[-90.39113,38.81545,186],[-90.39109,38.81546,186],[-90.39106,38.81549,186],[-90.39102,38.81551,185],[-90.39099,38.81552,185],[-90.39095,38.81554,185],[-90.39091,38.81557,185],[-90.39087,38.81558,184],[-90.39083,38.81559,184],[-90.39078,38.81559,184],[-90.39073,38.8156,183],[-90.39069,38.81561,183],[-90.39065,38.81561,182],[-90.39061,38.8156,182],[-90.39058,38.81559,182],[-90.39054,38.81557,181],[-90.39051,38.81556,181],[-90.39047,38.81555,180],[-90.39044,38.81553,180],[-90.39041,38.81551,180],[-90.39039,38.81549,180],[-90.39034,38.81548,179],[-90.39031,38.81548,179],[-90.39027,38.81547,179],[-90.39023,38.81545,179],[-90.39019,38.81544,179],[-90.39016,38.81543,179],[-90.39012,38.81542,179],[-90.39008,38.8154,179],[-90.39004,38.81537,180],[-90.39002,38.81535,180],[-90.38997,38.81534,181],[-90.38994,38.81532,181],[-90.3899,38.8153,181],[-90.38987,38.81528,182],[-90.38984,38.81526,182],[-90.3898,38.81525,183],[-90.38977,38.81522,184],[-90.38975,38.81519,184],[-90.38972,38.81516,185],[-90.3897,38.81513,186],[-90.38967,38.8151,186],[-90.38965,38.81507,187],[-90.38963,38.81505,187],[-90.3896,38.81502,188],[-90.38957,38.81499,188],[-90.38954,38.81497,188],[-90.38953,38.81494,188],[-90.38951,38.8149,189],[-90.38951,38.81487,189],[-90.3895,38.81484,189],[-90.38948,38.81481,190],[-90.38947,38.81478,190],[-90.38947,38.81476,190],[-90.38947,38.81472,191],[-90.38946,38.81469,190],[-90.38946,38.81466,190],[-90.38947,38.81463,190],[-90.38947,38.8146,190],[-90.38948,38.81457,190],[-90.38948,38.81453,190],[-90.38947,38.8145,190],[-90.38945,38.81447,190],[-90.38943,38.81444,190],[-90.38942,38.81441,189],[-90.38938,38.81438,190],[-90.38935,38.81437,190],[-90.38932,38.81436,190],[-90.38929,38.81434,190],[-90.38926,38.81432,191],[-90.38922,38.81431,191],[-90.38918,38.8143,192],[-90.38914,38.81428,192],[-90.3891,38.81427,192],[-90.38906,38.81426,192],[-90.38902,38.81426,192],[-90.38898,38.81426,192],[-90.38894,38.81425,192],[-90.38891,38.81424,192],[-90.38887,38.81423,193],[-90.38882,38.81421,194],[-90.38879,38.8142,194],[-90.38876,38.81418,194],[-90.38872,38.81416,195],[-90.38868,38.81415,195],[-90.38864,38.81414,196],[-90.3886,38.81414,196],[-90.38856,38.81413,197],[-90.38853,38.81411,197],[-90.3885,38.8141,197],[-90.38846,38.81409,197],[-90.38841,38.81408,198],[-90.38838,38.81407,198],[-90.38834,38.81404,198],[-90.3883,38.81402,198],[-90.38825,38.814,198],[-90.38822,38.81399,198],[-90.38817,38.81399,198],[-90.38812,38.81399,199],[-90.38809,38.81399,199],[-90.38804,38.81399,199],[-90.388,38.81399,199],[-90.38796,38.81399,199],[-90.38792,38.814,199],[-90.38787,38.814,199],[-90.38784,38.814,199],[-90.38779,38.814,199],[-90.38774,38.814,200],[-90.3877,38.81401,200],[-90.38766,38.81399,200],[-90.38763,38.81396,200],[-90.38761,38.81394,200],[-90.38757,38.81391,200],[-90.38754,38.81388,199],[-90.38752,38.81386,199],[-90.38751,38.81382,199],[-90.38751,38.81379,198],[-90.38751,38.81376,198],[-90.38752,38.81373,197],[-90.38752,38.81371,197],[-90.38753,38.81368,197],[-90.38754,38.81364,196],[-90.38755,38.81361,196],[-90.38756,38.81357,196],[-90.38757,38.81354,196],[-90.38758,38.81351,195],[-90.38759,38.81347,195],[-90.3876,38.81344,195],[-90.3876,38.81341,195],[-90.3876,38.81338,195],[-90.3876,38.81336,194],[-90.3876,38.81332,194],[-90.38762,38.8133,194],[-90.38766,38.81329,194],[-90.3877,38.81329,195],[-90.38775,38.8133,195],[-90.38779,38.8133,195],[-90.38783,38.8133,195],[-90.38787,38.81328,195],[-90.3879,38.81327,195],[-90.38794,38.81326,194],[-90.38795,38.81323,194],[-90.38797,38.81321,194],[-90.38799,38.81319,193],[-90.388,38.81316,193],[-90.38803,38.81313,192],[-90.38805,38.8131,191],[-90.38807,38.81308,191],[-90.38808,38.81305,190],[-90.38808,38.81302,190],[-90.38809,38.81298,189],[-90.38808,38.81295,189],[-90.38808,38.81292,188],[-90.38808,38.81288,188],[-90.38809,38.81285,187],[-90.38809,38.81281,187],[-90.3881,38.81278,186],[-90.38813,38.81277,185],[-90.38817,38.81276,184],[-90.3882,38.81276,183],[-90.38824,38.81274,182],[-90.38827,38.81272,180],[-90.38831,38.81272,179],[-90.38834,38.81272,178],[-90.38839,38.81271,176],[-90.38842,38.8127,175],[-90.38846,38.8127,174],[-90.3885,38.8127,173],[-90.38853,38.81269,172],[-90.38856,38.81267,171],[-90.38859,38.81265,170],[-90.38859,38.81261,170],[-90.38859,38.81259,169],[-90.3886,38.81256,169],[-90.38863,38.81254,168],[-90.38866,38.81252,168],[-90.38867,38.81248,167],[-90.38867,38.81245,167],[-90.38866,38.81242,166],[-90.38865,38.81239,166],[-90.38866,38.81235,165],[-90.38868,38.81233,165],[-90.38869,38.81229,164],[-90.38872,38.81227,163],[-90.38876,38.81226,163],[-90.38879,38.81225,163],[-90.38881,38.81222,162],[-90.38883,38.8122,162],[-90.38886,38.81217,161],[-90.38886,38.81214,160],[-90.38884,38.81211,160],[-90.38881,38.81209,160],[-90.38879,38.81207,160],[-90.38877,38.81205,160],[-90.38875,38.81202,160],[-90.38872,38.81199,160],[-90.3887,38.81197,160],[-90.38868,38.81194,160],[-90.38868,38.8119,161],[-90.38868,38.81187,161],[-90.38868,38.81184,161],[-90.38868,38.81181,162],[-90.38869,38.81178,162],[-90.3887,38.81175,162],[-90.38871,38.81171,162],[-90.38874,38.81169,162],[-90.38877,38.81168,161],[-90.3888,38.81166,161],[-90.38882,38.81163,161],[-90.38884,38.81161,160],[-90.38887,38.8116,159],[-90.38891,38.8116,158],[-90.38895,38.8116,157],[-90.38898,38.81158,157],[-90.38901,38.81157,156],[-90.38905,38.81155,154],[-90.38909,38.81154,153],[-90.38912,38.81152,153],[-90.38917,38.81151,152],[-90.3892,38.8115,152],[-90.38923,38.81148,152],[-90.38928,38.81149,152],[-90.38932,38.81149,152],[-90.38937,38.81148,152],[-90.38939,38.81145,152],[-90.38942,38.81142,152],[-90.38945,38.81139,151],[-90.38947,38.81136,151],[-90.38949,38.81134,151],[-90.38951,38.81131,151],[-90.38953,38.81128,151],[-90.38957,38.81127,151],[-90.38961,38.81126,151],[-90.38965,38.81126,150],[-90.38969,38.81126,150],[-90.38973,38.81126,150],[-90.38978,38.81126,149],[-90.38982,38.81125,148],[-90.38985,38.81123,148],[-90.3899,38.81122,147],[-90.38994,38.8112,147],[-90.38997,38.81119,146],[-90.39001,38.81117,146],[-90.39006,38.81117,145],[-90.39011,38.81117,145],[-90.39016,38.81117,144],[-90.39021,38.81117,143],[-90.39025,38.81117,143],[-90.39029,38.81116,142],[-90.39033,38.81117,142],[-90.39038,38.81118,142],[-90.39042,38.81119,142],[-90.39045,38.81121,142],[-90.39048,38.81122,142],[-90.39052,38.81124,142],[-90.39056,38.81125,142],[-90.3906,38.81125,142],[-90.39064,38.81124,142],[-90.39068,38.81122,142],[-90.39071,38.8112,141],[-90.39075,38.81119,141],[-90.39078,38.81117,141],[-90.3908,38.81114,141],[-90.39081,38.81111,141],[-90.39081,38.81107,140],[-90.39081,38.81105,140],[-90.39081,38.81102,140],[-90.39081,38.81098,139],[-90.3908,38.81095,139],[-90.39078,38.81092,139],[-90.39077,38.81088,138],[-90.39076,38.81085,138],[-90.39077,38.81081,138],[-90.39077,38.81077,138],[-90.39077,38.81074,138],[-90.39077,38.81071,139],[-90.39079,38.81068,139],[-90.39078,38.81066,139]]],
        "bbox": [
          -90.38473,
          38.81983,
          -90.3947,
          38.81066
        ]
      },
      "properties": {
        "name": "11.28.2020B"
      }
    }
  ]
}