{
  "type": "FeatureCollection",
  "features": [
    {
      "type": "Feature",
      "geometry": {
        "type": "MultiLineString",
        "coordinates": [[[-90.39511,38.81154,132],[-90.39514,38.81156,132],[-90.39513,38.81161,132],[-90.39512,38.81164,132],[-90.39508,38.81169,133],[-90.39503,38.81171,133],[-90.39499,38.81172,133],[-90.39494,38.81173,133],[-90.3949,38.81176,134],[-90.39488,38.81179,134],[-90.39487,38.81181,134],[-90.39486,38.81184,135],[-90.39485,38.81187,135],[-90.39483,38.81189,135],[-90.39482,38.81193,136],[-90.3948,38.81196,136],[-90.39476,38.81199,136],[-90.39473,38.81201,136],[-90.3947,38.81204,136],[-90.39467,38.81206,136],[-90.39464,38.81208,136],[-90.39461,38.8121,137],[-90.39458,38.81212,137],[-90.39454,38.81215,137],[-90.39452,38.81217,137],[-90.3945,38.81219,137],[-90.39446,38.81222,137],[-90.39444,38.81224,137],[-90.39441,38.81227,137],[-90.39438,38.8123,137],[-90.39434,38.81232,137],[-90.39431,38.81235,137],[-90.39429,38.81237,137],[-90.39427,38.8124,136],[-90.39424,38.81242,136],[-90.39422,38.81245,136],[-90.3942,38.81247,136],[-90.39417,38.8125,136],[-90.39416,38.81254,136],[-90.39415,38.81262,134],[-90.3941,38.81264,134],[-90.39407,38.81266,134],[-90.39402,38.81267,134],[-90.39398,38.81267,134],[-90.39393,38.81267,134],[-90.39388,38.81267,135],[-90.39384,38.81267,135],[-90.39381,38.81268,134],[-90.39377,38.81268,134],[-90.39373,38.8127,134],[-90.39369,38.81272,134],[-90.39366,38.81274,134],[-90.39363,38.81275,134],[-90.39359,38.81278,134],[-90.39356,38.81279,134],[-90.39352,38.81281,134],[-90.39348,38.81283,134],[-90.39345,38.81285,134],[-90.39341,38.81287,134],[-90.39338,38.8129,133],[-90.39335,38.81293,133],[-90.39331,38.81295,133],[-90.39328,38.81296,133],[-90.39324,38.81298,133],[-90.3932,38.813,133],[-90.39317,38.81302,133],[-90.39313,38.81304,133],[-90.39309,38.81306,132],[-90.39306,38.81309,132],[-90.39302,38.81313,133],[-90.39301,38.81316,133],[-90.39298,38.81318,133],[-90.39296,38.81321,133],[-90.39293,38.81324,133],[-90.3929,38.81326,133],[-90.39287,38.81329,134],[-90.39285,38.81332,134],[-90.39283,38.81335,134],[-90.39281,38.81337,135],[-90.39278,38.8134,135],[-90.39274,38.81342,136],[-90.3927,38.81344,136],[-90.39266,38.81346,137],[-90.39263,38.81348,137],[-90.3926,38.8135,137],[-90.39257,38.81353,138],[-90.39255,38.81355,138],[-90.39253,38.81358,138],[-90.39251,38.81361,138],[-90.39249,38.81365,138],[-90.39248,38.81367,138],[-90.39246,38.81371,138],[-90.39243,38.81375,137],[-90.3924,38.81377,137],[-90.39239,38.8138,136],[-90.39237,38.81383,136],[-90.39241,38.81384,136],[-90.3924,38.81387,136],[-90.3924,38.8139,136],[-90.39241,38.81393,138],[-90.39238,38.81395,139],[-90.39235,38.81398,140],[-90.39232,38.81401,141],[-90.39229,38.81404,143],[-90.39226,38.81405,143],[-90.39225,38.81408,145],[-90.39227,38.81411,147],[-90.3923,38.81415,149],[-90.39231,38.81417,150],[-90.39233,38.8142,151],[-90.39235,38.81422,151],[-90.39238,38.81425,151],[-90.39241,38.81428,152],[-90.39245,38.81431,153],[-90.39248,38.81435,153],[-90.39252,38.8144,154],[-90.39254,38.81444,155],[-90.39256,38.8145,155],[-90.39259,38.81454,154],[-90.39264,38.81458,154],[-90.3927,38.8146,153],[-90.39275,38.81462,152],[-90.39278,38.81464,152],[-90.3928,38.81467,151],[-90.39282,38.81469,151],[-90.39284,38.81472,150],[-90.39285,38.81475,150],[-90.39285,38.81478,150],[-90.39285,38.81481,150],[-90.39286,38.81484,149],[-90.3929,38.81486,149],[-90.39293,38.81489,148],[-90.39296,38.81491,148],[-90.39298,38.81494,148],[-90.39302,38.81494,147],[-90.39307,38.81496,147],[-90.39309,38.81498,147],[-90.39312,38.81501,146],[-90.39316,38.81502,145],[-90.39315,38.81504,145],[-90.39316,38.81508,145],[-90.39318,38.81511,144],[-90.3932,38.81513,143],[-90.39322,38.81516,142],[-90.39321,38.81519,142],[-90.39319,38.81522,143],[-90.39317,38.81524,143],[-90.39314,38.81527,143],[-90.3931,38.8153,144],[-90.39306,38.81532,144],[-90.393,38.81535,145],[-90.39295,38.81536,146],[-90.39291,38.81537,146],[-90.39286,38.81538,147],[-90.39281,38.81539,148],[-90.39276,38.8154,149],[-90.39272,38.81541,150],[-90.39268,38.81543,151],[-90.39265,38.81545,152],[-90.39262,38.81547,152],[-90.3926,38.81549,152],[-90.39257,38.81553,153],[-90.39256,38.81556,153],[-90.39256,38.8156,152],[-90.39256,38.81563,151],[-90.39257,38.81567,150],[-90.39257,38.81571,149],[-90.39257,38.81574,148],[-90.39257,38.81577,148],[-90.39256,38.81581,147],[-90.39256,38.81584,146],[-90.39256,38.81587,146],[-90.39255,38.8159,147],[-90.39254,38.81593,147],[-90.39253,38.81595,147],[-90.39252,38.81599,148],[-90.3925,38.81601,148],[-90.39246,38.81603,150],[-90.39242,38.81605,151],[-90.39239,38.81606,152],[-90.3924,38.81609,152],[-90.39242,38.81613,151],[-90.39242,38.81616,150],[-90.39246,38.81616,149],[-90.39249,38.81618,147],[-90.39247,38.81621,147],[-90.39244,38.81623,148],[-90.39242,38.81625,148],[-90.39241,38.81628,147],[-90.3924,38.81624,148],[-90.39237,38.81626,149],[-90.39238,38.81629,148],[-90.39235,38.8163,148],[-90.39233,38.81634,148],[-90.39231,38.81636,147],[-90.39227,38.8164,147],[-90.39224,38.81645,147],[-90.39224,38.81648,147],[-90.39223,38.81652,147],[-90.39221,38.81654,147],[-90.39216,38.81654,148],[-90.39212,38.81656,149],[-90.39208,38.8166,149],[-90.39203,38.81661,150],[-90.39199,38.81663,150],[-90.39197,38.81667,150],[-90.39195,38.81671,150],[-90.39191,38.81674,150],[-90.39187,38.81678,150],[-90.39184,38.81681,150],[-90.39179,38.81684,150],[-90.39175,38.81686,150],[-90.3917,38.81688,149],[-90.39167,38.8169,149],[-90.39163,38.81692,149],[-90.39159,38.81694,149],[-90.39154,38.81695,149],[-90.39151,38.81697,149],[-90.39148,38.81699,149],[-90.39151,38.81702,147],[-90.39149,38.81704,147],[-90.39145,38.81705,147],[-90.39142,38.81707,147],[-90.3914,38.8171,146],[-90.39138,38.81713,145],[-90.39135,38.81715,144],[-90.39133,38.81717,144],[-90.3913,38.8172,143],[-90.39127,38.81723,142],[-90.39124,38.81725,142],[-90.39122,38.81728,142],[-90.39119,38.8173,142],[-90.39115,38.81731,143],[-90.39111,38.81732,143],[-90.39106,38.81734,143],[-90.39101,38.81735,144],[-90.39097,38.81736,144],[-90.39094,38.81738,144],[-90.3909,38.81739,144],[-90.39086,38.81742,144],[-90.39084,38.81745,143],[-90.39081,38.81748,143],[-90.39079,38.8175,142],[-90.39076,38.81752,142],[-90.39072,38.81754,142],[-90.39069,38.81756,142],[-90.39066,38.81758,142],[-90.39063,38.8176,142],[-90.3906,38.81763,142],[-90.39057,38.81766,142],[-90.39055,38.81768,142],[-90.39051,38.8177,142],[-90.39047,38.81771,142],[-90.39043,38.81772,142],[-90.39039,38.81773,142],[-90.39035,38.81775,142],[-90.39032,38.81777,142],[-90.39029,38.81778,142],[-90.39026,38.8178,143],[-90.39022,38.81782,143],[-90.39019,38.81783,143],[-90.39015,38.81784,144],[-90.39012,38.81784,144],[-90.39008,38.81782,145],[-90.39004,38.8178,146],[-90.39,38.8178,147],[-90.38996,38.8178,148],[-90.38993,38.8178,148],[-90.38989,38.8178,148],[-90.38984,38.81781,149],[-90.38981,38.81781,149],[-90.38977,38.81782,149],[-90.38972,38.81783,150],[-90.38969,38.81784,150],[-90.38965,38.81786,150],[-90.38961,38.81788,150],[-90.38955,38.81789,150],[-90.38951,38.8179,150],[-90.38947,38.81791,150],[-90.38943,38.81791,150],[-90.38939,38.81791,151],[-90.38936,38.81792,151],[-90.38932,38.81793,151],[-90.38928,38.81795,151],[-90.38924,38.81796,152],[-90.3892,38.81796,152],[-90.38915,38.81796,153],[-90.38911,38.81797,154],[-90.38907,38.81799,154],[-90.38903,38.81801,154],[-90.38899,38.81801,155],[-90.38895,38.81801,156],[-90.38893,38.81804,156],[-90.38892,38.81807,155],[-90.38889,38.8181,155],[-90.38887,38.81812,154],[-90.38884,38.81814,154],[-90.3888,38.81816,154],[-90.38876,38.81817,154],[-90.38872,38.81818,155],[-90.38868,38.8182,155],[-90.38864,38.81822,154],[-90.38861,38.81824,154],[-90.38857,38.81826,153],[-90.38855,38.81828,152],[-90.38852,38.8183,151],[-90.38849,38.81831,151],[-90.38846,38.81832,150],[-90.38843,38.81835,149],[-90.38841,38.81839,147],[-90.38839,38.81842,146],[-90.38837,38.81845,144],[-90.38836,38.81848,143],[-90.38835,38.81851,142],[-90.38833,38.81854,141],[-90.3883,38.81856,140],[-90.38828,38.81859,139],[-90.38824,38.81861,139],[-90.38821,38.81863,139],[-90.38817,38.81864,140],[-90.38814,38.81864,140],[-90.38817,38.81862,140],[-90.38818,38.81865,139],[-90.38816,38.81867,140],[-90.38812,38.81868,140],[-90.38809,38.81869,140],[-90.38805,38.81871,141],[-90.38801,38.81871,141],[-90.38797,38.81872,141],[-90.38794,38.81874,142],[-90.3879,38.81877,142],[-90.38787,38.81879,142],[-90.38785,38.81881,142],[-90.38781,38.81883,142],[-90.38777,38.81885,142],[-90.38773,38.81887,142],[-90.38769,38.81888,142],[-90.38765,38.81889,141],[-90.38761,38.81892,141],[-90.38759,38.81895,140],[-90.38755,38.81898,139],[-90.38753,38.819,138],[-90.38751,38.81902,137],[-90.3875,38.81905,136],[-90.38747,38.81908,135],[-90.38742,38.8191,135],[-90.38736,38.81911,134],[-90.38733,38.81912,134],[-90.38729,38.81912,134],[-90.38733,38.81913,133],[-90.38731,38.81915,133],[-90.38728,38.81917,132],[-90.38724,38.81918,132],[-90.38721,38.8192,132],[-90.38717,38.81921,132],[-90.38712,38.81923,132],[-90.38706,38.81924,132],[-90.38702,38.81925,132],[-90.38698,38.81926,132],[-90.38694,38.81928,132],[-90.38691,38.8193,132],[-90.38687,38.81932,132],[-90.38684,38.81934,132],[-90.3868,38.81937,132],[-90.38677,38.8194,132],[-90.38673,38.81942,132],[-90.38669,38.81942,132],[-90.38665,38.81942,132],[-90.38664,38.81945,131],[-90.38662,38.81947,131],[-90.38659,38.81949,131],[-90.38656,38.81951,131],[-90.38653,38.81953,131],[-90.38649,38.81954,131],[-90.38645,38.81955,131],[-90.38641,38.81956,131],[-90.38637,38.81957,131],[-90.38633,38.81957,131],[-90.38629,38.81958,132],[-90.38625,38.81959,132],[-90.38621,38.81959,133],[-90.38616,38.8196,133],[-90.38612,38.81961,134],[-90.38608,38.81962,134],[-90.38604,38.81962,134],[-90.38601,38.81963,134],[-90.38597,38.81965,133],[-90.38594,38.81965,133],[-90.38589,38.81966,133],[-90.38587,38.81968,132],[-90.38583,38.81969,132],[-90.3858,38.81967,133],[-90.38577,38.81966,133],[-90.38573,38.81965,133],[-90.38569,38.81964,134],[-90.38566,38.81965,133],[-90.38563,38.81963,134],[-90.38563,38.81966,133],[-90.38566,38.81969,132],[-90.38566,38.81966,133],[-90.38562,38.81964,134],[-90.38558,38.81963,134],[-90.38555,38.8196,135],[-90.38552,38.81957,137],[-90.38549,38.81956,137],[-90.38545,38.81954,138],[-90.38541,38.81953,138],[-90.38538,38.81953,138],[-90.38534,38.81952,139],[-90.3853,38.8195,139],[-90.38527,38.81949,140],[-90.38525,38.81945,141],[-90.38524,38.81943,141],[-90.38524,38.8194,142],[-90.38523,38.81937,142],[-90.38522,38.81933,142],[-90.38522,38.81929,142],[-90.38523,38.81925,143],[-90.38524,38.81923,143],[-90.38525,38.81919,143],[-90.38526,38.81916,144],[-90.38527,38.81914,144],[-90.38531,38.81913,144],[-90.38536,38.81913,144],[-90.38534,38.81915,144],[-90.38532,38.81918,144],[-90.3853,38.81921,143],[-90.38528,38.81924,143],[-90.38527,38.81927,143],[-90.38527,38.8193,142],[-90.38528,38.81933,142],[-90.38528,38.81936,142],[-90.38525,38.81939,142],[-90.38521,38.81939,142],[-90.38517,38.8194,141],[-90.38513,38.81941,141],[-90.38509,38.81942,141],[-90.38505,38.81942,141],[-90.38501,38.81942,141],[-90.38497,38.81941,141],[-90.38492,38.81941,141],[-90.38489,38.81941,141],[-90.38485,38.81941,141],[-90.38481,38.8194,142],[-90.38476,38.8194,142],[-90.38472,38.81939,142],[-90.38469,38.81938,142],[-90.38464,38.81937,143],[-90.38461,38.81937,143],[-90.38457,38.81937,143],[-90.38454,38.81937,143],[-90.38449,38.81936,144],[-90.38445,38.81936,144],[-90.38441,38.81935,144],[-90.38438,38.81935,144],[-90.38433,38.81934,145],[-90.38429,38.81933,145],[-90.38426,38.81932,146],[-90.38423,38.8193,146],[-90.38428,38.8193,146],[-90.38432,38.81931,146],[-90.38436,38.81931,145],[-90.3844,38.81932,145],[-90.38444,38.81934,144],[-90.38448,38.81936,144],[-90.38452,38.81937,143],[-90.38456,38.81939,143],[-90.3846,38.8194,142],[-90.38465,38.81941,142],[-90.3847,38.81943,142],[-90.38474,38.81944,141],[-90.38478,38.81945,141],[-90.38481,38.81946,141],[-90.38486,38.81947,141],[-90.38491,38.81947,140],[-90.38495,38.81948,140],[-90.38499,38.81948,139],[-90.38503,38.81948,139],[-90.38507,38.81948,139],[-90.38511,38.81949,139],[-90.38516,38.81949,139],[-90.3852,38.8195,139],[-90.38523,38.81951,139],[-90.38527,38.81952,139],[-90.38531,38.81952,139],[-90.38537,38.81952,139],[-90.38541,38.81953,138],[-90.38545,38.81954,138],[-90.38549,38.81955,137],[-90.38553,38.81957,137],[-90.38556,38.81959,136],[-90.38558,38.81962,135],[-90.38561,38.81964,134],[-90.38565,38.81964,134],[-90.38568,38.81962,135],[-90.38572,38.8196,135],[-90.38575,38.81957,137],[-90.38578,38.81955,137],[-90.38581,38.81954,138],[-90.38584,38.81952,138],[-90.38585,38.81948,140],[-90.38585,38.81945,141],[-90.38584,38.81942,142],[-90.38581,38.81939,142],[-90.38578,38.81937,143],[-90.38575,38.81935,143],[-90.38573,38.81932,143],[-90.38571,38.8193,144],[-90.3857,38.81927,144],[-90.38569,38.81924,144],[-90.38568,38.8192,145],[-90.38569,38.81916,146],[-90.3857,38.81913,146],[-90.38572,38.81911,146],[-90.38573,38.81907,146],[-90.38574,38.81905,146],[-90.38574,38.81901,147],[-90.38575,38.81898,147],[-90.38576,38.81895,147],[-90.38579,38.81894,147],[-90.38583,38.81893,147],[-90.38586,38.81891,147],[-90.38588,38.81888,148],[-90.38591,38.81887,148],[-90.38595,38.81886,148],[-90.38599,38.81885,147],[-90.38603,38.81883,148],[-90.38607,38.81881,148],[-90.3861,38.81879,148],[-90.38613,38.81877,148],[-90.38615,38.81874,148],[-90.38611,38.81874,148],[-90.38608,38.81875,148],[-90.38603,38.81886,147],[-90.38603,38.81889,147],[-90.38607,38.8189,147],[-90.38611,38.81887,147],[-90.38613,38.81884,147],[-90.38617,38.81881,147],[-90.38616,38.81877,148],[-90.38611,38.81875,148],[-90.38606,38.81875,148],[-90.386,38.81875,149],[-90.38594,38.81877,149],[-90.38591,38.81879,149],[-90.38588,38.81881,149],[-90.38583,38.81883,149],[-90.38578,38.81884,149],[-90.38575,38.81886,148],[-90.38572,38.81889,147],[-90.3857,38.81893,147],[-90.38568,38.81897,147],[-90.38567,38.81901,147],[-90.38567,38.81904,146],[-90.38565,38.81907,146],[-90.38564,38.81912,146],[-90.38564,38.81916,146],[-90.38565,38.8192,145],[-90.38567,38.81923,145],[-90.3857,38.81926,144],[-90.38573,38.81928,144],[-90.38577,38.8193,144],[-90.38581,38.81932,143],[-90.38584,38.81935,143],[-90.38585,38.81938,142],[-90.38587,38.81942,141],[-90.38587,38.81946,140],[-90.38584,38.81949,140],[-90.3858,38.81951,139],[-90.38577,38.81954,138],[-90.38575,38.81957,137],[-90.38574,38.8196,135],[-90.38575,38.81964,134],[-90.38576,38.81968,132],[-90.38581,38.81969,132],[-90.38584,38.81967,132],[-90.38587,38.81965,133],[-90.38592,38.81964,133],[-90.38596,38.81964,133],[-90.386,38.81964,133],[-90.38604,38.81963,133],[-90.38608,38.81962,134],[-90.38612,38.81962,133],[-90.38617,38.81962,133],[-90.38622,38.81962,132],[-90.38626,38.81961,132],[-90.38629,38.8196,132],[-90.38633,38.81959,131],[-90.38637,38.81958,131],[-90.38641,38.81957,131],[-90.38643,38.81955,131],[-90.38643,38.81952,131],[-90.38644,38.8195,131],[-90.38649,38.8195,131],[-90.38652,38.8195,131],[-90.38656,38.81948,131],[-90.3866,38.81947,131],[-90.38664,38.81946,131],[-90.38668,38.81945,131],[-90.38671,38.81943,132],[-90.38673,38.8194,132],[-90.38676,38.81937,132],[-90.38679,38.81936,133],[-90.38682,38.81934,133],[-90.38686,38.81933,132],[-90.38691,38.81931,132],[-90.38694,38.8193,132],[-90.38698,38.81929,132],[-90.38703,38.81928,132],[-90.38707,38.81927,132],[-90.3871,38.81925,132],[-90.38714,38.81924,132],[-90.38718,38.81921,132],[-90.38722,38.81919,132],[-90.38727,38.81917,132],[-90.38731,38.81916,132],[-90.38735,38.81915,133],[-90.38737,38.81912,134],[-90.38741,38.81909,135],[-90.38744,38.81908,135],[-90.38746,38.81905,136],[-90.38747,38.81901,138],[-90.3875,38.81899,138],[-90.38754,38.81897,139],[-90.38758,38.81894,140],[-90.38761,38.81892,141],[-90.38765,38.8189,141],[-90.38769,38.81889,141],[-90.38773,38.81888,142],[-90.38777,38.81886,142],[-90.3878,38.81884,142],[-90.38784,38.81882,142],[-90.38787,38.8188,142],[-90.38791,38.81877,142],[-90.38796,38.81875,141],[-90.38801,38.81872,141],[-90.38805,38.81871,141],[-90.38811,38.81869,140],[-90.38816,38.81867,140],[-90.3882,38.81865,139],[-90.38824,38.81864,139],[-90.38826,38.81861,139],[-90.3883,38.81858,139],[-90.38834,38.81855,140],[-90.38836,38.81851,142],[-90.38837,38.81848,143],[-90.3884,38.81845,144],[-90.38844,38.81844,145],[-90.38849,38.81842,146],[-90.38854,38.81841,146],[-90.38858,38.81838,148],[-90.38861,38.81835,149],[-90.38865,38.81833,149],[-90.38868,38.81833,149],[-90.38872,38.81832,148],[-90.38876,38.8183,149],[-90.3888,38.81828,149],[-90.38883,38.81826,149],[-90.38885,38.81823,150],[-90.38887,38.8182,151],[-90.38889,38.81817,152],[-90.3889,38.81814,153],[-90.38895,38.81814,152],[-90.389,38.81815,150],[-90.38904,38.81813,150],[-90.38908,38.81812,149],[-90.38913,38.81811,148],[-90.38919,38.8181,147],[-90.38923,38.81811,147],[-90.38927,38.81811,146],[-90.38932,38.8181,146],[-90.38936,38.81811,145],[-90.38941,38.81811,145],[-90.38946,38.81811,144],[-90.38951,38.81809,145],[-90.38957,38.81807,146],[-90.3896,38.81804,147],[-90.38963,38.81802,147],[-90.38968,38.81801,147],[-90.38972,38.818,147],[-90.38976,38.81799,147],[-90.38979,38.81797,147],[-90.38983,38.81794,147],[-90.38988,38.81793,146],[-90.38992,38.81792,146],[-90.38997,38.81792,145],[-90.39,38.81791,145],[-90.39003,38.81789,145],[-90.39006,38.81785,145],[-90.39008,38.81783,145],[-90.39012,38.81781,145],[-90.39016,38.81778,145],[-90.39019,38.81776,144],[-90.39021,38.81773,145],[-90.39024,38.8177,145],[-90.39027,38.81769,145],[-90.3903,38.81767,145],[-90.39034,38.81765,145],[-90.39036,38.81763,145],[-90.3904,38.81761,145],[-90.39043,38.81759,145],[-90.39047,38.81757,145],[-90.3905,38.81756,145],[-90.39052,38.81754,145],[-90.39054,38.81751,145],[-90.39055,38.81748,146],[-90.39059,38.81747,146],[-90.39063,38.81747,145],[-90.39067,38.81747,145],[-90.39071,38.81747,144],[-90.39069,38.81744,146],[-90.39065,38.81745,146],[-90.39062,38.81746,146],[-90.39059,38.81747,146],[-90.39055,38.81748,146],[-90.3905,38.81747,147],[-90.39046,38.81746,148],[-90.39042,38.81745,149],[-90.39039,38.81743,150],[-90.39044,38.81743,149],[-90.39047,38.81744,148],[-90.39051,38.81745,148],[-90.39055,38.81747,147],[-90.39058,38.81746,147],[-90.39058,38.81743,148],[-90.39055,38.8174,149],[-90.39056,38.8173,153],[-90.39052,38.81732,152],[-90.39051,38.81729,153],[-90.39051,38.81724,155],[-90.39052,38.81721,156],[-90.39053,38.81718,157],[-90.39055,38.81716,157],[-90.39055,38.81713,158],[-90.39051,38.81713,159],[-90.39049,38.81711,160],[-90.3905,38.81708,160],[-90.39053,38.81706,161],[-90.39057,38.81705,161],[-90.39056,38.81702,162],[-90.39056,38.81699,163],[-90.39057,38.81695,164],[-90.39059,38.81692,164],[-90.39059,38.81689,165],[-90.39058,38.81686,165],[-90.3906,38.81684,165],[-90.39065,38.81682,165],[-90.39068,38.8168,165],[-90.39071,38.81679,165],[-90.39075,38.81677,165],[-90.39078,38.81675,165],[-90.3908,38.81672,166],[-90.3908,38.81675,165],[-90.39079,38.81678,165],[-90.39077,38.8168,165],[-90.39079,38.81677,165],[-90.39082,38.81675,165],[-90.39083,38.81672,166],[-90.39086,38.81674,165],[-90.39085,38.81677,165],[-90.39092,38.81673,165],[-90.39095,38.8167,165],[-90.39097,38.81666,166],[-90.39099,38.81668,166],[-90.39102,38.81671,165],[-90.39102,38.81676,163],[-90.39103,38.8168,162],[-90.39105,38.81684,161],[-90.3911,38.81685,160],[-90.39116,38.81686,159],[-90.39121,38.81686,158],[-90.39125,38.81683,159],[-90.39127,38.8168,159],[-90.39128,38.81677,160],[-90.3913,38.81673,161],[-90.39133,38.81671,161],[-90.39135,38.81667,162],[-90.39136,38.81664,163],[-90.39139,38.81663,163],[-90.39142,38.81661,163],[-90.39144,38.81659,163],[-90.39146,38.81656,163],[-90.39147,38.81654,164],[-90.3915,38.81656,162],[-90.3915,38.81653,163],[-90.39153,38.8165,163],[-90.39155,38.81647,164],[-90.39156,38.81644,165],[-90.39158,38.81641,165],[-90.3916,38.81639,165],[-90.39162,38.81636,166],[-90.39165,38.81634,166],[-90.39166,38.81631,166],[-90.39168,38.81628,167],[-90.3917,38.81626,167],[-90.39172,38.81623,168],[-90.39173,38.81619,169],[-90.39174,38.81615,170],[-90.39175,38.81612,171],[-90.39176,38.81609,171],[-90.39177,38.81606,172],[-90.39177,38.81602,172],[-90.39178,38.81598,173],[-90.39178,38.81594,174],[-90.39178,38.8159,175],[-90.39178,38.81587,176],[-90.39178,38.81584,176],[-90.39179,38.8158,176],[-90.39178,38.81577,177],[-90.39178,38.81574,178],[-90.39179,38.81571,178],[-90.39183,38.81569,177],[-90.39186,38.8157,176],[-90.39188,38.81572,176],[-90.39183,38.81571,177],[-90.3918,38.81572,177],[-90.39176,38.81572,178],[-90.39171,38.81571,180],[-90.39168,38.81569,181],[-90.39164,38.81567,181],[-90.39162,38.81563,182],[-90.39159,38.8156,183],[-90.39156,38.81556,183],[-90.39154,38.81553,183],[-90.3915,38.8155,184],[-90.39147,38.81547,184],[-90.39142,38.81545,185],[-90.39137,38.81543,185],[-90.39133,38.81543,185],[-90.39129,38.81542,185],[-90.39125,38.81541,186],[-90.3912,38.8154,186],[-90.39116,38.8154,186],[-90.39112,38.8154,186],[-90.39108,38.8154,186],[-90.39103,38.8154,186],[-90.39098,38.81541,186],[-90.39094,38.81541,186],[-90.3909,38.81541,186],[-90.39086,38.81541,186],[-90.39082,38.81541,185],[-90.39078,38.81541,185],[-90.39073,38.81541,184],[-90.39069,38.81541,184],[-90.39065,38.81541,184],[-90.39061,38.81541,183],[-90.39057,38.8154,183],[-90.39053,38.8154,182],[-90.39048,38.81538,182],[-90.39045,38.81537,182],[-90.39041,38.81536,182],[-90.39038,38.81534,182],[-90.39034,38.81533,181],[-90.39031,38.81534,181],[-90.39027,38.81535,180],[-90.39023,38.81535,180],[-90.39016,38.81536,180],[-90.39013,38.81535,180],[-90.39014,38.81531,181],[-90.3901,38.8153,181],[-90.39007,38.81528,181],[-90.39004,38.81527,182],[-90.39,38.81524,182],[-90.38996,38.81522,183],[-90.38994,38.8152,184],[-90.3899,38.81518,184],[-90.38987,38.81516,185],[-90.38984,38.81514,185],[-90.38981,38.81511,186],[-90.38978,38.81508,187],[-90.38975,38.81505,187],[-90.38973,38.81503,188],[-90.38971,38.81501,188],[-90.38969,38.81498,189],[-90.38968,38.81496,189],[-90.38966,38.81492,189],[-90.38964,38.8149,189],[-90.38962,38.81487,190],[-90.38961,38.81484,190],[-90.38959,38.81481,190],[-90.38958,38.81478,190],[-90.38958,38.81475,191],[-90.38957,38.81472,191],[-90.38956,38.81469,191],[-90.38954,38.81472,191],[-90.38951,38.81476,190],[-90.3895,38.81473,191],[-90.38951,38.8147,191],[-90.38952,38.81467,190],[-90.38953,38.81464,190],[-90.38951,38.81462,190],[-90.38949,38.81459,190],[-90.38945,38.81458,190],[-90.38939,38.81458,190],[-90.38943,38.81458,190],[-90.38946,38.8146,190],[-90.38949,38.81458,190],[-90.38949,38.81455,190],[-90.38951,38.81452,190],[-90.38952,38.81449,189],[-90.38952,38.81446,189],[-90.38952,38.81442,189],[-90.38951,38.81439,189],[-90.3895,38.81436,188],[-90.38948,38.81433,188],[-90.38946,38.81431,188],[-90.38941,38.81431,189],[-90.38937,38.8143,189],[-90.38934,38.81429,190],[-90.3893,38.81426,190],[-90.38927,38.81424,191],[-90.38924,38.81423,191],[-90.3892,38.81422,192],[-90.38916,38.8142,192],[-90.38912,38.81419,192],[-90.38908,38.81417,192],[-90.38903,38.81416,192],[-90.38899,38.81415,192],[-90.38894,38.81413,192],[-90.38889,38.81412,192],[-90.38885,38.8141,193],[-90.38882,38.81408,193],[-90.38878,38.81407,193],[-90.38873,38.81406,194],[-90.38868,38.81405,195],[-90.38865,38.81404,195],[-90.38859,38.81402,196],[-90.38856,38.81401,196],[-90.38852,38.814,196],[-90.38849,38.81399,196],[-90.38846,38.81397,197],[-90.38843,38.81395,197],[-90.38839,38.81393,197],[-90.38836,38.81392,197],[-90.38832,38.8139,198],[-90.38828,38.8139,198],[-90.38823,38.8139,198],[-90.38819,38.8139,198],[-90.38814,38.8139,198],[-90.3881,38.81391,198],[-90.38805,38.81391,199],[-90.388,38.81391,199],[-90.38795,38.81391,199],[-90.38791,38.81391,199],[-90.38786,38.81391,199],[-90.38781,38.81392,199],[-90.38777,38.81392,200],[-90.38773,38.81392,200],[-90.38769,38.81392,200],[-90.38765,38.81391,200],[-90.38762,38.81389,199],[-90.3876,38.81387,199],[-90.38757,38.81385,199],[-90.38756,38.81382,199],[-90.38757,38.81378,198],[-90.38756,38.81375,198],[-90.38756,38.81372,197],[-90.38757,38.81369,197],[-90.38758,38.81366,197],[-90.3876,38.81363,196],[-90.3876,38.81359,196],[-90.38761,38.81356,196],[-90.38761,38.81353,196],[-90.38761,38.8135,195],[-90.38762,38.81348,195],[-90.38762,38.81344,195],[-90.38763,38.81341,195],[-90.38763,38.81338,195],[-90.38764,38.81334,195],[-90.38765,38.81331,194],[-90.38768,38.8133,195],[-90.38772,38.81331,195],[-90.38776,38.81332,195],[-90.3878,38.81332,195],[-90.38783,38.81331,195],[-90.38787,38.81329,195],[-90.3879,38.81326,194],[-90.38792,38.81324,194],[-90.38794,38.81322,194],[-90.38796,38.81319,193],[-90.38799,38.81318,193],[-90.38797,38.81315,193],[-90.38796,38.81312,192],[-90.38798,38.81309,192],[-90.38801,38.81307,191],[-90.38802,38.81304,191],[-90.38805,38.81302,190],[-90.38807,38.81299,189],[-90.38808,38.81295,189],[-90.38809,38.81292,188],[-90.3881,38.81289,188],[-90.38811,38.81285,187],[-90.38811,38.81282,187],[-90.38813,38.81279,186],[-90.38816,38.81278,184],[-90.38819,38.81276,183],[-90.3882,38.81273,182],[-90.38817,38.8127,182],[-90.38815,38.81268,182],[-90.38812,38.81266,183],[-90.38815,38.81269,183],[-90.38819,38.81271,182],[-90.38823,38.81272,181],[-90.38827,38.81272,180],[-90.38832,38.81272,179],[-90.38836,38.81272,178],[-90.3884,38.81271,176],[-90.38843,38.8127,175],[-90.38847,38.81268,173],[-90.38851,38.81266,172],[-90.38852,38.81263,172],[-90.38854,38.8126,171],[-90.38856,38.81258,170],[-90.38859,38.81255,169],[-90.38862,38.81252,168],[-90.38863,38.81249,168],[-90.38863,38.81246,167],[-90.38862,38.81243,167],[-90.38863,38.81239,166],[-90.38865,38.81236,165],[-90.38868,38.81234,165],[-90.38872,38.81234,164],[-90.38875,38.81232,164],[-90.38877,38.81228,163],[-90.38879,38.81224,162],[-90.38879,38.81221,162],[-90.38879,38.81218,162],[-90.38879,38.81215,161],[-90.38879,38.81212,161],[-90.38877,38.81209,161],[-90.38875,38.81207,161],[-90.38874,38.81204,160],[-90.38872,38.812,160],[-90.38869,38.81197,160],[-90.38867,38.81195,160],[-90.38865,38.81191,161],[-90.38865,38.81188,162],[-90.38866,38.81185,162],[-90.38867,38.81181,162],[-90.38869,38.81179,162],[-90.3887,38.81176,162],[-90.38872,38.81173,162],[-90.38875,38.8117,162],[-90.38878,38.81167,161],[-90.3888,38.81165,161],[-90.38882,38.81162,161],[-90.38884,38.8116,160],[-90.38888,38.81159,159],[-90.38892,38.81158,158],[-90.38896,38.81156,157],[-90.38901,38.81156,156],[-90.38905,38.81155,154],[-90.38908,38.81153,154],[-90.38911,38.8115,153],[-90.38914,38.81148,152],[-90.38917,38.81146,152],[-90.3892,38.81144,152],[-90.38925,38.81144,152],[-90.38929,38.81144,152],[-90.38932,38.81141,152],[-90.38935,38.81139,152],[-90.38937,38.81137,152],[-90.38939,38.81134,152],[-90.38942,38.81131,152],[-90.38946,38.81129,151],[-90.38948,38.81126,151],[-90.3895,38.81124,151],[-90.38954,38.81122,151],[-90.38958,38.81121,151],[-90.38962,38.81121,151],[-90.38966,38.81121,150],[-90.38971,38.81121,150],[-90.38976,38.8112,150],[-90.38981,38.81119,149],[-90.38984,38.81119,148],[-90.38988,38.81119,148],[-90.38992,38.81119,147],[-90.38996,38.81119,147],[-90.39001,38.8112,146],[-90.39005,38.8112,145],[-90.39008,38.81121,145],[-90.39012,38.81121,144],[-90.39017,38.81121,144],[-90.39021,38.81121,143],[-90.39025,38.81121,143],[-90.39029,38.81121,142],[-90.39033,38.81122,142],[-90.39038,38.81124,142],[-90.3904,38.81126,142],[-90.39044,38.81128,142],[-90.39048,38.81129,142],[-90.39052,38.8113,142],[-90.39057,38.8113,142],[-90.3906,38.81129,142],[-90.39064,38.81128,142],[-90.39067,38.81127,142],[-90.3907,38.81125,142],[-90.39074,38.81124,142],[-90.39078,38.81123,141],[-90.39081,38.81124,141],[-90.39084,38.81126,142],[-90.39086,38.81129,142],[-90.39089,38.81131,141],[-90.39092,38.81133,141],[-90.39095,38.81135,141],[-90.39098,38.81137,141],[-90.391,38.81139,141],[-90.39103,38.81141,141],[-90.39106,38.81143,141],[-90.39108,38.81147,142],[-90.39108,38.8115,142],[-90.39108,38.81153,143],[-90.39105,38.81155,143],[-90.39102,38.81158,144],[-90.39099,38.81159,144],[-90.39095,38.81162,145],[-90.39092,38.81165,146],[-90.3909,38.81168,146],[-90.39088,38.81171,147],[-90.39086,38.81174,147],[-90.39085,38.81178,147],[-90.39085,38.81182,148],[-90.39085,38.81185,148],[-90.39085,38.81188,148],[-90.39085,38.81191,148],[-90.39085,38.81195,149],[-90.39084,38.81198,149],[-90.39083,38.81201,149],[-90.39082,38.81204,149],[-90.39081,38.81207,149],[-90.39084,38.81209,149],[-90.39087,38.81207,149],[-90.39087,38.81213,149],[-90.39084,38.81214,149],[-90.39081,38.81217,149],[-90.39081,38.81221,149],[-90.39082,38.81226,149],[-90.39084,38.81231,148],[-90.39089,38.81233,147],[-90.39095,38.81236,146],[-90.39098,38.81238,145],[-90.391,38.81242,144],[-90.39101,38.81245,143],[-90.39102,38.81248,142],[-90.39103,38.81252,142],[-90.39104,38.81255,142],[-90.39105,38.81259,143],[-90.39106,38.81261,144],[-90.39111,38.81264,144],[-90.39114,38.8127,144],[-90.39113,38.81276,146],[-90.39115,38.81281,147],[-90.39117,38.81285,148],[-90.39117,38.81289,149],[-90.39118,38.81292,149],[-90.39119,38.81295,150],[-90.39121,38.81298,150],[-90.39123,38.81302,151],[-90.39124,38.81304,151],[-90.39125,38.81307,152],[-90.39127,38.8131,151],[-90.39131,38.81312,151],[-90.39132,38.81316,151],[-90.39133,38.81319,151],[-90.39134,38.81322,151],[-90.39137,38.81325,150],[-90.3914,38.81326,150],[-90.39144,38.81328,149],[-90.39147,38.8133,149],[-90.3915,38.81331,149],[-90.39153,38.81333,148],[-90.39155,38.81335,148],[-90.39158,38.81338,147],[-90.3916,38.81341,147],[-90.39162,38.81344,146],[-90.39162,38.81347,146],[-90.39163,38.8135,145],[-90.39164,38.81354,144],[-90.39166,38.81356,143],[-90.39169,38.8136,142],[-90.39172,38.81362,142],[-90.39174,38.81365,142],[-90.39176,38.81367,142],[-90.3918,38.8137,142],[-90.39184,38.81373,141],[-90.39187,38.81375,141],[-90.3919,38.81377,140],[-90.39193,38.81379,139],[-90.39196,38.81381,138],[-90.392,38.81383,137],[-90.39203,38.81386,136],[-90.39205,38.81389,136],[-90.39208,38.81391,136],[-90.39212,38.81393,137],[-90.39216,38.81395,137],[-90.39219,38.81397,138],[-90.39223,38.81399,139],[-90.39226,38.81399,140],[-90.3923,38.81398,139],[-90.39233,38.81395,138],[-90.39234,38.81392,136],[-90.39236,38.81389,135],[-90.39237,38.81386,136],[-90.39238,38.81383,136],[-90.39239,38.81381,136],[-90.39241,38.81378,137],[-90.39243,38.81376,137],[-90.39245,38.81373,138],[-90.39247,38.81369,138],[-90.39248,38.81366,138],[-90.39249,38.81362,138],[-90.39251,38.8136,138],[-90.39254,38.81357,138],[-90.39257,38.81355,138],[-90.39259,38.81352,137],[-90.39262,38.8135,137],[-90.39264,38.81348,137],[-90.39266,38.81345,136],[-90.39269,38.81342,136],[-90.39271,38.81339,136],[-90.39273,38.81336,135],[-90.39276,38.81334,135],[-90.39279,38.81332,134],[-90.39282,38.8133,134],[-90.39286,38.81328,134],[-90.39288,38.81324,134],[-90.3929,38.81322,133],[-90.39292,38.81319,133],[-90.39294,38.81316,133],[-90.39296,38.81313,133],[-90.39298,38.81311,133],[-90.39299,38.81308,133],[-90.39301,38.81305,133],[-90.39302,38.81301,133],[-90.39305,38.81298,133],[-90.39306,38.81296,133],[-90.39309,38.81293,133],[-90.39311,38.81291,134],[-90.39315,38.81288,134],[-90.39317,38.81286,134],[-90.3932,38.81284,134],[-90.39323,38.81282,134],[-90.39326,38.8128,134],[-90.3933,38.81279,134],[-90.39333,38.81277,134],[-90.39334,38.81274,134],[-90.39337,38.81271,134],[-90.3934,38.8127,134],[-90.39344,38.81269,134],[-90.39348,38.8127,134],[-90.39351,38.81272,134],[-90.39354,38.81273,134],[-90.39357,38.81278,134],[-90.39354,38.81275,134],[-90.39357,38.81276,134],[-90.39361,38.81275,134],[-90.39364,38.81273,134],[-90.39367,38.8127,134],[-90.39369,38.81267,134],[-90.39372,38.81265,135],[-90.39377,38.81263,135],[-90.39381,38.81261,135],[-90.39386,38.81258,136],[-90.39389,38.81255,136],[-90.39391,38.81252,136],[-90.39394,38.81249,137],[-90.39397,38.81246,137],[-90.39401,38.81244,137],[-90.39404,38.81241,137],[-90.39406,38.81239,137],[-90.39408,38.81237,137],[-90.39411,38.81234,137],[-90.39413,38.81232,137],[-90.39417,38.81229,137],[-90.39419,38.81227,137],[-90.39421,38.81224,137],[-90.39423,38.81221,138],[-90.39426,38.81219,138],[-90.3943,38.81216,138],[-90.39433,38.81214,138],[-90.39436,38.81211,138],[-90.3944,38.81208,138],[-90.39443,38.81207,138],[-90.39445,38.81204,137],[-90.39448,38.81202,137],[-90.39451,38.812,137],[-90.39454,38.81198,137],[-90.39456,38.81196,137],[-90.39459,38.81194,137],[-90.39463,38.81191,136],[-90.39466,38.81189,136],[-90.39469,38.81187,136],[-90.39472,38.81186,136],[-90.39476,38.81183,135],[-90.39478,38.81181,135],[-90.39481,38.81178,134],[-90.39483,38.81176,134],[-90.39485,38.81174,134],[-90.39489,38.81172,133],[-90.39493,38.8117,133],[-90.39497,38.81168,133],[-90.395,38.81167,133],[-90.39504,38.81165,132],[-90.39507,38.81164,132],[-90.3951,38.81162,132],[-90.39513,38.81159,132],[-90.39514,38.81156,132],[-90.39512,38.81153,132]]],
        "bbox": [
          -90.38423,
          38.81969,
          -90.39514,
          38.81119
        ]
      },
      "properties": {
        "name": "3.16.2022"
      }
    }
  ]
}