{
  "type": "FeatureCollection",
  "features": [
    {
      "type": "Feature",
      "geometry": {
        "type": "MultiLineString",
        "coordinates": [[[-90.39397,38.8126,135],[-90.39391,38.81261,135],[-90.39384,38.81264,135],[-90.39378,38.81267,135],[-90.39374,38.8127,134],[-90.39371,38.81272,134],[-90.39368,38.81274,134],[-90.39365,38.81275,134],[-90.39362,38.81276,134],[-90.39359,38.81278,134],[-90.39355,38.8128,134],[-90.39352,38.81277,134],[-90.39351,38.81275,134],[-90.39353,38.81277,134],[-90.39354,38.8128,134],[-90.39353,38.81283,133],[-90.3935,38.81286,133],[-90.39346,38.81288,133],[-90.39343,38.81289,133],[-90.39339,38.81291,133],[-90.39336,38.81293,133],[-90.39332,38.81295,133],[-90.39329,38.81296,133],[-90.39325,38.81298,133],[-90.39322,38.813,133],[-90.39319,38.81302,133],[-90.39316,38.81305,133],[-90.39313,38.81307,132],[-90.39309,38.8131,132],[-90.39307,38.81312,132],[-90.39304,38.81315,133],[-90.39301,38.81318,133],[-90.39299,38.8132,133],[-90.39296,38.81323,133],[-90.39293,38.81325,133],[-90.3929,38.81327,134],[-90.39287,38.8133,134],[-90.39284,38.81331,134],[-90.39281,38.81332,134],[-90.39278,38.81334,135],[-90.39275,38.81336,135],[-90.39273,38.81339,135],[-90.39271,38.81342,136],[-90.3927,38.81345,136],[-90.39267,38.81348,137],[-90.39265,38.81351,137],[-90.39264,38.81353,137],[-90.39262,38.81357,138],[-90.3926,38.8136,138],[-90.39258,38.81362,138],[-90.39257,38.81365,138],[-90.39256,38.81368,138],[-90.39255,38.81371,138],[-90.39255,38.81374,138],[-90.39253,38.81377,138],[-90.39252,38.8138,138],[-90.3925,38.81382,138],[-90.39247,38.81384,137],[-90.39246,38.81387,137],[-90.39243,38.8139,137],[-90.39242,38.81393,138],[-90.3924,38.81395,139],[-90.39237,38.81397,139],[-90.39234,38.814,141],[-90.39231,38.81403,142],[-90.39229,38.81405,143],[-90.39226,38.81407,144],[-90.39225,38.8141,146],[-90.39225,38.81412,148],[-90.39225,38.81415,149],[-90.39227,38.81418,151],[-90.3923,38.8142,151],[-90.39232,38.81422,151],[-90.39236,38.81423,151],[-90.39239,38.81424,151],[-90.39242,38.81427,152],[-90.39246,38.81428,152],[-90.3925,38.81429,152],[-90.39254,38.81431,152],[-90.39258,38.81433,152],[-90.39262,38.81435,152],[-90.39265,38.81435,152],[-90.39269,38.81438,152],[-90.39271,38.8144,152],[-90.39273,38.81442,152],[-90.39276,38.81444,153],[-90.3928,38.81445,152],[-90.39283,38.81447,151],[-90.39287,38.81449,150],[-90.39289,38.81451,150],[-90.39291,38.81454,149],[-90.39293,38.81456,149],[-90.39296,38.81459,148],[-90.39297,38.81462,148],[-90.39297,38.81467,148],[-90.39298,38.81469,147],[-90.39298,38.81473,147],[-90.39298,38.81476,147],[-90.39298,38.81479,147],[-90.39298,38.81483,147],[-90.39298,38.81486,148],[-90.393,38.81489,147],[-90.39303,38.81491,147],[-90.39305,38.81494,147],[-90.39308,38.81496,147],[-90.39309,38.81498,147],[-90.39312,38.81501,146],[-90.39314,38.81503,145],[-90.39316,38.81506,145],[-90.39317,38.81509,144],[-90.39317,38.81512,144],[-90.39314,38.81515,144],[-90.39312,38.81518,145],[-90.39313,38.81521,144],[-90.39313,38.81523,144],[-90.39315,38.81526,143],[-90.39313,38.81529,143],[-90.39311,38.81531,143],[-90.39307,38.81533,144],[-90.39304,38.81535,143],[-90.39301,38.81537,144],[-90.39298,38.81539,144],[-90.39295,38.8154,144],[-90.39294,38.81543,144],[-90.39295,38.81546,142],[-90.39299,38.81547,141],[-90.39297,38.81544,143],[-90.39296,38.81542,144],[-90.39292,38.8154,145],[-90.39288,38.81539,146],[-90.39286,38.81542,146],[-90.39283,38.81544,146],[-90.39279,38.81546,147],[-90.39276,38.81548,147],[-90.39276,38.81552,146],[-90.39275,38.81554,146],[-90.39273,38.81557,146],[-90.39271,38.8156,146],[-90.39269,38.81562,147],[-90.39266,38.81564,147],[-90.39262,38.81566,149],[-90.39261,38.81568,148],[-90.39262,38.81571,148],[-90.39263,38.81574,146],[-90.39262,38.81577,146],[-90.39261,38.8158,146],[-90.39258,38.81581,146],[-90.39254,38.81581,148],[-90.39253,38.81584,147],[-90.39253,38.81587,147],[-90.39253,38.8159,147],[-90.39254,38.81593,147],[-90.39255,38.81596,147],[-90.39256,38.81599,146],[-90.39256,38.81596,146],[-90.39256,38.81593,146],[-90.39256,38.8159,146],[-90.39255,38.81587,147],[-90.39255,38.81584,147],[-90.39258,38.81582,146],[-90.3926,38.81579,146],[-90.39262,38.81582,145],[-90.39263,38.81579,145],[-90.39263,38.81576,146],[-90.39264,38.81573,146],[-90.39262,38.81571,148],[-90.39263,38.81569,147],[-90.39263,38.81566,148],[-90.39264,38.81562,149],[-90.39265,38.81559,149],[-90.39267,38.81557,148],[-90.39269,38.81554,148],[-90.39272,38.81553,147],[-90.39276,38.81552,146],[-90.39279,38.81553,145],[-90.39279,38.81556,144],[-90.39282,38.81553,144],[-90.39282,38.81551,145],[-90.39285,38.81549,144],[-90.39289,38.8155,143],[-90.39292,38.8155,142],[-90.39294,38.81548,142],[-90.39297,38.81546,142],[-90.393,38.81543,142],[-90.39302,38.8154,143],[-90.39304,38.81536,143],[-90.39306,38.81534,143],[-90.39309,38.81532,143],[-90.39311,38.8153,143],[-90.39313,38.81527,144],[-90.39314,38.81524,144],[-90.39315,38.81521,144],[-90.39315,38.81518,144],[-90.39316,38.81515,144],[-90.39313,38.81512,145],[-90.39311,38.81509,146],[-90.39309,38.81507,146],[-90.39307,38.81503,147],[-90.39305,38.815,148],[-90.39304,38.81497,147],[-90.393,38.81496,148],[-90.39297,38.81496,148],[-90.39296,38.81493,148],[-90.39296,38.8149,148],[-90.39296,38.81487,148],[-90.39295,38.81484,148],[-90.39295,38.8148,148],[-90.39295,38.81477,148],[-90.39296,38.81473,148],[-90.39296,38.81469,148],[-90.39295,38.81466,148],[-90.39293,38.81464,149],[-90.39291,38.81461,149],[-90.39289,38.81458,150],[-90.39287,38.81456,150],[-90.39284,38.81454,151],[-90.39281,38.81452,152],[-90.39279,38.8145,152],[-90.39276,38.81448,153],[-90.39274,38.81446,153],[-90.39272,38.81443,153],[-90.39268,38.8144,153],[-90.39265,38.81438,153],[-90.39261,38.81437,153],[-90.39258,38.81435,153],[-90.39257,38.81432,152],[-90.39259,38.8143,151],[-90.39257,38.81428,151],[-90.39253,38.81429,152],[-90.39249,38.81428,152],[-90.39245,38.81427,152],[-90.39242,38.81426,152],[-90.39241,38.81423,151],[-90.39239,38.8142,151],[-90.39237,38.81417,150],[-90.39235,38.81415,149],[-90.39232,38.81413,148],[-90.39229,38.8141,146],[-90.39227,38.81408,145],[-90.39224,38.81405,143],[-90.3922,38.81402,141],[-90.39218,38.814,140],[-90.39214,38.81398,139],[-90.3921,38.81396,139],[-90.39208,38.81393,137],[-90.39205,38.81391,137],[-90.39202,38.81388,136],[-90.392,38.81386,137],[-90.39197,38.81384,138],[-90.39194,38.81381,139],[-90.39191,38.81379,140],[-90.39188,38.81377,140],[-90.39185,38.81376,141],[-90.39182,38.81374,142],[-90.39179,38.81372,142],[-90.39176,38.8137,143],[-90.39174,38.81367,143],[-90.39173,38.81365,142],[-90.39171,38.81362,142],[-90.39169,38.8136,142],[-90.39167,38.81357,143],[-90.39167,38.81354,143],[-90.39166,38.81352,144],[-90.39164,38.81349,145],[-90.39163,38.81345,145],[-90.39162,38.81343,146],[-90.3916,38.81341,147],[-90.39157,38.81338,147],[-90.39154,38.81336,148],[-90.39152,38.81334,149],[-90.39149,38.81332,149],[-90.39146,38.8133,149],[-90.39143,38.81328,150],[-90.3914,38.81326,150],[-90.39137,38.81324,150],[-90.39137,38.8132,150],[-90.39136,38.81317,150],[-90.39133,38.81315,151],[-90.39129,38.81314,151],[-90.39125,38.81312,152],[-90.39122,38.8131,152],[-90.39121,38.81307,152],[-90.3912,38.81304,152],[-90.39119,38.81301,151],[-90.39117,38.81298,151],[-90.39115,38.81296,151],[-90.39113,38.81293,150],[-90.39111,38.8129,150],[-90.3911,38.81287,149],[-90.39109,38.81285,149],[-90.39109,38.81282,148],[-90.39108,38.81278,147],[-90.39107,38.81276,147],[-90.39107,38.81273,146],[-90.39105,38.8127,146],[-90.39104,38.81267,145],[-90.39103,38.81264,145],[-90.39103,38.81261,144],[-90.39102,38.81258,143],[-90.39102,38.81254,142],[-90.39101,38.81251,142],[-90.39103,38.81248,142],[-90.39102,38.81244,143],[-90.391,38.81241,144],[-90.39098,38.81238,145],[-90.39097,38.81235,146],[-90.39096,38.81232,147],[-90.39096,38.81229,147],[-90.39094,38.81226,148],[-90.39093,38.81224,149],[-90.39091,38.81221,149],[-90.39092,38.81217,149],[-90.39093,38.81215,149],[-90.3909,38.81213,149],[-90.39089,38.8121,149],[-90.39091,38.81206,149],[-90.39091,38.81203,149],[-90.39093,38.81201,149],[-90.39095,38.81197,150],[-90.39095,38.81194,150],[-90.39094,38.81192,149],[-90.39094,38.81189,149],[-90.39093,38.81185,148],[-90.39094,38.81182,148],[-90.39095,38.81179,147],[-90.39095,38.81176,147],[-90.39096,38.81173,147],[-90.39098,38.8117,146],[-90.391,38.81167,145],[-90.39102,38.81165,145],[-90.39104,38.81162,144],[-90.39106,38.81159,144],[-90.39109,38.81157,143],[-90.39111,38.81154,143],[-90.39111,38.81151,142],[-90.39109,38.81148,142],[-90.39109,38.81144,141],[-90.39109,38.81141,141],[-90.39108,38.81137,141],[-90.39107,38.81134,140],[-90.39105,38.81138,141],[-90.39107,38.81141,141],[-90.39108,38.81144,141],[-90.3911,38.81147,142],[-90.39111,38.8115,142],[-90.3911,38.81153,143],[-90.39108,38.81159,144],[-90.3911,38.81157,143],[-90.39109,38.81154,143],[-90.39107,38.81151,143],[-90.39106,38.81148,142],[-90.39104,38.81145,142],[-90.39102,38.81142,142],[-90.391,38.8114,141],[-90.39097,38.81137,141],[-90.39094,38.81133,141],[-90.39091,38.8113,141],[-90.39089,38.81127,141],[-90.39086,38.81124,141],[-90.39078,38.81121,141],[-90.39075,38.81122,141],[-90.39072,38.81124,142],[-90.39069,38.81125,142],[-90.39066,38.81127,142],[-90.39062,38.81129,142],[-90.39059,38.81129,142],[-90.39055,38.81128,142],[-90.39052,38.81127,142],[-90.39049,38.81126,142],[-90.39046,38.81123,142],[-90.39043,38.81122,142],[-90.3904,38.8112,142],[-90.39036,38.8112,142],[-90.39031,38.81121,142],[-90.39028,38.81122,142],[-90.39024,38.81122,143],[-90.39021,38.8112,143],[-90.39017,38.8112,144],[-90.39013,38.81119,144],[-90.39009,38.81119,145],[-90.39005,38.8112,145],[-90.39002,38.81119,146],[-90.38997,38.81119,146],[-90.38993,38.81119,147],[-90.3899,38.81119,147],[-90.38986,38.81119,148],[-90.38982,38.81121,149],[-90.38979,38.81122,149],[-90.38976,38.8112,150],[-90.38972,38.81119,150],[-90.38969,38.81118,150],[-90.38965,38.81117,151],[-90.3896,38.81118,151],[-90.38957,38.81119,151],[-90.38953,38.81121,151],[-90.3895,38.81122,151],[-90.38947,38.81124,151],[-90.38944,38.81126,152],[-90.38942,38.81129,152],[-90.38941,38.81132,152],[-90.3894,38.81136,152],[-90.38938,38.81139,152],[-90.38935,38.8114,152],[-90.38931,38.81139,152],[-90.38928,38.81137,152],[-90.38924,38.81137,152],[-90.3892,38.81135,152],[-90.38916,38.81136,152],[-90.38915,38.81139,152],[-90.38912,38.81142,153],[-90.38909,38.81144,153],[-90.38906,38.81145,154],[-90.38902,38.81146,155],[-90.38898,38.81148,156],[-90.38895,38.81151,157],[-90.38883,38.81153,160],[-90.3888,38.81155,160],[-90.38879,38.81159,161],[-90.38879,38.81162,161],[-90.38875,38.81164,162],[-90.38872,38.81166,163],[-90.3887,38.81169,163],[-90.38868,38.81171,163],[-90.38866,38.81174,163],[-90.38864,38.81177,163],[-90.38862,38.81179,163],[-90.3886,38.81182,163],[-90.38859,38.81185,163],[-90.38859,38.81188,163],[-90.38857,38.81191,163],[-90.3886,38.81188,162],[-90.38864,38.81186,162],[-90.38865,38.81184,162],[-90.38867,38.81182,162],[-90.3887,38.81179,162],[-90.38872,38.81175,162],[-90.38875,38.81173,161],[-90.38878,38.8117,161],[-90.3888,38.81168,161],[-90.38883,38.81166,160],[-90.38883,38.81163,160],[-90.38882,38.81159,160],[-90.38886,38.81158,159],[-90.3889,38.81159,159],[-90.38895,38.8116,157],[-90.38898,38.81161,157],[-90.38902,38.81161,155],[-90.38905,38.8116,155],[-90.38913,38.81158,152],[-90.38915,38.81154,152],[-90.38917,38.81151,152],[-90.38921,38.81148,152],[-90.38927,38.81145,152],[-90.38931,38.81145,152],[-90.38934,38.81145,152],[-90.38938,38.81143,152],[-90.38941,38.8114,152],[-90.38942,38.81137,152],[-90.38945,38.81135,151],[-90.38947,38.81132,151],[-90.38949,38.81129,151],[-90.38951,38.81126,151],[-90.38953,38.81123,151],[-90.38957,38.81122,151],[-90.38961,38.81121,151],[-90.38965,38.81122,150],[-90.38969,38.81123,150],[-90.38972,38.81123,150],[-90.38976,38.81122,149],[-90.3898,38.81121,149],[-90.38984,38.8112,148],[-90.38989,38.81118,148],[-90.38992,38.81117,147],[-90.38995,38.81116,147],[-90.39,38.81116,146],[-90.39004,38.81117,146],[-90.39008,38.81116,145],[-90.39012,38.81117,145],[-90.39017,38.81117,144],[-90.39021,38.81117,143],[-90.39025,38.81116,143],[-90.39029,38.81115,142],[-90.39033,38.81115,142],[-90.39038,38.81116,142],[-90.39043,38.81116,142],[-90.39047,38.81118,142],[-90.3905,38.8112,142],[-90.39054,38.81122,142],[-90.39059,38.81124,142],[-90.39063,38.81124,142],[-90.39067,38.81123,142],[-90.39071,38.81121,142],[-90.39074,38.8112,141],[-90.39077,38.81118,141],[-90.39081,38.81117,141],[-90.39085,38.81117,141],[-90.39087,38.8112,141],[-90.39088,38.81122,141],[-90.39085,38.81124,141],[-90.39088,38.81127,141],[-90.3909,38.81129,141],[-90.39093,38.81132,141],[-90.39094,38.81134,141],[-90.39095,38.81137,141],[-90.39097,38.8114,142],[-90.39099,38.81144,142],[-90.391,38.81147,142],[-90.39101,38.8115,143],[-90.39101,38.81154,143],[-90.39099,38.81157,144],[-90.39097,38.8116,145],[-90.39096,38.81163,145],[-90.39094,38.81166,146],[-90.39093,38.81169,146],[-90.39092,38.81173,147],[-90.39092,38.81177,147],[-90.3909,38.8118,148],[-90.3909,38.81183,148],[-90.3909,38.81187,148],[-90.3909,38.8119,149],[-90.39092,38.81192,149],[-90.39093,38.81195,150],[-90.39094,38.81198,150],[-90.39094,38.81201,150],[-90.39094,38.81205,149],[-90.39094,38.81208,149],[-90.39091,38.81211,149],[-90.39088,38.81215,149],[-90.39085,38.81218,149],[-90.39085,38.81221,149],[-90.39084,38.81225,149],[-90.39085,38.81228,148],[-90.39087,38.8123,148],[-90.3909,38.81232,147],[-90.39094,38.81234,146],[-90.39096,38.81237,145],[-90.39099,38.81243,144],[-90.391,38.81246,143],[-90.39101,38.81249,142],[-90.39101,38.81252,142],[-90.39102,38.81256,143],[-90.39102,38.81259,144],[-90.39103,38.81262,144],[-90.39103,38.81265,145],[-90.39106,38.81268,145],[-90.39108,38.81271,145],[-90.39109,38.81278,147],[-90.3911,38.8128,147],[-90.39109,38.81284,148],[-90.39112,38.81285,148],[-90.39112,38.81288,149],[-90.39111,38.81291,150],[-90.39113,38.81294,150],[-90.39116,38.81296,150],[-90.39115,38.81294,150],[-90.39114,38.81291,149],[-90.39111,38.81291,150],[-90.39113,38.81295,151],[-90.39114,38.81297,151],[-90.39116,38.813,151],[-90.39117,38.81304,152],[-90.39119,38.81307,152],[-90.39121,38.8131,152],[-90.39124,38.81311,152],[-90.39127,38.81313,151],[-90.39131,38.81313,151],[-90.39132,38.81316,151],[-90.39135,38.81317,150],[-90.39137,38.8132,150],[-90.39137,38.81323,150],[-90.39139,38.81326,150],[-90.39142,38.81329,150],[-90.39145,38.81331,149],[-90.39148,38.81333,149],[-90.39152,38.81335,148],[-90.39155,38.81338,148],[-90.39157,38.81341,147],[-90.39159,38.81345,146],[-90.39161,38.81348,146],[-90.39163,38.81351,145],[-90.39164,38.81353,144],[-90.39164,38.81358,144],[-90.39165,38.81361,143],[-90.39168,38.81364,143],[-90.39171,38.81367,143],[-90.39173,38.8137,143],[-90.39175,38.81372,143],[-90.39178,38.81374,143],[-90.39181,38.81377,142],[-90.39184,38.81379,141],[-90.39188,38.81381,140],[-90.39191,38.81383,139],[-90.39194,38.81385,138],[-90.39195,38.81388,137],[-90.39196,38.8139,138],[-90.39199,38.81392,138],[-90.39203,38.81395,139],[-90.39208,38.81396,139],[-90.39211,38.81397,139],[-90.39215,38.81399,140],[-90.39217,38.81402,141],[-90.3922,38.81404,143],[-90.39223,38.81404,142],[-90.39227,38.81403,142],[-90.3923,38.81401,141],[-90.39234,38.81398,140],[-90.39236,38.81395,138],[-90.39238,38.81392,137],[-90.3924,38.81389,136],[-90.39241,38.81387,136],[-90.39243,38.81384,137],[-90.39245,38.81382,137],[-90.39247,38.81379,138],[-90.39249,38.81376,138],[-90.39251,38.81373,138],[-90.39253,38.8137,138],[-90.39255,38.81368,138],[-90.39256,38.81364,138],[-90.39257,38.81361,138],[-90.39258,38.81359,138],[-90.3926,38.81356,138],[-90.39262,38.81353,137],[-90.39265,38.81351,137],[-90.39267,38.81348,137],[-90.39269,38.81346,136],[-90.3927,38.81343,136],[-90.39274,38.81342,136],[-90.39276,38.81339,135],[-90.39278,38.81337,135],[-90.3928,38.81334,134],[-90.39282,38.81332,134],[-90.39285,38.81329,134],[-90.39287,38.81327,134],[-90.3929,38.81325,133],[-90.39293,38.81322,133],[-90.39296,38.81319,133],[-90.39299,38.81317,133],[-90.39302,38.81315,133],[-90.39304,38.81313,133],[-90.39307,38.8131,132],[-90.39309,38.81307,132],[-90.39312,38.81306,132],[-90.39315,38.81304,133],[-90.39319,38.81302,133],[-90.39322,38.81301,133],[-90.39325,38.81299,133],[-90.39328,38.81296,133],[-90.39331,38.81294,133],[-90.39335,38.81292,133],[-90.39338,38.8129,133],[-90.39341,38.81288,133],[-90.39344,38.81286,134],[-90.39348,38.81285,133],[-90.39351,38.81284,133],[-90.39355,38.81281,134],[-90.39358,38.81279,134],[-90.39361,38.81277,134],[-90.39364,38.81275,134],[-90.39368,38.81273,134],[-90.39371,38.81271,134],[-90.39374,38.81268,134],[-90.39377,38.81266,135],[-90.3938,38.81264,135],[-90.39383,38.81262,135],[-90.39386,38.81261,135],[-90.39389,38.81259,136],[-90.39393,38.81256,136],[-90.39396,38.81254,136],[-90.394,38.81252,136],[-90.39403,38.8125,137],[-90.39408,38.81248,137],[-90.39411,38.81246,137],[-90.39413,38.81243,137],[-90.39415,38.81241,137],[-90.39417,38.81238,137],[-90.3942,38.81235,137],[-90.39423,38.81233,137],[-90.39426,38.81231,137],[-90.3943,38.81229,137],[-90.39433,38.81227,137],[-90.39437,38.81226,137],[-90.39441,38.81224,137],[-90.39445,38.81221,137],[-90.39448,38.81219,137],[-90.39451,38.81218,137],[-90.39455,38.81215,137],[-90.39456,38.81212,137],[-90.39457,38.81209,137],[-90.39457,38.81206,137],[-90.39459,38.81203,137],[-90.39462,38.81201,137],[-90.39465,38.81199,137],[-90.39468,38.81196,137],[-90.39471,38.81193,136],[-90.39474,38.81191,136],[-90.39477,38.81188,135],[-90.39481,38.81186,135],[-90.39485,38.81184,135],[-90.39488,38.81181,134],[-90.39491,38.81179,134],[-90.39494,38.81177,134],[-90.39498,38.81175,133],[-90.39502,38.81173,133],[-90.39505,38.81172,133],[-90.39509,38.8117,133],[-90.39511,38.81168,133],[-90.39513,38.81164,132],[-90.39514,38.81161,132],[-90.39515,38.81158,132],[-90.39516,38.81156,132]]],
        "bbox": [
          -90.38857,
          38.81599,
          -90.39516,
          38.81115
        ]
      },
      "properties": {
        "name": "6.12.2020"
      }
    }
  ]
}