{
  "type": "FeatureCollection",
  "features": [
    {
      "type": "Feature",
      "geometry": {
        "type": "MultiLineString",
        "coordinates": [[[-90.395,38.81159,132],[-90.39496,38.8117,133],[-90.39495,38.81173,133],[-90.39478,38.81191,136],[-90.39469,38.81199,136],[-90.39463,38.81203,137],[-90.39456,38.81208,137],[-90.39448,38.81214,137],[-90.39441,38.81218,138],[-90.39434,38.81224,137],[-90.39427,38.8123,137],[-90.39422,38.81235,137],[-90.39415,38.81242,137],[-90.39409,38.81247,137],[-90.394,38.8125,137],[-90.39394,38.81255,136],[-90.39387,38.8126,135],[-90.3938,38.81265,135],[-90.39374,38.8127,134],[-90.39367,38.81275,134],[-90.39359,38.81279,133],[-90.3935,38.8128,134],[-90.39343,38.81285,134],[-90.39334,38.81289,134],[-90.39328,38.81293,133],[-90.39322,38.81299,133],[-90.39316,38.81304,133],[-90.3931,38.8131,132],[-90.39301,38.81315,133],[-90.39296,38.81322,133],[-90.3929,38.81328,134],[-90.39283,38.81333,134],[-90.39276,38.81337,135],[-90.39273,38.81343,136],[-90.39269,38.81349,137],[-90.39262,38.81357,138],[-90.39252,38.81372,138],[-90.39249,38.81378,138],[-90.39246,38.81385,137],[-90.39242,38.8139,137],[-90.3924,38.81397,140],[-90.39236,38.81403,143],[-90.39234,38.81409,146],[-90.39235,38.81417,150],[-90.39241,38.81423,151],[-90.39245,38.81426,152],[-90.39252,38.81428,152],[-90.39263,38.81434,152],[-90.39265,38.81433,151],[-90.39259,38.81433,152],[-90.39261,38.81439,153],[-90.3927,38.81447,153],[-90.39291,38.81454,149],[-90.393,38.81456,147],[-90.39304,38.81461,146],[-90.39307,38.81466,145],[-90.39303,38.8147,146],[-90.39301,38.81465,147],[-90.39296,38.81464,148],[-90.39292,38.8146,149],[-90.39287,38.81456,150],[-90.39281,38.81452,152],[-90.39276,38.81448,153],[-90.39272,38.81442,153],[-90.39265,38.81438,153],[-90.39249,38.8143,152],[-90.39241,38.81425,151],[-90.39236,38.81421,151],[-90.39232,38.81416,150],[-90.39202,38.81413,149],[-90.39187,38.8142,154],[-90.39178,38.81419,156],[-90.39175,38.81421,158],[-90.39177,38.81424,158],[-90.39172,38.8143,161],[-90.39172,38.81433,162],[-90.39176,38.81434,161],[-90.39176,38.81438,162],[-90.39173,38.8144,163],[-90.39167,38.81453,168],[-90.39169,38.81457,168],[-90.39175,38.8147,168],[-90.39185,38.81507,171],[-90.39192,38.81512,170],[-90.39194,38.81516,171],[-90.39196,38.81522,173],[-90.39195,38.81527,175],[-90.39195,38.81531,175],[-90.39197,38.81538,175],[-90.39195,38.81543,176],[-90.39198,38.81548,175],[-90.39202,38.81552,174],[-90.39202,38.81557,174],[-90.392,38.81562,174],[-90.39197,38.81566,174],[-90.39195,38.81563,175],[-90.39199,38.81562,174],[-90.39204,38.81562,172],[-90.39207,38.81565,170],[-90.39205,38.81567,170],[-90.39201,38.81568,172],[-90.392,38.81572,172],[-90.39193,38.81578,173],[-90.39189,38.81582,173],[-90.39189,38.81576,174],[-90.39183,38.81571,177],[-90.39179,38.81567,178],[-90.39162,38.81573,181],[-90.39165,38.81577,180],[-90.39168,38.81582,179],[-90.3917,38.81589,177],[-90.39171,38.81595,176],[-90.39173,38.81605,173],[-90.39175,38.81616,170],[-90.39173,38.81621,168],[-90.39171,38.81626,167],[-90.39169,38.81633,165],[-90.39172,38.81635,163],[-90.39176,38.81635,162],[-90.39169,38.81635,164],[-90.39164,38.81634,166],[-90.39162,38.81638,165],[-90.39161,38.81642,164],[-90.3916,38.81645,163],[-90.39156,38.81648,163],[-90.39152,38.81652,163],[-90.39153,38.81654,162],[-90.39146,38.81655,164],[-90.3914,38.81656,165],[-90.39136,38.81659,164],[-90.39133,38.81662,164],[-90.39136,38.8166,164],[-90.39138,38.81658,164],[-90.39141,38.8166,163],[-90.39141,38.81664,162],[-90.39145,38.81667,160],[-90.39148,38.81666,160],[-90.39146,38.81663,161],[-90.39143,38.81658,163],[-90.39141,38.81652,166],[-90.39139,38.81648,168],[-90.39137,38.81645,169],[-90.39129,38.81665,163],[-90.39123,38.81674,162],[-90.39091,38.81676,164],[-90.39088,38.81664,167],[-90.39086,38.81668,166],[-90.39085,38.81675,165],[-90.39085,38.8168,164],[-90.39074,38.81683,164],[-90.39072,38.81685,164],[-90.39067,38.81685,165],[-90.39058,38.81684,165],[-90.39048,38.81689,166],[-90.39044,38.81687,166],[-90.39049,38.81689,166],[-90.39049,38.81696,164],[-90.3905,38.81699,163],[-90.39051,38.81703,162],[-90.39052,38.81706,161],[-90.39048,38.81707,161],[-90.39043,38.81714,159],[-90.39046,38.81717,158],[-90.3905,38.81714,158],[-90.39046,38.81712,159],[-90.3905,38.81701,163],[-90.39053,38.81693,165],[-90.39057,38.81691,165],[-90.39061,38.81687,165],[-90.39065,38.81683,165],[-90.39069,38.81683,165],[-90.39073,38.81683,164],[-90.39076,38.8168,165],[-90.39078,38.81675,165],[-90.39055,38.81652,170],[-90.39075,38.8166,168],[-90.39075,38.81664,167],[-90.39085,38.81666,167],[-90.39089,38.81666,166],[-90.39092,38.81665,167],[-90.39089,38.81672,165],[-90.39102,38.81683,162],[-90.39107,38.81686,160],[-90.39113,38.81684,160],[-90.39119,38.8168,160],[-90.39123,38.81676,161],[-90.39138,38.81666,162],[-90.3914,38.81663,162],[-90.3914,38.8166,163],[-90.39143,38.81656,164],[-90.39147,38.81657,163],[-90.39153,38.81653,163],[-90.39154,38.81649,164],[-90.39156,38.81645,164],[-90.39162,38.81639,165],[-90.39166,38.81634,165],[-90.3917,38.81632,165],[-90.39171,38.81624,168],[-90.39166,38.8162,170],[-90.39175,38.81603,173],[-90.39178,38.81597,173],[-90.3918,38.81592,174],[-90.3918,38.81585,175],[-90.39178,38.81578,177],[-90.39178,38.81572,178],[-90.39176,38.81566,179],[-90.39171,38.81561,181],[-90.39146,38.81547,184],[-90.3914,38.81544,185],[-90.39131,38.81542,185],[-90.39124,38.81541,186],[-90.3912,38.81538,186],[-90.39115,38.81542,186],[-90.3911,38.81544,186],[-90.39105,38.81549,186],[-90.39098,38.8155,185],[-90.39089,38.81549,185],[-90.39076,38.81548,184],[-90.39069,38.81546,184],[-90.39063,38.81543,183],[-90.39057,38.81543,183],[-90.3902,38.81538,180],[-90.39006,38.8153,181],[-90.38998,38.81527,182],[-90.38983,38.8152,184],[-90.38979,38.81518,184],[-90.38975,38.81513,186],[-90.3897,38.81509,187],[-90.38968,38.81503,188],[-90.38965,38.81498,188],[-90.38959,38.81494,189],[-90.38957,38.81487,189],[-90.38956,38.81481,190],[-90.38956,38.81475,191],[-90.38954,38.81469,191],[-90.38953,38.81465,190],[-90.38952,38.81463,190],[-90.38952,38.81459,190],[-90.38952,38.81451,190],[-90.38956,38.81442,189],[-90.38936,38.8143,190],[-90.38929,38.81426,190],[-90.38925,38.81423,191],[-90.38918,38.81421,192],[-90.3891,38.81419,192],[-90.38907,38.81418,192],[-90.38897,38.81418,192],[-90.38894,38.81417,192],[-90.38889,38.81416,192],[-90.38885,38.81414,193],[-90.38877,38.81413,194],[-90.38872,38.81413,195],[-90.38866,38.81412,196],[-90.38859,38.8141,196],[-90.38852,38.81407,197],[-90.38846,38.81403,197],[-90.3884,38.814,197],[-90.38833,38.81396,198],[-90.38825,38.81392,198],[-90.3882,38.81392,198],[-90.38815,38.81392,198],[-90.38811,38.81396,199],[-90.38809,38.81391,198],[-90.38803,38.8139,199],[-90.38799,38.8139,199],[-90.38793,38.81393,199],[-90.38789,38.81393,199],[-90.38785,38.81391,199],[-90.38775,38.81392,200],[-90.38767,38.81393,200],[-90.38764,38.8139,200],[-90.38759,38.81388,199],[-90.38755,38.81385,199],[-90.38753,38.81382,199],[-90.3876,38.81385,199],[-90.38764,38.81388,199],[-90.38764,38.81383,199],[-90.38763,38.8138,199],[-90.38768,38.81387,199],[-90.38772,38.81391,200],[-90.38766,38.81391,200],[-90.38759,38.81392,200],[-90.38755,38.81391,200],[-90.38759,38.81391,200],[-90.38764,38.81394,200],[-90.38768,38.81399,200],[-90.38767,38.81401,200],[-90.38764,38.81402,200],[-90.38759,38.81402,200],[-90.38753,38.81402,200],[-90.38747,38.81403,200],[-90.38742,38.81403,200],[-90.38738,38.81401,200],[-90.38734,38.81401,200],[-90.3873,38.81401,200],[-90.38726,38.81401,200],[-90.3872,38.81403,200],[-90.38715,38.81405,200],[-90.38711,38.81404,200],[-90.38706,38.81405,200],[-90.38702,38.81406,200],[-90.38696,38.81408,201],[-90.3869,38.81408,200],[-90.38683,38.81407,200],[-90.38678,38.81408,200],[-90.38674,38.81407,200],[-90.38666,38.81408,199],[-90.38661,38.81411,199],[-90.38655,38.81413,199],[-90.38649,38.81414,199],[-90.38643,38.81415,199],[-90.38637,38.81412,198],[-90.38641,38.81414,198],[-90.38644,38.81412,198],[-90.38646,38.81414,199],[-90.38642,38.81413,198],[-90.38636,38.81414,198],[-90.38638,38.81412,198],[-90.38643,38.81414,199],[-90.38647,38.81415,199],[-90.38648,38.81412,199],[-90.38654,38.81412,199],[-90.38661,38.81412,200],[-90.38669,38.8141,200],[-90.38673,38.81408,200],[-90.3868,38.8141,200],[-90.38687,38.81407,200],[-90.38695,38.81404,200],[-90.38702,38.814,200],[-90.3871,38.81398,199],[-90.38715,38.81401,200],[-90.38722,38.81401,200],[-90.38727,38.81397,199],[-90.38736,38.81397,200],[-90.38746,38.81397,200],[-90.38751,38.81397,200],[-90.38759,38.81396,200],[-90.38768,38.81394,200],[-90.38778,38.81392,199],[-90.38786,38.81392,199],[-90.38792,38.81391,199],[-90.38801,38.81391,199],[-90.3881,38.81391,198],[-90.38819,38.8139,198],[-90.38829,38.81392,198],[-90.38835,38.81395,198],[-90.38843,38.81399,197],[-90.38851,38.81401,196],[-90.38859,38.81405,196],[-90.38866,38.81406,195],[-90.38874,38.81408,194],[-90.3888,38.81413,193],[-90.38887,38.81415,193],[-90.38895,38.81417,192],[-90.38898,38.81416,192],[-90.38904,38.81416,192],[-90.38912,38.81418,192],[-90.38915,38.8142,192],[-90.38917,38.81423,192],[-90.3892,38.81424,192],[-90.38926,38.81428,191],[-90.38926,38.81425,191],[-90.3893,38.81425,190],[-90.38938,38.81424,189],[-90.38947,38.81428,188],[-90.38952,38.81434,188],[-90.38955,38.8144,188],[-90.38951,38.81447,189],[-90.38951,38.81453,190],[-90.38947,38.81459,190],[-90.38942,38.81469,190],[-90.38945,38.81476,190],[-90.38949,38.81483,189],[-90.38953,38.8149,189],[-90.3896,38.81497,188],[-90.38969,38.81503,188],[-90.38974,38.81508,187],[-90.38978,38.81513,186],[-90.38982,38.81517,185],[-90.38986,38.81522,183],[-90.38994,38.81526,182],[-90.39002,38.81531,181],[-90.39011,38.81532,181],[-90.3902,38.81533,181],[-90.39027,38.81533,181],[-90.39032,38.81535,181],[-90.39041,38.81538,181],[-90.39047,38.81541,182],[-90.39052,38.81543,182],[-90.39055,38.81545,182],[-90.39062,38.81547,183],[-90.39072,38.8155,184],[-90.39084,38.81547,185],[-90.39089,38.81546,185],[-90.39096,38.81547,185],[-90.39107,38.81543,186],[-90.39115,38.81542,186],[-90.39122,38.81543,186],[-90.39127,38.81541,185],[-90.3913,38.81538,185],[-90.39136,38.81541,185],[-90.39148,38.81546,184],[-90.39154,38.81551,183],[-90.39157,38.81555,183],[-90.39161,38.81561,182],[-90.39167,38.81565,181],[-90.39178,38.81566,179],[-90.3919,38.81566,176],[-90.39195,38.81567,175],[-90.39195,38.81562,176],[-90.39196,38.81557,176],[-90.39199,38.81553,175],[-90.39202,38.81549,174],[-90.39198,38.81542,175],[-90.39194,38.81533,176],[-90.39192,38.81527,176],[-90.39194,38.81521,173],[-90.39199,38.81513,169],[-90.39202,38.81506,166],[-90.39201,38.81501,164],[-90.39196,38.81496,165],[-90.39192,38.81492,165],[-90.39193,38.81487,165],[-90.3919,38.81489,166],[-90.39192,38.81491,165],[-90.39195,38.81491,164],[-90.39197,38.81484,163],[-90.39195,38.8148,163],[-90.39195,38.81476,163],[-90.39192,38.81469,163],[-90.39192,38.81463,162],[-90.39187,38.81457,163],[-90.39183,38.81453,163],[-90.39183,38.81449,162],[-90.39184,38.81441,161],[-90.39183,38.81437,160],[-90.39179,38.81429,159],[-90.39177,38.81423,158],[-90.39178,38.81419,156],[-90.39178,38.81416,155],[-90.39186,38.81415,153],[-90.39193,38.81416,152],[-90.39195,38.81412,149],[-90.39196,38.81409,148],[-90.39201,38.8141,148],[-90.39204,38.81413,149],[-90.39205,38.81408,146],[-90.39205,38.81405,145],[-90.39209,38.81403,143],[-90.39213,38.81403,143],[-90.39219,38.81403,142],[-90.39223,38.81404,142],[-90.39212,38.81401,142],[-90.39203,38.81395,139],[-90.39197,38.81391,138],[-90.39189,38.81387,140],[-90.39183,38.81383,142],[-90.3918,38.81378,142],[-90.39176,38.81374,143],[-90.3917,38.8137,144],[-90.39166,38.81368,144],[-90.39165,38.81365,144],[-90.3916,38.81361,144],[-90.39156,38.81355,146],[-90.39159,38.81349,146],[-90.39159,38.81345,146],[-90.39157,38.81341,147],[-90.39153,38.81337,148],[-90.39147,38.81333,149],[-90.39142,38.81329,150],[-90.39136,38.81325,151],[-90.39135,38.8132,151],[-90.39133,38.81316,151],[-90.39134,38.81312,150],[-90.39139,38.81312,150],[-90.39143,38.81321,149],[-90.39152,38.81326,148],[-90.3916,38.81332,147],[-90.39168,38.81338,146],[-90.39171,38.81342,145],[-90.39171,38.81346,144],[-90.3917,38.81355,143],[-90.39171,38.8136,142],[-90.39171,38.81363,142],[-90.39174,38.81369,143],[-90.39185,38.81377,141],[-90.39192,38.8138,139],[-90.392,38.81384,137],[-90.39206,38.81388,136],[-90.39212,38.8139,135],[-90.3922,38.81395,137],[-90.39225,38.81402,141],[-90.39232,38.81404,143],[-90.39236,38.814,141],[-90.3924,38.81397,140],[-90.39244,38.81394,139],[-90.39248,38.8139,138],[-90.39251,38.81383,138],[-90.39255,38.81376,138],[-90.39257,38.81368,138],[-90.39259,38.81359,138],[-90.39263,38.81355,137],[-90.39268,38.81345,136],[-90.39274,38.81338,135],[-90.39282,38.81335,134],[-90.39291,38.81331,134],[-90.39294,38.81326,133],[-90.39298,38.81318,133],[-90.39302,38.8131,133],[-90.39309,38.81305,133],[-90.39316,38.81297,133],[-90.39324,38.81292,133],[-90.39331,38.81288,134],[-90.39339,38.81284,134],[-90.39349,38.81284,133],[-90.39358,38.81283,133],[-90.39367,38.8128,133],[-90.39375,38.81277,134],[-90.39383,38.81273,134],[-90.3939,38.81272,134],[-90.39397,38.81269,134],[-90.39404,38.81267,134],[-90.39412,38.81263,134],[-90.39422,38.81256,135],[-90.3943,38.81253,135],[-90.39436,38.81248,135],[-90.39441,38.81243,135],[-90.39447,38.81237,136],[-90.39453,38.81229,136],[-90.39459,38.81223,136],[-90.39467,38.81219,136],[-90.39473,38.81211,136],[-90.39478,38.81204,136],[-90.39484,38.81199,136],[-90.39493,38.81193,135],[-90.39498,38.81188,134],[-90.39506,38.81178,133],[-90.39506,38.81173,133]]],
        "bbox": [
          -90.38636,
          38.81717,
          -90.39506,
          38.81159
        ]
      },
      "properties": {
        "name": "7.18.2015"
      }
    }
  ]
}