{
  "type": "FeatureCollection",
  "features": [
    {
      "type": "Feature",
      "geometry": {
        "type": "MultiLineString",
        "coordinates": [[[-90.39087,38.81116,140],[-90.39084,38.81118,141],[-90.3908,38.8112,141],[-90.39077,38.81121,141],[-90.39073,38.81122,141],[-90.3907,38.81123,142],[-90.39067,38.81125,142],[-90.39064,38.81126,142],[-90.3906,38.81126,142],[-90.39057,38.81124,142],[-90.39055,38.81122,142],[-90.39056,38.81118,142],[-90.39053,38.81116,142],[-90.39054,38.81113,142],[-90.39057,38.81111,141],[-90.39052,38.81111,142],[-90.39045,38.81112,142],[-90.3904,38.81113,142],[-90.39034,38.81115,142],[-90.3903,38.81116,142],[-90.39024,38.81117,143],[-90.39019,38.81118,144],[-90.39014,38.81119,144],[-90.39014,38.81123,144],[-90.39013,38.81127,144],[-90.3901,38.81124,144],[-90.39006,38.81122,145],[-90.39004,38.81119,145],[-90.39001,38.81116,146],[-90.39,38.81112,146],[-90.39,38.8111,146],[-90.39,38.81105,146],[-90.38996,38.81109,147],[-90.38995,38.81114,147],[-90.38992,38.81116,147],[-90.38989,38.81117,148],[-90.38985,38.81117,148],[-90.38981,38.81117,149],[-90.38977,38.81118,150],[-90.38973,38.81117,150],[-90.38969,38.81116,150],[-90.38966,38.81115,151],[-90.38962,38.81115,151],[-90.38958,38.81113,151],[-90.38954,38.81115,151],[-90.38951,38.81116,151],[-90.38949,38.81118,151],[-90.38948,38.81121,151],[-90.38945,38.81124,151],[-90.38942,38.81127,152],[-90.38939,38.81128,152],[-90.38937,38.8113,152],[-90.38937,38.81133,152],[-90.38934,38.81135,152],[-90.3893,38.81137,152],[-90.38925,38.81138,152],[-90.38922,38.8114,152],[-90.38917,38.81141,152],[-90.38913,38.8114,152],[-90.3891,38.81145,153],[-90.38915,38.81149,152],[-90.38916,38.81143,152],[-90.38912,38.81146,153],[-90.38911,38.81151,153],[-90.38908,38.81155,154],[-90.38903,38.81154,155],[-90.38898,38.81155,156],[-90.38895,38.81159,157],[-90.38892,38.81165,158],[-90.38888,38.81171,159],[-90.38882,38.81177,160],[-90.38886,38.81168,160],[-90.38889,38.81157,159],[-90.38879,38.81154,161],[-90.38876,38.81163,162],[-90.38869,38.81166,163],[-90.38869,38.81171,163],[-90.38864,38.81174,163],[-90.3886,38.81177,163],[-90.38856,38.8118,164],[-90.38855,38.81183,164],[-90.38855,38.81187,163],[-90.3886,38.81188,162],[-90.38864,38.81189,162],[-90.38867,38.8119,161],[-90.38873,38.81189,160],[-90.38875,38.81187,160],[-90.3888,38.81189,159],[-90.38886,38.8119,157],[-90.38891,38.81191,157],[-90.38896,38.81189,156],[-90.38901,38.81192,156],[-90.38907,38.81193,156],[-90.38898,38.81187,156],[-90.38886,38.81184,158],[-90.3887,38.81196,160],[-90.38867,38.81223,163],[-90.3887,38.8123,164],[-90.38872,38.81233,164],[-90.38868,38.81232,165],[-90.38864,38.81233,165],[-90.38864,38.81236,166],[-90.38859,38.81239,167],[-90.38873,38.81248,166],[-90.38886,38.81262,165],[-90.38861,38.81266,169],[-90.38856,38.8126,170],[-90.3886,38.81256,169],[-90.38857,38.81251,169],[-90.38851,38.81258,171],[-90.38856,38.81258,170],[-90.38849,38.81261,172],[-90.38847,38.81267,173],[-90.38841,38.81269,175],[-90.38833,38.81275,179],[-90.38824,38.81289,184],[-90.38814,38.81297,188],[-90.38803,38.81303,190],[-90.38811,38.81308,190],[-90.38815,38.81315,190],[-90.38831,38.81282,181],[-90.38834,38.81276,179],[-90.38816,38.81276,184],[-90.38806,38.81289,189],[-90.38818,38.81282,184],[-90.38809,38.81287,188],[-90.38806,38.81298,190],[-90.38805,38.81303,190],[-90.38806,38.81308,191],[-90.38808,38.81312,191],[-90.38807,38.81316,192],[-90.388,38.81314,192],[-90.38797,38.81318,193],[-90.38797,38.81323,194],[-90.38793,38.81321,194],[-90.3879,38.81325,194],[-90.38787,38.81328,195],[-90.38786,38.81332,195],[-90.38784,38.81336,196],[-90.3878,38.81338,196],[-90.38776,38.81341,196],[-90.38773,38.81344,196],[-90.38767,38.81345,196],[-90.38759,38.81345,195],[-90.38763,38.81349,196],[-90.38763,38.81353,196],[-90.38761,38.81357,196],[-90.38758,38.8136,196],[-90.38757,38.81363,196],[-90.38757,38.81367,197],[-90.38756,38.81369,197],[-90.38754,38.81372,197],[-90.38754,38.81375,198],[-90.38753,38.81379,198],[-90.38752,38.81382,199],[-90.38752,38.81385,199],[-90.38754,38.81387,199],[-90.38756,38.81389,199],[-90.38757,38.81393,200],[-90.38761,38.81394,200],[-90.38763,38.81396,200],[-90.38767,38.81396,200],[-90.38771,38.81394,200],[-90.38774,38.81392,200],[-90.38777,38.8139,200],[-90.38781,38.81392,199],[-90.38784,38.81393,199],[-90.38788,38.81393,199],[-90.38791,38.81394,199],[-90.38794,38.81396,199],[-90.38797,38.81397,199],[-90.38801,38.81396,199],[-90.38804,38.81394,199],[-90.38809,38.81393,199],[-90.38813,38.81392,198],[-90.38817,38.81392,198],[-90.38822,38.81392,198],[-90.38825,38.81393,198],[-90.38829,38.81395,198],[-90.38832,38.81396,198],[-90.38836,38.81398,198],[-90.38838,38.814,197],[-90.38842,38.81402,197],[-90.38847,38.81402,197],[-90.3885,38.814,196],[-90.38854,38.81399,196],[-90.38857,38.81397,195],[-90.3886,38.81395,195],[-90.38865,38.81395,194],[-90.38869,38.81398,194],[-90.38871,38.814,194],[-90.38875,38.814,193],[-90.3888,38.81399,192],[-90.38886,38.81404,192],[-90.38888,38.81408,192],[-90.389,38.81412,192],[-90.38903,38.8142,192],[-90.38907,38.81426,192],[-90.38914,38.81426,192],[-90.38919,38.81422,192],[-90.38922,38.81428,191],[-90.38923,38.81432,191],[-90.38928,38.81431,191],[-90.38931,38.81433,190],[-90.38931,38.81436,190],[-90.38935,38.81435,190],[-90.3894,38.81434,189],[-90.38944,38.81437,189],[-90.38946,38.8144,189],[-90.38948,38.81443,189],[-90.38951,38.81445,189],[-90.38952,38.81448,189],[-90.38952,38.81451,190],[-90.38951,38.81454,190],[-90.3895,38.81456,190],[-90.38948,38.81459,190],[-90.38947,38.81462,190],[-90.38948,38.81464,190],[-90.38947,38.81467,190],[-90.38946,38.8147,190],[-90.38947,38.81473,191],[-90.38949,38.81476,190],[-90.38951,38.8148,190],[-90.38952,38.81482,190],[-90.38952,38.81485,189],[-90.38951,38.81488,189],[-90.3895,38.81491,189],[-90.38948,38.81494,188],[-90.38951,38.81498,188],[-90.38954,38.815,188],[-90.38957,38.81501,188],[-90.38961,38.81503,188],[-90.38964,38.81505,187],[-90.38966,38.81507,187],[-90.38969,38.8151,186],[-90.38972,38.81512,186],[-90.38974,38.81514,185],[-90.38977,38.81517,185],[-90.3898,38.81519,184],[-90.38983,38.81521,184],[-90.38985,38.81523,183],[-90.38989,38.81525,183],[-90.38991,38.81528,182],[-90.38994,38.81529,182],[-90.38997,38.81531,181],[-90.39001,38.81532,181],[-90.39005,38.81533,181],[-90.39008,38.81534,180],[-90.39011,38.81537,180],[-90.39015,38.81538,180],[-90.39018,38.8154,180],[-90.39022,38.81541,179],[-90.39026,38.81541,180],[-90.3903,38.81542,180],[-90.39034,38.81543,180],[-90.39037,38.81545,180],[-90.39041,38.81547,180],[-90.39045,38.81548,181],[-90.39049,38.81548,181],[-90.39053,38.81547,182],[-90.39056,38.8155,182],[-90.39059,38.81553,182],[-90.39061,38.81556,182],[-90.39064,38.81557,182],[-90.39068,38.81557,183],[-90.39072,38.81556,183],[-90.39076,38.81556,184],[-90.3908,38.81555,184],[-90.39084,38.81554,185],[-90.39088,38.81553,185],[-90.39091,38.81552,185],[-90.39094,38.8155,185],[-90.39098,38.81549,185],[-90.39102,38.81549,185],[-90.39107,38.81549,186],[-90.39111,38.81549,186],[-90.39113,38.81547,186],[-90.39117,38.81546,186],[-90.39121,38.81547,185],[-90.39125,38.81547,185],[-90.39128,38.81546,185],[-90.39132,38.81547,185],[-90.39135,38.81548,185],[-90.39139,38.81549,185],[-90.39142,38.8155,184],[-90.39145,38.81553,184],[-90.39148,38.81555,184],[-90.3915,38.81558,183],[-90.39153,38.8156,183],[-90.39155,38.81563,182],[-90.39157,38.81565,182],[-90.39159,38.81568,182],[-90.39163,38.81569,181],[-90.39167,38.81571,181],[-90.39169,38.81573,180],[-90.39171,38.81575,179],[-90.39173,38.81578,178],[-90.39173,38.81581,178],[-90.39173,38.81585,177],[-90.39174,38.81588,176],[-90.39173,38.81591,176],[-90.39174,38.81594,175],[-90.39174,38.81597,174],[-90.39175,38.816,174],[-90.39176,38.81604,172],[-90.39176,38.81607,172],[-90.39177,38.8161,171],[-90.39176,38.81612,170],[-90.39173,38.81614,171],[-90.3917,38.81616,171],[-90.39169,38.81619,170],[-90.39169,38.81623,168],[-90.39167,38.81626,168],[-90.39167,38.81629,167],[-90.39169,38.81631,166],[-90.39169,38.81634,164],[-90.39167,38.81636,164],[-90.39164,38.81639,164],[-90.39162,38.81642,164],[-90.39165,38.81644,162],[-90.39165,38.81647,162],[-90.39161,38.81649,162],[-90.39158,38.8165,162],[-90.39154,38.81651,163],[-90.39151,38.81651,164],[-90.3915,38.81655,163],[-90.39147,38.81658,162],[-90.39144,38.8166,162],[-90.3914,38.81662,163],[-90.39138,38.81664,163],[-90.39141,38.81662,163],[-90.39144,38.81662,162],[-90.39147,38.8166,162],[-90.39151,38.81659,161],[-90.39147,38.81651,165],[-90.39151,38.81645,166],[-90.39153,38.81656,162],[-90.39156,38.81653,162],[-90.39158,38.81649,163],[-90.39159,38.81646,163],[-90.3916,38.81643,164],[-90.39161,38.8164,165],[-90.39163,38.81637,165],[-90.39166,38.81635,165],[-90.39168,38.81633,165],[-90.39169,38.81629,166],[-90.3917,38.81626,167],[-90.3917,38.81623,168],[-90.39171,38.81619,170],[-90.39172,38.81616,170],[-90.39173,38.81613,171],[-90.39176,38.81611,171],[-90.39176,38.81608,171],[-90.39176,38.81605,172],[-90.39178,38.81602,172],[-90.3918,38.816,172],[-90.39182,38.81597,172],[-90.39183,38.81594,172],[-90.39183,38.81591,173],[-90.39183,38.81587,174],[-90.39183,38.81585,174],[-90.39182,38.81582,175],[-90.3918,38.81579,176],[-90.39177,38.81577,177],[-90.39172,38.81575,179],[-90.39169,38.81571,180],[-90.39174,38.81567,180],[-90.39181,38.81567,178],[-90.39187,38.8157,176],[-90.39192,38.81571,175],[-90.39195,38.81568,174],[-90.3919,38.81567,176],[-90.39192,38.81564,176],[-90.39193,38.81561,177],[-90.39191,38.81558,178],[-90.39194,38.81555,178],[-90.39197,38.81556,176],[-90.39195,38.81559,176],[-90.39199,38.81557,175],[-90.392,38.81552,175],[-90.39201,38.81547,174],[-90.39201,38.81543,174],[-90.392,38.8154,174],[-90.39199,38.81537,175],[-90.39198,38.81534,175],[-90.39194,38.81533,176],[-90.3919,38.81531,176],[-90.39192,38.81526,175],[-90.39195,38.81524,174],[-90.39197,38.81521,172],[-90.39193,38.81515,171],[-90.3919,38.81522,174],[-90.39186,38.81529,177],[-90.39191,38.81532,176],[-90.39194,38.81527,175],[-90.39195,38.81524,174],[-90.39198,38.81521,172],[-90.392,38.81518,171],[-90.39201,38.81515,169],[-90.392,38.81512,168],[-90.39198,38.81509,168],[-90.392,38.81506,166],[-90.39202,38.81504,165],[-90.392,38.81499,164],[-90.39196,38.81497,165],[-90.39193,38.81495,165],[-90.3919,38.81492,166],[-90.39187,38.8149,167],[-90.39187,38.81487,167],[-90.3919,38.81486,165],[-90.39192,38.81483,164],[-90.39189,38.8148,165],[-90.3919,38.81477,164],[-90.39189,38.81474,164],[-90.39188,38.81471,164],[-90.39187,38.81468,164],[-90.39188,38.81465,163],[-90.39188,38.81462,163],[-90.39186,38.81459,163],[-90.39185,38.81456,163],[-90.3918,38.81455,164],[-90.39176,38.81455,165],[-90.39176,38.81452,165],[-90.39177,38.81449,164],[-90.3918,38.81447,163],[-90.39179,38.8145,164],[-90.39181,38.81453,164],[-90.39184,38.81456,163],[-90.39188,38.81458,162],[-90.39191,38.8146,162],[-90.39192,38.81464,162],[-90.39192,38.81467,162],[-90.39189,38.81468,163],[-90.39188,38.81471,164],[-90.39187,38.81474,165],[-90.39184,38.81476,166],[-90.3918,38.81476,167],[-90.39181,38.8148,168],[-90.39183,38.81484,167],[-90.3918,38.81488,169],[-90.39196,38.81484,163],[-90.39193,38.81469,162],[-90.3921,38.81471,160],[-90.39218,38.81485,159],[-90.39203,38.81476,161],[-90.39196,38.81485,164],[-90.3919,38.81481,165],[-90.39188,38.81476,165],[-90.39193,38.81479,164],[-90.39191,38.81473,164],[-90.39189,38.81468,163],[-90.39187,38.81464,164],[-90.39186,38.8146,163],[-90.39184,38.81456,163],[-90.39183,38.81453,163],[-90.39182,38.81449,163],[-90.3918,38.81447,163],[-90.39179,38.81444,163],[-90.39178,38.81441,162],[-90.39178,38.81438,162],[-90.39178,38.81434,160],[-90.39178,38.8143,159],[-90.39177,38.81428,159],[-90.3918,38.8143,159],[-90.39183,38.81428,157],[-90.39182,38.81424,157],[-90.39183,38.81422,156],[-90.39184,38.81418,154],[-90.39187,38.81416,153],[-90.39189,38.81413,151],[-90.39192,38.81411,149],[-90.39195,38.81411,149],[-90.39199,38.81409,147],[-90.39203,38.81408,146],[-90.39207,38.81407,146],[-90.39211,38.81406,145],[-90.39215,38.81405,144],[-90.39218,38.81404,143],[-90.39222,38.81404,142],[-90.39226,38.81402,141],[-90.39229,38.81401,141],[-90.39233,38.814,141],[-90.39235,38.81397,139],[-90.39236,38.81394,138],[-90.39239,38.81391,137],[-90.39239,38.81389,135],[-90.39243,38.81388,136],[-90.39241,38.8139,136],[-90.39238,38.81393,138],[-90.39237,38.81396,139],[-90.39236,38.814,141],[-90.39235,38.81402,142],[-90.39233,38.81405,143],[-90.3923,38.81407,145],[-90.39226,38.81408,145],[-90.39223,38.81408,145],[-90.39219,38.81406,144],[-90.39216,38.81404,143],[-90.39214,38.81402,142],[-90.39211,38.814,141],[-90.39206,38.81398,141],[-90.39204,38.81396,140],[-90.39202,38.81394,139],[-90.39199,38.81391,138],[-90.39197,38.81389,137],[-90.39194,38.81388,138],[-90.39192,38.81386,139],[-90.39188,38.81384,140],[-90.39184,38.81382,141],[-90.39181,38.8138,142],[-90.39178,38.81379,143],[-90.39175,38.81376,143],[-90.39172,38.81374,144],[-90.3917,38.81372,144],[-90.39169,38.81369,144],[-90.39168,38.81366,143],[-90.39166,38.81364,143],[-90.39163,38.81361,143],[-90.39161,38.81358,144],[-90.3916,38.81355,145],[-90.3916,38.81351,145],[-90.39159,38.81348,146],[-90.39157,38.81344,147],[-90.39157,38.81342,147],[-90.39156,38.81339,147],[-90.39153,38.81337,148],[-90.3915,38.81335,149],[-90.39147,38.81334,149],[-90.39144,38.81333,150],[-90.3914,38.81331,150],[-90.39137,38.8133,151],[-90.39134,38.81327,151],[-90.39132,38.81325,151],[-90.39129,38.81322,152],[-90.39126,38.8132,152],[-90.39125,38.81317,152],[-90.39123,38.81314,152],[-90.3912,38.81313,153],[-90.39119,38.8131,153],[-90.39118,38.81307,153],[-90.39116,38.81304,152],[-90.39114,38.81301,152],[-90.39112,38.81297,151],[-90.39109,38.81295,151],[-90.39107,38.81293,151],[-90.39104,38.81291,151],[-90.39105,38.81288,150],[-90.39105,38.81285,149],[-90.39103,38.81282,149],[-90.39103,38.81279,148],[-90.39105,38.81277,147],[-90.39104,38.81272,146],[-90.39103,38.81269,146],[-90.39102,38.81266,145],[-90.39099,38.81264,145],[-90.39099,38.81262,145],[-90.39103,38.81261,144],[-90.39101,38.81257,143],[-90.39099,38.81255,143],[-90.39098,38.81252,142],[-90.39098,38.81249,142],[-90.39098,38.81246,143],[-90.39096,38.81243,144],[-90.39093,38.81241,145],[-90.39092,38.81239,145],[-90.39092,38.81236,146],[-90.39091,38.81233,147],[-90.39089,38.8123,147],[-90.39088,38.81227,148],[-90.39088,38.81224,149],[-90.39088,38.81221,149],[-90.39088,38.81218,149],[-90.39088,38.81215,149],[-90.39088,38.81212,149],[-90.39089,38.81209,149],[-90.3909,38.81206,149],[-90.39091,38.81202,149],[-90.39093,38.812,149],[-90.39094,38.81197,150],[-90.39093,38.81194,149],[-90.39092,38.81191,149],[-90.39091,38.81188,149],[-90.3909,38.81186,148],[-90.3909,38.81183,148],[-90.3909,38.8118,148],[-90.39092,38.81177,147],[-90.39094,38.81174,147],[-90.39095,38.81171,146],[-90.39097,38.81168,146],[-90.39099,38.81166,145],[-90.39102,38.81164,145],[-90.39105,38.81163,144],[-90.39108,38.81161,144],[-90.39109,38.81158,143],[-90.39108,38.81154,143],[-90.39108,38.81151,142],[-90.39108,38.81148,142],[-90.39107,38.81145,142],[-90.39106,38.81142,141],[-90.39106,38.81139,141],[-90.39102,38.81137,141],[-90.39098,38.81135,141],[-90.39096,38.81133,141],[-90.39093,38.81131,141],[-90.39091,38.81129,141],[-90.39089,38.81126,141],[-90.39087,38.81123,141],[-90.39085,38.81121,141],[-90.39084,38.81118,141],[-90.39086,38.81114,140],[-90.39088,38.8111,140],[-90.39089,38.81107,139],[-90.3909,38.81103,139],[-90.3909,38.811,139],[-90.39087,38.81098,139],[-90.39085,38.81096,139],[-90.39083,38.81094,139],[-90.39081,38.81091,138],[-90.39078,38.81089,138],[-90.39076,38.81086,138],[-90.39076,38.81083,138],[-90.39076,38.8108,138],[-90.39075,38.81077,138],[-90.39075,38.81074,138],[-90.39076,38.8107,139],[-90.39077,38.81068,139],[-90.39081,38.81067,139],[-90.39085,38.81066,139],[-90.39088,38.81065,139],[-90.39086,38.81067,139],[-90.39083,38.81068,139],[-90.39079,38.81067,139],[-90.39076,38.81065,139],[-90.39079,38.81067,139],[-90.3908,38.81066,139]]],
        "bbox": [
          -90.38752,
          38.81664,
          -90.39243,
          38.81065
        ]
      },
      "properties": {
        "name": "11.11.2025A"
      }
    }
  ]
}