{
  "type": "FeatureCollection",
  "features": [
    {
      "type": "Feature",
      "geometry": {
        "type": "MultiLineString",
        "coordinates": [[[-90.39336,38.81293,133],[-90.39333,38.81294,133],[-90.3933,38.81296,133],[-90.39326,38.81299,133],[-90.39323,38.81301,133],[-90.39321,38.81304,133],[-90.39319,38.81306,132],[-90.39317,38.81309,132],[-90.39314,38.81311,132],[-90.39311,38.81313,132],[-90.39307,38.81315,132],[-90.39304,38.81316,133],[-90.393,38.81317,133],[-90.39297,38.81319,133],[-90.39293,38.81321,133],[-90.3929,38.81324,133],[-90.39288,38.81326,134],[-90.39285,38.81328,134],[-90.39282,38.8133,134],[-90.39279,38.81332,134],[-90.39276,38.81334,135],[-90.39274,38.81338,135],[-90.39271,38.81341,136],[-90.39269,38.81343,136],[-90.39266,38.81345,136],[-90.39264,38.81349,137],[-90.39261,38.81351,137],[-90.39258,38.81354,138],[-90.39256,38.81356,138],[-90.39253,38.81359,138],[-90.3925,38.81362,138],[-90.39248,38.81365,138],[-90.39247,38.81368,138],[-90.39246,38.81372,138],[-90.39246,38.81375,138],[-90.39245,38.81378,137],[-90.39243,38.81381,137],[-90.39241,38.81384,136],[-90.3924,38.81386,136],[-90.39238,38.81389,135],[-90.39237,38.81392,137],[-90.39234,38.81394,137],[-90.3923,38.81397,139],[-90.39228,38.814,140],[-90.39226,38.81402,141],[-90.39222,38.81403,142],[-90.39219,38.81405,143],[-90.39216,38.81407,145],[-90.39217,38.8141,146],[-90.39218,38.81412,148],[-90.39221,38.81415,150],[-90.39223,38.81417,151],[-90.39225,38.8142,151],[-90.39228,38.81423,151],[-90.39231,38.81425,152],[-90.39233,38.81427,152],[-90.39236,38.8143,152],[-90.3924,38.81432,153],[-90.39243,38.81435,153],[-90.39248,38.81438,154],[-90.39251,38.8144,154],[-90.39254,38.81442,155],[-90.39256,38.81445,155],[-90.3926,38.81448,154],[-90.39262,38.8145,154],[-90.39264,38.81453,154],[-90.39267,38.81456,153],[-90.3927,38.81459,153],[-90.39274,38.81461,152],[-90.39278,38.81463,152],[-90.39281,38.81465,151],[-90.39284,38.81467,150],[-90.39286,38.8147,150],[-90.39287,38.81472,150],[-90.39288,38.81475,149],[-90.3929,38.81478,149],[-90.3929,38.8148,149],[-90.39289,38.81483,149],[-90.39288,38.81486,149],[-90.39288,38.8149,149],[-90.39289,38.81494,149],[-90.39291,38.81497,149],[-90.39292,38.81501,148],[-90.39294,38.81504,148],[-90.39296,38.81506,148],[-90.39299,38.8151,148],[-90.393,38.81513,147],[-90.39303,38.81516,147],[-90.39306,38.81519,146],[-90.39308,38.81523,145],[-90.39308,38.81526,145],[-90.39305,38.81528,146],[-90.39303,38.81531,145],[-90.39301,38.81533,145],[-90.39297,38.81534,146],[-90.39293,38.81533,147],[-90.39289,38.81535,147],[-90.39286,38.81535,148],[-90.39282,38.81536,149],[-90.39278,38.81535,150],[-90.39275,38.81537,150],[-90.3927,38.81538,152],[-90.39267,38.81539,152],[-90.39264,38.81541,153],[-90.39262,38.81544,153],[-90.3926,38.81547,153],[-90.39258,38.8155,153],[-90.39256,38.81554,153],[-90.39254,38.81557,154],[-90.39251,38.81559,154],[-90.39251,38.81562,154],[-90.39252,38.81566,152],[-90.39253,38.81569,151],[-90.39255,38.81572,150],[-90.39257,38.81574,148],[-90.39259,38.81577,147],[-90.39259,38.8158,146],[-90.39259,38.81583,146],[-90.39259,38.81587,145],[-90.3926,38.8159,145],[-90.39259,38.81593,145],[-90.39259,38.81596,145],[-90.39258,38.816,146],[-90.39258,38.81602,146],[-90.39257,38.81605,146],[-90.39254,38.81606,147],[-90.39251,38.81608,148],[-90.39247,38.81608,149],[-90.39243,38.81609,151],[-90.3924,38.8161,152],[-90.39236,38.81611,153],[-90.39233,38.81612,154],[-90.39231,38.81615,153],[-90.3923,38.81618,153],[-90.39228,38.8162,153],[-90.39226,38.81623,153],[-90.39226,38.81626,152],[-90.39225,38.81629,151],[-90.39226,38.81632,150],[-90.39226,38.81635,149],[-90.39225,38.81638,148],[-90.39222,38.81641,148],[-90.39223,38.81644,148],[-90.39227,38.81646,147],[-90.39225,38.81651,147],[-90.39223,38.81653,147],[-90.39221,38.81655,147],[-90.39217,38.81656,148],[-90.39214,38.81656,148],[-90.3921,38.81656,149],[-90.39207,38.81658,150],[-90.39205,38.81661,149],[-90.39202,38.81662,150],[-90.39199,38.81663,150],[-90.39197,38.81666,150],[-90.39196,38.81669,150],[-90.39194,38.81672,150],[-90.39192,38.81674,150],[-90.39189,38.81676,150],[-90.39185,38.81678,151],[-90.39182,38.8168,150],[-90.39179,38.81682,150],[-90.39176,38.81685,150],[-90.39173,38.81687,149],[-90.39169,38.81689,149],[-90.39165,38.8169,149],[-90.39162,38.81692,149],[-90.39159,38.81693,149],[-90.39155,38.81694,150],[-90.39151,38.81695,150],[-90.39146,38.81695,151],[-90.39143,38.81697,151],[-90.3914,38.817,150],[-90.39137,38.81702,150],[-90.39133,38.81704,150],[-90.3913,38.81706,149],[-90.39127,38.81708,149],[-90.39124,38.8171,148],[-90.39121,38.81712,148],[-90.39118,38.81714,148],[-90.39115,38.81716,147],[-90.39112,38.81718,147],[-90.39109,38.8172,147],[-90.39107,38.81723,146],[-90.39103,38.81725,146],[-90.391,38.81727,146],[-90.39097,38.81729,146],[-90.39094,38.81731,146],[-90.39091,38.81733,146],[-90.39089,38.81736,145],[-90.39086,38.81739,145],[-90.39084,38.81741,144],[-90.3908,38.81743,144],[-90.39076,38.81743,145],[-90.39072,38.81744,145],[-90.39069,38.81747,145],[-90.39065,38.81749,145],[-90.39061,38.81749,145],[-90.39059,38.81746,147],[-90.39059,38.81744,147],[-90.39056,38.81744,148],[-90.39052,38.81744,148],[-90.39049,38.81747,147],[-90.3905,38.81749,146],[-90.39049,38.81753,146],[-90.39048,38.81756,145],[-90.39045,38.81759,145],[-90.39042,38.81761,145],[-90.39039,38.81763,144],[-90.39036,38.81765,144],[-90.39031,38.81766,145],[-90.39028,38.81766,145],[-90.39023,38.81767,146],[-90.39019,38.81768,146],[-90.39015,38.81768,147],[-90.39011,38.81768,147],[-90.39006,38.81768,148],[-90.39003,38.8177,148],[-90.38999,38.81772,148],[-90.38996,38.81774,148],[-90.38993,38.81776,149],[-90.3899,38.81779,148],[-90.38986,38.81782,148],[-90.38984,38.81784,148],[-90.3898,38.81786,148],[-90.38976,38.81788,149],[-90.3897,38.81788,149],[-90.38967,38.81786,150],[-90.38963,38.81787,150],[-90.38959,38.81789,149],[-90.38955,38.81791,149],[-90.38952,38.81792,149],[-90.38948,38.81793,149],[-90.38944,38.81794,149],[-90.3894,38.81795,149],[-90.38936,38.81795,150],[-90.38932,38.81795,151],[-90.38929,38.81794,151],[-90.38926,38.81796,151],[-90.38921,38.81797,152],[-90.38917,38.81797,152],[-90.38913,38.81796,154],[-90.38909,38.81797,154],[-90.38907,38.81799,154],[-90.38903,38.818,155],[-90.38899,38.81801,155],[-90.38896,38.81801,156],[-90.38892,38.81801,157],[-90.38888,38.818,158],[-90.38885,38.81801,159],[-90.38883,38.81804,158],[-90.38883,38.81807,157],[-90.3888,38.8181,157],[-90.38878,38.81812,156],[-90.38876,38.81815,155],[-90.38874,38.81818,154],[-90.38872,38.81821,153],[-90.3887,38.81823,153],[-90.38867,38.81825,152],[-90.38863,38.81826,153],[-90.38859,38.81827,152],[-90.38857,38.8183,151],[-90.38854,38.81833,150],[-90.3885,38.81835,149],[-90.38848,38.81838,148],[-90.38845,38.8184,147],[-90.38841,38.81842,146],[-90.38837,38.81844,145],[-90.38834,38.81847,144],[-90.38834,38.8185,142],[-90.38833,38.81853,141],[-90.38829,38.81854,141],[-90.38827,38.81858,140],[-90.38825,38.81861,139],[-90.38822,38.81863,139],[-90.38819,38.81864,139],[-90.38816,38.81866,140],[-90.38812,38.81867,140],[-90.38809,38.81867,140],[-90.38804,38.81868,141],[-90.38801,38.81869,141],[-90.38798,38.8187,142],[-90.38795,38.81871,142],[-90.38791,38.81873,142],[-90.38788,38.81875,142],[-90.38785,38.81876,142],[-90.38782,38.81878,143],[-90.38778,38.81879,143],[-90.38774,38.81881,143],[-90.38771,38.81882,143],[-90.38767,38.81883,143],[-90.38762,38.81884,143],[-90.38758,38.81885,142],[-90.38755,38.81886,142],[-90.38752,38.8189,141],[-90.3875,38.81893,140],[-90.38748,38.81896,139],[-90.38747,38.819,138],[-90.38744,38.81903,137],[-90.38744,38.81906,136],[-90.38744,38.81909,135],[-90.38741,38.81912,134],[-90.38736,38.81913,133],[-90.38731,38.81914,133],[-90.38728,38.81916,132],[-90.38724,38.81917,132],[-90.3872,38.81918,132],[-90.38716,38.8192,132],[-90.38713,38.8192,132],[-90.38709,38.8192,132],[-90.38706,38.81923,132],[-90.38703,38.81924,132],[-90.38699,38.81926,132],[-90.38694,38.81926,132],[-90.3869,38.81929,132],[-90.38688,38.81931,132],[-90.38684,38.81932,133],[-90.38681,38.81934,133],[-90.38678,38.81936,133],[-90.38677,38.81939,132],[-90.38676,38.81942,132],[-90.38673,38.81944,132],[-90.38671,38.81946,131],[-90.38668,38.81947,131],[-90.38665,38.81946,131],[-90.38661,38.81947,131],[-90.38657,38.81948,131],[-90.38655,38.8195,131],[-90.38652,38.81952,131],[-90.38648,38.8195,131],[-90.38644,38.81951,131],[-90.38641,38.81951,131],[-90.38637,38.81953,131],[-90.38633,38.81954,132],[-90.38629,38.81956,132],[-90.38625,38.81957,133],[-90.3862,38.81957,134],[-90.38614,38.81957,134],[-90.3861,38.81956,135],[-90.38606,38.81956,135],[-90.386,38.81957,136],[-90.38595,38.81959,135],[-90.38591,38.8196,135],[-90.38587,38.81961,135],[-90.38582,38.81961,135],[-90.38573,38.8196,135],[-90.38568,38.81962,135],[-90.38565,38.8196,135],[-90.38561,38.81959,136],[-90.38558,38.81958,136],[-90.38554,38.81956,137],[-90.3855,38.81953,138],[-90.38548,38.8195,139],[-90.38545,38.81947,141],[-90.38542,38.81946,141],[-90.38538,38.81945,141],[-90.38534,38.81945,141],[-90.3853,38.81944,142],[-90.38526,38.81942,142],[-90.38524,38.8194,142],[-90.38526,38.81942,142],[-90.3853,38.81944,142],[-90.38534,38.81945,141],[-90.38536,38.81948,140],[-90.38539,38.81949,140],[-90.38543,38.81951,139],[-90.38546,38.81952,139],[-90.38547,38.81955,137],[-90.3855,38.81956,137],[-90.38554,38.81957,137],[-90.38558,38.81958,136],[-90.38561,38.8196,135],[-90.3856,38.81963,134],[-90.38562,38.81965,133],[-90.38565,38.81967,133],[-90.38562,38.8197,131],[-90.38558,38.8197,131],[-90.38554,38.8197,131],[-90.3855,38.8197,131],[-90.38547,38.81971,131],[-90.38543,38.81972,131],[-90.38539,38.81972,131],[-90.38535,38.81972,131],[-90.38531,38.81973,131],[-90.38528,38.81974,131],[-90.38523,38.81974,131],[-90.3852,38.81974,131],[-90.38516,38.81974,131],[-90.38512,38.81974,131],[-90.38508,38.81975,131],[-90.38504,38.81976,131],[-90.38501,38.81976,131],[-90.38496,38.81976,132],[-90.38493,38.81976,133],[-90.38488,38.81976,134],[-90.38485,38.81976,135],[-90.38481,38.81976,136],[-90.38477,38.81977,137],[-90.38474,38.81977,138],[-90.3847,38.81977,139],[-90.38467,38.81979,138]],[[-90.38466,38.8198,137],[-90.38468,38.81977,139],[-90.38472,38.81976,139],[-90.38475,38.81976,138],[-90.38479,38.81976,137],[-90.38484,38.81976,135],[-90.38488,38.81975,134],[-90.38492,38.81975,133],[-90.38496,38.81974,132],[-90.385,38.81974,131],[-90.38503,38.81974,131],[-90.38507,38.81974,131],[-90.38511,38.81975,131],[-90.38514,38.81974,131],[-90.38518,38.81975,131],[-90.38521,38.81976,131],[-90.38525,38.81976,131],[-90.38529,38.81976,131],[-90.38532,38.81976,131],[-90.38536,38.81974,131],[-90.3854,38.81973,131],[-90.38544,38.81972,131],[-90.38547,38.81972,131],[-90.38551,38.81973,131],[-90.38555,38.81972,131],[-90.38559,38.81972,131],[-90.38562,38.81971,131],[-90.38565,38.81969,132],[-90.38569,38.81969,132],[-90.38572,38.81971,131],[-90.38575,38.81972,131],[-90.3858,38.81972,131],[-90.38584,38.81972,131],[-90.38587,38.81971,131],[-90.38591,38.8197,131],[-90.38595,38.8197,131],[-90.38599,38.81971,131],[-90.38602,38.81971,131],[-90.38603,38.81968,132],[-90.38607,38.81967,132],[-90.3861,38.81968,132],[-90.38614,38.81969,131],[-90.38618,38.8197,131],[-90.38621,38.8197,131],[-90.38625,38.8197,131],[-90.38628,38.81968,131],[-90.38632,38.81967,131],[-90.38635,38.81966,131],[-90.38639,38.81965,131],[-90.38642,38.81964,131],[-90.38645,38.81962,131],[-90.38648,38.8196,131],[-90.3865,38.81958,131],[-90.38653,38.81956,131],[-90.38657,38.81955,131],[-90.3866,38.81953,131],[-90.38664,38.81952,131],[-90.38666,38.8195,131],[-90.38668,38.81947,131],[-90.38669,38.81944,132],[-90.38672,38.81942,132],[-90.38675,38.8194,132],[-90.38678,38.81938,132],[-90.3868,38.81935,133],[-90.38684,38.81933,133],[-90.38689,38.81932,132],[-90.38692,38.81931,132],[-90.38694,38.81928,132],[-90.38698,38.81927,132],[-90.38701,38.81927,132],[-90.38704,38.81925,132],[-90.38707,38.81922,132],[-90.3871,38.81919,132],[-90.38713,38.81918,132],[-90.38716,38.81918,132],[-90.38719,38.81915,132],[-90.38723,38.81914,133],[-90.38726,38.81913,133],[-90.3873,38.81911,134],[-90.38734,38.81909,135],[-90.38738,38.81909,135],[-90.38742,38.81908,135],[-90.38744,38.81904,137],[-90.38744,38.81901,138],[-90.38746,38.81898,139],[-90.3875,38.81896,139],[-90.38752,38.81893,140],[-90.38754,38.81891,141],[-90.38756,38.81889,141],[-90.38759,38.81886,142],[-90.38764,38.81885,142],[-90.38768,38.81885,142],[-90.38772,38.81884,142],[-90.38777,38.81883,142],[-90.3878,38.81882,142],[-90.38784,38.8188,142],[-90.38788,38.81878,142],[-90.38791,38.81876,142],[-90.38794,38.81873,142],[-90.38797,38.81872,141],[-90.38801,38.81872,141],[-90.38806,38.81872,140],[-90.3881,38.81872,140],[-90.38814,38.81872,139],[-90.38819,38.81871,139],[-90.38821,38.81869,139],[-90.38824,38.81866,139],[-90.38827,38.81864,138],[-90.3883,38.81861,138],[-90.38831,38.81858,139],[-90.38832,38.81855,140],[-90.38835,38.81853,141],[-90.38838,38.8185,142],[-90.38839,38.81848,143],[-90.38841,38.81845,144],[-90.38845,38.81844,145],[-90.38848,38.81843,145],[-90.38852,38.81842,146],[-90.38855,38.81841,146],[-90.38857,38.81838,148],[-90.38859,38.81835,149],[-90.38862,38.81833,150],[-90.38864,38.8183,151],[-90.38867,38.81827,151],[-90.38871,38.81826,151],[-90.38875,38.81826,151],[-90.38878,38.81826,150],[-90.38882,38.81824,150],[-90.38885,38.81821,151],[-90.38887,38.81818,152],[-90.38889,38.81815,153],[-90.38891,38.81812,153],[-90.38892,38.81809,154],[-90.38893,38.81806,155],[-90.38897,38.81804,155],[-90.38899,38.81806,154],[-90.38902,38.81808,152],[-90.38906,38.81809,151],[-90.38909,38.81809,150],[-90.38912,38.81807,150],[-90.38915,38.81805,150],[-90.38919,38.81804,150],[-90.38923,38.81804,149],[-90.38927,38.81806,148],[-90.38931,38.81806,148],[-90.38932,38.81803,148],[-90.38936,38.81801,149],[-90.3894,38.81802,148],[-90.38943,38.81803,147],[-90.38948,38.81802,147],[-90.38952,38.81803,147],[-90.38955,38.81805,147],[-90.38958,38.81806,146],[-90.38961,38.81804,147],[-90.38964,38.81803,147],[-90.38967,38.81802,147],[-90.38971,38.81801,147],[-90.38975,38.818,147],[-90.38979,38.81798,147],[-90.38982,38.81796,147],[-90.38985,38.81795,146],[-90.38988,38.81795,146],[-90.38992,38.81794,146],[-90.38996,38.81795,145],[-90.39001,38.81794,144],[-90.39004,38.81794,144],[-90.39008,38.81792,144],[-90.39012,38.81791,143],[-90.39017,38.8179,143],[-90.39021,38.8179,142],[-90.39024,38.81788,142],[-90.39028,38.81787,141],[-90.3903,38.81784,142],[-90.39033,38.81782,141],[-90.39036,38.8178,141],[-90.3904,38.81779,141],[-90.39043,38.81778,141],[-90.39047,38.81777,141],[-90.3905,38.81776,140],[-90.39054,38.81775,140],[-90.39058,38.81774,140],[-90.3906,38.81771,140],[-90.39063,38.81769,140],[-90.39066,38.81768,140],[-90.39065,38.81765,141],[-90.39062,38.81763,142],[-90.39058,38.81761,143],[-90.39056,38.81759,144],[-90.39054,38.81756,144],[-90.39052,38.81753,145],[-90.39052,38.8175,146],[-90.39052,38.81747,147],[-90.39054,38.81745,147],[-90.39058,38.81744,147],[-90.39061,38.81742,148],[-90.39059,38.81739,149],[-90.39058,38.81736,150],[-90.39056,38.81734,151],[-90.39054,38.81731,152],[-90.39057,38.81729,153],[-90.39054,38.81728,154],[-90.39051,38.81727,154],[-90.39047,38.81726,154],[-90.3905,38.81723,155],[-90.39053,38.81723,155],[-90.39056,38.81722,156],[-90.39057,38.81719,156],[-90.39057,38.81717,157],[-90.39058,38.81713,158],[-90.39059,38.81711,159],[-90.39063,38.81709,159],[-90.39065,38.81706,160],[-90.39064,38.81703,161],[-90.39062,38.81701,162],[-90.39061,38.81698,163],[-90.39059,38.81694,164],[-90.39059,38.81692,164],[-90.39061,38.8169,164],[-90.39064,38.81688,164],[-90.39066,38.81685,165],[-90.39069,38.81683,165],[-90.39073,38.81682,165],[-90.39076,38.81682,164],[-90.39079,38.81683,164],[-90.39083,38.81682,164],[-90.39083,38.81679,164],[-90.39087,38.81679,164],[-90.3909,38.81677,164],[-90.39091,38.81674,165],[-90.39094,38.81672,165],[-90.39097,38.81672,165],[-90.391,38.81674,164],[-90.39102,38.81677,163],[-90.39102,38.8168,162],[-90.39102,38.81684,161],[-90.39102,38.81687,161],[-90.39101,38.8169,160],[-90.39104,38.81691,159],[-90.39107,38.8169,159],[-90.3911,38.81687,160],[-90.39112,38.81684,160],[-90.39115,38.81683,160],[-90.39119,38.81681,160],[-90.39123,38.81679,160],[-90.39126,38.81679,160],[-90.3913,38.81679,159],[-90.39131,38.81676,160],[-90.39131,38.81673,161],[-90.39133,38.8167,161],[-90.39137,38.81668,161],[-90.39139,38.81666,162],[-90.39142,38.81665,161],[-90.39146,38.81663,161],[-90.39149,38.81662,161]],[[-90.39147,38.81657,163],[-90.39149,38.81655,163],[-90.39151,38.81652,163],[-90.39154,38.8165,163],[-90.39156,38.81647,164],[-90.39157,38.81645,164],[-90.39157,38.81642,165],[-90.39159,38.81639,165],[-90.39161,38.81637,166],[-90.39163,38.81634,166],[-90.39166,38.81631,166],[-90.39166,38.81628,167],[-90.39167,38.81625,168],[-90.39169,38.81621,169],[-90.3917,38.81618,170],[-90.39171,38.81615,171],[-90.39172,38.81612,172],[-90.39173,38.81609,172],[-90.39174,38.81605,173],[-90.39175,38.81601,173],[-90.39175,38.81598,174],[-90.39175,38.81594,175],[-90.39174,38.8159,176],[-90.39174,38.81587,177],[-90.39174,38.81584,177],[-90.39173,38.8158,178],[-90.39173,38.81577,178],[-90.39173,38.81574,179],[-90.39174,38.81571,179],[-90.39173,38.81568,180],[-90.39169,38.81568,181],[-90.39165,38.81566,182],[-90.39164,38.81563,182],[-90.39162,38.8156,182],[-90.3916,38.81557,183],[-90.39159,38.81555,183],[-90.39157,38.81552,183],[-90.39154,38.8155,183],[-90.39151,38.81548,183],[-90.39148,38.81546,184],[-90.39144,38.81544,184],[-90.3914,38.81543,185],[-90.39137,38.81543,185],[-90.39132,38.81542,185],[-90.39128,38.81541,185],[-90.39123,38.81541,186],[-90.39119,38.81541,186],[-90.39115,38.81542,186],[-90.39112,38.81543,186],[-90.39108,38.81544,186],[-90.39104,38.81544,186],[-90.391,38.81544,186],[-90.39095,38.81545,186],[-90.39091,38.81545,185],[-90.39087,38.81545,185],[-90.39083,38.81545,185],[-90.39079,38.81545,185],[-90.39075,38.81544,184],[-90.3907,38.81544,184],[-90.39066,38.81542,184],[-90.39062,38.81542,183],[-90.39059,38.81542,183],[-90.39055,38.81541,182],[-90.3905,38.8154,182],[-90.39047,38.81538,182],[-90.39043,38.81537,182],[-90.39038,38.81537,181],[-90.39034,38.81535,181],[-90.39029,38.81534,181],[-90.39026,38.81533,181],[-90.39022,38.81532,181],[-90.39019,38.81531,181],[-90.39015,38.8153,181],[-90.39012,38.81529,181],[-90.39009,38.81527,182],[-90.39005,38.81525,182],[-90.39002,38.81523,183],[-90.38999,38.81522,183],[-90.38996,38.81519,184],[-90.38993,38.81518,184],[-90.3899,38.81515,185],[-90.38988,38.81513,185],[-90.38986,38.81511,186],[-90.38984,38.81508,187],[-90.38981,38.81505,187],[-90.38979,38.81503,188],[-90.38976,38.81501,188],[-90.38973,38.81499,189],[-90.3897,38.81496,189],[-90.38967,38.81494,189],[-90.38964,38.81491,189],[-90.38962,38.81488,189],[-90.38962,38.81486,190],[-90.38961,38.81482,190],[-90.38961,38.81479,190],[-90.38961,38.81476,191],[-90.38961,38.81473,191],[-90.38961,38.8147,191],[-90.38961,38.81466,191],[-90.38961,38.81463,190],[-90.38961,38.8146,190],[-90.38959,38.81457,190],[-90.38959,38.81453,190],[-90.38959,38.8145,189],[-90.38958,38.81446,189],[-90.38957,38.81443,189],[-90.38954,38.8144,189],[-90.38952,38.81437,188],[-90.38949,38.81435,188],[-90.38946,38.81434,189],[-90.38942,38.81432,189],[-90.38939,38.81429,189],[-90.38935,38.81427,190],[-90.38932,38.81426,190],[-90.38928,38.81425,190],[-90.38924,38.81424,191],[-90.3892,38.81422,192],[-90.38916,38.81421,192],[-90.38913,38.8142,192],[-90.38908,38.81419,192],[-90.38905,38.81419,192],[-90.38901,38.81418,192],[-90.38897,38.81417,192],[-90.38894,38.81416,192],[-90.3889,38.81414,192],[-90.38887,38.81413,192],[-90.38883,38.81412,193],[-90.38879,38.8141,193],[-90.38876,38.8141,194],[-90.38872,38.81409,194],[-90.38868,38.81407,195],[-90.38865,38.81406,195],[-90.38862,38.81405,196],[-90.38858,38.81403,196],[-90.38855,38.81402,196],[-90.38851,38.814,196],[-90.38846,38.81399,197],[-90.38843,38.81398,197],[-90.38839,38.81396,197],[-90.38836,38.81394,197],[-90.38833,38.81391,198],[-90.38829,38.8139,198],[-90.38825,38.81389,198],[-90.38821,38.81388,198],[-90.38817,38.81388,198],[-90.38813,38.81388,198],[-90.38808,38.81388,198],[-90.38804,38.81389,199],[-90.38801,38.8139,199],[-90.38797,38.81391,199],[-90.38793,38.81391,199],[-90.38788,38.81392,199],[-90.38785,38.81392,199],[-90.3878,38.81392,199],[-90.38775,38.81392,200],[-90.38772,38.81392,200],[-90.38768,38.81392,200],[-90.38764,38.81392,200],[-90.38761,38.8139,200],[-90.38758,38.81388,199],[-90.38756,38.81385,199],[-90.38755,38.81383,199],[-90.38755,38.8138,198],[-90.38755,38.81377,198],[-90.38756,38.81374,198],[-90.38758,38.81371,197],[-90.38759,38.81369,197],[-90.38761,38.81366,197],[-90.38762,38.81363,197],[-90.38764,38.8136,196],[-90.38764,38.81356,196],[-90.38764,38.81352,196],[-90.38765,38.81349,196],[-90.38767,38.81346,196],[-90.38768,38.81343,195],[-90.38767,38.8134,195],[-90.38765,38.81337,195],[-90.38765,38.81333,195],[-90.38767,38.8133,194],[-90.38771,38.8133,195],[-90.38775,38.8133,195],[-90.38779,38.8133,195],[-90.38783,38.8133,195],[-90.38787,38.81329,195],[-90.38783,38.81329,195],[-90.38785,38.81332,195],[-90.38789,38.81332,195],[-90.38793,38.81331,195],[-90.38796,38.81331,195],[-90.38797,38.81328,195],[-90.388,38.81325,194],[-90.38802,38.81323,194],[-90.38803,38.8132,193],[-90.38804,38.81317,193],[-90.38805,38.81314,192],[-90.38806,38.81312,192],[-90.38808,38.8131,191],[-90.3881,38.81307,190],[-90.38812,38.81305,189],[-90.38811,38.81302,189],[-90.38811,38.81298,188],[-90.38811,38.81295,188],[-90.38812,38.81292,187],[-90.38814,38.81289,187],[-90.38814,38.81286,186],[-90.38813,38.81283,186],[-90.38814,38.8128,185],[-90.38817,38.81279,184],[-90.38821,38.81278,183],[-90.38824,38.81275,182],[-90.38827,38.81274,181],[-90.38831,38.81274,179],[-90.38834,38.81275,179],[-90.38838,38.81276,177],[-90.38841,38.81274,176],[-90.38844,38.81272,175],[-90.38848,38.81271,173],[-90.38852,38.81271,172],[-90.38855,38.8127,171],[-90.38859,38.8127,170],[-90.38863,38.8127,169],[-90.38866,38.81268,168],[-90.38867,38.81265,168],[-90.38867,38.81262,168],[-90.38869,38.81259,168],[-90.3887,38.81257,167],[-90.38873,38.81255,167],[-90.38872,38.81251,167],[-90.3887,38.81249,167],[-90.38867,38.81246,167],[-90.38865,38.81244,167],[-90.38865,38.81241,166],[-90.38864,38.81237,166],[-90.38864,38.81234,165],[-90.38866,38.81232,165],[-90.3887,38.81231,164],[-90.38874,38.81231,164],[-90.38877,38.81229,163],[-90.3888,38.81226,163],[-90.38881,38.81224,162],[-90.38883,38.81221,162],[-90.38884,38.81218,161],[-90.38884,38.81215,161],[-90.38883,38.81212,160],[-90.38881,38.81209,160],[-90.38877,38.81208,160],[-90.38874,38.81206,161],[-90.38872,38.81203,161],[-90.38871,38.812,160],[-90.3887,38.81197,160],[-90.38868,38.81195,160],[-90.38866,38.81192,161],[-90.38865,38.81189,161],[-90.38866,38.81186,162],[-90.38866,38.81182,162],[-90.38868,38.81179,162],[-90.3887,38.81176,162],[-90.38872,38.81173,162],[-90.38875,38.81171,162],[-90.38877,38.81168,161],[-90.3888,38.81167,161],[-90.38883,38.81165,160],[-90.38883,38.81162,160],[-90.38883,38.81159,160],[-90.38887,38.81158,159],[-90.38889,38.81156,159],[-90.38892,38.81154,158],[-90.38896,38.81155,157],[-90.38899,38.81155,156],[-90.38903,38.81155,155],[-90.38908,38.81155,154],[-90.38911,38.81154,153],[-90.38914,38.81151,152],[-90.38917,38.81149,152],[-90.3892,38.81146,152],[-90.38923,38.81144,152],[-90.38925,38.81142,152],[-90.3893,38.81141,152],[-90.38934,38.81141,152],[-90.38938,38.81141,152],[-90.3894,38.81138,152],[-90.38941,38.81135,152],[-90.38942,38.81132,152],[-90.38944,38.81129,152],[-90.38947,38.81127,151],[-90.3895,38.81126,151],[-90.38954,38.81124,151],[-90.3896,38.81122,151],[-90.38963,38.81122,151],[-90.38968,38.81123,150],[-90.38971,38.81124,150],[-90.38975,38.81125,150],[-90.38979,38.81125,149],[-90.38983,38.81124,148],[-90.38986,38.81122,148],[-90.38989,38.8112,148],[-90.38993,38.8112,147],[-90.38997,38.8112,146],[-90.39001,38.81121,146],[-90.39005,38.81119,145],[-90.39008,38.81119,145],[-90.39012,38.8112,144],[-90.39016,38.8112,144],[-90.3902,38.8112,143],[-90.39025,38.81121,143],[-90.39028,38.81121,142],[-90.39033,38.81122,142],[-90.39036,38.81124,142],[-90.3904,38.81124,142],[-90.39044,38.81125,142],[-90.39047,38.81127,142],[-90.3905,38.81128,142],[-90.39053,38.81129,142],[-90.39057,38.81129,142],[-90.39061,38.81129,142],[-90.39064,38.81126,142],[-90.39067,38.81125,142],[-90.39072,38.81124,142],[-90.39076,38.81124,142],[-90.3908,38.81123,141],[-90.39083,38.81125,141],[-90.39085,38.81127,142],[-90.39088,38.8113,141],[-90.3909,38.81132,141],[-90.39093,38.81135,141],[-90.39095,38.81137,141],[-90.39097,38.81139,142],[-90.39099,38.81142,142],[-90.39101,38.81144,142],[-90.39103,38.81147,142],[-90.39104,38.8115,143],[-90.39104,38.81153,143],[-90.39103,38.81156,144],[-90.39102,38.81159,144],[-90.39099,38.81161,145],[-90.39095,38.81163,145],[-90.39092,38.81165,146],[-90.39089,38.81167,146],[-90.39087,38.8117,147],[-90.39087,38.81174,147],[-90.39086,38.81176,147],[-90.39086,38.81179,147],[-90.39085,38.81183,148],[-90.39085,38.81187,148],[-90.39084,38.8119,148],[-90.39083,38.81193,148],[-90.39082,38.81196,149],[-90.3908,38.81199,148],[-90.39079,38.81202,149],[-90.39078,38.81205,148],[-90.39078,38.81208,148],[-90.39078,38.81212,149],[-90.39079,38.81215,149],[-90.39081,38.81217,149],[-90.39085,38.81219,149],[-90.39086,38.81222,149],[-90.39087,38.81225,149],[-90.39087,38.81228,148],[-90.39088,38.81231,147],[-90.39089,38.81234,147],[-90.39091,38.81236,146],[-90.39091,38.8124,145],[-90.39088,38.81243,145],[-90.39087,38.81245,144],[-90.39087,38.81248,144],[-90.39087,38.81251,143],[-90.39088,38.81254,144],[-90.3909,38.81257,144],[-90.3909,38.8126,145],[-90.3909,38.81264,146],[-90.39091,38.81266,147],[-90.39092,38.8127,147],[-90.39093,38.81273,148],[-90.39094,38.81276,149],[-90.39097,38.81278,149],[-90.391,38.8128,149],[-90.39102,38.81284,149],[-90.39103,38.81287,150],[-90.39105,38.81289,150],[-90.39107,38.81292,151],[-90.3911,38.81295,151],[-90.39111,38.81298,152],[-90.39112,38.81301,152],[-90.39113,38.81305,153],[-90.39115,38.81308,153],[-90.39117,38.81311,153],[-90.3912,38.81313,153],[-90.39124,38.81315,152],[-90.39127,38.81318,152],[-90.39127,38.81322,152],[-90.39129,38.81325,152],[-90.39132,38.81326,151],[-90.39137,38.81327,151],[-90.39141,38.81329,150],[-90.39145,38.81329,149],[-90.39148,38.81331,149],[-90.3915,38.81334,149],[-90.39152,38.81336,148],[-90.39153,38.81339,148],[-90.39153,38.81343,148],[-90.39153,38.81346,147],[-90.39154,38.8135,147],[-90.39155,38.81353,146],[-90.39155,38.81356,146],[-90.39155,38.81359,146],[-90.39156,38.81362,145],[-90.39158,38.81364,145],[-90.3916,38.81367,145],[-90.39163,38.81369,145],[-90.39165,38.81372,145],[-90.39168,38.81374,145],[-90.39171,38.81376,144],[-90.39173,38.81378,144],[-90.39177,38.81379,143],[-90.39181,38.81381,142],[-90.39185,38.81384,141],[-90.39188,38.81386,140],[-90.3919,38.8139,140],[-90.39193,38.81393,140],[-90.39196,38.81395,140],[-90.39198,38.81397,141],[-90.39202,38.81399,142],[-90.39205,38.814,142],[-90.39208,38.81403,143],[-90.39211,38.81406,145],[-90.39215,38.81407,145],[-90.39219,38.81408,145],[-90.39223,38.81407,144],[-90.39226,38.81404,143],[-90.39228,38.81402,141],[-90.39231,38.814,140],[-90.39233,38.81398,140],[-90.39236,38.81396,139],[-90.39238,38.81393,138],[-90.3924,38.81391,137],[-90.39243,38.81389,136],[-90.39245,38.81387,137],[-90.39248,38.81384,137],[-90.39251,38.81382,138],[-90.39254,38.81379,138],[-90.39255,38.81376,138],[-90.39256,38.81372,138],[-90.39257,38.81368,138],[-90.39259,38.81365,138],[-90.39262,38.81363,138],[-90.39264,38.8136,138],[-90.39267,38.81357,137],[-90.39268,38.81354,137],[-90.3927,38.81351,137],[-90.39272,38.81349,136],[-90.39274,38.81347,136],[-90.39277,38.81345,136],[-90.3928,38.81343,135],[-90.39283,38.81341,135],[-90.39286,38.81338,134],[-90.39288,38.81336,134],[-90.39291,38.81333,134],[-90.39294,38.81331,133],[-90.39297,38.81329,133],[-90.39299,38.81326,133],[-90.39302,38.81324,133],[-90.39304,38.81321,133],[-90.39306,38.81319,132],[-90.39308,38.81317,132],[-90.39311,38.81314,132],[-90.39314,38.81312,132],[-90.39317,38.81309,132],[-90.39319,38.81307,132],[-90.39321,38.81305,133],[-90.39323,38.81301,133],[-90.39326,38.81298,133],[-90.39328,38.81297,133],[-90.39332,38.81295,133],[-90.39335,38.81293,133],[-90.39338,38.81292,133],[-90.39341,38.81289,133],[-90.39343,38.81285,134],[-90.39344,38.81282,134],[-90.39346,38.8128,134],[-90.3935,38.81278,134],[-90.39354,38.81278,134],[-90.39358,38.81277,134],[-90.39363,38.81277,134],[-90.39368,38.81275,134],[-90.39371,38.81273,134],[-90.39374,38.81271,134],[-90.39378,38.81269,134],[-90.39381,38.81266,135],[-90.39384,38.81264,135],[-90.39388,38.81262,135],[-90.39391,38.8126,135],[-90.39394,38.81258,136],[-90.39397,38.81256,136],[-90.39401,38.81254,136],[-90.39404,38.81252,136],[-90.39407,38.8125,137],[-90.39411,38.81247,137],[-90.39414,38.81245,137],[-90.39417,38.81243,137],[-90.3942,38.8124,137],[-90.39423,38.81237,137],[-90.39426,38.81234,137],[-90.39428,38.81231,137],[-90.39431,38.81228,137],[-90.39434,38.81226,137],[-90.39436,38.81223,137],[-90.39439,38.8122,138],[-90.39442,38.81217,138],[-90.39446,38.81215,137],[-90.3945,38.81213,137],[-90.39453,38.81211,137],[-90.39456,38.81209,137],[-90.39459,38.81206,137],[-90.39463,38.81204,137],[-90.39466,38.81201,137],[-90.39469,38.81199,136],[-90.39471,38.81196,137],[-90.39474,38.81194,136],[-90.39477,38.81192,136],[-90.39479,38.8119,136],[-90.39482,38.81188,135],[-90.39484,38.81185,135],[-90.39486,38.81183,134],[-90.39489,38.8118,134],[-90.39492,38.81177,134],[-90.39495,38.81175,133],[-90.39498,38.81173,133],[-90.39502,38.81171,133],[-90.39505,38.81169,133],[-90.39509,38.81167,133],[-90.39509,38.81164,132],[-90.39506,38.81163,132],[-90.39503,38.81162,132]]],
        "bbox": [
          -90.38466,
          38.8198,
          -90.39509,
          38.81119
        ]
      },
      "properties": {
        "name": "1.9.2021A"
      }
    }
  ]
}