{
  "type": "FeatureCollection",
  "features": [
    {
      "type": "Feature",
      "geometry": {
        "type": "MultiLineString",
        "coordinates": [[[-90.39491,38.81171,133],[-90.3949,38.81174,134],[-90.39487,38.81175,134],[-90.39484,38.81178,134],[-90.39481,38.8118,134],[-90.39479,38.81182,135],[-90.39477,38.81185,135],[-90.39475,38.81187,136],[-90.39471,38.8119,136],[-90.39469,38.81192,136],[-90.39466,38.81193,137],[-90.39463,38.81196,137],[-90.39459,38.81198,137],[-90.39456,38.812,137],[-90.39453,38.81201,137],[-90.39451,38.81204,137],[-90.39449,38.81206,137],[-90.39446,38.81208,137],[-90.39443,38.8121,138],[-90.3944,38.81213,138],[-90.39436,38.81215,138],[-90.39433,38.81217,138],[-90.3943,38.8122,138],[-90.39427,38.81222,138],[-90.39424,38.81224,137],[-90.3942,38.81227,137],[-90.39418,38.8123,137],[-90.39415,38.81232,137],[-90.39412,38.81235,137],[-90.39409,38.81237,137],[-90.39406,38.81239,137],[-90.39403,38.81241,137],[-90.394,38.81244,137],[-90.39397,38.81246,137],[-90.39395,38.81249,137],[-90.39392,38.81251,136],[-90.39389,38.81254,136],[-90.39385,38.81256,136],[-90.39382,38.81258,135],[-90.39379,38.8126,135],[-90.39375,38.81262,135],[-90.39373,38.81264,135],[-90.39369,38.81266,134],[-90.39366,38.81269,134],[-90.39363,38.81271,134],[-90.3936,38.81273,134],[-90.39356,38.81274,134],[-90.39352,38.81275,134],[-90.39348,38.81275,134],[-90.39344,38.81275,134],[-90.39341,38.81277,134],[-90.39337,38.81279,134],[-90.39334,38.81281,134],[-90.3933,38.81281,134],[-90.39326,38.81283,134],[-90.39322,38.81282,134],[-90.3932,38.81279,134],[-90.39318,38.81277,134],[-90.39316,38.81275,134],[-90.39312,38.81273,134],[-90.39309,38.81271,134],[-90.39306,38.81269,134],[-90.39303,38.81267,134],[-90.393,38.81265,134],[-90.39296,38.81263,134],[-90.39292,38.81261,134],[-90.39289,38.81259,134],[-90.39285,38.81258,134],[-90.39282,38.81255,134],[-90.39278,38.81254,134],[-90.39275,38.81252,134],[-90.39272,38.81249,134],[-90.39269,38.81246,134],[-90.39266,38.81244,134],[-90.39263,38.81241,134],[-90.39259,38.81239,134],[-90.39255,38.81237,135],[-90.39252,38.81235,135],[-90.39249,38.81233,135],[-90.39246,38.81231,135],[-90.39243,38.81228,135],[-90.3924,38.81227,135],[-90.39236,38.81225,135],[-90.39234,38.81223,135],[-90.3923,38.81221,135],[-90.39227,38.81219,135],[-90.39223,38.81217,135],[-90.39219,38.81216,136],[-90.39216,38.81215,136],[-90.39212,38.81213,136],[-90.39207,38.81213,136],[-90.39203,38.81213,137],[-90.39198,38.81214,137],[-90.39194,38.81215,137],[-90.3919,38.81216,137],[-90.39187,38.81217,137],[-90.39184,38.8122,137],[-90.39182,38.81223,137],[-90.39179,38.81226,137],[-90.39176,38.81228,137],[-90.39174,38.8123,136],[-90.39171,38.81233,136],[-90.39169,38.81236,136],[-90.39166,38.81238,136],[-90.39165,38.81241,136],[-90.39162,38.81244,135],[-90.3916,38.81247,135],[-90.39157,38.81249,135],[-90.39155,38.81252,135],[-90.39153,38.81255,136],[-90.39151,38.81257,136],[-90.39148,38.81261,138],[-90.39147,38.81263,138],[-90.39147,38.81267,139],[-90.39147,38.81269,139],[-90.39151,38.81269,139],[-90.39154,38.81268,138],[-90.39158,38.81268,138],[-90.39156,38.81272,139],[-90.39155,38.81275,140],[-90.39156,38.81278,140],[-90.39159,38.8128,140],[-90.39163,38.81282,140],[-90.39166,38.81284,139],[-90.3917,38.81285,139],[-90.39173,38.81286,139],[-90.39177,38.81288,139],[-90.3918,38.8129,138],[-90.39183,38.81292,138],[-90.39187,38.81294,138],[-90.3919,38.81297,138],[-90.39194,38.81299,138],[-90.39196,38.81302,138],[-90.392,38.81304,138],[-90.39203,38.81305,138],[-90.39207,38.81307,138],[-90.39211,38.81308,137],[-90.39215,38.81311,137],[-90.39218,38.81313,137],[-90.39221,38.81315,137],[-90.39224,38.81318,137],[-90.39227,38.8132,137],[-90.3923,38.81323,137],[-90.39234,38.81325,137],[-90.39237,38.81327,137],[-90.3924,38.81329,137],[-90.39243,38.81331,137],[-90.39246,38.81332,137],[-90.3925,38.81334,137],[-90.39253,38.81335,136],[-90.39256,38.81337,136],[-90.39259,38.8134,136],[-90.39263,38.81342,136],[-90.39267,38.81344,136],[-90.39267,38.81347,137],[-90.39265,38.8135,137],[-90.39262,38.81352,137],[-90.39259,38.81354,138],[-90.39256,38.81357,138],[-90.39254,38.81359,138],[-90.39252,38.81363,138],[-90.39251,38.81365,138],[-90.3925,38.81368,138],[-90.39249,38.81371,138],[-90.39247,38.81374,138],[-90.39245,38.81377,137],[-90.39243,38.81379,137],[-90.39241,38.81381,137],[-90.39239,38.81384,136],[-90.39237,38.81387,135],[-90.39235,38.8139,135],[-90.39233,38.81393,137],[-90.3923,38.81396,138],[-90.39228,38.81399,140],[-90.39225,38.81402,141],[-90.39223,38.81404,142],[-90.3922,38.81405,143],[-90.39216,38.81406,144],[-90.39213,38.81408,146],[-90.39212,38.81406,145],[-90.39212,38.81403,143],[-90.39212,38.81399,140],[-90.3921,38.81397,139],[-90.39206,38.81395,139],[-90.39203,38.81392,138],[-90.392,38.8139,137],[-90.39197,38.81388,137],[-90.39194,38.81385,138],[-90.39192,38.81383,139],[-90.39187,38.81381,140],[-90.39184,38.81378,141],[-90.39181,38.81376,142],[-90.39179,38.81374,142],[-90.39176,38.81372,143],[-90.39173,38.81369,143],[-90.39171,38.81366,143],[-90.39169,38.81364,143],[-90.39167,38.81361,142],[-90.39165,38.81358,143],[-90.39163,38.81355,144],[-90.39162,38.81352,145],[-90.39162,38.81349,145],[-90.39161,38.81346,146],[-90.39161,38.81343,146],[-90.3916,38.81339,147],[-90.39158,38.81337,147],[-90.39155,38.81334,148],[-90.39152,38.81332,149],[-90.39148,38.81331,149],[-90.39143,38.81329,150],[-90.3914,38.81327,150],[-90.39136,38.81325,151],[-90.39134,38.81322,151],[-90.39131,38.8132,151],[-90.39128,38.81318,151],[-90.39126,38.81315,152],[-90.39124,38.81312,152],[-90.39123,38.81309,152],[-90.39121,38.81307,152],[-90.39119,38.81303,152],[-90.39118,38.81301,151],[-90.39117,38.81298,151],[-90.39116,38.81295,150],[-90.39114,38.81292,150],[-90.39112,38.81289,149],[-90.39111,38.81286,149],[-90.39109,38.81284,148],[-90.39107,38.81281,148],[-90.39105,38.81277,147],[-90.39103,38.81275,147],[-90.39103,38.81272,146],[-90.39103,38.81269,146],[-90.39102,38.81265,145],[-90.39101,38.81262,144],[-90.39101,38.81259,144],[-90.39101,38.81255,143],[-90.39101,38.81252,142],[-90.39101,38.81249,142],[-90.39101,38.81246,143],[-90.39101,38.81243,143],[-90.39099,38.8124,144],[-90.39097,38.81237,145],[-90.39095,38.81234,146],[-90.39094,38.81231,147],[-90.39093,38.81227,148],[-90.39092,38.81225,149],[-90.39092,38.81222,149],[-90.39092,38.81218,149],[-90.39092,38.81215,149],[-90.39091,38.81212,149],[-90.3909,38.81209,149],[-90.39088,38.81211,149],[-90.39087,38.81208,149],[-90.39087,38.81206,149],[-90.39088,38.81203,149],[-90.3909,38.812,149],[-90.39092,38.81198,149],[-90.39093,38.81195,150],[-90.39093,38.81192,149],[-90.39093,38.81189,149],[-90.39093,38.81185,148],[-90.39093,38.81181,148],[-90.39093,38.81178,147],[-90.39094,38.81175,147],[-90.39096,38.81172,146],[-90.39099,38.8117,146],[-90.39101,38.81167,145],[-90.39105,38.81165,145],[-90.39108,38.81163,144],[-90.3911,38.8116,144],[-90.39111,38.81156,143],[-90.39111,38.81153,143],[-90.39109,38.8115,142],[-90.39107,38.81147,142],[-90.39105,38.81144,142],[-90.39103,38.81141,141],[-90.391,38.81139,141],[-90.39098,38.81136,141],[-90.39095,38.81133,141],[-90.39092,38.8113,141],[-90.3909,38.81127,141],[-90.39087,38.81124,141],[-90.39085,38.81121,141],[-90.39084,38.81117,141],[-90.39082,38.81114,141],[-90.39082,38.81111,141],[-90.39082,38.81107,140],[-90.39083,38.81104,140],[-90.39083,38.81101,139],[-90.39083,38.81098,139],[-90.39082,38.81095,139],[-90.3908,38.81092,139],[-90.39078,38.81089,138],[-90.39075,38.81086,138],[-90.39072,38.81084,138],[-90.39068,38.81083,139],[-90.39063,38.81081,139],[-90.39059,38.81079,139],[-90.39056,38.81077,139],[-90.39051,38.81076,139],[-90.39047,38.81075,140],[-90.39043,38.81074,140],[-90.39039,38.81074,140],[-90.39035,38.81074,140],[-90.3903,38.81073,140],[-90.39026,38.81072,140],[-90.39022,38.81072,141],[-90.39018,38.81071,141],[-90.39014,38.81071,141],[-90.3901,38.81071,141],[-90.39005,38.8107,141],[-90.39001,38.8107,142],[-90.38997,38.8107,142],[-90.38993,38.81069,142],[-90.38989,38.81068,142],[-90.38985,38.81068,143],[-90.38981,38.81067,143],[-90.38977,38.81067,143],[-90.38973,38.81066,143],[-90.38969,38.81066,144],[-90.38965,38.81065,144],[-90.3896,38.81065,144],[-90.38956,38.81065,144],[-90.38952,38.81064,144],[-90.38948,38.81063,144],[-90.38945,38.81061,144],[-90.38941,38.81059,143],[-90.38938,38.81056,143],[-90.38935,38.81054,143],[-90.38932,38.81051,143],[-90.3893,38.81048,143],[-90.38928,38.81045,143],[-90.38926,38.81042,143],[-90.38924,38.81039,143],[-90.38923,38.81036,143],[-90.38922,38.81032,143],[-90.38921,38.81029,142],[-90.3892,38.81026,142],[-90.3892,38.81023,143],[-90.38919,38.8102,143],[-90.38918,38.81016,143],[-90.38918,38.81013,143],[-90.38917,38.8101,143],[-90.38916,38.81007,143],[-90.38915,38.81003,144],[-90.38915,38.81,144],[-90.38914,38.80996,144],[-90.38913,38.80992,144],[-90.38912,38.80988,144],[-90.38911,38.80985,144],[-90.38911,38.80983,144],[-90.38909,38.80979,145],[-90.38907,38.80976,145],[-90.38906,38.80973,145],[-90.38905,38.8097,145],[-90.38903,38.80967,144],[-90.389,38.80965,145],[-90.38898,38.80962,145],[-90.38895,38.80959,145],[-90.38893,38.80957,144],[-90.3889,38.80954,144],[-90.38888,38.80952,144],[-90.38885,38.80949,145],[-90.38883,38.80947,144],[-90.38882,38.80944,144],[-90.38881,38.80941,144],[-90.3888,38.80938,144],[-90.38879,38.80935,143],[-90.38877,38.80931,143],[-90.38876,38.80928,143],[-90.38874,38.80925,142],[-90.38873,38.80922,142],[-90.38872,38.80919,141],[-90.38871,38.80915,141],[-90.38868,38.80913,141],[-90.38867,38.8091,141],[-90.38866,38.80907,141],[-90.38865,38.80904,141],[-90.38864,38.809,141],[-90.38863,38.80897,141],[-90.38862,38.80894,141],[-90.38861,38.80891,141],[-90.3886,38.80888,141],[-90.3886,38.80884,141],[-90.3886,38.80881,141],[-90.38859,38.80878,141],[-90.38858,38.80874,141],[-90.38856,38.80871,142],[-90.38855,38.80868,142],[-90.38853,38.80865,142],[-90.38852,38.80862,142],[-90.38851,38.80858,143],[-90.3885,38.80855,143],[-90.3885,38.80852,143],[-90.3885,38.80848,143],[-90.3885,38.80845,142],[-90.38849,38.80841,142],[-90.38849,38.80839,142],[-90.38849,38.80836,142],[-90.3885,38.80832,142],[-90.3885,38.80829,142],[-90.3885,38.80825,141],[-90.3885,38.80822,141],[-90.3885,38.80819,141],[-90.38849,38.80815,141],[-90.38848,38.80812,141],[-90.38847,38.80809,141],[-90.38846,38.80805,141],[-90.38845,38.80802,141],[-90.38845,38.80798,141],[-90.38844,38.80795,141],[-90.38843,38.80791,142],[-90.38842,38.80788,142],[-90.38841,38.80785,142],[-90.3884,38.80782,142],[-90.38839,38.80778,143],[-90.38838,38.80775,143],[-90.38837,38.80772,143],[-90.38836,38.80768,142],[-90.38835,38.80766,142],[-90.38833,38.80763,143],[-90.38832,38.8076,142],[-90.38831,38.80756,142],[-90.38831,38.80753,142],[-90.3883,38.8075,142],[-90.3883,38.80746,142],[-90.38829,38.80743,142],[-90.38828,38.8074,142],[-90.38827,38.80736,142],[-90.38827,38.80732,142],[-90.38826,38.80729,142],[-90.38826,38.80726,142],[-90.38825,38.80723,142],[-90.38824,38.8072,142],[-90.38824,38.80716,141],[-90.38823,38.80713,141],[-90.38824,38.80709,141],[-90.38823,38.80705,140],[-90.38823,38.80701,140],[-90.38823,38.80697,139],[-90.38822,38.80694,139],[-90.38822,38.8069,138],[-90.38821,38.80687,139],[-90.38819,38.80684,139],[-90.38819,38.80681,138],[-90.38818,38.80677,138],[-90.38817,38.80674,138],[-90.38817,38.8067,138],[-90.38817,38.80666,138],[-90.38817,38.80662,138],[-90.38817,38.80659,138],[-90.38817,38.80655,139],[-90.38816,38.80651,139],[-90.38816,38.80648,139],[-90.38815,38.80644,140],[-90.38814,38.80642,140],[-90.38814,38.80639,140],[-90.38813,38.80636,140],[-90.38812,38.80633,140],[-90.38811,38.8063,141],[-90.3881,38.80627,141],[-90.3881,38.80624,141],[-90.3881,38.80621,141],[-90.38809,38.80618,141],[-90.38809,38.80615,141],[-90.38808,38.80612,141],[-90.38807,38.80609,141],[-90.38805,38.80605,142],[-90.38804,38.80602,142],[-90.38803,38.80599,142],[-90.38802,38.80596,142],[-90.38802,38.80592,142],[-90.38801,38.80589,143],[-90.388,38.80586,143],[-90.38799,38.80583,143],[-90.38799,38.80579,143],[-90.38798,38.80576,142],[-90.38797,38.80573,142],[-90.38796,38.80569,142],[-90.38796,38.80566,141],[-90.38795,38.80562,141],[-90.38795,38.80559,141],[-90.38794,38.80555,140],[-90.38793,38.80552,140],[-90.38792,38.80549,141],[-90.38791,38.80546,141],[-90.38791,38.80542,141],[-90.3879,38.80538,142],[-90.38789,38.80535,142],[-90.38788,38.80533,142],[-90.38787,38.8053,142],[-90.38787,38.80527,143],[-90.38786,38.80524,143],[-90.38786,38.8052,143],[-90.38785,38.80517,143],[-90.38785,38.80514,143],[-90.38784,38.80511,144],[-90.38783,38.80508,144],[-90.38783,38.80505,144],[-90.38782,38.80502,144],[-90.38782,38.80498,144],[-90.38782,38.80495,144],[-90.38781,38.80492,144],[-90.38781,38.80489,143],[-90.38781,38.80485,143],[-90.38781,38.80482,143],[-90.38781,38.80479,143],[-90.38781,38.80475,142],[-90.3878,38.80472,142],[-90.38779,38.80468,142],[-90.38778,38.80465,142],[-90.38778,38.80462,142],[-90.38777,38.80459,142],[-90.38776,38.80456,142],[-90.38776,38.80453,142],[-90.38775,38.80449,142],[-90.38775,38.80445,142],[-90.38773,38.80443,142],[-90.38769,38.80442,143],[-90.38765,38.80442,143],[-90.38762,38.80441,144],[-90.38758,38.8044,145],[-90.38754,38.80439,145],[-90.3875,38.80437,146],[-90.38746,38.80436,147],[-90.38742,38.80434,147],[-90.38738,38.80433,148],[-90.38733,38.80432,149],[-90.38731,38.8043,149],[-90.38731,38.80426,149],[-90.38733,38.80424,149],[-90.38737,38.80421,148],[-90.38739,38.80419,148],[-90.38742,38.80417,148],[-90.38745,38.80415,147],[-90.38749,38.80414,147],[-90.3875,38.80411,147],[-90.3875,38.80408,147],[-90.3875,38.80404,147],[-90.38749,38.804,147],[-90.38749,38.80397,147],[-90.38748,38.80393,148],[-90.38746,38.8039,148],[-90.38745,38.80388,149],[-90.38744,38.80385,150],[-90.38741,38.80382,151],[-90.3874,38.80379,152],[-90.38738,38.80376,153],[-90.38737,38.80373,155],[-90.38736,38.8037,155],[-90.38735,38.80367,156],[-90.38732,38.80365,157],[-90.38728,38.80364,158],[-90.38725,38.80362,158],[-90.38722,38.8036,159],[-90.38719,38.80358,159],[-90.38716,38.80357,159],[-90.38715,38.80353,159],[-90.38713,38.80351,159],[-90.3871,38.80349,159],[-90.38707,38.80347,159],[-90.38698,38.80346,159],[-90.38703,38.80348,159],[-90.38706,38.80349,159],[-90.38708,38.80352,159],[-90.38711,38.80354,159],[-90.38714,38.80356,159],[-90.38718,38.80359,159],[-90.38721,38.80361,158],[-90.38725,38.80363,158],[-90.38728,38.80366,157],[-90.38729,38.80368,157],[-90.38731,38.80372,155],[-90.38733,38.80375,154],[-90.38734,38.80378,153],[-90.38735,38.80382,152],[-90.38736,38.80385,151],[-90.38738,38.80388,150],[-90.3874,38.80391,149],[-90.38741,38.80394,149],[-90.38743,38.80397,148],[-90.38744,38.804,148],[-90.38744,38.80403,148],[-90.38745,38.80406,148],[-90.38744,38.80409,148],[-90.38742,38.80412,148],[-90.38739,38.80414,148],[-90.38735,38.80416,149],[-90.38732,38.80418,149],[-90.3873,38.80421,149],[-90.38728,38.80423,150],[-90.38726,38.80427,150],[-90.38726,38.8043,150],[-90.38727,38.80433,150],[-90.38731,38.80435,149],[-90.38735,38.80437,148],[-90.38739,38.80438,148],[-90.38743,38.80439,147],[-90.38747,38.8044,146],[-90.3875,38.80442,146],[-90.38755,38.80443,145],[-90.38759,38.80445,144],[-90.38762,38.80446,144],[-90.38765,38.80448,143],[-90.38768,38.8045,143],[-90.3877,38.80452,143],[-90.38771,38.80456,143],[-90.38771,38.80459,143],[-90.3877,38.80462,143],[-90.3877,38.80465,143],[-90.38771,38.80468,143],[-90.38771,38.80471,143],[-90.38772,38.80474,143],[-90.38772,38.80478,144],[-90.38771,38.80482,144],[-90.38772,38.80485,144],[-90.38772,38.80488,144],[-90.38773,38.80491,144],[-90.38775,38.80495,144],[-90.38775,38.80498,145],[-90.38775,38.80502,145],[-90.38776,38.80505,145],[-90.38776,38.80509,144],[-90.38776,38.80512,144],[-90.38777,38.80515,144],[-90.38778,38.80518,144],[-90.38779,38.80521,144],[-90.38779,38.80525,144],[-90.3878,38.80529,143],[-90.3878,38.80532,143],[-90.38781,38.80535,143],[-90.38782,38.80539,143],[-90.38784,38.80542,142],[-90.38785,38.80545,142],[-90.38786,38.80548,142],[-90.38786,38.80552,141],[-90.38787,38.80555,141],[-90.38788,38.80558,141],[-90.38788,38.80561,142],[-90.38788,38.80563,142],[-90.38789,38.80566,143],[-90.3879,38.8057,143],[-90.38791,38.80573,143],[-90.38792,38.80576,144],[-90.38793,38.80579,144],[-90.38793,38.80582,144],[-90.38793,38.80585,145],[-90.38794,38.80588,144],[-90.38795,38.80591,144],[-90.38795,38.80595,144],[-90.38796,38.80598,144],[-90.38797,38.80601,144],[-90.38797,38.80605,144],[-90.38798,38.80608,144],[-90.38799,38.80611,143],[-90.38799,38.80614,143],[-90.38799,38.80617,143],[-90.388,38.80621,143],[-90.38801,38.80624,143],[-90.38802,38.80628,142],[-90.38803,38.80631,142],[-90.38803,38.80635,142],[-90.38804,38.80638,142],[-90.38805,38.80642,142],[-90.38805,38.80646,142],[-90.38806,38.80649,141],[-90.38807,38.80652,141],[-90.38807,38.80656,141],[-90.38808,38.80659,140],[-90.38809,38.80662,140],[-90.3881,38.80666,139],[-90.3881,38.80668,139],[-90.38811,38.80672,140],[-90.38811,38.80675,140],[-90.38812,38.80679,140],[-90.38812,38.80683,140],[-90.38812,38.80686,140],[-90.38813,38.8069,141],[-90.38814,38.80693,141],[-90.38815,38.80696,141],[-90.38816,38.80699,141],[-90.38817,38.80702,141],[-90.38817,38.80706,141],[-90.38818,38.80708,141],[-90.38819,38.80712,142],[-90.3882,38.80714,142],[-90.38821,38.80718,142],[-90.38822,38.80721,142],[-90.38823,38.80724,142],[-90.38824,38.80727,142],[-90.38825,38.80731,142],[-90.38826,38.80734,142],[-90.38827,38.80738,142],[-90.38828,38.80741,142],[-90.38828,38.80745,142],[-90.38829,38.80748,142],[-90.3883,38.80751,142],[-90.38831,38.80755,142],[-90.38831,38.80758,142],[-90.38831,38.80762,143],[-90.38832,38.80765,143],[-90.38832,38.80768,143],[-90.38833,38.80771,143],[-90.38834,38.80774,143],[-90.38836,38.80777,143],[-90.38837,38.8078,143],[-90.38838,38.80784,143],[-90.3884,38.80787,142],[-90.38841,38.8079,142],[-90.38841,38.80793,142],[-90.38842,38.80797,142],[-90.38843,38.808,141],[-90.38844,38.80804,141],[-90.38844,38.80808,141],[-90.38845,38.80811,141],[-90.38846,38.80814,141],[-90.38847,38.80818,141],[-90.38847,38.80821,142],[-90.38848,38.80824,142],[-90.38848,38.80828,142],[-90.38848,38.80832,142],[-90.38848,38.80835,142],[-90.38848,38.80838,142],[-90.38849,38.80841,142],[-90.38849,38.80844,143],[-90.38849,38.80847,143],[-90.3885,38.8085,143],[-90.38851,38.80854,142],[-90.38852,38.80857,142],[-90.38853,38.8086,142],[-90.38854,38.80864,142],[-90.38854,38.80866,142],[-90.38855,38.8087,142],[-90.38855,38.80874,142],[-90.38856,38.80878,142],[-90.38857,38.8088,141],[-90.38858,38.80883,141],[-90.38859,38.80887,141],[-90.3886,38.8089,141],[-90.38861,38.80893,141],[-90.38861,38.80895,141],[-90.38862,38.80899,141],[-90.38863,38.80903,141],[-90.38864,38.80906,141],[-90.38865,38.8091,141],[-90.38866,38.80913,141],[-90.38867,38.80916,141],[-90.38868,38.8092,142],[-90.38869,38.80923,142],[-90.38871,38.80927,143],[-90.38872,38.80929,143],[-90.38874,38.80932,143],[-90.38876,38.80935,144],[-90.38877,38.80939,144],[-90.38879,38.80941,144],[-90.38881,38.80945,144],[-90.38883,38.80948,145],[-90.38884,38.80951,145],[-90.38887,38.80954,145],[-90.38889,38.80957,145],[-90.38891,38.80959,145],[-90.38893,38.80962,145],[-90.38896,38.80965,145],[-90.38898,38.80968,145],[-90.38901,38.80971,145],[-90.38903,38.80974,145],[-90.38905,38.80977,145],[-90.38907,38.8098,145],[-90.38908,38.80984,145],[-90.3891,38.80987,145],[-90.38911,38.80991,145],[-90.38912,38.80994,144],[-90.38913,38.80998,144],[-90.38913,38.81001,144],[-90.38914,38.81004,144],[-90.38915,38.81008,144],[-90.38916,38.81011,143],[-90.38917,38.81014,143],[-90.38918,38.81018,143],[-90.38919,38.81021,143],[-90.3892,38.81024,143],[-90.38921,38.81028,142],[-90.38921,38.81031,143],[-90.38921,38.81035,143],[-90.38922,38.81038,143],[-90.38923,38.81041,143],[-90.38925,38.81044,143],[-90.38927,38.81047,143],[-90.3893,38.8105,143],[-90.38932,38.81053,143],[-90.38935,38.81055,143],[-90.38938,38.81058,144],[-90.38941,38.8106,144],[-90.38945,38.81062,144],[-90.38949,38.81064,144],[-90.38953,38.81066,144],[-90.38956,38.81067,144],[-90.3896,38.81068,144],[-90.38965,38.81069,144],[-90.3897,38.8107,144],[-90.38974,38.8107,144],[-90.38978,38.81071,144],[-90.38983,38.81071,143],[-90.38987,38.81072,143],[-90.38991,38.81072,143],[-90.38995,38.81073,142],[-90.39,38.81073,142],[-90.39004,38.81074,142],[-90.39009,38.81074,142],[-90.39013,38.81075,141],[-90.39017,38.81075,141],[-90.39022,38.81076,141],[-90.39026,38.81076,141],[-90.3903,38.81076,141],[-90.39034,38.81076,140],[-90.39038,38.81076,140],[-90.39043,38.81077,140],[-90.39047,38.81078,140],[-90.3905,38.81078,140],[-90.39054,38.81079,139],[-90.39059,38.8108,139],[-90.39063,38.81082,139],[-90.39067,38.81083,139],[-90.39071,38.81085,139],[-90.39075,38.81087,138],[-90.39078,38.81089,138],[-90.39081,38.81092,139],[-90.39083,38.81095,139],[-90.39083,38.81098,139],[-90.39083,38.81102,140],[-90.39083,38.81106,140],[-90.39082,38.8111,140],[-90.39082,38.81112,141],[-90.39082,38.81116,141],[-90.3908,38.81118,141],[-90.39076,38.81118,141],[-90.39072,38.81119,141],[-90.39069,38.81121,142],[-90.39065,38.81122,142],[-90.39062,38.81123,142],[-90.39058,38.81124,142],[-90.39054,38.81124,142],[-90.3905,38.81123,142],[-90.39047,38.81122,142],[-90.39043,38.8112,142],[-90.3904,38.81118,142],[-90.39036,38.81117,142],[-90.39032,38.81116,142],[-90.39028,38.81116,142],[-90.39025,38.81117,143],[-90.3902,38.81116,144],[-90.39017,38.81116,144],[-90.39012,38.81114,145],[-90.39009,38.81114,145],[-90.39005,38.81113,146],[-90.39001,38.81113,146],[-90.38997,38.81112,147],[-90.38993,38.81111,147],[-90.38989,38.81113,148],[-90.38985,38.81114,149],[-90.38981,38.81115,149],[-90.38978,38.81116,149],[-90.38974,38.81116,150],[-90.3897,38.81115,150],[-90.38965,38.81114,151],[-90.38961,38.81114,151],[-90.38957,38.81113,151],[-90.38953,38.81114,151],[-90.3895,38.81115,151],[-90.38948,38.81118,151],[-90.38945,38.8112,151],[-90.38942,38.81123,152],[-90.38941,38.81126,152],[-90.38939,38.81129,152],[-90.38938,38.81132,152],[-90.38937,38.81134,152],[-90.38933,38.81135,152],[-90.38929,38.81134,152],[-90.38925,38.81134,152],[-90.38921,38.81136,152],[-90.38919,38.81138,152],[-90.38916,38.81141,152],[-90.38913,38.81142,152],[-90.3891,38.81144,153],[-90.38906,38.81145,154],[-90.38902,38.81146,155],[-90.38897,38.81147,156],[-90.38894,38.81148,157],[-90.3889,38.81148,158],[-90.38886,38.81149,159],[-90.38882,38.8115,160],[-90.38879,38.81151,161],[-90.38875,38.81152,162],[-90.38874,38.81155,162],[-90.38875,38.81157,162],[-90.38874,38.8116,162],[-90.38872,38.81163,162],[-90.38869,38.81164,163],[-90.38866,38.81167,164],[-90.38863,38.81169,164],[-90.38862,38.81172,164],[-90.3886,38.81175,164],[-90.38859,38.81178,164],[-90.38858,38.81182,163],[-90.38857,38.81186,163],[-90.38857,38.81189,163],[-90.38859,38.81191,162],[-90.38862,38.81193,162],[-90.38864,38.81196,161],[-90.38866,38.81198,161],[-90.38869,38.81201,161],[-90.38871,38.81203,161],[-90.38875,38.81204,160],[-90.38877,38.81207,160],[-90.38879,38.8121,161],[-90.38879,38.81213,161],[-90.3888,38.81216,161],[-90.38879,38.81219,162],[-90.38876,38.81222,162],[-90.38873,38.81224,163],[-90.3887,38.81227,164],[-90.38867,38.81229,164],[-90.38863,38.81229,165],[-90.38861,38.81231,165],[-90.3886,38.81234,166],[-90.38859,38.81237,167],[-90.38858,38.81241,167],[-90.3886,38.81243,167],[-90.38861,38.81246,168],[-90.38862,38.8125,168],[-90.3886,38.81253,169],[-90.38858,38.81255,169],[-90.38856,38.81258,170],[-90.38855,38.81261,171],[-90.38854,38.81264,171],[-90.38852,38.81266,172],[-90.38849,38.81268,173],[-90.38845,38.81268,174],[-90.3884,38.81268,176],[-90.38836,38.81268,177],[-90.38833,38.81269,178],[-90.38829,38.8127,179],[-90.38825,38.81271,180],[-90.38821,38.81271,182],[-90.38817,38.81271,183],[-90.38814,38.81272,184],[-90.3881,38.81273,185],[-90.38807,38.81275,186],[-90.38803,38.81276,187],[-90.38802,38.81279,188],[-90.38803,38.81282,188],[-90.38804,38.81286,188],[-90.38803,38.81288,189],[-90.38803,38.81292,189],[-90.38803,38.81295,190],[-90.38804,38.81298,190],[-90.38804,38.81301,190],[-90.38803,38.81304,191],[-90.38802,38.81307,191],[-90.38801,38.8131,192],[-90.388,38.81313,192],[-90.38797,38.81316,193],[-90.38795,38.81318,193],[-90.38791,38.81321,194],[-90.38788,38.81323,194],[-90.38786,38.81325,194],[-90.38783,38.81326,195],[-90.3878,38.81328,195],[-90.38778,38.8133,195],[-90.38775,38.8133,195],[-90.38771,38.8133,195],[-90.38768,38.81329,194],[-90.38764,38.81328,194],[-90.38761,38.81328,194],[-90.38757,38.81329,194],[-90.38756,38.81332,194],[-90.38755,38.81335,194],[-90.38755,38.81338,194],[-90.38755,38.81341,194],[-90.38755,38.81344,195],[-90.38755,38.81347,195],[-90.38754,38.81351,195],[-90.38754,38.81355,195],[-90.38754,38.81358,196],[-90.38754,38.81361,196],[-90.38753,38.81363,196],[-90.38752,38.81366,196],[-90.38751,38.8137,197],[-90.38751,38.81373,197],[-90.3875,38.81376,198],[-90.38749,38.8138,198],[-90.38749,38.81383,199],[-90.38752,38.81385,199],[-90.38754,38.81388,199],[-90.38757,38.81389,199],[-90.38761,38.8139,200],[-90.38763,38.81393,200],[-90.38766,38.81394,200],[-90.3877,38.81395,200],[-90.38774,38.81394,200],[-90.38778,38.81395,199],[-90.38782,38.81395,199],[-90.38787,38.81395,199],[-90.38791,38.81395,199],[-90.38796,38.81395,199],[-90.38799,38.81394,199],[-90.38803,38.81393,199],[-90.38808,38.81393,199],[-90.38812,38.81393,198],[-90.38817,38.81394,198],[-90.3882,38.81394,198],[-90.38824,38.81395,198],[-90.38827,38.81395,198],[-90.38831,38.81397,198],[-90.38834,38.81398,198],[-90.38837,38.814,198],[-90.3884,38.81402,197],[-90.38844,38.81405,197],[-90.38847,38.81405,197],[-90.38851,38.81406,197],[-90.38856,38.81407,196],[-90.3886,38.81408,196],[-90.38864,38.81409,196],[-90.38868,38.81409,195],[-90.38871,38.8141,195],[-90.38875,38.81412,194],[-90.38879,38.81413,194],[-90.38883,38.81415,193],[-90.38887,38.81416,193],[-90.3889,38.81417,192],[-90.38894,38.81418,192],[-90.38898,38.81419,192],[-90.38902,38.81419,192],[-90.38906,38.8142,192],[-90.3891,38.8142,192],[-90.38913,38.8142,192],[-90.38918,38.81422,192],[-90.38921,38.81423,192],[-90.38924,38.81425,191],[-90.38927,38.81427,191],[-90.3893,38.81428,190],[-90.38933,38.8143,190],[-90.38936,38.81432,190],[-90.38939,38.81434,189],[-90.38943,38.81435,189],[-90.38947,38.81437,189],[-90.38949,38.81439,189],[-90.38951,38.81441,189],[-90.3895,38.81444,189],[-90.38951,38.81447,189],[-90.38951,38.81451,190],[-90.38951,38.81454,190],[-90.3895,38.81457,190],[-90.3895,38.8146,190],[-90.3895,38.81464,190],[-90.3895,38.81467,190],[-90.38949,38.8147,191],[-90.38949,38.81474,190],[-90.3895,38.81477,190],[-90.3895,38.8148,190],[-90.38949,38.81484,189],[-90.38948,38.81487,189],[-90.38948,38.81489,189],[-90.3895,38.81493,188],[-90.38951,38.81496,188],[-90.38952,38.81499,188],[-90.38954,38.81502,188],[-90.38956,38.81504,187],[-90.38959,38.81507,187],[-90.38962,38.81509,187],[-90.38964,38.81511,186],[-90.38967,38.81513,186],[-90.38969,38.81516,185],[-90.38974,38.81517,185],[-90.38977,38.81518,184],[-90.3898,38.8152,184],[-90.38983,38.81522,183],[-90.38987,38.81523,183],[-90.3899,38.81525,183],[-90.38993,38.81527,182],[-90.38995,38.81529,181],[-90.38998,38.81532,181],[-90.39,38.81533,181],[-90.39005,38.81535,180],[-90.39009,38.81536,180],[-90.39013,38.81537,180],[-90.39016,38.81538,180],[-90.3902,38.81539,180],[-90.39025,38.8154,180],[-90.39029,38.81541,180],[-90.39033,38.81542,180],[-90.39036,38.81543,180],[-90.3904,38.81544,181],[-90.39045,38.81545,181],[-90.39048,38.81545,181],[-90.39052,38.81545,182],[-90.39057,38.81546,182],[-90.3906,38.81547,183],[-90.39064,38.81548,183],[-90.39067,38.81549,183],[-90.39071,38.8155,184],[-90.39075,38.8155,184],[-90.39078,38.81551,184],[-90.39084,38.81552,185],[-90.39088,38.81553,185],[-90.39092,38.81552,185],[-90.39096,38.81552,185],[-90.39099,38.81551,185],[-90.39103,38.8155,185],[-90.39106,38.81548,186],[-90.3911,38.81547,186],[-90.39113,38.81546,186],[-90.39118,38.81545,186],[-90.39122,38.81544,186],[-90.39127,38.81544,185],[-90.39131,38.81545,185],[-90.39134,38.81546,185],[-90.39138,38.81546,185],[-90.39143,38.81547,184],[-90.39146,38.81548,184],[-90.39149,38.81551,184],[-90.39152,38.81553,183],[-90.39155,38.81555,183],[-90.39158,38.81557,183],[-90.39159,38.8156,183],[-90.3916,38.81562,182],[-90.39162,38.81565,182],[-90.39164,38.81568,181],[-90.39167,38.81569,181],[-90.39171,38.81571,180],[-90.39173,38.81574,179],[-90.39174,38.81578,178],[-90.39175,38.81581,178],[-90.39176,38.81583,177],[-90.39176,38.81587,176],[-90.39176,38.8159,175],[-90.39177,38.81593,174],[-90.39176,38.81597,174],[-90.39175,38.816,174],[-90.39174,38.81603,173],[-90.39173,38.81605,173],[-90.39172,38.81609,172],[-90.39171,38.81612,172],[-90.39171,38.81615,171],[-90.39171,38.81618,170],[-90.3917,38.8162,169],[-90.39169,38.81623,168],[-90.39168,38.81626,168],[-90.39167,38.81629,167],[-90.39167,38.81632,166],[-90.39167,38.81635,165],[-90.39166,38.81638,164],[-90.39162,38.8164,164],[-90.3916,38.81642,164],[-90.39158,38.81644,164],[-90.39156,38.81647,164],[-90.39153,38.8165,163],[-90.39152,38.81653,163],[-90.3915,38.81655,163],[-90.39147,38.81657,163],[-90.39145,38.8166,162],[-90.39141,38.81661,163],[-90.39138,38.81661,163],[-90.39136,38.81665,162],[-90.39133,38.81667,162],[-90.39131,38.81669,162],[-90.39129,38.81672,161],[-90.39126,38.81674,161],[-90.39122,38.81675,161],[-90.39119,38.81676,162],[-90.39115,38.81678,162],[-90.39113,38.8168,161],[-90.39109,38.81681,162],[-90.39107,38.81679,162],[-90.39104,38.81676,163],[-90.39101,38.81675,164],[-90.39098,38.81672,165],[-90.39095,38.8167,165],[-90.39092,38.81668,166],[-90.39088,38.81668,166],[-90.39086,38.81672,165],[-90.39085,38.81675,165],[-90.39084,38.81678,164],[-90.39083,38.81681,164],[-90.39081,38.81679,164],[-90.39083,38.81681,164],[-90.3908,38.81682,164],[-90.39077,38.81683,164],[-90.39073,38.81683,164],[-90.39069,38.81684,164],[-90.39065,38.81685,165],[-90.39061,38.81686,165],[-90.39058,38.81688,165],[-90.39054,38.8169,165],[-90.3905,38.81692,165],[-90.39049,38.81695,165],[-90.39049,38.81698,164],[-90.39049,38.81701,163],[-90.3905,38.81704,162],[-90.39052,38.81707,161],[-90.39054,38.81709,160],[-90.39053,38.81712,159],[-90.39052,38.81715,158],[-90.39051,38.81718,157],[-90.3905,38.8172,156],[-90.39049,38.81723,155],[-90.39049,38.81726,154],[-90.39048,38.81729,153],[-90.39047,38.81732,152],[-90.39048,38.81735,151],[-90.39052,38.81735,151],[-90.39055,38.81737,150],[-90.39057,38.8174,149],[-90.39056,38.81743,148],[-90.3906,38.81745,147],[-90.39062,38.81747,146],[-90.39064,38.8175,144],[-90.39066,38.81753,143],[-90.39069,38.81755,143],[-90.39071,38.81758,142],[-90.39074,38.81759,141],[-90.39075,38.81762,140],[-90.39078,38.81764,140],[-90.39081,38.81764,139],[-90.39077,38.81764,140],[-90.39073,38.81765,140],[-90.39071,38.81768,140],[-90.39068,38.81769,140],[-90.39064,38.8177,140],[-90.39061,38.81771,140],[-90.39057,38.81771,141],[-90.39053,38.81771,141],[-90.39049,38.8177,142],[-90.39044,38.81771,142],[-90.3904,38.81771,143],[-90.39036,38.81772,143],[-90.39031,38.81774,143],[-90.39027,38.81775,143],[-90.39023,38.81776,144],[-90.39018,38.81776,145],[-90.39014,38.81778,145],[-90.3901,38.8178,145],[-90.39007,38.81781,146],[-90.39003,38.81782,146],[-90.38998,38.81782,147],[-90.38995,38.81782,147],[-90.38991,38.81783,148],[-90.38987,38.81785,148],[-90.38984,38.81786,148],[-90.38979,38.81788,148],[-90.38976,38.8179,148],[-90.38973,38.81792,148],[-90.38969,38.81791,149],[-90.38965,38.81791,149],[-90.38961,38.81793,149],[-90.38958,38.81794,149],[-90.38954,38.81796,148],[-90.38949,38.81797,148],[-90.38945,38.81799,148],[-90.38941,38.81801,148],[-90.38938,38.81802,148],[-90.38933,38.81802,149],[-90.38929,38.81804,149],[-90.38924,38.81805,149],[-90.38921,38.81804,150],[-90.38917,38.81803,150],[-90.38914,38.81803,151],[-90.38909,38.81804,152],[-90.38906,38.81805,152],[-90.38903,38.81807,152],[-90.38899,38.81808,153],[-90.38895,38.81808,154],[-90.38892,38.81808,155],[-90.38887,38.81808,156],[-90.38882,38.81809,157],[-90.38878,38.81808,158],[-90.38873,38.81809,158],[-90.3887,38.81809,159],[-90.38865,38.8181,160],[-90.38861,38.81811,160],[-90.38858,38.81812,160],[-90.38857,38.81815,158],[-90.38856,38.81819,156],[-90.38854,38.81821,155],[-90.38852,38.81824,154],[-90.38848,38.81827,153],[-90.38844,38.81829,152],[-90.38841,38.81831,151],[-90.3884,38.81834,149],[-90.38839,38.81837,148],[-90.38839,38.81841,146],[-90.38839,38.81844,145],[-90.38837,38.81847,144],[-90.38836,38.8185,142],[-90.38835,38.81854,141],[-90.38832,38.81856,140],[-90.38829,38.81858,139],[-90.38826,38.81859,139],[-90.38823,38.81861,139],[-90.3882,38.81863,139],[-90.38816,38.81864,140],[-90.38812,38.81864,140],[-90.38809,38.81866,141],[-90.38805,38.81867,141],[-90.38802,38.81869,141],[-90.38798,38.81869,142],[-90.38795,38.81871,142],[-90.38791,38.81873,142],[-90.38788,38.81876,142],[-90.38784,38.81878,142],[-90.38781,38.8188,142],[-90.38777,38.81881,143],[-90.38774,38.81883,142],[-90.3877,38.81884,142],[-90.38766,38.81885,142],[-90.38762,38.81886,142],[-90.38759,38.81888,142],[-90.38755,38.8189,141],[-90.38753,38.81892,141],[-90.3875,38.81895,140],[-90.38748,38.81897,139],[-90.38746,38.819,138],[-90.38745,38.81903,137],[-90.38745,38.81906,136],[-90.38742,38.81908,135],[-90.38738,38.81909,135],[-90.38735,38.8191,135],[-90.3873,38.81912,134],[-90.38727,38.81914,133],[-90.38723,38.81915,132],[-90.3872,38.81916,132],[-90.38717,38.81918,132],[-90.38714,38.8192,132],[-90.3871,38.81922,132],[-90.38707,38.81923,132],[-90.38707,38.81926,132],[-90.38703,38.81928,132],[-90.38699,38.81929,132],[-90.38695,38.8193,132],[-90.38693,38.81933,132],[-90.38691,38.81935,132],[-90.38687,38.81937,132],[-90.38683,38.81938,132],[-90.3868,38.81939,132],[-90.38677,38.81941,132],[-90.38674,38.81943,132],[-90.38671,38.81945,131],[-90.38668,38.81946,131],[-90.38665,38.81948,131],[-90.38662,38.81951,131],[-90.38659,38.81953,131],[-90.38655,38.81953,131],[-90.3865,38.81954,131],[-90.38647,38.81954,131],[-90.38643,38.81955,131],[-90.38639,38.81956,131],[-90.38636,38.81957,131],[-90.38632,38.81957,132],[-90.38628,38.81958,132],[-90.38624,38.81959,133],[-90.38619,38.8196,133],[-90.38615,38.81961,133],[-90.38612,38.81962,133],[-90.38607,38.81962,134],[-90.38603,38.81963,133],[-90.38599,38.81963,134],[-90.38595,38.81963,134],[-90.38591,38.81964,133],[-90.38588,38.81965,133],[-90.38584,38.81965,133],[-90.3858,38.81965,133],[-90.38576,38.81966,133],[-90.38574,38.81963,134],[-90.3857,38.81963,134],[-90.38568,38.81965,133],[-90.38564,38.81966,133],[-90.38561,38.81964,134],[-90.38556,38.81965,133],[-90.38552,38.81966,133],[-90.38549,38.81967,133],[-90.38545,38.81968,132],[-90.38541,38.81968,132],[-90.38536,38.81968,132],[-90.38532,38.81966,133],[-90.38529,38.81965,133],[-90.38524,38.81966,133],[-90.3852,38.81967,132],[-90.38517,38.81967,132],[-90.38512,38.81968,132],[-90.38509,38.81968,132],[-90.38505,38.81968,132],[-90.38502,38.81966,133],[-90.38506,38.81968,132],[-90.38511,38.81969,132],[-90.38515,38.81968,132],[-90.38519,38.81967,132],[-90.38522,38.81967,132],[-90.38526,38.81967,132],[-90.38529,38.81968,132],[-90.38534,38.81968,132],[-90.38537,38.81969,132],[-90.38541,38.81969,132],[-90.38545,38.81968,132],[-90.38549,38.81967,133],[-90.38554,38.81966,133],[-90.38558,38.81965,133],[-90.38561,38.81965,133],[-90.38565,38.81965,133],[-90.38569,38.81964,134],[-90.38572,38.81962,135],[-90.38576,38.81961,135],[-90.38578,38.81958,136],[-90.3858,38.81955,137],[-90.38583,38.81952,139],[-90.38586,38.8195,139],[-90.3859,38.81951,138],[-90.38592,38.81953,137],[-90.38595,38.81955,137],[-90.38595,38.81958,135],[-90.38598,38.81961,134],[-90.38602,38.81962,134],[-90.38605,38.81962,134],[-90.38609,38.81962,134],[-90.38614,38.81961,133],[-90.38617,38.8196,133],[-90.38621,38.8196,133],[-90.38625,38.81959,132],[-90.38628,38.81957,132],[-90.38632,38.81957,132],[-90.38636,38.81956,131],[-90.3864,38.81955,131],[-90.38644,38.81953,131],[-90.38648,38.81953,131],[-90.38651,38.81951,131],[-90.38655,38.8195,131],[-90.38658,38.81949,131],[-90.38662,38.81947,131],[-90.38665,38.81948,131],[-90.38666,38.81951,131],[-90.38667,38.81954,131],[-90.3867,38.81952,131],[-90.38669,38.81949,131],[-90.3867,38.81946,131],[-90.38674,38.81944,132],[-90.38677,38.81942,132],[-90.38679,38.81939,132],[-90.38681,38.81937,132],[-90.38684,38.81935,132],[-90.38688,38.81934,132],[-90.38692,38.81932,132],[-90.38695,38.8193,132],[-90.387,38.81929,132],[-90.38704,38.81928,132],[-90.38708,38.81927,132],[-90.38711,38.81924,132],[-90.38714,38.81923,132],[-90.38718,38.81921,132],[-90.38722,38.81919,132],[-90.38725,38.81917,132],[-90.38728,38.81915,132],[-90.38731,38.81913,133],[-90.38734,38.81912,134],[-90.38738,38.8191,135],[-90.38741,38.81909,135],[-90.38744,38.81906,136],[-90.38745,38.81904,137],[-90.38747,38.81901,138],[-90.38749,38.81898,139],[-90.38752,38.81895,140],[-90.38754,38.81893,140],[-90.38757,38.8189,141],[-90.38761,38.81889,141],[-90.38765,38.81887,142],[-90.38767,38.81886,142],[-90.38771,38.81884,142],[-90.38775,38.81883,142],[-90.38779,38.81881,143],[-90.38783,38.81878,142],[-90.38786,38.81876,142],[-90.38789,38.81874,142],[-90.38793,38.81872,142],[-90.38798,38.81871,141],[-90.38801,38.8187,141],[-90.38805,38.81867,141],[-90.38809,38.81865,141],[-90.38813,38.81864,140],[-90.38817,38.81862,140],[-90.3882,38.8186,140],[-90.38824,38.81858,140],[-90.38828,38.81857,140],[-90.38831,38.81855,140],[-90.38834,38.81853,141],[-90.38837,38.8185,142],[-90.38838,38.81847,144],[-90.3884,38.81844,145],[-90.38842,38.81841,146],[-90.38845,38.8184,147],[-90.38849,38.81838,148],[-90.38852,38.81836,148],[-90.38858,38.81835,149],[-90.38862,38.81832,150],[-90.38866,38.8183,150],[-90.38868,38.81829,150],[-90.38871,38.81827,151],[-90.38875,38.81826,151],[-90.38872,38.81824,152],[-90.38869,38.81821,154],[-90.38867,38.81818,156],[-90.38865,38.81814,158],[-90.38869,38.81812,158],[-90.38872,38.81812,157],[-90.38877,38.81811,157],[-90.3888,38.8181,157],[-90.38884,38.8181,156],[-90.38888,38.8181,155],[-90.38892,38.81809,154],[-90.38896,38.81808,154],[-90.389,38.81808,153],[-90.38905,38.81807,152],[-90.38908,38.81805,152],[-90.38911,38.81803,152],[-90.38915,38.81801,151],[-90.38919,38.81801,151],[-90.38924,38.81802,150],[-90.38927,38.81803,149],[-90.38932,38.81802,149],[-90.38936,38.81801,149],[-90.38941,38.81802,148],[-90.38946,38.81801,148],[-90.38951,38.818,148],[-90.38955,38.81798,148],[-90.38958,38.81796,148],[-90.38961,38.81795,148],[-90.38966,38.81794,148],[-90.38969,38.81792,149],[-90.38973,38.81791,148],[-90.38978,38.81792,148],[-90.38982,38.81791,147],[-90.38986,38.8179,147],[-90.3899,38.81789,147],[-90.38995,38.81788,146],[-90.38999,38.81788,146],[-90.39004,38.81787,145],[-90.39007,38.81789,144],[-90.39008,38.81792,144],[-90.39008,38.81788,144],[-90.39012,38.81786,144],[-90.39015,38.81784,144],[-90.39017,38.8178,144],[-90.39019,38.81777,144],[-90.39022,38.81774,144],[-90.39026,38.81771,144],[-90.39029,38.8177,144],[-90.39033,38.81769,144],[-90.39038,38.81768,143],[-90.39042,38.81766,143],[-90.39045,38.81764,144],[-90.39048,38.81762,144],[-90.39051,38.81764,143],[-90.39054,38.81767,142],[-90.39058,38.81768,141],[-90.39063,38.81767,141],[-90.39066,38.81765,141],[-90.39069,38.81763,141],[-90.39072,38.81761,141],[-90.39075,38.81759,141],[-90.39078,38.81756,141],[-90.39081,38.81753,141],[-90.39085,38.81751,141],[-90.39088,38.81749,141],[-90.39092,38.81747,141],[-90.39095,38.81745,142],[-90.39098,38.81742,142],[-90.39101,38.81739,143],[-90.39103,38.81737,143],[-90.39107,38.81735,143],[-90.39109,38.81733,143],[-90.39112,38.8173,143],[-90.39115,38.81728,143],[-90.39116,38.81724,144],[-90.39119,38.81721,145],[-90.39123,38.81719,145],[-90.39127,38.81717,145],[-90.3913,38.81716,145],[-90.39134,38.81714,145],[-90.39137,38.81713,145],[-90.39141,38.81711,145],[-90.39145,38.81709,145],[-90.39148,38.81707,146],[-90.39152,38.81706,145],[-90.39155,38.81705,145],[-90.39159,38.81704,145],[-90.39163,38.81703,145],[-90.39167,38.81701,145],[-90.3917,38.817,145],[-90.39173,38.81698,146],[-90.39176,38.81697,147],[-90.39181,38.81694,148],[-90.39184,38.81691,149],[-90.39187,38.81689,149],[-90.3919,38.81687,149],[-90.39194,38.81684,149],[-90.39197,38.81681,149],[-90.39199,38.81679,149],[-90.39203,38.81676,149],[-90.39206,38.81675,148],[-90.39208,38.81673,148],[-90.39209,38.8167,148],[-90.39213,38.81667,147],[-90.39215,38.81665,147],[-90.39217,38.81662,147],[-90.39218,38.8166,147],[-90.39221,38.81657,147],[-90.39224,38.81655,146],[-90.39227,38.81652,146],[-90.3923,38.8165,146],[-90.39233,38.81648,145],[-90.39235,38.81644,145],[-90.39237,38.81641,145],[-90.39239,38.81639,145],[-90.39242,38.81637,145],[-90.39241,38.81633,146],[-90.39239,38.81631,147],[-90.39239,38.81628,148],[-90.39242,38.81625,148],[-90.39243,38.81623,148],[-90.39246,38.81621,147],[-90.39248,38.81618,148],[-90.39249,38.81615,148],[-90.39253,38.81614,147],[-90.39257,38.81612,146],[-90.39261,38.8161,145],[-90.39265,38.81609,144],[-90.39267,38.81607,143],[-90.39269,38.81603,142],[-90.3927,38.81599,142],[-90.39271,38.81596,142],[-90.3927,38.81592,142],[-90.3927,38.81588,142],[-90.39269,38.81585,142],[-90.39269,38.81581,143],[-90.39269,38.81578,143],[-90.39268,38.81574,145],[-90.39268,38.81571,145],[-90.39268,38.81567,146],[-90.39268,38.81564,147],[-90.39269,38.8156,147],[-90.39271,38.81557,147],[-90.39273,38.81555,146],[-90.39276,38.81552,146],[-90.39279,38.81549,146],[-90.39283,38.81547,145],[-90.39287,38.81546,145],[-90.39291,38.81544,144],[-90.39295,38.81542,144],[-90.39298,38.8154,144],[-90.39301,38.81539,143],[-90.39304,38.81538,143],[-90.39307,38.81535,143],[-90.39309,38.81532,143],[-90.39312,38.81529,144],[-90.39314,38.81525,144],[-90.39316,38.81522,143],[-90.39317,38.81519,143],[-90.39318,38.81516,143],[-90.39318,38.81512,144],[-90.39316,38.81509,145],[-90.39314,38.81505,145],[-90.39312,38.81502,146],[-90.39309,38.81499,147],[-90.39306,38.81495,147],[-90.39304,38.81492,147],[-90.39302,38.81489,147],[-90.39301,38.81486,147],[-90.393,38.81481,147],[-90.393,38.81478,147],[-90.393,38.81474,147],[-90.39299,38.81472,147],[-90.39299,38.81469,147],[-90.39298,38.81466,147],[-90.39296,38.81463,148],[-90.39295,38.8146,148],[-90.39293,38.81457,149],[-90.3929,38.81454,150],[-90.39288,38.81451,150],[-90.39285,38.81449,151],[-90.39282,38.81447,151],[-90.39279,38.81445,152],[-90.39276,38.81441,152],[-90.39274,38.81439,152],[-90.39271,38.81437,152],[-90.39268,38.81435,152],[-90.39265,38.81433,151],[-90.39262,38.8143,151],[-90.39259,38.81428,151],[-90.39256,38.81427,151],[-90.39253,38.81425,151],[-90.39249,38.81424,151],[-90.39246,38.81423,151],[-90.39243,38.81421,151],[-90.39238,38.81418,150],[-90.39236,38.81416,150],[-90.39233,38.81414,149],[-90.39231,38.81411,147],[-90.3923,38.81408,145],[-90.3923,38.81405,143],[-90.39233,38.81402,142],[-90.39236,38.81399,141],[-90.39238,38.81397,140],[-90.39239,38.81394,138],[-90.3924,38.81391,137],[-90.39243,38.81388,136],[-90.39245,38.81386,137],[-90.39247,38.81383,137],[-90.39248,38.8138,138],[-90.3925,38.81377,138],[-90.39251,38.81374,138],[-90.39253,38.81371,138],[-90.39254,38.81368,138],[-90.39256,38.81365,138],[-90.39257,38.81362,138],[-90.39259,38.81359,138],[-90.3926,38.81356,138],[-90.39262,38.81352,137],[-90.39265,38.81349,137],[-90.39268,38.81346,136],[-90.3927,38.81344,136],[-90.39274,38.81341,136],[-90.39278,38.81339,135],[-90.39281,38.81336,135],[-90.39284,38.81334,134],[-90.39287,38.81331,134],[-90.3929,38.81329,134],[-90.39294,38.81327,133],[-90.39297,38.81325,133],[-90.393,38.81322,133],[-90.39302,38.8132,133],[-90.39305,38.81317,133],[-90.39308,38.81315,132],[-90.39312,38.81312,132],[-90.39314,38.81311,132],[-90.39318,38.81308,132],[-90.39321,38.81306,132],[-90.39324,38.81304,133],[-90.39327,38.81301,133],[-90.39329,38.81299,133],[-90.39332,38.81296,133],[-90.39335,38.81294,133],[-90.39338,38.81291,133],[-90.39341,38.81289,133],[-90.39344,38.81288,133],[-90.39347,38.81285,133],[-90.39351,38.81282,134],[-90.39354,38.81281,134],[-90.39357,38.81279,134],[-90.3936,38.81277,134],[-90.39364,38.81275,134],[-90.39368,38.81273,134],[-90.39371,38.8127,134],[-90.39375,38.81268,134],[-90.39379,38.81266,135],[-90.39382,38.81263,135],[-90.39386,38.81261,135],[-90.3939,38.81259,135],[-90.39394,38.81256,136],[-90.39396,38.81254,136],[-90.394,38.81252,136],[-90.39404,38.81249,137],[-90.39408,38.81246,137],[-90.39411,38.81244,137],[-90.39414,38.81241,137],[-90.39416,38.81239,137],[-90.3942,38.81236,137],[-90.39423,38.81233,137],[-90.39427,38.8123,137],[-90.39429,38.81227,137],[-90.39431,38.81225,137],[-90.39434,38.81222,138],[-90.39437,38.81219,138],[-90.39439,38.81217,138],[-90.39441,38.81215,138],[-90.39444,38.81212,138],[-90.39448,38.8121,137],[-90.3945,38.81207,137],[-90.39452,38.81205,137],[-90.39454,38.81203,137],[-90.39457,38.81201,137],[-90.39459,38.81199,137],[-90.39463,38.81196,137],[-90.39466,38.81194,137],[-90.39468,38.81192,136],[-90.39472,38.81189,136],[-90.39475,38.81186,135],[-90.39478,38.81183,135],[-90.39482,38.8118,134],[-90.39484,38.81178,134],[-90.39487,38.81176,134]]],
        "bbox": [
          -90.38502,
          38.81969,
          -90.39491,
          38.80346
        ]
      },
      "properties": {
        "name": "11.18.2022"
      }
    }
  ]
}