{
  "type": "FeatureCollection",
  "features": [
    {
      "type": "Feature",
      "geometry": {
        "type": "MultiLineString",
        "coordinates": [[[-90.39399,38.81253,136],[-90.39396,38.81256,136],[-90.39392,38.81258,136],[-90.39389,38.8126,135],[-90.39386,38.81262,135],[-90.39383,38.81264,135],[-90.39379,38.81266,135],[-90.39376,38.81268,134],[-90.39373,38.8127,134],[-90.3937,38.81272,134],[-90.39367,38.81274,134],[-90.39363,38.81275,134],[-90.39359,38.81274,134],[-90.39358,38.81272,134],[-90.39352,38.81274,134],[-90.39347,38.81275,134],[-90.39342,38.81278,134],[-90.39338,38.8128,134],[-90.39333,38.81282,134],[-90.39329,38.81281,134],[-90.39325,38.81278,134],[-90.39319,38.81277,134],[-90.39314,38.81277,134],[-90.39309,38.81275,134],[-90.39305,38.81272,134],[-90.39301,38.81269,134],[-90.39296,38.81266,134],[-90.39291,38.81264,134],[-90.39287,38.81263,134],[-90.39283,38.81261,134],[-90.3928,38.81257,134],[-90.39277,38.81253,134],[-90.39272,38.8125,134],[-90.39268,38.81248,134],[-90.39264,38.81244,134],[-90.3926,38.81242,134],[-90.39257,38.81239,135],[-90.39253,38.81236,135],[-90.39249,38.81234,135],[-90.39244,38.81231,135],[-90.3924,38.81228,135],[-90.39237,38.81225,135],[-90.39233,38.81222,135],[-90.39228,38.81219,135],[-90.39222,38.81217,136],[-90.39218,38.81215,136],[-90.39213,38.81216,136],[-90.39208,38.81218,136],[-90.39203,38.8122,136],[-90.39199,38.81222,136],[-90.39196,38.81225,136],[-90.39191,38.81227,136],[-90.39187,38.81229,136],[-90.39183,38.81232,136],[-90.39179,38.81235,136],[-90.39176,38.81238,136],[-90.39174,38.81242,135],[-90.3917,38.81246,135],[-90.39167,38.81249,135],[-90.39165,38.81253,135],[-90.39163,38.81257,136],[-90.39161,38.81261,137],[-90.3916,38.81265,137],[-90.39157,38.81267,138],[-90.39154,38.8127,139],[-90.39153,38.81274,140],[-90.3915,38.81277,141],[-90.39155,38.81279,140],[-90.39159,38.81282,140],[-90.39164,38.81285,140],[-90.39168,38.81287,140],[-90.39173,38.81289,139],[-90.39177,38.81291,139],[-90.39182,38.81294,139],[-90.39186,38.81297,138],[-90.39192,38.813,138],[-90.39196,38.81303,138],[-90.392,38.81306,138],[-90.39203,38.81309,138],[-90.39207,38.81311,138],[-90.39212,38.81314,138],[-90.39215,38.81317,138],[-90.39219,38.8132,138],[-90.39223,38.81324,138],[-90.39228,38.81326,138],[-90.39232,38.81328,137],[-90.39237,38.81332,137],[-90.39241,38.81335,137],[-90.39245,38.81337,137],[-90.39249,38.81338,137],[-90.39255,38.81339,137],[-90.3926,38.8134,136],[-90.39263,38.81344,136],[-90.39262,38.81348,137],[-90.39261,38.81352,137],[-90.3926,38.81357,138],[-90.3926,38.81361,138],[-90.39259,38.81365,138],[-90.39258,38.81369,138],[-90.39254,38.81371,138],[-90.3925,38.81374,138],[-90.39247,38.81377,138],[-90.39245,38.81381,137],[-90.39243,38.81385,137],[-90.39241,38.81388,136],[-90.3924,38.81392,137],[-90.39237,38.81396,139],[-90.39233,38.81398,140],[-90.39232,38.81402,142],[-90.39228,38.81405,143],[-90.39225,38.81408,145],[-90.39221,38.81409,146],[-90.39215,38.8141,147],[-90.39209,38.81411,148],[-90.39205,38.81413,149],[-90.392,38.81415,151],[-90.39196,38.81417,152],[-90.39193,38.81419,152],[-90.39188,38.81421,154],[-90.39184,38.81422,156],[-90.39179,38.81425,158],[-90.39178,38.81428,159],[-90.39179,38.81432,159],[-90.3918,38.81437,161],[-90.39181,38.81442,162],[-90.39182,38.81446,162],[-90.39183,38.81451,163],[-90.39183,38.81454,163],[-90.39185,38.81458,163],[-90.39185,38.81462,164],[-90.39186,38.81466,164],[-90.39187,38.8147,164],[-90.39189,38.81474,164],[-90.39189,38.81479,165],[-90.39188,38.81483,166],[-90.39188,38.81486,166],[-90.39189,38.8149,166],[-90.3919,38.81494,166],[-90.39192,38.81497,166],[-90.39194,38.81501,166],[-90.39196,38.81504,167],[-90.39197,38.81508,168],[-90.39197,38.81513,169],[-90.39194,38.81516,171],[-90.39191,38.8152,173],[-90.3919,38.81526,176],[-90.39192,38.81532,176],[-90.39193,38.81538,176],[-90.39194,38.81544,177],[-90.39195,38.8155,177],[-90.39196,38.81553,177],[-90.39195,38.81557,177],[-90.39192,38.8156,177],[-90.39192,38.81564,176],[-90.39195,38.81568,174],[-90.39191,38.8157,175],[-90.39188,38.81567,177],[-90.39183,38.81567,178],[-90.39177,38.81569,179],[-90.39182,38.81568,178],[-90.39186,38.81565,177],[-90.39183,38.81568,177],[-90.39187,38.81567,177],[-90.39192,38.81567,176],[-90.39188,38.81565,177],[-90.39183,38.81566,178],[-90.39179,38.81568,178],[-90.39173,38.81569,180],[-90.39168,38.81569,181],[-90.39163,38.81567,181],[-90.39158,38.81565,182],[-90.39155,38.81563,182],[-90.39152,38.81559,183],[-90.3915,38.81555,184],[-90.39148,38.81551,184],[-90.39143,38.81549,184],[-90.39139,38.81547,185],[-90.39135,38.81545,185],[-90.3913,38.81543,185],[-90.39125,38.81542,185],[-90.3912,38.81542,186],[-90.39115,38.81542,186],[-90.3911,38.81543,186],[-90.39105,38.81544,186],[-90.39097,38.81544,186],[-90.39088,38.81545,185],[-90.39083,38.81546,185],[-90.39078,38.81547,185],[-90.39068,38.81548,183],[-90.39063,38.81548,183],[-90.39058,38.81548,182],[-90.39051,38.81548,181],[-90.39044,38.81546,181],[-90.39039,38.81546,180],[-90.39034,38.81544,180],[-90.39027,38.81542,179],[-90.39022,38.81539,180],[-90.39017,38.81537,180],[-90.39011,38.81536,180],[-90.39006,38.81534,180],[-90.39003,38.81531,181],[-90.38999,38.81528,181],[-90.38995,38.81526,182],[-90.38989,38.81523,183],[-90.38982,38.81521,184],[-90.38976,38.81517,185],[-90.38971,38.81512,186],[-90.38966,38.81508,187],[-90.38963,38.81505,187],[-90.38961,38.815,188],[-90.38959,38.81497,188],[-90.38957,38.81493,189],[-90.38956,38.81488,189],[-90.38956,38.81484,190],[-90.38956,38.81481,190],[-90.38955,38.81477,190],[-90.38956,38.81473,191],[-90.38958,38.81469,191],[-90.38959,38.81464,190],[-90.38958,38.8146,190],[-90.38955,38.81455,190],[-90.38954,38.8145,189],[-90.38953,38.81446,189],[-90.38948,38.81443,189],[-90.38942,38.81439,189],[-90.38938,38.81435,190],[-90.38932,38.81432,190],[-90.38925,38.81428,191],[-90.38918,38.81425,192],[-90.38913,38.81423,192],[-90.38906,38.81421,192],[-90.38899,38.81419,192],[-90.38892,38.81416,192],[-90.38884,38.81414,193],[-90.38879,38.81413,194],[-90.38874,38.81412,194],[-90.3887,38.81411,195],[-90.38865,38.81411,196],[-90.38857,38.81409,196],[-90.3885,38.81407,197],[-90.38844,38.81404,197],[-90.38837,38.81401,198],[-90.3883,38.81399,198],[-90.38823,38.81397,198],[-90.38815,38.81396,198],[-90.38807,38.81397,199],[-90.38799,38.81397,199],[-90.38791,38.81399,199],[-90.38784,38.814,199],[-90.38777,38.814,200],[-90.3877,38.814,200],[-90.38763,38.81397,200],[-90.38758,38.81393,200],[-90.38754,38.8139,200],[-90.38749,38.81388,199],[-90.3875,38.81384,199],[-90.38752,38.8138,198],[-90.38753,38.81376,198],[-90.38755,38.81373,197],[-90.38755,38.81369,197],[-90.38755,38.81365,196],[-90.38756,38.8136,196],[-90.38757,38.81356,196],[-90.38757,38.81352,195],[-90.38759,38.81348,195],[-90.38761,38.81344,195],[-90.38764,38.81341,195],[-90.38767,38.81338,195],[-90.38772,38.81336,195],[-90.38776,38.81335,195],[-90.38781,38.81332,195],[-90.38784,38.81329,195],[-90.38787,38.81325,194],[-90.3879,38.81322,194],[-90.38795,38.81319,193],[-90.38798,38.81316,193],[-90.38802,38.81313,192],[-90.38802,38.8131,191],[-90.38802,38.81305,191],[-90.38804,38.81302,190],[-90.38808,38.81299,189],[-90.38808,38.81294,189],[-90.38808,38.8129,188],[-90.3881,38.81287,187],[-90.38814,38.81284,186],[-90.38819,38.81282,184],[-90.38823,38.8128,183],[-90.38825,38.81276,181],[-90.38829,38.81272,180],[-90.38833,38.8127,178],[-90.38838,38.81267,176],[-90.38843,38.81265,174],[-90.38848,38.81264,173],[-90.38851,38.81261,172],[-90.38852,38.81257,171],[-90.38854,38.81253,170],[-90.38858,38.81249,169],[-90.38861,38.81245,168],[-90.38864,38.81241,166],[-90.38866,38.81237,166],[-90.38868,38.81233,165],[-90.38868,38.8123,164],[-90.3887,38.81226,163],[-90.38872,38.81221,163],[-90.38874,38.81217,162],[-90.38878,38.81213,161],[-90.38878,38.81209,161],[-90.38875,38.81205,160],[-90.38874,38.81201,160],[-90.38873,38.81197,160],[-90.38875,38.81192,159],[-90.38876,38.81189,159],[-90.38879,38.81185,159],[-90.38881,38.81181,159],[-90.38882,38.81177,160],[-90.38882,38.81172,160],[-90.38883,38.81168,160],[-90.38887,38.81166,160],[-90.3889,38.81162,159],[-90.38894,38.81159,158],[-90.389,38.81157,156],[-90.38905,38.81155,154],[-90.3891,38.81152,153],[-90.38917,38.8115,152],[-90.38922,38.81149,152],[-90.38927,38.81147,152],[-90.38932,38.81144,152],[-90.38936,38.8114,152],[-90.3894,38.81137,152],[-90.38944,38.81133,152],[-90.38948,38.81131,151],[-90.38952,38.81129,151],[-90.38958,38.81127,151],[-90.38962,38.81125,151],[-90.38965,38.81122,150],[-90.3897,38.81119,150],[-90.38974,38.81117,150],[-90.38979,38.81116,149],[-90.38985,38.81115,149],[-90.3899,38.81115,148],[-90.38994,38.81116,147],[-90.39,38.81117,146],[-90.39006,38.81116,145],[-90.3901,38.81115,145],[-90.39016,38.81115,144],[-90.39022,38.81116,143],[-90.39026,38.81118,143],[-90.39031,38.81118,142],[-90.39036,38.81119,142],[-90.3904,38.81121,142],[-90.39045,38.81122,142],[-90.3905,38.81123,142],[-90.39054,38.81121,142],[-90.39059,38.8112,142],[-90.39064,38.81121,142],[-90.39071,38.81122,142],[-90.39076,38.81123,142],[-90.3908,38.81125,142],[-90.39084,38.81128,142],[-90.39089,38.8113,141],[-90.39093,38.81133,141],[-90.39096,38.81136,141],[-90.391,38.81139,141],[-90.39103,38.81142,142],[-90.39104,38.81146,142],[-90.39104,38.81149,142],[-90.39102,38.81153,143],[-90.39102,38.81157,144],[-90.39102,38.8116,144],[-90.39101,38.81164,145],[-90.39099,38.81168,146],[-90.39096,38.81171,146],[-90.39094,38.81174,147],[-90.39094,38.81178,147],[-90.39095,38.81183,148],[-90.39096,38.81187,149],[-90.39094,38.81192,149],[-90.39093,38.81195,150],[-90.39092,38.81199,149],[-90.39093,38.81203,149],[-90.39095,38.81207,149],[-90.39098,38.8121,149],[-90.39101,38.81213,149],[-90.39102,38.81217,149],[-90.39102,38.81221,149],[-90.39099,38.81224,148],[-90.39099,38.81228,147],[-90.391,38.81233,146],[-90.39099,38.81236,145],[-90.39097,38.81241,144],[-90.39097,38.81245,143],[-90.39097,38.81249,142],[-90.39097,38.81253,143],[-90.39098,38.81257,143],[-90.39098,38.81261,144],[-90.39098,38.81266,146],[-90.391,38.8127,146],[-90.39102,38.81274,147],[-90.39104,38.81277,147],[-90.39105,38.81282,148],[-90.39107,38.81285,149],[-90.39111,38.81289,149],[-90.39113,38.81292,150],[-90.39116,38.81297,151],[-90.39117,38.81301,152],[-90.39119,38.81305,152],[-90.39123,38.81309,152],[-90.39127,38.81311,151],[-90.39129,38.81314,151],[-90.39132,38.81318,151],[-90.39136,38.81321,151],[-90.3914,38.81323,150],[-90.39144,38.81325,149],[-90.39148,38.81328,149],[-90.39151,38.81332,149],[-90.39153,38.81336,148],[-90.39156,38.8134,147],[-90.39159,38.81345,146],[-90.39161,38.81348,146],[-90.39162,38.81352,145],[-90.39164,38.81357,144],[-90.39165,38.81361,143],[-90.39167,38.81366,143],[-90.3917,38.81369,143],[-90.39174,38.81372,143],[-90.39177,38.81374,143],[-90.39181,38.81377,142],[-90.39185,38.81379,141],[-90.39189,38.81382,140],[-90.39193,38.81385,138],[-90.39197,38.81389,137],[-90.39201,38.81394,139],[-90.39204,38.81396,140],[-90.39209,38.81399,141],[-90.39214,38.81401,141],[-90.39221,38.81403,142],[-90.39228,38.81404,143],[-90.39233,38.81406,144],[-90.39239,38.81406,144],[-90.39242,38.81402,142],[-90.39243,38.81396,140],[-90.39243,38.81393,138],[-90.39243,38.81388,136],[-90.39245,38.81384,137],[-90.39247,38.81381,137],[-90.3925,38.81377,138],[-90.39252,38.81374,138],[-90.39255,38.81371,138],[-90.39257,38.81368,138],[-90.39259,38.81365,138],[-90.39261,38.81361,138],[-90.39264,38.81357,138],[-90.39266,38.81353,137],[-90.39269,38.8135,137],[-90.39271,38.81347,136],[-90.39273,38.81345,136],[-90.39274,38.81341,136],[-90.39276,38.81337,135],[-90.3928,38.81335,135],[-90.39283,38.81331,134],[-90.39286,38.81329,134],[-90.39289,38.81327,134],[-90.39292,38.81325,133],[-90.39296,38.81322,133],[-90.393,38.8132,133],[-90.39303,38.81318,133],[-90.39307,38.81315,132],[-90.3931,38.81312,132],[-90.39313,38.81309,132],[-90.39317,38.81307,132],[-90.3932,38.81305,133],[-90.39325,38.81304,133],[-90.39328,38.81302,133],[-90.3933,38.81299,133],[-90.39333,38.81296,133],[-90.39336,38.81294,133],[-90.39339,38.81291,133],[-90.39342,38.81289,133],[-90.39346,38.81286,133],[-90.39349,38.81285,133],[-90.39352,38.81283,133],[-90.39354,38.81281,134],[-90.39357,38.81279,134],[-90.3936,38.81276,134],[-90.39364,38.81275,134],[-90.39367,38.81273,134],[-90.39371,38.8127,134],[-90.39375,38.81268,134],[-90.39379,38.81266,135],[-90.39383,38.81263,135],[-90.39386,38.81261,135],[-90.3939,38.81259,135],[-90.39394,38.81256,136],[-90.39398,38.81254,136],[-90.39401,38.81251,136],[-90.39405,38.81249,137],[-90.39408,38.81247,137],[-90.39411,38.81244,137],[-90.39415,38.81242,137],[-90.39418,38.81239,137],[-90.39422,38.81236,137],[-90.39426,38.81234,137],[-90.39429,38.81231,137],[-90.39433,38.81228,137],[-90.39435,38.81226,137],[-90.39438,38.81224,137],[-90.3944,38.81222,138],[-90.39443,38.81219,138],[-90.39447,38.81216,137],[-90.39449,38.81214,137],[-90.39452,38.81211,137],[-90.39455,38.81208,137],[-90.39459,38.81206,137],[-90.39462,38.81203,137],[-90.39466,38.81201,137],[-90.39469,38.81198,136],[-90.39472,38.81195,136],[-90.39476,38.81192,136],[-90.39479,38.81189,135],[-90.39482,38.81186,135],[-90.39485,38.81183,135],[-90.39489,38.81181,134],[-90.39492,38.81179,134],[-90.39496,38.81176,133],[-90.39498,38.81174,133],[-90.39499,38.81171,133],[-90.395,38.81168,133],[-90.39504,38.81167,133]]],
        "bbox": [
          -90.38749,
          38.8157,
          -90.39504,
          38.81115
        ]
      },
      "properties": {
        "name": "3.26.2021A"
      }
    }
  ]
}