{
  "type": "FeatureCollection",
  "features": [
    {
      "type": "Feature",
      "geometry": {
        "type": "MultiLineString",
        "coordinates": [[[-90.39078,38.81085,138],[-90.39079,38.81088,138],[-90.39081,38.81091,138],[-90.39083,38.81093,139],[-90.39085,38.81096,139],[-90.39084,38.81099,139],[-90.39083,38.81104,140],[-90.39084,38.81108,140],[-90.39084,38.81111,140],[-90.39085,38.81114,141],[-90.39085,38.81117,141],[-90.39087,38.81121,141],[-90.39089,38.81124,141],[-90.39092,38.81126,141],[-90.39093,38.81129,141],[-90.39095,38.81131,141],[-90.39099,38.81133,141],[-90.39102,38.81136,141],[-90.39104,38.81139,141],[-90.39107,38.81141,141],[-90.39109,38.81143,141],[-90.39111,38.81146,141],[-90.39113,38.81149,142],[-90.39113,38.81151,142],[-90.39113,38.81155,143],[-90.39112,38.81158,143],[-90.3911,38.81161,144],[-90.39109,38.81163,144],[-90.39105,38.81165,145],[-90.39103,38.81167,145],[-90.39099,38.8117,146],[-90.39097,38.81173,147],[-90.39095,38.81176,147],[-90.39094,38.81179,147],[-90.39092,38.81183,148],[-90.39092,38.81186,148],[-90.39093,38.81188,149],[-90.39095,38.81191,149],[-90.39093,38.81194,149],[-90.39092,38.81197,149],[-90.39091,38.812,149],[-90.3909,38.81203,149],[-90.3909,38.81207,149],[-90.39088,38.81209,149],[-90.39092,38.81208,149],[-90.39096,38.81208,149],[-90.39091,38.81211,149],[-90.39091,38.81214,149],[-90.39093,38.81217,149],[-90.39095,38.81221,149],[-90.39096,38.81223,149],[-90.39097,38.81226,148],[-90.39098,38.81229,147],[-90.39098,38.81233,146],[-90.39098,38.81236,145],[-90.39096,38.81238,145],[-90.39098,38.8124,144],[-90.39101,38.81242,144],[-90.39101,38.81245,143],[-90.391,38.81248,142],[-90.39101,38.81251,142],[-90.391,38.81254,143],[-90.391,38.81257,143],[-90.391,38.81261,144],[-90.391,38.81264,145],[-90.39103,38.81266,145],[-90.39107,38.81264,144],[-90.39104,38.8127,146],[-90.39102,38.81277,148],[-90.39103,38.81282,149],[-90.39108,38.81281,148],[-90.39111,38.81284,148],[-90.39112,38.81288,149],[-90.39113,38.8129,149],[-90.39115,38.81293,150],[-90.39117,38.81296,150],[-90.39119,38.81298,150],[-90.3912,38.81301,151],[-90.39121,38.81304,152],[-90.39121,38.81307,152],[-90.39122,38.81311,152],[-90.39124,38.81314,152],[-90.39126,38.81317,152],[-90.39129,38.8132,151],[-90.39132,38.81322,151],[-90.39136,38.81323,151],[-90.3914,38.81324,150],[-90.3914,38.81327,150],[-90.39142,38.8133,150],[-90.39145,38.81332,150],[-90.39149,38.81334,149],[-90.39153,38.81335,148],[-90.39157,38.81337,147],[-90.39158,38.8134,147],[-90.39159,38.81344,146],[-90.39158,38.81347,146],[-90.39158,38.8135,146],[-90.39158,38.81353,146],[-90.39158,38.81356,145],[-90.3916,38.81359,144],[-90.39162,38.81362,144],[-90.39164,38.81365,144],[-90.39167,38.81368,144],[-90.39169,38.8137,144],[-90.39172,38.81372,143],[-90.39175,38.81374,143],[-90.39179,38.81376,142],[-90.39182,38.81378,142],[-90.39185,38.8138,141],[-90.39188,38.81381,140],[-90.3919,38.81384,139],[-90.39193,38.81386,138],[-90.39197,38.81388,137],[-90.39199,38.8139,137],[-90.39202,38.81392,138],[-90.39205,38.81394,138],[-90.39209,38.81396,139],[-90.39213,38.81397,139],[-90.39217,38.81398,139],[-90.39219,38.81401,141],[-90.39222,38.81404,142],[-90.39225,38.81406,144],[-90.39221,38.81408,145],[-90.39217,38.81409,146],[-90.39212,38.81411,147],[-90.39208,38.81412,148],[-90.39203,38.81413,149],[-90.39199,38.81413,149],[-90.39196,38.81413,150],[-90.39192,38.81413,150],[-90.39195,38.81415,151],[-90.39193,38.81418,152],[-90.39192,38.81421,153],[-90.39191,38.81424,154],[-90.39189,38.81419,153],[-90.39193,38.81415,151],[-90.39198,38.81419,152],[-90.39192,38.81423,154],[-90.3919,38.81428,156],[-90.39184,38.81429,157],[-90.3919,38.81427,155],[-90.39187,38.81431,157],[-90.39187,38.81436,159],[-90.39186,38.8144,160],[-90.39186,38.81444,161],[-90.39185,38.81447,161],[-90.39187,38.8145,161],[-90.39188,38.81452,162],[-90.3919,38.81455,161],[-90.39193,38.81457,161],[-90.39196,38.81459,160],[-90.39198,38.81462,160],[-90.39198,38.81465,161],[-90.39197,38.81469,162],[-90.39197,38.81472,162],[-90.39194,38.81474,163],[-90.39196,38.81477,163],[-90.39198,38.81479,162],[-90.39199,38.81483,163],[-90.39199,38.81486,163],[-90.39196,38.81489,164],[-90.39195,38.81491,164],[-90.39197,38.81494,164],[-90.39199,38.81496,164],[-90.39199,38.81499,164],[-90.39202,38.81502,164],[-90.39203,38.81504,165],[-90.39205,38.81507,165],[-90.39206,38.8151,166],[-90.39205,38.81513,167],[-90.39205,38.81516,168],[-90.39205,38.81519,169],[-90.39203,38.81522,171],[-90.39202,38.81525,172],[-90.392,38.81527,174],[-90.392,38.8153,174],[-90.392,38.81533,174],[-90.39201,38.81536,174],[-90.39201,38.81539,174],[-90.39201,38.81542,174],[-90.39202,38.81544,174],[-90.39203,38.81547,174],[-90.39203,38.8155,174],[-90.39201,38.81552,174],[-90.39199,38.81555,175],[-90.39199,38.81558,175],[-90.39196,38.8156,176],[-90.39196,38.81563,175],[-90.39195,38.81566,175],[-90.39196,38.81568,174],[-90.39192,38.81569,175],[-90.39188,38.81567,177],[-90.39185,38.81566,177],[-90.39181,38.81566,178],[-90.39177,38.81568,179],[-90.39175,38.8157,179],[-90.39171,38.81571,180],[-90.39168,38.8157,181],[-90.39165,38.81568,181],[-90.39162,38.81565,182],[-90.39159,38.81563,182],[-90.39156,38.81561,183],[-90.39154,38.81559,183],[-90.39152,38.81556,184],[-90.39149,38.81553,184],[-90.39148,38.81551,184],[-90.39146,38.81548,184],[-90.39142,38.81546,184],[-90.39139,38.81545,185],[-90.39135,38.81544,185],[-90.3913,38.81543,185],[-90.39127,38.81544,185],[-90.39122,38.81544,186],[-90.39118,38.81545,186],[-90.39114,38.81545,186],[-90.39111,38.8154,186],[-90.39107,38.81539,186],[-90.39104,38.8154,186],[-90.391,38.81543,186],[-90.39096,38.81545,186],[-90.39093,38.81547,185],[-90.39089,38.81547,185],[-90.39086,38.81549,185],[-90.39082,38.81549,185],[-90.39078,38.8155,184],[-90.39074,38.81551,184],[-90.39071,38.81551,183],[-90.39067,38.81549,183],[-90.39065,38.81551,183],[-90.39061,38.81551,182],[-90.39058,38.8155,182],[-90.39055,38.81548,182],[-90.39051,38.81547,182],[-90.39047,38.81547,181],[-90.39042,38.81546,181],[-90.39039,38.81544,180],[-90.39036,38.81542,180],[-90.39033,38.81541,180],[-90.39029,38.8154,180],[-90.39025,38.8154,180],[-90.39021,38.81539,180],[-90.39018,38.81537,180],[-90.39014,38.81536,180],[-90.3901,38.81534,180],[-90.39007,38.81533,181],[-90.39003,38.81532,181],[-90.39002,38.8153,181],[-90.38999,38.81528,181],[-90.38995,38.81527,182],[-90.38992,38.81525,182],[-90.38988,38.81523,183],[-90.38985,38.81522,183],[-90.38981,38.81519,184],[-90.38978,38.81517,185],[-90.38974,38.81515,185],[-90.38972,38.81512,186],[-90.3897,38.81509,187],[-90.38967,38.81507,187],[-90.38964,38.81505,187],[-90.38962,38.81502,188],[-90.38959,38.81499,188],[-90.38956,38.81497,188],[-90.38953,38.81495,188],[-90.38952,38.81492,189],[-90.38951,38.81489,189],[-90.38949,38.81486,189],[-90.3895,38.81483,190],[-90.38949,38.8148,190],[-90.38947,38.81477,190],[-90.38948,38.81474,190],[-90.38948,38.81471,191],[-90.38949,38.81468,190],[-90.38949,38.81465,190],[-90.38949,38.81462,190],[-90.3895,38.81459,190],[-90.38949,38.81456,190],[-90.3895,38.81453,190],[-90.38952,38.8145,190],[-90.38952,38.81448,189],[-90.38952,38.81444,189],[-90.38952,38.81442,189],[-90.3895,38.81439,189],[-90.38947,38.81437,189],[-90.38945,38.81434,189],[-90.38942,38.81432,189],[-90.38937,38.8143,189],[-90.38934,38.81429,190],[-90.3893,38.81428,190],[-90.38926,38.81426,191],[-90.38922,38.81425,191],[-90.38919,38.81423,192],[-90.38916,38.81421,192],[-90.38912,38.81419,192],[-90.38909,38.81418,192],[-90.38904,38.81418,192],[-90.38901,38.81417,192],[-90.38894,38.81417,192],[-90.38891,38.81416,192],[-90.38887,38.81417,193],[-90.38883,38.81416,193],[-90.3888,38.81414,194],[-90.38876,38.81412,194],[-90.38873,38.81411,194],[-90.38869,38.8141,195],[-90.38865,38.81409,195],[-90.38861,38.81408,196],[-90.38857,38.81407,196],[-90.38854,38.81405,196],[-90.38851,38.81404,196],[-90.38847,38.81403,197],[-90.38844,38.81401,197],[-90.3884,38.81399,197],[-90.38836,38.81398,198],[-90.38833,38.81396,198],[-90.38829,38.81395,198],[-90.38825,38.81394,198],[-90.38822,38.81392,198],[-90.38818,38.81391,198],[-90.38813,38.8139,198],[-90.38809,38.8139,198],[-90.38805,38.81391,199],[-90.38801,38.81392,199],[-90.38797,38.81393,199],[-90.38793,38.81394,199],[-90.38789,38.81394,199],[-90.38785,38.81395,199],[-90.38782,38.81394,199],[-90.38777,38.81394,200],[-90.38773,38.81394,200],[-90.38769,38.81394,200],[-90.38765,38.81394,200],[-90.38762,38.81393,200],[-90.38759,38.8139,200],[-90.38756,38.81387,199],[-90.38754,38.81385,199],[-90.38751,38.81383,199],[-90.38749,38.8138,198],[-90.3875,38.81377,198],[-90.3875,38.81373,197],[-90.38751,38.8137,197],[-90.38752,38.81368,197],[-90.38753,38.81364,196],[-90.38754,38.81361,196],[-90.38755,38.81358,196],[-90.38756,38.81354,195],[-90.38756,38.81351,195],[-90.38756,38.81348,195],[-90.38756,38.81345,195],[-90.38757,38.81341,195],[-90.38756,38.81338,194],[-90.38755,38.81335,194],[-90.38755,38.81332,194],[-90.38756,38.81328,194],[-90.38759,38.81326,194],[-90.38762,38.81325,194],[-90.38766,38.81325,194],[-90.3877,38.81324,194],[-90.38774,38.81325,194],[-90.38777,38.81325,195],[-90.38781,38.81325,195],[-90.38785,38.81325,194],[-90.38789,38.81325,194],[-90.38792,38.81323,194],[-90.38794,38.81321,194],[-90.38797,38.81319,193],[-90.388,38.81317,193],[-90.38801,38.81314,192],[-90.38803,38.81312,192],[-90.38803,38.81308,191],[-90.38803,38.81305,191],[-90.38802,38.81302,190],[-90.38803,38.81299,190],[-90.38804,38.81296,190],[-90.38804,38.81293,189],[-90.38804,38.8129,189],[-90.38805,38.81287,189],[-90.38806,38.81283,188],[-90.38805,38.8128,188],[-90.38805,38.81277,187],[-90.38808,38.81277,187],[-90.38812,38.81278,186],[-90.38815,38.81276,184],[-90.38816,38.81273,183],[-90.38819,38.8127,182],[-90.38821,38.81269,181],[-90.38825,38.81268,180],[-90.38828,38.81269,179],[-90.38832,38.81269,178],[-90.38836,38.81269,177],[-90.3884,38.81268,176],[-90.38839,38.81266,176],[-90.38843,38.81265,174],[-90.38846,38.81266,174],[-90.3885,38.81268,173],[-90.38852,38.81264,172],[-90.38855,38.81261,171],[-90.38859,38.81259,169],[-90.38857,38.81256,170],[-90.38853,38.81253,171],[-90.38852,38.81249,170],[-90.38856,38.81248,169],[-90.38862,38.81249,168],[-90.38861,38.81253,169],[-90.38857,38.81251,169],[-90.38861,38.81247,168],[-90.38865,38.81242,166],[-90.38856,38.81241,168],[-90.38858,38.81235,166],[-90.38862,38.81231,165],[-90.38867,38.81227,164],[-90.38873,38.81226,163],[-90.38878,38.81226,163],[-90.3888,38.81222,162],[-90.38881,38.81218,161],[-90.3888,38.81215,161],[-90.38878,38.81211,161],[-90.38876,38.81208,161],[-90.38874,38.81205,160],[-90.3887,38.81203,161],[-90.38867,38.81202,161],[-90.38863,38.812,162],[-90.38863,38.81197,161],[-90.38862,38.81194,161],[-90.38859,38.81192,162],[-90.38857,38.81189,163],[-90.38855,38.81186,163],[-90.38856,38.81183,163],[-90.38858,38.8118,163],[-90.38859,38.81177,164],[-90.38861,38.81174,164],[-90.38863,38.81171,164],[-90.38867,38.81169,163],[-90.38871,38.81168,163],[-90.38874,38.81165,162],[-90.38877,38.81163,161],[-90.3888,38.81161,161],[-90.3888,38.81158,161],[-90.38878,38.81156,161],[-90.38877,38.81152,161],[-90.38881,38.81152,160],[-90.38885,38.81153,159],[-90.3889,38.81154,158],[-90.38895,38.81153,157],[-90.38901,38.81151,155],[-90.38909,38.81149,153],[-90.38915,38.81145,152],[-90.38919,38.81141,152],[-90.38921,38.81136,152],[-90.38926,38.81135,152],[-90.38931,38.81136,152],[-90.38933,38.81138,152],[-90.38939,38.81137,152],[-90.38942,38.81135,152],[-90.38941,38.81131,152],[-90.38942,38.81128,152],[-90.38944,38.81125,152],[-90.38946,38.81123,151],[-90.38948,38.8112,151],[-90.38951,38.81117,151],[-90.38955,38.81115,151],[-90.38958,38.81114,151],[-90.38962,38.81114,151],[-90.38968,38.81115,151],[-90.38972,38.81116,150],[-90.38976,38.81117,150],[-90.3898,38.81116,149],[-90.38983,38.81115,149],[-90.38987,38.81114,148],[-90.38991,38.81113,148],[-90.38994,38.81111,147],[-90.38998,38.81111,147],[-90.39002,38.81112,146],[-90.39006,38.81113,146],[-90.3901,38.81114,145],[-90.39013,38.81115,144],[-90.39018,38.81115,144],[-90.39021,38.81116,143],[-90.39025,38.81116,143],[-90.3903,38.81117,142],[-90.39033,38.81116,142],[-90.39037,38.81116,142],[-90.3904,38.81118,142],[-90.39044,38.81119,142],[-90.39047,38.81121,142],[-90.39049,38.81123,142],[-90.39053,38.81125,142],[-90.39056,38.81127,142],[-90.39059,38.81127,142],[-90.39063,38.81126,142],[-90.39067,38.81124,142],[-90.3907,38.81122,142],[-90.39073,38.81121,141],[-90.39077,38.81119,141],[-90.3908,38.81119,141],[-90.39084,38.81118,141],[-90.39083,38.81114,141],[-90.39081,38.81112,141],[-90.3908,38.81108,140],[-90.3908,38.81105,140],[-90.39082,38.81101,139],[-90.39083,38.81099,139],[-90.39083,38.81096,139],[-90.39082,38.81092,139],[-90.3908,38.8109,138],[-90.39079,38.81087,138],[-90.39077,38.81084,138],[-90.39076,38.81081,138],[-90.39076,38.81078,138],[-90.39078,38.81075,138],[-90.39079,38.81072,138],[-90.3908,38.81069,139],[-90.3908,38.81065,139]]],
        "bbox": [
          -90.38749,
          38.81571,
          -90.39225,
          38.81065
        ]
      },
      "properties": {
        "name": "12.28.2025"
      }
    }
  ]
}