{
  "type": "FeatureCollection",
  "features": [
    {
      "type": "Feature",
      "geometry": {
        "type": "MultiLineString",
        "coordinates": [[[-90.39502,38.81173,133],[-90.39499,38.81166,133],[-90.39495,38.81168,133],[-90.39492,38.8117,133],[-90.39488,38.81173,133],[-90.39485,38.81175,134],[-90.39481,38.81177,134],[-90.39478,38.81179,135],[-90.39476,38.81181,135],[-90.39474,38.81185,135],[-90.39473,38.81188,136],[-90.39471,38.81191,136],[-90.39468,38.81194,137],[-90.39467,38.81197,137],[-90.39464,38.81199,137],[-90.39461,38.81201,137],[-90.39458,38.81203,137],[-90.39455,38.81204,137],[-90.39451,38.81207,137],[-90.39447,38.81209,137],[-90.39443,38.81211,138],[-90.3944,38.81213,138],[-90.39436,38.81216,138],[-90.39434,38.81218,138],[-90.39432,38.81221,138],[-90.39429,38.81223,137],[-90.39427,38.81225,137],[-90.39425,38.81228,137],[-90.39422,38.8123,137],[-90.39419,38.81232,137],[-90.39416,38.81235,137],[-90.39414,38.81237,137],[-90.39411,38.8124,137],[-90.39408,38.81243,137],[-90.39406,38.81245,137],[-90.39403,38.81247,137],[-90.39401,38.8125,137],[-90.39398,38.81251,136],[-90.39394,38.81254,136],[-90.39391,38.81256,136],[-90.39388,38.81257,136],[-90.39385,38.81259,135],[-90.39381,38.81261,135],[-90.39377,38.81263,135],[-90.39374,38.81266,135],[-90.3937,38.81269,134],[-90.39368,38.8127,134],[-90.39365,38.81272,134],[-90.39361,38.81274,134],[-90.39357,38.81277,134],[-90.39354,38.81279,134],[-90.39351,38.81281,134],[-90.39348,38.81283,134],[-90.39345,38.81285,134],[-90.39342,38.81287,134],[-90.39339,38.81289,134],[-90.39337,38.81292,133],[-90.39333,38.81294,133],[-90.3933,38.81296,133],[-90.39326,38.81298,133],[-90.39323,38.813,133],[-90.3932,38.81302,133],[-90.39317,38.81304,133],[-90.39313,38.81307,132],[-90.3931,38.81309,132],[-90.39305,38.81312,133],[-90.39301,38.81314,133],[-90.39298,38.81316,133],[-90.39296,38.81319,133],[-90.39293,38.81321,133],[-90.39289,38.81323,133],[-90.39286,38.81324,134],[-90.39283,38.81326,134],[-90.3928,38.81329,134],[-90.39278,38.81331,134],[-90.39275,38.81333,135],[-90.39272,38.81335,135],[-90.39269,38.81337,135],[-90.39267,38.81339,136],[-90.39265,38.81342,136],[-90.39262,38.81344,137],[-90.3926,38.81347,137],[-90.39257,38.81349,137],[-90.39256,38.81352,138],[-90.39255,38.81355,138],[-90.39255,38.81359,138],[-90.39254,38.81363,138],[-90.39253,38.81366,138],[-90.39251,38.81368,138],[-90.39249,38.81371,138],[-90.39246,38.81374,138],[-90.39245,38.81377,137],[-90.39244,38.8138,137],[-90.39242,38.81382,137],[-90.39239,38.81385,136],[-90.39238,38.81388,135],[-90.39236,38.81391,136],[-90.39234,38.81394,137],[-90.39231,38.81397,139],[-90.39229,38.81399,140],[-90.39225,38.81401,141],[-90.39221,38.81402,141],[-90.39218,38.814,140],[-90.39215,38.81397,139],[-90.3921,38.81395,138],[-90.39207,38.81393,138],[-90.39204,38.81391,137],[-90.39201,38.81388,136],[-90.39198,38.81385,137],[-90.39195,38.81384,138],[-90.39191,38.81382,139],[-90.39186,38.81381,141],[-90.39183,38.8138,142],[-90.3918,38.81377,142],[-90.39176,38.81375,143],[-90.39173,38.81373,143],[-90.39171,38.8137,143],[-90.3917,38.81366,143],[-90.39168,38.81363,143],[-90.39166,38.8136,143],[-90.39164,38.81357,144],[-90.39165,38.81353,144],[-90.39165,38.81349,145],[-90.39164,38.81346,145],[-90.39163,38.81343,146],[-90.39162,38.8134,146],[-90.39161,38.81337,147],[-90.39158,38.81334,148],[-90.39154,38.81332,148],[-90.3915,38.8133,149],[-90.39147,38.81329,149],[-90.39144,38.81327,149],[-90.39141,38.81325,150],[-90.39138,38.81322,150],[-90.39134,38.81321,151],[-90.3913,38.81319,151],[-90.39127,38.81317,152],[-90.39123,38.81315,152],[-90.39121,38.81313,152],[-90.39119,38.8131,153],[-90.39118,38.81307,153],[-90.39116,38.81303,152],[-90.39114,38.813,152],[-90.39113,38.81297,151],[-90.39112,38.81294,150],[-90.39112,38.81291,150],[-90.39109,38.81288,149],[-90.39107,38.81286,149],[-90.39104,38.81284,149],[-90.39103,38.81281,148],[-90.39101,38.81278,148],[-90.391,38.81275,148],[-90.39099,38.81272,147],[-90.39099,38.81268,146],[-90.39099,38.81265,145],[-90.39099,38.81262,145],[-90.391,38.81259,144],[-90.39101,38.81256,143],[-90.391,38.81253,142],[-90.39099,38.81249,142],[-90.39097,38.81246,143],[-90.39095,38.81243,144],[-90.39092,38.8124,145],[-90.3909,38.81237,146],[-90.39088,38.81235,146],[-90.39087,38.81232,147],[-90.39086,38.81229,148],[-90.39086,38.81226,149],[-90.39086,38.81223,149],[-90.39086,38.8122,149],[-90.39087,38.81218,149],[-90.39088,38.81215,149],[-90.39089,38.81212,149],[-90.39089,38.81209,149],[-90.3909,38.81206,149],[-90.39092,38.81202,149],[-90.39092,38.812,149],[-90.39093,38.81196,150],[-90.39094,38.81193,149],[-90.39095,38.8119,149],[-90.39096,38.81186,149],[-90.39096,38.81183,148],[-90.39096,38.8118,148],[-90.39096,38.81177,147],[-90.39097,38.81174,147],[-90.39099,38.81171,146],[-90.39102,38.81168,145],[-90.39105,38.81165,145],[-90.39107,38.81162,144],[-90.3911,38.8116,144],[-90.39111,38.81157,143],[-90.39113,38.81154,142],[-90.39112,38.81152,142],[-90.39111,38.81149,142],[-90.39109,38.81146,142],[-90.39107,38.81144,142],[-90.39109,38.81147,142],[-90.39108,38.81144,141],[-90.39105,38.81142,141],[-90.39102,38.8114,141],[-90.39098,38.81138,141],[-90.39096,38.81136,141],[-90.39093,38.81133,141],[-90.39091,38.81131,141],[-90.39088,38.81128,141],[-90.39086,38.81125,141],[-90.39083,38.81122,141],[-90.39079,38.81121,141],[-90.39074,38.81123,142],[-90.3907,38.81124,142],[-90.39066,38.81125,142],[-90.39061,38.81126,142],[-90.39056,38.81126,142],[-90.39053,38.81125,142],[-90.39049,38.81122,142],[-90.39045,38.8112,142],[-90.39041,38.81118,142],[-90.39036,38.81116,142],[-90.39032,38.81117,142],[-90.39028,38.81118,142],[-90.39024,38.81118,143],[-90.3902,38.81118,144],[-90.39016,38.81117,144],[-90.39013,38.81117,144],[-90.39008,38.81116,145],[-90.39004,38.81116,146],[-90.39,38.81116,146],[-90.38997,38.81116,147],[-90.38992,38.81118,147],[-90.38989,38.8112,148],[-90.38986,38.81122,148],[-90.38981,38.81123,149],[-90.38978,38.81124,149],[-90.38973,38.81123,150],[-90.38969,38.81122,150],[-90.38964,38.81122,151],[-90.3896,38.81124,151],[-90.38958,38.81126,151],[-90.38956,38.81129,151],[-90.38954,38.81132,151],[-90.38953,38.81135,151],[-90.38951,38.81137,151],[-90.38948,38.81139,151],[-90.38944,38.81141,152],[-90.3894,38.81142,152],[-90.38936,38.81142,152],[-90.38931,38.81143,152],[-90.38928,38.81146,152],[-90.38925,38.81149,152],[-90.38922,38.81151,152],[-90.38918,38.81153,152],[-90.38915,38.81154,152],[-90.38911,38.81155,153],[-90.38907,38.81156,154],[-90.38903,38.81157,155],[-90.38899,38.81157,156],[-90.38894,38.81158,158],[-90.3889,38.81159,159],[-90.38888,38.81162,159],[-90.38885,38.81165,160],[-90.38882,38.81168,161],[-90.3888,38.8117,161],[-90.38877,38.81173,161],[-90.38875,38.81177,161],[-90.38872,38.8118,161],[-90.3887,38.81184,161],[-90.38867,38.81187,161],[-90.38865,38.81189,161],[-90.38862,38.81191,162],[-90.38861,38.81194,162],[-90.38862,38.81197,162],[-90.38863,38.812,162],[-90.38866,38.81203,161],[-90.38868,38.81205,161],[-90.38869,38.81209,162],[-90.38871,38.81212,162],[-90.3887,38.81216,162],[-90.38869,38.81219,163],[-90.38867,38.81222,163],[-90.38864,38.81225,164],[-90.38862,38.81227,164],[-90.38858,38.81229,165],[-90.38856,38.81231,166],[-90.38853,38.81234,167],[-90.38852,38.81237,168],[-90.38851,38.8124,169],[-90.38851,38.81244,169],[-90.38851,38.81247,170],[-90.38849,38.81251,171],[-90.38847,38.81254,172],[-90.38844,38.81256,173],[-90.38842,38.8126,174],[-90.38839,38.81262,175],[-90.38838,38.81266,176],[-90.38836,38.81269,177],[-90.38834,38.81272,178],[-90.38831,38.81274,179],[-90.38828,38.81276,181],[-90.38824,38.81277,182],[-90.3882,38.81279,184],[-90.38816,38.81281,185],[-90.38812,38.81282,186],[-90.38808,38.81283,188],[-90.38805,38.81285,188],[-90.38803,38.81287,189],[-90.38802,38.8129,189],[-90.38802,38.81294,189],[-90.38803,38.81297,190],[-90.38803,38.813,190],[-90.38803,38.81303,190],[-90.38803,38.81307,191],[-90.38802,38.8131,191],[-90.388,38.81313,192],[-90.38797,38.81315,193],[-90.38795,38.81317,193],[-90.38792,38.8132,194],[-90.3879,38.81323,194],[-90.38786,38.81324,194],[-90.38782,38.81326,195],[-90.38778,38.81327,195],[-90.38774,38.81327,195],[-90.3877,38.81328,194],[-90.38767,38.81329,194],[-90.38763,38.8133,194],[-90.3876,38.81332,194],[-90.38758,38.81335,194],[-90.38757,38.81338,194],[-90.38756,38.81341,194],[-90.38755,38.81345,195],[-90.38755,38.81348,195],[-90.38754,38.81352,195],[-90.38754,38.81354,195],[-90.38753,38.81357,195],[-90.38752,38.81361,196],[-90.38751,38.81365,196],[-90.38751,38.81368,197],[-90.38751,38.81371,197],[-90.3875,38.81375,198],[-90.38749,38.81378,198],[-90.3875,38.81382,198],[-90.38752,38.81386,199],[-90.38753,38.81388,199],[-90.38756,38.8139,200],[-90.38759,38.81393,200],[-90.38762,38.81395,200],[-90.38766,38.81397,200],[-90.3877,38.81397,200],[-90.38774,38.81398,200],[-90.38779,38.81398,199],[-90.38784,38.81398,199],[-90.38788,38.81397,199],[-90.38792,38.81397,199],[-90.38796,38.81397,199],[-90.38801,38.81396,199],[-90.38805,38.81396,199],[-90.38808,38.81395,199],[-90.38813,38.81394,198],[-90.38817,38.81394,198],[-90.38821,38.81393,198],[-90.38824,38.81394,198],[-90.38828,38.81395,198],[-90.38831,38.81396,198],[-90.38834,38.81398,198],[-90.38837,38.814,198],[-90.38841,38.81401,197],[-90.38845,38.81402,197],[-90.38849,38.81404,197],[-90.38853,38.81405,196],[-90.38857,38.81406,196],[-90.3886,38.81407,196],[-90.38864,38.81409,196],[-90.38867,38.81411,195],[-90.38871,38.81413,195],[-90.38875,38.81413,194],[-90.38878,38.81414,194],[-90.38882,38.81415,193],[-90.38886,38.81416,193],[-90.3889,38.81417,192],[-90.38894,38.81418,192],[-90.38898,38.8142,192],[-90.38902,38.81421,192],[-90.38906,38.81422,192],[-90.38909,38.81423,192],[-90.38913,38.81423,192],[-90.38916,38.81425,192],[-90.38919,38.81427,192],[-90.38922,38.81429,191],[-90.38926,38.8143,191],[-90.38931,38.81431,190],[-90.38935,38.81432,190],[-90.38939,38.81433,189],[-90.38942,38.81436,189],[-90.38945,38.81438,189],[-90.38947,38.81441,189],[-90.38948,38.81444,189],[-90.38948,38.81447,189],[-90.38947,38.81451,190],[-90.38947,38.81454,190],[-90.38946,38.81457,190],[-90.38946,38.8146,190],[-90.38946,38.81463,190],[-90.38946,38.81466,190],[-90.38946,38.8147,190],[-90.38946,38.81473,190],[-90.38947,38.81476,190],[-90.38947,38.81479,190],[-90.38947,38.81483,189],[-90.38947,38.81486,189],[-90.38947,38.81489,189],[-90.38949,38.81493,188],[-90.38954,38.81494,188],[-90.38958,38.81495,189],[-90.38959,38.81498,188],[-90.38962,38.81501,188],[-90.38966,38.81503,188],[-90.38969,38.81505,187],[-90.38973,38.81507,187],[-90.38976,38.81509,187],[-90.38977,38.81512,186],[-90.3898,38.81515,185],[-90.38983,38.81518,184],[-90.38986,38.8152,184],[-90.3899,38.81521,184],[-90.38993,38.81523,183],[-90.38996,38.81525,182],[-90.39,38.81527,182],[-90.39003,38.81528,181],[-90.39007,38.8153,181],[-90.39011,38.81532,181],[-90.39014,38.81533,181],[-90.39018,38.81536,180],[-90.39022,38.81537,180],[-90.39025,38.81539,180],[-90.39029,38.8154,180],[-90.39033,38.81542,180],[-90.39036,38.81542,180],[-90.3904,38.81544,181],[-90.39043,38.81547,181],[-90.39045,38.81549,181],[-90.3905,38.8155,181],[-90.39053,38.81551,182],[-90.39058,38.81552,182],[-90.39062,38.81552,182],[-90.39066,38.81552,183],[-90.3907,38.81551,183],[-90.39074,38.81551,184],[-90.39078,38.81551,184],[-90.39082,38.81551,185],[-90.39086,38.8155,185],[-90.3909,38.8155,185],[-90.39094,38.81549,185],[-90.39098,38.81548,185],[-90.39102,38.81547,186],[-90.39105,38.81546,186],[-90.39109,38.81546,186],[-90.39113,38.81546,186],[-90.39117,38.81546,186],[-90.39121,38.81546,185],[-90.39125,38.81546,185],[-90.39128,38.81546,185],[-90.39133,38.81547,185],[-90.39138,38.81548,185],[-90.39141,38.81548,185],[-90.39145,38.81549,184],[-90.39149,38.8155,184],[-90.39153,38.81553,183],[-90.39156,38.81555,183],[-90.39158,38.81557,183],[-90.39163,38.8156,182],[-90.39166,38.81561,182],[-90.39169,38.81563,181],[-90.39172,38.81565,180],[-90.39174,38.81568,179],[-90.39175,38.81571,179],[-90.39175,38.81575,178],[-90.39175,38.81578,178],[-90.39175,38.81581,178],[-90.39176,38.81584,177],[-90.39176,38.81588,176],[-90.39176,38.81592,175],[-90.39176,38.81595,174],[-90.39175,38.81598,174],[-90.39174,38.81601,174],[-90.39173,38.81604,173],[-90.39173,38.81607,173],[-90.39172,38.81611,172],[-90.39172,38.81614,171],[-90.39171,38.81618,170],[-90.3917,38.81622,169],[-90.3917,38.81625,168],[-90.39169,38.81628,167],[-90.39166,38.81631,166],[-90.39162,38.81632,167],[-90.39158,38.81634,167],[-90.39155,38.81637,167],[-90.39152,38.81639,167],[-90.3915,38.81643,166],[-90.39148,38.81646,166],[-90.39145,38.81648,166],[-90.39142,38.8165,166],[-90.39139,38.81652,166],[-90.39136,38.81654,166],[-90.39134,38.81657,165],[-90.3913,38.81658,165],[-90.39127,38.8166,165],[-90.39124,38.81662,165],[-90.39121,38.81664,165],[-90.39118,38.81667,164],[-90.39115,38.81668,165],[-90.39111,38.81668,165],[-90.39107,38.81668,165],[-90.39103,38.81669,165],[-90.39099,38.8167,165],[-90.39096,38.81672,165],[-90.39092,38.81673,165],[-90.39088,38.81673,165],[-90.39085,38.81676,165],[-90.39081,38.81677,165],[-90.39076,38.81677,165],[-90.39073,38.81678,165],[-90.39069,38.8168,165],[-90.39065,38.81682,165],[-90.39061,38.81684,165],[-90.39057,38.81686,165],[-90.39054,38.81687,165],[-90.39052,38.81689,165],[-90.39053,38.81692,165],[-90.39053,38.81695,164],[-90.39054,38.81698,163],[-90.39054,38.81701,163],[-90.39052,38.81703,162],[-90.39052,38.81706,161],[-90.39052,38.81709,160],[-90.39053,38.81712,159],[-90.39053,38.81716,158],[-90.39052,38.81719,157],[-90.39051,38.81722,156],[-90.39051,38.81725,155],[-90.39052,38.81728,154],[-90.39053,38.8173,153],[-90.39056,38.81732,152],[-90.39059,38.81734,151],[-90.39061,38.81737,149],[-90.39063,38.81739,148],[-90.39065,38.81743,147],[-90.39066,38.81745,146],[-90.39063,38.81747,145],[-90.39059,38.81748,146],[-90.39054,38.81749,146],[-90.39051,38.8175,146],[-90.39049,38.81752,146],[-90.39049,38.81756,145],[-90.3905,38.81759,144],[-90.39051,38.81762,143],[-90.39053,38.81764,143],[-90.39054,38.81767,142],[-90.39051,38.81769,142],[-90.39047,38.81769,142],[-90.39042,38.81769,143],[-90.39038,38.8177,143],[-90.39035,38.81771,143],[-90.39033,38.81774,143],[-90.39029,38.81774,143],[-90.39025,38.81773,144],[-90.3902,38.81773,145],[-90.39016,38.81774,145],[-90.39011,38.81775,146],[-90.39007,38.81775,147],[-90.39004,38.81776,147],[-90.39,38.81777,148],[-90.38996,38.81779,148],[-90.38992,38.8178,148],[-90.38987,38.81781,148],[-90.38984,38.81782,149],[-90.38981,38.81783,149],[-90.38976,38.81784,149],[-90.38973,38.81785,149],[-90.38969,38.81786,150],[-90.38965,38.81787,150],[-90.3896,38.81788,150],[-90.38957,38.81789,150],[-90.38953,38.81789,150],[-90.38949,38.81789,150],[-90.38946,38.81791,150],[-90.38941,38.81792,150],[-90.38936,38.81793,151],[-90.38931,38.81793,151],[-90.38927,38.81793,152],[-90.38924,38.81794,152],[-90.38921,38.81795,152],[-90.38916,38.81795,153],[-90.38912,38.81795,154],[-90.38908,38.81795,155],[-90.38904,38.81795,156],[-90.389,38.81795,157],[-90.38895,38.81795,158],[-90.38891,38.81795,159],[-90.38887,38.81795,160],[-90.38883,38.81795,161],[-90.38879,38.81796,161],[-90.38876,38.81797,161],[-90.38874,38.81801,161],[-90.38873,38.81804,160],[-90.38872,38.81807,160],[-90.38874,38.8181,158],[-90.38875,38.81813,156],[-90.38874,38.81817,155],[-90.38871,38.81818,155],[-90.38867,38.8182,155],[-90.38864,38.81821,155],[-90.38861,38.81823,154],[-90.38858,38.81826,153],[-90.38855,38.81828,152],[-90.38851,38.8183,151],[-90.38847,38.81831,151],[-90.38843,38.81832,150],[-90.38839,38.81833,150],[-90.38836,38.81835,149],[-90.38833,38.81838,148],[-90.38831,38.81841,146],[-90.38829,38.81844,145],[-90.38827,38.81846,145],[-90.38824,38.81848,144],[-90.38821,38.8185,143],[-90.38817,38.81852,143],[-90.38813,38.81854,143],[-90.3881,38.81856,142],[-90.38806,38.81859,142],[-90.38802,38.81861,142],[-90.38799,38.81862,142],[-90.38796,38.81864,142],[-90.38793,38.81867,143],[-90.3879,38.81868,143],[-90.38786,38.8187,143],[-90.38781,38.81872,143],[-90.38777,38.81874,144],[-90.38773,38.81876,144],[-90.38769,38.81879,143],[-90.38765,38.81881,143],[-90.38761,38.81883,143],[-90.38757,38.81885,142],[-90.38754,38.81887,142],[-90.38752,38.8189,141],[-90.3875,38.81893,140],[-90.38748,38.81896,139],[-90.38747,38.81899,138],[-90.38746,38.81903,137],[-90.38745,38.81906,136],[-90.38742,38.81908,135],[-90.38737,38.8191,135],[-90.38734,38.81912,134],[-90.3873,38.81914,133],[-90.38727,38.81915,132],[-90.38723,38.81917,132],[-90.3872,38.81919,132],[-90.38717,38.81918,132],[-90.38714,38.81921,132],[-90.3871,38.81924,132],[-90.38707,38.81925,132],[-90.38704,38.81927,132],[-90.38699,38.81929,132],[-90.38695,38.8193,132],[-90.38691,38.81932,132],[-90.38687,38.81934,132],[-90.38682,38.81935,132],[-90.38679,38.81936,133],[-90.38674,38.81937,133],[-90.3867,38.81938,133],[-90.38666,38.81939,132],[-90.38663,38.8194,132],[-90.38659,38.81941,132],[-90.38655,38.81942,132],[-90.38652,38.81944,131],[-90.38648,38.81945,131],[-90.38644,38.81945,131],[-90.3864,38.81946,131],[-90.38636,38.81948,131],[-90.38632,38.8195,132],[-90.38628,38.81951,133],[-90.38623,38.81951,134],[-90.3862,38.81952,134],[-90.38616,38.81953,135],[-90.38611,38.81954,136],[-90.38608,38.81954,136],[-90.38603,38.81955,136],[-90.38598,38.81954,137],[-90.38594,38.81953,137],[-90.3859,38.81953,138],[-90.38587,38.81954,138],[-90.38583,38.81955,137],[-90.38578,38.81956,137],[-90.38574,38.81956,137],[-90.3857,38.81957,137],[-90.38565,38.81957,137],[-90.3856,38.81957,137],[-90.38556,38.81957,137],[-90.38552,38.81957,137],[-90.38549,38.81958,136],[-90.38546,38.8196,135],[-90.38542,38.81959,136],[-90.38538,38.81958,136],[-90.38533,38.81958,136],[-90.3853,38.81956,137],[-90.38527,38.81955,137],[-90.38525,38.81952,138],[-90.38527,38.8195,139],[-90.38531,38.8195,139],[-90.38534,38.81951,139],[-90.38539,38.81952,139],[-90.38543,38.81953,138],[-90.38547,38.81953,138],[-90.3855,38.81951,139],[-90.38553,38.81949,140],[-90.38557,38.8195,139],[-90.3856,38.81951,139],[-90.38563,38.81954,138],[-90.38566,38.81956,137],[-90.3857,38.81957,137],[-90.38574,38.81957,137],[-90.38579,38.81956,137],[-90.38583,38.81956,137],[-90.38587,38.81955,137],[-90.3859,38.81955,137],[-90.38594,38.81954,137],[-90.38598,38.81954,137],[-90.38602,38.81954,136],[-90.38606,38.81954,136],[-90.38611,38.81953,136],[-90.38616,38.81951,135],[-90.38619,38.81953,134],[-90.3862,38.81956,134],[-90.38622,38.81958,133],[-90.38626,38.81958,132],[-90.38631,38.81958,132],[-90.38635,38.81958,131],[-90.38638,38.81956,131],[-90.38642,38.81955,131],[-90.38646,38.81954,131],[-90.38649,38.81953,131],[-90.38653,38.81951,131],[-90.38658,38.81949,131],[-90.38661,38.81948,131],[-90.38665,38.81945,131],[-90.3867,38.81943,132],[-90.38674,38.81941,132],[-90.38677,38.81939,132],[-90.3868,38.81937,132],[-90.38683,38.81934,132],[-90.38686,38.81932,132],[-90.38689,38.8193,132],[-90.38692,38.81929,132],[-90.38695,38.81927,132],[-90.38699,38.81925,132],[-90.38703,38.81924,132],[-90.38707,38.81924,132],[-90.38711,38.81923,132],[-90.38714,38.81922,132],[-90.38716,38.8192,132],[-90.3872,38.81918,132],[-90.38723,38.81916,132],[-90.38725,38.81914,133],[-90.38729,38.81913,133],[-90.38733,38.81911,134],[-90.38736,38.81909,135],[-90.38738,38.81907,136],[-90.38741,38.81904,137],[-90.38744,38.81902,137],[-90.38747,38.819,138],[-90.3875,38.81898,139],[-90.38754,38.81896,139],[-90.38757,38.81894,140],[-90.38761,38.81894,140],[-90.38765,38.81894,140],[-90.38769,38.81893,140],[-90.38773,38.81892,141],[-90.38776,38.8189,141],[-90.38779,38.81887,142],[-90.38782,38.81884,142],[-90.38785,38.81881,142],[-90.38788,38.81878,142],[-90.38792,38.81875,142],[-90.38795,38.81873,142],[-90.38798,38.8187,142],[-90.38803,38.81869,141],[-90.38806,38.81867,141],[-90.3881,38.81866,140],[-90.38813,38.81865,140],[-90.38817,38.81863,140],[-90.3882,38.81862,139],[-90.38824,38.81863,139],[-90.38827,38.81862,138],[-90.38832,38.81862,138],[-90.38835,38.8186,138],[-90.38838,38.81858,139],[-90.38836,38.81856,140],[-90.38835,38.81859,138],[-90.38834,38.81862,138]],[[-90.38853,38.81857,139],[-90.38844,38.81854,141],[-90.38843,38.8185,142],[-90.38845,38.81848,143],[-90.38849,38.81845,144],[-90.38852,38.81843,145],[-90.38856,38.8184,147],[-90.38859,38.81838,148],[-90.38862,38.81836,148],[-90.38866,38.81835,148],[-90.38869,38.81834,148],[-90.38873,38.81832,148],[-90.38877,38.8183,149],[-90.3888,38.81828,149],[-90.3888,38.81825,150],[-90.38878,38.81822,152],[-90.38877,38.8182,153],[-90.38877,38.81817,154],[-90.38878,38.81814,155],[-90.38879,38.81812,156],[-90.38883,38.81809,156],[-90.38886,38.81807,157],[-90.3889,38.81806,156],[-90.38894,38.81805,155],[-90.38899,38.81805,154],[-90.38903,38.81805,153],[-90.38907,38.81805,152],[-90.3891,38.81804,152],[-90.38914,38.81804,151],[-90.38918,38.81803,150],[-90.38922,38.81802,150],[-90.38925,38.818,150],[-90.38929,38.81799,150],[-90.38933,38.81798,150],[-90.38936,38.81796,150],[-90.3894,38.81795,149],[-90.38943,38.81795,149],[-90.38948,38.81794,149],[-90.38952,38.81795,149],[-90.38956,38.81796,148],[-90.3896,38.81796,148],[-90.38965,38.81795,148],[-90.3897,38.81794,148],[-90.38973,38.81793,148],[-90.38977,38.81792,148],[-90.38981,38.81792,147],[-90.38984,38.81793,147],[-90.38988,38.81793,146],[-90.38992,38.81792,146],[-90.38995,38.8179,146],[-90.38999,38.81789,146],[-90.39003,38.81788,145],[-90.39008,38.81786,145],[-90.39012,38.81785,144],[-90.39016,38.81783,144],[-90.3902,38.81781,144],[-90.39024,38.81779,143],[-90.39027,38.81778,143],[-90.3903,38.81776,143],[-90.39034,38.81775,142],[-90.39038,38.81774,142],[-90.39042,38.81772,142],[-90.39045,38.81771,142],[-90.39049,38.81771,142],[-90.39053,38.81772,141],[-90.39057,38.81771,141],[-90.39061,38.81769,141],[-90.39064,38.81768,141],[-90.39066,38.81766,141],[-90.39069,38.81764,141],[-90.39072,38.81761,141],[-90.39075,38.81759,141],[-90.39078,38.81756,141],[-90.3908,38.81754,141],[-90.39083,38.81752,141],[-90.39085,38.8175,141],[-90.39088,38.81746,142],[-90.39089,38.81743,143],[-90.39091,38.8174,144],[-90.39093,38.81738,144],[-90.39096,38.81735,145],[-90.39098,38.81733,145],[-90.39101,38.8173,145],[-90.39103,38.81727,146],[-90.39106,38.81725,146],[-90.39109,38.81722,146],[-90.39112,38.8172,146],[-90.39115,38.81717,147],[-90.39119,38.81715,147],[-90.39121,38.81713,148],[-90.39124,38.81711,148],[-90.39127,38.81709,148],[-90.39129,38.81707,149],[-90.39132,38.81705,149],[-90.39136,38.81702,150],[-90.39141,38.81701,149],[-90.39147,38.81701,148],[-90.3915,38.81701,148],[-90.39155,38.817,147],[-90.39159,38.817,147],[-90.39162,38.81699,147],[-90.39166,38.81698,146],[-90.3917,38.81697,147],[-90.39174,38.81696,147],[-90.39177,38.81694,148],[-90.39181,38.81692,148],[-90.39184,38.8169,149],[-90.39186,38.81687,149],[-90.39189,38.81684,149],[-90.39191,38.81681,150],[-90.39192,38.81678,150],[-90.39193,38.81674,150],[-90.39196,38.81671,150],[-90.39198,38.81669,150],[-90.39199,38.81666,150],[-90.39201,38.81664,150],[-90.39204,38.81662,150],[-90.39207,38.8166,149],[-90.3921,38.81657,149],[-90.39213,38.81655,149],[-90.39217,38.81653,148],[-90.3922,38.81651,148],[-90.39221,38.81648,148],[-90.39223,38.81645,148],[-90.39225,38.81642,148],[-90.39228,38.81639,147],[-90.3923,38.81637,147],[-90.39233,38.81635,147],[-90.39235,38.81632,148],[-90.39237,38.81629,148],[-90.39238,38.81626,148],[-90.39239,38.81624,149],[-90.39242,38.81621,149],[-90.39245,38.81619,148],[-90.39248,38.81617,148],[-90.39251,38.81615,147],[-90.39254,38.81614,147],[-90.39257,38.81613,146],[-90.39261,38.81611,145],[-90.39264,38.81609,144],[-90.39267,38.81606,143],[-90.39269,38.81604,142],[-90.39271,38.81601,142],[-90.3927,38.81599,142],[-90.39268,38.81596,143],[-90.39266,38.81593,143],[-90.39266,38.8159,143],[-90.39267,38.81587,143],[-90.39269,38.81583,142],[-90.39269,38.8158,143],[-90.39269,38.81577,144],[-90.39269,38.81573,144],[-90.39269,38.8157,145],[-90.39269,38.81566,146],[-90.3927,38.81563,146],[-90.39271,38.81559,147],[-90.39272,38.81556,147],[-90.39273,38.81551,148],[-90.39274,38.81548,148],[-90.39278,38.81546,147],[-90.39281,38.81543,147],[-90.39283,38.81541,147],[-90.39288,38.81539,146],[-90.39291,38.81538,146],[-90.39296,38.81536,145],[-90.393,38.81534,145],[-90.39303,38.81532,145],[-90.39307,38.8153,145],[-90.39311,38.81528,144],[-90.39313,38.81526,144],[-90.39314,38.81523,144],[-90.39314,38.8152,144],[-90.39315,38.81517,144],[-90.39316,38.81514,144],[-90.39314,38.81511,145],[-90.39311,38.81508,146],[-90.39308,38.81505,147],[-90.39305,38.81502,147],[-90.39302,38.815,148],[-90.39299,38.81498,148],[-90.39296,38.81495,148],[-90.39294,38.81492,148],[-90.39294,38.81489,148],[-90.39294,38.81486,148],[-90.39294,38.81483,148],[-90.39294,38.81478,148],[-90.39293,38.81474,148],[-90.39293,38.81471,148],[-90.39293,38.81467,148],[-90.39293,38.81464,149],[-90.39291,38.8146,149],[-90.39287,38.81458,150],[-90.39285,38.81457,150],[-90.39281,38.81455,151],[-90.39278,38.81453,152],[-90.39274,38.81451,153],[-90.39271,38.81449,153],[-90.39268,38.81447,153],[-90.39265,38.81444,154],[-90.3926,38.81442,154],[-90.39258,38.8144,154],[-90.39255,38.81438,154],[-90.39252,38.81437,154],[-90.39249,38.81434,153],[-90.39246,38.81432,153],[-90.39241,38.8143,152],[-90.39238,38.81428,152],[-90.39235,38.81426,152],[-90.39232,38.81424,151],[-90.39229,38.81422,151],[-90.39227,38.8142,151],[-90.39227,38.81416,150],[-90.39227,38.81413,148],[-90.39229,38.81411,147],[-90.3923,38.81407,145],[-90.39232,38.81403,142],[-90.39235,38.81401,141],[-90.39237,38.81398,140],[-90.39239,38.81396,139],[-90.39241,38.81393,138],[-90.39244,38.8139,137],[-90.39246,38.81387,137],[-90.39247,38.81385,137],[-90.39249,38.81382,138],[-90.39251,38.81379,138],[-90.39253,38.81375,138],[-90.39254,38.81373,138],[-90.39255,38.8137,138],[-90.39256,38.81366,138],[-90.39257,38.81363,138],[-90.39258,38.8136,138],[-90.39259,38.81357,138],[-90.39261,38.81354,138],[-90.39263,38.8135,137],[-90.39264,38.81348,137],[-90.39267,38.81345,136],[-90.39269,38.81343,136],[-90.39272,38.81341,136],[-90.39275,38.81338,135],[-90.39278,38.81335,135],[-90.3928,38.81332,134],[-90.39282,38.8133,134],[-90.39285,38.81327,134],[-90.39287,38.81325,134],[-90.3929,38.81322,133],[-90.39293,38.81319,133],[-90.39296,38.81316,133],[-90.39298,38.81314,133],[-90.39301,38.81312,133],[-90.39304,38.8131,133],[-90.39307,38.81308,132],[-90.3931,38.81306,132],[-90.39313,38.81304,133],[-90.39316,38.81302,133],[-90.3932,38.813,133],[-90.39323,38.81298,133],[-90.39326,38.81296,133],[-90.39329,38.81294,133],[-90.39333,38.81292,133],[-90.39335,38.8129,134],[-90.39338,38.81288,134],[-90.3934,38.81285,134],[-90.39343,38.81283,134],[-90.39347,38.8128,134],[-90.39351,38.81278,134],[-90.39354,38.81276,134],[-90.39357,38.81275,134],[-90.39359,38.81273,134],[-90.39363,38.81271,134],[-90.39367,38.81269,134],[-90.3937,38.81268,134],[-90.39374,38.81267,134],[-90.39377,38.81265,135],[-90.39381,38.81263,135],[-90.39384,38.81261,135],[-90.39386,38.81259,135],[-90.39388,38.81257,136],[-90.3939,38.81253,136],[-90.39393,38.8125,137],[-90.39395,38.81247,137],[-90.39398,38.81245,137],[-90.39401,38.81242,137],[-90.39406,38.81241,137],[-90.3941,38.81239,137],[-90.39413,38.81236,137],[-90.39417,38.81234,137],[-90.3942,38.81231,137],[-90.39424,38.81229,137],[-90.39427,38.81228,137],[-90.39431,38.81226,137],[-90.39434,38.81224,137],[-90.39436,38.81222,138],[-90.39438,38.81219,138],[-90.39441,38.81216,138],[-90.39443,38.81213,138],[-90.39445,38.8121,137],[-90.39447,38.81208,137],[-90.3945,38.81205,137],[-90.39452,38.81202,137],[-90.39455,38.81201,137],[-90.39458,38.81198,137],[-90.39461,38.81196,137],[-90.39463,38.81194,137],[-90.39466,38.81192,136],[-90.39469,38.81189,136],[-90.39473,38.81186,136],[-90.39475,38.81184,135],[-90.39477,38.81182,135],[-90.3948,38.81179,134],[-90.39482,38.81176,134],[-90.39484,38.81174,134],[-90.39488,38.81171,133],[-90.39491,38.81168,133],[-90.39494,38.81166,133],[-90.39498,38.81163,132],[-90.39502,38.81161,132]]],
        "bbox": [
          -90.38525,
          38.8196,
          -90.39502,
          38.81116
        ]
      },
      "properties": {
        "name": "5.1.2021"
      }
    }
  ]
}