{
  "type": "FeatureCollection",
  "features": [
    {
      "type": "Feature",
      "geometry": {
        "type": "MultiLineString",
        "coordinates": [[[-90.39465,38.8119,136],[-90.39462,38.81192,137],[-90.3946,38.81195,137],[-90.39456,38.81198,137],[-90.39453,38.81201,137],[-90.3945,38.81203,137],[-90.39448,38.81205,137],[-90.39444,38.81207,138],[-90.39441,38.81209,138],[-90.39439,38.81211,138],[-90.39436,38.81214,138],[-90.39432,38.81217,138],[-90.3943,38.81219,138],[-90.39427,38.81221,138],[-90.39425,38.81223,137],[-90.39422,38.81225,137],[-90.39419,38.81227,137],[-90.39417,38.81229,137],[-90.39413,38.81232,137],[-90.3941,38.81234,137],[-90.39408,38.81235,137],[-90.39405,38.81237,137],[-90.39403,38.8124,137],[-90.39401,38.81242,137],[-90.39398,38.81244,137],[-90.39395,38.81247,137],[-90.39392,38.8125,137],[-90.39388,38.81253,136],[-90.39386,38.81255,136],[-90.39382,38.81258,135],[-90.3938,38.8126,135],[-90.39377,38.81262,135],[-90.39373,38.81264,135],[-90.39369,38.81267,134],[-90.39367,38.81269,134],[-90.39364,38.81272,134],[-90.3936,38.81274,134],[-90.39357,38.81275,134],[-90.39353,38.81277,134],[-90.3935,38.81279,134],[-90.39347,38.8128,134],[-90.39344,38.81283,134],[-90.39341,38.81285,134],[-90.39336,38.81287,134],[-90.39333,38.81289,134],[-90.39329,38.81291,134],[-90.39325,38.81293,133],[-90.39321,38.81295,133],[-90.39318,38.81297,133],[-90.39314,38.81299,133],[-90.39311,38.81302,133],[-90.39307,38.81305,133],[-90.39304,38.81308,133],[-90.39301,38.8131,133],[-90.39298,38.81313,133],[-90.39295,38.81316,133],[-90.39293,38.81318,133],[-90.39291,38.8132,133],[-90.3929,38.81324,133],[-90.39287,38.81327,134],[-90.39284,38.8133,134],[-90.39281,38.81334,134],[-90.39278,38.81336,135],[-90.39276,38.81339,135],[-90.39273,38.81341,136],[-90.3927,38.81343,136],[-90.39267,38.81346,136],[-90.39264,38.81348,137],[-90.39261,38.8135,137],[-90.3926,38.81353,137],[-90.3926,38.81356,138],[-90.39259,38.81359,138],[-90.39256,38.81361,138],[-90.39253,38.81365,138],[-90.39251,38.81367,138],[-90.39249,38.81369,138],[-90.39246,38.81371,138],[-90.39244,38.81374,138],[-90.39243,38.81377,137],[-90.39243,38.81381,137],[-90.39243,38.81385,137],[-90.39242,38.81388,136],[-90.39239,38.81391,137],[-90.39238,38.81394,138],[-90.39236,38.81397,139],[-90.39235,38.81399,140],[-90.39233,38.81402,142],[-90.3923,38.81404,143],[-90.39229,38.81407,145],[-90.39232,38.8141,146],[-90.39234,38.81413,148],[-90.39237,38.81415,149],[-90.3924,38.81417,150],[-90.39244,38.81419,150],[-90.39247,38.81421,150],[-90.39252,38.81423,151],[-90.39255,38.81425,151],[-90.39258,38.81426,151],[-90.39262,38.81428,151],[-90.39266,38.8143,151],[-90.39269,38.81432,151],[-90.39271,38.81435,151],[-90.39273,38.81438,152],[-90.39276,38.81441,152],[-90.39278,38.81443,152],[-90.39281,38.81444,152],[-90.39285,38.81446,151],[-90.39287,38.81449,150],[-90.3929,38.81451,150],[-90.39293,38.81454,149],[-90.39296,38.81457,148],[-90.39297,38.8146,148],[-90.39299,38.81463,147],[-90.393,38.81465,147],[-90.39301,38.81469,147],[-90.39301,38.81473,146],[-90.39301,38.81476,147],[-90.39301,38.81479,147],[-90.39302,38.81483,147],[-90.39302,38.81487,147],[-90.39303,38.8149,147],[-90.39305,38.81493,147],[-90.39307,38.81496,147],[-90.39309,38.81499,147],[-90.39311,38.81502,146],[-90.39313,38.81505,146],[-90.39314,38.81509,145],[-90.39314,38.81512,145],[-90.39313,38.81515,145],[-90.39311,38.81518,145],[-90.3931,38.81522,145],[-90.39307,38.81525,145],[-90.39305,38.81528,146],[-90.39302,38.81531,145],[-90.393,38.81533,145],[-90.39297,38.81535,145],[-90.39293,38.81537,146],[-90.39288,38.81539,146],[-90.39286,38.8154,147],[-90.39282,38.81543,147],[-90.39279,38.81545,147],[-90.39275,38.81547,148],[-90.39273,38.8155,148],[-90.39273,38.81552,147],[-90.39273,38.81556,146],[-90.39276,38.81558,145],[-90.39278,38.81556,144],[-90.39269,38.81558,147],[-90.39267,38.8156,148],[-90.39266,38.81564,147],[-90.39266,38.81567,147],[-90.39266,38.81571,146],[-90.39266,38.81574,145],[-90.39266,38.81576,145],[-90.39266,38.81579,144],[-90.39267,38.81583,143],[-90.39268,38.81586,143],[-90.39269,38.8159,142],[-90.3927,38.81594,142],[-90.39269,38.81597,142],[-90.39268,38.816,143],[-90.39265,38.81603,144],[-90.39262,38.81606,145],[-90.39259,38.81608,145],[-90.39256,38.8161,146],[-90.39254,38.81613,147],[-90.39253,38.81615,147],[-90.3925,38.81617,147],[-90.39246,38.81618,148],[-90.39243,38.8162,149],[-90.39243,38.81623,148],[-90.39241,38.81625,148],[-90.39241,38.81629,147],[-90.39237,38.81631,147],[-90.39234,38.81633,148],[-90.39237,38.81634,147],[-90.39239,38.81637,145],[-90.39238,38.8164,145],[-90.39235,38.81643,145],[-90.39232,38.81645,146],[-90.3923,38.81648,146],[-90.39229,38.81651,146],[-90.39228,38.81653,146],[-90.39227,38.81656,146],[-90.39226,38.81659,146],[-90.39222,38.81661,146],[-90.39218,38.81663,147],[-90.39215,38.81665,147],[-90.39213,38.81668,147],[-90.3921,38.81671,148],[-90.39206,38.81672,148],[-90.39203,38.81673,149],[-90.39201,38.81676,149],[-90.39199,38.81678,149],[-90.39198,38.81681,149],[-90.39196,38.81684,149],[-90.39193,38.81685,149],[-90.39191,38.81688,149],[-90.39187,38.8169,149],[-90.39184,38.81691,149],[-90.39184,38.81694,148],[-90.39181,38.81696,147],[-90.39178,38.81698,147],[-90.39174,38.817,146],[-90.3917,38.81702,145],[-90.39166,38.81703,144],[-90.39162,38.81705,144],[-90.39158,38.81706,144],[-90.39154,38.81708,144],[-90.3915,38.8171,144],[-90.39148,38.81713,143],[-90.39145,38.81716,142],[-90.39142,38.81718,142],[-90.39138,38.8172,142],[-90.39135,38.81721,142],[-90.39132,38.81723,142],[-90.39128,38.81725,142],[-90.39125,38.81726,142],[-90.39122,38.81728,142],[-90.39119,38.8173,142],[-90.39117,38.81732,142],[-90.39114,38.81735,142],[-90.3911,38.81736,142],[-90.39106,38.81737,142],[-90.39103,38.81738,143],[-90.39099,38.8174,143],[-90.39095,38.8174,143],[-90.39091,38.81741,143],[-90.39087,38.8174,144],[-90.39083,38.8174,145],[-90.39081,38.81738,146],[-90.39079,38.81735,147],[-90.39076,38.81733,148],[-90.3908,38.81735,147],[-90.39081,38.81738,146],[-90.39078,38.8174,146],[-90.39077,38.81744,144],[-90.39074,38.81746,144],[-90.39071,38.81747,144],[-90.39067,38.81747,145],[-90.39064,38.81748,145],[-90.39064,38.81751,144],[-90.39065,38.81754,143],[-90.39063,38.81751,144],[-90.3906,38.81752,144],[-90.39056,38.81753,145],[-90.39052,38.81752,145],[-90.3905,38.81754,145],[-90.39048,38.81752,146],[-90.39046,38.81749,147],[-90.39043,38.81747,148],[-90.3904,38.81746,148],[-90.39037,38.81748,148],[-90.39033,38.81749,148],[-90.39029,38.8175,148],[-90.39026,38.8175,149],[-90.39022,38.81751,149],[-90.39019,38.81753,149],[-90.3902,38.81755,148],[-90.39017,38.81756,149],[-90.39007,38.81751,151],[-90.39006,38.81749,151],[-90.3901,38.81749,151],[-90.39012,38.81751,150],[-90.39012,38.81755,149],[-90.39013,38.81758,149],[-90.39017,38.81758,148],[-90.3902,38.81757,148],[-90.39022,38.81754,148],[-90.39023,38.81751,149],[-90.39025,38.81749,149],[-90.39029,38.8175,148],[-90.39032,38.81748,149],[-90.39036,38.81747,149],[-90.39039,38.81745,149],[-90.39042,38.81743,149],[-90.39046,38.81742,149],[-90.3905,38.81744,148],[-90.39053,38.81741,149],[-90.39054,38.81739,150],[-90.39053,38.81736,151],[-90.39052,38.81733,152],[-90.39051,38.8173,153],[-90.39052,38.81733,152],[-90.39054,38.81731,152],[-90.39054,38.81728,154],[-90.39053,38.81726,154],[-90.39052,38.81723,155],[-90.3905,38.81721,156],[-90.39047,38.8172,157],[-90.39044,38.81718,157],[-90.39046,38.81715,158],[-90.39047,38.81712,159],[-90.39048,38.81709,160],[-90.3905,38.81706,161],[-90.3905,38.81704,162],[-90.39049,38.81701,163],[-90.39049,38.81698,164],[-90.39049,38.81695,165],[-90.39048,38.81692,165],[-90.39047,38.81689,166],[-90.39048,38.81686,166],[-90.39051,38.81685,166],[-90.39055,38.81684,166],[-90.39059,38.81682,166],[-90.39063,38.81681,165],[-90.39066,38.8168,165],[-90.3907,38.81679,165],[-90.39073,38.81678,165],[-90.39077,38.81679,165],[-90.39077,38.81676,165],[-90.39078,38.81679,165],[-90.39081,38.81678,165],[-90.39083,38.81675,165],[-90.39085,38.81672,165],[-90.39089,38.81671,165],[-90.39093,38.81672,165],[-90.39096,38.81673,165],[-90.391,38.81674,164],[-90.39103,38.81676,163],[-90.39107,38.81678,163],[-90.39111,38.81678,162],[-90.39115,38.81677,162],[-90.39118,38.81677,161],[-90.39122,38.81676,161],[-90.39125,38.81676,161],[-90.39128,38.81674,161],[-90.3913,38.81671,161],[-90.39132,38.81669,162],[-90.39135,38.81666,162],[-90.39138,38.81664,163],[-90.39139,38.81661,163],[-90.3914,38.81658,164],[-90.39143,38.81657,164],[-90.39146,38.81659,162],[-90.3915,38.81659,161],[-90.39162,38.81643,164],[-90.39165,38.81641,163],[-90.39165,38.81638,164],[-90.39164,38.81636,165],[-90.39174,38.81613,171],[-90.39176,38.8161,171],[-90.39177,38.81607,171],[-90.39178,38.81604,172],[-90.39179,38.81601,172],[-90.3918,38.81598,173],[-90.39179,38.81594,174],[-90.39179,38.81591,174],[-90.39179,38.81587,175],[-90.3918,38.81583,176],[-90.39179,38.81581,176],[-90.39178,38.81577,177],[-90.39177,38.81573,178],[-90.39178,38.8157,178],[-90.39181,38.81569,178],[-90.39185,38.81568,177],[-90.39189,38.81568,176],[-90.39192,38.81569,175],[-90.39195,38.81571,174],[-90.39194,38.81568,175],[-90.39191,38.81566,176],[-90.39187,38.81565,177],[-90.39183,38.81565,178],[-90.39179,38.81566,179],[-90.39175,38.81567,179],[-90.39171,38.81566,180],[-90.39167,38.81564,182],[-90.39165,38.81562,182],[-90.39163,38.81559,182],[-90.3916,38.81557,183],[-90.39158,38.81554,183],[-90.39154,38.81551,183],[-90.39151,38.81549,183],[-90.39149,38.81546,184],[-90.39145,38.81544,184],[-90.3914,38.81543,185],[-90.39136,38.81542,185],[-90.39131,38.81541,185],[-90.39127,38.8154,185],[-90.39124,38.81539,186],[-90.3912,38.81539,186],[-90.39116,38.81539,186],[-90.39111,38.8154,186],[-90.39107,38.81541,186],[-90.39103,38.81542,186],[-90.391,38.81543,186],[-90.39097,38.81544,186],[-90.39091,38.81545,185],[-90.39088,38.81545,185],[-90.39084,38.81545,185],[-90.3908,38.81545,185],[-90.39075,38.81545,184],[-90.39072,38.81545,184],[-90.39068,38.81544,184],[-90.39064,38.81544,183],[-90.39059,38.81544,183],[-90.39055,38.81543,182],[-90.39051,38.81543,182],[-90.39047,38.81541,182],[-90.39043,38.81539,181],[-90.39039,38.81537,181],[-90.39036,38.81537,181],[-90.39032,38.81536,181],[-90.39028,38.81535,181],[-90.39024,38.81534,181],[-90.3902,38.81532,181],[-90.39015,38.8153,181],[-90.39012,38.81529,181],[-90.39008,38.81529,181],[-90.39005,38.81528,181],[-90.39001,38.81526,182],[-90.38997,38.81524,183],[-90.38994,38.81522,183],[-90.38991,38.8152,184],[-90.38988,38.81517,184],[-90.38985,38.81514,185],[-90.38982,38.81513,186],[-90.38978,38.8151,186],[-90.38976,38.81508,187],[-90.38973,38.81506,187],[-90.3897,38.81504,188],[-90.38968,38.81501,188],[-90.38965,38.81498,188],[-90.38962,38.81496,189],[-90.3896,38.81493,189],[-90.38959,38.8149,189],[-90.38959,38.81487,189],[-90.38959,38.81483,190],[-90.38958,38.8148,190],[-90.38957,38.81477,190],[-90.38956,38.81474,191],[-90.38954,38.81471,191],[-90.38953,38.81468,191],[-90.38953,38.81464,190],[-90.38953,38.81461,190],[-90.38953,38.81458,190],[-90.38953,38.81455,190],[-90.38954,38.81451,190],[-90.38953,38.81448,189],[-90.38952,38.81445,189],[-90.3895,38.81442,189],[-90.38948,38.8144,189],[-90.38946,38.81437,189],[-90.38942,38.81435,189],[-90.38939,38.81433,189],[-90.38936,38.81431,190],[-90.38933,38.81428,190],[-90.38929,38.81426,190],[-90.38925,38.81424,191],[-90.38921,38.81422,192],[-90.38918,38.8142,192],[-90.38913,38.81419,192],[-90.38909,38.81418,192],[-90.38905,38.81418,192],[-90.389,38.81418,192],[-90.38895,38.81418,192],[-90.38891,38.81416,192],[-90.38888,38.81415,193],[-90.38884,38.81412,193],[-90.3888,38.81411,193],[-90.38875,38.81411,194],[-90.38871,38.81411,195],[-90.38868,38.8141,195],[-90.38864,38.81409,196],[-90.38859,38.81407,196],[-90.38856,38.81406,196],[-90.38853,38.81405,196],[-90.38849,38.81403,197],[-90.38845,38.81402,197],[-90.38842,38.814,197],[-90.38838,38.81398,197],[-90.38834,38.81396,198],[-90.3883,38.81395,198],[-90.38826,38.81393,198],[-90.38821,38.81391,198],[-90.38816,38.81391,198],[-90.38812,38.81391,198],[-90.38809,38.81391,198],[-90.38805,38.81391,199],[-90.388,38.81391,199],[-90.38797,38.81391,199],[-90.38793,38.81392,199],[-90.38789,38.81392,199],[-90.38784,38.81393,199],[-90.38779,38.81393,199],[-90.38774,38.81393,200],[-90.3877,38.81393,200],[-90.38766,38.81392,200],[-90.38763,38.81389,199],[-90.38759,38.81388,199],[-90.38757,38.81385,199],[-90.38754,38.81382,199],[-90.38753,38.81379,198],[-90.38755,38.81375,198],[-90.38756,38.81371,197],[-90.38756,38.81368,197],[-90.38756,38.81365,196],[-90.38757,38.81362,196],[-90.38758,38.81359,196],[-90.38759,38.81355,196],[-90.38759,38.81352,195],[-90.3876,38.81349,195],[-90.38762,38.81346,195],[-90.38762,38.81344,195],[-90.38763,38.8134,195],[-90.38763,38.81337,195],[-90.38764,38.81334,195],[-90.38766,38.81332,195],[-90.3877,38.81332,195],[-90.38774,38.81333,195],[-90.38778,38.81333,195],[-90.38782,38.81333,195],[-90.38787,38.81333,195],[-90.3879,38.81331,195],[-90.38792,38.81329,195],[-90.38794,38.81326,194],[-90.38797,38.81324,194],[-90.388,38.81323,194],[-90.38802,38.8132,193],[-90.38803,38.81318,193],[-90.38805,38.81314,192],[-90.38806,38.81311,191],[-90.38808,38.81307,190],[-90.38808,38.81304,190],[-90.38809,38.81301,189],[-90.38808,38.81298,189],[-90.38808,38.81295,189],[-90.38809,38.81292,188],[-90.38809,38.81288,188],[-90.3881,38.81285,187],[-90.3881,38.81282,187],[-90.38812,38.81279,186],[-90.38816,38.81278,184],[-90.3882,38.81277,183],[-90.38823,38.81276,182],[-90.38827,38.81275,181],[-90.38831,38.81275,180],[-90.38833,38.81272,179],[-90.38836,38.8127,177],[-90.3884,38.81269,176],[-90.38844,38.81268,174],[-90.38847,38.81267,173],[-90.3885,38.81266,173],[-90.38854,38.81264,171],[-90.38857,38.81261,170],[-90.38859,38.81259,169],[-90.38861,38.81255,169],[-90.38863,38.81253,168],[-90.38865,38.81251,168],[-90.38865,38.81247,167],[-90.38865,38.81244,167],[-90.38865,38.81241,166],[-90.38866,38.81238,166],[-90.38867,38.81235,165],[-90.38868,38.81232,165],[-90.38872,38.81231,164],[-90.38875,38.81229,163],[-90.38878,38.81226,163],[-90.3888,38.81222,162],[-90.38882,38.81219,162],[-90.38883,38.81216,161],[-90.38883,38.81213,160],[-90.38883,38.8121,160],[-90.38882,38.81207,160],[-90.38881,38.81204,159],[-90.3888,38.81201,159],[-90.38877,38.81199,159],[-90.38874,38.81198,160],[-90.38871,38.81194,160],[-90.38869,38.81192,160],[-90.38866,38.81189,161],[-90.38863,38.81187,162],[-90.38864,38.81183,162],[-90.38865,38.8118,162],[-90.38867,38.81178,162],[-90.38869,38.81175,162],[-90.38871,38.81172,162],[-90.38874,38.8117,162],[-90.38877,38.81167,162],[-90.3888,38.81165,161],[-90.38883,38.81162,160],[-90.38884,38.81159,160],[-90.38886,38.81157,159],[-90.3889,38.81156,158],[-90.38893,38.81155,158],[-90.38896,38.81153,157],[-90.38899,38.81151,156],[-90.38903,38.8115,155],[-90.38906,38.81149,154],[-90.3891,38.81147,153],[-90.38914,38.81145,152],[-90.38918,38.81143,152],[-90.3892,38.8114,152],[-90.38923,38.81138,152],[-90.38927,38.81137,152],[-90.38931,38.81138,152],[-90.38935,38.81137,152],[-90.38938,38.81135,152],[-90.3894,38.81133,152],[-90.38943,38.81131,152],[-90.38945,38.81128,151],[-90.38948,38.81126,151],[-90.3895,38.81123,151],[-90.38953,38.81121,151],[-90.38956,38.8112,151],[-90.3896,38.8112,151],[-90.38963,38.8112,151],[-90.38968,38.8112,150],[-90.38972,38.81121,150],[-90.38977,38.8112,149],[-90.3898,38.81119,149],[-90.38984,38.81118,148],[-90.38987,38.81116,148],[-90.38991,38.81116,148],[-90.38995,38.81117,147],[-90.39,38.81118,146],[-90.39004,38.81118,146],[-90.39008,38.81119,145],[-90.39013,38.81119,144],[-90.39016,38.81118,144],[-90.39021,38.81118,143],[-90.39026,38.81118,143],[-90.39029,38.81118,142],[-90.39034,38.81118,142],[-90.39038,38.81118,142],[-90.39042,38.8112,142],[-90.39045,38.81121,142],[-90.39049,38.81122,142],[-90.39052,38.81123,142],[-90.39056,38.81124,142],[-90.39059,38.81123,142],[-90.39063,38.81121,142],[-90.39067,38.81119,141],[-90.39072,38.81118,141],[-90.39075,38.81117,141],[-90.39079,38.81118,141],[-90.39083,38.8112,141],[-90.39086,38.81123,141],[-90.39089,38.81125,141],[-90.39092,38.81127,141],[-90.39095,38.8113,141],[-90.39098,38.81133,141],[-90.39101,38.81136,141],[-90.39105,38.81138,141],[-90.39107,38.81141,141],[-90.3911,38.81144,141],[-90.39112,38.81146,141],[-90.39113,38.81149,142],[-90.39114,38.81153,142],[-90.39113,38.81156,143],[-90.3911,38.81159,143],[-90.39108,38.81161,144],[-90.39106,38.81163,144],[-90.39103,38.81165,145],[-90.391,38.81167,145],[-90.391,38.8117,146],[-90.39099,38.81173,146],[-90.39097,38.81175,147],[-90.39096,38.81178,147],[-90.39095,38.81182,148],[-90.39094,38.81184,148],[-90.39095,38.81187,149],[-90.39096,38.81191,149],[-90.39097,38.81193,150],[-90.39097,38.81197,150],[-90.39095,38.812,150],[-90.39095,38.81203,150],[-90.39095,38.81206,149],[-90.39097,38.81208,149],[-90.39097,38.81211,149],[-90.39095,38.81213,149],[-90.39092,38.81214,149],[-90.39088,38.81215,149],[-90.39089,38.81218,149],[-90.39089,38.81221,149],[-90.39089,38.81224,149],[-90.3909,38.81228,148],[-90.39092,38.81231,147],[-90.39095,38.81233,146],[-90.39098,38.81235,146],[-90.391,38.81238,145],[-90.39102,38.81241,144],[-90.39102,38.81244,143],[-90.39102,38.81248,142],[-90.39103,38.8125,141],[-90.39103,38.81254,142],[-90.39104,38.81257,143],[-90.39104,38.8126,144],[-90.39105,38.81264,144],[-90.39103,38.81266,145],[-90.39104,38.81269,146],[-90.39106,38.81272,146],[-90.39108,38.81275,146],[-90.39109,38.81278,147],[-90.39112,38.8128,147],[-90.39115,38.81282,147],[-90.39116,38.81286,148],[-90.39117,38.81289,149],[-90.39118,38.81292,149],[-90.3912,38.81294,149],[-90.39122,38.81297,150],[-90.39123,38.81299,150],[-90.39125,38.81302,151],[-90.39127,38.81305,151],[-90.39129,38.81308,151],[-90.39131,38.8131,151],[-90.39134,38.81312,150],[-90.39137,38.81314,150],[-90.39139,38.81316,150],[-90.3914,38.81319,150],[-90.39142,38.81322,150],[-90.39146,38.81324,149],[-90.39148,38.81326,149],[-90.39152,38.81328,148],[-90.39156,38.81329,148],[-90.3916,38.81332,147],[-90.39162,38.81335,147],[-90.39164,38.81338,146],[-90.39165,38.81341,146],[-90.39167,38.81343,145],[-90.39169,38.81346,144],[-90.3917,38.81349,144],[-90.3917,38.81352,143],[-90.39172,38.81355,143],[-90.39174,38.81358,142],[-90.39177,38.81361,142],[-90.39179,38.81363,142],[-90.39182,38.81366,141],[-90.39183,38.81369,141],[-90.39184,38.81373,141],[-90.39185,38.81375,141],[-90.39188,38.81377,140],[-90.39192,38.81378,139],[-90.39196,38.81379,138],[-90.392,38.8138,138],[-90.39203,38.81382,137],[-90.39206,38.81385,136],[-90.39208,38.81388,135],[-90.39212,38.8139,135],[-90.39215,38.81392,136],[-90.39218,38.81394,136],[-90.39222,38.81396,137],[-90.39225,38.81399,139],[-90.39229,38.81399,140],[-90.39231,38.81396,138],[-90.39232,38.81393,137],[-90.39234,38.8139,135],[-90.39236,38.81387,135],[-90.39237,38.81384,136],[-90.3924,38.81382,136],[-90.39241,38.81379,137],[-90.39243,38.81376,137],[-90.39244,38.81373,138],[-90.39246,38.8137,138],[-90.39247,38.81367,138],[-90.39248,38.81364,138],[-90.39249,38.81361,138],[-90.3925,38.81358,138],[-90.39252,38.81354,138],[-90.39254,38.81351,138],[-90.39255,38.81347,137],[-90.39257,38.81344,137],[-90.39258,38.81341,137],[-90.39261,38.81339,136],[-90.39264,38.81337,136],[-90.39268,38.81334,135],[-90.39272,38.81332,135],[-90.39276,38.81331,135],[-90.39279,38.8133,134],[-90.39283,38.81329,134],[-90.39285,38.81327,134],[-90.39288,38.81324,134],[-90.3929,38.81321,133],[-90.39293,38.81318,133],[-90.39296,38.81315,133],[-90.39298,38.81313,133],[-90.393,38.81311,133],[-90.39303,38.81307,133],[-90.39305,38.81305,133],[-90.39308,38.81302,133],[-90.39311,38.813,133],[-90.39313,38.81297,133],[-90.39315,38.81295,133],[-90.39318,38.81294,133],[-90.39321,38.81292,133],[-90.39324,38.8129,134],[-90.39327,38.81288,134],[-90.39331,38.81287,134],[-90.39334,38.81285,134],[-90.39337,38.81283,134],[-90.3934,38.81282,134],[-90.39344,38.81281,134],[-90.39347,38.81279,134],[-90.3935,38.81278,134],[-90.39354,38.81275,134],[-90.39357,38.81272,134],[-90.3936,38.81271,134],[-90.39364,38.81268,134],[-90.39368,38.81266,134],[-90.39371,38.81264,135],[-90.39374,38.81263,135],[-90.39377,38.81261,135],[-90.3938,38.81259,135],[-90.39382,38.81257,136],[-90.39386,38.81254,136],[-90.39389,38.81252,136],[-90.39393,38.81249,137],[-90.39396,38.81247,137],[-90.39399,38.81244,137],[-90.39402,38.81241,137],[-90.39405,38.8124,137],[-90.39408,38.81237,137],[-90.39411,38.81235,137],[-90.39413,38.81233,137],[-90.39416,38.81231,137],[-90.3942,38.81228,137],[-90.39423,38.81226,137],[-90.39425,38.81224,137],[-90.39429,38.81221,138],[-90.39432,38.8122,138],[-90.39435,38.81217,138],[-90.39437,38.81215,138],[-90.3944,38.81213,138],[-90.39443,38.8121,138],[-90.39446,38.81208,137],[-90.3945,38.81205,137],[-90.39454,38.81204,137],[-90.39458,38.81202,137],[-90.39462,38.81201,137],[-90.39465,38.81199,137],[-90.39467,38.81197,137],[-90.3947,38.81195,137],[-90.39474,38.81192,136],[-90.39477,38.8119,136],[-90.3948,38.81187,135],[-90.39483,38.81185,135],[-90.39486,38.81183,134],[-90.39489,38.81181,134],[-90.39493,38.81178,134],[-90.39497,38.81176,133],[-90.395,38.81174,133],[-90.39502,38.81171,133],[-90.39501,38.81168,133]]],
        "bbox": [
          -90.38753,
          38.81758,
          -90.39502,
          38.81116
        ]
      },
      "properties": {
        "name": "4.27.2020"
      }
    }
  ]
}