{
  "type": "FeatureCollection",
  "features": [
    {
      "type": "Feature",
      "geometry": {
        "type": "MultiLineString",
        "coordinates": [[[-90.39499,38.81172,133],[-90.39495,38.81174,133],[-90.39491,38.81175,133],[-90.39488,38.81174,134],[-90.39484,38.81175,134],[-90.39483,38.81178,134],[-90.39481,38.81181,135],[-90.39479,38.81184,135],[-90.39476,38.81186,135],[-90.39473,38.81189,136],[-90.39469,38.81192,136],[-90.39466,38.81194,137],[-90.39463,38.81197,137],[-90.39459,38.81198,137],[-90.39456,38.812,137],[-90.39454,38.81202,137],[-90.3945,38.81204,137],[-90.39447,38.81206,137],[-90.39444,38.81209,138],[-90.39441,38.81211,138],[-90.39437,38.81215,138],[-90.39435,38.81218,138],[-90.39433,38.81221,138],[-90.3943,38.81223,137],[-90.39428,38.81225,137],[-90.39427,38.81228,137],[-90.39425,38.81231,137],[-90.39422,38.81233,137],[-90.39419,38.81235,137],[-90.39415,38.81238,137],[-90.39412,38.8124,137],[-90.3941,38.81243,137],[-90.39407,38.81246,137],[-90.39405,38.81247,137],[-90.39401,38.81249,137],[-90.39397,38.81251,136],[-90.39394,38.81253,136],[-90.3939,38.81256,136],[-90.39387,38.81258,136],[-90.39384,38.81261,135],[-90.39382,38.81263,135],[-90.39379,38.81266,135],[-90.39375,38.81268,134],[-90.39371,38.8127,134],[-90.39368,38.81272,134],[-90.39366,38.81275,134],[-90.39363,38.81278,133],[-90.39361,38.81281,133],[-90.39357,38.81282,133],[-90.39353,38.81284,133],[-90.39349,38.81285,133],[-90.39345,38.81285,134],[-90.39342,38.81288,133],[-90.39341,38.8129,133],[-90.39336,38.81292,133],[-90.39333,38.81293,133],[-90.3933,38.81296,133],[-90.39328,38.81298,133],[-90.39324,38.81299,133],[-90.39319,38.81303,133],[-90.39314,38.81306,132],[-90.39311,38.81309,132],[-90.39299,38.8132,133],[-90.39296,38.81325,133],[-90.39294,38.81327,133],[-90.39291,38.8133,134],[-90.39288,38.81333,134],[-90.39285,38.81336,134],[-90.39283,38.81338,135],[-90.3928,38.8134,135],[-90.39277,38.81342,135],[-90.39274,38.81344,136],[-90.39271,38.81347,136],[-90.3927,38.8135,137],[-90.39268,38.81353,137],[-90.39267,38.81357,137],[-90.39264,38.8136,138],[-90.39261,38.81362,138],[-90.3926,38.81365,138],[-90.39259,38.81368,138],[-90.39255,38.81376,138],[-90.39252,38.81378,138],[-90.39249,38.8138,138],[-90.39247,38.81384,137],[-90.39244,38.81387,137],[-90.3924,38.81392,137],[-90.39236,38.81397,139],[-90.39233,38.814,141],[-90.3923,38.81404,143],[-90.39225,38.81401,141],[-90.39219,38.81401,141],[-90.39213,38.81403,143],[-90.39207,38.81404,144],[-90.39202,38.81406,145],[-90.39197,38.81407,147],[-90.39195,38.81411,149],[-90.39192,38.81413,150],[-90.39189,38.81417,153],[-90.39187,38.81422,155],[-90.39183,38.81424,156],[-90.39182,38.8143,158],[-90.39182,38.81437,160],[-90.39182,38.81442,161],[-90.39181,38.81446,163],[-90.39181,38.81449,163],[-90.3918,38.81453,164],[-90.3918,38.81457,164],[-90.3918,38.81462,165],[-90.39181,38.81466,166],[-90.39183,38.81469,165],[-90.39185,38.81473,165],[-90.39188,38.81477,165],[-90.39188,38.8148,165],[-90.39185,38.81484,167],[-90.39183,38.81487,168],[-90.39185,38.81491,168],[-90.39188,38.81496,167],[-90.39192,38.81499,166],[-90.39195,38.81502,166],[-90.39197,38.81506,167],[-90.39196,38.8151,169],[-90.39195,38.81514,170],[-90.39195,38.81518,172],[-90.39194,38.81522,174],[-90.39192,38.81525,175],[-90.3919,38.81528,176],[-90.39193,38.81532,176],[-90.39195,38.81535,176],[-90.39195,38.81539,176],[-90.39195,38.81543,176],[-90.39195,38.81548,177],[-90.39193,38.81552,178],[-90.39191,38.81555,178],[-90.39193,38.81558,177],[-90.39192,38.81561,177],[-90.39191,38.81564,176],[-90.39193,38.81566,176],[-90.39197,38.81567,174],[-90.39193,38.81569,175],[-90.39189,38.8157,176],[-90.39183,38.81571,177],[-90.39177,38.81571,178],[-90.39173,38.8157,179],[-90.39168,38.81567,181],[-90.39165,38.81564,182],[-90.39159,38.81558,183],[-90.39157,38.81555,183],[-90.39155,38.81551,183],[-90.39152,38.81548,183],[-90.39149,38.81549,184],[-90.39145,38.81548,184],[-90.39142,38.81546,184],[-90.39139,38.81543,185],[-90.39135,38.81541,185],[-90.39131,38.81541,185],[-90.39127,38.81541,185],[-90.39123,38.81542,186],[-90.39119,38.81541,186],[-90.39115,38.81541,186],[-90.39111,38.81541,186],[-90.39107,38.81541,186],[-90.39103,38.81543,186],[-90.391,38.81544,186],[-90.39096,38.81545,186],[-90.39092,38.81546,185],[-90.39088,38.81548,185],[-90.39084,38.81549,185],[-90.3908,38.81548,185],[-90.39074,38.81549,184],[-90.39068,38.8155,183],[-90.39064,38.81546,183],[-90.39058,38.81545,183],[-90.39053,38.81544,182],[-90.39047,38.81543,181],[-90.39043,38.81542,181],[-90.39046,38.81544,181],[-90.39049,38.81546,181],[-90.39053,38.81548,182],[-90.39056,38.8155,182],[-90.39061,38.81549,183],[-90.39065,38.81548,183],[-90.39068,38.81552,183],[-90.39071,38.81553,183],[-90.39075,38.81553,184],[-90.39079,38.81554,184],[-90.39083,38.81554,185],[-90.39086,38.81552,185],[-90.3909,38.81551,185],[-90.3909,38.81547,185],[-90.39096,38.81547,185],[-90.391,38.81548,185],[-90.39105,38.81548,186],[-90.3911,38.81547,186],[-90.39118,38.81546,186],[-90.39122,38.81547,185],[-90.39127,38.81545,185],[-90.39133,38.81544,185],[-90.39139,38.81544,185],[-90.39144,38.81546,184],[-90.39149,38.81547,184],[-90.39144,38.81547,184],[-90.39138,38.81548,185],[-90.39139,38.81552,185],[-90.39142,38.81555,184],[-90.39146,38.81557,184],[-90.3915,38.81561,183],[-90.39153,38.81563,183],[-90.39162,38.81568,181],[-90.39169,38.81568,181],[-90.39175,38.81567,179],[-90.3918,38.81565,179],[-90.39187,38.81564,177],[-90.39193,38.81563,176],[-90.39196,38.81566,175],[-90.39192,38.81569,175],[-90.39193,38.81573,174],[-90.39196,38.8157,174],[-90.39192,38.81568,175],[-90.3919,38.81566,176],[-90.39191,38.81563,177],[-90.39193,38.8156,177],[-90.39194,38.81557,177],[-90.39195,38.81554,177],[-90.39195,38.81551,177],[-90.39195,38.81548,177],[-90.39196,38.81545,176],[-90.39195,38.81541,176],[-90.39195,38.81537,176],[-90.39196,38.81532,175],[-90.39198,38.81528,174],[-90.392,38.81523,172],[-90.39202,38.81511,167],[-90.392,38.81507,167],[-90.39197,38.81504,166],[-90.39193,38.815,166],[-90.39191,38.81497,166],[-90.39191,38.81494,166],[-90.39193,38.81489,165],[-90.39194,38.81485,164],[-90.39193,38.81481,164],[-90.39194,38.81477,163],[-90.39195,38.81473,162],[-90.39193,38.8147,163],[-90.39189,38.81466,163],[-90.39186,38.81464,164],[-90.39185,38.81461,164],[-90.39182,38.81459,164],[-90.39179,38.81456,165],[-90.39176,38.81454,165],[-90.39176,38.81451,165],[-90.39177,38.81448,164],[-90.39181,38.81441,162],[-90.39181,38.81438,161],[-90.39181,38.81434,160],[-90.39181,38.8143,159],[-90.39178,38.81432,160],[-90.39179,38.81429,159],[-90.3918,38.81424,157],[-90.39182,38.8142,155],[-90.39188,38.81418,154],[-90.39193,38.81416,152],[-90.39198,38.81414,150],[-90.39204,38.81413,149],[-90.3921,38.81412,148],[-90.39217,38.81412,148],[-90.39222,38.81413,148],[-90.3923,38.81421,151],[-90.39235,38.81425,152],[-90.39242,38.81427,152],[-90.39248,38.81427,152],[-90.39253,38.81429,152],[-90.39256,38.81431,152],[-90.39254,38.81434,153],[-90.39256,38.81431,152],[-90.39256,38.81427,151],[-90.39258,38.8143,152],[-90.39261,38.81433,152],[-90.39264,38.81436,152],[-90.39267,38.81439,152],[-90.39269,38.81443,153],[-90.39272,38.81446,153],[-90.39275,38.81449,153],[-90.39279,38.81451,152],[-90.39284,38.81454,151],[-90.39288,38.81456,150],[-90.39293,38.81459,149],[-90.39296,38.81461,148],[-90.39298,38.81465,147],[-90.39299,38.81469,147],[-90.393,38.81473,147],[-90.393,38.81477,147],[-90.393,38.81481,147],[-90.393,38.81485,147],[-90.393,38.81487,147],[-90.39301,38.8149,147],[-90.39303,38.81493,147],[-90.3931,38.81493,146],[-90.39309,38.81497,147],[-90.39311,38.81502,146],[-90.39313,38.81506,145],[-90.39314,38.81511,145],[-90.3931,38.81514,146],[-90.39307,38.81518,146],[-90.39305,38.81522,146],[-90.39307,38.81526,145],[-90.39305,38.81529,145],[-90.39305,38.81532,144],[-90.39294,38.81541,144],[-90.39288,38.81542,146],[-90.39286,38.81546,145],[-90.39282,38.81548,145],[-90.39277,38.8155,146],[-90.39274,38.81553,147],[-90.39271,38.81556,147],[-90.39266,38.81558,149],[-90.39261,38.8156,150],[-90.39256,38.81562,151],[-90.39254,38.81566,151],[-90.39254,38.81571,150],[-90.39259,38.81575,147],[-90.39261,38.81578,146],[-90.3926,38.81582,146],[-90.39255,38.81582,147],[-90.39254,38.81593,147],[-90.39254,38.81597,147],[-90.39252,38.81601,148],[-90.3925,38.81605,148],[-90.39246,38.81615,149],[-90.39244,38.81618,149],[-90.39248,38.81617,148],[-90.39253,38.81619,146],[-90.39257,38.81618,145],[-90.39259,38.81615,145],[-90.39257,38.81612,146],[-90.39259,38.81608,145],[-90.3926,38.81606,145],[-90.39261,38.81603,145],[-90.39263,38.816,144],[-90.39264,38.81598,144],[-90.39263,38.81595,144],[-90.39262,38.81591,145],[-90.39261,38.81589,145],[-90.3926,38.81585,145],[-90.39259,38.81582,146],[-90.39259,38.81579,147],[-90.39259,38.81576,147],[-90.39258,38.81573,148],[-90.39258,38.8157,149],[-90.39257,38.81566,150],[-90.39259,38.81563,150],[-90.3926,38.8156,150],[-90.39263,38.81558,150],[-90.39265,38.81556,150],[-90.39268,38.81554,149],[-90.39272,38.81552,148],[-90.39276,38.81552,146],[-90.39278,38.81549,146],[-90.39277,38.81552,146],[-90.39273,38.8155,148],[-90.39278,38.81547,147],[-90.39283,38.81546,146],[-90.39288,38.81544,145],[-90.39292,38.81542,145],[-90.39294,38.81538,145],[-90.39297,38.81535,145],[-90.39302,38.81532,145],[-90.39304,38.81528,146],[-90.39307,38.81525,145],[-90.3931,38.81522,145],[-90.39312,38.81518,145],[-90.39312,38.81514,145],[-90.3931,38.8151,146],[-90.3931,38.81507,146],[-90.3931,38.81503,146],[-90.3931,38.81499,147],[-90.39305,38.81501,147],[-90.39299,38.81499,148],[-90.39298,38.81496,148],[-90.39295,38.81492,148],[-90.39295,38.81488,148],[-90.39296,38.81484,148],[-90.39295,38.8148,148],[-90.39296,38.81477,148],[-90.39296,38.81473,148],[-90.39295,38.81469,148],[-90.39292,38.81466,149],[-90.39289,38.81463,149],[-90.39286,38.81459,150],[-90.39283,38.81456,151],[-90.39278,38.81453,152],[-90.39275,38.8145,153],[-90.39271,38.81447,153],[-90.39268,38.81442,153],[-90.39262,38.81439,153],[-90.39257,38.81438,153],[-90.39254,38.81437,153],[-90.39249,38.81437,154],[-90.39244,38.81436,154],[-90.39242,38.81433,153],[-90.39242,38.8143,152],[-90.39239,38.81425,151],[-90.39234,38.81425,152],[-90.39231,38.81424,151],[-90.39227,38.81422,151],[-90.39225,38.81419,151],[-90.39225,38.81415,149],[-90.39225,38.81412,148],[-90.39226,38.81409,146],[-90.39223,38.81406,144],[-90.3922,38.81405,143],[-90.39216,38.81403,142],[-90.39213,38.814,141],[-90.3921,38.81398,140],[-90.39207,38.81396,139],[-90.39205,38.81394,138],[-90.39202,38.81391,137],[-90.39198,38.81388,137],[-90.39195,38.81386,138],[-90.39191,38.81383,139],[-90.39188,38.8138,140],[-90.39182,38.81379,142],[-90.39178,38.81377,143],[-90.39174,38.81374,143],[-90.3917,38.81371,144],[-90.39167,38.81368,144],[-90.39164,38.81365,144],[-90.39162,38.81361,144],[-90.39163,38.81357,144],[-90.39163,38.81353,144],[-90.39162,38.81349,145],[-90.39162,38.81345,146],[-90.3915,38.81338,148],[-90.39143,38.81336,150],[-90.39139,38.81333,151],[-90.39136,38.81331,151],[-90.39134,38.81327,151],[-90.39129,38.81326,152],[-90.39126,38.81324,152],[-90.39124,38.8132,152],[-90.39122,38.81317,152],[-90.3912,38.81313,153],[-90.3912,38.81309,152],[-90.39117,38.81306,153],[-90.39114,38.81302,152],[-90.39111,38.81299,152],[-90.3911,38.81295,151],[-90.39109,38.81291,150],[-90.39109,38.81288,149],[-90.39109,38.81276,146],[-90.39109,38.81281,148],[-90.39106,38.81277,147],[-90.39104,38.81274,147],[-90.39101,38.81271,146],[-90.39101,38.81267,146],[-90.39101,38.81262,144],[-90.39101,38.81259,144],[-90.39102,38.81255,143],[-90.39101,38.81251,142],[-90.391,38.81248,142],[-90.39097,38.81242,144],[-90.39097,38.81238,145],[-90.39098,38.81234,146],[-90.39098,38.8123,147],[-90.39097,38.81226,148],[-90.39096,38.81222,149],[-90.39095,38.81218,149],[-90.39094,38.81214,149],[-90.39092,38.8121,149],[-90.39089,38.81206,149],[-90.39089,38.81203,149],[-90.39091,38.81199,149],[-90.39092,38.81195,149],[-90.39091,38.81192,149],[-90.39094,38.81195,150],[-90.39092,38.81203,149],[-90.39101,38.81206,150],[-90.39107,38.81204,150],[-90.39104,38.81199,150],[-90.391,38.81195,150],[-90.39097,38.81192,150],[-90.39092,38.81194,149],[-90.39099,38.81199,150],[-90.39097,38.81201,150],[-90.39095,38.81204,150],[-90.39091,38.81206,149],[-90.39089,38.8121,149],[-90.39086,38.81213,149],[-90.39087,38.81216,149],[-90.39088,38.81218,149],[-90.39089,38.81221,149],[-90.3909,38.81224,149],[-90.39092,38.81227,148],[-90.39092,38.81232,147],[-90.39094,38.81235,146],[-90.39095,38.81238,145],[-90.39094,38.81242,144],[-90.39093,38.81244,144],[-90.39093,38.81248,143],[-90.39095,38.8125,142],[-90.39096,38.81253,143],[-90.39097,38.81257,144],[-90.39098,38.8126,144],[-90.39101,38.81263,145],[-90.39103,38.81266,145],[-90.39104,38.81269,146],[-90.39106,38.81273,146],[-90.39105,38.81293,151],[-90.3911,38.81296,151],[-90.39111,38.81298,152],[-90.39109,38.81302,153],[-90.39108,38.81306,154],[-90.39108,38.81309,154],[-90.3911,38.81312,154],[-90.39112,38.81314,154],[-90.39116,38.81316,153],[-90.39119,38.81318,153],[-90.39123,38.81319,152],[-90.39127,38.8132,152],[-90.39131,38.8132,151],[-90.39135,38.81321,151],[-90.39138,38.81322,150],[-90.3914,38.81324,150],[-90.39141,38.81328,150],[-90.39142,38.81331,150],[-90.39145,38.81333,150],[-90.3915,38.81336,149],[-90.39153,38.81338,148],[-90.39156,38.8134,147],[-90.39158,38.81342,147],[-90.39159,38.81344,146],[-90.39161,38.81347,146],[-90.39162,38.8135,145],[-90.39163,38.81353,144],[-90.39163,38.81356,144],[-90.39163,38.8136,144],[-90.39163,38.81363,144],[-90.39164,38.81367,144],[-90.39168,38.81369,144],[-90.39171,38.81372,144],[-90.39173,38.81375,144],[-90.39176,38.81378,143],[-90.39181,38.81381,142],[-90.39184,38.81383,141],[-90.39187,38.81385,140],[-90.3919,38.81387,139],[-90.39193,38.81389,138],[-90.39197,38.81391,138],[-90.392,38.81393,139],[-90.39201,38.81395,140],[-90.39203,38.81398,141],[-90.39206,38.814,142],[-90.39209,38.81401,142],[-90.39213,38.81403,143],[-90.39222,38.81404,142],[-90.39227,38.81401,141],[-90.39232,38.81397,139],[-90.39235,38.81393,137],[-90.39239,38.81391,137],[-90.39243,38.81389,136],[-90.39246,38.81386,137],[-90.39249,38.81382,138],[-90.39251,38.81379,138],[-90.39252,38.81376,138],[-90.39251,38.81372,138],[-90.39251,38.81368,138],[-90.39255,38.81365,138],[-90.39257,38.81362,138],[-90.39259,38.81358,138],[-90.39262,38.81355,138],[-90.39264,38.81352,137],[-90.39266,38.81349,137],[-90.39269,38.81345,136],[-90.39272,38.81342,136],[-90.39275,38.81339,135],[-90.39279,38.81337,135],[-90.39283,38.81335,134],[-90.39285,38.81332,134],[-90.39289,38.81329,134],[-90.39293,38.81326,133],[-90.39296,38.81323,133],[-90.39299,38.8132,133],[-90.39302,38.81317,133],[-90.39305,38.81313,133],[-90.39308,38.8131,132],[-90.39312,38.81308,132],[-90.39317,38.81305,133],[-90.3932,38.81302,133],[-90.39323,38.813,133],[-90.39327,38.81298,133],[-90.3933,38.81294,133],[-90.39333,38.81292,133],[-90.39337,38.8129,133],[-90.3934,38.81288,134],[-90.39343,38.81286,134],[-90.39345,38.81284,134],[-90.39349,38.81282,134],[-90.39352,38.81281,134],[-90.39355,38.8128,134],[-90.39359,38.81278,134],[-90.39362,38.81277,134],[-90.39365,38.81274,134],[-90.39367,38.81272,134],[-90.3937,38.8127,134],[-90.39373,38.81267,134],[-90.39376,38.81266,135],[-90.39379,38.81263,135],[-90.39381,38.81261,135],[-90.39383,38.81258,135],[-90.39386,38.81256,136],[-90.3939,38.81254,136],[-90.39394,38.81253,136],[-90.39398,38.81251,136],[-90.39402,38.81249,137],[-90.39405,38.81247,137],[-90.39408,38.81245,137],[-90.39411,38.81242,137],[-90.39413,38.8124,137],[-90.39416,38.81238,137],[-90.3942,38.81236,137],[-90.39422,38.81234,137],[-90.39425,38.81232,137],[-90.39427,38.8123,137],[-90.3943,38.81227,137],[-90.39432,38.81225,137],[-90.39435,38.81222,138],[-90.39438,38.8122,138],[-90.3944,38.81217,138],[-90.39444,38.81215,138],[-90.39446,38.81212,137],[-90.39448,38.81209,137],[-90.3945,38.81206,137],[-90.39453,38.81204,137],[-90.39456,38.81202,137],[-90.39459,38.812,137],[-90.39461,38.81196,137],[-90.39463,38.81194,137],[-90.39466,38.81192,136],[-90.39469,38.8119,136],[-90.39472,38.81188,136],[-90.39475,38.81186,135],[-90.39478,38.81183,135],[-90.39481,38.81181,135],[-90.39484,38.81179,134],[-90.39486,38.81177,134],[-90.39489,38.81175,134],[-90.39492,38.81173,133],[-90.39495,38.81171,133],[-90.39499,38.8117,133],[-90.39501,38.81168,133],[-90.39504,38.81166,132],[-90.39508,38.81165,132],[-90.39511,38.81163,132],[-90.39515,38.81161,132],[-90.39516,38.81158,132],[-90.39513,38.81156,132],[-90.39519,38.81154,132],[-90.39523,38.81153,132],[-90.39527,38.81151,132],[-90.39532,38.81149,133],[-90.39536,38.81147,133],[-90.3954,38.81144,133],[-90.39544,38.81141,133],[-90.39549,38.81138,133],[-90.39553,38.81135,133],[-90.39556,38.81133,133],[-90.39563,38.81129,133],[-90.39566,38.81126,133],[-90.39569,38.81123,134],[-90.39569,38.81119,134],[-90.39567,38.81115,134],[-90.39558,38.81113,134],[-90.3955,38.81113,134],[-90.3954,38.81114,133],[-90.39524,38.81118,132],[-90.39506,38.81122,132],[-90.39489,38.81124,131],[-90.39471,38.81126,131],[-90.39453,38.81126,132],[-90.39435,38.81126,133],[-90.39417,38.81126,133],[-90.39398,38.81125,132],[-90.39379,38.81123,133],[-90.39359,38.81122,133],[-90.3934,38.81121,134],[-90.39322,38.8112,135],[-90.39303,38.81119,136],[-90.39284,38.81118,138],[-90.39266,38.81116,139],[-90.39248,38.81115,140],[-90.3923,38.81114,138],[-90.39212,38.81113,137],[-90.39194,38.81112,135],[-90.39175,38.81111,135]]],
        "bbox": [
          -90.39043,
          38.81619,
          -90.39569,
          38.81111
        ]
      },
      "properties": {
        "name": "11.8.2020"
      }
    }
  ]
}