{
  "type": "FeatureCollection",
  "features": [
    {
      "type": "Feature",
      "geometry": {
        "type": "MultiLineString",
        "coordinates": [[[-90.39259,38.8157,148],[-90.39262,38.81572,147],[-90.39267,38.81573,145],[-90.3927,38.81575,144],[-90.39273,38.81577,142],[-90.39271,38.81579,143],[-90.39268,38.81581,143],[-90.39266,38.81583,143],[-90.39266,38.81587,143],[-90.39266,38.8159,143],[-90.39266,38.81593,143],[-90.39266,38.81597,143],[-90.39266,38.816,143],[-90.39268,38.81603,143],[-90.39268,38.81606,143],[-90.39263,38.81608,144],[-90.3926,38.8161,145],[-90.39257,38.81613,146],[-90.39253,38.81614,147],[-90.39249,38.81616,148],[-90.39245,38.81617,149],[-90.39239,38.81617,151],[-90.39236,38.81619,151],[-90.39235,38.81622,150],[-90.39232,38.81624,151],[-90.3923,38.81627,150],[-90.39229,38.81631,149],[-90.39226,38.81634,149],[-90.39226,38.81637,148],[-90.39228,38.81639,147],[-90.39228,38.81642,147],[-90.39227,38.81646,147],[-90.39225,38.81648,147],[-90.39223,38.81651,147],[-90.39221,38.81654,147],[-90.39219,38.81657,147],[-90.39216,38.8166,147],[-90.39213,38.81662,148],[-90.39209,38.81663,148],[-90.39207,38.81666,148],[-90.39204,38.81668,149],[-90.39201,38.8167,149],[-90.39197,38.81672,150],[-90.39197,38.81675,150],[-90.39196,38.81678,149],[-90.39194,38.8168,150],[-90.39191,38.81682,150],[-90.39188,38.81684,150],[-90.39186,38.81687,149],[-90.39183,38.81689,149],[-90.3918,38.81691,149],[-90.39178,38.81693,148],[-90.39176,38.81696,147],[-90.39173,38.81698,146],[-90.3917,38.81701,145],[-90.39167,38.81703,144],[-90.39163,38.81705,144],[-90.3916,38.81706,144],[-90.39156,38.81708,144],[-90.39154,38.8171,143],[-90.3915,38.81712,143],[-90.39146,38.81712,144],[-90.39142,38.81713,144],[-90.39138,38.81714,144],[-90.39136,38.81716,144],[-90.39133,38.81718,143],[-90.3913,38.8172,143],[-90.39127,38.81722,143],[-90.39124,38.81723,143],[-90.39119,38.81724,144],[-90.39115,38.81724,144],[-90.39112,38.81726,144],[-90.39108,38.81726,145],[-90.39105,38.81729,145],[-90.39104,38.81731,144],[-90.39102,38.81734,144],[-90.39099,38.81737,143],[-90.39096,38.81739,143],[-90.39094,38.81742,143],[-90.39091,38.81743,143],[-90.39087,38.81742,144],[-90.39084,38.81741,144],[-90.39081,38.81739,145],[-90.39076,38.81738,147],[-90.39073,38.81739,147],[-90.39071,38.81741,146],[-90.3907,38.81744,145],[-90.39068,38.81747,145],[-90.39066,38.8175,144],[-90.39062,38.81749,145],[-90.39057,38.81748,146],[-90.39053,38.81747,147],[-90.39049,38.81747,147],[-90.39046,38.81749,147],[-90.39042,38.81749,147],[-90.3904,38.81747,148],[-90.39036,38.81745,149],[-90.39034,38.81748,148],[-90.39035,38.81751,148],[-90.39036,38.81754,147],[-90.39039,38.81757,146],[-90.39038,38.81753,147],[-90.39035,38.81751,148],[-90.3903,38.81749,149],[-90.39027,38.81747,149],[-90.39024,38.81745,150],[-90.39025,38.81748,149],[-90.39023,38.8175,149],[-90.39019,38.81751,149],[-90.39016,38.81749,150],[-90.39014,38.81746,151],[-90.39012,38.81744,152],[-90.39008,38.81743,152],[-90.39007,38.8174,153],[-90.39008,38.81737,154],[-90.39011,38.81735,154],[-90.39011,38.81732,155],[-90.39008,38.81731,155],[-90.39003,38.8173,156],[-90.39001,38.81727,156],[-90.39,38.81724,157],[-90.38998,38.8172,158],[-90.38996,38.81717,159],[-90.38996,38.81714,160],[-90.38996,38.8171,161],[-90.38995,38.81707,161],[-90.38993,38.81703,162],[-90.3899,38.81701,163],[-90.38987,38.81699,163],[-90.38985,38.81695,164],[-90.38986,38.81692,164],[-90.3899,38.81691,165],[-90.38992,38.81688,165],[-90.38992,38.81685,166],[-90.38991,38.81682,166],[-90.38991,38.8168,166],[-90.3899,38.81677,167],[-90.38986,38.81676,167],[-90.38982,38.81674,167],[-90.38979,38.81671,167],[-90.38975,38.8167,167],[-90.38972,38.8167,167],[-90.38968,38.81668,167],[-90.38965,38.81666,167],[-90.38962,38.81664,167],[-90.38961,38.8166,168],[-90.3896,38.81657,168],[-90.3896,38.81654,168],[-90.38961,38.81651,168],[-90.38962,38.81649,168],[-90.38961,38.81646,169],[-90.3896,38.81643,169],[-90.38957,38.81641,169],[-90.38954,38.81639,169],[-90.38954,38.81636,169],[-90.38953,38.81633,169],[-90.38953,38.8163,170],[-90.38955,38.81628,170],[-90.38959,38.81627,170],[-90.38962,38.81627,170],[-90.38967,38.81626,171],[-90.38968,38.81623,171],[-90.38964,38.81622,171],[-90.38961,38.8162,171],[-90.38959,38.81618,171],[-90.38957,38.81615,172],[-90.38956,38.81612,172],[-90.38953,38.81609,172],[-90.38949,38.81607,172],[-90.38946,38.81605,172],[-90.38943,38.81604,172],[-90.38942,38.81601,173],[-90.38941,38.81597,173],[-90.3894,38.81594,173],[-90.3894,38.81592,173],[-90.38939,38.81588,174],[-90.38937,38.81586,174],[-90.38934,38.81583,175],[-90.38933,38.81581,175],[-90.38931,38.81578,176],[-90.3893,38.81575,177],[-90.38928,38.81572,177],[-90.38926,38.81569,178],[-90.38924,38.81567,179],[-90.38923,38.81564,180],[-90.38921,38.8156,181],[-90.38917,38.81556,182],[-90.38915,38.81554,183],[-90.38913,38.8155,183],[-90.3891,38.81549,183],[-90.38907,38.81549,183],[-90.38903,38.81549,183],[-90.38899,38.81548,184],[-90.38896,38.81545,184],[-90.38895,38.81542,184],[-90.38894,38.81538,185],[-90.38894,38.81535,185],[-90.38893,38.81532,186],[-90.3889,38.8153,186],[-90.38887,38.81528,186],[-90.38885,38.81525,187],[-90.38885,38.81522,187],[-90.38885,38.81519,187],[-90.38886,38.81515,187],[-90.38886,38.81513,187],[-90.38884,38.81509,187],[-90.38885,38.81506,187],[-90.38888,38.81504,187],[-90.38891,38.81503,187],[-90.38892,38.815,188],[-90.38891,38.81496,188],[-90.38888,38.81494,188],[-90.3889,38.81491,188],[-90.38895,38.81492,188],[-90.38901,38.81492,188],[-90.38905,38.81491,188],[-90.38906,38.81488,188],[-90.38906,38.81485,188],[-90.38905,38.81481,188],[-90.38904,38.81478,188],[-90.389,38.81475,188],[-90.38897,38.81474,188],[-90.38894,38.81471,189],[-90.38891,38.8147,189],[-90.38885,38.81469,189],[-90.38882,38.81469,189],[-90.38876,38.81468,190],[-90.38871,38.81468,190],[-90.38867,38.81467,190],[-90.38863,38.81465,191],[-90.3886,38.81465,191],[-90.38856,38.81464,192],[-90.38853,38.81466,192],[-90.38853,38.8147,191],[-90.38857,38.81471,191],[-90.38858,38.81473,190],[-90.3886,38.81476,189],[-90.38857,38.81475,190],[-90.38854,38.81473,191],[-90.38849,38.81473,192],[-90.38845,38.81474,192],[-90.38841,38.81476,192],[-90.38837,38.81476,193],[-90.38833,38.81477,193],[-90.3883,38.81479,193],[-90.38828,38.81481,193],[-90.38822,38.8148,193],[-90.38818,38.81478,194],[-90.38814,38.81477,195],[-90.38809,38.81476,195],[-90.38805,38.81476,196],[-90.38802,38.81477,196],[-90.38798,38.81478,196],[-90.38795,38.81479,196],[-90.38793,38.81482,195],[-90.38789,38.8148,196],[-90.38786,38.81477,197],[-90.38782,38.81477,197],[-90.38778,38.81478,197],[-90.38774,38.81477,198],[-90.38769,38.81476,199],[-90.38765,38.81476,199],[-90.38761,38.81477,199],[-90.38758,38.81478,199],[-90.38755,38.81476,200],[-90.38752,38.81473,200],[-90.3875,38.8147,201],[-90.38748,38.81467,201],[-90.38752,38.81465,200],[-90.38752,38.81462,200],[-90.3875,38.8146,201],[-90.38745,38.8146,201],[-90.38742,38.81462,201],[-90.38738,38.81463,201],[-90.38734,38.81464,202],[-90.3873,38.81466,202],[-90.38725,38.81466,202],[-90.38721,38.81465,203],[-90.3872,38.81462,203],[-90.38715,38.81461,203],[-90.38711,38.81461,203],[-90.38708,38.81459,203],[-90.38704,38.81459,203],[-90.38701,38.81459,203],[-90.38697,38.8146,203],[-90.38693,38.8146,203],[-90.38689,38.81459,203],[-90.38689,38.81456,203],[-90.38688,38.81454,203],[-90.38685,38.81452,203],[-90.38681,38.81451,203],[-90.38678,38.81452,203],[-90.38674,38.81451,203],[-90.38669,38.8145,203],[-90.38665,38.8145,203],[-90.38661,38.8145,203],[-90.38657,38.81449,203],[-90.38654,38.81447,203],[-90.38651,38.81446,203],[-90.38647,38.81446,203],[-90.38643,38.81448,203],[-90.38638,38.81447,203],[-90.38635,38.81444,202],[-90.38631,38.81442,202],[-90.38628,38.81444,202],[-90.38626,38.81446,202],[-90.38624,38.81449,202],[-90.38621,38.81451,202],[-90.38618,38.81453,202],[-90.38615,38.81452,202],[-90.38613,38.8145,202],[-90.38615,38.81448,202],[-90.38617,38.81445,202],[-90.3862,38.81443,202],[-90.38622,38.8144,201],[-90.38626,38.81438,201],[-90.38629,38.81435,201],[-90.38631,38.81432,200],[-90.38634,38.81429,200],[-90.38636,38.81427,200],[-90.38637,38.81424,199],[-90.3864,38.81422,199],[-90.38642,38.81419,199],[-90.38645,38.81417,199],[-90.38648,38.81415,199],[-90.38652,38.81414,199],[-90.38656,38.81413,199],[-90.3866,38.81413,200],[-90.38664,38.81412,200],[-90.38668,38.81412,200],[-90.38673,38.81411,200],[-90.38678,38.81411,200],[-90.38682,38.8141,200],[-90.38686,38.8141,200],[-90.3869,38.81409,201],[-90.38694,38.81409,201],[-90.38698,38.81409,201],[-90.38701,38.81409,201],[-90.38705,38.81408,201],[-90.38709,38.81407,200],[-90.38713,38.81406,200],[-90.38717,38.81405,200],[-90.38721,38.81403,200],[-90.38725,38.81402,200],[-90.38729,38.81401,200],[-90.38733,38.814,200],[-90.38738,38.814,200],[-90.38742,38.814,200],[-90.38746,38.81399,200],[-90.38751,38.81399,200],[-90.38755,38.81398,200],[-90.38759,38.81398,200],[-90.38763,38.81398,200],[-90.38767,38.81398,200],[-90.38765,38.81395,200],[-90.38763,38.81392,200],[-90.3876,38.81391,200],[-90.38756,38.81389,199],[-90.38752,38.81387,199],[-90.38749,38.81385,199],[-90.38749,38.81382,198],[-90.38749,38.81379,198],[-90.38751,38.81376,198],[-90.38752,38.81373,197],[-90.38753,38.8137,197],[-90.38754,38.81367,197],[-90.38755,38.81363,196],[-90.38756,38.8136,196],[-90.38757,38.81356,196],[-90.38757,38.81353,195],[-90.38758,38.8135,195],[-90.3876,38.81347,195],[-90.38761,38.81343,195],[-90.3876,38.8134,195],[-90.38759,38.81337,194],[-90.38759,38.81334,194],[-90.3876,38.8133,194],[-90.38765,38.8133,194],[-90.38768,38.8133,195],[-90.38772,38.8133,195],[-90.38776,38.8133,195],[-90.3878,38.8133,195],[-90.38784,38.8133,195],[-90.38787,38.81328,195],[-90.3879,38.81327,195],[-90.38794,38.81325,194],[-90.38795,38.81322,194],[-90.38797,38.8132,193],[-90.38798,38.81316,193],[-90.388,38.81313,192],[-90.38803,38.81311,192],[-90.38805,38.81309,191],[-90.38804,38.81306,191],[-90.38804,38.81303,190],[-90.38804,38.81301,190],[-90.38804,38.81297,190],[-90.38801,38.81295,190],[-90.38802,38.81292,189],[-90.38804,38.81288,189],[-90.38807,38.81285,188],[-90.38807,38.81281,187],[-90.38805,38.81278,188],[-90.38807,38.81276,187],[-90.38811,38.81276,186],[-90.38815,38.81277,185],[-90.38819,38.81276,183],[-90.38823,38.81274,182],[-90.38826,38.81272,180],[-90.3883,38.81272,179],[-90.38834,38.81273,178],[-90.38837,38.81274,178],[-90.38838,38.81271,177],[-90.38843,38.8127,175],[-90.38846,38.8127,174],[-90.3885,38.8127,173],[-90.38853,38.81268,172],[-90.38856,38.81266,171],[-90.38857,38.81264,170],[-90.38857,38.81261,170],[-90.38857,38.81258,170],[-90.38856,38.81256,170],[-90.38858,38.81253,169],[-90.38861,38.81251,169],[-90.38863,38.81247,168],[-90.38863,38.81244,167],[-90.38861,38.8124,167],[-90.3886,38.81237,166],[-90.3886,38.81234,166],[-90.3886,38.81231,165],[-90.38864,38.8123,165],[-90.38864,38.81227,164],[-90.38865,38.8123,165],[-90.38862,38.81228,164],[-90.38864,38.81225,164],[-90.38862,38.81228,164],[-90.3886,38.81225,164],[-90.38864,38.81225,164],[-90.38867,38.81227,164],[-90.38871,38.81226,163],[-90.38874,38.81223,163],[-90.38877,38.81221,162],[-90.3888,38.81219,162],[-90.38881,38.81216,161],[-90.3888,38.81213,161],[-90.38879,38.8121,161],[-90.38876,38.81206,160],[-90.38874,38.81205,160],[-90.38869,38.81203,161],[-90.38866,38.81201,161],[-90.38864,38.81198,161],[-90.38863,38.81195,161],[-90.38861,38.81191,162],[-90.38859,38.81188,163],[-90.38856,38.81186,163],[-90.38853,38.81184,164],[-90.38851,38.8118,164],[-90.38853,38.81177,164],[-90.38857,38.81176,164],[-90.38862,38.81174,164],[-90.38864,38.81171,163],[-90.38868,38.81169,163],[-90.3887,38.81167,163],[-90.38874,38.81166,162],[-90.38877,38.81164,162],[-90.3888,38.81162,161],[-90.38883,38.81161,160],[-90.38884,38.81158,160],[-90.38884,38.81155,160],[-90.38887,38.81155,159],[-90.38891,38.81156,158],[-90.38896,38.81155,157],[-90.389,38.81153,156],[-90.38903,38.81152,155],[-90.38906,38.8115,154],[-90.38911,38.81149,153],[-90.38915,38.8115,152],[-90.38918,38.81148,152],[-90.38921,38.81145,152],[-90.38923,38.81142,152],[-90.38925,38.8114,152],[-90.38928,38.81137,152],[-90.38932,38.81136,152],[-90.38935,38.81137,152],[-90.38939,38.81139,152],[-90.38943,38.81138,152],[-90.38945,38.81135,151],[-90.38946,38.81133,151],[-90.38948,38.8113,151],[-90.38949,38.81127,151],[-90.3895,38.81124,151],[-90.38951,38.81121,151],[-90.38953,38.81118,151],[-90.38957,38.81117,151],[-90.3896,38.81117,151],[-90.38964,38.81117,151],[-90.38968,38.81119,150],[-90.38971,38.8112,150],[-90.38975,38.8112,150],[-90.38978,38.81121,149],[-90.38982,38.8112,149],[-90.38985,38.81119,148],[-90.38989,38.81117,148],[-90.38993,38.81115,147],[-90.38997,38.81115,147],[-90.39002,38.81116,146],[-90.39006,38.81116,145],[-90.3901,38.81117,145],[-90.39014,38.81118,144],[-90.39018,38.81119,144],[-90.39022,38.8112,143],[-90.39027,38.8112,143],[-90.39031,38.8112,142],[-90.39035,38.81119,142],[-90.39039,38.8112,142],[-90.39042,38.81121,142],[-90.39046,38.81122,142],[-90.39048,38.81125,142],[-90.3905,38.81127,142],[-90.39053,38.8113,142],[-90.39057,38.81132,142],[-90.39062,38.81132,142],[-90.39066,38.81131,142],[-90.39069,38.81128,142],[-90.3907,38.81126,142],[-90.39074,38.81124,142],[-90.39078,38.81124,142],[-90.39082,38.81123,141],[-90.39087,38.81122,141],[-90.3909,38.81123,141],[-90.39093,38.81126,141],[-90.39094,38.81129,141],[-90.39095,38.81133,141],[-90.39097,38.81136,141],[-90.39098,38.81139,141],[-90.39101,38.81142,142],[-90.39104,38.81144,142],[-90.39106,38.81146,142],[-90.39108,38.81149,142],[-90.39109,38.81152,143],[-90.39109,38.81155,143],[-90.39109,38.81158,143],[-90.39108,38.81161,144],[-90.39107,38.81164,144],[-90.39106,38.81166,145],[-90.39103,38.8117,146],[-90.391,38.81171,146],[-90.39096,38.81172,146],[-90.39093,38.81174,147],[-90.3909,38.81176,147],[-90.39086,38.81178,147],[-90.39083,38.81181,148],[-90.39082,38.81184,148],[-90.39082,38.81187,148],[-90.39083,38.8119,148],[-90.39084,38.81193,148],[-90.39086,38.81196,149],[-90.39087,38.81199,149],[-90.39087,38.81203,149],[-90.39088,38.81206,149],[-90.39088,38.8121,149],[-90.39088,38.81213,149],[-90.39086,38.81217,149],[-90.39084,38.8122,149],[-90.39083,38.81222,149],[-90.39083,38.81226,149],[-90.39084,38.81229,148],[-90.39085,38.81232,147],[-90.39086,38.81235,147],[-90.39087,38.81238,146],[-90.39088,38.81242,145],[-90.39089,38.81245,144],[-90.39091,38.81248,143],[-90.39094,38.81251,143],[-90.39096,38.81254,143],[-90.39096,38.81257,144],[-90.39096,38.8126,144],[-90.39096,38.81263,145],[-90.39096,38.81266,146],[-90.39096,38.81269,147],[-90.39097,38.81272,147],[-90.39097,38.81275,148],[-90.39098,38.81278,148],[-90.39099,38.81281,149],[-90.391,38.81284,149],[-90.391,38.81287,150],[-90.39098,38.8129,151],[-90.39098,38.81293,152],[-90.39101,38.81295,152],[-90.39105,38.81298,152],[-90.39107,38.81301,153],[-90.39107,38.81303,153],[-90.39111,38.81305,153],[-90.39114,38.81307,153],[-90.39116,38.81311,153],[-90.39117,38.81315,153],[-90.39119,38.81318,153],[-90.3912,38.81321,153],[-90.39121,38.81323,153],[-90.39124,38.81326,152],[-90.39125,38.8133,152],[-90.39127,38.81333,152],[-90.3913,38.81335,152],[-90.39134,38.81337,151],[-90.39137,38.81338,151],[-90.3914,38.81339,150],[-90.39143,38.81341,149],[-90.39147,38.81342,149],[-90.39151,38.81342,148],[-90.39156,38.81343,147],[-90.39159,38.81345,146],[-90.39161,38.81347,146],[-90.39163,38.8135,145],[-90.39162,38.81353,145],[-90.39162,38.81356,144],[-90.39162,38.8136,144],[-90.39162,38.81363,144],[-90.39162,38.81366,145],[-90.39162,38.8137,145],[-90.39164,38.81373,145],[-90.39166,38.81377,145],[-90.39168,38.8138,146],[-90.3917,38.81383,145],[-90.39173,38.81386,145],[-90.39175,38.81388,145],[-90.39178,38.8139,144],[-90.39182,38.81391,143],[-90.39186,38.81392,142],[-90.39189,38.81392,141],[-90.39194,38.81393,140],[-90.39197,38.81395,140],[-90.392,38.81397,141],[-90.39203,38.814,142],[-90.39206,38.81402,143],[-90.39208,38.81404,144],[-90.39211,38.81407,145],[-90.39214,38.81408,145],[-90.39217,38.81409,146],[-90.39221,38.81411,147],[-90.39224,38.81413,148],[-90.3922,38.81412,148],[-90.39217,38.81409,146],[-90.39214,38.81407,145],[-90.39218,38.81409,146],[-90.3922,38.81412,148],[-90.39221,38.81415,150],[-90.39225,38.81418,151],[-90.39228,38.81419,151],[-90.39232,38.8142,151],[-90.39235,38.81421,151],[-90.39238,38.81424,151],[-90.3924,38.81426,152],[-90.39244,38.81429,152],[-90.39247,38.8143,152],[-90.3925,38.81431,153],[-90.39254,38.81432,152],[-90.39257,38.81434,152],[-90.39261,38.81435,152],[-90.39265,38.81437,152],[-90.39267,38.8144,153],[-90.3927,38.81443,153],[-90.39273,38.81444,153],[-90.39275,38.81447,153],[-90.39277,38.8145,152],[-90.39279,38.81453,152],[-90.39281,38.81455,151],[-90.39285,38.81456,150],[-90.39289,38.81458,150],[-90.39292,38.8146,149],[-90.39295,38.81463,148],[-90.39296,38.81466,148],[-90.39296,38.8147,148],[-90.39297,38.81473,147],[-90.39297,38.81476,148],[-90.39297,38.81481,148],[-90.39297,38.81484,148],[-90.39297,38.81487,148],[-90.39297,38.8149,148],[-90.39296,38.81494,148],[-90.39297,38.81498,148],[-90.393,38.815,148],[-90.39301,38.81502,148],[-90.39304,38.81504,147],[-90.39307,38.81507,147],[-90.3931,38.81509,146],[-90.39313,38.81511,145],[-90.39315,38.81513,144],[-90.39318,38.81516,143],[-90.39318,38.81519,143],[-90.39315,38.81523,144],[-90.39312,38.81526,144],[-90.39309,38.81528,145],[-90.39307,38.81531,144],[-90.39306,38.81534,143],[-90.39302,38.81536,144],[-90.39298,38.81537,144],[-90.39293,38.81539,145],[-90.3929,38.81541,145],[-90.39286,38.81542,146],[-90.39282,38.81542,147],[-90.39278,38.81541,149],[-90.39273,38.81541,150],[-90.39269,38.81542,151],[-90.39266,38.81544,151],[-90.39263,38.81545,152],[-90.39259,38.81547,153],[-90.39257,38.8155,153],[-90.39256,38.81554,153],[-90.39256,38.81558,152],[-90.39255,38.81562,152],[-90.39253,38.81565,152],[-90.39253,38.81568,151],[-90.39254,38.81573,150],[-90.39254,38.81575,149],[-90.39255,38.81579,148],[-90.39256,38.81581,147],[-90.39258,38.81584,146],[-90.39261,38.81586,145],[-90.39262,38.8159,145],[-90.39262,38.81593,145],[-90.39262,38.81597,145],[-90.39263,38.816,144],[-90.39264,38.81603,144],[-90.39264,38.81606,144],[-90.39263,38.81609,144],[-90.39262,38.81612,145],[-90.39259,38.81615,145],[-90.39256,38.81616,146],[-90.39252,38.81616,147],[-90.39248,38.81614,149],[-90.39244,38.81613,150],[-90.39241,38.81613,151],[-90.39237,38.81614,152],[-90.39236,38.81617,152],[-90.39236,38.81621,150],[-90.39236,38.81625,149],[-90.39234,38.81627,149],[-90.39231,38.81629,149],[-90.3923,38.81633,148],[-90.39228,38.81635,148],[-90.39227,38.81638,148],[-90.3923,38.81641,147],[-90.3923,38.81644,146],[-90.3923,38.81648,146],[-90.39227,38.8165,146],[-90.39224,38.81653,147],[-90.39222,38.81655,147],[-90.39219,38.81657,147],[-90.39215,38.81658,148],[-90.39211,38.81658,149],[-90.39207,38.81658,150],[-90.39204,38.8166,150],[-90.39203,38.81662,150],[-90.39203,38.81666,149],[-90.392,38.81669,149],[-90.39197,38.81671,150],[-90.39194,38.81672,150],[-90.39193,38.81676,150],[-90.39192,38.81679,150],[-90.39189,38.81682,150],[-90.39186,38.81684,150],[-90.39184,38.81687,149],[-90.39183,38.81691,149],[-90.39179,38.81692,148],[-90.39174,38.81693,148],[-90.39172,38.81695,147],[-90.39171,38.81698,146],[-90.39168,38.81701,145],[-90.39164,38.81702,145],[-90.39159,38.81702,146],[-90.39152,38.81701,148],[-90.39149,38.817,148],[-90.39145,38.81699,149],[-90.39141,38.81699,150],[-90.39138,38.817,150],[-90.39132,38.817,151],[-90.39128,38.817,152],[-90.39124,38.81702,152],[-90.39121,38.81704,152],[-90.39119,38.81707,151],[-90.39118,38.81709,150],[-90.39114,38.81711,150],[-90.39111,38.81713,149],[-90.39109,38.81715,149],[-90.39104,38.81717,149],[-90.391,38.81719,149],[-90.39097,38.81722,148],[-90.39099,38.81725,147],[-90.39103,38.81727,146],[-90.39102,38.8173,145],[-90.39098,38.81731,145],[-90.39096,38.81734,145],[-90.39095,38.81737,144],[-90.39092,38.8174,143],[-90.39087,38.81741,144],[-90.39083,38.8174,145],[-90.39079,38.81739,146],[-90.39076,38.81737,147],[-90.39071,38.81736,148],[-90.39069,38.81739,147],[-90.39069,38.81743,146],[-90.39065,38.81745,146],[-90.39061,38.81744,147],[-90.39056,38.81742,148],[-90.39052,38.81742,149],[-90.39049,38.81741,149],[-90.39045,38.81741,150],[-90.39041,38.81741,150],[-90.3904,38.81745,149],[-90.39036,38.81746,149],[-90.39033,38.81744,150],[-90.39029,38.81744,150],[-90.39027,38.81746,150],[-90.39029,38.81751,148],[-90.39033,38.81754,147],[-90.39038,38.81757,146],[-90.3904,38.8176,145],[-90.39041,38.81763,144],[-90.39038,38.81766,144],[-90.39034,38.81767,144],[-90.39031,38.81769,144],[-90.39028,38.81769,144],[-90.39024,38.8177,145],[-90.3902,38.81772,145],[-90.39017,38.81774,145],[-90.39012,38.81775,146],[-90.39009,38.81776,146],[-90.39008,38.81779,146],[-90.39005,38.81781,146],[-90.39002,38.81782,146],[-90.38998,38.81782,147],[-90.38993,38.81781,148],[-90.38988,38.81781,148],[-90.38985,38.81782,148],[-90.38981,38.81783,149],[-90.38976,38.81783,149],[-90.38972,38.81783,150],[-90.38968,38.81783,150],[-90.38966,38.81786,150],[-90.38962,38.81787,150],[-90.38958,38.81787,150],[-90.38954,38.81786,150],[-90.38952,38.81789,150],[-90.38949,38.81791,149],[-90.38945,38.81792,149],[-90.38941,38.81793,150],[-90.38937,38.81795,150],[-90.38933,38.81796,150],[-90.38929,38.81797,151],[-90.38925,38.81797,151],[-90.38921,38.81797,152],[-90.38917,38.81797,152],[-90.38911,38.81797,154],[-90.38907,38.81797,155],[-90.38903,38.81797,156],[-90.38899,38.81797,156],[-90.38895,38.81798,157],[-90.38892,38.818,157],[-90.38892,38.81804,156],[-90.38891,38.81807,155],[-90.38893,38.81811,153],[-90.3889,38.81809,155],[-90.38886,38.81808,156],[-90.38882,38.81807,157],[-90.38878,38.81805,159],[-90.38874,38.81805,160],[-90.3887,38.81805,161],[-90.38866,38.81805,162],[-90.38869,38.81809,159],[-90.38872,38.81811,158],[-90.38866,38.81813,158],[-90.38863,38.81815,158],[-90.38858,38.81816,158],[-90.38855,38.81815,158],[-90.38849,38.81814,159],[-90.38849,38.81817,158],[-90.38848,38.81821,156],[-90.38847,38.81825,154],[-90.38848,38.8183,151],[-90.38846,38.81832,150],[-90.38842,38.81834,149],[-90.38838,38.81834,149],[-90.38833,38.81835,149],[-90.38833,38.81838,148],[-90.38834,38.81842,146],[-90.38835,38.81845,144],[-90.38835,38.81849,143],[-90.38834,38.81852,141],[-90.38833,38.81856,140],[-90.38832,38.81859,139],[-90.38829,38.81861,138],[-90.38826,38.81864,138],[-90.38822,38.81865,139],[-90.38818,38.81867,139],[-90.38813,38.81867,140],[-90.38809,38.81868,140],[-90.38806,38.8187,140],[-90.38802,38.81871,141],[-90.38798,38.81872,141],[-90.38795,38.81873,142],[-90.3879,38.81874,142],[-90.38786,38.81874,143],[-90.38782,38.81875,143],[-90.38781,38.81878,143],[-90.38777,38.81881,143],[-90.38774,38.81883,142],[-90.3877,38.81884,142],[-90.38765,38.81885,142],[-90.38761,38.81886,142],[-90.38758,38.81886,142],[-90.38753,38.81885,142],[-90.3875,38.81887,142],[-90.38748,38.8189,141],[-90.38746,38.81892,141],[-90.38745,38.81895,140],[-90.38742,38.81897,139],[-90.38741,38.819,138],[-90.38741,38.81903,137],[-90.38741,38.81906,136],[-90.38741,38.81909,135],[-90.38737,38.8191,135],[-90.38734,38.81911,134],[-90.38729,38.81913,133],[-90.38726,38.81914,133],[-90.38722,38.81915,132],[-90.38719,38.81916,132],[-90.38715,38.81918,132],[-90.38713,38.81921,132],[-90.38717,38.81922,132],[-90.3872,38.81919,132],[-90.38723,38.81918,132],[-90.38727,38.81918,132],[-90.38728,38.81921,132],[-90.38726,38.81924,132],[-90.38723,38.81926,132],[-90.38721,38.81929,132],[-90.38721,38.81932,132],[-90.38721,38.81936,132],[-90.3872,38.81938,132],[-90.38718,38.81942,132],[-90.38716,38.81945,131],[-90.38716,38.81949,131],[-90.38716,38.81953,131],[-90.38716,38.81956,131],[-90.38712,38.81956,131],[-90.38708,38.81957,131],[-90.38709,38.8196,131],[-90.38706,38.8196,131],[-90.38702,38.8196,131],[-90.38698,38.8196,131],[-90.38694,38.8196,131],[-90.38691,38.81962,131],[-90.38687,38.81963,131],[-90.38684,38.81963,131],[-90.3868,38.81962,131],[-90.38676,38.81963,131],[-90.38672,38.81965,131],[-90.38669,38.81966,131],[-90.38666,38.81967,131],[-90.38663,38.81969,131],[-90.38659,38.81971,131],[-90.38656,38.81972,131],[-90.38652,38.81973,131],[-90.38648,38.81973,131],[-90.38645,38.81974,131],[-90.38641,38.81975,131],[-90.38637,38.81976,131],[-90.38634,38.81977,131],[-90.3863,38.81978,131],[-90.38626,38.81978,131],[-90.38622,38.81978,131],[-90.38618,38.81978,131],[-90.38614,38.81978,131],[-90.3861,38.81979,131],[-90.38606,38.81979,131],[-90.38603,38.81978,131],[-90.38599,38.81978,131],[-90.38596,38.81979,131],[-90.38591,38.8198,131],[-90.38588,38.81981,131],[-90.38583,38.81982,131],[-90.3858,38.81982,131],[-90.38576,38.81982,131],[-90.38572,38.81981,131],[-90.38568,38.81979,131],[-90.38565,38.81978,131],[-90.38561,38.81977,131],[-90.38557,38.81976,131],[-90.38554,38.81976,131],[-90.3855,38.81976,131],[-90.38547,38.81974,131],[-90.38546,38.81972,131],[-90.38543,38.8197,131],[-90.38539,38.8197,131],[-90.38534,38.8197,131],[-90.3853,38.81971,131],[-90.38527,38.81972,131],[-90.38524,38.81972,131],[-90.38527,38.81972,131],[-90.3853,38.81974,131],[-90.38533,38.81971,131],[-90.38537,38.81971,131],[-90.3854,38.81972,131],[-90.38545,38.81972,131],[-90.38548,38.81972,131],[-90.38553,38.81972,131],[-90.38557,38.81973,131],[-90.3856,38.81974,131],[-90.38564,38.81975,131],[-90.38567,38.81975,131],[-90.38571,38.81974,131],[-90.38571,38.81971,131],[-90.38569,38.81968,132],[-90.38566,38.81967,133],[-90.38564,38.81964,134],[-90.38562,38.81961,135],[-90.38569,38.81959,136],[-90.38572,38.81958,136],[-90.38575,38.81956,137],[-90.38579,38.81955,137],[-90.3858,38.81953,138],[-90.38584,38.81951,139],[-90.38587,38.8195,139],[-90.38591,38.81947,140],[-90.38592,38.81943,141],[-90.38589,38.8194,142],[-90.38586,38.81937,142],[-90.38584,38.81935,143],[-90.3858,38.81934,143],[-90.38575,38.81934,143],[-90.38571,38.81935,143],[-90.38567,38.81935,143],[-90.38564,38.81932,143],[-90.38563,38.8193,144],[-90.38562,38.81927,144],[-90.38563,38.81923,145],[-90.38563,38.8192,145],[-90.38564,38.81917,145],[-90.38566,38.81914,146],[-90.38569,38.81912,146],[-90.38571,38.81908,146],[-90.38573,38.81905,146],[-90.38573,38.81902,147],[-90.38574,38.81898,147],[-90.38575,38.81895,147],[-90.38577,38.81893,147],[-90.38581,38.8189,147],[-90.38585,38.8189,147],[-90.38588,38.81889,147],[-90.38593,38.81887,147],[-90.38595,38.81885,148],[-90.38596,38.81883,148],[-90.38599,38.8188,148],[-90.38603,38.81877,148],[-90.38607,38.81876,148],[-90.38611,38.81875,148],[-90.38614,38.81873,148],[-90.38618,38.81872,148],[-90.38622,38.81871,148],[-90.38624,38.81868,149],[-90.38623,38.81864,149],[-90.38621,38.81861,149],[-90.3862,38.81858,149],[-90.3862,38.81855,149],[-90.38619,38.81851,150],[-90.38619,38.81848,150],[-90.3862,38.81844,150],[-90.3862,38.81841,150],[-90.38617,38.81839,150],[-90.38614,38.81838,150],[-90.38617,38.81837,150],[-90.38621,38.81836,150],[-90.38625,38.81835,150],[-90.3863,38.81835,150],[-90.38633,38.81835,150],[-90.38637,38.81837,149],[-90.3864,38.81839,149],[-90.38644,38.81839,150],[-90.38648,38.81839,150],[-90.38651,38.81841,150],[-90.38655,38.81842,150],[-90.38659,38.81844,150],[-90.38663,38.81845,151],[-90.38667,38.81846,151],[-90.3867,38.81845,151],[-90.38674,38.81845,152],[-90.38678,38.81846,152],[-90.38681,38.81847,152],[-90.38685,38.81847,152],[-90.38688,38.81849,152],[-90.38692,38.81851,153],[-90.38696,38.81851,153],[-90.38698,38.81849,153],[-90.38702,38.81848,153],[-90.38706,38.81848,153],[-90.3871,38.8185,153],[-90.38713,38.81851,153],[-90.38717,38.81852,153],[-90.38721,38.81854,152],[-90.38719,38.81856,152],[-90.38715,38.81858,152],[-90.38712,38.8186,152],[-90.38712,38.81863,151],[-90.38715,38.81865,151],[-90.38718,38.81868,150],[-90.38722,38.81869,149],[-90.38726,38.81868,149],[-90.38729,38.81867,149],[-90.38733,38.81865,149],[-90.38735,38.81863,150],[-90.38738,38.8186,150],[-90.38742,38.81859,150],[-90.38746,38.8186,149],[-90.38749,38.8186,149],[-90.38752,38.81857,149],[-90.38753,38.81854,150],[-90.38754,38.81852,150],[-90.3876,38.81851,150],[-90.38763,38.81851,150],[-90.38767,38.81851,149],[-90.38772,38.81852,149],[-90.38774,38.81854,148],[-90.38777,38.81856,147],[-90.38777,38.81859,146],[-90.38777,38.81862,145],[-90.38777,38.81865,145],[-90.38778,38.81869,144],[-90.38778,38.81873,144],[-90.38779,38.81876,143],[-90.3878,38.81879,143],[-90.38783,38.81881,142],[-90.38787,38.81881,142],[-90.38789,38.81879,142],[-90.38792,38.81876,142],[-90.38795,38.81874,141],[-90.38797,38.81872,141],[-90.38801,38.81871,141],[-90.38804,38.8187,141],[-90.38808,38.81868,141],[-90.38812,38.81867,140],[-90.38815,38.81865,140],[-90.38819,38.81862,140],[-90.38822,38.81861,139],[-90.38827,38.8186,139],[-90.38831,38.81859,139],[-90.38834,38.81856,140],[-90.38837,38.81855,140],[-90.3884,38.81852,141],[-90.38842,38.81849,143],[-90.38842,38.81846,144],[-90.38842,38.81843,145],[-90.38842,38.8184,147],[-90.38842,38.81837,148],[-90.38842,38.81834,149],[-90.38842,38.81831,151],[-90.38845,38.81828,152],[-90.38849,38.81825,154],[-90.38853,38.81822,155],[-90.38855,38.8182,156],[-90.38856,38.81816,158],[-90.38859,38.81813,159],[-90.3886,38.8181,160],[-90.38862,38.81806,162],[-90.3886,38.81803,163],[-90.38865,38.81804,162],[-90.38869,38.81803,161],[-90.38873,38.81803,160],[-90.3888,38.81802,159],[-90.38885,38.81801,159],[-90.38889,38.818,158],[-90.38892,38.81799,158],[-90.38896,38.81798,157],[-90.389,38.81799,156],[-90.38903,38.81801,154],[-90.38904,38.81804,153],[-90.38906,38.81806,152],[-90.38911,38.81806,151],[-90.38915,38.81805,150],[-90.38915,38.81802,151],[-90.38919,38.81801,151],[-90.38923,38.818,150],[-90.38926,38.81799,150],[-90.38931,38.818,149],[-90.38935,38.81801,149],[-90.38939,38.81799,149],[-90.38943,38.81798,148],[-90.38946,38.81799,148],[-90.38951,38.81799,148],[-90.38956,38.81798,148],[-90.3896,38.81796,148],[-90.38964,38.81795,148],[-90.38968,38.81793,148],[-90.38972,38.81791,149],[-90.38975,38.81788,149],[-90.38979,38.81787,148],[-90.38984,38.81787,148],[-90.38988,38.81786,147],[-90.38991,38.81785,147],[-90.38994,38.81784,147],[-90.38999,38.81783,147],[-90.39004,38.81782,146],[-90.39008,38.81782,145],[-90.39013,38.81782,145],[-90.39016,38.81781,144],[-90.39019,38.81779,144],[-90.39022,38.81777,144],[-90.39024,38.81773,144],[-90.39026,38.8177,144],[-90.39029,38.81767,145],[-90.39032,38.81765,145],[-90.39036,38.81764,145],[-90.3904,38.81763,144],[-90.39043,38.81762,144],[-90.39047,38.81761,144],[-90.39049,38.81758,144],[-90.3905,38.81755,145],[-90.3905,38.8175,146],[-90.39049,38.81747,147],[-90.39048,38.81743,149],[-90.39048,38.8174,150],[-90.39052,38.81739,150],[-90.39057,38.81741,149],[-90.39061,38.81743,147],[-90.39064,38.81745,146],[-90.39068,38.81744,146],[-90.39072,38.81743,146],[-90.39077,38.81742,145],[-90.39082,38.81741,145],[-90.39086,38.81739,145],[-90.39089,38.81736,145],[-90.39092,38.81734,145],[-90.39096,38.81734,145],[-90.391,38.81736,144],[-90.39104,38.81736,143],[-90.39106,38.81733,144],[-90.39108,38.81731,144],[-90.39111,38.81727,144],[-90.39114,38.81726,144],[-90.39118,38.81724,144],[-90.3912,38.81722,144],[-90.39122,38.8172,145],[-90.39124,38.81717,145],[-90.39128,38.81715,146],[-90.39132,38.81714,145],[-90.39135,38.81712,146],[-90.39138,38.81711,146],[-90.39142,38.8171,145],[-90.39145,38.81708,146],[-90.39148,38.81705,146],[-90.39152,38.81703,147],[-90.39155,38.81702,147],[-90.39159,38.817,147],[-90.39162,38.81698,147],[-90.39167,38.81698,146],[-90.39171,38.81697,147],[-90.39175,38.81696,147],[-90.39179,38.81695,148],[-90.39182,38.81693,148],[-90.39185,38.81692,149],[-90.39188,38.81689,149],[-90.3919,38.81686,149],[-90.39193,38.81683,149],[-90.39195,38.8168,149],[-90.39198,38.81678,149],[-90.39201,38.81676,149],[-90.39204,38.81674,148],[-90.39206,38.81672,148],[-90.39208,38.8167,148],[-90.3921,38.81667,148],[-90.39212,38.81664,148],[-90.39215,38.81662,147],[-90.39217,38.8166,147],[-90.3922,38.81657,147],[-90.39223,38.81655,147],[-90.39226,38.81653,146],[-90.39228,38.8165,146],[-90.3923,38.81647,146],[-90.39231,38.81644,146],[-90.39232,38.81641,146],[-90.39234,38.81639,146],[-90.39236,38.81636,146],[-90.39234,38.81633,148],[-90.39233,38.8163,149],[-90.39232,38.81627,150],[-90.39235,38.81625,150],[-90.39238,38.81623,149],[-90.39239,38.8162,150],[-90.39242,38.81619,149],[-90.39245,38.81616,149],[-90.39247,38.81614,149],[-90.3925,38.81612,148],[-90.39254,38.81612,147],[-90.39257,38.81611,146],[-90.3926,38.81609,145],[-90.39263,38.81607,144],[-90.39267,38.81605,143],[-90.39269,38.81603,142],[-90.3927,38.816,142],[-90.3927,38.81596,142],[-90.39269,38.81593,142],[-90.39267,38.8159,143],[-90.39266,38.81587,143],[-90.39265,38.81584,144],[-90.39265,38.81581,144],[-90.39264,38.81578,145],[-90.39263,38.81574,146],[-90.39263,38.81571,147],[-90.39262,38.81567,148],[-90.3926,38.81565,149],[-90.39259,38.81562,150],[-90.39258,38.81558,152],[-90.39259,38.81555,152],[-90.39261,38.81552,152],[-90.39263,38.8155,151],[-90.39266,38.81548,151],[-90.3927,38.81547,149],[-90.39274,38.81545,149],[-90.39277,38.81543,148],[-90.39281,38.81542,148],[-90.39285,38.81541,147],[-90.3929,38.8154,146],[-90.39294,38.81539,145],[-90.39297,38.81538,145],[-90.39301,38.81537,144],[-90.39305,38.81536,143],[-90.39309,38.81535,142],[-90.39311,38.81532,143],[-90.39313,38.8153,143],[-90.39316,38.81527,143],[-90.39317,38.81525,143],[-90.39319,38.81521,143],[-90.3932,38.81518,143],[-90.39321,38.81516,143],[-90.39321,38.81513,143],[-90.3932,38.8151,143],[-90.39317,38.81507,144],[-90.39315,38.81504,145],[-90.39312,38.815,146],[-90.3931,38.81498,146],[-90.39308,38.81496,147],[-90.39306,38.81493,147],[-90.39303,38.8149,147],[-90.39301,38.81487,147],[-90.39299,38.81484,147],[-90.39297,38.81481,148],[-90.39296,38.81478,148],[-90.39297,38.81474,147],[-90.39298,38.81471,147],[-90.39298,38.81468,147],[-90.39299,38.81465,147],[-90.39298,38.81462,147],[-90.39297,38.81459,148],[-90.39295,38.81457,148],[-90.39293,38.81454,149],[-90.3929,38.81452,150],[-90.39287,38.8145,150],[-90.39282,38.81449,151],[-90.39278,38.81447,152],[-90.39275,38.81446,153],[-90.39271,38.81445,153],[-90.39267,38.81443,153],[-90.39265,38.81441,153],[-90.39262,38.81438,153],[-90.3926,38.81435,152],[-90.39257,38.81432,152],[-90.39254,38.8143,152],[-90.39251,38.81428,152],[-90.39246,38.81426,152],[-90.39242,38.81425,151],[-90.39239,38.81423,151],[-90.39236,38.81422,151],[-90.39233,38.8142,151],[-90.3923,38.81418,150],[-90.39227,38.81416,150],[-90.39225,38.81413,148],[-90.39222,38.81411,147],[-90.39221,38.81408,145],[-90.39219,38.81405,143],[-90.39221,38.81402,141],[-90.39224,38.81401,141],[-90.39229,38.814,140],[-90.39232,38.81399,140],[-90.39235,38.81397,139],[-90.39237,38.81394,138],[-90.3924,38.81392,137],[-90.39243,38.81389,136],[-90.39246,38.81387,137],[-90.39248,38.81384,137],[-90.39249,38.81382,138],[-90.39252,38.81379,138],[-90.39254,38.81375,138],[-90.39255,38.81372,138],[-90.39257,38.81369,138],[-90.39258,38.81366,138],[-90.39259,38.81363,138],[-90.3926,38.81359,138],[-90.39262,38.81357,138],[-90.39263,38.81354,137],[-90.39265,38.81351,137],[-90.39268,38.81349,137],[-90.39271,38.81347,136],[-90.39274,38.81344,136],[-90.39277,38.81343,136],[-90.39279,38.81341,135],[-90.39282,38.81338,135],[-90.39285,38.81336,134],[-90.39289,38.81334,134],[-90.39292,38.81331,133],[-90.39293,38.81329,133],[-90.39296,38.81327,133],[-90.39298,38.81324,133],[-90.39301,38.81322,133],[-90.39303,38.81319,133],[-90.39305,38.81317,133],[-90.39308,38.81315,132],[-90.3931,38.81312,132],[-90.39313,38.8131,132],[-90.39317,38.81308,132],[-90.3932,38.81305,133],[-90.39323,38.81303,133],[-90.39326,38.81301,133],[-90.39328,38.81299,133],[-90.39332,38.81298,133],[-90.39335,38.81295,133],[-90.39337,38.81293,133],[-90.3934,38.81291,133],[-90.39344,38.81289,133],[-90.39348,38.81287,133],[-90.39351,38.81286,133],[-90.39355,38.81284,133],[-90.39359,38.81282,133],[-90.39363,38.81279,133],[-90.39366,38.81277,134],[-90.3937,38.81275,134],[-90.39374,38.81273,134],[-90.39378,38.81271,134],[-90.39381,38.8127,134],[-90.39384,38.81267,135],[-90.39387,38.81265,135],[-90.3939,38.81263,135],[-90.39392,38.81261,135],[-90.39395,38.81259,135],[-90.39397,38.81257,136],[-90.394,38.81255,136],[-90.39402,38.81252,136],[-90.39406,38.81249,137],[-90.39409,38.81247,137],[-90.39413,38.81245,137],[-90.39416,38.81242,137],[-90.39418,38.81239,137],[-90.39421,38.81237,137],[-90.39424,38.81235,137],[-90.39427,38.81232,137],[-90.3943,38.8123,137],[-90.39432,38.81228,137],[-90.39435,38.81225,137],[-90.39439,38.81223,137],[-90.39441,38.81221,138],[-90.3944,38.81218,138],[-90.39444,38.81216,138],[-90.39448,38.81214,137],[-90.39451,38.81211,137],[-90.39454,38.81209,137],[-90.39457,38.81207,137],[-90.3946,38.81205,137],[-90.39463,38.81203,137],[-90.39466,38.81201,137],[-90.39469,38.81198,136],[-90.39471,38.81196,137],[-90.39474,38.81194,136],[-90.39477,38.81191,136],[-90.39479,38.81189,135],[-90.39482,38.81187,135],[-90.39484,38.81185,135],[-90.39487,38.81183,134],[-90.3949,38.81181,134],[-90.39493,38.81179,134],[-90.39496,38.81176,133],[-90.39499,38.81175,133],[-90.39504,38.81173,133],[-90.39508,38.81171,133],[-90.39511,38.81169,133],[-90.39513,38.81166,132],[-90.39511,38.81164,132],[-90.39508,38.81164,132],[-90.39511,38.81166,132],[-90.3951,38.81169,133],[-90.39506,38.81169,133],[-90.39506,38.81166,132],[-90.39507,38.81164,132]]],
        "bbox": [
          -90.38524,
          38.81982,
          -90.39513,
          38.81115
        ]
      },
      "properties": {
        "name": "12.17.2023"
      }
    }
  ]
}