{
  "type": "FeatureCollection",
  "features": [
    {
      "type": "Feature",
      "geometry": {
        "type": "MultiLineString",
        "coordinates": [[[-90.39084,38.81093,138],[-90.39086,38.81091,138],[-90.39086,38.81095,139],[-90.39086,38.81098,139],[-90.39086,38.81101,139],[-90.39086,38.81104,139],[-90.39088,38.81107,140],[-90.39088,38.8111,140],[-90.39087,38.81112,140],[-90.39085,38.81115,141],[-90.39082,38.81117,141],[-90.3908,38.8112,141],[-90.39077,38.81123,141],[-90.39073,38.81125,142],[-90.39069,38.81126,142],[-90.39066,38.81128,142],[-90.39062,38.81129,142],[-90.39058,38.81129,142],[-90.39055,38.81127,142],[-90.3905,38.81126,142],[-90.39046,38.81124,142],[-90.39042,38.81122,142],[-90.39039,38.81121,142],[-90.39034,38.8112,142],[-90.3903,38.8112,142],[-90.39026,38.81121,143],[-90.39021,38.81121,143],[-90.39017,38.81121,144],[-90.39013,38.8112,144],[-90.39009,38.8112,145],[-90.39005,38.81119,145],[-90.39,38.81118,146],[-90.38996,38.81118,147],[-90.38992,38.81118,147],[-90.38989,38.8112,148],[-90.38986,38.81121,148],[-90.38982,38.81122,149],[-90.38978,38.81122,149],[-90.38974,38.81121,150],[-90.3897,38.81121,150],[-90.38965,38.81121,151],[-90.38961,38.81121,151],[-90.38958,38.81123,151],[-90.38956,38.81125,151],[-90.38953,38.81127,151],[-90.38951,38.81129,151],[-90.38948,38.81132,151],[-90.38946,38.81134,151],[-90.38944,38.81137,152],[-90.3894,38.81139,152],[-90.38936,38.81139,152],[-90.38932,38.81139,152],[-90.38929,38.8114,152],[-90.38926,38.81143,152],[-90.38924,38.81145,152],[-90.38921,38.81147,152],[-90.38918,38.8115,152],[-90.38914,38.81151,152],[-90.38911,38.81153,153],[-90.38907,38.81154,154],[-90.38903,38.81155,155],[-90.38899,38.81156,156],[-90.38896,38.81158,157],[-90.38892,38.81159,158],[-90.38889,38.8116,159],[-90.38885,38.81161,160],[-90.38884,38.81164,160],[-90.38881,38.81166,161],[-90.38878,38.81169,161],[-90.38875,38.81171,162],[-90.38872,38.81174,162],[-90.3887,38.81176,162],[-90.38868,38.81179,162],[-90.38867,38.81182,162],[-90.38867,38.81185,161],[-90.38869,38.81186,161],[-90.38872,38.81189,160],[-90.38874,38.81192,159],[-90.38876,38.81195,159],[-90.38879,38.81197,159],[-90.38881,38.81199,159],[-90.38883,38.81203,159],[-90.38883,38.81205,159],[-90.38883,38.81208,160],[-90.38884,38.81211,160],[-90.38883,38.81214,161],[-90.38882,38.81218,161],[-90.38881,38.81222,162],[-90.38879,38.81224,162],[-90.38877,38.81227,163],[-90.38875,38.8123,164],[-90.38873,38.81232,164],[-90.38871,38.81234,164],[-90.38869,38.81237,165],[-90.38869,38.8124,166],[-90.38871,38.81243,166],[-90.3887,38.81246,166],[-90.38869,38.81249,167],[-90.38868,38.81252,167],[-90.38867,38.81255,168],[-90.38865,38.81258,168],[-90.38863,38.81261,169],[-90.38861,38.81263,169],[-90.38857,38.81265,170],[-90.38854,38.81267,171],[-90.38851,38.81269,172],[-90.38849,38.81271,173],[-90.38845,38.81273,175],[-90.38841,38.81273,176],[-90.38838,38.81275,177],[-90.38835,38.81277,179],[-90.38831,38.81278,180],[-90.38828,38.81278,181],[-90.38824,38.81278,182],[-90.3882,38.8128,184],[-90.38816,38.81281,185],[-90.38813,38.81282,186],[-90.38813,38.81285,186],[-90.38812,38.81288,187],[-90.38811,38.81291,188],[-90.38811,38.81294,188],[-90.38812,38.81297,188],[-90.38811,38.813,189],[-90.3881,38.81303,189],[-90.38809,38.81306,190],[-90.38808,38.81309,191],[-90.38806,38.81312,192],[-90.38804,38.81315,192],[-90.38802,38.81318,193],[-90.388,38.8132,193],[-90.38799,38.81323,194],[-90.38796,38.81325,194],[-90.38792,38.81327,195],[-90.38789,38.81329,195],[-90.38785,38.81331,195],[-90.38782,38.81332,195],[-90.38777,38.81332,195],[-90.38774,38.81333,195],[-90.38769,38.81333,195],[-90.38766,38.81333,195],[-90.38765,38.81336,195],[-90.38766,38.81339,195],[-90.38766,38.81342,195],[-90.38764,38.81346,195],[-90.38763,38.81348,195],[-90.38763,38.81352,196],[-90.38762,38.81355,196],[-90.38761,38.81359,196],[-90.3876,38.81361,196],[-90.3876,38.81364,197],[-90.38759,38.81367,197],[-90.38758,38.8137,197],[-90.38757,38.81373,197],[-90.38757,38.81376,198],[-90.38757,38.81379,198],[-90.38758,38.81382,199],[-90.38762,38.81384,199],[-90.38765,38.81385,199],[-90.38767,38.81388,199],[-90.38766,38.81391,200],[-90.38764,38.81393,200],[-90.3876,38.81395,200],[-90.38757,38.81397,200],[-90.38753,38.81399,200],[-90.38749,38.81401,200],[-90.38745,38.81402,200],[-90.38742,38.81403,200],[-90.38737,38.81404,200],[-90.38734,38.81405,200],[-90.3873,38.81405,200],[-90.38725,38.81406,200],[-90.38721,38.81407,200],[-90.38717,38.81408,201],[-90.38713,38.81409,201],[-90.38709,38.81409,201],[-90.38705,38.8141,201],[-90.38701,38.81411,201],[-90.38696,38.81411,201],[-90.38692,38.81412,201],[-90.38688,38.81412,201],[-90.38684,38.81413,201],[-90.38679,38.81414,201],[-90.38675,38.81414,201],[-90.38671,38.81414,200],[-90.38667,38.81415,200],[-90.38663,38.81415,200],[-90.38658,38.81416,200],[-90.38655,38.81417,200],[-90.38653,38.81419,200],[-90.38655,38.81421,200],[-90.38658,38.81423,200],[-90.3866,38.81426,201],[-90.38662,38.81429,201],[-90.38665,38.81431,201],[-90.38667,38.81433,202],[-90.3867,38.81435,202],[-90.38673,38.81437,202],[-90.38676,38.81438,202],[-90.3868,38.8144,202],[-90.38683,38.81441,202],[-90.38687,38.81443,202],[-90.3869,38.81445,203],[-90.38692,38.81447,203],[-90.38695,38.8145,203],[-90.38697,38.81452,203],[-90.387,38.81454,203],[-90.38704,38.81455,203],[-90.38707,38.81455,203],[-90.38711,38.81455,203],[-90.38715,38.81455,203],[-90.38718,38.81457,203],[-90.38722,38.81458,202],[-90.38725,38.81459,202],[-90.38728,38.8146,202],[-90.38732,38.81461,202],[-90.38736,38.81462,202],[-90.38739,38.81461,201],[-90.38743,38.81461,201],[-90.38748,38.81462,201],[-90.38752,38.81463,200],[-90.38756,38.81465,200],[-90.38758,38.81468,200],[-90.3876,38.8147,200],[-90.38762,38.81473,200],[-90.38762,38.81475,199],[-90.38761,38.81479,199],[-90.38758,38.8148,199],[-90.38757,38.81477,199],[-90.3876,38.81475,199],[-90.38764,38.81473,199],[-90.38768,38.81474,199],[-90.38772,38.81475,198],[-90.38776,38.81476,198],[-90.3878,38.81475,198],[-90.38784,38.81476,197],[-90.38788,38.81477,197],[-90.38792,38.81477,197],[-90.38796,38.81477,196],[-90.388,38.81477,196],[-90.38803,38.81478,195],[-90.38807,38.81477,195],[-90.38811,38.81475,195],[-90.38814,38.81475,195],[-90.38818,38.81475,195],[-90.38822,38.81474,195],[-90.38827,38.81475,194],[-90.38831,38.81475,194],[-90.38833,38.81473,194],[-90.38837,38.81472,194],[-90.38841,38.81472,193],[-90.38845,38.81471,193],[-90.38848,38.81471,192],[-90.38852,38.8147,192],[-90.38855,38.81468,192],[-90.38859,38.81468,191],[-90.38863,38.81468,190],[-90.38867,38.81468,190],[-90.38871,38.8147,190],[-90.38876,38.81471,189],[-90.3888,38.81472,189],[-90.38884,38.81472,189],[-90.38888,38.81473,189],[-90.38892,38.81476,188],[-90.38895,38.81478,188],[-90.38899,38.8148,188],[-90.389,38.81483,188],[-90.38901,38.81487,188],[-90.38901,38.8149,188],[-90.38899,38.81493,188],[-90.38896,38.81496,188],[-90.38894,38.81499,188],[-90.38895,38.81502,188],[-90.38897,38.81505,188],[-90.389,38.81508,188],[-90.389,38.81511,187],[-90.38898,38.81513,187],[-90.38897,38.81517,187],[-90.38898,38.81519,187],[-90.38899,38.81522,187],[-90.389,38.81525,187],[-90.38901,38.81528,186],[-90.38904,38.81531,186],[-90.38907,38.81534,186],[-90.38909,38.81537,185],[-90.38912,38.81539,185],[-90.38915,38.81541,185],[-90.38917,38.81544,184],[-90.3892,38.81546,184],[-90.38923,38.81548,183],[-90.38924,38.81551,183],[-90.38925,38.81553,182],[-90.38927,38.81556,182],[-90.38929,38.81559,181],[-90.38931,38.81562,180],[-90.38934,38.81564,179],[-90.38936,38.81567,178],[-90.38939,38.8157,178],[-90.38941,38.81573,177],[-90.38942,38.81576,176],[-90.38942,38.81579,176],[-90.38943,38.81582,175],[-90.38945,38.81585,174],[-90.38947,38.81588,174],[-90.38948,38.81592,174],[-90.38949,38.81595,173],[-90.3895,38.81598,173],[-90.38952,38.81601,173],[-90.38954,38.81603,173],[-90.38957,38.81605,173],[-90.38959,38.81607,172],[-90.38963,38.8161,172],[-90.38965,38.81612,172],[-90.38967,38.81615,172],[-90.38967,38.81618,172],[-90.38966,38.81621,171],[-90.38967,38.81624,171],[-90.38967,38.81627,171],[-90.38966,38.8163,170],[-90.38963,38.81632,170],[-90.38964,38.81635,170],[-90.38965,38.81638,169],[-90.38968,38.8164,169],[-90.38971,38.81643,169],[-90.38972,38.81646,169],[-90.38973,38.81649,169],[-90.38974,38.81652,169],[-90.38976,38.81655,168],[-90.38977,38.81658,168],[-90.38978,38.81662,168],[-90.38978,38.81665,168],[-90.3898,38.81667,168],[-90.38982,38.81669,168],[-90.38985,38.81671,167],[-90.38988,38.81673,167],[-90.38992,38.81674,167],[-90.38995,38.81676,167],[-90.38998,38.81678,167],[-90.38999,38.8168,167],[-90.39001,38.81683,166],[-90.39003,38.81686,166],[-90.39005,38.81689,166],[-90.39007,38.81692,165],[-90.39009,38.81694,165],[-90.3901,38.81698,164],[-90.3901,38.81701,163],[-90.39011,38.81704,162],[-90.39013,38.81707,162],[-90.39014,38.8171,161],[-90.39014,38.81713,160],[-90.39015,38.81716,159],[-90.39018,38.81719,158],[-90.3902,38.81722,157],[-90.39022,38.81725,156],[-90.39023,38.81727,155],[-90.39025,38.8173,154],[-90.39028,38.81733,153],[-90.3903,38.81736,152],[-90.39031,38.81739,151],[-90.3903,38.81742,151],[-90.39032,38.81744,150],[-90.39036,38.81744,149],[-90.39039,38.81744,149],[-90.39043,38.81744,149],[-90.39047,38.81745,148],[-90.39043,38.81744,149],[-90.39042,38.81741,150],[-90.39044,38.81739,150],[-90.39045,38.81736,151],[-90.39048,38.81734,152],[-90.39047,38.81732,152],[-90.39046,38.81729,154],[-90.39044,38.81727,154],[-90.39045,38.81724,155],[-90.39045,38.81721,156],[-90.39045,38.81718,157],[-90.39044,38.81716,158],[-90.39044,38.81713,159],[-90.39044,38.8171,160],[-90.39046,38.81707,161],[-90.39048,38.81706,161],[-90.39052,38.81705,161],[-90.3905,38.81702,162],[-90.39048,38.81699,164],[-90.39047,38.81696,165],[-90.39047,38.81693,165],[-90.39048,38.8169,165],[-90.39049,38.81687,166],[-90.39051,38.81685,166],[-90.39053,38.81682,166],[-90.39055,38.8168,166],[-90.39059,38.81679,166],[-90.39062,38.81677,166],[-90.39066,38.81677,166],[-90.3907,38.81677,165],[-90.39074,38.81677,165],[-90.39075,38.81674,166],[-90.39079,38.81673,166],[-90.3908,38.8167,166],[-90.39082,38.81668,166],[-90.39086,38.81667,166],[-90.3909,38.81667,166],[-90.39094,38.81666,166],[-90.39099,38.81667,166],[-90.39102,38.81667,166],[-90.39107,38.81668,165],[-90.39109,38.8167,165],[-90.39112,38.81672,164],[-90.39115,38.81674,163],[-90.39118,38.81673,163],[-90.39121,38.81672,162],[-90.39123,38.81669,163],[-90.39126,38.81667,163],[-90.39128,38.81664,164],[-90.39131,38.81662,164],[-90.39133,38.8166,164],[-90.39137,38.81659,164],[-90.3914,38.81657,164],[-90.39142,38.81655,165],[-90.39145,38.81653,165],[-90.39148,38.81651,164],[-90.3915,38.81648,165],[-90.39151,38.81645,166],[-90.39152,38.81642,166],[-90.39154,38.81639,167],[-90.39155,38.81636,167],[-90.39158,38.81633,168],[-90.3916,38.81631,168],[-90.39161,38.81629,168],[-90.39163,38.81625,169],[-90.39164,38.81622,170],[-90.39165,38.81619,171],[-90.39166,38.81616,172],[-90.39166,38.81612,173],[-90.39166,38.81609,174],[-90.39167,38.81605,175],[-90.39168,38.81602,175],[-90.39168,38.81599,176],[-90.39169,38.81595,176],[-90.3917,38.81593,176],[-90.39171,38.81589,177],[-90.39171,38.81586,178],[-90.39171,38.81583,178],[-90.3917,38.81579,179],[-90.39169,38.81576,180],[-90.39168,38.81573,180],[-90.39166,38.8157,181],[-90.39162,38.81568,181],[-90.3916,38.81567,182],[-90.39157,38.81564,182],[-90.39154,38.81562,183],[-90.39151,38.8156,183],[-90.39149,38.81557,184],[-90.39146,38.81555,184],[-90.39142,38.81554,184],[-90.39138,38.81553,185],[-90.39134,38.81552,185],[-90.3913,38.81552,185],[-90.39126,38.81551,185],[-90.39123,38.81551,185],[-90.39118,38.81551,185],[-90.39114,38.81551,186],[-90.3911,38.81551,186],[-90.39107,38.81552,185],[-90.39103,38.81553,185],[-90.39099,38.81554,185],[-90.39095,38.81555,185],[-90.39091,38.81555,185],[-90.39086,38.81555,185],[-90.39082,38.81556,184],[-90.39078,38.81556,184],[-90.39073,38.81555,183],[-90.39069,38.81555,183],[-90.39065,38.81556,182],[-90.39061,38.81555,182],[-90.39057,38.81555,182],[-90.39053,38.81554,181],[-90.39048,38.81554,181],[-90.39044,38.81552,180],[-90.39041,38.8155,180],[-90.39037,38.81548,180],[-90.39034,38.81547,180],[-90.39031,38.81546,179],[-90.39028,38.81545,179],[-90.39024,38.81544,179],[-90.39021,38.81543,179],[-90.39016,38.81542,179],[-90.39013,38.81541,179],[-90.39009,38.8154,179],[-90.39006,38.81539,180],[-90.39002,38.81537,180],[-90.38999,38.81535,180],[-90.38995,38.81533,181],[-90.38992,38.81531,181],[-90.38988,38.81529,182],[-90.38985,38.81526,182],[-90.38983,38.81524,183],[-90.3898,38.81522,184],[-90.38977,38.81519,184],[-90.38974,38.81516,185],[-90.38971,38.81514,186],[-90.38968,38.81513,186],[-90.38965,38.81511,186],[-90.38962,38.81509,187],[-90.38959,38.81507,187],[-90.38957,38.81504,187],[-90.38955,38.81502,188],[-90.38953,38.81499,188],[-90.38951,38.81495,188],[-90.38949,38.81491,189],[-90.38948,38.81488,189],[-90.38947,38.81485,189],[-90.38945,38.81482,189],[-90.38944,38.81479,190],[-90.38944,38.81476,190],[-90.38943,38.81473,190],[-90.38943,38.81469,190],[-90.38943,38.81466,190],[-90.38944,38.81463,190],[-90.38944,38.81459,190],[-90.38945,38.81456,190],[-90.38945,38.81453,190],[-90.38945,38.8145,190],[-90.38945,38.81446,190],[-90.38944,38.81443,189],[-90.38942,38.81441,189],[-90.3894,38.81438,190],[-90.38937,38.81436,190],[-90.38933,38.81435,190],[-90.38929,38.81434,190],[-90.38926,38.81433,191],[-90.38923,38.81432,191],[-90.38919,38.8143,192],[-90.38916,38.81429,192],[-90.38912,38.81427,192],[-90.38909,38.81426,192],[-90.38904,38.81426,192],[-90.389,38.81426,192],[-90.38896,38.81426,192],[-90.38892,38.81426,192],[-90.38888,38.81425,193],[-90.38884,38.81423,193],[-90.38881,38.81422,194],[-90.38877,38.8142,194],[-90.38874,38.81419,195],[-90.3887,38.81418,195],[-90.38866,38.81417,196],[-90.38862,38.81416,196],[-90.38858,38.81415,197],[-90.38854,38.81414,197],[-90.38851,38.81412,197],[-90.38847,38.81411,197],[-90.38843,38.8141,197],[-90.38839,38.81409,198],[-90.38836,38.81408,198],[-90.38833,38.81406,198],[-90.38828,38.81404,198],[-90.38824,38.81402,198],[-90.38821,38.81401,198],[-90.38816,38.814,199],[-90.38812,38.814,199],[-90.38808,38.814,199],[-90.38804,38.814,199],[-90.388,38.81401,199],[-90.38796,38.81401,199],[-90.38792,38.81401,199],[-90.38787,38.81402,199],[-90.38783,38.81401,199],[-90.38779,38.81401,199],[-90.38776,38.81401,200],[-90.38772,38.81401,200],[-90.38768,38.814,200],[-90.38765,38.81398,200],[-90.38762,38.81395,200],[-90.38759,38.81394,200],[-90.38756,38.81392,200],[-90.38752,38.8139,200],[-90.38751,38.81387,199],[-90.3875,38.81385,199],[-90.38749,38.81382,198],[-90.38749,38.81379,198],[-90.38749,38.81375,197],[-90.38748,38.81371,197],[-90.38748,38.81367,196],[-90.38749,38.81364,196],[-90.38749,38.8136,195],[-90.38749,38.81357,195],[-90.3875,38.81354,195],[-90.3875,38.81351,195],[-90.3875,38.81348,195],[-90.38751,38.81346,195],[-90.38752,38.81342,194],[-90.38752,38.81339,194],[-90.38752,38.81336,194],[-90.38753,38.81333,194],[-90.38754,38.8133,194],[-90.38758,38.81329,194],[-90.38762,38.81329,194],[-90.38765,38.81328,194],[-90.3877,38.81327,194],[-90.38773,38.81327,195],[-90.38777,38.81326,195],[-90.38781,38.81325,195],[-90.38784,38.81324,194],[-90.38786,38.81321,194],[-90.38787,38.81319,194],[-90.38789,38.81316,193],[-90.3879,38.81313,193],[-90.38792,38.8131,192],[-90.38794,38.81308,192],[-90.38795,38.81304,191],[-90.38796,38.81302,191],[-90.38796,38.81299,190],[-90.38796,38.81296,190],[-90.38796,38.81292,190],[-90.38797,38.81289,189],[-90.38798,38.81287,189],[-90.38798,38.81284,189],[-90.38799,38.81281,188],[-90.38801,38.81278,188],[-90.38804,38.81277,187],[-90.38808,38.81275,186],[-90.38811,38.81273,185],[-90.38814,38.81271,184],[-90.38817,38.8127,182],[-90.38822,38.81269,181],[-90.38825,38.81269,180],[-90.38829,38.81269,179],[-90.38832,38.81268,178],[-90.38836,38.81267,177],[-90.38839,38.81267,176],[-90.38841,38.81265,175],[-90.38842,38.81262,174],[-90.38843,38.81259,174],[-90.38846,38.81257,173],[-90.38849,38.81255,172],[-90.3885,38.81252,171],[-90.38851,38.81249,170],[-90.38854,38.81247,169],[-90.38854,38.81244,169],[-90.38854,38.81241,168],[-90.38853,38.81238,168],[-90.38853,38.81234,167],[-90.38854,38.81231,166],[-90.38856,38.81228,165],[-90.38859,38.81227,165],[-90.38863,38.81227,164],[-90.38865,38.81224,164],[-90.38866,38.81221,163],[-90.38867,38.81219,163],[-90.38869,38.81216,162],[-90.3887,38.81213,162],[-90.3887,38.8121,162],[-90.38868,38.81207,161],[-90.38864,38.81207,162],[-90.38862,38.81204,162],[-90.3886,38.81201,162],[-90.38857,38.81198,162],[-90.38854,38.81195,163],[-90.38853,38.81193,163],[-90.38853,38.8119,163],[-90.38853,38.81186,164],[-90.38854,38.81183,164],[-90.38855,38.81179,164],[-90.38855,38.81176,164],[-90.38857,38.81174,164],[-90.38859,38.81172,164],[-90.38861,38.81168,164],[-90.38863,38.81165,164],[-90.38865,38.81163,164],[-90.38868,38.81161,163],[-90.38869,38.81159,163],[-90.38871,38.81156,162],[-90.38874,38.81154,162],[-90.38878,38.81153,161],[-90.38881,38.81154,160],[-90.38885,38.81153,159],[-90.38887,38.81151,159],[-90.3889,38.81149,158],[-90.38894,38.81147,157],[-90.38898,38.81147,156],[-90.38902,38.81146,155],[-90.38905,38.81144,154],[-90.38909,38.81142,153],[-90.38911,38.8114,153],[-90.38913,38.81137,152],[-90.38917,38.81135,152],[-90.38921,38.81135,152],[-90.38926,38.81136,152],[-90.3893,38.81136,152],[-90.38933,38.81135,152],[-90.38934,38.81132,152],[-90.38935,38.8113,152],[-90.38938,38.81127,152],[-90.3894,38.81125,152],[-90.38942,38.81122,152],[-90.38944,38.81119,152],[-90.38946,38.81116,151],[-90.3895,38.81114,151],[-90.38955,38.81114,151],[-90.38959,38.81115,151],[-90.38963,38.81115,151],[-90.38967,38.81115,151],[-90.38971,38.81115,150],[-90.38975,38.81114,150],[-90.38979,38.81112,149],[-90.38982,38.8111,149],[-90.38985,38.8111,149],[-90.38989,38.8111,148],[-90.38994,38.81112,147],[-90.38999,38.81112,147],[-90.39004,38.81112,146],[-90.39008,38.81113,145],[-90.39012,38.81114,145],[-90.39016,38.81115,144],[-90.3902,38.81115,144],[-90.39024,38.81114,143],[-90.39028,38.81113,142],[-90.39032,38.81114,142],[-90.39036,38.81115,142],[-90.3904,38.81116,142],[-90.39043,38.81117,142],[-90.39046,38.8112,142],[-90.3905,38.81121,142],[-90.39053,38.81122,142],[-90.39057,38.81123,142],[-90.39061,38.81121,142],[-90.39064,38.81119,142],[-90.39066,38.81117,141],[-90.3907,38.81116,141],[-90.39073,38.81115,141],[-90.39076,38.81113,141],[-90.39078,38.81109,140],[-90.39079,38.81107,140],[-90.39081,38.81103,140],[-90.39082,38.811,139],[-90.39082,38.81097,139],[-90.39081,38.81094,139],[-90.3908,38.81091,139],[-90.39079,38.81088,138],[-90.39078,38.81085,138],[-90.39078,38.81083,138],[-90.39079,38.81079,138]]],
        "bbox": [
          -90.38653,
          38.81745,
          -90.39171,
          38.81079
        ]
      },
      "properties": {
        "name": "2.2.2024"
      }
    }
  ]
}