{
  "type": "FeatureCollection",
  "features": [
    {
      "type": "Feature",
      "geometry": {
        "type": "MultiLineString",
        "coordinates": [[[-90.39075,38.81086,138],[-90.39078,38.81084,138],[-90.39082,38.81087,138],[-90.39085,38.81088,138],[-90.39087,38.8109,138],[-90.39089,38.81093,138],[-90.3909,38.81096,138],[-90.39089,38.81099,139],[-90.39089,38.81102,139],[-90.39089,38.81105,139],[-90.39088,38.81108,140],[-90.39088,38.81111,140],[-90.39088,38.81114,140],[-90.39087,38.81117,141],[-90.3909,38.81119,140],[-90.39094,38.81121,140],[-90.39096,38.81122,140],[-90.39098,38.81125,140],[-90.39099,38.81127,140],[-90.391,38.8113,140],[-90.39101,38.81133,141],[-90.39105,38.81134,140],[-90.39107,38.81137,141],[-90.39109,38.8114,141],[-90.39111,38.81142,141],[-90.39114,38.81144,141],[-90.39116,38.81148,141],[-90.39111,38.81148,142],[-90.39113,38.8115,142],[-90.39115,38.81153,142],[-90.39113,38.81155,143],[-90.39112,38.81158,143],[-90.3911,38.8116,144],[-90.39108,38.81163,144],[-90.39105,38.81166,145],[-90.39102,38.81168,145],[-90.391,38.81171,146],[-90.39099,38.81173,146],[-90.391,38.81177,147],[-90.391,38.8118,148],[-90.39101,38.81183,148],[-90.39102,38.81186,149],[-90.39102,38.81189,149],[-90.39102,38.81193,150],[-90.39102,38.81195,150],[-90.391,38.81199,150],[-90.39099,38.81201,150],[-90.39098,38.81205,150],[-90.39098,38.81209,150],[-90.39097,38.81211,149],[-90.39097,38.81214,149],[-90.39098,38.81218,149],[-90.39099,38.81221,149],[-90.39101,38.81224,148],[-90.39101,38.81226,148],[-90.39102,38.81229,147],[-90.39102,38.81233,146],[-90.39103,38.81236,145],[-90.39103,38.81239,144],[-90.39102,38.81241,144],[-90.39102,38.81245,143],[-90.39105,38.81248,142],[-90.39107,38.81251,141],[-90.39108,38.81253,141],[-90.3911,38.81256,142],[-90.39112,38.81259,142],[-90.39112,38.81263,143],[-90.39114,38.81266,143],[-90.39114,38.81269,144],[-90.39112,38.81271,145],[-90.39112,38.81274,146],[-90.39113,38.81277,146],[-90.39115,38.81279,146],[-90.39117,38.81282,147],[-90.39118,38.81285,147],[-90.39119,38.81288,148],[-90.39121,38.8129,148],[-90.39122,38.81293,149],[-90.39123,38.81296,149],[-90.39125,38.81298,150],[-90.39127,38.81301,150],[-90.39129,38.81303,150],[-90.39131,38.81306,151],[-90.39135,38.81307,150],[-90.39137,38.8131,150],[-90.39135,38.81313,150],[-90.39136,38.81315,150],[-90.39138,38.81318,150],[-90.3914,38.8132,150],[-90.39143,38.81323,149],[-90.39145,38.81325,149],[-90.39149,38.81325,148],[-90.39153,38.81325,148],[-90.39156,38.81327,147],[-90.39159,38.81329,147],[-90.39162,38.81331,147],[-90.39165,38.81333,147],[-90.39167,38.81336,146],[-90.39169,38.81339,145],[-90.3917,38.81342,145],[-90.39171,38.81345,144],[-90.39171,38.81348,144],[-90.39172,38.81351,143],[-90.39172,38.81354,143],[-90.39174,38.81357,142],[-90.39176,38.81359,142],[-90.39178,38.81361,142],[-90.3918,38.81365,142],[-90.39181,38.81367,142],[-90.39184,38.8137,141],[-90.39187,38.81372,141],[-90.39191,38.81373,140],[-90.39194,38.81375,139],[-90.39197,38.81377,138],[-90.39201,38.81379,138],[-90.39204,38.81382,137],[-90.39206,38.81383,136],[-90.39209,38.81386,135],[-90.39212,38.81388,134],[-90.39214,38.81391,135],[-90.39217,38.81393,136],[-90.3922,38.81394,136],[-90.39223,38.81396,137],[-90.39226,38.81398,139],[-90.3923,38.81399,140],[-90.39233,38.814,141],[-90.39236,38.81402,142],[-90.39232,38.814,141],[-90.39229,38.81399,140],[-90.39228,38.81396,138],[-90.3923,38.81393,136],[-90.39232,38.8139,135],[-90.39233,38.81388,134],[-90.39236,38.81386,135],[-90.39238,38.81383,136],[-90.3924,38.81386,136],[-90.39241,38.81389,136],[-90.39242,38.81391,137],[-90.39243,38.81394,139],[-90.39243,38.81397,140],[-90.39242,38.814,141],[-90.39241,38.81403,143],[-90.39239,38.81406,144],[-90.39237,38.81408,145],[-90.39235,38.8141,146],[-90.39237,38.81412,148],[-90.39241,38.81414,149],[-90.39242,38.81416,149],[-90.39243,38.81419,150],[-90.39248,38.81421,150],[-90.39251,38.81422,151],[-90.39254,38.81423,150],[-90.39257,38.8142,149],[-90.39255,38.81423,150],[-90.39256,38.81426,151],[-90.39258,38.81428,151],[-90.39262,38.81429,151],[-90.39266,38.8143,151],[-90.39268,38.81432,151],[-90.39272,38.81433,151],[-90.39275,38.81431,150],[-90.39271,38.81432,151],[-90.39267,38.81432,151],[-90.39269,38.81436,152],[-90.39272,38.81437,151],[-90.39275,38.81439,152],[-90.39279,38.81441,151],[-90.39283,38.81441,151],[-90.39285,38.81443,151],[-90.39288,38.81446,150],[-90.39292,38.81446,149],[-90.39295,38.81447,149],[-90.39298,38.8145,148],[-90.39299,38.81453,148],[-90.39301,38.81456,147],[-90.39303,38.81458,147],[-90.39304,38.81461,146],[-90.39304,38.81464,146],[-90.39304,38.81467,146],[-90.39305,38.81471,146],[-90.39305,38.81474,146],[-90.39305,38.81478,146],[-90.39305,38.81481,146],[-90.39307,38.81483,146],[-90.39308,38.81486,146],[-90.39311,38.81488,145],[-90.39314,38.81491,145],[-90.39316,38.81493,145],[-90.39319,38.81495,144],[-90.39321,38.81498,144],[-90.39323,38.81501,144],[-90.39326,38.81503,143],[-90.39328,38.81506,142],[-90.39329,38.8151,141],[-90.39328,38.81514,141],[-90.39327,38.81517,141],[-90.39325,38.8152,141],[-90.39322,38.81523,142],[-90.3932,38.81525,142],[-90.39318,38.81528,142],[-90.39316,38.81531,142],[-90.39313,38.81533,142],[-90.39309,38.81535,142],[-90.39306,38.81538,142],[-90.39303,38.8154,142],[-90.39299,38.81543,142],[-90.39295,38.81544,143],[-90.39293,38.81546,143],[-90.3929,38.81548,143],[-90.39286,38.8155,144],[-90.39284,38.81552,144],[-90.39281,38.81554,144],[-90.39279,38.81557,144],[-90.39278,38.8156,144],[-90.39276,38.81563,144],[-90.39274,38.81566,144],[-90.39272,38.81569,144],[-90.39275,38.81571,143],[-90.39277,38.81573,142],[-90.39278,38.81576,141],[-90.39278,38.81579,140],[-90.39277,38.81582,140],[-90.39279,38.81585,139],[-90.3928,38.81588,139],[-90.3928,38.81591,139],[-90.39279,38.81594,139],[-90.39278,38.81597,140],[-90.39278,38.816,140],[-90.39275,38.81603,140],[-90.39272,38.81606,141],[-90.39269,38.81608,142],[-90.39266,38.81609,143],[-90.39262,38.81612,145],[-90.39259,38.81613,145],[-90.39256,38.81615,146],[-90.39253,38.81616,146],[-90.3925,38.81618,147],[-90.39249,38.81621,147],[-90.3925,38.81624,146],[-90.39248,38.81626,146],[-90.39246,38.81628,146],[-90.39243,38.8163,146],[-90.3924,38.81632,146],[-90.3924,38.81635,146],[-90.39237,38.81638,146],[-90.39236,38.81642,145],[-90.39235,38.81644,145],[-90.39235,38.81647,145],[-90.39234,38.8165,145],[-90.39234,38.81653,144],[-90.39232,38.81655,145],[-90.39229,38.81657,145],[-90.39226,38.81659,146],[-90.39223,38.81662,146],[-90.39218,38.81663,147],[-90.39216,38.81665,147],[-90.39212,38.81666,147],[-90.39211,38.81669,147],[-90.39208,38.81672,148],[-90.39204,38.81673,149],[-90.39201,38.81675,149],[-90.392,38.81678,149],[-90.392,38.81681,149],[-90.39197,38.81683,149],[-90.39194,38.81686,149],[-90.39193,38.81688,149],[-90.39192,38.81691,149],[-90.39188,38.81692,149],[-90.39185,38.81694,148],[-90.3918,38.81696,147],[-90.39176,38.81698,146],[-90.39173,38.817,145],[-90.3917,38.81702,145],[-90.39165,38.81704,144],[-90.39161,38.81705,144],[-90.39157,38.81706,145],[-90.39155,38.81709,144],[-90.39151,38.8171,144],[-90.39149,38.81712,143],[-90.39146,38.81714,143],[-90.39143,38.81716,142],[-90.39139,38.81718,142],[-90.39137,38.8172,142],[-90.39135,38.81723,141],[-90.39131,38.81724,141],[-90.39132,38.81727,141],[-90.3913,38.8173,140],[-90.39126,38.8173,141],[-90.39123,38.81732,141],[-90.3912,38.81735,141],[-90.39117,38.81736,141],[-90.39113,38.81737,141],[-90.3911,38.81738,142],[-90.39105,38.81737,143],[-90.39103,38.81732,144],[-90.39103,38.81735,144],[-90.39106,38.81734,143],[-90.39108,38.81731,144],[-90.39109,38.81728,144],[-90.39111,38.81726,144],[-90.39115,38.81724,144],[-90.3911,38.81724,145],[-90.39107,38.81722,146],[-90.39104,38.81717,149],[-90.391,38.81714,151],[-90.39105,38.81704,154],[-90.39105,38.81696,158],[-90.39115,38.81698,155],[-90.39123,38.81702,152],[-90.39133,38.81706,149],[-90.39139,38.81709,146],[-90.39142,38.81704,148],[-90.39144,38.817,149],[-90.39145,38.81696,151],[-90.39146,38.81693,152],[-90.3915,38.81689,152],[-90.39154,38.8169,151],[-90.39155,38.81693,150],[-90.39151,38.81694,150],[-90.3915,38.81691,152],[-90.39153,38.81687,152],[-90.39156,38.81682,153],[-90.39158,38.81677,154],[-90.39161,38.81674,155],[-90.39166,38.81671,154],[-90.3917,38.81668,155],[-90.39172,38.81665,155],[-90.39176,38.81666,154],[-90.39182,38.81666,153],[-90.39188,38.81667,152],[-90.39188,38.81663,152],[-90.39188,38.81656,154],[-90.39191,38.8166,152],[-90.39195,38.81659,152],[-90.39203,38.81659,150],[-90.39207,38.81658,150],[-90.39214,38.81655,148],[-90.39224,38.81652,147],[-90.39218,38.81652,148],[-90.39217,38.81647,149],[-90.39226,38.81646,147],[-90.39225,38.81641,148],[-90.39229,38.81636,148],[-90.39222,38.81636,149],[-90.39217,38.81633,152],[-90.39219,38.81628,153],[-90.39223,38.81625,153],[-90.39227,38.81621,153],[-90.39232,38.81618,152],[-90.39237,38.81619,151],[-90.39242,38.81615,150],[-90.39245,38.81611,150],[-90.39248,38.81605,149],[-90.39253,38.81603,147],[-90.39249,38.81599,149],[-90.39243,38.816,151],[-90.39247,38.816,149],[-90.39252,38.816,148],[-90.39253,38.81597,147],[-90.39255,38.81594,147],[-90.39258,38.81593,146],[-90.3926,38.81591,145],[-90.39259,38.81587,145],[-90.39259,38.8159,145],[-90.39261,38.81593,145],[-90.39264,38.81595,144],[-90.39267,38.81597,143],[-90.39268,38.81591,143],[-90.39268,38.81588,143],[-90.39273,38.81587,141],[-90.39273,38.81583,141],[-90.39273,38.8158,142],[-90.3927,38.81579,143],[-90.39266,38.81577,145],[-90.39266,38.81573,145],[-90.39267,38.8157,146],[-90.39265,38.81568,147],[-90.39265,38.81565,148],[-90.39265,38.81562,148],[-90.39267,38.81559,148],[-90.39267,38.81556,149],[-90.39268,38.81553,149],[-90.39271,38.81551,148],[-90.39274,38.8155,148],[-90.39276,38.81547,147],[-90.39277,38.81544,148],[-90.39279,38.81542,148],[-90.39283,38.81542,147],[-90.39287,38.8154,147],[-90.3929,38.81539,146],[-90.39291,38.81536,147],[-90.39289,38.81533,148],[-90.39289,38.8153,149],[-90.39289,38.81527,150],[-90.39291,38.81524,149],[-90.39294,38.81523,148],[-90.39297,38.81523,148],[-90.39301,38.81521,147],[-90.39302,38.81518,147],[-90.39303,38.81515,147],[-90.39304,38.81512,147],[-90.39305,38.81509,147],[-90.39301,38.81508,147],[-90.39297,38.81508,148],[-90.39295,38.81506,148],[-90.39292,38.81504,149],[-90.39288,38.81503,149],[-90.39287,38.815,149],[-90.39286,38.81496,149],[-90.39285,38.81493,149],[-90.39284,38.81489,150],[-90.39284,38.81485,150],[-90.39283,38.81481,150],[-90.39283,38.81477,150],[-90.39286,38.81476,150],[-90.39285,38.81473,150],[-90.39284,38.8147,150],[-90.39283,38.81466,151],[-90.39281,38.81465,151],[-90.39277,38.81463,152],[-90.39274,38.81461,152],[-90.3927,38.81462,153],[-90.39266,38.81461,153],[-90.39264,38.81458,154],[-90.39261,38.81456,154],[-90.39259,38.81453,154],[-90.39256,38.81451,155],[-90.39254,38.81449,155],[-90.39251,38.81447,155],[-90.39248,38.81445,155],[-90.39245,38.81444,155],[-90.39241,38.81444,155],[-90.39237,38.81443,155],[-90.39234,38.8144,154],[-90.39232,38.81438,154],[-90.3923,38.81435,153],[-90.39228,38.81432,153],[-90.39227,38.81429,152],[-90.39224,38.81426,152],[-90.39221,38.81424,152],[-90.39219,38.81421,151],[-90.39217,38.81419,151],[-90.39215,38.81416,150],[-90.39214,38.81413,148],[-90.39212,38.8141,147],[-90.39219,38.8141,146],[-90.39217,38.81412,148],[-90.39213,38.81413,149],[-90.3921,38.81414,149],[-90.39207,38.81416,151],[-90.39206,38.81418,151],[-90.39202,38.81419,152],[-90.392,38.81416,151],[-90.39201,38.81413,149],[-90.39203,38.81415,150],[-90.392,38.81418,152],[-90.39198,38.8142,152],[-90.39195,38.81422,153],[-90.39192,38.81424,154],[-90.39194,38.81422,153],[-90.39196,38.81419,152],[-90.39193,38.81421,153],[-90.39194,38.81423,153],[-90.39191,38.81425,155],[-90.39187,38.81426,156],[-90.39187,38.8143,157],[-90.39188,38.81433,158],[-90.39189,38.81435,158],[-90.39192,38.81437,157],[-90.3919,38.81439,158],[-90.39192,38.81442,158],[-90.39195,38.81444,158],[-90.39194,38.81447,159],[-90.39195,38.81449,159],[-90.39197,38.81452,159],[-90.39196,38.81455,160],[-90.39193,38.81457,161],[-90.39188,38.8146,163],[-90.39183,38.81461,164],[-90.39189,38.81459,162],[-90.39193,38.81457,161],[-90.39197,38.81457,160],[-90.39199,38.81459,160],[-90.39194,38.81458,161],[-90.3919,38.81459,162],[-90.3919,38.81462,162],[-90.39188,38.81464,163],[-90.39187,38.81461,163],[-90.3919,38.81459,162],[-90.39193,38.81458,161],[-90.39191,38.81455,161],[-90.39187,38.81453,162],[-90.39185,38.81455,163],[-90.39187,38.81453,162],[-90.39189,38.81455,162],[-90.39186,38.81457,163],[-90.39189,38.81457,162],[-90.39191,38.8146,162],[-90.39195,38.81462,161],[-90.39198,38.81463,161],[-90.39199,38.81466,161],[-90.39198,38.81468,161],[-90.392,38.81471,161],[-90.39202,38.81474,161],[-90.39205,38.81476,161],[-90.39206,38.81479,161],[-90.39208,38.81481,161],[-90.39206,38.81483,161],[-90.39204,38.81486,162],[-90.39201,38.81488,163],[-90.39198,38.81491,164],[-90.39201,38.81492,163],[-90.39203,38.81495,163],[-90.39203,38.81498,163],[-90.39205,38.815,163],[-90.39207,38.81503,163],[-90.39207,38.81506,164],[-90.39207,38.81508,165],[-90.39207,38.81512,167],[-90.39206,38.81515,168],[-90.39204,38.81518,170],[-90.39203,38.8152,170],[-90.39201,38.81524,172],[-90.39201,38.81527,173],[-90.39201,38.8153,174],[-90.39202,38.81532,173],[-90.39203,38.81535,173],[-90.39204,38.81539,173],[-90.39205,38.81542,173],[-90.39205,38.81544,173],[-90.39203,38.81548,174],[-90.39203,38.81551,174],[-90.39205,38.81553,173],[-90.39203,38.81555,174],[-90.39199,38.81557,175],[-90.39197,38.81559,176],[-90.39196,38.81562,175],[-90.39197,38.81564,175],[-90.39193,38.81566,176],[-90.3919,38.81567,176],[-90.39186,38.81568,177],[-90.39183,38.81569,177],[-90.39179,38.81571,178],[-90.39177,38.81573,178],[-90.39176,38.81576,178],[-90.39177,38.81579,177],[-90.39178,38.81582,177],[-90.39178,38.81585,176],[-90.39181,38.81587,175],[-90.39182,38.8159,174],[-90.39181,38.81593,173],[-90.39181,38.81596,173],[-90.39179,38.81599,172],[-90.39178,38.81602,172],[-90.39176,38.81605,172],[-90.39175,38.81608,172],[-90.39176,38.81612,170],[-90.39176,38.81614,170],[-90.39174,38.81617,169],[-90.39176,38.8162,168],[-90.39173,38.81622,168],[-90.3917,38.81624,168],[-90.39168,38.81627,167],[-90.39167,38.8163,167],[-90.39166,38.81632,166],[-90.39164,38.81635,166],[-90.39163,38.81638,165],[-90.3916,38.8164,165],[-90.39157,38.81642,165],[-90.39156,38.81645,164],[-90.39155,38.81648,164],[-90.39153,38.8165,163],[-90.39151,38.81653,163],[-90.39149,38.81655,163],[-90.39145,38.81657,163],[-90.39142,38.81656,164],[-90.3914,38.81653,166],[-90.39139,38.8165,167],[-90.39141,38.81648,167],[-90.39145,38.81651,165],[-90.39146,38.81648,166],[-90.39147,38.81646,166],[-90.39151,38.81646,165],[-90.39156,38.81648,163],[-90.39154,38.81652,163],[-90.39149,38.81653,164],[-90.39145,38.81654,164],[-90.39143,38.81657,164],[-90.39146,38.81655,164],[-90.39149,38.81654,163],[-90.39145,38.81654,164],[-90.39143,38.81654,165],[-90.39147,38.81655,163],[-90.3915,38.81652,164],[-90.39148,38.81656,163],[-90.39153,38.81656,162],[-90.39149,38.81655,163],[-90.39154,38.81655,162],[-90.39157,38.81657,160],[-90.39156,38.81654,162],[-90.39149,38.81655,163],[-90.39157,38.81655,161],[-90.39154,38.81656,162],[-90.3915,38.81656,162],[-90.39147,38.81657,163],[-90.39143,38.81657,164],[-90.39145,38.81658,163]],[[-90.39143,38.81659,163],[-90.39145,38.81661,162],[-90.39145,38.81658,163],[-90.39142,38.81656,164],[-90.39139,38.81654,166],[-90.39143,38.81655,164],[-90.39146,38.81657,163],[-90.39147,38.81659,162],[-90.39149,38.81656,163],[-90.39146,38.81655,164],[-90.39144,38.81652,165],[-90.39144,38.81649,166],[-90.39146,38.81646,167],[-90.39148,38.81644,167],[-90.39152,38.81641,167],[-90.39154,38.81639,167],[-90.39153,38.81636,168],[-90.39155,38.81633,168],[-90.39158,38.81632,168],[-90.39161,38.81629,168],[-90.3916,38.81627,169],[-90.3916,38.81623,170],[-90.39162,38.81621,171],[-90.39161,38.81618,172],[-90.39163,38.81615,172],[-90.39163,38.81612,173],[-90.39162,38.8161,174],[-90.39165,38.81608,174],[-90.39168,38.81606,174],[-90.3917,38.81603,174],[-90.3917,38.816,175],[-90.39174,38.81598,174],[-90.39176,38.81596,174],[-90.39175,38.81593,175],[-90.39173,38.81596,175],[-90.39173,38.81593,176],[-90.3917,38.81592,177],[-90.39169,38.81589,177],[-90.39169,38.81586,178],[-90.39167,38.81583,179],[-90.39168,38.8158,180],[-90.39166,38.81577,180],[-90.39165,38.81574,181],[-90.39164,38.81577,180],[-90.39167,38.81579,180],[-90.39163,38.81578,180],[-90.3916,38.8158,180],[-90.39163,38.81577,180],[-90.39166,38.81579,180],[-90.39167,38.81581,180],[-90.39172,38.8158,178],[-90.39174,38.81576,178],[-90.39175,38.81573,179],[-90.39175,38.8157,179],[-90.39171,38.81571,180],[-90.39168,38.81572,180],[-90.39166,38.8157,181],[-90.39164,38.81567,181],[-90.39162,38.81565,182],[-90.3916,38.81562,182],[-90.39157,38.81561,183],[-90.39153,38.81562,183],[-90.3915,38.81563,183],[-90.39146,38.81562,183],[-90.39143,38.81558,184],[-90.39139,38.81557,184],[-90.39134,38.81554,185],[-90.39132,38.81548,185],[-90.39131,38.81543,185],[-90.39127,38.81541,185],[-90.39123,38.81544,185],[-90.39121,38.81547,185],[-90.39117,38.81549,186],[-90.39113,38.81549,186],[-90.39109,38.8155,186],[-90.39108,38.81554,185],[-90.39107,38.81557,185],[-90.39106,38.81561,185],[-90.39106,38.81565,184],[-90.39102,38.81566,184],[-90.39098,38.81565,184],[-90.39095,38.81563,184],[-90.39091,38.81562,184],[-90.39087,38.81561,184],[-90.39083,38.81561,184],[-90.3908,38.81557,184],[-90.39078,38.81554,184],[-90.39073,38.81553,184],[-90.39069,38.81553,183],[-90.39065,38.81553,183],[-90.39061,38.81555,182],[-90.39057,38.81556,182],[-90.39052,38.81555,181],[-90.39049,38.81553,181],[-90.39045,38.81553,180],[-90.39042,38.81553,180],[-90.39037,38.81552,179],[-90.39034,38.81552,179],[-90.39032,38.8155,179],[-90.39029,38.81547,179],[-90.39026,38.81545,179],[-90.39021,38.81543,179],[-90.39017,38.81541,179],[-90.39014,38.81539,180],[-90.3901,38.81541,179],[-90.39009,38.81537,180],[-90.3901,38.81534,180],[-90.39012,38.81532,181],[-90.39015,38.81528,181],[-90.39009,38.81535,180],[-90.39002,38.81535,180],[-90.38998,38.81538,180],[-90.38996,38.81541,179],[-90.38994,38.81537,180],[-90.38988,38.81538,180],[-90.38983,38.81539,180],[-90.38982,38.81535,181],[-90.38981,38.81532,182],[-90.38979,38.81528,182],[-90.38976,38.81525,183],[-90.38973,38.81523,183],[-90.38971,38.8152,184],[-90.38969,38.81517,185],[-90.38966,38.81518,185],[-90.38962,38.81516,186],[-90.38962,38.81513,186],[-90.38961,38.8151,186],[-90.38959,38.81505,187],[-90.38958,38.81502,188],[-90.38955,38.81501,188],[-90.38951,38.81502,188],[-90.38947,38.81501,188],[-90.38944,38.81499,188],[-90.3894,38.81496,188],[-90.38939,38.81492,188],[-90.38937,38.81489,189],[-90.38939,38.81485,189],[-90.3894,38.81482,189],[-90.38937,38.8148,189],[-90.38933,38.81481,189],[-90.38934,38.81478,189],[-90.38937,38.81476,190],[-90.3894,38.81473,190],[-90.3894,38.8147,190],[-90.38938,38.81467,190],[-90.38939,38.81463,190],[-90.38944,38.81463,190],[-90.38943,38.81459,190],[-90.38946,38.81456,190],[-90.38952,38.81451,190],[-90.38951,38.81446,189],[-90.38949,38.81442,189],[-90.38945,38.81439,189],[-90.38941,38.81437,189],[-90.38938,38.81437,190],[-90.38934,38.81437,190],[-90.38931,38.81438,190],[-90.38927,38.81438,191],[-90.38923,38.81439,191],[-90.3892,38.81437,191],[-90.38917,38.81436,192],[-90.38915,38.81433,192],[-90.38914,38.81429,192],[-90.3891,38.81428,192],[-90.38907,38.81425,192],[-90.38903,38.81423,192],[-90.38899,38.81423,192],[-90.38895,38.81423,192],[-90.38891,38.81425,192],[-90.38888,38.81425,193],[-90.38883,38.81426,193],[-90.3888,38.81424,194],[-90.38876,38.81425,194],[-90.38873,38.81412,194],[-90.3887,38.81412,195],[-90.38867,38.81414,195],[-90.38865,38.81418,196],[-90.38861,38.81419,197],[-90.38859,38.81422,197],[-90.38855,38.81418,197],[-90.38852,38.81415,197],[-90.38849,38.81413,197],[-90.38845,38.81412,197],[-90.38841,38.81411,198],[-90.38837,38.8141,198],[-90.38833,38.81409,198],[-90.38829,38.81406,198],[-90.38828,38.81402,198],[-90.38824,38.81403,198],[-90.3882,38.81404,199],[-90.38816,38.81402,199],[-90.38813,38.81402,199],[-90.38809,38.81401,199],[-90.38805,38.81402,199],[-90.38801,38.81402,199],[-90.38797,38.81403,199],[-90.38793,38.81405,199],[-90.38788,38.81405,199],[-90.38783,38.81403,199],[-90.38779,38.81402,199],[-90.38775,38.814,200],[-90.38771,38.81401,200],[-90.38768,38.81404,200],[-90.38766,38.81401,200],[-90.38765,38.81399,200],[-90.38763,38.81396,200],[-90.38761,38.81394,200],[-90.38759,38.81391,200],[-90.38756,38.8139,200],[-90.38754,38.81387,199],[-90.38752,38.81385,199],[-90.3875,38.81382,198],[-90.38748,38.81381,198],[-90.38751,38.81382,199],[-90.38748,38.8138,198],[-90.38747,38.81377,198],[-90.38747,38.81374,197],[-90.38751,38.81373,197],[-90.38754,38.81375,198],[-90.38755,38.81378,198],[-90.38752,38.81375,198],[-90.38753,38.81373,197],[-90.38756,38.81375,198],[-90.38754,38.81372,197],[-90.38758,38.8137,197],[-90.38756,38.81372,197],[-90.38755,38.81369,197],[-90.38756,38.81367,197],[-90.38757,38.81364,196],[-90.38758,38.81361,196],[-90.38758,38.81358,196],[-90.38755,38.81357,196],[-90.38756,38.81354,195],[-90.38757,38.81351,195],[-90.38759,38.81349,195],[-90.38761,38.81347,195],[-90.38761,38.81344,195],[-90.3876,38.81341,195],[-90.38757,38.81341,195],[-90.3876,38.8134,195],[-90.38762,38.81337,195],[-90.38761,38.81334,194],[-90.38762,38.81331,194],[-90.38762,38.81328,194],[-90.38766,38.81328,194],[-90.3877,38.81328,194],[-90.38773,38.81327,195],[-90.38772,38.81324,194],[-90.38776,38.81326,195],[-90.38779,38.81327,195],[-90.38782,38.81327,195],[-90.38785,38.81324,194],[-90.38788,38.81324,194],[-90.38788,38.81321,194],[-90.38787,38.81324,194],[-90.38789,38.81322,194],[-90.38792,38.81319,193],[-90.38787,38.8132,194],[-90.38787,38.81317,193],[-90.38791,38.81316,193],[-90.38793,38.81312,192],[-90.38795,38.81309,192],[-90.38797,38.81307,191],[-90.38794,38.81304,191],[-90.38797,38.81303,191],[-90.38795,38.81301,191],[-90.38793,38.81299,191],[-90.38795,38.81296,190],[-90.38795,38.81293,190],[-90.38793,38.8129,189],[-90.38795,38.81287,189],[-90.38797,38.81285,189],[-90.38794,38.81282,188],[-90.38793,38.81279,188],[-90.38798,38.81279,188],[-90.38802,38.8128,188],[-90.38805,38.81282,188],[-90.38808,38.81284,188],[-90.38806,38.81287,188],[-90.38804,38.81284,188],[-90.38805,38.81279,188],[-90.38806,38.81276,187],[-90.38809,38.81275,186],[-90.38813,38.81275,185],[-90.38808,38.81274,186],[-90.38805,38.81275,187],[-90.38802,38.81273,186],[-90.38799,38.81275,187],[-90.38797,38.81278,188],[-90.38794,38.81276,188],[-90.38789,38.81276,188],[-90.38793,38.81278,188],[-90.38796,38.81279,188],[-90.388,38.81277,188],[-90.38802,38.81275,187],[-90.38803,38.81272,186],[-90.38806,38.81275,187],[-90.38807,38.81278,187],[-90.38807,38.81281,187],[-90.38811,38.81279,186],[-90.38811,38.81276,186],[-90.38815,38.81278,185],[-90.3882,38.81279,184],[-90.38823,38.81281,183],[-90.38824,38.81278,182],[-90.38828,38.81276,181],[-90.3882,38.81278,183],[-90.38817,38.81279,184],[-90.38815,38.81276,184],[-90.38811,38.81275,185],[-90.38807,38.81273,186],[-90.38803,38.81273,186],[-90.38801,38.81271,186],[-90.38802,38.81267,185],[-90.38806,38.81267,185],[-90.3881,38.81265,183],[-90.3881,38.81268,184],[-90.3881,38.81266,183],[-90.38813,38.81265,182],[-90.38816,38.81262,181],[-90.38819,38.81261,180],[-90.38821,38.81263,180],[-90.38824,38.81264,179],[-90.38828,38.81265,178],[-90.3883,38.81268,179],[-90.38833,38.81268,178],[-90.38831,38.81265,178],[-90.3883,38.81262,177],[-90.38834,38.81261,176],[-90.38836,38.81259,175],[-90.38838,38.81261,175],[-90.3884,38.81258,174],[-90.38842,38.81256,173],[-90.38841,38.8126,174],[-90.38843,38.81258,174],[-90.38846,38.81256,173],[-90.38846,38.81251,172],[-90.38847,38.81249,171],[-90.38848,38.81246,170],[-90.38851,38.81245,170],[-90.38848,38.81242,170],[-90.38845,38.81241,170],[-90.38845,38.81238,169],[-90.38847,38.81236,168],[-90.38851,38.81235,168],[-90.3885,38.81232,167],[-90.38852,38.81229,166],[-90.38854,38.81226,165],[-90.38854,38.81223,165],[-90.38855,38.8122,164],[-90.38859,38.81219,164],[-90.38862,38.81219,163],[-90.38866,38.81221,163],[-90.38868,38.81218,163],[-90.3887,38.81216,162],[-90.38871,38.81213,162],[-90.3887,38.8121,162],[-90.38866,38.8121,162],[-90.38867,38.81213,162],[-90.38865,38.81209,162],[-90.3886,38.81208,163],[-90.38864,38.81209,162],[-90.38868,38.81209,162],[-90.38871,38.8121,161],[-90.38868,38.81204,161],[-90.38866,38.81202,161],[-90.38872,38.81203,161],[-90.3887,38.81206,161],[-90.38867,38.81204,161],[-90.38864,38.81201,162],[-90.38861,38.81201,162],[-90.38857,38.81199,162],[-90.38853,38.81199,163],[-90.3885,38.81197,164],[-90.38848,38.81194,164],[-90.38848,38.8119,164],[-90.38849,38.81187,164],[-90.38851,38.81184,164],[-90.3885,38.81181,164],[-90.3885,38.81178,165],[-90.3885,38.81175,165],[-90.38851,38.81172,165],[-90.38853,38.8117,165],[-90.38856,38.81168,165],[-90.38857,38.81165,165],[-90.38859,38.81162,165],[-90.38861,38.81159,165],[-90.38864,38.81157,164],[-90.38867,38.81155,163],[-90.38871,38.81155,162],[-90.38874,38.81152,162],[-90.3888,38.8115,160],[-90.38884,38.81148,159],[-90.38888,38.81147,158],[-90.38893,38.81146,157],[-90.38895,38.81148,157],[-90.38899,38.81149,156],[-90.38892,38.81149,157],[-90.38888,38.81148,158],[-90.38885,38.81146,159],[-90.38884,38.81143,159],[-90.38888,38.81143,158],[-90.38892,38.81143,157],[-90.38895,38.8114,156],[-90.38899,38.8114,155],[-90.38902,38.8114,155],[-90.38906,38.81139,154],[-90.38902,38.8114,155],[-90.38908,38.81141,154],[-90.38909,38.81144,153],[-90.38912,38.81147,153],[-90.3891,38.8115,153],[-90.38907,38.81151,154],[-90.38904,38.8115,155],[-90.38905,38.81153,154],[-90.38908,38.81154,154],[-90.38908,38.81152,154],[-90.38911,38.8115,153],[-90.38917,38.81146,152],[-90.38913,38.81147,152],[-90.38915,38.81149,152],[-90.38913,38.81151,152],[-90.38912,38.81151,153],[-90.3891,38.81154,153],[-90.38911,38.8115,153],[-90.38919,38.81145,152],[-90.38914,38.81145,152],[-90.38907,38.81146,154],[-90.38906,38.81142,154],[-90.38904,38.8114,154],[-90.38908,38.8114,153],[-90.38912,38.81139,152],[-90.38913,38.81137,152],[-90.38913,38.81133,153],[-90.38915,38.8113,153],[-90.38919,38.8113,152],[-90.38924,38.81131,152],[-90.3893,38.81132,152],[-90.38933,38.81133,152],[-90.38938,38.81133,152],[-90.38939,38.81131,152],[-90.38935,38.8113,152],[-90.38932,38.81129,152],[-90.38933,38.81126,152],[-90.38938,38.81126,152],[-90.38941,38.81125,152],[-90.38946,38.81123,151],[-90.38944,38.81121,152],[-90.38947,38.81118,151],[-90.3895,38.81115,151],[-90.38952,38.81113,151],[-90.38956,38.81112,151],[-90.38959,38.81112,151],[-90.38964,38.81113,151],[-90.38968,38.81116,151],[-90.38972,38.81117,150],[-90.38976,38.81117,150],[-90.38978,38.81115,150],[-90.38982,38.81114,149],[-90.38985,38.81112,149],[-90.38988,38.8111,148],[-90.38992,38.8111,147],[-90.38995,38.81109,147],[-90.39,38.8111,146],[-90.39003,38.81111,146],[-90.39007,38.81111,146],[-90.3901,38.81109,145],[-90.39015,38.81111,144],[-90.39018,38.81113,144],[-90.39021,38.81115,143],[-90.39025,38.81116,143],[-90.39028,38.81115,142],[-90.39032,38.81114,142],[-90.39035,38.81113,142],[-90.39038,38.81114,142],[-90.39041,38.81116,142],[-90.39044,38.81117,142],[-90.39048,38.81119,142],[-90.39051,38.8112,142],[-90.39055,38.81121,142],[-90.39058,38.8112,142],[-90.39062,38.81119,142],[-90.39066,38.81118,141],[-90.39069,38.81117,141],[-90.39073,38.81116,141],[-90.39076,38.81115,141],[-90.3908,38.81114,141],[-90.39084,38.81116,141],[-90.39086,38.81118,141],[-90.39088,38.81121,141],[-90.39089,38.81124,141],[-90.39091,38.81126,141],[-90.39094,38.81129,141],[-90.39096,38.81132,141],[-90.39099,38.81133,141],[-90.39103,38.81134,141],[-90.39106,38.81135,140],[-90.39107,38.81138,141],[-90.3911,38.81141,141],[-90.39113,38.81143,141],[-90.39115,38.81146,141],[-90.39117,38.81148,141],[-90.39118,38.81151,141],[-90.39117,38.81154,142],[-90.39116,38.81158,143],[-90.39115,38.8116,143],[-90.39113,38.81163,144],[-90.3911,38.81165,144],[-90.39107,38.81167,145],[-90.39104,38.81169,146],[-90.39101,38.81171,146],[-90.391,38.81174,147],[-90.39099,38.81177,147],[-90.39098,38.81181,148],[-90.39098,38.81184,148],[-90.39098,38.81187,149],[-90.39099,38.8119,149],[-90.39101,38.81193,150],[-90.39099,38.81196,150],[-90.39098,38.81199,150],[-90.39097,38.81203,150],[-90.39096,38.81206,150],[-90.39095,38.81208,149],[-90.39092,38.81211,149],[-90.39092,38.81214,149],[-90.39094,38.81217,149],[-90.39095,38.81219,149],[-90.39095,38.81223,149],[-90.39098,38.81224,148],[-90.391,38.81228,147],[-90.39101,38.81231,147],[-90.39102,38.81233,146],[-90.39103,38.81236,145],[-90.39103,38.81239,144],[-90.39105,38.81242,143],[-90.39107,38.81245,142],[-90.39106,38.81248,142],[-90.39107,38.81251,141],[-90.39108,38.81254,142],[-90.39107,38.81256,142],[-90.39107,38.8126,143],[-90.39108,38.81263,144],[-90.39108,38.81267,145],[-90.3911,38.81269,145],[-90.39112,38.81271,145],[-90.3911,38.81274,146],[-90.39111,38.81277,146],[-90.39112,38.8128,147],[-90.39114,38.81283,147],[-90.39116,38.81286,148],[-90.39117,38.81288,148],[-90.39113,38.8129,149],[-90.39116,38.81293,150],[-90.39117,38.81296,150],[-90.39121,38.81297,150],[-90.39124,38.81299,150],[-90.39128,38.813,150],[-90.39129,38.81303,150],[-90.3913,38.81306,151],[-90.3913,38.81309,151],[-90.3913,38.81312,151],[-90.39132,38.81314,151],[-90.39134,38.81316,151],[-90.39136,38.81319,150],[-90.39138,38.81321,150],[-90.39138,38.81324,150],[-90.39141,38.81326,150],[-90.39144,38.81328,149],[-90.39148,38.81329,149],[-90.3915,38.81331,149],[-90.39153,38.81332,148],[-90.39157,38.81333,148],[-90.3916,38.81335,147],[-90.39163,38.81337,147],[-90.39164,38.8134,146],[-90.39165,38.81343,145],[-90.39171,38.81344,144],[-90.39172,38.81347,144],[-90.39174,38.81349,143],[-90.39174,38.81352,143],[-90.39174,38.81355,143],[-90.39173,38.81358,142],[-90.39173,38.81361,142],[-90.39175,38.81366,142],[-90.39178,38.81368,142],[-90.39181,38.81371,142],[-90.39184,38.81374,141],[-90.39187,38.81375,141],[-90.39191,38.81376,140],[-90.39194,38.81378,139],[-90.39197,38.8138,138],[-90.39199,38.81383,137],[-90.39201,38.81386,137],[-90.39204,38.81388,136],[-90.39207,38.8139,136],[-90.3921,38.81392,137],[-90.39213,38.81393,137],[-90.39217,38.81394,136],[-90.3922,38.81396,138],[-90.39222,38.81398,138],[-90.39225,38.81399,139],[-90.39225,38.81396,138],[-90.3922,38.81393,136],[-90.39225,38.81393,136],[-90.39229,38.81393,136],[-90.39232,38.81394,137],[-90.39235,38.81391,136],[-90.39235,38.81389,135],[-90.39235,38.81386,135],[-90.39237,38.81382,136],[-90.3924,38.8138,137],[-90.39243,38.81378,137],[-90.39244,38.81376,137],[-90.39248,38.81374,138],[-90.39249,38.81372,138],[-90.39249,38.81369,138],[-90.3925,38.81365,138],[-90.39252,38.81362,138],[-90.39253,38.8136,138],[-90.39253,38.81356,138],[-90.39254,38.81353,138],[-90.39255,38.8135,137],[-90.39258,38.81348,137],[-90.3926,38.81346,137],[-90.39263,38.81343,136],[-90.39266,38.8134,136],[-90.39269,38.81337,135],[-90.39272,38.81336,135],[-90.39275,38.81334,135],[-90.39278,38.81331,134],[-90.3928,38.81329,134],[-90.39284,38.81327,134],[-90.39287,38.81326,134],[-90.3929,38.81324,133],[-90.39292,38.81322,133],[-90.39296,38.8132,133],[-90.39297,38.81317,133],[-90.39297,38.81314,133],[-90.39299,38.81312,133],[-90.393,38.81309,133],[-90.39303,38.81307,133],[-90.39306,38.81306,132],[-90.3931,38.81304,133],[-90.39313,38.81302,133],[-90.39316,38.81299,133],[-90.39319,38.81298,133],[-90.39324,38.81297,133],[-90.39327,38.81295,133],[-90.39329,38.81292,133],[-90.3933,38.81289,134],[-90.39333,38.81287,134],[-90.39336,38.81286,134],[-90.3934,38.81287,134],[-90.39344,38.81289,133],[-90.39348,38.8129,133],[-90.39352,38.81292,133],[-90.39355,38.81296,132],[-90.39357,38.81299,132],[-90.3936,38.81302,132],[-90.39363,38.81304,132],[-90.39364,38.81306,132],[-90.39365,38.81309,132],[-90.39367,38.81312,132],[-90.3937,38.81314,132],[-90.39373,38.81315,132],[-90.39375,38.81318,132],[-90.39378,38.8132,132],[-90.3938,38.81322,132],[-90.39377,38.81323,132],[-90.39381,38.81323,132],[-90.39384,38.81325,132],[-90.39387,38.81326,132],[-90.39388,38.81328,132],[-90.39389,38.81331,132],[-90.39391,38.81333,132],[-90.39394,38.81335,132],[-90.39397,38.81337,132],[-90.39401,38.81338,132],[-90.39403,38.8134,132],[-90.39407,38.81342,132],[-90.39411,38.81343,132],[-90.39414,38.81344,132],[-90.39417,38.81347,133],[-90.39419,38.8135,133],[-90.39421,38.81353,133],[-90.39424,38.81353,133],[-90.39428,38.81353,133],[-90.39432,38.81355,133],[-90.39435,38.81356,133],[-90.39438,38.81358,133],[-90.39441,38.8136,133],[-90.39444,38.81362,133],[-90.39448,38.81363,134],[-90.39451,38.81365,134],[-90.39454,38.81367,134],[-90.39458,38.81367,134],[-90.39461,38.81369,135],[-90.39465,38.8137,135],[-90.39468,38.81372,135],[-90.39471,38.81374,135],[-90.39474,38.81376,135],[-90.39476,38.81379,135],[-90.39479,38.81381,135],[-90.39483,38.81382,135],[-90.39486,38.81384,135],[-90.39488,38.81386,135],[-90.39492,38.81389,135],[-90.39495,38.81389,135],[-90.39498,38.81391,134],[-90.39501,38.81393,135],[-90.39504,38.81395,135],[-90.39506,38.81397,135],[-90.3951,38.81398,135],[-90.39514,38.81399,135],[-90.39517,38.814,135],[-90.39517,38.81403,135],[-90.39514,38.81403,135],[-90.3951,38.81403,135],[-90.39513,38.81401,135],[-90.39516,38.814,135],[-90.3952,38.81401,135],[-90.39518,38.81403,135],[-90.39518,38.81401,135],[-90.39522,38.81402,135],[-90.39525,38.81403,135],[-90.39525,38.81406,135],[-90.39528,38.81407,135],[-90.39532,38.81408,135],[-90.39535,38.81408,135],[-90.39539,38.81409,135],[-90.39542,38.81411,135],[-90.39542,38.81414,135],[-90.3954,38.81416,135],[-90.39544,38.81416,135],[-90.39547,38.81418,135],[-90.39549,38.8142,135],[-90.39553,38.81419,135],[-90.39554,38.81422,135],[-90.39557,38.81424,135],[-90.3956,38.81426,135],[-90.39564,38.81428,135],[-90.39567,38.81429,135],[-90.39571,38.81431,135],[-90.39574,38.81432,135],[-90.39579,38.81433,135],[-90.39582,38.81434,135],[-90.39584,38.81437,135],[-90.39587,38.81439,135],[-90.39591,38.81441,135],[-90.39594,38.81441,135],[-90.39598,38.81442,135],[-90.39601,38.81444,135],[-90.39604,38.81445,135],[-90.39608,38.81447,135],[-90.39612,38.81448,135],[-90.39615,38.81449,135],[-90.39621,38.81451,134],[-90.39625,38.81452,134],[-90.39629,38.81453,133],[-90.3963,38.81456,133],[-90.39633,38.81458,133],[-90.39635,38.81461,132],[-90.39638,38.81463,132],[-90.39641,38.81465,131],[-90.39644,38.81466,131],[-90.39647,38.81468,131],[-90.3965,38.8147,130],[-90.39654,38.81472,130],[-90.39657,38.81474,130],[-90.3966,38.81476,129],[-90.39663,38.81478,129],[-90.39666,38.8148,129],[-90.39668,38.81482,129],[-90.39671,38.81484,129],[-90.39673,38.81486,129],[-90.39676,38.81488,129],[-90.39679,38.81491,129],[-90.39682,38.81493,129],[-90.39684,38.81495,129],[-90.39686,38.81497,129],[-90.3969,38.81498,129],[-90.39693,38.815,129],[-90.39693,38.81504,129],[-90.39694,38.81506,129],[-90.39696,38.81509,129],[-90.39698,38.81511,129],[-90.39702,38.81513,129],[-90.39706,38.81514,130],[-90.39709,38.81517,130],[-90.39711,38.81519,130],[-90.39714,38.81522,130],[-90.39717,38.81523,130],[-90.39721,38.81524,131],[-90.39724,38.81524,131],[-90.39726,38.81527,131],[-90.39728,38.8153,131],[-90.39731,38.81532,131],[-90.39735,38.81533,131],[-90.39737,38.81535,131],[-90.39739,38.81537,131],[-90.39742,38.81539,131],[-90.39746,38.81541,131],[-90.39749,38.81542,131],[-90.39752,38.81544,132],[-90.39754,38.81547,132],[-90.39757,38.81549,132],[-90.3976,38.8155,132],[-90.39764,38.81552,132],[-90.39768,38.81553,132],[-90.39772,38.81554,132],[-90.39775,38.81555,132],[-90.39778,38.81558,131],[-90.3978,38.8156,131],[-90.39782,38.81562,131],[-90.39785,38.81564,131],[-90.39789,38.81564,131],[-90.39792,38.81566,131],[-90.39795,38.81569,131],[-90.39799,38.8157,131],[-90.39801,38.81573,131],[-90.39805,38.81574,131],[-90.39808,38.81576,131],[-90.3981,38.81578,130],[-90.39812,38.81581,130],[-90.39814,38.81583,130],[-90.39817,38.81585,130],[-90.39818,38.81588,130],[-90.39821,38.8159,129],[-90.39825,38.81591,129],[-90.39829,38.81592,129],[-90.39832,38.81594,129],[-90.39835,38.81595,129],[-90.39838,38.81597,129],[-90.39841,38.81599,129],[-90.39846,38.81601,129],[-90.39849,38.81602,130],[-90.39852,38.81604,130],[-90.39856,38.81606,130],[-90.39859,38.81607,130],[-90.39862,38.81609,131],[-90.39865,38.81611,131],[-90.39867,38.81613,131],[-90.3987,38.81615,131],[-90.39873,38.81617,132],[-90.39877,38.81618,132],[-90.39881,38.81621,132],[-90.39884,38.81622,133],[-90.39888,38.81623,133],[-90.39891,38.81625,133],[-90.39895,38.81627,133],[-90.39898,38.81629,133],[-90.39901,38.81631,134],[-90.39904,38.81633,134],[-90.39906,38.81635,134],[-90.39905,38.81639,134],[-90.39909,38.8164,134],[-90.39912,38.8164,134],[-90.39916,38.8164,135],[-90.3992,38.81642,135],[-90.39923,38.81644,135],[-90.39925,38.81646,135],[-90.39928,38.81648,135],[-90.3993,38.8165,135],[-90.39933,38.81652,135],[-90.39936,38.81654,135],[-90.3994,38.81655,135],[-90.39943,38.81658,135],[-90.39946,38.8166,135],[-90.39948,38.81662,135],[-90.39952,38.81663,135],[-90.39955,38.81665,135],[-90.39959,38.81667,134],[-90.39961,38.81669,134],[-90.39964,38.81671,134],[-90.39969,38.81672,134],[-90.39972,38.81673,134],[-90.39974,38.81675,134],[-90.39977,38.81678,134],[-90.3998,38.81679,134],[-90.39984,38.81681,134],[-90.39988,38.81683,134],[-90.3999,38.81685,134],[-90.39993,38.81687,134],[-90.39996,38.81688,134],[-90.39999,38.8169,134],[-90.40003,38.81692,134],[-90.40006,38.81693,134],[-90.40008,38.81696,133],[-90.40012,38.81697,133],[-90.40016,38.81697,133],[-90.4002,38.81699,133],[-90.40023,38.81701,133],[-90.40024,38.81704,133],[-90.40026,38.81706,133],[-90.40029,38.81708,134],[-90.40033,38.8171,134],[-90.40036,38.81711,134],[-90.40039,38.81713,134],[-90.40043,38.81715,134],[-90.40047,38.81716,134],[-90.4005,38.81716,134],[-90.40054,38.81717,134],[-90.40058,38.81718,134],[-90.40058,38.81721,134],[-90.40061,38.81723,134],[-90.40064,38.81724,134],[-90.40066,38.81727,134],[-90.4007,38.81728,134],[-90.40074,38.81728,134],[-90.40078,38.81729,134],[-90.40083,38.81732,134],[-90.40086,38.81734,134],[-90.40091,38.81736,133],[-90.40094,38.81737,133],[-90.40096,38.8174,133],[-90.401,38.81741,133],[-90.40103,38.81744,133],[-90.40104,38.81746,133],[-90.40106,38.81749,133],[-90.40108,38.81751,133],[-90.40111,38.81753,133],[-90.40114,38.81755,133],[-90.40115,38.81758,133],[-90.40118,38.81761,133],[-90.40121,38.81763,133],[-90.40124,38.81765,134],[-90.40128,38.81765,134],[-90.4013,38.81768,134],[-90.40134,38.81769,134],[-90.40138,38.81771,134],[-90.40142,38.81772,134],[-90.40144,38.81775,134],[-90.40146,38.81777,134],[-90.4015,38.81778,134],[-90.4015,38.81782,134],[-90.40149,38.81785,134],[-90.40152,38.81787,134],[-90.40155,38.81788,133],[-90.40159,38.81788,133],[-90.40163,38.8179,132],[-90.40163,38.81792,132],[-90.40161,38.8179,133],[-90.4016,38.81787,133],[-90.40157,38.81785,133],[-90.40154,38.81783,133],[-90.40159,38.81783,133],[-90.40156,38.81785,133],[-90.40152,38.81785,134],[-90.40148,38.81785,134],[-90.40144,38.81786,134],[-90.40149,38.81786,134],[-90.40153,38.81786,134],[-90.4015,38.81788,134],[-90.40147,38.81786,134],[-90.40143,38.81787,134],[-90.40146,38.81785,134],[-90.4015,38.81784,134],[-90.40153,38.81783,134],[-90.40156,38.81785,133],[-90.40156,38.81788,133],[-90.40157,38.81785,133],[-90.40154,38.81779,133],[-90.40158,38.81779,133],[-90.40159,38.81782,133],[-90.40161,38.81785,133],[-90.40164,38.81786,132],[-90.40167,38.81788,132],[-90.40172,38.8179,132],[-90.40175,38.81792,132],[-90.40177,38.81794,132],[-90.40181,38.81796,132],[-90.40185,38.81797,132],[-90.40188,38.81798,132],[-90.40192,38.818,132],[-90.40195,38.81803,131],[-90.40197,38.81805,131],[-90.40201,38.81806,131],[-90.40205,38.81807,131],[-90.40208,38.81809,131],[-90.40211,38.81814,132],[-90.40213,38.81817,132],[-90.40216,38.81819,133],[-90.40221,38.81819,133],[-90.40224,38.81819,133],[-90.40227,38.81822,134],[-90.40229,38.81825,134],[-90.40234,38.81826,134],[-90.40238,38.81827,135],[-90.40242,38.81828,135],[-90.40247,38.8183,135],[-90.40251,38.8183,135],[-90.40254,38.81831,135],[-90.40258,38.81834,135],[-90.40259,38.81837,136],[-90.40261,38.81839,136],[-90.40264,38.81842,136],[-90.40267,38.81844,136],[-90.40271,38.81845,135],[-90.40275,38.81846,135],[-90.40277,38.81849,135],[-90.4028,38.81852,135],[-90.40283,38.81855,135],[-90.40286,38.81857,135],[-90.40289,38.81859,135],[-90.40291,38.81861,135],[-90.40294,38.81863,134],[-90.40297,38.81865,134],[-90.403,38.81867,134],[-90.40303,38.81869,134],[-90.40306,38.81871,134],[-90.40309,38.81873,134],[-90.40312,38.81876,134],[-90.40317,38.81877,134],[-90.4032,38.81879,134],[-90.40322,38.81881,135],[-90.40324,38.81883,135],[-90.40326,38.81886,135],[-90.4033,38.81888,135],[-90.40333,38.8189,135],[-90.40336,38.81891,135],[-90.40339,38.81893,135],[-90.40342,38.81896,135],[-90.40345,38.81897,135],[-90.40349,38.81897,135],[-90.40352,38.81899,135],[-90.40356,38.81901,134],[-90.4036,38.81903,134],[-90.40363,38.81905,134],[-90.40367,38.81906,133],[-90.4037,38.81907,133],[-90.40373,38.8191,133],[-90.40375,38.81914,132],[-90.40375,38.81917,132],[-90.40379,38.81918,132],[-90.40382,38.8192,132],[-90.40384,38.81922,131],[-90.40388,38.81924,131],[-90.40392,38.81925,131],[-90.40396,38.81925,131],[-90.40401,38.81924,131],[-90.40403,38.81928,131],[-90.40401,38.81931,131],[-90.404,38.81933,131],[-90.40397,38.81932,131],[-90.40401,38.81932,131],[-90.40405,38.81932,131],[-90.40408,38.81931,131],[-90.40412,38.8193,131],[-90.40416,38.81931,131],[-90.40419,38.81932,132],[-90.40423,38.81933,132],[-90.40427,38.81933,132],[-90.40425,38.8193,132],[-90.40427,38.81928,132],[-90.40431,38.81927,132],[-90.40435,38.81927,132],[-90.40438,38.81927,132],[-90.40443,38.81928,132],[-90.40447,38.81928,131],[-90.40451,38.81928,131],[-90.40455,38.81928,131],[-90.40458,38.81927,131],[-90.40461,38.81925,131],[-90.40465,38.81924,131],[-90.40468,38.81925,131],[-90.40473,38.81926,131],[-90.40476,38.81928,131],[-90.40478,38.8193,131],[-90.40481,38.81931,131],[-90.40485,38.81931,131],[-90.4049,38.81932,131],[-90.40494,38.81932,131],[-90.40498,38.81931,131],[-90.40503,38.81932,132],[-90.40507,38.81932,132],[-90.40512,38.81933,133],[-90.40514,38.81935,133],[-90.40515,38.81938,133],[-90.40514,38.81941,134],[-90.40517,38.81942,134],[-90.40523,38.81943,135],[-90.40527,38.81942,135],[-90.40531,38.81943,135],[-90.40534,38.81942,135],[-90.40538,38.81943,135],[-90.40543,38.81944,135],[-90.40547,38.81944,135],[-90.40551,38.81946,136],[-90.40555,38.81947,136],[-90.40559,38.81946,136],[-90.40564,38.81946,135],[-90.40568,38.81947,135],[-90.40571,38.81949,136],[-90.4057,38.81952,136],[-90.40572,38.81955,136],[-90.40575,38.81956,136],[-90.40572,38.81954,136],[-90.40572,38.81951,136],[-90.40567,38.8195,136],[-90.40572,38.8195,136],[-90.40576,38.81951,136],[-90.40581,38.81953,136],[-90.40585,38.81955,136],[-90.40588,38.81957,136],[-90.40592,38.8196,136],[-90.40593,38.81963,136],[-90.40598,38.81965,136],[-90.40602,38.81965,136],[-90.40606,38.81965,135],[-90.4061,38.81965,135],[-90.40614,38.81966,135],[-90.40619,38.81967,134],[-90.40623,38.81968,134],[-90.40627,38.81968,134],[-90.4063,38.8197,134],[-90.40632,38.81972,134],[-90.40636,38.81973,134],[-90.4064,38.81974,133],[-90.40644,38.81975,133],[-90.40648,38.81977,133],[-90.40651,38.81979,133],[-90.40654,38.8198,133],[-90.40657,38.81982,132],[-90.40661,38.81982,132],[-90.40665,38.81981,132],[-90.40669,38.81981,132],[-90.40665,38.81984,132],[-90.40666,38.81989,132],[-90.40667,38.81994,132],[-90.40665,38.81998,132],[-90.40667,38.81995,132],[-90.40665,38.81998,132],[-90.40659,38.81999,132],[-90.40657,38.81996,132],[-90.40662,38.81995,132],[-90.40658,38.81989,132],[-90.40657,38.81985,132],[-90.40662,38.81984,132],[-90.4067,38.81984,132],[-90.40676,38.81984,132],[-90.40681,38.81985,132],[-90.40684,38.81982,132],[-90.40689,38.81982,132],[-90.40692,38.81984,132],[-90.40695,38.81985,132],[-90.40699,38.81985,132],[-90.40704,38.81986,132],[-90.40707,38.81986,132],[-90.40712,38.81987,133],[-90.40716,38.81987,133],[-90.4072,38.81989,133],[-90.40725,38.8199,134],[-90.40729,38.8199,134],[-90.40732,38.81991,134],[-90.40736,38.81992,135],[-90.4074,38.81992,135],[-90.40743,38.81991,135],[-90.40748,38.81994,136],[-90.40753,38.81994,136],[-90.40756,38.81993,136],[-90.4076,38.81993,136],[-90.40764,38.81994,136],[-90.40767,38.81995,137],[-90.40771,38.81997,137],[-90.40776,38.81997,137],[-90.40779,38.81997,137],[-90.40786,38.81996,138],[-90.40793,38.81997,138],[-90.40801,38.81998,138],[-90.40804,38.82002,139],[-90.40811,38.82001,138],[-90.40816,38.81999,138],[-90.40819,38.82002,138],[-90.40822,38.82006,137],[-90.40827,38.82007,136],[-90.40832,38.82009,135],[-90.40836,38.82012,134],[-90.40841,38.82012,134],[-90.40845,38.82012,133],[-90.40849,38.82013,133],[-90.40853,38.82013,133],[-90.40857,38.82012,133],[-90.40861,38.82013,133],[-90.40865,38.82012,132],[-90.40869,38.82013,132],[-90.40874,38.82013,132],[-90.40878,38.82013,131],[-90.40882,38.82014,131],[-90.40885,38.82013,131],[-90.40889,38.82013,131],[-90.40893,38.82012,131],[-90.40896,38.82013,131],[-90.40899,38.82011,131],[-90.40904,38.82009,131],[-90.40908,38.82006,131],[-90.40916,38.82006,131],[-90.40926,38.82007,131],[-90.4093,38.82013,131],[-90.40932,38.82016,131],[-90.40931,38.82021,131],[-90.4093,38.82025,131],[-90.40927,38.82023,131],[-90.40931,38.82024,131],[-90.40929,38.82028,131],[-90.4093,38.8203,131],[-90.40927,38.82028,131],[-90.4093,38.82029,131],[-90.40928,38.82027,131],[-90.40924,38.82027,131],[-90.40922,38.82025,131],[-90.40919,38.82023,131],[-90.40917,38.8202,131],[-90.40914,38.82018,131],[-90.40911,38.82016,131],[-90.40909,38.82014,131],[-90.40905,38.82013,131],[-90.40901,38.82014,131],[-90.409,38.82017,131],[-90.40896,38.82018,131],[-90.40893,38.82019,131],[-90.40889,38.82019,131],[-90.40884,38.82019,131],[-90.4088,38.8202,131],[-90.40877,38.82021,131],[-90.40873,38.82022,131],[-90.4087,38.82022,131],[-90.40865,38.82024,131],[-90.40862,38.82026,131],[-90.40857,38.82027,131],[-90.40853,38.82025,131],[-90.40847,38.82026,131],[-90.40843,38.82027,131],[-90.40838,38.82029,131],[-90.40833,38.82031,131],[-90.40828,38.82027,133],[-90.40822,38.82027,136],[-90.40823,38.82021,136],[-90.40817,38.82018,138],[-90.4081,38.8202,141],[-90.40803,38.8202,142],[-90.40799,38.82016,141],[-90.40794,38.82014,141],[-90.40788,38.82014,141],[-90.40785,38.82016,141],[-90.4078,38.82015,141],[-90.40778,38.8201,140],[-90.40773,38.82013,140],[-90.40769,38.82011,139],[-90.40765,38.82008,139],[-90.4076,38.82007,138],[-90.40756,38.82006,138],[-90.40752,38.82007,138],[-90.40746,38.82006,137],[-90.40741,38.82006,137],[-90.40736,38.82007,137],[-90.40732,38.82006,136],[-90.40729,38.82004,136],[-90.40724,38.82003,135],[-90.4072,38.82004,135],[-90.40717,38.82002,134],[-90.40714,38.82001,134],[-90.4071,38.82001,134],[-90.40705,38.82001,133],[-90.40701,38.82001,133],[-90.40699,38.81999,133],[-90.40695,38.81997,132],[-90.40689,38.81995,132],[-90.40685,38.81994,132],[-90.40679,38.8199,132],[-90.40673,38.8199,132],[-90.40668,38.81991,132],[-90.40663,38.8199,132],[-90.40657,38.81992,132],[-90.40662,38.81994,132],[-90.40668,38.81995,132],[-90.40665,38.81998,132],[-90.40665,38.82002,131],[-90.40662,38.82006,131],[-90.40666,38.82003,131],[-90.40663,38.82006,131],[-90.40663,38.8201,131],[-90.40666,38.82013,131],[-90.40667,38.82017,132],[-90.40666,38.82019,131],[-90.40662,38.82021,131],[-90.4066,38.82023,131],[-90.40656,38.82025,131],[-90.40654,38.82027,131],[-90.40654,38.8203,131],[-90.40655,38.82026,131],[-90.40654,38.82024,131],[-90.40657,38.82022,131],[-90.40652,38.82022,131],[-90.4065,38.82024,131],[-90.40649,38.82027,131],[-90.40648,38.8203,131],[-90.40646,38.82032,131],[-90.40645,38.82037,132],[-90.4064,38.82036,132],[-90.40637,38.82035,132],[-90.40633,38.82034,132],[-90.40629,38.82034,132],[-90.40632,38.82035,132],[-90.40636,38.82034,132],[-90.40639,38.82037,132],[-90.40643,38.82036,132],[-90.40648,38.82035,132],[-90.40651,38.82038,132],[-90.40655,38.8204,132],[-90.40658,38.82043,132],[-90.40657,38.82047,132],[-90.40656,38.82051,132],[-90.40655,38.82054,133],[-90.40657,38.82057,133],[-90.40655,38.8206,133],[-90.40657,38.82062,133],[-90.40655,38.82066,134],[-90.40654,38.82068,134],[-90.40655,38.82071,135],[-90.40655,38.82075,135],[-90.40655,38.82078,136],[-90.40654,38.82081,136],[-90.40654,38.82084,136],[-90.40651,38.82085,137],[-90.40647,38.82085,138],[-90.40646,38.82082,137],[-90.40651,38.82082,137],[-90.40655,38.82082,136],[-90.40658,38.82081,135],[-90.40662,38.82081,135],[-90.40665,38.82084,135],[-90.40667,38.82086,135],[-90.40668,38.8209,136],[-90.40669,38.82092,136],[-90.40672,38.82094,137],[-90.40673,38.82097,138],[-90.40673,38.821,138],[-90.40674,38.82103,139],[-90.40677,38.82105,140],[-90.4068,38.82107,140],[-90.40682,38.8211,141],[-90.40682,38.82113,142],[-90.40685,38.82115,142],[-90.40689,38.82115,142],[-90.40691,38.82119,143],[-90.40691,38.82122,143],[-90.40695,38.82123,143],[-90.40695,38.82125,143],[-90.40697,38.82128,144],[-90.407,38.8213,144],[-90.40703,38.82131,143],[-90.407,38.82134,144],[-90.40699,38.82137,145],[-90.40695,38.82138,145],[-90.40692,38.82139,146],[-90.40689,38.82137,146],[-90.40684,38.82137,146],[-90.40688,38.82137,146],[-90.40691,38.82138,146],[-90.40695,38.82137,145],[-90.40699,38.82138,145],[-90.40702,38.82139,144],[-90.40706,38.8214,144],[-90.4071,38.82141,143],[-90.40714,38.82142,143],[-90.40717,38.82142,142],[-90.4072,38.82144,142],[-90.40724,38.82144,141],[-90.40728,38.82144,140],[-90.40731,38.82144,139],[-90.40734,38.82146,139],[-90.40736,38.82149,138],[-90.40738,38.8215,138],[-90.40742,38.82152,137],[-90.40741,38.82149,137],[-90.40741,38.82152,137],[-90.40743,38.82149,137],[-90.40744,38.82147,136],[-90.40747,38.82148,136],[-90.40746,38.82145,136],[-90.40749,38.82147,135],[-90.40752,38.82145,134],[-90.40754,38.82149,134],[-90.40754,38.82152,134],[-90.40755,38.82154,134],[-90.40759,38.82155,134],[-90.40762,38.82157,133],[-90.40765,38.82158,133],[-90.40767,38.8216,132],[-90.40769,38.82163,132],[-90.40765,38.82164,133],[-90.40765,38.82161,133],[-90.40768,38.82159,132],[-90.40769,38.82156,132],[-90.40771,38.82153,132],[-90.40771,38.8215,132],[-90.40773,38.82148,131],[-90.40774,38.82145,131],[-90.40773,38.82142,131],[-90.40775,38.82139,131],[-90.40778,38.82138,131],[-90.40782,38.82138,131],[-90.40778,38.82139,131],[-90.40773,38.82139,131],[-90.40777,38.82141,131],[-90.40781,38.82142,131],[-90.40781,38.82145,131],[-90.40783,38.82148,131],[-90.40787,38.82151,131],[-90.40791,38.82152,131],[-90.40793,38.82154,131],[-90.40785,38.82156,131],[-90.40782,38.82157,131],[-90.4078,38.82159,131],[-90.40781,38.82162,131],[-90.40779,38.82165,131],[-90.40777,38.82167,131],[-90.40775,38.8217,131],[-90.40774,38.82173,131],[-90.40778,38.82174,131],[-90.40778,38.82177,131],[-90.40775,38.82178,131],[-90.40778,38.82177,131],[-90.40774,38.82178,131],[-90.40777,38.82176,131],[-90.40773,38.82175,131],[-90.40771,38.82177,131],[-90.4077,38.82179,131],[-90.40773,38.82177,131],[-90.40775,38.82179,131],[-90.40772,38.82178,131],[-90.40772,38.82176,131],[-90.40776,38.82176,131],[-90.40773,38.8218,131],[-90.40769,38.8218,131],[-90.40773,38.82177,131],[-90.40772,38.82179,131]],[[-90.40675,38.82092,136],[-90.40673,38.82089,135],[-90.4067,38.82087,135],[-90.40668,38.82084,135],[-90.40667,38.82081,134],[-90.40664,38.82079,134],[-90.4066,38.82078,135],[-90.40657,38.82076,135],[-90.40652,38.82075,136],[-90.40646,38.82074,136],[-90.40643,38.82072,136],[-90.40642,38.82069,136],[-90.40641,38.82066,136],[-90.40639,38.82063,136],[-90.40637,38.8206,136],[-90.40636,38.82057,136],[-90.40634,38.82054,136],[-90.40632,38.82052,136],[-90.40629,38.82051,136],[-90.40626,38.82048,136],[-90.40626,38.82045,135],[-90.40625,38.82042,135],[-90.40627,38.82039,133],[-90.40627,38.82036,133],[-90.40629,38.82033,132],[-90.40633,38.82031,131],[-90.40636,38.8203,131],[-90.4064,38.82028,131],[-90.40641,38.82026,131],[-90.40639,38.82023,131],[-90.40639,38.8202,131],[-90.40645,38.82019,131],[-90.40649,38.8202,131],[-90.40649,38.82017,131],[-90.40652,38.82015,131],[-90.40652,38.82011,131],[-90.40651,38.82007,131],[-90.4066,38.82004,131],[-90.40656,38.81994,132],[-90.40658,38.81998,132],[-90.40658,38.81995,132],[-90.40656,38.81991,132],[-90.40657,38.81988,132],[-90.40656,38.81984,132],[-90.40647,38.81982,133],[-90.40639,38.81983,133],[-90.40634,38.81983,133],[-90.4063,38.81984,133],[-90.40627,38.81981,134],[-90.40623,38.81981,134],[-90.40618,38.81981,134],[-90.40612,38.8198,135],[-90.40608,38.8198,135],[-90.40604,38.81978,136],[-90.40601,38.81975,136],[-90.40597,38.81972,137],[-90.40593,38.8197,137],[-90.40591,38.81967,137],[-90.40589,38.81965,137],[-90.40586,38.81963,137],[-90.40583,38.8196,137],[-90.40578,38.81958,137],[-90.40574,38.81957,137],[-90.4057,38.81959,137],[-90.40567,38.81956,137],[-90.40562,38.81955,137],[-90.40558,38.81955,137],[-90.40554,38.81955,137],[-90.40549,38.81956,137],[-90.40545,38.81957,137],[-90.40542,38.8196,137],[-90.40538,38.8196,137],[-90.40534,38.81961,137],[-90.40531,38.81964,138],[-90.40527,38.81964,138],[-90.40523,38.81964,137],[-90.40517,38.81962,136],[-90.40515,38.81959,136],[-90.40513,38.81956,135],[-90.4051,38.81954,135],[-90.40509,38.81945,134],[-90.40507,38.81942,133],[-90.40503,38.8194,132],[-90.405,38.81938,132],[-90.40498,38.81936,132],[-90.40495,38.81935,132],[-90.40492,38.81937,132],[-90.40489,38.8194,132],[-90.40486,38.81942,131],[-90.40479,38.81945,131],[-90.40474,38.81945,131],[-90.40471,38.81942,131],[-90.40469,38.81939,131],[-90.40464,38.81939,131],[-90.4046,38.81939,131],[-90.40456,38.81938,131],[-90.40452,38.81937,131],[-90.40448,38.81936,131],[-90.40444,38.81936,132],[-90.4044,38.81935,132],[-90.40437,38.81934,132],[-90.40433,38.81934,132],[-90.4043,38.81936,132],[-90.40427,38.81939,132],[-90.40425,38.81941,132],[-90.40421,38.8194,132],[-90.40417,38.8194,132],[-90.40413,38.81939,131],[-90.4041,38.81938,131],[-90.40406,38.81938,131],[-90.40402,38.81937,131],[-90.40399,38.81935,131],[-90.40395,38.81936,130],[-90.40391,38.81937,130],[-90.40387,38.81938,130],[-90.40383,38.81939,130],[-90.40378,38.81938,130],[-90.40373,38.81937,130],[-90.40368,38.81935,130],[-90.40368,38.81931,131],[-90.40366,38.81928,131],[-90.40363,38.81925,132],[-90.4036,38.81922,132],[-90.40359,38.81919,132],[-90.40356,38.81916,133],[-90.40353,38.81913,134],[-90.40348,38.8191,134],[-90.40346,38.81908,135],[-90.4034,38.81907,135],[-90.40334,38.81898,135],[-90.40332,38.81893,135],[-90.40326,38.81891,135],[-90.40321,38.81889,135],[-90.40315,38.81889,135],[-90.40311,38.81888,135],[-90.4031,38.81885,135],[-90.40308,38.81882,134],[-90.40305,38.8188,134],[-90.40302,38.81877,134],[-90.40298,38.81874,134],[-90.40295,38.81872,135],[-90.40292,38.81869,135],[-90.40289,38.81868,135],[-90.40286,38.81865,135],[-90.40283,38.81863,135],[-90.4028,38.8186,135],[-90.40278,38.81857,135],[-90.40274,38.81855,136],[-90.40272,38.81853,136],[-90.40269,38.81851,136],[-90.40264,38.81851,137],[-90.40259,38.8185,137],[-90.40255,38.81848,137],[-90.40251,38.81847,137],[-90.40248,38.81845,137],[-90.40245,38.81843,137],[-90.40241,38.81841,137],[-90.40237,38.8184,136],[-90.40234,38.81838,136],[-90.4023,38.81837,136],[-90.40227,38.81837,136],[-90.40223,38.81836,136],[-90.40219,38.81835,135],[-90.40216,38.81833,135],[-90.40211,38.81832,135],[-90.40206,38.81832,134],[-90.40203,38.8183,134],[-90.40201,38.81826,133],[-90.40197,38.81824,133],[-90.40193,38.81821,133],[-90.4019,38.81817,132],[-90.40188,38.81814,132],[-90.40187,38.8181,132],[-90.40184,38.81807,132],[-90.40181,38.81804,132],[-90.40178,38.81802,132],[-90.40174,38.81801,132],[-90.4017,38.81799,132],[-90.40166,38.81798,132],[-90.40162,38.81798,132],[-90.40157,38.81798,133],[-90.40152,38.81795,134],[-90.4015,38.81792,134],[-90.40146,38.8179,134],[-90.40144,38.81788,134],[-90.40141,38.81786,135],[-90.40139,38.81784,135],[-90.40134,38.81782,135],[-90.40131,38.81781,135],[-90.40128,38.81779,135],[-90.40124,38.81777,134],[-90.4012,38.81776,134],[-90.40117,38.81775,134],[-90.40113,38.81774,134],[-90.40111,38.81771,134],[-90.40108,38.8177,134],[-90.40106,38.81767,134],[-90.40102,38.81765,133],[-90.40098,38.81763,133],[-90.40095,38.8176,133],[-90.40092,38.81757,133],[-90.40093,38.81754,133],[-90.40093,38.81751,133],[-90.40092,38.81748,133],[-90.40094,38.8175,133],[-90.40094,38.81753,133],[-90.40094,38.81748,133],[-90.4009,38.81749,133],[-90.40085,38.81748,133],[-90.40081,38.81747,133],[-90.40075,38.81746,133],[-90.40072,38.81748,133],[-90.40076,38.81746,133],[-90.40083,38.81745,133],[-90.40087,38.81744,133],[-90.4009,38.81746,133],[-90.4009,38.81749,133],[-90.40089,38.81751,133],[-90.40089,38.81754,133],[-90.40086,38.81752,133],[-90.4009,38.81751,133],[-90.40088,38.81755,133],[-90.40079,38.81752,133],[-90.40078,38.81745,133],[-90.40076,38.81739,133],[-90.40067,38.81734,134],[-90.40058,38.81732,134],[-90.40051,38.81729,134],[-90.40043,38.81732,134],[-90.40032,38.81729,134],[-90.40026,38.81724,133],[-90.40017,38.81718,133],[-90.40015,38.81712,133],[-90.40009,38.81707,133],[-90.40004,38.81704,133],[-90.39997,38.817,133],[-90.39992,38.81697,133],[-90.39989,38.81694,133],[-90.39986,38.81691,133],[-90.39982,38.81689,133],[-90.39978,38.81689,133],[-90.39974,38.81687,133],[-90.39971,38.81685,133],[-90.39967,38.81684,133],[-90.39964,38.81683,133],[-90.3996,38.81681,134],[-90.39956,38.8168,134],[-90.39953,38.81678,134],[-90.39949,38.81675,134],[-90.39946,38.81673,134],[-90.39948,38.8167,134],[-90.39951,38.81669,134],[-90.39948,38.81667,134],[-90.39946,38.81664,135],[-90.39941,38.81663,135],[-90.39937,38.81663,135],[-90.39932,38.81663,135],[-90.39928,38.81663,135],[-90.39924,38.81664,135],[-90.39923,38.81662,135],[-90.3992,38.81659,135],[-90.39919,38.81655,135],[-90.39918,38.81652,135],[-90.39916,38.8165,135],[-90.39912,38.81649,135],[-90.39909,38.81648,135],[-90.39904,38.81647,134],[-90.39902,38.81644,134],[-90.39898,38.81643,134],[-90.39894,38.81641,134],[-90.3989,38.8164,134],[-90.39886,38.81639,133],[-90.39883,38.81637,133],[-90.3988,38.81634,133],[-90.39877,38.81633,132],[-90.39873,38.81631,132],[-90.39869,38.81628,132],[-90.39866,38.81625,131],[-90.39863,38.81624,131],[-90.39859,38.81624,131],[-90.39857,38.81622,131],[-90.39855,38.81619,130],[-90.39852,38.81618,130],[-90.39849,38.81616,130],[-90.39846,38.81614,130],[-90.39843,38.81612,129],[-90.3984,38.8161,129],[-90.39837,38.81607,129],[-90.39836,38.81605,129],[-90.39834,38.81602,129],[-90.39831,38.81601,129],[-90.39829,38.81598,129],[-90.39827,38.81595,129],[-90.39825,38.81593,129],[-90.39822,38.81591,129],[-90.39819,38.8159,129],[-90.39815,38.81589,130],[-90.39811,38.81588,130],[-90.39807,38.81586,130],[-90.39803,38.81585,131],[-90.39799,38.81583,131],[-90.39796,38.81581,131],[-90.39792,38.81579,131],[-90.39789,38.81577,131],[-90.39785,38.81576,131],[-90.39782,38.81573,131],[-90.39778,38.81571,131],[-90.39775,38.81569,132],[-90.39773,38.81566,132],[-90.39771,38.81563,132],[-90.39766,38.81563,132],[-90.39763,38.81561,132],[-90.39759,38.81561,132],[-90.39757,38.81558,132],[-90.39754,38.81555,132],[-90.39752,38.81552,132],[-90.39749,38.8155,131],[-90.39746,38.81548,131],[-90.39742,38.81548,131],[-90.39739,38.81546,131],[-90.39735,38.81544,131],[-90.39731,38.81544,131],[-90.39728,38.81543,131],[-90.39726,38.8154,131],[-90.39726,38.81538,131],[-90.39725,38.81535,131],[-90.39723,38.81532,131],[-90.3972,38.8153,130],[-90.39716,38.81528,130],[-90.39713,38.81527,130],[-90.39709,38.81526,129],[-90.39706,38.81524,129],[-90.39703,38.81521,129],[-90.39701,38.81519,129],[-90.39698,38.81516,129],[-90.39697,38.81513,129],[-90.39696,38.8151,129],[-90.39694,38.81507,129],[-90.39691,38.81505,129],[-90.39688,38.81503,129],[-90.39685,38.81501,129],[-90.39682,38.81499,129],[-90.39678,38.81498,128],[-90.39675,38.81495,128],[-90.39673,38.81493,128],[-90.39669,38.81491,128],[-90.39666,38.81489,128],[-90.39663,38.81487,128],[-90.3966,38.81485,129],[-90.39656,38.81483,129],[-90.39653,38.81481,129],[-90.39649,38.81479,129],[-90.39647,38.81476,130],[-90.39644,38.81473,130],[-90.39639,38.8147,131],[-90.39635,38.8147,131],[-90.39631,38.81468,132],[-90.39629,38.81465,132],[-90.39624,38.81463,133],[-90.39619,38.81461,134],[-90.39612,38.8146,135],[-90.39605,38.8146,135],[-90.39599,38.81461,135],[-90.39594,38.8146,136],[-90.39588,38.81457,136],[-90.39588,38.81453,136],[-90.39588,38.81449,136],[-90.39586,38.81446,136],[-90.39582,38.81444,135],[-90.39579,38.81443,135],[-90.39577,38.8144,135],[-90.39574,38.81438,135],[-90.39571,38.81436,135],[-90.39568,38.81434,135],[-90.39564,38.81434,135],[-90.39561,38.81432,135],[-90.39558,38.81431,135],[-90.39554,38.8143,135],[-90.39549,38.81428,135],[-90.39547,38.81425,135],[-90.39542,38.81423,135],[-90.3954,38.8142,135],[-90.39537,38.81418,135],[-90.39534,38.81416,135],[-90.39532,38.81413,135],[-90.39529,38.81411,135],[-90.39525,38.8141,135],[-90.39521,38.81409,135],[-90.39516,38.81409,135],[-90.39515,38.81406,135],[-90.39512,38.81404,135],[-90.39509,38.81404,135],[-90.39505,38.81404,135],[-90.39501,38.81403,135],[-90.39498,38.814,134],[-90.39489,38.81392,134],[-90.39473,38.81386,135],[-90.39464,38.81379,134],[-90.39456,38.81376,134],[-90.39449,38.81374,134],[-90.3944,38.81375,133],[-90.39435,38.81372,133],[-90.39431,38.81367,133],[-90.39426,38.81365,133],[-90.39421,38.81363,133],[-90.39417,38.81359,133],[-90.39412,38.81357,132],[-90.3941,38.81353,132],[-90.39409,38.8135,132],[-90.39406,38.81347,132],[-90.39403,38.81345,132],[-90.39398,38.81342,132],[-90.39393,38.81339,132],[-90.39388,38.81334,132],[-90.39381,38.81332,132],[-90.39377,38.81327,132],[-90.3937,38.81324,132],[-90.39367,38.81319,132],[-90.39364,38.81315,132],[-90.3936,38.81312,132],[-90.39356,38.8131,132],[-90.39356,38.81307,132],[-90.39354,38.81304,132],[-90.39353,38.813,132],[-90.39352,38.81298,132],[-90.3935,38.81296,133],[-90.39346,38.81294,133],[-90.39342,38.81294,133],[-90.39339,38.81292,133],[-90.39337,38.81294,133],[-90.39336,38.81297,133],[-90.39334,38.813,133],[-90.39332,38.81302,133],[-90.3933,38.81305,133],[-90.39328,38.81308,132],[-90.39325,38.81311,132],[-90.39324,38.81313,132],[-90.39321,38.81315,132],[-90.39318,38.81317,132],[-90.39315,38.81319,132],[-90.39311,38.81323,132],[-90.39307,38.81323,132],[-90.39303,38.81324,133],[-90.393,38.81326,133],[-90.39295,38.81329,133],[-90.39293,38.8133,133],[-90.39292,38.81333,133],[-90.3929,38.81336,134],[-90.39287,38.81338,134],[-90.39285,38.8134,135],[-90.39282,38.81342,135],[-90.39281,38.81345,136],[-90.39279,38.81348,136],[-90.39277,38.8135,136],[-90.39275,38.81353,137],[-90.39273,38.81355,137],[-90.39272,38.81358,137],[-90.3927,38.81361,138],[-90.3927,38.81364,138],[-90.3927,38.81367,138],[-90.39269,38.8137,138],[-90.39268,38.81373,138],[-90.39264,38.81374,138],[-90.39262,38.81377,138],[-90.39262,38.8138,138],[-90.3926,38.81383,138],[-90.39257,38.81384,138],[-90.39254,38.81386,138],[-90.39252,38.81388,138],[-90.3925,38.81391,138],[-90.39247,38.81394,139],[-90.39248,38.81396,140],[-90.39249,38.81399,142],[-90.39248,38.81402,143],[-90.39245,38.81404,144],[-90.39243,38.81406,145],[-90.3924,38.81409,146],[-90.39235,38.81409,146],[-90.3923,38.81409,146],[-90.39224,38.81409,146],[-90.3922,38.8141,146],[-90.39217,38.8141,146],[-90.39213,38.81409,146],[-90.39211,38.81407,145],[-90.39208,38.81404,144],[-90.39205,38.81402,143],[-90.39201,38.814,142],[-90.39197,38.814,143],[-90.39195,38.81398,142],[-90.39193,38.81395,141],[-90.3919,38.81393,141],[-90.39187,38.81391,141],[-90.39183,38.8139,142],[-90.3918,38.81388,143],[-90.39177,38.81386,144],[-90.39174,38.81384,144],[-90.3917,38.81382,145],[-90.39167,38.8138,146],[-90.39163,38.81377,146],[-90.3916,38.81375,147],[-90.39157,38.81372,147],[-90.39154,38.8137,147],[-90.39153,38.81367,147],[-90.39151,38.81363,147],[-90.39149,38.8136,147],[-90.39148,38.81357,148],[-90.39147,38.81354,148],[-90.39146,38.81351,148],[-90.39146,38.81348,149],[-90.39147,38.81344,149],[-90.39145,38.81341,149],[-90.39142,38.81342,150],[-90.39139,38.81342,150],[-90.39136,38.81339,151],[-90.39133,38.81337,151],[-90.39131,38.81335,152],[-90.39129,38.81331,152],[-90.39128,38.81329,152],[-90.39125,38.81326,152],[-90.39122,38.81324,153],[-90.39121,38.81322,153],[-90.39117,38.81317,153],[-90.39113,38.81312,153],[-90.39109,38.81307,154],[-90.39105,38.81302,153],[-90.39103,38.81296,152],[-90.39101,38.81289,151],[-90.39097,38.81285,150],[-90.39095,38.81279,149],[-90.39091,38.81274,149],[-90.39091,38.81268,147],[-90.39095,38.81264,146],[-90.39093,38.8126,145],[-90.39088,38.81258,145],[-90.39086,38.81254,144],[-90.39086,38.8125,143],[-90.39087,38.81246,144],[-90.39083,38.81242,145],[-90.39077,38.8124,146],[-90.39085,38.8124,146],[-90.39086,38.81236,146],[-90.39086,38.81232,147],[-90.39084,38.8123,148],[-90.39082,38.81225,149],[-90.3908,38.81222,149],[-90.39076,38.8122,148],[-90.39074,38.81216,148],[-90.39079,38.81213,149],[-90.39078,38.81209,149],[-90.39079,38.81206,149],[-90.3908,38.81203,149],[-90.39079,38.812,148],[-90.39081,38.81196,148],[-90.39082,38.81193,148],[-90.39083,38.8119,148],[-90.39079,38.8119,148],[-90.39077,38.81187,148],[-90.39079,38.81185,148],[-90.3908,38.81181,147],[-90.39082,38.81178,147],[-90.39083,38.81176,147],[-90.39084,38.81173,147],[-90.39085,38.81169,147],[-90.39087,38.81166,146],[-90.39089,38.81163,146],[-90.39092,38.81161,145],[-90.39098,38.81161,145],[-90.391,38.81158,144],[-90.391,38.81155,144],[-90.39099,38.81152,143],[-90.39098,38.8115,143],[-90.39097,38.81147,143],[-90.39098,38.81144,142],[-90.39095,38.81142,142],[-90.39092,38.81141,142],[-90.3909,38.81138,142],[-90.39088,38.81136,142],[-90.39086,38.81133,142],[-90.39083,38.81131,142],[-90.39079,38.81128,142],[-90.39078,38.81125,142],[-90.39077,38.81122,141],[-90.39076,38.81119,141],[-90.39075,38.81116,141],[-90.39074,38.81112,141],[-90.39074,38.81109,141],[-90.39075,38.81106,140],[-90.39075,38.81103,140],[-90.39075,38.81099,140],[-90.39078,38.81097,139],[-90.39079,38.811,140],[-90.3908,38.81103,140],[-90.39076,38.81105,140],[-90.39075,38.81102,140],[-90.39075,38.81098,140],[-90.39075,38.81095,139],[-90.39077,38.81093,139],[-90.39078,38.8109,139]]],
        "bbox": [
          -90.38747,
          38.8218,
          -90.40932,
          38.81084
        ]
      },
      "properties": {
        "name": "10.17.2024"
      }
    }
  ]
}