{
  "type": "FeatureCollection",
  "features": [
    {
      "type": "Feature",
      "geometry": {
        "type": "MultiLineString",
        "coordinates": [[[-90.39459,38.81202,137],[-90.39455,38.81203,137],[-90.39451,38.81205,137],[-90.39448,38.81206,137],[-90.39445,38.81208,137],[-90.39441,38.8121,138],[-90.39438,38.81212,138],[-90.39436,38.81215,138],[-90.39434,38.81217,138],[-90.39431,38.81219,138],[-90.39429,38.81221,138],[-90.39426,38.81224,137],[-90.39423,38.81225,137],[-90.3942,38.81227,137],[-90.39417,38.8123,137],[-90.39414,38.81233,137],[-90.3941,38.81235,137],[-90.39407,38.81237,137],[-90.39405,38.8124,137],[-90.39404,38.81243,137],[-90.39401,38.81245,137],[-90.39397,38.81247,137],[-90.39395,38.8125,137],[-90.39392,38.81252,136],[-90.39388,38.81254,136],[-90.39385,38.81256,136],[-90.3938,38.81258,135],[-90.39377,38.81261,135],[-90.39374,38.81263,135],[-90.39372,38.81265,135],[-90.39369,38.81267,134],[-90.39366,38.81269,134],[-90.39363,38.81271,134],[-90.39359,38.81272,134],[-90.39355,38.81274,134],[-90.39351,38.81274,134],[-90.3935,38.81277,134],[-90.39346,38.81278,134],[-90.39341,38.81279,134],[-90.39337,38.81279,134],[-90.39333,38.8128,134],[-90.39328,38.81282,134],[-90.39323,38.81282,134],[-90.3932,38.8128,134],[-90.39316,38.81278,134],[-90.39313,38.81275,134],[-90.39311,38.81273,134],[-90.39309,38.81271,134],[-90.39306,38.81269,134],[-90.39304,38.81267,134],[-90.39301,38.81265,134],[-90.39298,38.81262,134],[-90.39294,38.8126,134],[-90.3929,38.81258,134],[-90.39286,38.81258,134],[-90.39282,38.81259,134],[-90.39278,38.81259,134],[-90.39275,38.81257,134],[-90.39273,38.81255,134],[-90.39272,38.81251,134],[-90.39271,38.81248,134],[-90.3927,38.81244,134],[-90.39267,38.81243,134],[-90.39262,38.81241,134],[-90.39259,38.8124,134],[-90.39256,38.81238,135],[-90.39253,38.81236,135],[-90.3925,38.81234,135],[-90.39246,38.81232,135],[-90.39242,38.81229,135],[-90.39239,38.81226,135],[-90.39235,38.81224,135],[-90.39231,38.81222,135],[-90.39228,38.81221,135],[-90.39224,38.81219,135],[-90.39221,38.81217,136],[-90.39217,38.81215,136],[-90.39213,38.81213,136],[-90.39209,38.81212,136],[-90.39205,38.81211,137],[-90.39201,38.81211,137],[-90.39197,38.81211,137],[-90.39193,38.81211,137],[-90.39189,38.81211,138],[-90.39186,38.81212,138],[-90.39184,38.81215,138],[-90.39182,38.81218,137],[-90.3918,38.81221,137],[-90.39178,38.81224,137],[-90.39176,38.81227,137],[-90.39173,38.81229,137],[-90.39171,38.81232,136],[-90.39169,38.81234,136],[-90.39167,38.81238,136],[-90.39166,38.8124,136],[-90.39163,38.81243,135],[-90.39159,38.81245,136],[-90.39156,38.81247,135],[-90.39153,38.81249,135],[-90.39152,38.81252,135],[-90.3915,38.81255,136],[-90.39148,38.81257,137],[-90.39146,38.8126,137],[-90.39145,38.81263,138],[-90.39144,38.81266,139],[-90.39145,38.81269,140],[-90.39146,38.81273,140],[-90.39149,38.81276,141],[-90.39152,38.81277,141],[-90.39155,38.81279,140],[-90.39158,38.81281,140],[-90.39161,38.81284,140],[-90.39165,38.81286,140],[-90.39167,38.81288,140],[-90.39171,38.81291,140],[-90.39174,38.81294,140],[-90.39177,38.81296,140],[-90.3918,38.81298,140],[-90.39183,38.813,139],[-90.39188,38.81301,139],[-90.39192,38.81301,138],[-90.39197,38.81302,138],[-90.392,38.81303,138],[-90.39203,38.81305,138],[-90.39206,38.81307,138],[-90.39209,38.81308,138],[-90.39212,38.8131,138],[-90.39216,38.81311,137],[-90.39218,38.81313,137],[-90.39222,38.81315,137],[-90.39225,38.81318,137],[-90.39228,38.81321,137],[-90.39231,38.81324,137],[-90.39233,38.81327,137],[-90.39236,38.8133,137],[-90.39238,38.81332,137],[-90.39242,38.81334,137],[-90.39245,38.81337,137],[-90.39247,38.8134,137],[-90.39251,38.81342,137],[-90.39254,38.81343,137],[-90.39257,38.81345,137],[-90.3926,38.81347,137],[-90.39264,38.81348,137],[-90.39268,38.81349,137],[-90.3927,38.81351,137],[-90.39266,38.81349,137],[-90.39262,38.81349,137],[-90.39259,38.81351,137],[-90.39256,38.81353,138],[-90.39253,38.81356,138],[-90.39251,38.81359,138],[-90.3925,38.81363,138],[-90.39249,38.81367,138],[-90.39248,38.8137,138],[-90.39247,38.81373,138],[-90.39246,38.81376,138],[-90.39244,38.81379,137],[-90.39242,38.81382,137],[-90.3924,38.81384,136],[-90.39237,38.81387,135],[-90.39235,38.8139,135],[-90.39233,38.81393,137],[-90.39234,38.81395,138],[-90.39232,38.81398,139],[-90.39229,38.814,140],[-90.39226,38.81402,141],[-90.39223,38.81405,143],[-90.39222,38.81407,144],[-90.39219,38.81406,144],[-90.39214,38.81404,143],[-90.39212,38.81401,142],[-90.3921,38.81399,141],[-90.39207,38.81396,139],[-90.39205,38.81394,138],[-90.39202,38.81392,138],[-90.39199,38.81389,137],[-90.39196,38.81388,137],[-90.39192,38.81385,139],[-90.3919,38.81383,139],[-90.39187,38.81381,140],[-90.39184,38.81378,141],[-90.39181,38.81376,142],[-90.39177,38.81374,143],[-90.39173,38.8137,143],[-90.39172,38.81368,143],[-90.3917,38.81365,143],[-90.39169,38.81362,142],[-90.39167,38.81358,143],[-90.39165,38.81355,144],[-90.39163,38.81351,145],[-90.39164,38.81348,145],[-90.39164,38.81345,145],[-90.39163,38.81341,146],[-90.39162,38.81337,147],[-90.3916,38.81333,147],[-90.39157,38.81331,148],[-90.39153,38.8133,148],[-90.39149,38.81329,149],[-90.39145,38.81328,149],[-90.39142,38.81327,150],[-90.39139,38.81325,150],[-90.39134,38.81323,151],[-90.39131,38.81322,151],[-90.39129,38.81319,151],[-90.39127,38.81317,152],[-90.39124,38.81314,152],[-90.39122,38.81312,152],[-90.39119,38.8131,153],[-90.39115,38.81308,153],[-90.39113,38.81306,153],[-90.3911,38.81303,153],[-90.39109,38.81299,152],[-90.39107,38.81296,152],[-90.39105,38.81294,151],[-90.39102,38.81291,151],[-90.39101,38.81288,150],[-90.39101,38.81285,150],[-90.39099,38.81282,149],[-90.39098,38.81279,149],[-90.39097,38.81276,148],[-90.39095,38.81274,148],[-90.39094,38.81271,147],[-90.39094,38.81268,147],[-90.39092,38.81265,146],[-90.39092,38.81261,145],[-90.39092,38.81258,144],[-90.39091,38.81256,144],[-90.39091,38.81251,143],[-90.39091,38.81248,143],[-90.39091,38.81245,144],[-90.39091,38.81242,145],[-90.3909,38.81239,145],[-90.39088,38.81236,146],[-90.39086,38.81233,147],[-90.39084,38.8123,148],[-90.39082,38.81226,149],[-90.39081,38.81223,149],[-90.3908,38.8122,149],[-90.3908,38.81216,149],[-90.39079,38.81213,149],[-90.39079,38.81209,149],[-90.3908,38.81206,149],[-90.39082,38.81203,149],[-90.39083,38.812,149],[-90.39087,38.81197,149],[-90.3909,38.81196,149],[-90.3909,38.81192,149],[-90.39089,38.81189,149],[-90.39088,38.81186,148],[-90.39087,38.81183,148],[-90.39086,38.81179,147],[-90.39087,38.81175,147],[-90.39088,38.81172,147],[-90.39089,38.81169,146],[-90.39091,38.81166,146],[-90.39094,38.81163,145],[-90.39098,38.81161,145],[-90.391,38.81159,144],[-90.39102,38.81156,144],[-90.39104,38.81154,143],[-90.39105,38.81151,143],[-90.3911,38.8115,142],[-90.39108,38.81147,142],[-90.39107,38.81144,142],[-90.39104,38.81141,141],[-90.39101,38.81139,141],[-90.39099,38.81136,141],[-90.39097,38.81133,141],[-90.39095,38.81131,141],[-90.39092,38.81128,141],[-90.3909,38.81125,141],[-90.39089,38.81122,141],[-90.39086,38.81119,141],[-90.39083,38.81117,141],[-90.39078,38.81118,141],[-90.39075,38.81118,141],[-90.39071,38.81119,141],[-90.39068,38.8112,142],[-90.39064,38.81121,142],[-90.39061,38.81122,142],[-90.39058,38.81123,142],[-90.39054,38.81124,142],[-90.3905,38.81122,142],[-90.39047,38.81121,142],[-90.39043,38.81119,142],[-90.3904,38.81117,142],[-90.39036,38.81116,142],[-90.39032,38.81115,142],[-90.39027,38.81116,143],[-90.39024,38.81116,143],[-90.3902,38.81115,144],[-90.39015,38.81114,144],[-90.39012,38.81113,145],[-90.39008,38.81113,145],[-90.39004,38.81112,146],[-90.39001,38.81112,146],[-90.38996,38.81111,147],[-90.38992,38.81112,148],[-90.38988,38.81114,148],[-90.38986,38.81116,148],[-90.38982,38.81116,149],[-90.38978,38.81117,149],[-90.38974,38.81117,150],[-90.3897,38.81116,150],[-90.38967,38.81116,151],[-90.38962,38.81115,151],[-90.38959,38.81114,151],[-90.38954,38.81114,151],[-90.38951,38.81115,151],[-90.38948,38.81117,151],[-90.38945,38.8112,151],[-90.38944,38.81123,152],[-90.38942,38.81125,152],[-90.3894,38.81128,152],[-90.38938,38.8113,152],[-90.38936,38.81133,152],[-90.38932,38.81135,152],[-90.38928,38.81134,152],[-90.38923,38.81134,152],[-90.38919,38.81135,152],[-90.38916,38.81137,152],[-90.38912,38.81139,152],[-90.38908,38.81141,154],[-90.38905,38.81144,154],[-90.38901,38.81146,155],[-90.38898,38.81147,156],[-90.38894,38.81148,157],[-90.38891,38.81149,158],[-90.38887,38.8115,159],[-90.38883,38.8115,160],[-90.3888,38.81152,160],[-90.38878,38.81155,161],[-90.38876,38.81159,161],[-90.38874,38.81161,162],[-90.38869,38.81164,163],[-90.38866,38.81166,164],[-90.38863,38.81167,164],[-90.3886,38.81169,164],[-90.38859,38.81172,164],[-90.38857,38.81175,164],[-90.38855,38.81178,164],[-90.38854,38.81182,164],[-90.38853,38.81186,164],[-90.38853,38.8119,163],[-90.38854,38.81192,163],[-90.38857,38.81195,162],[-90.3886,38.81197,162],[-90.38862,38.81199,162],[-90.38865,38.81202,161],[-90.38867,38.81204,161],[-90.3887,38.81206,161],[-90.38873,38.81209,161],[-90.38875,38.81212,161],[-90.38875,38.81215,162],[-90.38874,38.81218,162],[-90.38873,38.81221,162],[-90.3887,38.81223,163],[-90.38867,38.81225,163],[-90.38864,38.81227,164],[-90.38861,38.81228,165],[-90.38859,38.81231,165],[-90.38857,38.81234,166],[-90.38856,38.81237,167],[-90.38856,38.81241,168],[-90.38857,38.81245,168],[-90.38859,38.81247,168],[-90.38858,38.8125,169],[-90.38855,38.81252,170],[-90.38854,38.81255,170],[-90.38853,38.81258,171],[-90.38852,38.81261,171],[-90.38849,38.81263,172],[-90.38845,38.81264,174],[-90.38842,38.81266,175],[-90.38839,38.81268,176],[-90.38835,38.81268,177],[-90.38832,38.81269,178],[-90.38829,38.81271,179],[-90.38825,38.81272,181],[-90.38821,38.81271,182],[-90.38817,38.81271,183],[-90.38814,38.81272,184],[-90.38811,38.81274,185],[-90.38808,38.81276,186],[-90.38804,38.81277,187],[-90.38802,38.8128,188],[-90.38802,38.81283,188],[-90.38801,38.81286,189],[-90.38801,38.81289,189],[-90.388,38.81294,190],[-90.388,38.81297,190],[-90.38802,38.81295,190],[-90.38803,38.81298,190],[-90.38803,38.81301,190],[-90.38804,38.81304,190],[-90.38805,38.81307,191],[-90.38805,38.8131,191],[-90.38803,38.81313,192],[-90.388,38.81315,192],[-90.38798,38.81317,193],[-90.38795,38.8132,194],[-90.38793,38.81322,194],[-90.38791,38.81325,194],[-90.38787,38.81325,194],[-90.38783,38.81325,194],[-90.3878,38.81326,195],[-90.38776,38.81327,195],[-90.38773,38.81326,194],[-90.38769,38.81326,194],[-90.38765,38.81326,194],[-90.3876,38.81328,194],[-90.38759,38.8133,194],[-90.38758,38.81333,194],[-90.38757,38.81337,194],[-90.38757,38.8134,195],[-90.38756,38.81343,195],[-90.38755,38.81346,195],[-90.38754,38.81349,195],[-90.38752,38.81352,195],[-90.38752,38.81355,195],[-90.38752,38.81358,195],[-90.38752,38.81361,196],[-90.38751,38.81364,196],[-90.3875,38.81367,196],[-90.3875,38.8137,197],[-90.3875,38.81373,197],[-90.38749,38.81376,198],[-90.3875,38.81379,198],[-90.3875,38.81383,199],[-90.38752,38.81386,199],[-90.38754,38.81388,199],[-90.38757,38.8139,200],[-90.3876,38.81392,200],[-90.38764,38.81393,200],[-90.38765,38.81396,200],[-90.38767,38.81399,200],[-90.3877,38.81399,200],[-90.38774,38.81395,200],[-90.38776,38.81393,200],[-90.3878,38.81394,199],[-90.38785,38.81394,199],[-90.38791,38.81393,199],[-90.38794,38.81393,199],[-90.38798,38.81393,199],[-90.38802,38.81393,199],[-90.38806,38.81393,199],[-90.38811,38.81393,198],[-90.38815,38.81393,198],[-90.3882,38.81393,198],[-90.38824,38.81394,198],[-90.38828,38.81396,198],[-90.38832,38.81398,198],[-90.38835,38.814,198],[-90.38839,38.81402,197],[-90.38842,38.81403,197],[-90.38846,38.81404,197],[-90.38848,38.81407,197],[-90.38851,38.81409,197],[-90.38854,38.8141,197],[-90.38858,38.8141,196],[-90.38862,38.81409,196],[-90.38867,38.81409,195],[-90.3887,38.81411,195],[-90.38874,38.81413,194],[-90.38878,38.81414,194],[-90.3888,38.81416,194],[-90.38884,38.81417,193],[-90.38888,38.81418,193],[-90.38892,38.81419,192],[-90.38895,38.81419,192],[-90.38901,38.8142,192],[-90.38905,38.8142,192],[-90.3891,38.81419,192],[-90.38913,38.81418,192],[-90.38917,38.8142,192],[-90.3892,38.81423,192],[-90.38922,38.81425,191],[-90.38924,38.81429,191],[-90.38927,38.81433,191],[-90.38929,38.81436,191],[-90.38932,38.81438,190],[-90.38936,38.8144,190],[-90.3894,38.81443,190],[-90.38943,38.81445,190],[-90.38947,38.81446,189],[-90.38951,38.81446,189],[-90.38954,38.81449,189],[-90.38956,38.81453,190],[-90.38958,38.81456,190],[-90.38957,38.8146,190],[-90.38955,38.81462,190],[-90.38953,38.81465,190],[-90.38952,38.81469,191],[-90.38952,38.81473,191],[-90.38952,38.81477,190],[-90.3895,38.8148,190],[-90.38952,38.81484,190],[-90.38952,38.81487,189],[-90.38952,38.81491,189],[-90.38953,38.81494,188],[-90.38955,38.81497,188],[-90.38957,38.81499,188],[-90.3896,38.81502,188],[-90.38963,38.81505,187],[-90.38968,38.81506,187],[-90.38972,38.81508,187],[-90.38975,38.8151,186],[-90.38979,38.81512,186],[-90.38981,38.81514,185],[-90.38984,38.81517,185],[-90.38987,38.81518,184],[-90.38991,38.81518,184],[-90.38995,38.81521,183],[-90.38996,38.81524,183],[-90.38997,38.81527,182],[-90.38999,38.8153,181],[-90.39,38.81532,181],[-90.39003,38.81535,180],[-90.39005,38.81538,180],[-90.39009,38.8154,179],[-90.39013,38.81541,179],[-90.39017,38.81541,179],[-90.39022,38.81542,179],[-90.39026,38.81543,179],[-90.3903,38.81544,179],[-90.39034,38.81545,180],[-90.39038,38.81547,180],[-90.39041,38.81548,180],[-90.39044,38.8155,180],[-90.39049,38.81551,181],[-90.39053,38.81551,182],[-90.39057,38.81552,182],[-90.3906,38.81555,182],[-90.39062,38.81557,182],[-90.39063,38.8156,182],[-90.39067,38.81562,183],[-90.39071,38.81563,183],[-90.39073,38.8156,183],[-90.39074,38.81557,183],[-90.39076,38.81555,184],[-90.3908,38.81554,184],[-90.39084,38.81555,185],[-90.39088,38.81555,185],[-90.39093,38.81554,185],[-90.39097,38.81553,185],[-90.39101,38.81552,185],[-90.39105,38.81551,185],[-90.39108,38.81549,186],[-90.39112,38.81548,186],[-90.39116,38.81547,186],[-90.39119,38.81547,186],[-90.39123,38.81547,185],[-90.39127,38.81547,185],[-90.3913,38.81548,185],[-90.39134,38.8155,185],[-90.39137,38.81552,185],[-90.3914,38.81553,184],[-90.39144,38.81556,184],[-90.39146,38.81559,184],[-90.39149,38.81559,183],[-90.39152,38.81561,183],[-90.39154,38.81565,182],[-90.39155,38.81567,182],[-90.39158,38.8157,181],[-90.39162,38.81571,181],[-90.39166,38.81572,181],[-90.39171,38.81573,180],[-90.39175,38.81571,179],[-90.39179,38.81568,178],[-90.39181,38.81565,178],[-90.39185,38.81563,178],[-90.39189,38.81563,177],[-90.39191,38.81565,176],[-90.39193,38.81568,175],[-90.39193,38.81571,175],[-90.39197,38.8157,173],[-90.39193,38.81571,175],[-90.39188,38.81569,176],[-90.39184,38.81568,177],[-90.3918,38.81567,178],[-90.39176,38.81569,179],[-90.39175,38.81572,179],[-90.39174,38.81575,179],[-90.39176,38.81577,178],[-90.39177,38.81581,177],[-90.39177,38.81584,176],[-90.39176,38.81587,176],[-90.39176,38.81589,176],[-90.39175,38.81593,175],[-90.39174,38.81596,175],[-90.39173,38.81599,174],[-90.39172,38.81603,174],[-90.39171,38.81606,173],[-90.3917,38.8161,173],[-90.3917,38.81614,172],[-90.39171,38.81617,170],[-90.39171,38.81621,169],[-90.3917,38.81624,168],[-90.39172,38.81627,166],[-90.39168,38.81629,167],[-90.39167,38.81632,166],[-90.39166,38.81634,165],[-90.39167,38.81637,164],[-90.39168,38.81641,163],[-90.39166,38.81638,164],[-90.3916,38.81638,165],[-90.39159,38.81642,165],[-90.39158,38.81644,164],[-90.39155,38.81648,164],[-90.39155,38.81651,163],[-90.39153,38.81654,162],[-90.39149,38.81656,163],[-90.39148,38.81659,162],[-90.39149,38.81662,161],[-90.39148,38.81665,160],[-90.39146,38.81662,162],[-90.39143,38.8166,163],[-90.3914,38.8166,163],[-90.39136,38.81662,163],[-90.39134,38.81665,163],[-90.39133,38.81668,162],[-90.39133,38.81671,161],[-90.3913,38.81673,161],[-90.39126,38.81674,161],[-90.39121,38.81675,162],[-90.39118,38.81675,162],[-90.39114,38.81676,162],[-90.39111,38.81678,162],[-90.39107,38.81677,163],[-90.39105,38.81674,164],[-90.39104,38.81671,165],[-90.39103,38.81668,165],[-90.39101,38.81666,166],[-90.39097,38.81664,167],[-90.39092,38.81665,167],[-90.39087,38.81667,166],[-90.39085,38.81669,166],[-90.39083,38.81671,166],[-90.3908,38.81673,166],[-90.39076,38.81675,165],[-90.39072,38.81678,165],[-90.39071,38.81675,166],[-90.39066,38.81676,166],[-90.39063,38.81678,166],[-90.39059,38.8168,166],[-90.39054,38.81682,166],[-90.39051,38.81684,166],[-90.39047,38.81686,166],[-90.39047,38.81689,166],[-90.39051,38.8169,165],[-90.39052,38.81694,165],[-90.39051,38.81698,164],[-90.39051,38.81702,162],[-90.39051,38.81706,161],[-90.39051,38.81709,160],[-90.39047,38.8171,160],[-90.39044,38.81712,159],[-90.39043,38.81715,158],[-90.39045,38.81718,157],[-90.39045,38.81721,156],[-90.39046,38.81724,155],[-90.39048,38.81727,154],[-90.39048,38.8173,153],[-90.39051,38.81732,152],[-90.39052,38.81735,151],[-90.39052,38.81739,150],[-90.39053,38.81742,149],[-90.39054,38.81745,147],[-90.39056,38.81749,146],[-90.39054,38.81751,145],[-90.3905,38.81751,146],[-90.39046,38.81752,146],[-90.39044,38.81756,145],[-90.39044,38.81759,145],[-90.3904,38.81758,145],[-90.39036,38.81759,146],[-90.39032,38.8176,146],[-90.39029,38.81762,146],[-90.39026,38.81763,146],[-90.3902,38.81765,146],[-90.39023,38.81767,146],[-90.39028,38.81767,145],[-90.39032,38.81767,144],[-90.3903,38.81765,145],[-90.39028,38.81769,144],[-90.39027,38.81773,144],[-90.39022,38.81775,144],[-90.39019,38.81776,144],[-90.39016,38.81779,144],[-90.39013,38.8178,145],[-90.39008,38.8178,146],[-90.39003,38.81779,147],[-90.38999,38.81779,147],[-90.38994,38.81779,148],[-90.38989,38.81779,148],[-90.38986,38.81779,149],[-90.38983,38.81781,149],[-90.3898,38.81782,149],[-90.38976,38.81783,149],[-90.38973,38.81784,149],[-90.38969,38.81785,150],[-90.38965,38.81787,150],[-90.38961,38.8179,149],[-90.38956,38.81791,149],[-90.38952,38.81793,149],[-90.38949,38.81794,149],[-90.38944,38.81795,149],[-90.3894,38.81795,149],[-90.38935,38.81795,150],[-90.38931,38.81796,151],[-90.38926,38.81797,151],[-90.38921,38.81797,152],[-90.38918,38.81796,152],[-90.38914,38.81796,153],[-90.38911,38.81797,154],[-90.38907,38.81798,154],[-90.38902,38.818,155],[-90.389,38.81802,155],[-90.38897,38.81804,155],[-90.38893,38.81805,156],[-90.3889,38.81803,157],[-90.38886,38.81804,158],[-90.38883,38.81805,158],[-90.38878,38.81805,159],[-90.38873,38.81805,160],[-90.38869,38.81805,161],[-90.38866,38.81807,161],[-90.38862,38.81808,161],[-90.38858,38.81809,161],[-90.38855,38.81809,161],[-90.38852,38.81811,160],[-90.38851,38.81815,159],[-90.38849,38.81818,157],[-90.38847,38.81821,156],[-90.38846,38.81824,154],[-90.38845,38.81827,153],[-90.38843,38.8183,151],[-90.38841,38.81832,150],[-90.38836,38.81834,149],[-90.38835,38.81837,148],[-90.38834,38.8184,147],[-90.38833,38.81843,145],[-90.38832,38.81846,144],[-90.38832,38.81849,143],[-90.38832,38.81852,142],[-90.38836,38.81853,141],[-90.38834,38.81857,139],[-90.38832,38.81858,139],[-90.38828,38.8186,139],[-90.38824,38.81861,139],[-90.38821,38.81862,139],[-90.38817,38.81862,140],[-90.38813,38.81864,140],[-90.3881,38.81866,140],[-90.38809,38.81869,140],[-90.38805,38.8187,141],[-90.388,38.8187,141],[-90.38795,38.8187,142],[-90.38791,38.81871,142],[-90.38787,38.81873,143],[-90.38783,38.81876,143],[-90.3878,38.81878,143],[-90.38775,38.81879,143],[-90.38772,38.81881,143],[-90.38768,38.81884,142],[-90.38764,38.81885,142],[-90.3876,38.81886,142],[-90.38756,38.81888,142],[-90.38752,38.81889,141],[-90.38749,38.81891,141],[-90.38747,38.81894,140],[-90.38743,38.81896,140],[-90.3874,38.81899,139],[-90.38737,38.81901,138],[-90.38736,38.81904,137],[-90.38736,38.81907,136],[-90.38736,38.81911,134],[-90.38734,38.81914,133],[-90.3873,38.81916,132],[-90.38727,38.81918,132],[-90.38722,38.81919,132],[-90.38719,38.81918,132],[-90.38715,38.81919,132],[-90.38713,38.81921,132],[-90.38709,38.81923,132],[-90.38706,38.81925,132],[-90.38702,38.81926,132],[-90.38698,38.81927,132],[-90.38694,38.81928,132],[-90.3869,38.8193,132],[-90.38687,38.81931,132],[-90.38683,38.81932,133],[-90.38679,38.81932,133],[-90.38676,38.81934,133],[-90.38675,38.81938,132],[-90.38672,38.81941,132],[-90.38668,38.81942,132],[-90.38665,38.81944,132],[-90.38662,38.81947,131],[-90.38659,38.81948,131],[-90.38662,38.8195,131],[-90.38662,38.81952,131],[-90.38662,38.81956,131],[-90.3866,38.81954,131],[-90.38662,38.81952,131],[-90.38666,38.81954,131],[-90.38669,38.81954,131],[-90.38666,38.81952,131],[-90.38663,38.8195,131],[-90.38667,38.81948,131],[-90.3867,38.81946,131],[-90.38673,38.81944,132],[-90.38677,38.81943,132],[-90.3868,38.8194,132],[-90.38682,38.81938,132],[-90.38686,38.81936,132],[-90.38689,38.81934,132],[-90.38693,38.81933,132],[-90.38696,38.81931,132],[-90.38699,38.81929,132],[-90.38703,38.81928,132],[-90.38707,38.81927,132],[-90.3871,38.81925,132],[-90.38715,38.81923,132],[-90.38719,38.81922,132],[-90.38721,38.8192,132],[-90.38724,38.81918,132],[-90.38728,38.81917,132],[-90.38732,38.81915,133],[-90.38735,38.81913,133],[-90.38737,38.81911,134],[-90.38741,38.81909,135],[-90.38744,38.81907,136],[-90.38746,38.81904,137],[-90.38748,38.81901,138],[-90.38748,38.81896,139],[-90.3875,38.81894,140],[-90.38753,38.81892,141],[-90.38755,38.81889,141],[-90.38756,38.81887,142],[-90.38759,38.81885,142],[-90.38762,38.81883,143],[-90.38767,38.81881,143],[-90.38771,38.8188,143],[-90.38775,38.81878,143],[-90.38778,38.81877,143],[-90.38781,38.81877,143],[-90.38786,38.81876,142],[-90.3879,38.81877,142],[-90.38794,38.81875,141],[-90.38797,38.81873,141],[-90.388,38.81871,141],[-90.38804,38.81869,141],[-90.38808,38.81868,141],[-90.38812,38.81867,140],[-90.38816,38.81866,140],[-90.38816,38.81863,140],[-90.38816,38.81861,140],[-90.3882,38.81862,139],[-90.38824,38.81861,139],[-90.38828,38.81858,139],[-90.38832,38.81857,139],[-90.38836,38.81856,140],[-90.3884,38.81853,141],[-90.38842,38.8185,142],[-90.38843,38.81847,144],[-90.38843,38.81843,145],[-90.38844,38.81841,146],[-90.38845,38.81838,148],[-90.38846,38.81835,149],[-90.38848,38.81832,150],[-90.38848,38.8183,151],[-90.38851,38.81827,153],[-90.38853,38.81824,154],[-90.38855,38.81822,155],[-90.38858,38.8182,156],[-90.38861,38.81817,157],[-90.38864,38.81815,158],[-90.38867,38.81812,158],[-90.38868,38.81809,160],[-90.3887,38.81807,160],[-90.38874,38.81805,160],[-90.38878,38.81805,159],[-90.38881,38.81807,158],[-90.38884,38.81808,157],[-90.38887,38.81811,155],[-90.38891,38.81813,153],[-90.38895,38.81813,152],[-90.38898,38.81812,152],[-90.38903,38.81811,151],[-90.38907,38.81811,150],[-90.38911,38.81809,150],[-90.38914,38.81806,150],[-90.38918,38.81804,150],[-90.3892,38.81803,150],[-90.38925,38.81803,149],[-90.38928,38.81804,149],[-90.38932,38.81804,148],[-90.38935,38.81803,148],[-90.38939,38.81802,148],[-90.38943,38.81802,147],[-90.38947,38.81801,147],[-90.38951,38.81799,148],[-90.38955,38.81799,148],[-90.3896,38.81798,148],[-90.38963,38.81795,148],[-90.38966,38.81792,149],[-90.38968,38.8179,149],[-90.38972,38.8179,149],[-90.38976,38.81791,148],[-90.3898,38.8179,148],[-90.38984,38.81788,148],[-90.3899,38.81786,147],[-90.38994,38.81785,147],[-90.38997,38.81786,146],[-90.39001,38.81786,146],[-90.39005,38.81786,145],[-90.39008,38.81785,145],[-90.39012,38.81783,145],[-90.39016,38.81782,144],[-90.39019,38.8178,144],[-90.39022,38.81776,144],[-90.39024,38.81773,144],[-90.39027,38.81771,144],[-90.3903,38.81768,144],[-90.39035,38.81766,144],[-90.39039,38.81765,144],[-90.39043,38.81763,144],[-90.39046,38.81761,144],[-90.39048,38.81758,145],[-90.39051,38.81757,144],[-90.39055,38.81756,144],[-90.39059,38.81754,144],[-90.39062,38.81753,144],[-90.39066,38.81751,144],[-90.3907,38.81749,144],[-90.39072,38.81747,144],[-90.39075,38.81746,144],[-90.39079,38.81745,144],[-90.39083,38.81742,144],[-90.39086,38.81741,144],[-90.3909,38.81741,144],[-90.39094,38.81742,143],[-90.39098,38.8174,143],[-90.39102,38.81737,143],[-90.39105,38.81734,143],[-90.39107,38.81732,144],[-90.3911,38.8173,144],[-90.39113,38.81728,144],[-90.39116,38.81726,144],[-90.3912,38.81724,143],[-90.39122,38.81721,144],[-90.39125,38.81719,144],[-90.39128,38.81718,144],[-90.39132,38.81717,144],[-90.39136,38.81717,143],[-90.3914,38.81717,143],[-90.39144,38.81716,142],[-90.39148,38.81714,143],[-90.39152,38.81713,142],[-90.39156,38.81711,143],[-90.39158,38.81709,143],[-90.39161,38.81707,143],[-90.39164,38.81705,144],[-90.39169,38.81703,144],[-90.39172,38.81702,145],[-90.39176,38.817,146],[-90.39178,38.81698,147],[-90.3918,38.81695,148],[-90.39183,38.81692,148],[-90.39187,38.81691,149],[-90.3919,38.81689,149],[-90.39192,38.81687,149],[-90.39193,38.81684,149],[-90.39192,38.8168,150],[-90.39191,38.81678,150],[-90.39194,38.81677,150],[-90.39198,38.81675,149],[-90.39202,38.81674,149],[-90.39204,38.81671,149],[-90.39205,38.81668,149],[-90.39207,38.81666,148],[-90.39211,38.81664,148],[-90.39214,38.81661,148],[-90.39216,38.81658,148],[-90.3922,38.81657,147],[-90.39225,38.81656,146],[-90.39229,38.81654,145],[-90.39231,38.8165,145],[-90.39232,38.81648,145],[-90.39232,38.81645,146],[-90.39232,38.81642,146],[-90.39234,38.81639,146],[-90.39235,38.81635,147],[-90.39235,38.81632,148],[-90.39235,38.81628,149],[-90.39237,38.81625,149],[-90.39239,38.81623,149],[-90.39243,38.8162,149],[-90.39244,38.81617,149],[-90.39246,38.81613,149],[-90.39249,38.81611,149],[-90.39253,38.8161,147],[-90.39257,38.8161,146],[-90.3926,38.81608,145],[-90.39264,38.81606,144],[-90.39266,38.81603,143],[-90.39268,38.816,143],[-90.39268,38.81596,143],[-90.39269,38.81592,142],[-90.3927,38.81589,142],[-90.39269,38.81585,142],[-90.39268,38.81581,143],[-90.39269,38.81578,143],[-90.39269,38.81574,144],[-90.39268,38.81571,145],[-90.39266,38.81568,146],[-90.39265,38.81565,148],[-90.39266,38.81561,148],[-90.39267,38.81558,148],[-90.3927,38.81554,148],[-90.39273,38.81553,147],[-90.39276,38.8155,147],[-90.39278,38.81547,147],[-90.39281,38.81545,147],[-90.39284,38.81542,147],[-90.39288,38.8154,146],[-90.39291,38.81539,146],[-90.39295,38.81537,145],[-90.39299,38.81536,145],[-90.39304,38.81535,143],[-90.39307,38.81533,144],[-90.3931,38.81531,143],[-90.39312,38.81528,144],[-90.39315,38.81526,143],[-90.39319,38.81523,143],[-90.39321,38.81519,142],[-90.39322,38.81516,142],[-90.39322,38.81512,143],[-90.39322,38.81509,143],[-90.39322,38.81507,143],[-90.3932,38.81504,144],[-90.39318,38.81502,145],[-90.39315,38.81499,145],[-90.39313,38.81497,146],[-90.3931,38.81495,146],[-90.39307,38.81492,147],[-90.39304,38.81489,147],[-90.39302,38.81486,147],[-90.39299,38.81483,147],[-90.39298,38.8148,147],[-90.39298,38.81476,147],[-90.39299,38.81473,147],[-90.39301,38.8147,146],[-90.39302,38.81466,146],[-90.39301,38.81463,147],[-90.39299,38.8146,147],[-90.39297,38.81456,148],[-90.39294,38.81454,149],[-90.3929,38.81451,150],[-90.39286,38.8145,151],[-90.39282,38.81448,151],[-90.39278,38.81447,152],[-90.39275,38.81445,153],[-90.39271,38.81443,153],[-90.39268,38.81441,153],[-90.39266,38.81438,152],[-90.39265,38.81435,152],[-90.39264,38.81433,152],[-90.39261,38.8143,151],[-90.39257,38.81428,151],[-90.39254,38.81427,151],[-90.39249,38.81426,152],[-90.39245,38.81426,152],[-90.39241,38.81426,152],[-90.39239,38.81424,151],[-90.39237,38.81421,151],[-90.39234,38.81417,150],[-90.39233,38.81415,149],[-90.39232,38.81412,148],[-90.39229,38.81409,146],[-90.39228,38.81405,143],[-90.3923,38.81402,142],[-90.39234,38.814,141],[-90.39238,38.81398,140],[-90.39241,38.81395,139],[-90.39244,38.81393,138],[-90.39246,38.81391,138],[-90.39248,38.81387,137],[-90.3925,38.81384,138],[-90.39252,38.81381,138],[-90.39254,38.81378,138],[-90.39253,38.81375,138],[-90.3925,38.81376,138],[-90.39251,38.81372,138],[-90.39253,38.81369,138],[-90.39254,38.81367,138],[-90.39255,38.81363,138],[-90.39256,38.81359,138],[-90.39257,38.81356,138],[-90.39259,38.81354,138],[-90.39262,38.81351,137],[-90.39264,38.81349,137],[-90.39266,38.81345,136],[-90.39268,38.81342,136],[-90.39271,38.8134,136],[-90.39274,38.81338,135],[-90.39278,38.81335,135],[-90.39281,38.81334,134],[-90.39284,38.81332,134],[-90.39287,38.81328,134],[-90.39289,38.81326,134],[-90.39293,38.81323,133],[-90.39295,38.8132,133],[-90.39297,38.81318,133],[-90.39301,38.81316,133],[-90.39304,38.81314,133],[-90.39308,38.81312,132],[-90.39311,38.8131,132],[-90.39314,38.81308,132],[-90.39317,38.81306,132],[-90.3932,38.81303,133],[-90.39323,38.81301,133],[-90.39327,38.81299,133],[-90.3933,38.81297,133],[-90.39334,38.81294,133],[-90.39337,38.81292,133],[-90.3934,38.8129,133],[-90.39342,38.81287,134],[-90.39343,38.81285,134],[-90.39347,38.81283,134],[-90.39351,38.81282,134],[-90.39354,38.8128,134],[-90.39357,38.81277,134],[-90.3936,38.81275,134],[-90.39364,38.81274,134],[-90.39367,38.81273,134],[-90.39369,38.8127,134],[-90.39372,38.81267,134],[-90.39375,38.81265,135],[-90.39377,38.81263,135],[-90.3938,38.81261,135],[-90.39384,38.81259,135],[-90.39387,38.81256,136],[-90.3939,38.81254,136],[-90.39393,38.81252,136],[-90.39396,38.8125,137],[-90.39399,38.81248,137],[-90.39402,38.81246,137],[-90.39405,38.81244,137],[-90.39408,38.81241,137],[-90.39411,38.81239,137],[-90.39414,38.81237,137],[-90.39417,38.81235,137],[-90.39419,38.81232,137],[-90.39422,38.8123,137],[-90.39424,38.81227,137],[-90.39428,38.81225,137],[-90.39431,38.81223,137],[-90.39433,38.8122,138],[-90.39435,38.81218,138],[-90.39438,38.81215,138],[-90.39441,38.81213,138],[-90.39444,38.8121,138],[-90.39447,38.81208,137],[-90.39449,38.81206,137],[-90.39452,38.81204,137],[-90.39456,38.81202,137],[-90.39458,38.812,137],[-90.39461,38.81198,137],[-90.39464,38.81195,137],[-90.39467,38.81193,137],[-90.3947,38.8119,136],[-90.39473,38.81188,136],[-90.39475,38.81186,135],[-90.39478,38.81183,135],[-90.39481,38.8118,134],[-90.39483,38.81178,134],[-90.39485,38.81176,134],[-90.39488,38.81173,133],[-90.39491,38.8117,133],[-90.39493,38.81167,133],[-90.39497,38.81166,133],[-90.395,38.81164,132],[-90.39503,38.81163,132],[-90.39506,38.81161,132],[-90.3951,38.8116,132],[-90.39513,38.8116,132],[-90.39515,38.81158,132],[-90.39516,38.81161,132],[-90.3952,38.81161,132],[-90.3952,38.81164,132],[-90.39518,38.81161,132],[-90.39513,38.81162,132],[-90.39512,38.81163,132]]],
        "bbox": [
          -90.38659,
          38.81956,
          -90.3952,
          38.81111
        ]
      },
      "properties": {
        "name": "7.18.2023"
      }
    }
  ]
}