{
  "type": "FeatureCollection",
  "features": [
    {
      "type": "Feature",
      "geometry": {
        "type": "MultiLineString",
        "coordinates": [[[-90.3948,38.81175,134],[-90.39477,38.81182,135],[-90.39474,38.81185,135],[-90.39471,38.81188,136],[-90.39468,38.81191,136],[-90.39466,38.81194,137],[-90.39465,38.81197,137],[-90.39462,38.812,137],[-90.39458,38.812,137],[-90.39453,38.812,137],[-90.3945,38.81203,137],[-90.39447,38.81206,137],[-90.39444,38.81208,138],[-90.3944,38.8121,138],[-90.39437,38.81213,138],[-90.39434,38.81216,138],[-90.3943,38.81219,138],[-90.39427,38.81221,138],[-90.39423,38.81223,137],[-90.3942,38.81226,137],[-90.39418,38.8123,137],[-90.39416,38.81233,137],[-90.39413,38.81237,137],[-90.39411,38.81239,137],[-90.39408,38.81241,137],[-90.39404,38.81242,137],[-90.39401,38.81244,137],[-90.39398,38.81248,137],[-90.39396,38.81251,136],[-90.39393,38.81254,136],[-90.3939,38.81257,136],[-90.39387,38.81259,135],[-90.39384,38.81262,135],[-90.39381,38.81264,135],[-90.39377,38.81266,135],[-90.39374,38.81268,134],[-90.3937,38.81271,134],[-90.39365,38.81273,134],[-90.39361,38.81274,134],[-90.39358,38.81276,134],[-90.39353,38.81277,134],[-90.3935,38.81278,134],[-90.39347,38.8128,134],[-90.39343,38.81282,134],[-90.39339,38.81285,134],[-90.39336,38.81286,134],[-90.39332,38.81288,134],[-90.39328,38.81291,134],[-90.39326,38.81293,133],[-90.39322,38.81295,133],[-90.39319,38.81297,133],[-90.39317,38.81299,133],[-90.39315,38.81302,133],[-90.39312,38.81305,133],[-90.39309,38.81307,132],[-90.39306,38.81309,132],[-90.39302,38.8131,133],[-90.39297,38.81312,133],[-90.39292,38.81314,133],[-90.39287,38.81316,133],[-90.39284,38.81317,134],[-90.3928,38.8132,134],[-90.39276,38.81322,134],[-90.39273,38.81324,135],[-90.3927,38.81327,135],[-90.39268,38.8133,135],[-90.39267,38.81333,135],[-90.39265,38.81336,136],[-90.39262,38.81341,136],[-90.39258,38.81345,137],[-90.39255,38.81348,137],[-90.39254,38.81352,138],[-90.3925,38.81356,138],[-90.39245,38.81362,138],[-90.3924,38.81367,138],[-90.39234,38.81372,137],[-90.39228,38.81377,136],[-90.39223,38.81382,134],[-90.3922,38.81389,133],[-90.39219,38.81396,138],[-90.39211,38.81392,136],[-90.39205,38.81389,136],[-90.39199,38.81388,137],[-90.39196,38.81387,137],[-90.39191,38.81386,139],[-90.39187,38.81385,140],[-90.39184,38.81383,141],[-90.3918,38.81381,142],[-90.39176,38.81378,143],[-90.39173,38.81376,144],[-90.39169,38.81375,144],[-90.39165,38.81375,146],[-90.3916,38.81374,146],[-90.39155,38.81371,147],[-90.39149,38.81368,148],[-90.39144,38.81366,149],[-90.39138,38.81363,150],[-90.39134,38.8136,151],[-90.39129,38.81357,152],[-90.39124,38.81355,153],[-90.39122,38.8135,153],[-90.39119,38.81344,154],[-90.39112,38.81341,155],[-90.39107,38.81336,155],[-90.39104,38.8133,155],[-90.391,38.81325,156],[-90.39097,38.81319,156],[-90.39097,38.81313,155],[-90.39099,38.81306,154],[-90.39099,38.813,153],[-90.39096,38.81294,152],[-90.39093,38.81289,151],[-90.39088,38.81284,151],[-90.39081,38.81282,151],[-90.3908,38.81276,150],[-90.39079,38.8127,149],[-90.39079,38.81263,147],[-90.39075,38.81257,146],[-90.39076,38.81251,144],[-90.39075,38.81245,145],[-90.39074,38.81241,145],[-90.39073,38.81238,146],[-90.39071,38.81233,146],[-90.39069,38.81228,147],[-90.39064,38.81223,147],[-90.39066,38.81219,147],[-90.39069,38.81216,148],[-90.39072,38.81214,148],[-90.39075,38.81212,148],[-90.39078,38.8121,149],[-90.39078,38.81207,148],[-90.39077,38.81204,148],[-90.39076,38.812,148],[-90.39077,38.81195,148],[-90.39076,38.81191,148],[-90.39076,38.81188,148],[-90.39075,38.81185,148],[-90.39077,38.81181,147],[-90.39078,38.81178,147],[-90.39079,38.81174,147],[-90.39081,38.8117,147],[-90.39083,38.81167,147],[-90.39086,38.81165,146],[-90.3909,38.81163,145],[-90.39093,38.8116,145],[-90.39095,38.81157,144],[-90.39097,38.81154,144],[-90.391,38.8115,143],[-90.39101,38.81147,142],[-90.391,38.81143,142],[-90.39096,38.81141,142],[-90.39093,38.81139,142],[-90.3909,38.81136,142],[-90.39087,38.81133,142],[-90.39085,38.8113,142],[-90.39083,38.81128,142],[-90.3908,38.81125,142],[-90.39077,38.81123,141],[-90.39073,38.81124,142],[-90.3907,38.81125,142],[-90.39065,38.81126,142],[-90.39061,38.81127,142],[-90.39057,38.81127,142],[-90.39053,38.81127,142],[-90.39049,38.81127,142],[-90.39045,38.81126,142],[-90.3904,38.81125,142],[-90.39035,38.81125,142],[-90.39032,38.81124,142],[-90.39027,38.81123,143],[-90.39022,38.81121,143],[-90.39018,38.81121,144],[-90.39014,38.8112,144],[-90.39009,38.8112,145],[-90.39005,38.81119,145],[-90.39001,38.81117,146],[-90.38997,38.81118,146],[-90.38993,38.8112,147],[-90.3899,38.81121,147],[-90.38986,38.81123,148],[-90.38983,38.81126,148],[-90.3898,38.81129,149],[-90.38976,38.81131,149],[-90.38974,38.81134,149],[-90.38972,38.81137,150],[-90.38967,38.81141,150],[-90.3896,38.81142,151],[-90.3895,38.81144,152],[-90.38942,38.81145,152],[-90.38933,38.81147,152],[-90.38927,38.81151,152],[-90.3892,38.81154,152],[-90.38912,38.81157,153],[-90.38904,38.81159,155],[-90.38897,38.81158,157],[-90.38889,38.81159,159],[-90.38881,38.81159,161],[-90.38876,38.81163,162],[-90.38873,38.81165,162],[-90.38869,38.81167,163],[-90.38867,38.8117,163],[-90.38865,38.81173,163],[-90.38862,38.81175,163],[-90.3886,38.81178,163],[-90.3886,38.81182,163],[-90.38861,38.81184,163],[-90.38864,38.81187,162],[-90.38867,38.81189,161],[-90.38869,38.81192,160],[-90.38872,38.81195,160],[-90.38875,38.81197,159],[-90.38875,38.812,160],[-90.38874,38.81203,160],[-90.38872,38.81206,161],[-90.38868,38.81207,161],[-90.38864,38.8121,162],[-90.38862,38.81212,163],[-90.38861,38.81216,163],[-90.38859,38.81219,164],[-90.38855,38.8122,164],[-90.38852,38.81222,165],[-90.38851,38.81225,165],[-90.38855,38.81227,165],[-90.38857,38.8123,166],[-90.38857,38.81233,166],[-90.38855,38.81236,167],[-90.38855,38.81239,168],[-90.38855,38.81242,168],[-90.38855,38.81246,169],[-90.38854,38.81249,170],[-90.38852,38.81252,171],[-90.3885,38.81255,171],[-90.3885,38.81258,172],[-90.38853,38.8126,171],[-90.38856,38.81261,170],[-90.3886,38.81261,169],[-90.38855,38.8126,170],[-90.38851,38.8126,172],[-90.3885,38.81263,172],[-90.38846,38.81265,174],[-90.38842,38.81266,175],[-90.38839,38.81266,176],[-90.38835,38.81267,177],[-90.38831,38.81268,178],[-90.38827,38.81268,179],[-90.38823,38.81268,180],[-90.38819,38.81269,182],[-90.38815,38.8127,183],[-90.38811,38.81272,185],[-90.38807,38.81272,186],[-90.38803,38.81273,186],[-90.38799,38.81274,187],[-90.38799,38.81277,188],[-90.38799,38.8128,188],[-90.38798,38.81283,188],[-90.38796,38.81286,189],[-90.38798,38.81288,189],[-90.38798,38.81292,189],[-90.38797,38.81295,190],[-90.38797,38.81298,190],[-90.38795,38.81302,191],[-90.38793,38.81305,191],[-90.38794,38.81308,192],[-90.38795,38.81311,192],[-90.38796,38.81314,193],[-90.38793,38.81316,193],[-90.38791,38.81319,193],[-90.38788,38.8132,194],[-90.38785,38.81323,194],[-90.38781,38.81325,195],[-90.38778,38.81327,195],[-90.38775,38.81328,195],[-90.38772,38.81328,195],[-90.38769,38.8133,195],[-90.38765,38.81329,194],[-90.38761,38.81328,194],[-90.38758,38.81329,194],[-90.38757,38.81332,194],[-90.38754,38.81334,194],[-90.38754,38.81337,194],[-90.38756,38.8134,194],[-90.38756,38.81343,195],[-90.38756,38.81346,195],[-90.38755,38.81349,195],[-90.38754,38.81353,195],[-90.38753,38.81355,195],[-90.38752,38.81358,195],[-90.38751,38.81362,196],[-90.3875,38.81365,196],[-90.3875,38.81368,196],[-90.3875,38.81371,197],[-90.3875,38.81373,197],[-90.3875,38.81377,198],[-90.3875,38.8138,198],[-90.38751,38.81383,199],[-90.38753,38.81385,199],[-90.38756,38.81387,199],[-90.3876,38.81389,199],[-90.38763,38.81391,200],[-90.38766,38.81392,200],[-90.3877,38.81394,200],[-90.38773,38.81394,200],[-90.38778,38.81395,199],[-90.38781,38.81395,199],[-90.38785,38.81395,199],[-90.38789,38.81395,199],[-90.38792,38.81396,199],[-90.38796,38.81395,199],[-90.388,38.81395,199],[-90.38804,38.81396,199],[-90.38808,38.81396,199],[-90.38813,38.81398,199],[-90.38818,38.81399,198],[-90.38822,38.814,198],[-90.38825,38.81401,198],[-90.38829,38.81402,198],[-90.38833,38.81404,198],[-90.38838,38.81405,198],[-90.38841,38.81406,197],[-90.38845,38.81407,197],[-90.38849,38.81408,197],[-90.38852,38.8141,197],[-90.38856,38.81412,197],[-90.3886,38.81413,196],[-90.38864,38.81413,196],[-90.38869,38.81413,195],[-90.38873,38.81415,195],[-90.38877,38.81416,194],[-90.3888,38.81417,194],[-90.38883,38.81419,193],[-90.38888,38.81421,193],[-90.38892,38.81422,192],[-90.38895,38.81423,192],[-90.38899,38.81424,192],[-90.38903,38.81424,192],[-90.38906,38.81425,192],[-90.3891,38.81427,192],[-90.38913,38.81428,192],[-90.38916,38.8143,192],[-90.38921,38.81431,191],[-90.38925,38.81432,191],[-90.38929,38.81432,190],[-90.38933,38.81433,190],[-90.38936,38.81435,190],[-90.3894,38.81437,189],[-90.38944,38.81438,189],[-90.38948,38.81439,189],[-90.3895,38.81441,189],[-90.38951,38.81444,189],[-90.38951,38.81448,189],[-90.38951,38.81451,190],[-90.38951,38.81454,190],[-90.38952,38.81458,190],[-90.3895,38.81461,190],[-90.38949,38.81464,190],[-90.38948,38.81468,190],[-90.38948,38.81471,191],[-90.38947,38.81474,190],[-90.38946,38.81477,190],[-90.38946,38.8148,190],[-90.38948,38.81482,190],[-90.3895,38.81485,189],[-90.38953,38.81488,189],[-90.38955,38.81491,189],[-90.38957,38.81494,189],[-90.38958,38.81497,188],[-90.38959,38.81499,188],[-90.38959,38.81502,188],[-90.3896,38.81505,187],[-90.38964,38.81506,187],[-90.38968,38.81507,187],[-90.38972,38.81507,187],[-90.38976,38.81508,187],[-90.38979,38.8151,186],[-90.38983,38.81512,186],[-90.38987,38.81513,185],[-90.38991,38.81515,185],[-90.38994,38.81517,184],[-90.38998,38.81518,184],[-90.39,38.81521,183],[-90.39003,38.81524,182],[-90.39006,38.81526,182],[-90.3901,38.81529,181],[-90.39013,38.81532,181],[-90.39015,38.81535,180],[-90.39019,38.81537,180],[-90.39022,38.81539,180],[-90.39025,38.81541,180],[-90.3903,38.81542,180],[-90.39034,38.81543,180],[-90.39037,38.81545,180],[-90.3904,38.81548,180],[-90.39045,38.8155,181],[-90.39048,38.81551,181],[-90.39052,38.81552,181],[-90.39056,38.81554,182],[-90.3906,38.81554,182],[-90.39064,38.81555,182],[-90.39068,38.81555,183],[-90.39073,38.81555,183],[-90.39077,38.81555,184],[-90.3908,38.81555,184],[-90.39084,38.81556,184],[-90.39088,38.81556,185],[-90.39092,38.81555,185],[-90.39096,38.81552,185],[-90.391,38.8155,185],[-90.39104,38.81548,186],[-90.39108,38.81546,186],[-90.39113,38.81544,186],[-90.39117,38.81543,186],[-90.3912,38.81543,186],[-90.39125,38.81543,185],[-90.3913,38.81543,185],[-90.39134,38.81543,185],[-90.39138,38.81545,185],[-90.39141,38.81547,185],[-90.39145,38.81548,184],[-90.39148,38.8155,184],[-90.39151,38.81552,184],[-90.39154,38.81554,183],[-90.39155,38.81558,183],[-90.39158,38.8156,183],[-90.39161,38.81563,182],[-90.39165,38.81565,182],[-90.39169,38.81567,181],[-90.39173,38.81569,180],[-90.39175,38.81572,179],[-90.39175,38.81575,178],[-90.39174,38.81578,178],[-90.39174,38.81581,178],[-90.39173,38.81585,177],[-90.39172,38.81588,177],[-90.39171,38.81591,177],[-90.39168,38.81594,177],[-90.39167,38.81597,176],[-90.39166,38.81601,176],[-90.39165,38.81604,175],[-90.39164,38.81608,174],[-90.39166,38.81611,174],[-90.39169,38.81613,172],[-90.3917,38.81616,171],[-90.39169,38.81619,170],[-90.39166,38.81622,170],[-90.39162,38.81623,170],[-90.39158,38.81626,170],[-90.39155,38.81629,169],[-90.39154,38.81632,169],[-90.39156,38.81635,167],[-90.39155,38.81638,167],[-90.39153,38.81641,166],[-90.39151,38.81644,166],[-90.3915,38.81648,165],[-90.39149,38.81651,164],[-90.39147,38.81654,164],[-90.39145,38.81656,164],[-90.39142,38.81658,164],[-90.39138,38.81657,165],[-90.39134,38.81658,165],[-90.3913,38.81659,165],[-90.39126,38.81659,166],[-90.39122,38.8166,166],[-90.39121,38.81663,165],[-90.3912,38.81665,165],[-90.39118,38.81667,164],[-90.39115,38.81669,164],[-90.39112,38.81671,164],[-90.39109,38.81673,164],[-90.39105,38.81673,164],[-90.39105,38.8167,165],[-90.39106,38.81667,166],[-90.39102,38.81667,166],[-90.39099,38.81667,166],[-90.39096,38.81668,166],[-90.39091,38.8167,166],[-90.39089,38.81671,165],[-90.39086,38.81673,165],[-90.39082,38.81674,165],[-90.39078,38.81673,166],[-90.39075,38.81674,166],[-90.39071,38.81674,166],[-90.39068,38.81675,166],[-90.39064,38.81677,166],[-90.3906,38.81679,166],[-90.39057,38.81681,166],[-90.39053,38.81682,166],[-90.3905,38.81684,166],[-90.39051,38.81687,166],[-90.39051,38.8169,165],[-90.39052,38.81693,165],[-90.39055,38.81695,164],[-90.39053,38.81698,164],[-90.39049,38.817,163],[-90.39048,38.81703,162],[-90.39046,38.81705,162],[-90.39044,38.81708,161],[-90.39046,38.8171,160],[-90.39048,38.81713,159],[-90.39046,38.81716,158],[-90.39045,38.81718,157],[-90.39048,38.8172,157],[-90.39049,38.81722,156],[-90.39046,38.81724,155],[-90.39047,38.81727,154],[-90.3905,38.81729,153],[-90.39051,38.81731,153],[-90.39048,38.81731,153],[-90.39044,38.81731,153],[-90.39041,38.81729,154],[-90.39045,38.8173,153],[-90.39048,38.81729,153],[-90.39051,38.8173,153],[-90.39051,38.81733,152],[-90.39051,38.81736,151],[-90.39052,38.81739,150],[-90.39048,38.81738,150],[-90.39049,38.81742,149],[-90.39053,38.81743,148],[-90.39057,38.81744,147],[-90.3906,38.81746,146],[-90.39064,38.81748,145],[-90.39067,38.8175,144],[-90.39071,38.81751,143],[-90.39074,38.81752,142],[-90.39077,38.81754,142],[-90.3908,38.81755,141],[-90.39083,38.81758,140],[-90.39084,38.81761,139],[-90.39086,38.81764,139],[-90.3909,38.81763,138],[-90.39086,38.81762,139],[-90.39082,38.81765,139],[-90.39077,38.81767,139],[-90.39073,38.81769,139],[-90.39069,38.81771,139],[-90.39065,38.81772,140],[-90.39061,38.81772,140],[-90.39057,38.81772,141],[-90.39053,38.81772,141],[-90.39049,38.81774,141],[-90.39045,38.81775,141],[-90.39042,38.81776,141],[-90.39038,38.81776,142],[-90.39034,38.81776,142],[-90.39031,38.81777,142],[-90.39027,38.8178,142],[-90.39023,38.81781,143],[-90.3902,38.81782,143],[-90.39017,38.81783,144],[-90.39012,38.81783,145],[-90.39009,38.81784,145],[-90.39005,38.81784,146],[-90.39001,38.81784,146],[-90.38997,38.81783,147],[-90.38993,38.81783,147],[-90.3899,38.81785,147],[-90.38986,38.81787,147],[-90.38983,38.81788,148],[-90.38979,38.8179,148],[-90.38976,38.81792,148],[-90.38972,38.81793,148],[-90.38968,38.81796,148],[-90.38965,38.81797,148],[-90.38961,38.81797,148],[-90.38957,38.81796,148],[-90.38953,38.81796,148],[-90.38948,38.81796,148],[-90.38944,38.81796,149],[-90.38941,38.81797,149],[-90.38937,38.81796,150],[-90.38932,38.81796,150],[-90.3893,38.81799,150],[-90.38928,38.81802,149],[-90.38923,38.81803,150],[-90.38918,38.81803,150],[-90.38912,38.81806,150],[-90.38904,38.81808,152],[-90.38894,38.81811,153],[-90.38888,38.81814,153],[-90.38883,38.81818,153],[-90.38877,38.81822,152],[-90.3887,38.81824,152],[-90.38862,38.81826,153],[-90.38855,38.81828,152],[-90.38853,38.81832,150],[-90.3885,38.81835,149],[-90.38848,38.81838,148],[-90.38844,38.8184,147],[-90.38843,38.81842,146],[-90.38841,38.81845,144],[-90.38838,38.81848,143],[-90.38836,38.81851,142],[-90.38834,38.81854,141],[-90.38832,38.81857,139],[-90.38828,38.81859,139],[-90.38825,38.81862,139],[-90.38825,38.81865,139],[-90.38823,38.81868,139],[-90.38821,38.81866,139],[-90.38817,38.81866,140],[-90.3882,38.81864,139],[-90.38817,38.81866,140],[-90.38812,38.81867,140],[-90.38807,38.81868,141],[-90.38803,38.81869,141],[-90.388,38.8187,141],[-90.38798,38.81872,141],[-90.38796,38.81876,141],[-90.38794,38.81879,141],[-90.38792,38.81881,141],[-90.38787,38.81882,141],[-90.38782,38.81883,142],[-90.38777,38.81885,142],[-90.3877,38.81887,142],[-90.38765,38.81889,141],[-90.38759,38.8189,141],[-90.38753,38.81891,141],[-90.38747,38.8189,141],[-90.38741,38.81892,141],[-90.38737,38.81894,141],[-90.38733,38.81895,140],[-90.3873,38.81898,139],[-90.38729,38.81901,138],[-90.38726,38.81904,137],[-90.38725,38.81906,136],[-90.38724,38.8191,134],[-90.38722,38.81913,133],[-90.38719,38.81915,132],[-90.38714,38.81918,132],[-90.3871,38.81921,132],[-90.38705,38.81921,132],[-90.38702,38.81923,132],[-90.38698,38.81925,132],[-90.38695,38.81928,132],[-90.38693,38.8193,132],[-90.38689,38.81932,132],[-90.38684,38.81933,133],[-90.3868,38.81934,133],[-90.38674,38.81934,133],[-90.38672,38.81931,134],[-90.38668,38.81932,134],[-90.38664,38.81933,134],[-90.38661,38.81935,133],[-90.38664,38.81936,133],[-90.38665,38.8194,132],[-90.38663,38.81943,132],[-90.38663,38.81946,131],[-90.38663,38.81949,131],[-90.38662,38.81952,131],[-90.38658,38.81952,131],[-90.38653,38.81951,131],[-90.3865,38.8195,131],[-90.38647,38.81948,131],[-90.38644,38.8195,131],[-90.38641,38.81952,131],[-90.38638,38.81954,131],[-90.38635,38.81956,131],[-90.38632,38.81958,131],[-90.38628,38.8196,132],[-90.38624,38.81961,132],[-90.38621,38.81961,133],[-90.38615,38.81962,133],[-90.3861,38.81963,133],[-90.38605,38.81964,133],[-90.38601,38.81965,133],[-90.38597,38.81965,133],[-90.38594,38.81963,134],[-90.38589,38.81963,134],[-90.38585,38.81964,134],[-90.3858,38.81965,133],[-90.38576,38.81965,133],[-90.38572,38.81966,133],[-90.38568,38.81966,133],[-90.38564,38.81966,133],[-90.3856,38.81965,133],[-90.38556,38.81966,133],[-90.38552,38.81965,133],[-90.38549,38.81963,134],[-90.38547,38.81961,135],[-90.38543,38.81961,135],[-90.3854,38.81963,134],[-90.38535,38.81964,134],[-90.38531,38.81965,133],[-90.38528,38.81963,134],[-90.38523,38.81965,133],[-90.38519,38.81966,133],[-90.38515,38.81966,133],[-90.38512,38.81966,133],[-90.38509,38.81963,134],[-90.38507,38.81961,135],[-90.38508,38.81958,136],[-90.38511,38.81956,137],[-90.38514,38.81954,137],[-90.38518,38.81955,137],[-90.38523,38.81956,137],[-90.38527,38.81956,137],[-90.38531,38.81957,137],[-90.38535,38.81959,136],[-90.38538,38.81961,135],[-90.3854,38.81964,134],[-90.38541,38.81967,133],[-90.38545,38.81968,132],[-90.38549,38.8197,131],[-90.38553,38.81971,131],[-90.38556,38.81972,131],[-90.3856,38.8197,131],[-90.38563,38.81967,133],[-90.38565,38.81965,133],[-90.38566,38.81962,135],[-90.38569,38.8196,135],[-90.38569,38.81964,134],[-90.38569,38.81967,133],[-90.38573,38.81966,133],[-90.38574,38.81968,132],[-90.38575,38.81971,131],[-90.38579,38.8197,131],[-90.38582,38.81973,131],[-90.38579,38.81971,131],[-90.3858,38.81968,132],[-90.38579,38.81965,133],[-90.38583,38.81966,133],[-90.38587,38.81966,133],[-90.3859,38.81966,133],[-90.38595,38.81966,133],[-90.38599,38.81965,133],[-90.38603,38.81965,133],[-90.38607,38.81964,133],[-90.38611,38.81963,133],[-90.38614,38.81963,133],[-90.38618,38.81962,133],[-90.38622,38.81961,132],[-90.38625,38.8196,132],[-90.38628,38.81958,132],[-90.38629,38.81955,132],[-90.38632,38.81953,132],[-90.3863,38.8195,133],[-90.38632,38.81946,132],[-90.38637,38.81945,131],[-90.38639,38.81943,131],[-90.38641,38.8194,132],[-90.38648,38.81942,132],[-90.38655,38.81944,131],[-90.38663,38.81944,131],[-90.3867,38.81944,132],[-90.38677,38.81942,132],[-90.38684,38.81938,132],[-90.38691,38.81934,132],[-90.38698,38.8193,132],[-90.38705,38.81927,132],[-90.38711,38.81923,132],[-90.38719,38.8192,132],[-90.38726,38.81916,132],[-90.38731,38.81915,133],[-90.38734,38.81913,133],[-90.38738,38.81911,134],[-90.38741,38.81909,135],[-90.38745,38.81907,136],[-90.38747,38.81905,136],[-90.38749,38.81902,137],[-90.3875,38.81898,139],[-90.38751,38.81896,139],[-90.38753,38.81893,140],[-90.38755,38.8189,141],[-90.38757,38.81888,142],[-90.38761,38.81886,142],[-90.38764,38.81885,142],[-90.38768,38.81883,143],[-90.38772,38.81882,143],[-90.38777,38.81881,143],[-90.3878,38.81879,143],[-90.38784,38.81878,142],[-90.38787,38.81875,142],[-90.38791,38.81873,142],[-90.38795,38.81871,142],[-90.38799,38.8187,141],[-90.38803,38.81869,141],[-90.38807,38.81869,140],[-90.38812,38.81868,140],[-90.38817,38.81867,140],[-90.3882,38.81865,139],[-90.38824,38.81863,139],[-90.38826,38.81859,139],[-90.38826,38.81856,141],[-90.38827,38.81853,142],[-90.38828,38.81849,143],[-90.38828,38.81846,144],[-90.38832,38.81845,144],[-90.38837,38.81844,145],[-90.38841,38.81843,145],[-90.38844,38.81841,146],[-90.38846,38.81838,148],[-90.38848,38.81835,149],[-90.3885,38.81831,151],[-90.38852,38.81828,152],[-90.38854,38.81826,153],[-90.38858,38.81825,154],[-90.38861,38.81823,154],[-90.38863,38.81821,155],[-90.38865,38.81818,156],[-90.38868,38.81816,156],[-90.38869,38.81813,157],[-90.38872,38.81811,158],[-90.38875,38.81809,158],[-90.38879,38.81808,158],[-90.38886,38.81805,157],[-90.38895,38.81805,155],[-90.38901,38.81803,154],[-90.38908,38.81799,154],[-90.38914,38.81795,154],[-90.38922,38.81793,153],[-90.38927,38.81791,153],[-90.38932,38.81791,152],[-90.38936,38.81791,151],[-90.3894,38.81792,150],[-90.38942,38.81795,149],[-90.38945,38.81797,148],[-90.38949,38.81798,148],[-90.38954,38.81799,148],[-90.38958,38.81799,148],[-90.38962,38.81798,148],[-90.38965,38.81796,148],[-90.38969,38.81794,148],[-90.38972,38.81792,148],[-90.38976,38.81791,148],[-90.38981,38.8179,148],[-90.38984,38.81789,147],[-90.38988,38.81788,147],[-90.38992,38.8179,146],[-90.38997,38.81789,146],[-90.39001,38.81789,145],[-90.39006,38.81789,145],[-90.3901,38.81788,144],[-90.39014,38.81788,144],[-90.39018,38.81787,143],[-90.39021,38.81785,143],[-90.39024,38.81784,142],[-90.39029,38.81781,142],[-90.39034,38.81778,142],[-90.39037,38.81776,142],[-90.3904,38.81774,142],[-90.39044,38.81772,142],[-90.39049,38.81771,142],[-90.39052,38.81769,142],[-90.39055,38.81766,142],[-90.39058,38.81765,142],[-90.39061,38.81763,142],[-90.39064,38.81761,142],[-90.39068,38.81759,142],[-90.3907,38.81756,142],[-90.39071,38.81753,143],[-90.39073,38.81751,143],[-90.39074,38.81748,144],[-90.39077,38.81745,144],[-90.3908,38.81743,144],[-90.39081,38.8174,145],[-90.39084,38.81737,146],[-90.39087,38.81735,146],[-90.39091,38.8173,147],[-90.39098,38.81726,147],[-90.39105,38.81723,146],[-90.39113,38.81719,147],[-90.3912,38.81716,147],[-90.39128,38.81714,146],[-90.39134,38.8171,147],[-90.39139,38.81705,148],[-90.39146,38.81701,149],[-90.39153,38.81701,147],[-90.39155,38.81699,148],[-90.39158,38.81696,148],[-90.39162,38.81694,149],[-90.39165,38.81692,149],[-90.39168,38.8169,149],[-90.39172,38.81689,149],[-90.39175,38.81687,149],[-90.39177,38.81684,150],[-90.39179,38.81682,150],[-90.39182,38.81679,151],[-90.39185,38.81678,151],[-90.39189,38.81676,150],[-90.39192,38.81674,150],[-90.39194,38.81671,150],[-90.39196,38.81669,150],[-90.39199,38.81666,150],[-90.39201,38.81663,150],[-90.39203,38.81661,150],[-90.39206,38.81659,150],[-90.39209,38.81656,149],[-90.39212,38.81655,149],[-90.39216,38.81652,148],[-90.39217,38.8165,148],[-90.39219,38.81647,148],[-90.39219,38.81644,149],[-90.39219,38.81641,149],[-90.39222,38.81639,149],[-90.39224,38.81636,149],[-90.39225,38.81634,149],[-90.39227,38.81631,150],[-90.3923,38.8163,149],[-90.39233,38.81628,149],[-90.39233,38.81625,150],[-90.39232,38.81623,151],[-90.39233,38.8162,152],[-90.3923,38.81617,153],[-90.3923,38.81614,154],[-90.39234,38.81612,153],[-90.39238,38.81611,152],[-90.39241,38.81612,151],[-90.39245,38.81612,150],[-90.39249,38.81612,149],[-90.39253,38.81612,147],[-90.39256,38.8161,146],[-90.39257,38.81607,146],[-90.39258,38.81604,146],[-90.39257,38.81601,146],[-90.39257,38.81598,146],[-90.39256,38.81594,146],[-90.39254,38.81591,147],[-90.39254,38.81588,147],[-90.39255,38.81585,147],[-90.39256,38.81582,147],[-90.39257,38.81579,147],[-90.39256,38.81576,148],[-90.39254,38.81573,150],[-90.39255,38.8157,150],[-90.39256,38.81567,150],[-90.39257,38.81564,151],[-90.3926,38.81561,150],[-90.39262,38.81559,150],[-90.39264,38.81556,150],[-90.39267,38.81553,149],[-90.3927,38.81551,149],[-90.39273,38.81548,148],[-90.39277,38.81547,147],[-90.39281,38.81545,147],[-90.39285,38.81543,146],[-90.39287,38.8154,147],[-90.39289,38.81538,147],[-90.39294,38.81536,146],[-90.39298,38.81533,146],[-90.39301,38.81531,146],[-90.39304,38.81528,146],[-90.39307,38.81526,145],[-90.39309,38.81522,145],[-90.39311,38.81519,145],[-90.39313,38.81516,145],[-90.39315,38.81513,144],[-90.39315,38.8151,145],[-90.39315,38.81507,145],[-90.39315,38.81503,145],[-90.39313,38.815,146],[-90.39311,38.81498,146],[-90.39307,38.81496,147],[-90.39304,38.81494,147],[-90.39304,38.81491,147],[-90.39303,38.81487,147],[-90.39301,38.81484,147],[-90.39298,38.81482,147],[-90.39297,38.81479,148],[-90.39295,38.81476,148],[-90.39295,38.81473,148],[-90.39294,38.81469,148],[-90.39292,38.81466,149],[-90.3929,38.81463,149],[-90.39288,38.8146,150],[-90.39288,38.81457,150],[-90.39285,38.81455,151],[-90.39281,38.81453,152],[-90.39276,38.81451,152],[-90.39272,38.81449,153],[-90.39269,38.81446,153],[-90.39267,38.81443,153],[-90.39265,38.8144,153],[-90.39263,38.81437,152],[-90.3926,38.81436,153],[-90.39255,38.81434,153],[-90.3925,38.81433,153],[-90.39246,38.81432,153],[-90.39243,38.8143,152],[-90.3924,38.81428,152],[-90.39236,38.81426,152],[-90.39233,38.81423,151],[-90.3923,38.8142,151],[-90.39226,38.81417,150],[-90.39224,38.81415,149],[-90.39222,38.81411,147],[-90.39225,38.81408,145],[-90.39229,38.81406,144],[-90.39232,38.81404,143],[-90.39235,38.81401,141],[-90.39238,38.814,141],[-90.39241,38.81397,140],[-90.39244,38.81394,139],[-90.39246,38.81391,138],[-90.39248,38.81388,137],[-90.3925,38.81385,138],[-90.39251,38.81382,138],[-90.39254,38.81379,138],[-90.39256,38.81376,138],[-90.39257,38.81373,138],[-90.39258,38.81369,138],[-90.39259,38.81366,138],[-90.3926,38.81363,138],[-90.39262,38.8136,138],[-90.39263,38.81357,138],[-90.39265,38.81354,137],[-90.39267,38.81352,137],[-90.39267,38.81348,137],[-90.39269,38.81344,136],[-90.39271,38.81342,136],[-90.39274,38.81339,135],[-90.39277,38.81336,135],[-90.3928,38.81334,134],[-90.39284,38.81331,134],[-90.39287,38.81329,134],[-90.3929,38.81326,133],[-90.39293,38.81323,133],[-90.39296,38.8132,133],[-90.39299,38.81317,133],[-90.39302,38.81313,133],[-90.39305,38.81311,133],[-90.39309,38.81309,132],[-90.39312,38.81307,132],[-90.39315,38.81305,133],[-90.39318,38.81303,133],[-90.39322,38.81301,133],[-90.39325,38.81299,133],[-90.39328,38.81297,133],[-90.39332,38.81295,133],[-90.39335,38.81294,133],[-90.39339,38.81292,133],[-90.39343,38.8129,133],[-90.39346,38.81288,133],[-90.39348,38.81286,133],[-90.39352,38.81283,133],[-90.39355,38.81281,134],[-90.39358,38.81278,134],[-90.3936,38.81276,134],[-90.39363,38.81273,134],[-90.39367,38.81271,134],[-90.39371,38.8127,134],[-90.39374,38.81268,134],[-90.39377,38.81266,135],[-90.39381,38.81263,135],[-90.39385,38.81261,135],[-90.39387,38.81258,136],[-90.3939,38.81255,136],[-90.39392,38.81253,136],[-90.39396,38.81252,136],[-90.39399,38.8125,137],[-90.39402,38.81248,137],[-90.39406,38.81245,137],[-90.39409,38.81243,137],[-90.39411,38.8124,137],[-90.39413,38.81237,137],[-90.39415,38.81235,137],[-90.39418,38.81232,137],[-90.39421,38.81229,137],[-90.39424,38.81228,137],[-90.39428,38.81225,137],[-90.3943,38.81223,137],[-90.39433,38.81221,138],[-90.39435,38.81219,138],[-90.39439,38.81216,138],[-90.39442,38.81214,138],[-90.39445,38.81211,137],[-90.39449,38.81208,137],[-90.39452,38.81206,137],[-90.39455,38.81205,137],[-90.39459,38.81202,137],[-90.39463,38.812,137],[-90.39464,38.81197,137],[-90.39466,38.81194,137],[-90.3947,38.81191,136],[-90.39473,38.81189,136],[-90.39476,38.81186,135],[-90.39479,38.81184,135],[-90.39482,38.81182,135],[-90.39484,38.8118,134],[-90.39486,38.81177,134],[-90.39489,38.81175,134],[-90.39492,38.81172,133],[-90.39495,38.81171,133],[-90.39498,38.81169,133],[-90.39499,38.81166,133],[-90.39496,38.81169,133],[-90.39494,38.81171,133],[-90.3949,38.81172,133],[-90.39487,38.81172,133],[-90.39491,38.81173,133],[-90.39494,38.81174,133],[-90.39497,38.81175,133],[-90.39502,38.81175,133],[-90.39505,38.81173,133],[-90.39507,38.81171,133],[-90.39504,38.81169,133],[-90.39501,38.81168,133],[-90.395,38.81165,132],[-90.39496,38.81165,133],[-90.39497,38.81163,132]]],
        "bbox": [
          -90.38507,
          38.81973,
          -90.39507,
          38.81117
        ]
      },
      "properties": {
        "name": "1.2.2021"
      }
    }
  ]
}