{
  "type": "FeatureCollection",
  "features": [
    {
      "type": "Feature",
      "geometry": {
        "type": "MultiLineString",
        "coordinates": [[[-90.39504,38.81173,133],[-90.395,38.81174,133],[-90.39495,38.81173,133],[-90.39491,38.81173,133],[-90.39487,38.81175,134],[-90.39485,38.81177,134],[-90.39484,38.8118,134],[-90.39483,38.81183,135],[-90.39483,38.81186,135],[-90.39483,38.81189,135],[-90.39482,38.81192,136],[-90.3948,38.81194,136],[-90.39478,38.81197,136],[-90.39475,38.81199,136],[-90.3947,38.812,136],[-90.39466,38.81201,137],[-90.39463,38.81203,137],[-90.3946,38.81206,137],[-90.39459,38.81208,137],[-90.39458,38.81212,137],[-90.39457,38.81215,137],[-90.39456,38.81217,137],[-90.39453,38.81219,137],[-90.39449,38.8122,137],[-90.39446,38.81222,137],[-90.39443,38.81224,137],[-90.39441,38.81226,137],[-90.39439,38.81229,137],[-90.39437,38.81231,137],[-90.39434,38.81233,137],[-90.39432,38.81235,137],[-90.39423,38.81245,136],[-90.39419,38.81249,136],[-90.39416,38.81251,136],[-90.39413,38.81254,136],[-90.3941,38.81258,135],[-90.39407,38.81261,135],[-90.39404,38.81264,134],[-90.394,38.81266,134],[-90.39396,38.81267,134],[-90.39391,38.81267,135],[-90.39387,38.81269,134],[-90.39384,38.81271,134],[-90.3938,38.81272,134],[-90.39377,38.81275,134],[-90.39372,38.81279,133],[-90.39367,38.81283,133],[-90.3936,38.81285,133],[-90.3935,38.81286,133],[-90.39345,38.81284,134],[-90.39339,38.81281,134],[-90.3933,38.81281,134],[-90.39324,38.8128,134],[-90.3932,38.81274,134],[-90.39316,38.81271,134],[-90.39313,38.81269,134],[-90.39309,38.81268,134],[-90.39305,38.81268,134],[-90.39302,38.81267,134],[-90.39298,38.81266,134],[-90.39295,38.81264,134],[-90.39292,38.81262,134],[-90.39289,38.8126,134],[-90.39286,38.81258,134],[-90.39276,38.81253,134],[-90.39273,38.81249,134],[-90.3927,38.81247,134],[-90.39267,38.81244,134],[-90.39256,38.81237,135],[-90.39251,38.81236,135],[-90.39248,38.81235,135],[-90.39244,38.81235,135],[-90.39241,38.81234,135],[-90.39225,38.81235,135],[-90.39218,38.81233,136],[-90.39215,38.81231,136],[-90.39211,38.81228,136],[-90.39207,38.81227,136],[-90.39202,38.81225,136],[-90.39198,38.81223,136],[-90.39186,38.8123,136],[-90.39184,38.81234,136],[-90.39181,38.81237,136],[-90.39178,38.8124,135],[-90.39175,38.81243,135],[-90.39171,38.81246,135],[-90.39168,38.81249,135],[-90.39164,38.81252,135],[-90.39161,38.81256,136],[-90.39159,38.8126,137],[-90.39159,38.81263,137],[-90.3916,38.81267,138],[-90.39162,38.81271,138],[-90.39164,38.81274,138],[-90.39168,38.81277,138],[-90.39172,38.81279,138],[-90.39176,38.81281,138],[-90.3918,38.81283,137],[-90.39182,38.81286,137],[-90.39186,38.81289,137],[-90.39189,38.81291,137],[-90.39205,38.81302,137],[-90.39214,38.81307,137],[-90.39217,38.8131,137],[-90.39239,38.81315,136],[-90.3925,38.81319,136],[-90.39254,38.81322,136],[-90.39266,38.8133,135],[-90.3928,38.81342,135],[-90.39281,38.81351,136],[-90.39272,38.81367,138],[-90.39263,38.81379,138],[-90.39256,38.81383,138],[-90.39252,38.81385,138],[-90.39248,38.81388,137],[-90.39244,38.81391,138],[-90.3924,38.81394,138],[-90.39237,38.81397,139],[-90.39233,38.814,141],[-90.3923,38.81402,142],[-90.39226,38.81405,143],[-90.39223,38.81407,144],[-90.39218,38.81407,145],[-90.39215,38.81404,143],[-90.39212,38.814,141],[-90.39205,38.81391,137],[-90.39202,38.81389,136],[-90.39199,38.81386,137],[-90.39195,38.81383,138],[-90.39191,38.81381,139],[-90.39187,38.81379,141],[-90.39169,38.81368,143],[-90.3916,38.81367,145],[-90.39156,38.81366,146],[-90.39151,38.81364,147],[-90.3915,38.81349,148],[-90.39148,38.81344,148],[-90.39144,38.81342,149],[-90.39139,38.81341,150],[-90.39136,38.81336,151],[-90.39133,38.81332,151],[-90.3913,38.81328,152],[-90.39126,38.81324,152],[-90.39122,38.81321,152],[-90.39118,38.81318,153],[-90.39114,38.81315,153],[-90.39111,38.81312,154],[-90.3911,38.81308,154],[-90.39109,38.81304,153],[-90.39108,38.81301,153],[-90.39107,38.81297,152],[-90.39105,38.81293,151],[-90.39105,38.81289,150],[-90.39104,38.81285,149],[-90.39103,38.81281,148],[-90.39101,38.81278,148],[-90.39099,38.81274,147],[-90.39097,38.81271,147],[-90.39092,38.81258,144],[-90.39093,38.81252,143],[-90.39092,38.81249,143],[-90.39091,38.81245,144],[-90.39089,38.81242,145],[-90.39087,38.81239,146],[-90.39086,38.81235,147],[-90.39084,38.81232,147],[-90.39083,38.81228,148],[-90.39082,38.81223,149],[-90.39081,38.81219,149],[-90.39082,38.81215,149],[-90.3908,38.81202,149],[-90.39079,38.81195,148],[-90.39079,38.81192,148],[-90.3908,38.81188,148],[-90.39082,38.81185,148],[-90.39083,38.81181,148],[-90.39087,38.81178,147],[-90.3909,38.81175,147],[-90.39096,38.81164,145],[-90.39095,38.81157,144],[-90.39093,38.81153,144],[-90.39091,38.8115,144],[-90.3909,38.81146,143],[-90.39089,38.81143,143],[-90.39089,38.81139,142],[-90.39088,38.81135,142],[-90.39085,38.81131,142],[-90.39082,38.81128,142],[-90.39081,38.81125,142],[-90.39081,38.81121,141],[-90.39081,38.81118,141],[-90.39082,38.81114,141],[-90.39081,38.81111,141],[-90.39074,38.81098,140],[-90.3907,38.81094,139],[-90.39068,38.81091,139],[-90.39065,38.81089,139],[-90.39058,38.8109,140],[-90.39051,38.81092,140],[-90.3904,38.8109,141],[-90.39035,38.81089,141],[-90.39023,38.8109,142],[-90.39011,38.81087,143],[-90.39,38.81083,143],[-90.38989,38.8108,144],[-90.38984,38.8108,145],[-90.38974,38.81077,145],[-90.38969,38.81075,145],[-90.38958,38.81073,145],[-90.38953,38.81071,145],[-90.3894,38.81065,145],[-90.38928,38.81056,144],[-90.38923,38.81052,144],[-90.3892,38.81036,143],[-90.38918,38.81026,143],[-90.38917,38.81021,143],[-90.38912,38.81006,144],[-90.38907,38.80994,145],[-90.38902,38.80979,145],[-90.38895,38.80974,146],[-90.38885,38.80962,146],[-90.38879,38.8095,145],[-90.38876,38.80947,145],[-90.38873,38.80944,145],[-90.38869,38.80941,145],[-90.38863,38.80934,144],[-90.3886,38.80931,144],[-90.38858,38.80928,144],[-90.38857,38.80924,143],[-90.38856,38.8092,143],[-90.38856,38.80917,143],[-90.38856,38.80913,142],[-90.38857,38.8091,142],[-90.38857,38.80906,142],[-90.38858,38.80903,142],[-90.38853,38.80894,142],[-90.38852,38.80889,142],[-90.38852,38.80886,142],[-90.38847,38.80873,143],[-90.38845,38.80867,144],[-90.38845,38.80863,144],[-90.38844,38.80859,144],[-90.38844,38.80855,144],[-90.38844,38.80852,144],[-90.38843,38.80848,144],[-90.38843,38.80844,144],[-90.38843,38.80841,144],[-90.38843,38.80837,144],[-90.38842,38.80833,144],[-90.38841,38.8083,143],[-90.3884,38.80826,143],[-90.38835,38.80811,143],[-90.38833,38.80801,143],[-90.38832,38.80797,143],[-90.38831,38.80793,143],[-90.3883,38.8079,144],[-90.38827,38.80774,144],[-90.38823,38.80764,144],[-90.38819,38.80749,145],[-90.38817,38.80743,145],[-90.38816,38.80739,145],[-90.38816,38.80736,144],[-90.38816,38.80732,144],[-90.38817,38.80728,144],[-90.38817,38.80724,144],[-90.38815,38.8072,143],[-90.38814,38.80716,143],[-90.38813,38.80712,143],[-90.38811,38.80708,143],[-90.38808,38.80704,143],[-90.38805,38.80701,143],[-90.38802,38.80686,143],[-90.38802,38.80678,142],[-90.38798,38.80667,143],[-90.388,38.80658,143],[-90.38799,38.80655,143],[-90.38798,38.80651,143],[-90.38798,38.80647,144],[-90.38798,38.80643,144],[-90.38798,38.80639,144],[-90.38798,38.80635,144],[-90.38791,38.8062,146],[-90.38788,38.80612,147],[-90.38788,38.80608,147],[-90.38788,38.80604,146],[-90.38789,38.80601,146],[-90.38787,38.80585,146],[-90.38788,38.80578,145],[-90.38788,38.80575,145],[-90.38784,38.80564,143],[-90.38784,38.80559,142],[-90.38784,38.80556,142],[-90.38777,38.80539,143],[-90.38773,38.80533,144],[-90.38771,38.80529,144],[-90.38771,38.80525,144],[-90.38772,38.80518,144],[-90.38775,38.80505,145],[-90.38777,38.805,145],[-90.38778,38.80496,144],[-90.38779,38.80492,144],[-90.3878,38.8048,143],[-90.3878,38.80474,142],[-90.3878,38.8047,142],[-90.3878,38.80467,142],[-90.38781,38.80463,142],[-90.38783,38.8046,141],[-90.38783,38.80457,141],[-90.38782,38.80454,141],[-90.3878,38.80451,142],[-90.38777,38.80449,142],[-90.38774,38.80447,142],[-90.38769,38.80445,143],[-90.38766,38.80444,143],[-90.38762,38.80442,144],[-90.38758,38.80441,145],[-90.38755,38.80439,145],[-90.38751,38.80438,146],[-90.38747,38.80437,146],[-90.38743,38.80436,147],[-90.38739,38.80435,148],[-90.38736,38.80433,148],[-90.38733,38.80435,149],[-90.38731,38.80432,149],[-90.3873,38.80429,149],[-90.38729,38.80426,149],[-90.38727,38.80424,150],[-90.38724,38.80421,150],[-90.38721,38.80419,151],[-90.38719,38.80417,151],[-90.38714,38.80405,153],[-90.38714,38.80408,152],[-90.38715,38.80411,152],[-90.38717,38.80414,152],[-90.38719,38.80417,151],[-90.38721,38.8042,151],[-90.38723,38.80422,150],[-90.38724,38.80426,150],[-90.38729,38.80429,149],[-90.38734,38.80429,149],[-90.38762,38.8044,144],[-90.38771,38.80446,143],[-90.38773,38.80449,142],[-90.38774,38.80453,142],[-90.38774,38.80456,142],[-90.38774,38.80459,143],[-90.38775,38.80463,143],[-90.38776,38.80466,143],[-90.38777,38.8047,143],[-90.38778,38.80473,143],[-90.38784,38.80485,143],[-90.38785,38.80491,143],[-90.38787,38.80509,143],[-90.38793,38.80523,142],[-90.38795,38.80528,142],[-90.38797,38.80532,141],[-90.38797,38.80536,141],[-90.388,38.80546,140],[-90.38799,38.80556,139],[-90.388,38.80563,140],[-90.38803,38.80571,141],[-90.38806,38.80579,141],[-90.3881,38.80587,141],[-90.38813,38.80595,140],[-90.38814,38.80603,140],[-90.38812,38.80608,140],[-90.38812,38.80611,140],[-90.38812,38.80614,140],[-90.38811,38.80617,140],[-90.38816,38.80629,140],[-90.3882,38.80639,139],[-90.3882,38.80649,138],[-90.38819,38.80655,138],[-90.38819,38.80659,138],[-90.3882,38.80661,137],[-90.3882,38.80665,137],[-90.38821,38.80668,137],[-90.38822,38.80671,137],[-90.38823,38.80676,137],[-90.38826,38.80686,137],[-90.38827,38.80692,138],[-90.38828,38.80696,138],[-90.38828,38.807,138],[-90.38832,38.80713,139],[-90.38837,38.80721,140],[-90.38841,38.80726,140],[-90.38842,38.80729,140],[-90.38841,38.80732,140],[-90.38842,38.80736,140],[-90.38844,38.80748,140],[-90.38846,38.80756,140],[-90.38848,38.80763,141],[-90.38851,38.80769,141],[-90.3885,38.80772,141],[-90.3885,38.80776,141],[-90.38851,38.8078,141],[-90.38851,38.80783,141],[-90.38851,38.80786,141],[-90.38854,38.80792,140],[-90.38857,38.80799,139],[-90.38858,38.80805,139],[-90.38858,38.8081,139],[-90.38857,38.80814,139],[-90.38857,38.80817,140],[-90.38857,38.8082,140],[-90.38856,38.80823,140],[-90.38856,38.80826,140],[-90.38856,38.8083,140],[-90.38857,38.80833,140],[-90.38857,38.80843,141],[-90.3886,38.80853,140],[-90.38864,38.80861,140],[-90.38869,38.80866,139],[-90.38872,38.80869,139],[-90.38874,38.80872,139],[-90.38875,38.80875,139],[-90.38876,38.80878,139],[-90.38875,38.80886,139],[-90.38873,38.80893,140],[-90.38875,38.80903,140],[-90.38876,38.80909,141],[-90.38876,38.80913,141],[-90.38877,38.80916,141],[-90.38878,38.8092,141],[-90.38879,38.80923,142],[-90.3888,38.80927,142],[-90.3888,38.80929,142],[-90.38883,38.80935,143],[-90.38889,38.80942,143],[-90.38894,38.80947,143],[-90.38896,38.80949,143],[-90.38898,38.80951,143],[-90.389,38.80953,143],[-90.38903,38.80956,144],[-90.38905,38.80958,144],[-90.38907,38.80961,144],[-90.38906,38.80965,144],[-90.38905,38.80972,145],[-90.38907,38.8098,145],[-90.38913,38.80989,144],[-90.38918,38.80998,143],[-90.38921,38.81007,143],[-90.38924,38.81014,143],[-90.38926,38.8102,142],[-90.38926,38.81024,142],[-90.38926,38.81027,142],[-90.38926,38.8103,142],[-90.38927,38.81033,142],[-90.38928,38.81036,143],[-90.3893,38.81039,143],[-90.38935,38.81045,143],[-90.38941,38.8105,143],[-90.38947,38.81056,142],[-90.38952,38.81061,143],[-90.38956,38.81063,144],[-90.38959,38.81065,144],[-90.38963,38.81066,144],[-90.38967,38.81065,143],[-90.38972,38.81065,143],[-90.38982,38.81066,143],[-90.38992,38.81068,142],[-90.38998,38.81069,142],[-90.39002,38.81068,141],[-90.39005,38.81067,141],[-90.39009,38.81066,141],[-90.39013,38.81065,140],[-90.39025,38.81069,140],[-90.39037,38.81073,140],[-90.39049,38.81072,139],[-90.39059,38.81071,139],[-90.39068,38.81074,139],[-90.39073,38.81078,138],[-90.39076,38.8108,138],[-90.3908,38.81082,138],[-90.39082,38.81084,138],[-90.39084,38.81087,138],[-90.39085,38.81089,138],[-90.39086,38.81092,138],[-90.39086,38.81097,139],[-90.39086,38.811,139],[-90.39087,38.81104,139],[-90.39087,38.81107,140],[-90.39086,38.8111,140],[-90.39084,38.81113,141],[-90.39082,38.81115,141],[-90.3908,38.81118,141],[-90.39076,38.8112,141],[-90.39074,38.81122,141],[-90.39071,38.81124,142],[-90.39068,38.81126,142],[-90.39065,38.81127,142],[-90.3906,38.81128,142],[-90.39056,38.81129,142],[-90.39051,38.81129,142],[-90.39047,38.81127,142],[-90.39037,38.81127,142],[-90.39034,38.81128,142],[-90.39031,38.8113,142],[-90.39027,38.8113,143],[-90.39023,38.8113,143],[-90.39019,38.8113,143],[-90.39015,38.8113,144],[-90.39011,38.81129,144],[-90.39008,38.81127,144],[-90.39004,38.81127,145],[-90.39001,38.81125,145],[-90.38999,38.81124,146],[-90.38989,38.81126,147],[-90.38984,38.81127,148],[-90.3898,38.81127,149],[-90.38975,38.81125,150],[-90.38971,38.81123,150],[-90.38966,38.81123,150],[-90.38955,38.81132,151],[-90.38952,38.81135,151],[-90.38948,38.81137,151],[-90.38946,38.81141,152],[-90.38937,38.81149,152],[-90.38935,38.81153,153],[-90.38934,38.81156,153],[-90.38932,38.81159,153],[-90.38928,38.81161,152],[-90.38924,38.81163,152],[-90.38918,38.81162,152],[-90.38914,38.81162,152],[-90.38909,38.81162,154],[-90.38904,38.81164,155],[-90.38899,38.81165,156],[-90.38893,38.81167,158],[-90.3889,38.8117,159],[-90.38886,38.8117,160],[-90.38881,38.81171,160],[-90.3888,38.81179,160],[-90.38879,38.81182,160],[-90.38878,38.81186,159],[-90.38878,38.8119,159],[-90.3888,38.81193,158],[-90.38885,38.81195,157],[-90.38885,38.812,158],[-90.38888,38.81203,158],[-90.38887,38.81208,159],[-90.38884,38.81213,160],[-90.3888,38.81215,161],[-90.38877,38.81218,162],[-90.38875,38.81221,162],[-90.38871,38.81224,163],[-90.38868,38.81226,164],[-90.38866,38.81229,164],[-90.38865,38.81233,165],[-90.38869,38.81246,167],[-90.38871,38.8125,167],[-90.38869,38.81253,167],[-90.38865,38.81255,168],[-90.38859,38.81264,170],[-90.38848,38.81267,173],[-90.38842,38.81268,175],[-90.38838,38.8127,177],[-90.38835,38.81274,178],[-90.38833,38.81277,180],[-90.3883,38.8128,181],[-90.38827,38.81283,182],[-90.38826,38.81287,183],[-90.38821,38.81288,185],[-90.38819,38.81292,186],[-90.38818,38.81296,186],[-90.38816,38.813,187],[-90.38814,38.81305,189],[-90.38812,38.81308,190],[-90.3881,38.81312,191],[-90.38807,38.81315,192],[-90.38804,38.81318,193],[-90.388,38.8132,193],[-90.38797,38.81323,194],[-90.38795,38.81325,194],[-90.38794,38.81329,195],[-90.38791,38.81332,195],[-90.38788,38.81334,196],[-90.38783,38.81335,196],[-90.38778,38.81336,196],[-90.38774,38.81337,195],[-90.3877,38.81338,195],[-90.38765,38.81339,195],[-90.38766,38.81343,195],[-90.38757,38.81356,196],[-90.38753,38.81359,196],[-90.38752,38.81362,196],[-90.38751,38.81366,196],[-90.38752,38.8137,197],[-90.38755,38.81373,197],[-90.38759,38.81375,198],[-90.38762,38.81378,198],[-90.38762,38.81382,199],[-90.38762,38.81386,199],[-90.38765,38.81389,199],[-90.38769,38.8139,200],[-90.38773,38.81392,200],[-90.38777,38.81393,200],[-90.38782,38.81391,199],[-90.38795,38.81391,199],[-90.38815,38.81388,198],[-90.38824,38.81389,198],[-90.38827,38.8139,198],[-90.38832,38.81393,198],[-90.38835,38.81396,198],[-90.38837,38.81399,198],[-90.38841,38.81402,197],[-90.38846,38.81403,197],[-90.38851,38.81403,196],[-90.38856,38.81403,196],[-90.38878,38.81404,193],[-90.38886,38.81406,192],[-90.3889,38.81408,192],[-90.38907,38.81414,192],[-90.38926,38.81422,191],[-90.38933,38.81425,190],[-90.38938,38.81426,189],[-90.38943,38.81428,189],[-90.38947,38.81429,188],[-90.3895,38.81432,188],[-90.38951,38.81436,188],[-90.38953,38.8144,189],[-90.38962,38.81449,189],[-90.38966,38.81451,189],[-90.38968,38.81454,190],[-90.38967,38.81459,190],[-90.38956,38.81471,191],[-90.38951,38.81476,190],[-90.38958,38.81487,189],[-90.38961,38.81491,189],[-90.38965,38.81494,189],[-90.38967,38.81497,189],[-90.3897,38.815,188],[-90.38973,38.81504,188],[-90.38975,38.81508,187],[-90.38977,38.81512,186],[-90.3898,38.81515,185],[-90.38982,38.8152,184],[-90.38992,38.81525,182],[-90.39004,38.81537,180],[-90.3901,38.81538,180],[-90.39015,38.81538,180],[-90.39021,38.81537,180],[-90.39026,38.81537,180],[-90.39031,38.81538,180],[-90.39035,38.8154,181],[-90.3904,38.81542,181],[-90.39046,38.81541,181],[-90.39051,38.81541,182],[-90.39057,38.81541,183],[-90.39061,38.81541,183],[-90.39066,38.81542,184],[-90.39071,38.81543,184],[-90.39075,38.81544,184],[-90.3908,38.81545,185],[-90.39085,38.81546,185],[-90.3909,38.81545,185],[-90.39094,38.81543,186],[-90.39102,38.81536,186],[-90.39108,38.81536,186],[-90.39113,38.81536,186],[-90.39118,38.81536,186],[-90.39123,38.81537,186],[-90.39127,38.81538,186],[-90.39132,38.8154,185],[-90.39136,38.81541,185],[-90.3914,38.81542,185],[-90.39145,38.81545,184],[-90.39149,38.81548,184],[-90.39152,38.81551,183],[-90.39154,38.81554,183],[-90.39157,38.81557,183],[-90.39159,38.81561,182],[-90.39161,38.81565,182],[-90.39164,38.81569,181],[-90.39168,38.81575,180],[-90.3917,38.81579,179],[-90.39171,38.81582,178],[-90.39171,38.81584,178],[-90.39171,38.81587,178],[-90.3917,38.8159,177],[-90.39177,38.81595,174],[-90.39182,38.81597,172],[-90.39185,38.81598,171],[-90.39188,38.816,170],[-90.39189,38.81604,169],[-90.3919,38.81607,168],[-90.39188,38.81614,166],[-90.39181,38.81624,165],[-90.39179,38.81629,163],[-90.39179,38.81632,162],[-90.39178,38.81635,162],[-90.39177,38.81638,161],[-90.39175,38.81641,161],[-90.39175,38.81645,160],[-90.39162,38.81657,159],[-90.39157,38.8166,160],[-90.39153,38.81662,160],[-90.3915,38.81663,160],[-90.39146,38.81665,161],[-90.39143,38.81666,161],[-90.3914,38.81668,161],[-90.39137,38.8167,161],[-90.39135,38.81672,160],[-90.39134,38.81675,160],[-90.39131,38.81677,159],[-90.39127,38.81677,160],[-90.39124,38.81677,160],[-90.3912,38.81677,161],[-90.39116,38.81678,161],[-90.39112,38.81678,162],[-90.39107,38.81678,163],[-90.39103,38.8168,162],[-90.39099,38.8168,163],[-90.39091,38.81678,164],[-90.39088,38.81679,164],[-90.39088,38.81682,163],[-90.39085,38.81685,163],[-90.3908,38.81687,163],[-90.39075,38.8169,163],[-90.39071,38.81691,163],[-90.39066,38.81691,164],[-90.39061,38.81692,164],[-90.39056,38.81691,165],[-90.3905,38.8169,165],[-90.39045,38.8169,166],[-90.39047,38.81692,165],[-90.39048,38.81695,165],[-90.39048,38.81699,164],[-90.39047,38.81703,162],[-90.39047,38.81707,161],[-90.39049,38.8171,160],[-90.3905,38.81714,158],[-90.3905,38.81718,157],[-90.3905,38.81721,156],[-90.39054,38.81725,155],[-90.39057,38.81728,153],[-90.39061,38.81731,151],[-90.39063,38.81735,150],[-90.39068,38.81732,150],[-90.39072,38.81727,151],[-90.39078,38.81737,147],[-90.39073,38.81742,146],[-90.39069,38.81747,145],[-90.39065,38.8175,144],[-90.39061,38.81753,144],[-90.39043,38.81754,146],[-90.39055,38.81754,145],[-90.3904,38.81754,146],[-90.39032,38.81759,146],[-90.39028,38.81761,146],[-90.39024,38.81761,147],[-90.39019,38.81763,147],[-90.39016,38.81766,147],[-90.39013,38.81769,147],[-90.39012,38.81773,146],[-90.39012,38.81777,145],[-90.39013,38.81781,145],[-90.39012,38.81785,144],[-90.3901,38.8179,144],[-90.39008,38.81794,143],[-90.39006,38.81797,143],[-90.39007,38.81802,142],[-90.39006,38.81806,142],[-90.39001,38.81808,142],[-90.38996,38.8181,142],[-90.38993,38.81812,142],[-90.38989,38.81813,142],[-90.38986,38.81815,142],[-90.3898,38.81817,142],[-90.38976,38.81817,142],[-90.38972,38.81818,142],[-90.38967,38.81819,142],[-90.38961,38.81818,142],[-90.38956,38.81817,142],[-90.38951,38.81816,142],[-90.38946,38.81818,142],[-90.38941,38.81819,141],[-90.38936,38.81819,142],[-90.38931,38.81817,143],[-90.38926,38.81818,144],[-90.38922,38.81816,145],[-90.38917,38.81816,145],[-90.38911,38.81817,147],[-90.38905,38.81819,147],[-90.389,38.81822,147],[-90.38898,38.81826,146],[-90.38898,38.8183,145],[-90.38893,38.81832,145],[-90.38886,38.81832,146],[-90.38879,38.81833,147],[-90.38874,38.81836,147],[-90.38871,38.8184,145],[-90.38869,38.81844,144],[-90.38864,38.81846,144],[-90.3886,38.8185,142],[-90.38856,38.81853,141],[-90.38852,38.81855,140],[-90.38848,38.81858,139],[-90.38845,38.81861,138],[-90.38842,38.81865,138],[-90.38838,38.81867,138],[-90.38834,38.8187,138],[-90.38829,38.81872,138],[-90.38825,38.81887,138],[-90.38808,38.81887,139],[-90.38801,38.81886,139],[-90.38797,38.81886,140],[-90.38792,38.81887,140],[-90.38787,38.81888,141],[-90.38782,38.8189,141],[-90.38767,38.81891,141],[-90.38762,38.81891,141],[-90.38758,38.81893,140],[-90.38755,38.81896,139],[-90.38753,38.81899,138],[-90.3875,38.81911,134],[-90.38739,38.8192,132],[-90.38734,38.81925,132],[-90.3873,38.81928,132],[-90.38726,38.8193,132],[-90.38723,38.81933,132],[-90.38721,38.81937,132],[-90.38719,38.81941,132],[-90.38717,38.81945,131],[-90.38705,38.8195,131],[-90.38701,38.81953,131],[-90.38696,38.81953,131],[-90.38691,38.81952,131],[-90.38687,38.81952,131],[-90.38681,38.81953,131],[-90.38677,38.81954,131],[-90.38672,38.81956,131],[-90.38667,38.81955,131],[-90.38661,38.81955,131],[-90.38657,38.81958,131],[-90.38655,38.81963,131],[-90.38651,38.81965,131],[-90.38639,38.81967,131],[-90.38633,38.81968,131],[-90.38628,38.8197,131],[-90.38623,38.81971,131],[-90.38618,38.81972,131],[-90.38612,38.8197,131],[-90.38607,38.81967,132],[-90.38602,38.81967,132],[-90.38597,38.81969,132],[-90.38593,38.81981,131],[-90.3859,38.81986,131],[-90.38586,38.81985,131],[-90.38584,38.81983,131],[-90.38582,38.8198,131],[-90.38578,38.81979,131],[-90.38575,38.81978,131],[-90.3858,38.81977,131],[-90.38583,38.81977,131],[-90.38587,38.81976,131],[-90.38591,38.81975,131],[-90.38595,38.81974,131],[-90.38599,38.81973,131],[-90.38603,38.81972,131],[-90.38607,38.8197,131],[-90.38615,38.81974,131],[-90.38619,38.81973,131],[-90.38623,38.81972,131],[-90.38626,38.81971,131],[-90.3863,38.81969,131],[-90.38633,38.81967,131],[-90.38636,38.81966,131],[-90.3864,38.81965,131],[-90.38644,38.81961,131],[-90.38647,38.81959,131],[-90.3865,38.81957,131],[-90.38658,38.81951,131],[-90.38662,38.81948,131],[-90.38664,38.81945,131],[-90.38665,38.81943,132],[-90.38669,38.8194,132],[-90.38675,38.81933,133],[-90.38693,38.81925,132],[-90.38705,38.81927,132],[-90.3871,38.81926,132],[-90.38713,38.81923,132],[-90.38716,38.8192,132],[-90.38719,38.81917,132],[-90.38724,38.81915,132],[-90.38728,38.81913,133],[-90.38732,38.81911,134],[-90.38737,38.81909,135],[-90.38737,38.81906,136],[-90.38737,38.81903,137],[-90.38739,38.81899,139],[-90.38748,38.8189,141],[-90.38753,38.81888,142],[-90.38757,38.81887,142],[-90.38761,38.81886,142],[-90.38766,38.81885,142],[-90.3877,38.81883,143],[-90.38774,38.8188,143],[-90.38779,38.81878,143],[-90.38787,38.81872,143],[-90.38791,38.8187,142],[-90.38804,38.81868,141],[-90.38809,38.81866,141],[-90.38813,38.81864,140],[-90.38816,38.81861,140],[-90.3882,38.81858,141],[-90.38829,38.81853,141],[-90.38832,38.81851,142],[-90.38834,38.81848,143],[-90.38836,38.81844,145],[-90.3884,38.81842,146],[-90.38845,38.81841,146],[-90.38851,38.81831,151],[-90.38851,38.81828,152],[-90.38853,38.81825,154],[-90.38857,38.81823,154],[-90.38861,38.81822,155],[-90.38865,38.8182,155],[-90.38877,38.81815,155],[-90.38879,38.81811,156],[-90.38881,38.81808,157],[-90.3888,38.81805,159],[-90.38896,38.818,156],[-90.389,38.81796,157],[-90.38904,38.81794,156],[-90.38909,38.81794,155],[-90.38916,38.81796,153],[-90.3892,38.81798,151],[-90.38924,38.81798,151],[-90.3893,38.81798,150],[-90.38935,38.818,149],[-90.38939,38.81803,148],[-90.38943,38.81804,147],[-90.38949,38.81802,147],[-90.38953,38.818,148],[-90.38957,38.81797,148],[-90.38959,38.81795,148],[-90.38961,38.81791,149],[-90.38964,38.81788,149],[-90.3897,38.81787,149],[-90.3898,38.81783,149],[-90.38984,38.81781,149],[-90.38988,38.81779,149],[-90.38992,38.81777,148],[-90.38996,38.81776,148],[-90.39001,38.81776,148],[-90.39006,38.81776,147],[-90.3901,38.81775,146],[-90.39021,38.81772,145],[-90.39026,38.81772,144],[-90.39031,38.81773,143],[-90.39035,38.81773,143],[-90.39039,38.81771,143],[-90.39044,38.8177,142],[-90.39048,38.81768,142],[-90.39051,38.81767,142],[-90.39056,38.81764,143],[-90.39059,38.81762,143],[-90.39064,38.8176,142],[-90.39068,38.81759,142],[-90.39071,38.81757,142],[-90.39076,38.81755,142],[-90.39081,38.81756,141],[-90.39086,38.81756,140],[-90.39091,38.81755,140],[-90.39095,38.81752,140],[-90.39098,38.81749,140],[-90.39102,38.81746,141],[-90.39105,38.81743,141],[-90.39108,38.81739,142],[-90.39111,38.81736,142],[-90.39114,38.81733,142],[-90.39118,38.8173,142],[-90.39121,38.81728,142],[-90.39123,38.81723,143],[-90.39125,38.81719,144],[-90.39128,38.81715,146],[-90.39131,38.81713,146],[-90.39135,38.81711,146],[-90.39139,38.81709,146],[-90.39143,38.81708,146],[-90.39147,38.81706,146],[-90.3915,38.81704,146],[-90.39154,38.81702,147],[-90.39157,38.81699,147],[-90.39161,38.81697,147],[-90.39164,38.81693,148],[-90.39166,38.8169,149],[-90.39169,38.81687,150],[-90.39172,38.81685,150],[-90.39175,38.81682,151],[-90.39182,38.81675,151],[-90.39184,38.81672,152],[-90.39187,38.81669,152],[-90.39191,38.81669,151],[-90.39195,38.81667,150],[-90.39198,38.81665,150],[-90.39201,38.81661,150],[-90.39204,38.81658,150],[-90.39207,38.81654,150],[-90.39209,38.81651,150],[-90.39211,38.81648,150],[-90.39214,38.81646,150],[-90.39218,38.81643,149],[-90.39219,38.8164,149],[-90.39219,38.81637,150],[-90.39223,38.81635,150],[-90.39228,38.81629,150],[-90.39229,38.81625,151],[-90.39232,38.81623,151],[-90.39237,38.81621,150],[-90.39241,38.81619,149],[-90.39245,38.81617,149],[-90.39245,38.81613,150],[-90.39245,38.81609,150],[-90.39248,38.81611,149],[-90.39252,38.81611,148],[-90.39254,38.81608,147],[-90.39255,38.81605,147],[-90.39258,38.81603,146],[-90.39259,38.816,145],[-90.39258,38.81596,146],[-90.39256,38.81593,146],[-90.39254,38.8159,147],[-90.39253,38.81587,147],[-90.39254,38.81584,147],[-90.39253,38.81574,150],[-90.39253,38.81565,152],[-90.39253,38.81559,153],[-90.39255,38.81556,154],[-90.39257,38.81553,153],[-90.39259,38.8155,153],[-90.39268,38.81545,151],[-90.39272,38.81546,149],[-90.39276,38.81543,149],[-90.39279,38.81541,148],[-90.39283,38.81538,148],[-90.39286,38.81535,148],[-90.39288,38.81531,149],[-90.39289,38.81528,150],[-90.39292,38.81524,149],[-90.39295,38.81522,148],[-90.39299,38.8152,147],[-90.39302,38.81518,147],[-90.39303,38.81514,147],[-90.39303,38.81511,147],[-90.393,38.81508,148],[-90.39296,38.81506,148],[-90.39291,38.81504,149],[-90.39289,38.815,149],[-90.39287,38.81497,149],[-90.39287,38.81484,149],[-90.39288,38.81477,149],[-90.39288,38.81473,149],[-90.39287,38.8147,150],[-90.39286,38.81467,150],[-90.39284,38.81464,151],[-90.39279,38.81463,152],[-90.39274,38.81464,152],[-90.3927,38.81461,153],[-90.39266,38.81457,153],[-90.39263,38.81454,154],[-90.39253,38.81448,155],[-90.39247,38.81445,155],[-90.39243,38.81443,155],[-90.39239,38.81441,154],[-90.39235,38.8144,154],[-90.3923,38.81439,154],[-90.39226,38.81437,153],[-90.39222,38.81435,153],[-90.3922,38.81431,153],[-90.39219,38.81428,152],[-90.3922,38.81424,152],[-90.39223,38.8142,151],[-90.39225,38.81416,150],[-90.39229,38.81412,148],[-90.39237,38.81403,143],[-90.39244,38.81397,140],[-90.39246,38.81393,139],[-90.39248,38.81391,138],[-90.39249,38.81388,137],[-90.39248,38.81385,137],[-90.39247,38.81382,137],[-90.39246,38.81379,137],[-90.39242,38.81378,137],[-90.39241,38.81374,137],[-90.3924,38.81371,138],[-90.3924,38.81368,138],[-90.39239,38.8136,138],[-90.3924,38.81354,138],[-90.39246,38.81347,138],[-90.3925,38.81344,137],[-90.39252,38.81341,137],[-90.39255,38.81339,137],[-90.39265,38.81333,135],[-90.39269,38.81329,135],[-90.3927,38.81326,135],[-90.39273,38.81324,135],[-90.39277,38.81322,134],[-90.3928,38.81321,134],[-90.39284,38.8132,134],[-90.39287,38.81319,134],[-90.3929,38.81316,133],[-90.39293,38.81314,133],[-90.39296,38.81311,133],[-90.39299,38.8131,133],[-90.39302,38.81308,133],[-90.39306,38.81306,132],[-90.39309,38.81303,133],[-90.39311,38.813,133],[-90.39314,38.81298,133],[-90.3932,38.81294,133],[-90.39324,38.81292,133],[-90.39327,38.81291,134],[-90.39332,38.81289,134],[-90.3934,38.81286,134],[-90.39346,38.81283,134],[-90.39349,38.81282,134],[-90.39356,38.81279,134],[-90.39362,38.81277,134],[-90.39365,38.81275,134],[-90.39368,38.81272,134],[-90.39372,38.8127,134],[-90.39378,38.81268,134],[-90.39381,38.81267,135],[-90.39385,38.81265,135],[-90.39388,38.81264,135],[-90.39391,38.81262,135],[-90.39394,38.81261,135],[-90.39397,38.81259,135],[-90.39401,38.81257,136],[-90.39404,38.81255,136],[-90.39406,38.81252,136],[-90.39408,38.8125,137],[-90.39407,38.81247,137],[-90.39409,38.81244,137],[-90.39412,38.81242,137],[-90.39416,38.81241,137],[-90.39419,38.8124,137],[-90.39426,38.81236,137],[-90.39435,38.81229,137],[-90.3944,38.81221,138],[-90.39443,38.81216,138],[-90.39446,38.81214,137],[-90.39448,38.81212,137],[-90.39453,38.81207,137],[-90.39456,38.81204,137],[-90.39464,38.812,137],[-90.39472,38.81196,136],[-90.39476,38.81193,136],[-90.39483,38.81189,135],[-90.39486,38.81183,134],[-90.3949,38.81181,134],[-90.39494,38.81178,134],[-90.39496,38.81173,133],[-90.39502,38.81169,133],[-90.39509,38.81164,132],[-90.39511,38.81159,132]]],
        "bbox": [
          -90.38575,
          38.81986,
          -90.39511,
          38.80405
        ]
      },
      "properties": {
        "name": "1.13.2022"
      }
    }
  ]
}