{
  "type": "FeatureCollection",
  "features": [
    {
      "type": "Feature",
      "geometry": {
        "type": "MultiLineString",
        "coordinates": [[[-90.3952,38.81153,132],[-90.39517,38.81155,132],[-90.39514,38.81157,132],[-90.39511,38.8116,132],[-90.39508,38.81162,132],[-90.39505,38.81163,132],[-90.39502,38.81165,132],[-90.39498,38.81167,133],[-90.39494,38.81169,133],[-90.39491,38.81171,133],[-90.39487,38.81172,133],[-90.39486,38.81175,134],[-90.39484,38.81177,134],[-90.39482,38.8118,134],[-90.39479,38.81183,135],[-90.39476,38.81185,135],[-90.39473,38.81187,136],[-90.39471,38.8119,136],[-90.39469,38.81192,136],[-90.39466,38.81194,137],[-90.39462,38.81197,137],[-90.3946,38.81199,137],[-90.39457,38.81201,137],[-90.39455,38.81204,137],[-90.39452,38.81206,137],[-90.39449,38.81209,137],[-90.39446,38.81211,137],[-90.39444,38.81213,138],[-90.39441,38.81215,138],[-90.39437,38.81217,138],[-90.39435,38.81219,138],[-90.39432,38.81222,138],[-90.39429,38.81223,137],[-90.39426,38.81227,137],[-90.39424,38.81229,137],[-90.39422,38.81231,137],[-90.39419,38.81233,137],[-90.39416,38.81235,137],[-90.39413,38.81237,137],[-90.3941,38.8124,137],[-90.39408,38.81242,137],[-90.39404,38.81244,137],[-90.39402,38.81246,137],[-90.39399,38.81248,137],[-90.39395,38.8125,137],[-90.39393,38.81253,136],[-90.3939,38.81255,136],[-90.39387,38.81257,136],[-90.39384,38.81259,135],[-90.39381,38.81261,135],[-90.39377,38.81262,135],[-90.39374,38.81264,135],[-90.3937,38.81266,134],[-90.39367,38.81268,134],[-90.39365,38.81271,134],[-90.39362,38.81274,134],[-90.39359,38.81275,134],[-90.39355,38.81278,134],[-90.39352,38.8128,134],[-90.39349,38.81281,134],[-90.39346,38.81283,134],[-90.39342,38.81285,134],[-90.39339,38.81286,134],[-90.39335,38.81286,134],[-90.39332,38.81284,134],[-90.3933,38.81282,134],[-90.39327,38.81279,134],[-90.39323,38.81277,134],[-90.39319,38.81275,134],[-90.39315,38.81274,134],[-90.39311,38.81272,134],[-90.39306,38.8127,134],[-90.39304,38.81268,134],[-90.39301,38.81266,134],[-90.39297,38.81264,134],[-90.39294,38.81262,134],[-90.3929,38.8126,134],[-90.39286,38.81258,134],[-90.39283,38.81256,134],[-90.39279,38.81254,134],[-90.39276,38.81253,134],[-90.39272,38.81251,134],[-90.39269,38.81249,134],[-90.39265,38.81247,134],[-90.39261,38.81245,135],[-90.39258,38.81242,135],[-90.39256,38.8124,135],[-90.39253,38.81238,135],[-90.3925,38.81236,135],[-90.39247,38.81233,135],[-90.39244,38.81231,135],[-90.3924,38.81228,135],[-90.39236,38.81226,135],[-90.39232,38.81224,135],[-90.39229,38.81222,135],[-90.39227,38.8122,135],[-90.39223,38.81218,135],[-90.3922,38.81216,136],[-90.39216,38.81216,136],[-90.39212,38.81215,136],[-90.39209,38.81214,136],[-90.39204,38.81214,137],[-90.392,38.81215,137],[-90.39196,38.81216,137],[-90.39193,38.81218,137],[-90.3919,38.8122,137],[-90.39188,38.81222,137],[-90.39185,38.81225,137],[-90.39182,38.81228,136],[-90.39179,38.8123,136],[-90.39176,38.81231,136],[-90.39174,38.81234,136],[-90.39172,38.81237,136],[-90.39169,38.8124,136],[-90.39166,38.81243,135],[-90.39163,38.81246,135],[-90.39161,38.81249,135],[-90.39158,38.81253,135],[-90.39156,38.81256,136],[-90.39154,38.81259,137],[-90.39153,38.81263,138],[-90.39154,38.81266,138],[-90.39155,38.8127,139],[-90.39157,38.81273,139],[-90.3916,38.81275,139],[-90.39163,38.81278,139],[-90.39166,38.8128,139],[-90.3917,38.81282,139],[-90.39173,38.81284,138],[-90.39176,38.81286,138],[-90.39179,38.81289,138],[-90.39183,38.81291,138],[-90.39186,38.81293,138],[-90.39188,38.81295,138],[-90.39191,38.81298,138],[-90.39194,38.81301,138],[-90.39198,38.81303,138],[-90.39201,38.81304,138],[-90.39205,38.81307,138],[-90.39209,38.81308,138],[-90.39213,38.8131,138],[-90.39216,38.81311,137],[-90.39219,38.81313,137],[-90.39219,38.81316,138],[-90.39223,38.81317,137],[-90.39227,38.81319,137],[-90.39229,38.81321,137],[-90.39232,38.81324,137],[-90.39234,38.81326,137],[-90.39237,38.81327,137],[-90.3924,38.81329,137],[-90.39244,38.8133,137],[-90.39248,38.81332,137],[-90.39252,38.81334,136],[-90.39255,38.81336,136],[-90.3926,38.81338,136],[-90.39264,38.8134,136],[-90.39267,38.81342,136],[-90.39266,38.81345,136],[-90.39265,38.81348,137],[-90.39264,38.81352,137],[-90.39262,38.81354,137],[-90.39261,38.81357,138],[-90.3926,38.81361,138],[-90.39259,38.81363,138],[-90.39257,38.81367,138],[-90.39256,38.81371,138],[-90.39254,38.81374,138],[-90.39252,38.81376,138],[-90.3925,38.81379,138],[-90.39249,38.81382,138],[-90.39247,38.81385,137],[-90.39245,38.81388,137],[-90.39243,38.81391,137],[-90.39241,38.81394,138],[-90.39239,38.81397,140],[-90.39237,38.814,141],[-90.39233,38.81402,142],[-90.3923,38.81402,142],[-90.39227,38.81401,141],[-90.39226,38.81403,142],[-90.39222,38.81403,142],[-90.39219,38.81404,143],[-90.39216,38.81406,144],[-90.39221,38.81405,143],[-90.39226,38.81404,143],[-90.39225,38.81401,141],[-90.39222,38.81399,139],[-90.39219,38.81397,138],[-90.39214,38.81396,138],[-90.3921,38.81394,138],[-90.39213,38.81396,139],[-90.39217,38.81398,139],[-90.39221,38.814,140],[-90.39225,38.81402,141],[-90.39229,38.81404,143],[-90.39232,38.81406,144],[-90.39234,38.81409,146],[-90.39237,38.81412,148],[-90.39239,38.81414,149],[-90.39243,38.81416,149],[-90.39246,38.81419,150],[-90.39249,38.81422,151],[-90.39252,38.81424,151],[-90.39255,38.81425,151],[-90.39258,38.81427,151],[-90.39262,38.8143,151],[-90.39264,38.81432,151],[-90.39268,38.81435,152],[-90.39272,38.81436,151],[-90.39274,38.81439,152],[-90.39277,38.81441,152],[-90.39279,38.81445,152],[-90.39282,38.81448,151],[-90.39279,38.81446,152],[-90.39276,38.81444,153],[-90.39274,38.81441,152],[-90.39272,38.81439,152],[-90.39269,38.81437,152],[-90.39266,38.81435,152],[-90.39262,38.81434,152],[-90.39258,38.81432,152],[-90.39254,38.8143,152],[-90.3925,38.81429,152],[-90.39246,38.81427,152],[-90.39241,38.81425,151],[-90.39239,38.81422,151],[-90.39237,38.8142,151],[-90.39236,38.81417,150],[-90.39233,38.81414,149],[-90.39232,38.81411,147],[-90.39228,38.8141,146],[-90.39224,38.81409,146],[-90.3922,38.81409,146],[-90.39216,38.81409,146],[-90.39212,38.8141,147],[-90.39209,38.81411,148],[-90.39205,38.81411,148],[-90.39201,38.81412,149],[-90.39199,38.81414,150],[-90.39201,38.81411,148],[-90.39205,38.8141,147],[-90.3921,38.81409,147],[-90.39214,38.81408,145],[-90.39219,38.81407,145],[-90.39223,38.81406,144],[-90.39227,38.81405,143],[-90.39231,38.81405,143],[-90.39228,38.81403,142],[-90.39226,38.81401,141],[-90.39224,38.81398,139],[-90.39219,38.81396,138],[-90.39215,38.81394,137],[-90.39211,38.81392,136],[-90.39208,38.8139,136],[-90.39205,38.81388,136],[-90.39202,38.81387,136],[-90.39198,38.81385,137],[-90.39195,38.81383,138],[-90.39192,38.8138,139],[-90.39189,38.81377,140],[-90.39184,38.81375,141],[-90.39181,38.81373,142],[-90.39178,38.8137,142],[-90.39175,38.81368,143],[-90.39173,38.81365,142],[-90.39172,38.81363,142],[-90.39169,38.81359,143],[-90.39168,38.81357,143],[-90.39167,38.81353,144],[-90.39167,38.8135,144],[-90.39166,38.81346,145],[-90.39165,38.81343,145],[-90.39164,38.81339,146],[-90.39162,38.81337,147],[-90.39159,38.81335,147],[-90.39155,38.81334,148],[-90.39151,38.81332,149],[-90.39148,38.8133,149],[-90.39145,38.81327,149],[-90.39144,38.81324,149],[-90.39142,38.81321,149],[-90.39139,38.81319,150],[-90.39135,38.81317,150],[-90.39131,38.81315,151],[-90.39129,38.81313,151],[-90.39127,38.8131,151],[-90.39125,38.81307,152],[-90.39124,38.81305,151],[-90.39122,38.81302,151],[-90.39121,38.81299,150],[-90.39119,38.81296,150],[-90.39117,38.81294,150],[-90.39115,38.81291,149],[-90.39113,38.81288,149],[-90.3911,38.81285,149],[-90.39107,38.81282,148],[-90.39106,38.81279,148],[-90.39105,38.81276,147],[-90.39104,38.81272,146],[-90.39104,38.8127,146],[-90.39103,38.81266,145],[-90.39102,38.81263,144],[-90.39101,38.8126,144],[-90.39101,38.81256,143],[-90.391,38.81252,142],[-90.391,38.81248,142],[-90.391,38.81245,143],[-90.39099,38.81241,144],[-90.39098,38.81238,145],[-90.39096,38.81235,146],[-90.39095,38.81232,147],[-90.39094,38.81229,147],[-90.39092,38.81225,149],[-90.39091,38.81223,149],[-90.3909,38.8122,149],[-90.39088,38.81218,149],[-90.39088,38.81214,149],[-90.39087,38.8121,149],[-90.39088,38.81207,149],[-90.39089,38.81204,149],[-90.39089,38.81201,149],[-90.3909,38.81197,149],[-90.39089,38.81194,149],[-90.39089,38.8119,149],[-90.39089,38.81186,148],[-90.3909,38.81183,148],[-90.3909,38.81179,147],[-90.3909,38.81176,147],[-90.39093,38.81173,147],[-90.39096,38.8117,146],[-90.39098,38.81167,145],[-90.39101,38.81165,145],[-90.39104,38.81163,145],[-90.39106,38.8116,144],[-90.39107,38.81158,144],[-90.39108,38.81154,143],[-90.39108,38.8115,142],[-90.39107,38.81147,142],[-90.39105,38.81144,142],[-90.39102,38.81141,141],[-90.39099,38.81139,141],[-90.39096,38.81137,141],[-90.39094,38.81134,141],[-90.39092,38.81132,141],[-90.3909,38.8113,141],[-90.39088,38.81127,141],[-90.39088,38.81124,141],[-90.39088,38.81121,141],[-90.39085,38.81119,141],[-90.39082,38.81116,141],[-90.39082,38.81113,141],[-90.3908,38.81116,141],[-90.39076,38.81118,141],[-90.39072,38.81119,141],[-90.39069,38.81121,142],[-90.39065,38.81123,142],[-90.39061,38.81123,142],[-90.39057,38.81123,142],[-90.39053,38.81122,142],[-90.39049,38.8112,142],[-90.39044,38.81119,142],[-90.39039,38.81118,142],[-90.39035,38.81119,142],[-90.3903,38.8112,142],[-90.39027,38.8112,143],[-90.39022,38.81119,143],[-90.39018,38.81118,144],[-90.39013,38.81118,144],[-90.3901,38.81117,145],[-90.39006,38.81116,145],[-90.39003,38.81116,146],[-90.38999,38.81115,146],[-90.38995,38.81116,147],[-90.38991,38.81116,148],[-90.38986,38.81118,148],[-90.38983,38.81119,149],[-90.3898,38.81119,149],[-90.38976,38.81119,150],[-90.38972,38.81118,150],[-90.38969,38.81118,150],[-90.38965,38.81118,151],[-90.38961,38.8112,151],[-90.38958,38.81121,151],[-90.38955,38.81122,151],[-90.38952,38.81124,151],[-90.38949,38.81127,151],[-90.38948,38.81131,151],[-90.38946,38.81134,151],[-90.38941,38.81136,152],[-90.38937,38.81137,152],[-90.38933,38.81138,152],[-90.38929,38.8114,152],[-90.38926,38.81142,152],[-90.38923,38.81144,152],[-90.3892,38.81145,152],[-90.38916,38.81147,152],[-90.38912,38.81148,153],[-90.38907,38.8115,154],[-90.38903,38.81151,155],[-90.38899,38.81151,156],[-90.38895,38.81152,157],[-90.38891,38.81153,158],[-90.38889,38.81155,159],[-90.38887,38.81159,159],[-90.38885,38.81161,160],[-90.38881,38.81164,161],[-90.38878,38.81166,161],[-90.38874,38.81168,162],[-90.3887,38.8117,163],[-90.38868,38.81172,163],[-90.38866,38.81175,163],[-90.38865,38.81178,163],[-90.38864,38.81181,162],[-90.38866,38.81184,162],[-90.38868,38.81186,161],[-90.3887,38.81189,160],[-90.38872,38.81192,160],[-90.38873,38.81195,159],[-90.38876,38.81197,159],[-90.38879,38.81199,159],[-90.38881,38.81201,159],[-90.38883,38.81204,159],[-90.38884,38.81208,160],[-90.38885,38.81211,160],[-90.38885,38.81215,161],[-90.38883,38.81218,161],[-90.38881,38.81222,162],[-90.38878,38.81224,163],[-90.38874,38.81226,163],[-90.38871,38.81227,163],[-90.38869,38.8123,164],[-90.38867,38.81232,165],[-90.38866,38.81236,165],[-90.38865,38.81239,166],[-90.38866,38.81241,166],[-90.38866,38.81245,167],[-90.38865,38.81248,168],[-90.38863,38.81251,168],[-90.38862,38.81254,169],[-90.38862,38.81257,169],[-90.3886,38.8126,169],[-90.38857,38.81262,170],[-90.38854,38.81264,171],[-90.3885,38.81265,172],[-90.38848,38.81267,173],[-90.38845,38.81269,174],[-90.38842,38.81271,175],[-90.38838,38.81272,177],[-90.38834,38.81272,178],[-90.38831,38.81273,179],[-90.38828,38.81274,180],[-90.38824,38.81276,182],[-90.3882,38.81277,183],[-90.38816,38.81278,184],[-90.38812,38.81279,186],[-90.38811,38.81283,187],[-90.38809,38.81285,187],[-90.38809,38.81288,188],[-90.38809,38.81291,188],[-90.38809,38.81294,188],[-90.38809,38.81298,189],[-90.38808,38.81302,190],[-90.38807,38.81305,190],[-90.38807,38.81308,191],[-90.38805,38.81311,192],[-90.38802,38.81313,192],[-90.38799,38.81316,193],[-90.38797,38.81319,193],[-90.38795,38.81321,194],[-90.38793,38.81323,194],[-90.38789,38.81326,194],[-90.38786,38.81327,195],[-90.38782,38.81328,195],[-90.38777,38.81328,195],[-90.38773,38.81328,195],[-90.38769,38.81329,194],[-90.38765,38.8133,194],[-90.38763,38.81333,194],[-90.38764,38.81337,195],[-90.38764,38.8134,195],[-90.38763,38.81343,195],[-90.38762,38.81346,195],[-90.3876,38.81349,195],[-90.3876,38.81352,196],[-90.3876,38.81356,196],[-90.38759,38.81358,196],[-90.38757,38.81361,196],[-90.38755,38.81363,196],[-90.38754,38.81366,196],[-90.38753,38.81368,197],[-90.38753,38.81371,197],[-90.38754,38.81374,198],[-90.38751,38.81376,198],[-90.38749,38.81378,198],[-90.38748,38.81381,198],[-90.38749,38.81384,199],[-90.3875,38.81386,199],[-90.38754,38.81388,199],[-90.38757,38.8139,200],[-90.3876,38.81391,200],[-90.38764,38.81393,200],[-90.38767,38.81395,200],[-90.38772,38.81395,200],[-90.38775,38.81395,200],[-90.38779,38.81395,199],[-90.38783,38.81395,199],[-90.38787,38.81394,199],[-90.3879,38.81394,199],[-90.38794,38.81394,199],[-90.38798,38.81393,199],[-90.38802,38.81392,199],[-90.38806,38.81392,199],[-90.3881,38.81392,198],[-90.38815,38.81392,198],[-90.38818,38.81393,198],[-90.38821,38.81395,198],[-90.38825,38.81397,198],[-90.38829,38.81398,198],[-90.38832,38.81399,198],[-90.38835,38.814,198],[-90.38839,38.81402,197],[-90.38843,38.81405,197],[-90.38846,38.81406,197],[-90.3885,38.81408,197],[-90.38854,38.81409,197],[-90.38859,38.8141,196],[-90.38864,38.81411,196],[-90.38869,38.81412,195],[-90.38873,38.81413,194],[-90.38877,38.81414,194],[-90.3888,38.81415,194],[-90.38883,38.81416,193],[-90.38888,38.81417,193],[-90.38892,38.81418,192],[-90.38896,38.81419,192],[-90.389,38.81419,192],[-90.38904,38.81419,192],[-90.3891,38.8142,192],[-90.38913,38.81422,192],[-90.38918,38.81423,192],[-90.38922,38.81425,191],[-90.38926,38.81426,191],[-90.3893,38.81428,190],[-90.38933,38.8143,190],[-90.38937,38.81433,190],[-90.38941,38.81435,189],[-90.38945,38.81437,189],[-90.38948,38.81439,189],[-90.38951,38.81442,189],[-90.38953,38.81445,189],[-90.38953,38.81448,189],[-90.38954,38.81451,190],[-90.38954,38.81454,190],[-90.38953,38.81457,190],[-90.38952,38.81459,190],[-90.38951,38.81462,190],[-90.38952,38.81465,190],[-90.38952,38.81468,191],[-90.38952,38.81471,191],[-90.38951,38.81474,191],[-90.38951,38.81478,190],[-90.3895,38.81481,190],[-90.3895,38.81484,189],[-90.38952,38.81487,189],[-90.38954,38.8149,189],[-90.38957,38.81493,189],[-90.38959,38.81496,188],[-90.3896,38.81498,188],[-90.38963,38.81502,188],[-90.38965,38.81505,187],[-90.38967,38.81508,187],[-90.3897,38.81511,186],[-90.38974,38.81513,186],[-90.38977,38.81515,185],[-90.38981,38.81517,185],[-90.38985,38.81519,184],[-90.38989,38.81521,184],[-90.38992,38.81524,183],[-90.38995,38.81525,182],[-90.38998,38.81527,182],[-90.39002,38.81529,181],[-90.39005,38.81531,181],[-90.39008,38.81533,181],[-90.39012,38.81535,180],[-90.39016,38.81536,180],[-90.3902,38.81538,180],[-90.39025,38.8154,180],[-90.39028,38.81541,180],[-90.39032,38.81543,180],[-90.39036,38.81544,180],[-90.39041,38.81545,181],[-90.39045,38.81546,181],[-90.39049,38.81547,181],[-90.39052,38.81547,182],[-90.39057,38.81547,182],[-90.3906,38.81548,183],[-90.39064,38.81548,183],[-90.39068,38.81549,183],[-90.39073,38.81549,184],[-90.39078,38.81551,184],[-90.39082,38.81551,185],[-90.39086,38.81552,185],[-90.39092,38.81551,185],[-90.39095,38.8155,185],[-90.39099,38.81549,185],[-90.39104,38.81547,186],[-90.39107,38.81546,186],[-90.39112,38.81545,186],[-90.39117,38.81544,186],[-90.3912,38.81544,186],[-90.39125,38.81544,185],[-90.39131,38.81544,185],[-90.39135,38.81544,185],[-90.39139,38.81546,185],[-90.39143,38.81548,184],[-90.39146,38.8155,184],[-90.39148,38.81553,184],[-90.39151,38.81556,184],[-90.39154,38.81558,183],[-90.39157,38.81561,183],[-90.3916,38.81563,182],[-90.39162,38.81565,182],[-90.39167,38.81567,181],[-90.39171,38.81569,180],[-90.39174,38.81571,179],[-90.39175,38.81574,179],[-90.39176,38.81578,178],[-90.39176,38.81581,177],[-90.39177,38.81583,177],[-90.39177,38.81587,176],[-90.39178,38.8159,175],[-90.39178,38.81593,174],[-90.39177,38.81596,174],[-90.39177,38.816,173],[-90.39177,38.81602,172],[-90.39176,38.81606,172],[-90.39175,38.81609,172],[-90.39175,38.81613,170],[-90.39174,38.81616,170],[-90.39173,38.81619,169],[-90.39172,38.81622,168],[-90.39171,38.81625,167],[-90.3917,38.81628,166],[-90.3917,38.81631,165],[-90.39169,38.81634,164],[-90.39167,38.81636,164],[-90.39164,38.81639,164],[-90.39162,38.81641,164],[-90.3916,38.81644,164],[-90.39158,38.81647,163],[-90.39156,38.8165,163],[-90.39155,38.81653,162],[-90.39153,38.81655,162],[-90.39151,38.81658,162],[-90.39148,38.8166,162],[-90.39145,38.81662,162],[-90.39142,38.81664,162],[-90.39139,38.81666,162],[-90.39137,38.81668,161],[-90.39134,38.81671,161],[-90.39132,38.81673,160],[-90.39131,38.81676,160],[-90.39128,38.81677,160],[-90.39123,38.81679,160],[-90.3912,38.8168,160],[-90.39117,38.81682,160],[-90.39113,38.81681,161],[-90.3911,38.81679,162],[-90.39106,38.81678,163],[-90.39102,38.81677,163],[-90.39099,38.81677,163],[-90.39095,38.81676,164],[-90.39091,38.81676,164],[-90.39089,38.81678,164],[-90.39086,38.81681,164],[-90.39083,38.81682,164],[-90.39079,38.81683,164],[-90.39076,38.81685,164],[-90.39072,38.81685,164],[-90.39069,38.81686,164],[-90.39065,38.81688,164],[-90.39062,38.81689,164],[-90.39059,38.81691,165],[-90.39056,38.81692,165],[-90.39055,38.81696,164],[-90.39056,38.81698,163],[-90.39058,38.81701,162],[-90.39058,38.81704,161],[-90.39057,38.81707,160],[-90.39055,38.81709,160],[-90.39054,38.81713,159],[-90.39054,38.81716,158],[-90.39058,38.81717,157],[-90.39059,38.8172,156],[-90.39059,38.81723,155],[-90.39058,38.81726,154],[-90.39055,38.81727,154],[-90.39052,38.81729,153],[-90.39054,38.81732,152],[-90.39056,38.81735,151],[-90.39058,38.81738,149],[-90.39059,38.8174,149],[-90.39062,38.81742,147],[-90.39063,38.81745,146],[-90.39064,38.81749,145],[-90.39067,38.81751,144],[-90.3907,38.81754,143],[-90.39074,38.81755,142],[-90.39078,38.81756,141],[-90.39081,38.81754,141],[-90.39084,38.81752,141],[-90.39087,38.81749,141],[-90.3909,38.81747,142],[-90.39093,38.81745,142],[-90.39095,38.81742,143],[-90.39097,38.8174,143],[-90.39099,38.81736,144],[-90.391,38.81734,144],[-90.39102,38.81731,145],[-90.39105,38.81729,145],[-90.39108,38.81727,145],[-90.39111,38.81724,145],[-90.39114,38.81722,145],[-90.39118,38.8172,145],[-90.39122,38.81718,145],[-90.39125,38.81718,145],[-90.39129,38.81717,145],[-90.39133,38.81715,145],[-90.39137,38.81713,145],[-90.3914,38.81711,145],[-90.39144,38.8171,145],[-90.39148,38.81708,145],[-90.39152,38.81706,145],[-90.39156,38.81705,145],[-90.3916,38.81704,145],[-90.39164,38.81703,144],[-90.39167,38.81701,145],[-90.3917,38.817,145],[-90.39174,38.81698,146],[-90.39177,38.81695,148],[-90.3918,38.81692,148],[-90.39183,38.8169,149],[-90.39187,38.81687,149],[-90.3919,38.81685,149],[-90.39193,38.81682,150],[-90.39196,38.8168,149],[-90.39199,38.81677,149],[-90.392,38.81675,149],[-90.39202,38.81672,149],[-90.39206,38.8167,148],[-90.39209,38.81668,148],[-90.39211,38.81666,148],[-90.39214,38.81664,147],[-90.39217,38.81662,147],[-90.39219,38.81659,147],[-90.39222,38.81658,146],[-90.39225,38.81655,146],[-90.39227,38.81652,146],[-90.39231,38.81651,145],[-90.39233,38.81648,145],[-90.39232,38.81645,146],[-90.39232,38.81642,146],[-90.39233,38.81639,146],[-90.39232,38.81636,147],[-90.39232,38.81633,148],[-90.39235,38.81631,148],[-90.39237,38.81628,148],[-90.3924,38.81627,148],[-90.39243,38.81625,147],[-90.39245,38.81622,148],[-90.39248,38.81619,147],[-90.39251,38.81617,147],[-90.39253,38.81614,147],[-90.39254,38.81611,147],[-90.39256,38.81607,146],[-90.39257,38.81605,146],[-90.3926,38.81603,145],[-90.39262,38.81601,145],[-90.39265,38.81599,144],[-90.39266,38.81596,143],[-90.39267,38.81593,143],[-90.39268,38.8159,143],[-90.39267,38.81587,143],[-90.39267,38.81584,143],[-90.39267,38.81581,143],[-90.39266,38.81578,144],[-90.39266,38.81574,145],[-90.39266,38.8157,146],[-90.39266,38.81566,147],[-90.39267,38.81563,147],[-90.39268,38.8156,148],[-90.3927,38.81557,147],[-90.39271,38.81554,148],[-90.39272,38.81551,148],[-90.39273,38.81549,148],[-90.39277,38.8155,146],[-90.3928,38.81548,146],[-90.39283,38.81546,146],[-90.39287,38.81544,145],[-90.3929,38.81543,145],[-90.39293,38.81541,145],[-90.39297,38.81539,144],[-90.393,38.81536,144],[-90.39304,38.81533,144],[-90.39306,38.8153,145],[-90.39309,38.81527,145],[-90.39311,38.81525,144],[-90.39313,38.81522,144],[-90.39314,38.81519,144],[-90.39314,38.81516,144],[-90.39314,38.81513,145],[-90.39313,38.8151,145],[-90.39312,38.81507,146],[-90.3931,38.81503,146],[-90.39308,38.815,147],[-90.39305,38.81497,147],[-90.39304,38.81494,147],[-90.39302,38.81491,147],[-90.39302,38.81487,147],[-90.39301,38.81483,147],[-90.393,38.8148,147],[-90.39299,38.81477,147],[-90.39298,38.81474,147],[-90.39296,38.8147,148],[-90.39295,38.81467,148],[-90.39294,38.81464,148],[-90.39292,38.81462,149],[-90.3929,38.81459,149],[-90.39288,38.81457,150],[-90.39285,38.81455,151],[-90.39282,38.81453,151],[-90.39278,38.8145,152],[-90.39275,38.81448,153],[-90.39273,38.81445,153],[-90.3927,38.81442,153],[-90.39267,38.8144,153],[-90.39263,38.81438,153],[-90.3926,38.81436,153],[-90.39256,38.81433,152],[-90.39253,38.81431,152],[-90.3925,38.8143,152],[-90.39247,38.81428,152],[-90.39244,38.81425,151],[-90.3924,38.81423,151],[-90.39237,38.8142,151],[-90.39234,38.81417,150],[-90.39233,38.81415,149],[-90.39231,38.81412,148],[-90.39232,38.81408,145],[-90.39233,38.81405,143],[-90.39235,38.81401,141],[-90.39237,38.81398,140],[-90.39238,38.81395,139],[-90.3924,38.81392,137],[-90.39243,38.81389,136],[-90.39245,38.81386,137],[-90.39247,38.81383,137],[-90.39248,38.81381,138],[-90.3925,38.81378,138],[-90.39251,38.81375,138],[-90.39252,38.81371,138],[-90.39254,38.81368,138],[-90.39255,38.81366,138],[-90.39257,38.81362,138],[-90.39259,38.81359,138],[-90.3926,38.81357,138],[-90.39262,38.81355,138],[-90.39265,38.81352,137],[-90.39269,38.81349,137],[-90.39272,38.81347,136],[-90.39275,38.81345,136],[-90.39278,38.81343,136],[-90.3928,38.81341,135],[-90.39283,38.81338,135],[-90.39285,38.81336,134],[-90.39289,38.81333,134],[-90.39293,38.81331,133],[-90.39295,38.81329,133],[-90.39298,38.81326,133],[-90.393,38.81324,133],[-90.39303,38.81322,133],[-90.39305,38.81319,133],[-90.39308,38.81317,132],[-90.3931,38.81315,132],[-90.39312,38.81312,132],[-90.39315,38.8131,132],[-90.39318,38.81307,132],[-90.39321,38.81304,133],[-90.39325,38.81301,133],[-90.39328,38.81299,133],[-90.39333,38.81297,133],[-90.39336,38.81295,133],[-90.39339,38.81293,133],[-90.39342,38.81291,133],[-90.39346,38.81289,133],[-90.39349,38.81287,133],[-90.39351,38.81285,133],[-90.39354,38.81283,133],[-90.39357,38.81281,133],[-90.3936,38.81279,133],[-90.39363,38.81277,134],[-90.39367,38.81274,134],[-90.39371,38.81271,134],[-90.39373,38.81269,134],[-90.39376,38.81268,134],[-90.39379,38.81266,135],[-90.39383,38.81264,135],[-90.39386,38.81261,135],[-90.39389,38.81259,136],[-90.39391,38.81257,136],[-90.39394,38.81255,136],[-90.39397,38.81252,136],[-90.394,38.8125,137],[-90.39403,38.81248,137],[-90.39405,38.81247,137],[-90.39408,38.81245,137],[-90.39411,38.81242,137],[-90.39413,38.8124,137],[-90.39416,38.81238,137],[-90.39419,38.81235,137],[-90.39421,38.81233,137],[-90.39424,38.81231,137],[-90.39427,38.81229,137],[-90.39429,38.81227,137],[-90.39432,38.81225,137],[-90.39435,38.81222,138],[-90.39438,38.8122,138],[-90.3944,38.81218,138],[-90.39443,38.81215,138],[-90.39446,38.81213,137],[-90.39448,38.81211,137],[-90.3945,38.81209,137],[-90.39453,38.81205,137],[-90.39457,38.81202,137],[-90.3946,38.812,137],[-90.39463,38.81198,137],[-90.39466,38.81196,137],[-90.39469,38.81194,137],[-90.39471,38.81191,136],[-90.39474,38.81188,136],[-90.39477,38.81186,135],[-90.3948,38.81184,135],[-90.39483,38.81182,135],[-90.39486,38.8118,134],[-90.39489,38.81178,134],[-90.39493,38.81175,133],[-90.39496,38.81173,133],[-90.39499,38.8117,133],[-90.39502,38.81169,133],[-90.39505,38.81166,132],[-90.39508,38.81164,132],[-90.39511,38.81162,132],[-90.39513,38.8116,132],[-90.39515,38.81158,132],[-90.39518,38.81156,132]]],
        "bbox": [
          -90.38748,
          38.81756,
          -90.3952,
          38.81113
        ]
      },
      "properties": {
        "name": "9.11.2021"
      }
    }
  ]
}