{
  "type": "FeatureCollection",
  "features": [
    {
      "type": "Feature",
      "geometry": {
        "type": "MultiLineString",
        "coordinates": [[[-90.39082,38.8107,138],[-90.39079,38.81065,139],[-90.39077,38.81068,139],[-90.39076,38.81072,139],[-90.39077,38.81075,138],[-90.3908,38.81077,138],[-90.39082,38.81081,138],[-90.39082,38.81085,138],[-90.39082,38.81088,138],[-90.39082,38.81092,139],[-90.3908,38.81095,139],[-90.3908,38.81098,139],[-90.3908,38.81102,140],[-90.39082,38.81106,140],[-90.39084,38.81109,140],[-90.39084,38.81111,140],[-90.39079,38.81113,141],[-90.39076,38.81115,141],[-90.39073,38.81117,141],[-90.3907,38.81119,141],[-90.39067,38.81121,142],[-90.39063,38.81123,142],[-90.3906,38.81124,142],[-90.39054,38.81124,142],[-90.3905,38.81124,142],[-90.39046,38.81123,142],[-90.39043,38.81122,142],[-90.39038,38.81121,142],[-90.39035,38.81121,142],[-90.3903,38.81121,142],[-90.39025,38.8112,143],[-90.39022,38.81119,143],[-90.39018,38.81118,144],[-90.39013,38.81117,144],[-90.39008,38.81116,145],[-90.39004,38.81116,146],[-90.39,38.81116,146],[-90.38996,38.81117,147],[-90.38992,38.81118,147],[-90.38988,38.81119,148],[-90.38985,38.8112,148],[-90.38981,38.81122,149],[-90.38978,38.81123,149],[-90.38974,38.81123,150],[-90.38969,38.81123,150],[-90.38965,38.81123,150],[-90.38961,38.81123,151],[-90.38957,38.81123,151],[-90.38952,38.81124,151],[-90.38947,38.81126,151],[-90.38944,38.81127,152],[-90.3894,38.81129,152],[-90.38936,38.81131,152],[-90.38933,38.81133,152],[-90.3893,38.81135,152],[-90.38925,38.81134,152],[-90.38922,38.81135,152],[-90.38918,38.81136,152],[-90.38913,38.81138,152],[-90.38909,38.81139,153],[-90.38905,38.81141,154],[-90.38902,38.81143,155],[-90.38897,38.81145,156],[-90.38894,38.81147,157],[-90.38892,38.81149,157],[-90.38888,38.81152,159],[-90.38886,38.81154,159],[-90.38883,38.81157,160],[-90.3888,38.81159,161],[-90.38877,38.81161,161],[-90.38873,38.81163,162],[-90.38869,38.81165,163],[-90.38866,38.81166,164],[-90.38862,38.81167,164],[-90.38858,38.81169,164],[-90.38854,38.81171,165],[-90.38851,38.81172,165],[-90.38849,38.81175,165],[-90.38846,38.81179,165],[-90.38846,38.81182,165],[-90.38849,38.81186,164],[-90.38851,38.81188,164],[-90.38854,38.8119,163],[-90.38858,38.81191,162],[-90.38861,38.81194,162],[-90.38863,38.81196,161],[-90.38865,38.81199,161],[-90.38866,38.81203,161],[-90.38865,38.81208,162],[-90.3886,38.81212,163],[-90.38858,38.81217,164],[-90.38856,38.81219,164],[-90.38852,38.81221,165],[-90.38849,38.81223,165],[-90.38847,38.81227,167],[-90.38845,38.8123,168],[-90.38844,38.81235,169],[-90.38845,38.8124,170],[-90.38845,38.81245,171],[-90.38842,38.81249,172],[-90.38839,38.81254,174],[-90.38832,38.81256,176],[-90.38826,38.81259,178],[-90.38822,38.81261,179],[-90.38819,38.81263,180],[-90.38816,38.81266,182],[-90.38813,38.81269,183],[-90.3881,38.8127,184],[-90.38807,38.81273,186],[-90.38806,38.81276,187],[-90.38806,38.8128,188],[-90.38805,38.81283,188],[-90.38803,38.81286,188],[-90.388,38.81289,189],[-90.38799,38.81294,190],[-90.38798,38.81297,190],[-90.38799,38.81301,190],[-90.38798,38.81304,191],[-90.38797,38.81307,191],[-90.38794,38.81309,192],[-90.38791,38.8131,192],[-90.38789,38.81313,193],[-90.38789,38.81316,193],[-90.38785,38.81319,194],[-90.38783,38.81321,194],[-90.3878,38.81321,194],[-90.38777,38.81324,194],[-90.38773,38.81324,194],[-90.38769,38.81324,194],[-90.38764,38.81324,194],[-90.3876,38.81325,194],[-90.38756,38.81327,194],[-90.38754,38.8133,194],[-90.38752,38.81334,194],[-90.38751,38.81337,194],[-90.3875,38.8134,194],[-90.38749,38.81344,194],[-90.3875,38.81347,194],[-90.3875,38.8135,195],[-90.38749,38.81353,195],[-90.38747,38.81356,195],[-90.38746,38.81359,195],[-90.38745,38.81362,195],[-90.38745,38.81366,196],[-90.38746,38.81369,196],[-90.38746,38.81373,197],[-90.38745,38.81377,198],[-90.38745,38.8138,198],[-90.38747,38.81383,199],[-90.3875,38.81385,199],[-90.38755,38.81388,199],[-90.38758,38.81391,200],[-90.38763,38.81393,200],[-90.38766,38.81394,200],[-90.38771,38.81395,200],[-90.38774,38.81396,200],[-90.38778,38.81397,199],[-90.38782,38.81397,199],[-90.38787,38.81396,199],[-90.3879,38.81395,199],[-90.38793,38.81393,199],[-90.38796,38.81393,199],[-90.388,38.81393,199],[-90.38804,38.81393,199],[-90.38808,38.81392,199],[-90.38812,38.81392,198],[-90.38816,38.81392,198],[-90.3882,38.81392,198],[-90.38824,38.81392,198],[-90.38828,38.81392,198],[-90.38832,38.81393,198],[-90.38837,38.81394,197],[-90.38842,38.81395,197],[-90.38846,38.81395,196],[-90.38851,38.81396,196],[-90.38856,38.81397,196],[-90.3886,38.81398,195],[-90.38864,38.81399,195],[-90.38868,38.814,194],[-90.38871,38.814,194],[-90.38875,38.81401,193],[-90.38879,38.81403,193],[-90.38883,38.81404,192],[-90.38887,38.81404,192],[-90.38892,38.81404,191],[-90.38898,38.81404,191],[-90.38902,38.81404,191],[-90.38905,38.81406,191],[-90.38908,38.81409,191],[-90.38912,38.8141,191],[-90.38916,38.8141,191],[-90.38922,38.81411,190],[-90.38926,38.81412,190],[-90.38929,38.81414,190],[-90.38933,38.81417,190],[-90.38936,38.81419,189],[-90.38939,38.81419,189],[-90.38941,38.81422,188],[-90.38942,38.81425,188],[-90.38942,38.81429,189],[-90.38941,38.81434,189],[-90.38939,38.81437,190],[-90.38937,38.8144,190],[-90.38937,38.81444,190],[-90.38937,38.81448,190],[-90.38936,38.81453,190],[-90.38938,38.81458,190],[-90.3894,38.81463,190],[-90.38947,38.81467,190],[-90.38953,38.8147,191],[-90.38961,38.81474,191],[-90.38967,38.81478,191],[-90.38974,38.81482,190],[-90.3898,38.81485,190],[-90.38987,38.81489,190],[-90.38991,38.81494,189],[-90.38995,38.815,189],[-90.38999,38.81505,187],[-90.39002,38.81511,186],[-90.39007,38.81516,184],[-90.39014,38.81521,183],[-90.3902,38.81524,182],[-90.39027,38.81526,182],[-90.39035,38.8153,182],[-90.39042,38.81531,182],[-90.39051,38.81532,183],[-90.39058,38.81535,183],[-90.39064,38.81538,184],[-90.39071,38.81542,184],[-90.39079,38.81545,185],[-90.39087,38.81547,185],[-90.39093,38.81547,185],[-90.39097,38.81547,185],[-90.39101,38.81548,186],[-90.39105,38.81548,186],[-90.39109,38.81549,186],[-90.39114,38.81549,186],[-90.39118,38.81548,186],[-90.39123,38.81547,185],[-90.39127,38.81547,185],[-90.3913,38.81547,185],[-90.39134,38.81548,185],[-90.39138,38.81548,185],[-90.39143,38.81549,184],[-90.39147,38.8155,184],[-90.3915,38.81552,184],[-90.39152,38.81554,184],[-90.39156,38.81556,183],[-90.39158,38.81558,183],[-90.3916,38.8156,182],[-90.39164,38.81563,182],[-90.39168,38.81564,181],[-90.39172,38.81565,180],[-90.39175,38.81565,180],[-90.39179,38.81564,179],[-90.39183,38.81564,178],[-90.39187,38.81564,177],[-90.3919,38.81566,176],[-90.39193,38.81567,175],[-90.39195,38.8157,174],[-90.39191,38.8157,175],[-90.39188,38.81569,176],[-90.39183,38.8157,177],[-90.3918,38.81571,178],[-90.39175,38.81573,179],[-90.39172,38.81574,179],[-90.39173,38.81577,178],[-90.39174,38.81581,178],[-90.39174,38.81584,177],[-90.39172,38.81587,177],[-90.3917,38.8159,177],[-90.3917,38.81594,176],[-90.3917,38.81597,176],[-90.3917,38.816,175],[-90.39169,38.81604,174],[-90.39167,38.81608,174],[-90.39166,38.81611,174],[-90.39166,38.81614,173],[-90.39165,38.81617,172],[-90.39163,38.8162,171],[-90.39159,38.81623,170],[-90.39157,38.81625,170],[-90.39154,38.81628,170],[-90.39153,38.81631,169],[-90.39151,38.81635,168],[-90.39151,38.81638,168],[-90.39151,38.81642,166],[-90.39149,38.81645,166],[-90.39146,38.81648,166],[-90.39143,38.8165,166],[-90.39139,38.81652,166],[-90.39136,38.81654,166],[-90.39137,38.81657,165],[-90.39136,38.8166,164],[-90.39135,38.81663,163],[-90.39133,38.81666,163],[-90.3913,38.81668,162],[-90.39127,38.81671,162],[-90.39123,38.81673,162],[-90.3912,38.81675,162],[-90.39117,38.81677,162],[-90.39114,38.8168,161],[-90.3911,38.81681,161],[-90.39106,38.81679,162],[-90.39105,38.81676,163],[-90.39104,38.81671,165],[-90.39101,38.81666,166],[-90.39095,38.81663,167],[-90.39093,38.81666,166],[-90.3909,38.81667,166],[-90.39088,38.81669,166],[-90.39085,38.81671,166],[-90.39082,38.81673,165],[-90.39079,38.81674,165],[-90.39077,38.81677,165],[-90.39072,38.81679,165],[-90.39069,38.8168,165],[-90.39065,38.81681,165],[-90.39062,38.81684,165],[-90.39059,38.81686,165],[-90.39057,38.81689,165],[-90.39058,38.81691,165],[-90.39056,38.81694,165],[-90.39053,38.81696,164],[-90.3905,38.81698,164],[-90.39049,38.81701,163],[-90.39047,38.81704,162],[-90.39047,38.81708,161],[-90.39048,38.81711,160],[-90.3905,38.81713,159],[-90.39051,38.81716,158],[-90.3905,38.81719,157],[-90.39046,38.81718,157],[-90.3904,38.81719,157],[-90.39048,38.81722,156],[-90.3905,38.81729,153],[-90.39054,38.81735,151],[-90.39053,38.81741,149],[-90.39052,38.81746,147],[-90.39058,38.81751,145],[-90.39061,38.81753,144],[-90.39064,38.81755,143],[-90.39068,38.81756,143],[-90.39071,38.81756,142],[-90.39072,38.8176,141],[-90.39071,38.81763,141],[-90.39067,38.81765,141],[-90.39064,38.81767,141],[-90.3906,38.81768,141],[-90.39056,38.81769,141],[-90.39052,38.8177,142],[-90.39047,38.81772,142],[-90.39044,38.81775,141],[-90.3904,38.81776,142],[-90.39037,38.81778,141],[-90.39032,38.81779,142],[-90.39028,38.8178,142],[-90.39024,38.81781,143],[-90.3902,38.81781,144],[-90.39017,38.81781,144],[-90.39012,38.8178,145],[-90.39008,38.8178,146],[-90.39004,38.8178,146],[-90.39,38.81781,147],[-90.38996,38.81781,147],[-90.38992,38.81783,147],[-90.38988,38.81784,148],[-90.38984,38.81785,148],[-90.3898,38.81785,149],[-90.38975,38.81786,149],[-90.3897,38.81786,149],[-90.38967,38.81788,149],[-90.38963,38.8179,149],[-90.38957,38.8179,149],[-90.38952,38.81791,149],[-90.38948,38.81792,149],[-90.38945,38.81794,149],[-90.38941,38.81796,149],[-90.38937,38.81796,150],[-90.38933,38.81797,150],[-90.38929,38.81798,150],[-90.38924,38.81797,151],[-90.3892,38.81796,152],[-90.38916,38.81796,153],[-90.38912,38.81797,153],[-90.38907,38.81797,155],[-90.38903,38.81796,156],[-90.389,38.81796,157],[-90.38895,38.81797,158],[-90.38891,38.81798,158],[-90.38889,38.81802,157],[-90.38887,38.81806,157],[-90.38884,38.81808,157],[-90.3888,38.81811,156],[-90.38876,38.81813,156],[-90.38872,38.81815,156],[-90.38869,38.81818,155],[-90.38866,38.81821,154],[-90.38862,38.81823,154],[-90.38858,38.81825,154],[-90.38855,38.81827,152],[-90.38851,38.81828,152],[-90.38847,38.8183,151],[-90.38842,38.81831,151],[-90.3884,38.81834,149],[-90.38838,38.81838,148],[-90.38835,38.8184,147],[-90.38833,38.81843,145],[-90.38831,38.81846,144],[-90.38828,38.81849,143],[-90.38824,38.81852,142],[-90.38821,38.81854,142],[-90.38818,38.81857,141],[-90.38815,38.81859,141],[-90.38811,38.81861,141],[-90.38807,38.81862,141],[-90.38803,38.81862,142],[-90.38799,38.81863,142],[-90.38794,38.81864,143],[-90.38791,38.81865,143],[-90.38787,38.81867,143],[-90.38784,38.8187,143],[-90.38781,38.81873,143],[-90.38778,38.81875,144],[-90.38774,38.81876,144],[-90.3877,38.81878,143],[-90.38767,38.8188,143],[-90.38762,38.81882,143],[-90.38759,38.81885,142],[-90.38754,38.81888,142],[-90.38751,38.81891,141],[-90.38748,38.81893,140],[-90.38745,38.81895,140],[-90.38743,38.81898,139],[-90.38741,38.81901,138],[-90.38738,38.81904,137],[-90.38736,38.81906,136],[-90.38731,38.81908,135],[-90.38728,38.8191,134],[-90.38724,38.81912,134],[-90.3872,38.81913,133],[-90.38717,38.81915,132],[-90.38713,38.81917,132],[-90.3871,38.81919,132],[-90.38707,38.81921,132],[-90.38703,38.81923,132],[-90.387,38.81925,132],[-90.38696,38.81927,132],[-90.38693,38.81929,132],[-90.3869,38.81931,132],[-90.38685,38.81933,132],[-90.38681,38.81934,133],[-90.38677,38.81935,133],[-90.38674,38.81937,133],[-90.38671,38.81939,132],[-90.38669,38.81942,132],[-90.38666,38.81945,131],[-90.38665,38.81948,131],[-90.38665,38.8195,131],[-90.38667,38.81953,131],[-90.3867,38.81955,131],[-90.38666,38.81954,131],[-90.38662,38.81954,131],[-90.38659,38.81953,131],[-90.38661,38.81951,131],[-90.38664,38.8195,131],[-90.38668,38.8195,131],[-90.38665,38.81951,131],[-90.38661,38.81953,131],[-90.38657,38.81955,131],[-90.38655,38.81957,131],[-90.38653,38.8196,131],[-90.3865,38.81961,131],[-90.38646,38.81961,131],[-90.38642,38.81962,131],[-90.38638,38.81963,131],[-90.38634,38.81964,131],[-90.38631,38.81965,131],[-90.38628,38.81967,131],[-90.38624,38.81968,131],[-90.3862,38.81968,131],[-90.38615,38.81969,131],[-90.38611,38.8197,131],[-90.38607,38.8197,131],[-90.38603,38.8197,131],[-90.38599,38.8197,131],[-90.38595,38.8197,131],[-90.38591,38.81971,131],[-90.38588,38.81972,131],[-90.38584,38.81974,131],[-90.3858,38.81976,131],[-90.38576,38.81976,131],[-90.38574,38.81973,131],[-90.38579,38.81973,131],[-90.38583,38.81972,131],[-90.38586,38.81971,131],[-90.38589,38.8197,131],[-90.38592,38.81968,132],[-90.38595,38.81966,133],[-90.38598,38.81964,133],[-90.38601,38.81963,134],[-90.38607,38.81961,134],[-90.38611,38.8196,134],[-90.38614,38.81959,134],[-90.38618,38.81959,133],[-90.38622,38.81959,133],[-90.38627,38.8196,132],[-90.38631,38.81959,132],[-90.38636,38.81959,131],[-90.38641,38.81959,131],[-90.38645,38.81959,131],[-90.38649,38.81959,131],[-90.38652,38.81956,131],[-90.38656,38.81954,131],[-90.3866,38.81953,131],[-90.38663,38.81951,131],[-90.38667,38.8195,131],[-90.38668,38.81947,131],[-90.38671,38.81945,131],[-90.38674,38.81942,132],[-90.38675,38.81939,132],[-90.38676,38.81936,133],[-90.38679,38.81934,133],[-90.38683,38.81933,133],[-90.38687,38.81932,132],[-90.38691,38.81931,132],[-90.38696,38.8193,132],[-90.38699,38.81929,132],[-90.38704,38.81927,132],[-90.38708,38.81924,132],[-90.38711,38.81923,132],[-90.38714,38.8192,132],[-90.38716,38.81918,132],[-90.38719,38.81915,132],[-90.38723,38.81914,133],[-90.38727,38.81913,133],[-90.38732,38.81911,134],[-90.38736,38.81909,135],[-90.38739,38.81908,135],[-90.38741,38.81904,137],[-90.38742,38.81901,138],[-90.38744,38.81898,139],[-90.38747,38.81895,140],[-90.38749,38.81892,141],[-90.38753,38.81891,141],[-90.38757,38.8189,141],[-90.38762,38.8189,141],[-90.38766,38.81889,141],[-90.38769,38.81888,142],[-90.38773,38.81887,142],[-90.38778,38.81886,142],[-90.38782,38.81883,142],[-90.38784,38.81881,142],[-90.38787,38.81879,142],[-90.38791,38.81878,141],[-90.38795,38.81877,141],[-90.38799,38.81875,141],[-90.38803,38.81873,141],[-90.38807,38.81872,140],[-90.38813,38.81871,140],[-90.38816,38.8187,139],[-90.3882,38.81868,139],[-90.38823,38.81866,139],[-90.38826,38.81864,138],[-90.3883,38.81861,138],[-90.38833,38.81859,139],[-90.38836,38.81856,140],[-90.38839,38.81852,141],[-90.38842,38.8185,142],[-90.38844,38.81848,143],[-90.38846,38.81845,144],[-90.38846,38.81842,146],[-90.38848,38.81839,147],[-90.38852,38.81837,148],[-90.38854,38.81835,149],[-90.38857,38.81832,150],[-90.38861,38.8183,151],[-90.38864,38.81829,151],[-90.38868,38.81827,151],[-90.38872,38.81826,151],[-90.38876,38.81825,151],[-90.3888,38.81824,151],[-90.38883,38.81821,151],[-90.38885,38.81818,152],[-90.38888,38.81816,153],[-90.38891,38.81814,153],[-90.38894,38.81812,153],[-90.38898,38.81812,152],[-90.38902,38.81811,151],[-90.38907,38.81811,150],[-90.3891,38.8181,149],[-90.38914,38.81808,149],[-90.38918,38.81808,148],[-90.38922,38.81807,148],[-90.38925,38.81806,148],[-90.3893,38.81805,148],[-90.38934,38.81805,148],[-90.3894,38.81804,147],[-90.38945,38.81803,147],[-90.38949,38.81803,147],[-90.38952,38.81802,147],[-90.38956,38.81801,147],[-90.3896,38.81799,148],[-90.38964,38.81797,148],[-90.38967,38.81795,148],[-90.38971,38.81794,148],[-90.38973,38.81792,148],[-90.38976,38.81789,148],[-90.38981,38.81789,148],[-90.38986,38.81789,147],[-90.38991,38.81789,147],[-90.38995,38.81789,146],[-90.38998,38.81788,146],[-90.39002,38.81787,145],[-90.39006,38.81787,145],[-90.39011,38.81788,144],[-90.39015,38.81788,143],[-90.39019,38.81787,143],[-90.39024,38.81786,142],[-90.39028,38.81786,142],[-90.39032,38.81784,141],[-90.39036,38.81783,141],[-90.39041,38.81783,141],[-90.39045,38.81782,140],[-90.39049,38.81782,140],[-90.39052,38.8178,140],[-90.39056,38.81779,139],[-90.3906,38.81777,139],[-90.39064,38.81776,139],[-90.39067,38.81774,139],[-90.3907,38.81771,139],[-90.39072,38.81769,139],[-90.3907,38.81766,140],[-90.39073,38.81765,140],[-90.39076,38.81762,140],[-90.39078,38.81759,141],[-90.39081,38.81757,141],[-90.39083,38.81755,141],[-90.39084,38.81752,141],[-90.39086,38.81748,142],[-90.39089,38.81745,142],[-90.39093,38.81743,143],[-90.39096,38.81739,143],[-90.39098,38.81734,144],[-90.391,38.81731,145],[-90.39102,38.81728,146],[-90.39105,38.81724,146],[-90.39109,38.81722,146],[-90.39112,38.8172,146],[-90.39115,38.81718,147],[-90.39119,38.81717,146],[-90.39123,38.81716,146],[-90.39125,38.81714,147],[-90.39129,38.81711,147],[-90.39132,38.81708,148],[-90.39136,38.81706,148],[-90.39141,38.81705,148],[-90.39147,38.81705,147],[-90.39152,38.81704,146],[-90.39156,38.81702,146],[-90.3916,38.817,146],[-90.39163,38.81699,146],[-90.39166,38.81696,147],[-90.39168,38.81693,148],[-90.39168,38.8169,149],[-90.39169,38.81687,150],[-90.3917,38.81684,150],[-90.39173,38.81681,151],[-90.39174,38.81678,152],[-90.39177,38.81676,152],[-90.39181,38.81674,152],[-90.39185,38.81671,152],[-90.39187,38.81668,152],[-90.3919,38.81665,152],[-90.39191,38.81663,152],[-90.39194,38.8166,152],[-90.39197,38.81656,152],[-90.392,38.81653,152],[-90.39202,38.8165,152],[-90.39204,38.81647,152],[-90.39205,38.81644,152],[-90.39206,38.8164,152],[-90.39206,38.81637,153],[-90.39207,38.81634,154],[-90.39209,38.8163,155],[-90.3921,38.81627,156],[-90.39212,38.81624,156],[-90.39215,38.81621,156],[-90.3922,38.81617,156],[-90.39228,38.81616,154],[-90.39236,38.81615,152],[-90.39243,38.81613,150],[-90.39251,38.8161,148],[-90.39258,38.81606,146],[-90.39262,38.81605,145],[-90.39265,38.81603,144],[-90.39265,38.81599,144],[-90.39265,38.81595,144],[-90.39265,38.81592,144],[-90.39265,38.81588,144],[-90.39264,38.81586,144],[-90.39264,38.81582,144],[-90.39262,38.81579,146],[-90.3926,38.81576,147],[-90.39257,38.81573,149],[-90.39255,38.8157,150],[-90.39257,38.81567,150],[-90.39258,38.81564,150],[-90.39258,38.81561,151],[-90.39261,38.81559,150],[-90.39265,38.81557,149],[-90.39268,38.81555,149],[-90.39272,38.81553,147],[-90.39276,38.81548,147],[-90.39279,38.81546,147],[-90.39283,38.81543,147],[-90.39285,38.8154,147],[-90.39287,38.81537,148],[-90.3929,38.81534,148],[-90.39293,38.81532,147],[-90.39297,38.81531,147],[-90.393,38.8153,146],[-90.39304,38.81527,146],[-90.39307,38.81525,145],[-90.39309,38.81523,145],[-90.39311,38.81519,145],[-90.39312,38.81516,145],[-90.39311,38.81512,145],[-90.39308,38.81509,146],[-90.39307,38.81506,147],[-90.39306,38.81503,147],[-90.39304,38.815,148],[-90.39303,38.81496,147],[-90.39302,38.81493,147],[-90.39302,38.8149,147],[-90.39303,38.81486,147],[-90.39303,38.81481,147],[-90.39303,38.81478,146],[-90.39303,38.81474,146],[-90.39302,38.8147,146],[-90.39302,38.81467,146],[-90.393,38.81464,147],[-90.39298,38.81461,147],[-90.39295,38.81458,148],[-90.39293,38.81456,149],[-90.3929,38.81453,150],[-90.39286,38.81451,150],[-90.39283,38.81449,151],[-90.3928,38.81447,152],[-90.39277,38.81444,153],[-90.39275,38.81441,152],[-90.39272,38.81439,152],[-90.39269,38.81437,152],[-90.39266,38.81435,152],[-90.39262,38.81433,152],[-90.39257,38.81432,152],[-90.39253,38.8143,152],[-90.3925,38.81429,152],[-90.39246,38.81426,152],[-90.39243,38.81423,151],[-90.39239,38.8142,151],[-90.39236,38.81417,150],[-90.39233,38.81414,149],[-90.39231,38.81411,147],[-90.39229,38.81408,145],[-90.39226,38.81407,144],[-90.39226,38.81404,143],[-90.39229,38.81402,141],[-90.39232,38.81399,140],[-90.39235,38.81397,139],[-90.39236,38.81394,138],[-90.39237,38.81391,136],[-90.3924,38.81388,136],[-90.39242,38.81385,136],[-90.39246,38.81383,137],[-90.39248,38.81379,138],[-90.39249,38.81377,138],[-90.3925,38.81373,138],[-90.39252,38.81369,138],[-90.39254,38.81365,138],[-90.39255,38.81362,138],[-90.39257,38.81359,138],[-90.39257,38.81355,138],[-90.39258,38.81352,137],[-90.39259,38.81349,137],[-90.39259,38.81346,137],[-90.39256,38.81343,137],[-90.39253,38.8134,137],[-90.3925,38.81337,137],[-90.39248,38.81335,137],[-90.39244,38.81332,137],[-90.3924,38.81331,137],[-90.39237,38.81328,137],[-90.39236,38.81325,137],[-90.39234,38.81323,137],[-90.39233,38.8132,137],[-90.39229,38.81317,137],[-90.39227,38.81314,137],[-90.39225,38.81311,137],[-90.39222,38.81308,137],[-90.39218,38.81306,137],[-90.39214,38.81305,137],[-90.39211,38.81303,137],[-90.39207,38.81301,137],[-90.39204,38.813,137],[-90.392,38.81297,137],[-90.39198,38.81294,137],[-90.39195,38.81291,136],[-90.39192,38.81289,136],[-90.39188,38.81287,137],[-90.39184,38.81285,137],[-90.3918,38.81283,137],[-90.39175,38.81282,138],[-90.39171,38.81281,138],[-90.39166,38.81279,139],[-90.39164,38.81276,139],[-90.39162,38.81274,139],[-90.39158,38.8127,138],[-90.39156,38.81267,138],[-90.39156,38.81264,137],[-90.39156,38.8126,137],[-90.39159,38.81257,136],[-90.39162,38.81255,135],[-90.39164,38.81251,135],[-90.39166,38.81247,135],[-90.39168,38.81243,135],[-90.3917,38.8124,136],[-90.39173,38.81237,136],[-90.39176,38.81234,136],[-90.39178,38.81232,136],[-90.3918,38.81228,137],[-90.39182,38.81226,137],[-90.39184,38.81223,137],[-90.39186,38.8122,137],[-90.3919,38.81218,137],[-90.39194,38.81217,137],[-90.39198,38.81217,137],[-90.39202,38.81218,136],[-90.39206,38.81218,136],[-90.39211,38.81219,136],[-90.39215,38.81219,136],[-90.39218,38.8122,136],[-90.39222,38.8122,136],[-90.39226,38.81221,135],[-90.39231,38.81222,135],[-90.39235,38.81224,135],[-90.39238,38.81227,135],[-90.39243,38.81229,135],[-90.39246,38.81231,135],[-90.3925,38.81233,135],[-90.39253,38.81234,135],[-90.39257,38.81236,134],[-90.39261,38.81238,134],[-90.39264,38.8124,134],[-90.39268,38.81242,134],[-90.39272,38.81245,134],[-90.39275,38.81246,134],[-90.39279,38.81248,133],[-90.39282,38.8125,134],[-90.39286,38.81252,134],[-90.3929,38.81254,134],[-90.39293,38.81256,134],[-90.39296,38.81258,134],[-90.39299,38.81261,134],[-90.39303,38.81263,134],[-90.39307,38.81265,134],[-90.3931,38.81268,134],[-90.39313,38.81271,134],[-90.39316,38.81274,134],[-90.39319,38.81278,134],[-90.39321,38.8128,134],[-90.39324,38.81282,134],[-90.39325,38.81285,134],[-90.39326,38.81288,134],[-90.39326,38.81292,133],[-90.39323,38.81294,133],[-90.3932,38.81297,133],[-90.39317,38.81299,133],[-90.39315,38.81302,133],[-90.39313,38.81304,133],[-90.39311,38.81307,132],[-90.39309,38.8131,132],[-90.39307,38.81313,132],[-90.39304,38.81316,133],[-90.39301,38.81318,133],[-90.39298,38.81321,133],[-90.39296,38.81324,133],[-90.39293,38.81327,133],[-90.3929,38.8133,134],[-90.39288,38.81333,134],[-90.39284,38.81335,134],[-90.3928,38.81338,135],[-90.39278,38.81341,135],[-90.39275,38.81343,136],[-90.39272,38.81346,136],[-90.3927,38.81349,137],[-90.39266,38.81352,137],[-90.39264,38.81354,137],[-90.39261,38.81357,138],[-90.39258,38.8136,138],[-90.39255,38.81363,138],[-90.39252,38.81367,138],[-90.39251,38.8137,138],[-90.3925,38.81372,138],[-90.39248,38.81375,138],[-90.39246,38.81378,137],[-90.39244,38.81382,137],[-90.39241,38.81384,136],[-90.39238,38.81386,136],[-90.39235,38.81388,135],[-90.39232,38.81391,136],[-90.39231,38.81394,137],[-90.39229,38.81396,138],[-90.39228,38.81399,140],[-90.39223,38.81402,141],[-90.39221,38.81404,142],[-90.39219,38.81406,144],[-90.39216,38.81404,143],[-90.39212,38.81402,142],[-90.3921,38.81399,141],[-90.39208,38.81396,139],[-90.39205,38.81394,138],[-90.39203,38.81392,138],[-90.392,38.81389,137],[-90.39197,38.81386,137],[-90.39195,38.81383,138],[-90.39192,38.8138,139],[-90.3919,38.81377,140],[-90.39187,38.81374,141],[-90.39184,38.81372,141],[-90.39182,38.81369,142],[-90.3918,38.81367,142],[-90.39178,38.81364,142],[-90.39175,38.81362,142],[-90.39171,38.8136,142],[-90.39169,38.81357,143],[-90.39167,38.81354,143],[-90.39165,38.81351,144],[-90.39163,38.81349,145],[-90.3916,38.81346,146],[-90.39157,38.81342,147],[-90.39155,38.81339,148],[-90.39152,38.81336,148],[-90.3915,38.81333,149],[-90.39147,38.81331,149],[-90.39144,38.81329,149],[-90.39141,38.81327,150],[-90.39138,38.81325,150],[-90.39136,38.81322,151],[-90.39134,38.81319,151],[-90.39131,38.81316,151],[-90.39128,38.81314,151],[-90.39124,38.81312,152],[-90.39121,38.8131,152],[-90.39119,38.81307,152],[-90.39117,38.81305,153],[-90.39115,38.81302,152],[-90.39113,38.81299,152],[-90.3911,38.81296,151],[-90.39109,38.81293,151],[-90.39107,38.81289,150],[-90.39105,38.81286,149],[-90.39102,38.81283,149],[-90.39099,38.8128,149],[-90.39097,38.81276,148],[-90.39099,38.81274,147],[-90.391,38.81271,147],[-90.391,38.81268,146],[-90.391,38.81265,145],[-90.391,38.81261,144],[-90.39099,38.81258,144],[-90.39098,38.81254,143],[-90.39097,38.81251,142],[-90.39098,38.81247,143],[-90.39098,38.81243,144],[-90.39096,38.8124,145],[-90.39093,38.81237,146],[-90.39091,38.81234,146],[-90.39089,38.81231,147],[-90.39088,38.81227,148],[-90.39088,38.81223,149],[-90.39087,38.8122,149],[-90.39085,38.81218,149],[-90.39087,38.81215,149],[-90.39086,38.81212,149],[-90.39085,38.81209,149],[-90.39087,38.81206,149],[-90.39089,38.81202,149],[-90.39091,38.81199,149],[-90.39091,38.81195,149],[-90.39091,38.81192,149],[-90.39092,38.81189,149],[-90.39092,38.81185,148],[-90.39093,38.81182,148],[-90.39094,38.81179,147],[-90.39095,38.81176,147],[-90.39097,38.81173,147],[-90.39098,38.81169,146],[-90.39099,38.81165,145],[-90.39102,38.81162,144],[-90.39104,38.81159,144],[-90.39106,38.81156,143],[-90.39107,38.81152,143],[-90.39107,38.81149,142],[-90.39106,38.81146,142],[-90.39103,38.81142,142],[-90.39101,38.8114,141],[-90.39099,38.81138,141],[-90.39096,38.81135,141],[-90.39092,38.81132,141],[-90.39089,38.81129,141],[-90.39087,38.81126,141],[-90.39085,38.81123,141],[-90.39085,38.81119,141],[-90.39085,38.81116,141],[-90.39084,38.81113,141],[-90.39083,38.8111,140],[-90.39082,38.81106,140],[-90.39081,38.81102,140],[-90.3908,38.811,139],[-90.3908,38.81096,139],[-90.39079,38.81092,139],[-90.39077,38.81089,139],[-90.39075,38.81086,138],[-90.39073,38.81084,138],[-90.39069,38.81082,139],[-90.39065,38.8108,139],[-90.39062,38.81079,139],[-90.3906,38.81077,139],[-90.39056,38.81076,139],[-90.39051,38.81077,140],[-90.39047,38.81077,140],[-90.39043,38.81077,140],[-90.39039,38.81077,140],[-90.39036,38.81077,140],[-90.39032,38.81076,140],[-90.39027,38.81076,141],[-90.39023,38.81075,141],[-90.39018,38.81075,141],[-90.39015,38.81076,142],[-90.3901,38.81076,142],[-90.39006,38.81076,142],[-90.39001,38.81076,142],[-90.38997,38.81075,143],[-90.38993,38.81075,143],[-90.38989,38.81073,143],[-90.38985,38.81072,143],[-90.3898,38.81072,144],[-90.38975,38.8107,144],[-90.3897,38.8107,144],[-90.38964,38.81069,144],[-90.38959,38.81069,145],[-90.38954,38.81068,145],[-90.38951,38.81067,145],[-90.38947,38.81065,144],[-90.38943,38.81063,144],[-90.3894,38.81061,144],[-90.38937,38.81058,144],[-90.38936,38.81055,143],[-90.38933,38.81052,143],[-90.38932,38.81049,143],[-90.3893,38.81047,143],[-90.38927,38.81044,143],[-90.38925,38.8104,143],[-90.38924,38.81037,143],[-90.38924,38.81033,143],[-90.38923,38.8103,142],[-90.38921,38.81027,142],[-90.3892,38.81023,143],[-90.38919,38.8102,143],[-90.38919,38.81017,143],[-90.38918,38.81014,143],[-90.38917,38.81011,143],[-90.38916,38.81009,143],[-90.38916,38.81006,143],[-90.38915,38.81002,144],[-90.38914,38.80999,144],[-90.38913,38.80996,144],[-90.38912,38.80992,144],[-90.38911,38.80988,145],[-90.3891,38.80986,145],[-90.38909,38.80982,145],[-90.38907,38.80979,145],[-90.38905,38.80976,145],[-90.38902,38.80973,145],[-90.389,38.8097,145],[-90.38897,38.80968,145],[-90.38895,38.80964,145],[-90.38894,38.80961,145],[-90.38893,38.80959,145],[-90.38892,38.80956,144],[-90.3889,38.80953,144],[-90.38889,38.80949,144],[-90.38887,38.80946,144],[-90.38885,38.80942,144],[-90.38884,38.80939,143],[-90.38881,38.80936,143],[-90.38878,38.80933,143],[-90.38877,38.8093,143],[-90.38876,38.80928,143],[-90.38876,38.80924,142],[-90.38874,38.8092,142],[-90.38872,38.80918,141],[-90.3887,38.80915,141],[-90.38869,38.80912,141],[-90.38868,38.80908,141],[-90.38867,38.80904,141],[-90.38865,38.80901,141],[-90.38863,38.80897,141],[-90.38862,38.80894,141],[-90.3886,38.8089,141],[-90.38858,38.80887,141],[-90.38857,38.80884,141],[-90.38856,38.80881,142],[-90.38855,38.80878,142],[-90.38855,38.80874,142],[-90.38854,38.8087,142],[-90.38853,38.80866,142],[-90.38852,38.80862,142],[-90.38851,38.80858,143],[-90.3885,38.80855,143],[-90.38848,38.80852,143],[-90.38847,38.80849,143],[-90.38847,38.80846,143],[-90.38847,38.80844,143],[-90.38848,38.8084,143],[-90.38848,38.80837,142],[-90.38849,38.80834,142],[-90.38849,38.80831,142],[-90.38848,38.80827,142],[-90.38847,38.80823,142],[-90.38847,38.8082,142],[-90.38847,38.80816,141],[-90.38846,38.80813,141],[-90.38845,38.80809,141],[-90.38844,38.80806,141],[-90.38843,38.80803,141],[-90.38842,38.80799,141],[-90.38841,38.80797,142],[-90.38841,38.80794,142],[-90.38839,38.80791,142],[-90.38838,38.80787,142],[-90.38838,38.80784,143],[-90.38837,38.80781,143],[-90.38837,38.80778,143],[-90.38838,38.80775,143],[-90.38838,38.80772,142],[-90.38837,38.8077,143],[-90.38834,38.80767,143],[-90.38832,38.80763,143],[-90.38831,38.80761,143],[-90.3883,38.80758,143],[-90.38829,38.80755,143],[-90.38828,38.80752,143],[-90.38828,38.80748,143],[-90.38827,38.80745,143],[-90.38825,38.80742,143],[-90.38824,38.80738,143],[-90.38823,38.80735,143],[-90.38821,38.80731,143],[-90.38821,38.80728,143],[-90.3882,38.80724,143],[-90.3882,38.8072,143],[-90.38818,38.80717,143],[-90.38817,38.80713,142],[-90.38817,38.8071,142],[-90.38817,38.80707,142],[-90.38816,38.80703,141],[-90.38816,38.807,141],[-90.38816,38.80696,140],[-90.38816,38.80692,140],[-90.38816,38.80688,140],[-90.38816,38.80685,139],[-90.38816,38.80683,139],[-90.38816,38.80679,139],[-90.38814,38.80676,139],[-90.38813,38.80672,139],[-90.38812,38.80669,139],[-90.38811,38.80667,139],[-90.3881,38.80664,140],[-90.38809,38.8066,140],[-90.38808,38.80657,140],[-90.38807,38.80654,141],[-90.38806,38.80651,141],[-90.38805,38.80648,141],[-90.38803,38.80645,142],[-90.38803,38.80641,142],[-90.38802,38.80638,142],[-90.388,38.80635,143],[-90.38798,38.80631,144],[-90.38797,38.80628,144],[-90.38796,38.80625,144],[-90.38795,38.80621,145],[-90.38795,38.80618,145],[-90.38795,38.80615,145],[-90.38796,38.80611,144],[-90.38796,38.80607,144],[-90.38797,38.80604,144],[-90.38797,38.80601,144],[-90.38797,38.80597,144],[-90.38797,38.80594,144],[-90.38797,38.8059,144],[-90.38797,38.80586,144],[-90.38796,38.80583,144],[-90.38794,38.8058,144],[-90.38793,38.80576,143],[-90.38791,38.80573,143],[-90.38789,38.8057,143],[-90.38789,38.80565,142],[-90.38789,38.80562,142],[-90.38789,38.80559,141],[-90.38788,38.80555,141],[-90.38787,38.80552,141],[-90.38786,38.80548,142],[-90.38786,38.80545,142],[-90.38786,38.80541,142],[-90.38786,38.80538,142],[-90.38786,38.80535,142],[-90.38785,38.80532,143],[-90.38784,38.80528,143],[-90.38784,38.80525,143],[-90.38783,38.80522,143],[-90.38781,38.80519,144],[-90.3878,38.80516,144],[-90.38779,38.80513,144],[-90.3878,38.80509,144],[-90.3878,38.80505,144],[-90.38779,38.80501,144],[-90.38779,38.80498,144],[-90.38778,38.80495,144],[-90.38778,38.80491,144],[-90.38778,38.80488,144],[-90.38778,38.80484,143],[-90.38778,38.80481,143],[-90.38777,38.80477,143],[-90.38777,38.80474,143],[-90.38776,38.8047,143],[-90.38774,38.80467,143],[-90.38772,38.80464,143],[-90.38771,38.80461,143],[-90.3877,38.80458,143],[-90.38768,38.80455,143],[-90.38766,38.80452,144],[-90.38764,38.80449,144],[-90.38761,38.80446,144],[-90.38758,38.80444,144],[-90.38755,38.80442,145],[-90.38751,38.80439,146],[-90.38748,38.80438,146],[-90.38744,38.80436,147],[-90.3874,38.80435,148],[-90.38737,38.80433,148],[-90.38736,38.80429,148],[-90.38735,38.80425,148],[-90.38735,38.80422,149],[-90.38736,38.80419,148],[-90.38739,38.80416,148],[-90.38742,38.80414,148],[-90.38745,38.80412,147],[-90.38748,38.8041,147],[-90.38751,38.80407,147],[-90.38752,38.80404,147],[-90.38751,38.804,147],[-90.3875,38.80397,147],[-90.38749,38.80393,148],[-90.38748,38.8039,148],[-90.38745,38.80387,149],[-90.38744,38.80384,150],[-90.38743,38.80381,151],[-90.38742,38.80378,152],[-90.38741,38.80375,153],[-90.38739,38.80372,155],[-90.38735,38.80368,156],[-90.38731,38.80366,157],[-90.38727,38.80363,158],[-90.38724,38.8036,158],[-90.38721,38.80357,159],[-90.38718,38.80354,159],[-90.38715,38.8035,159],[-90.38712,38.80348,159],[-90.3871,38.80344,159],[-90.38709,38.80341,159],[-90.38708,38.80338,159],[-90.38705,38.80334,159],[-90.38702,38.80332,159],[-90.38701,38.80329,159],[-90.38698,38.80325,158],[-90.38696,38.80323,158],[-90.38692,38.8032,157],[-90.38687,38.80319,157],[-90.38683,38.80318,157],[-90.3868,38.80316,157],[-90.38679,38.80313,156],[-90.3868,38.8031,156],[-90.38681,38.80307,155],[-90.38682,38.80304,155],[-90.38682,38.80301,155],[-90.38681,38.80298,155],[-90.38681,38.80294,155],[-90.3868,38.80291,155],[-90.38681,38.80288,155],[-90.3868,38.80284,155],[-90.38678,38.80282,155],[-90.38675,38.8028,155],[-90.38672,38.80277,156],[-90.38669,38.80275,157],[-90.38664,38.80275,157],[-90.3866,38.80275,158],[-90.38656,38.80274,159],[-90.38653,38.80273,160],[-90.38647,38.80273,161],[-90.38643,38.80273,162],[-90.3864,38.80271,163],[-90.38636,38.8027,163],[-90.38632,38.80269,164],[-90.38628,38.80269,165],[-90.38624,38.80268,165],[-90.3862,38.80268,166],[-90.38617,38.80268,166],[-90.38612,38.80268,167],[-90.38608,38.80268,167],[-90.38606,38.8027,168],[-90.38604,38.80273,168],[-90.386,38.80274,168],[-90.38598,38.80277,168],[-90.38601,38.80276,168],[-90.38603,38.80273,168],[-90.38604,38.80269,168],[-90.38603,38.80267,167],[-90.38604,38.80264,167],[-90.38606,38.80261,167],[-90.38609,38.80258,166],[-90.38612,38.80257,166],[-90.38616,38.80255,166],[-90.3862,38.80254,165],[-90.38624,38.80254,165],[-90.38626,38.80251,164],[-90.38627,38.80247,164],[-90.38628,38.80244,164],[-90.3863,38.80241,164],[-90.38632,38.80238,164],[-90.38632,38.80234,164],[-90.38632,38.80231,164],[-90.38632,38.80228,164],[-90.38632,38.80223,164],[-90.38631,38.8022,164],[-90.3863,38.80216,164],[-90.3863,38.80212,164],[-90.38629,38.80208,164],[-90.38627,38.80205,164],[-90.38626,38.80202,164],[-90.38627,38.80199,165],[-90.38629,38.80196,165],[-90.38631,38.80194,165],[-90.38634,38.80192,165],[-90.38636,38.80188,166],[-90.38637,38.80184,166],[-90.38638,38.80181,167],[-90.38638,38.80177,167],[-90.38638,38.80174,168],[-90.38638,38.8017,168],[-90.38638,38.80167,168],[-90.38637,38.80163,169],[-90.38635,38.80159,169],[-90.38633,38.80156,169],[-90.38633,38.80152,169],[-90.38633,38.80148,170],[-90.38636,38.80145,171],[-90.38638,38.80142,171],[-90.38639,38.80139,171],[-90.38638,38.80136,171],[-90.38637,38.80132,171],[-90.38638,38.80129,171],[-90.38639,38.80126,171],[-90.3864,38.80123,170],[-90.38641,38.8012,170],[-90.38642,38.80117,170],[-90.38644,38.80114,169],[-90.38648,38.80112,169],[-90.38651,38.80109,168],[-90.38654,38.80106,167],[-90.38656,38.80103,167],[-90.38656,38.801,166],[-90.38658,38.80097,166],[-90.38661,38.80094,165],[-90.38663,38.80091,165],[-90.38666,38.80088,164],[-90.38668,38.80084,164],[-90.3867,38.8008,163],[-90.38671,38.80077,163],[-90.38672,38.80073,163],[-90.38672,38.8007,163],[-90.38672,38.80067,163],[-90.38672,38.80064,163],[-90.38671,38.80061,163],[-90.38669,38.80057,162],[-90.38667,38.80054,163],[-90.38664,38.80051,163],[-90.38661,38.80049,163],[-90.38659,38.80046,163],[-90.38657,38.80042,163],[-90.38654,38.80039,164],[-90.38651,38.80036,164],[-90.38649,38.80033,164],[-90.38648,38.8003,164],[-90.38647,38.80026,165],[-90.38646,38.80023,165],[-90.38645,38.8002,165],[-90.38644,38.80017,165],[-90.38643,38.80013,165],[-90.38641,38.8001,165],[-90.3864,38.80006,165],[-90.38639,38.80003,165],[-90.38639,38.8,166],[-90.38638,38.79997,165],[-90.38639,38.79994,166],[-90.38637,38.79992,165],[-90.38633,38.7999,165],[-90.38637,38.79992,165],[-90.38639,38.7999,166],[-90.38634,38.79989,165],[-90.38634,38.79993,165],[-90.38634,38.79997,165],[-90.38636,38.80001,165],[-90.38637,38.80005,165],[-90.38638,38.80009,165],[-90.38639,38.80012,165],[-90.3864,38.80015,165],[-90.38641,38.80019,165],[-90.38643,38.80022,165],[-90.38646,38.80025,165],[-90.38649,38.80029,164],[-90.38652,38.80032,164],[-90.38654,38.80034,164],[-90.38655,38.80038,164],[-90.38655,38.80042,163],[-90.38656,38.80045,163],[-90.38658,38.80048,163],[-90.3866,38.80051,163],[-90.38662,38.80054,163],[-90.38663,38.80057,163],[-90.38663,38.8006,163],[-90.38662,38.80064,163],[-90.38662,38.80067,163],[-90.3866,38.8007,163],[-90.38659,38.80073,163],[-90.38656,38.80075,163],[-90.38653,38.80078,163],[-90.38651,38.80081,163],[-90.38649,38.80084,164],[-90.38646,38.80086,164],[-90.38643,38.80089,165],[-90.3864,38.80093,166],[-90.38638,38.80096,166],[-90.38636,38.80099,167],[-90.38634,38.80101,167],[-90.38631,38.80104,168],[-90.38629,38.80107,168],[-90.38626,38.8011,169],[-90.38625,38.80113,169],[-90.38625,38.80117,169],[-90.38625,38.8012,169],[-90.38626,38.80124,170],[-90.38627,38.80127,170],[-90.38628,38.80131,170],[-90.38629,38.80135,170],[-90.38631,38.80138,171],[-90.38633,38.80141,171],[-90.38634,38.80144,170],[-90.38634,38.80147,170],[-90.38635,38.8015,170],[-90.38634,38.80153,169],[-90.38634,38.80156,169],[-90.38634,38.8016,169],[-90.38634,38.80164,168],[-90.38635,38.80167,168],[-90.38636,38.80171,168],[-90.38637,38.80174,167],[-90.38636,38.80177,167],[-90.38635,38.80181,167],[-90.38635,38.80184,166],[-90.38635,38.80188,166],[-90.38635,38.80191,166],[-90.38637,38.80195,165],[-90.38639,38.80198,165],[-90.38641,38.80201,165],[-90.38642,38.80205,164],[-90.38643,38.80208,164],[-90.38644,38.80211,164],[-90.38644,38.80214,164],[-90.38645,38.80217,163],[-90.38644,38.80221,163],[-90.38643,38.80223,163],[-90.38642,38.80226,163],[-90.38641,38.80229,163],[-90.38642,38.80232,163],[-90.38642,38.80237,163],[-90.38641,38.8024,163],[-90.38638,38.80242,164],[-90.38633,38.80244,164],[-90.38629,38.80245,164],[-90.38625,38.80246,164],[-90.3862,38.80247,165],[-90.38616,38.80247,165],[-90.38612,38.80248,165],[-90.38607,38.80249,166],[-90.38603,38.8025,166],[-90.38599,38.80252,167],[-90.38594,38.80253,167],[-90.38589,38.80255,167],[-90.38585,38.80256,167],[-90.38581,38.80258,168],[-90.38577,38.80259,168],[-90.38573,38.8026,168],[-90.38569,38.80262,168],[-90.38565,38.80263,169],[-90.38561,38.80264,169],[-90.38556,38.80265,169],[-90.38551,38.80265,169],[-90.38547,38.80266,170],[-90.38543,38.80267,170],[-90.38539,38.80268,170],[-90.38536,38.80269,171],[-90.3854,38.8027,170],[-90.38545,38.8027,170],[-90.38548,38.80272,169],[-90.38548,38.80275,169],[-90.38547,38.80278,169],[-90.38545,38.80282,169],[-90.38543,38.80284,169],[-90.38542,38.80287,168],[-90.38543,38.80291,168],[-90.38545,38.80295,167],[-90.38546,38.80298,167],[-90.38547,38.80302,166],[-90.38547,38.80305,166],[-90.38547,38.80309,166],[-90.38548,38.80313,167],[-90.38549,38.80317,167],[-90.3855,38.80321,168],[-90.3855,38.80324,168],[-90.38552,38.80329,169],[-90.38553,38.80332,169],[-90.38556,38.80335,170],[-90.38557,38.80338,170],[-90.38557,38.80341,171],[-90.38558,38.80344,171],[-90.38562,38.80346,171],[-90.38566,38.80347,171],[-90.38569,38.80348,171],[-90.38573,38.80349,171],[-90.38576,38.80351,171],[-90.38579,38.80353,171],[-90.38581,38.80356,171],[-90.3858,38.80359,171],[-90.38584,38.80362,172],[-90.38586,38.80365,172],[-90.38588,38.80368,172],[-90.38589,38.80371,172],[-90.38589,38.80375,173],[-90.38589,38.80377,173],[-90.38589,38.80381,174],[-90.38588,38.80385,175],[-90.38588,38.80389,175],[-90.38588,38.80392,175],[-90.38588,38.80395,175],[-90.38589,38.80399,174],[-90.38591,38.80402,173],[-90.38593,38.80405,172],[-90.38596,38.80407,170],[-90.38597,38.80411,170],[-90.38598,38.80414,169],[-90.38601,38.80418,168],[-90.38605,38.8042,167],[-90.38608,38.80422,166],[-90.38612,38.80424,165],[-90.38615,38.80426,164],[-90.38618,38.80427,164],[-90.38622,38.80428,163],[-90.38625,38.8043,162],[-90.38629,38.80433,162],[-90.38631,38.80435,162],[-90.38634,38.80438,161],[-90.38636,38.80441,161],[-90.38639,38.80443,161],[-90.38641,38.80446,161],[-90.38643,38.80449,161],[-90.38647,38.80451,161],[-90.3865,38.80453,161],[-90.38654,38.80455,161],[-90.38658,38.80456,160],[-90.38661,38.80458,160],[-90.38664,38.80459,160],[-90.38668,38.8046,159],[-90.38672,38.8046,159],[-90.38676,38.80462,158],[-90.38679,38.80463,157],[-90.38682,38.80466,157],[-90.38686,38.80467,156],[-90.38689,38.80469,156],[-90.38693,38.80472,155],[-90.38696,38.80474,154],[-90.387,38.80473,154],[-90.38705,38.80473,153],[-90.38709,38.80473,152],[-90.38713,38.80472,152],[-90.38718,38.80471,151],[-90.38722,38.8047,150],[-90.38725,38.80469,150],[-90.38729,38.80469,149],[-90.38732,38.80469,149],[-90.38735,38.80472,149],[-90.38737,38.80475,148],[-90.38738,38.80477,148],[-90.38739,38.80481,148],[-90.3874,38.80484,148],[-90.3874,38.80488,148],[-90.38739,38.80491,148],[-90.38737,38.80494,149],[-90.38736,38.80497,149],[-90.38736,38.805,149],[-90.38737,38.80503,149],[-90.38738,38.80506,148],[-90.38739,38.8051,148],[-90.38738,38.80514,148],[-90.38738,38.80517,148],[-90.38738,38.8052,147],[-90.38739,38.80524,147],[-90.38739,38.80528,147],[-90.3874,38.80531,147],[-90.38744,38.80533,147],[-90.38748,38.80534,147],[-90.38749,38.80538,147],[-90.38748,38.80541,147],[-90.38748,38.80544,147],[-90.38747,38.80548,148],[-90.38747,38.80551,148],[-90.38747,38.80556,148],[-90.38748,38.80559,148],[-90.3875,38.80561,148],[-90.38752,38.80564,148],[-90.38754,38.80567,149],[-90.38756,38.8057,149],[-90.38758,38.80573,149],[-90.38761,38.80575,149],[-90.38763,38.80579,149],[-90.38764,38.80581,150],[-90.38764,38.80585,150],[-90.38762,38.80588,150],[-90.38761,38.80591,151],[-90.3876,38.80595,151],[-90.38762,38.80598,151],[-90.38763,38.80602,151],[-90.38763,38.80605,151],[-90.38763,38.80608,152],[-90.38763,38.80611,152],[-90.38764,38.80614,151],[-90.38764,38.80617,151],[-90.38764,38.8062,151],[-90.38764,38.80624,151],[-90.38764,38.80628,151],[-90.38765,38.80631,151],[-90.38766,38.80634,151],[-90.38767,38.80638,151],[-90.38768,38.80642,151],[-90.38769,38.80646,151],[-90.3877,38.80649,151],[-90.38771,38.80653,151],[-90.38773,38.80656,150],[-90.38773,38.80659,150],[-90.38774,38.80662,150],[-90.38774,38.80666,150],[-90.38775,38.80669,150],[-90.38775,38.80673,150],[-90.38776,38.80675,150],[-90.38777,38.80679,150],[-90.38777,38.80683,150],[-90.38778,38.80686,150],[-90.38778,38.80689,150],[-90.38778,38.80692,150],[-90.38777,38.80695,151],[-90.38776,38.80698,151],[-90.38777,38.80701,151],[-90.3878,38.80703,150],[-90.38784,38.80703,149],[-90.38789,38.80704,148],[-90.38793,38.80703,147],[-90.38797,38.80703,146],[-90.38801,38.80702,145],[-90.38806,38.80701,143],[-90.38809,38.807,142],[-90.38813,38.807,142],[-90.38817,38.80702,141],[-90.38819,38.80704,141],[-90.3882,38.80708,141],[-90.3882,38.80712,142],[-90.3882,38.80715,142],[-90.38821,38.80718,142],[-90.38821,38.80722,143],[-90.38821,38.80725,143],[-90.3882,38.80728,143],[-90.38819,38.80731,144],[-90.38819,38.80734,144],[-90.38819,38.80737,144],[-90.38819,38.80741,144],[-90.38821,38.80745,144],[-90.38822,38.80748,144],[-90.38824,38.80751,144],[-90.38826,38.80755,143],[-90.38828,38.80758,143],[-90.38829,38.80761,143],[-90.38831,38.80764,143],[-90.38832,38.80766,143],[-90.38833,38.8077,143],[-90.38834,38.80772,143],[-90.38835,38.80776,143],[-90.38836,38.80779,143],[-90.38838,38.80782,143],[-90.38839,38.80785,142],[-90.38839,38.80788,142],[-90.3884,38.80791,142],[-90.3884,38.80794,142],[-90.38842,38.80797,142],[-90.38843,38.808,141],[-90.38844,38.80803,141],[-90.38845,38.80807,141],[-90.38845,38.80811,141],[-90.38844,38.80813,142],[-90.38843,38.80817,142],[-90.38843,38.80821,142],[-90.38844,38.80823,142],[-90.38843,38.80826,143],[-90.38843,38.8083,143],[-90.38842,38.80833,144],[-90.38842,38.80837,144],[-90.38841,38.80841,144],[-90.38841,38.80844,144],[-90.38842,38.80848,144],[-90.38843,38.80851,144],[-90.38844,38.80854,144],[-90.38846,38.80858,144],[-90.38846,38.8086,144],[-90.38847,38.80863,143],[-90.38848,38.80867,143],[-90.3885,38.80871,143],[-90.38851,38.80874,142],[-90.38851,38.80878,142],[-90.38851,38.80881,142],[-90.38851,38.80885,142],[-90.38851,38.80888,142],[-90.38851,38.80891,142],[-90.38851,38.80894,142],[-90.38852,38.80898,142],[-90.38853,38.80901,142],[-90.38855,38.80905,142],[-90.38856,38.80908,142],[-90.38858,38.80912,142],[-90.38859,38.80915,142],[-90.38861,38.80919,142],[-90.38863,38.80922,142],[-90.38864,38.80925,143],[-90.38865,38.80928,143],[-90.38865,38.80932,144],[-90.38865,38.80935,144],[-90.38866,38.80938,145],[-90.38867,38.80941,145],[-90.38869,38.80944,146],[-90.38871,38.80948,146],[-90.38873,38.8095,146],[-90.38876,38.80953,146],[-90.38878,38.80957,147],[-90.3888,38.8096,147],[-90.38882,38.80962,147],[-90.38884,38.80965,147],[-90.38886,38.80968,147],[-90.38888,38.80971,147],[-90.3889,38.80973,146],[-90.38892,38.80976,146],[-90.38893,38.80979,147],[-90.38895,38.80982,147],[-90.38896,38.80985,147],[-90.38897,38.80989,147],[-90.38897,38.80992,147],[-90.38897,38.80995,147],[-90.38897,38.80998,148],[-90.38897,38.81002,148],[-90.38898,38.81006,148],[-90.38898,38.81008,148],[-90.38899,38.81012,147],[-90.389,38.81015,147],[-90.38901,38.81017,147],[-90.38903,38.81021,146],[-90.38904,38.81024,146],[-90.38905,38.81028,145],[-90.38906,38.81031,145],[-90.38907,38.81034,145],[-90.38909,38.81037,145],[-90.38911,38.8104,145],[-90.38913,38.81043,144],[-90.38916,38.81046,144],[-90.38918,38.8105,144],[-90.38921,38.81052,144],[-90.38923,38.81055,144],[-90.38925,38.81057,144],[-90.38928,38.81059,144],[-90.38931,38.81061,145],[-90.38935,38.81063,145],[-90.38938,38.81065,145],[-90.38941,38.81067,145],[-90.38944,38.81068,145],[-90.38949,38.8107,145],[-90.38953,38.81071,145],[-90.38958,38.81072,145],[-90.38962,38.81073,145],[-90.38966,38.81075,145],[-90.38969,38.81076,145],[-90.38973,38.81078,145],[-90.38977,38.8108,145],[-90.38982,38.81081,145],[-90.38986,38.8108,144],[-90.38989,38.81078,144],[-90.38992,38.81076,143],[-90.38996,38.81075,143],[-90.38999,38.81074,142],[-90.39004,38.81073,142],[-90.39008,38.81072,141],[-90.39011,38.81072,141],[-90.39016,38.81072,141],[-90.39021,38.81072,141],[-90.39025,38.81071,140],[-90.3903,38.8107,140],[-90.39034,38.8107,140],[-90.39039,38.81069,140],[-90.39042,38.81069,139],[-90.39046,38.81069,139],[-90.39051,38.81069,139],[-90.39054,38.81069,139],[-90.39058,38.81068,139],[-90.39062,38.81066,139],[-90.39066,38.81065,139],[-90.3907,38.81065,139],[-90.39075,38.81064,139],[-90.39079,38.81064,139],[-90.39084,38.81064,139]]],
        "bbox": [
          -90.38536,
          38.81976,
          -90.39326,
          38.79989
        ]
      },
      "properties": {
        "name": "4.3.2022"
      }
    }
  ]
}