{
  "type": "FeatureCollection",
  "features": [
    {
      "type": "Feature",
      "geometry": {
        "type": "MultiLineString",
        "coordinates": [[[-90.3951,38.81155,132],[-90.39513,38.81157,132],[-90.39509,38.81156,132],[-90.39509,38.81159,132],[-90.39512,38.81161,132],[-90.39513,38.81164,132],[-90.39511,38.81166,132],[-90.39511,38.81169,133],[-90.39509,38.81172,133],[-90.39506,38.81173,133],[-90.39502,38.81173,133],[-90.39497,38.81175,133],[-90.39494,38.81175,133],[-90.3949,38.81177,134],[-90.39488,38.81179,134],[-90.39485,38.81181,134],[-90.39482,38.81183,135],[-90.39479,38.81185,135],[-90.39476,38.81188,136],[-90.39474,38.81191,136],[-90.39471,38.81193,136],[-90.39468,38.81196,137],[-90.39466,38.81198,137],[-90.39463,38.812,137],[-90.39459,38.81203,137],[-90.39455,38.81205,137],[-90.39452,38.81207,137],[-90.39451,38.81209,137],[-90.39448,38.81212,137],[-90.39445,38.81214,137],[-90.39445,38.81217,137],[-90.39442,38.81219,138],[-90.39438,38.8122,138],[-90.39435,38.81223,137],[-90.39432,38.81226,137],[-90.39429,38.81228,137],[-90.39426,38.8123,137],[-90.39423,38.81232,137],[-90.3942,38.81235,137],[-90.39417,38.81238,137],[-90.39414,38.8124,137],[-90.39411,38.81242,137],[-90.39409,38.81244,137],[-90.39407,38.81247,137],[-90.39404,38.8125,137],[-90.39401,38.81251,136],[-90.39398,38.81253,136],[-90.39395,38.81255,136],[-90.39392,38.81256,136],[-90.3939,38.81258,136],[-90.39387,38.81261,135],[-90.39383,38.81263,135],[-90.3938,38.81265,135],[-90.39377,38.81267,134],[-90.39374,38.81268,134],[-90.3937,38.8127,134],[-90.39367,38.81273,134],[-90.39363,38.81275,134],[-90.3936,38.81277,134],[-90.39357,38.81279,134],[-90.39354,38.81281,134],[-90.3935,38.81283,134],[-90.39347,38.81285,133],[-90.39343,38.81287,133],[-90.39339,38.81289,134],[-90.39336,38.81291,133],[-90.39334,38.81293,133],[-90.39332,38.81296,133],[-90.39329,38.81298,133],[-90.39326,38.81299,133],[-90.39322,38.81302,133],[-90.39319,38.81305,133],[-90.39316,38.81307,132],[-90.39314,38.81309,132],[-90.3931,38.81311,132],[-90.39307,38.81314,132],[-90.39304,38.81316,133],[-90.39301,38.81319,133],[-90.39298,38.8132,133],[-90.39294,38.81322,133],[-90.39291,38.81323,133],[-90.39289,38.81325,134],[-90.39286,38.81328,134],[-90.39283,38.8133,134],[-90.39282,38.81333,134],[-90.39281,38.81335,134],[-90.39277,38.81337,135],[-90.39273,38.81338,135],[-90.39272,38.81341,136],[-90.39271,38.81345,136],[-90.39269,38.81347,136],[-90.39267,38.8135,137],[-90.39268,38.81353,137],[-90.39264,38.81358,138],[-90.39259,38.81361,138],[-90.39258,38.81363,138],[-90.39258,38.81366,138],[-90.39257,38.8137,138],[-90.39254,38.81373,138],[-90.39253,38.81375,138],[-90.39252,38.81378,138],[-90.3925,38.81381,138],[-90.3925,38.81378,138],[-90.39253,38.8138,138],[-90.39252,38.81377,138],[-90.3925,38.8138,138],[-90.39249,38.81383,138],[-90.39247,38.81387,137],[-90.39243,38.81389,136],[-90.39241,38.81391,137],[-90.39238,38.81393,138],[-90.39234,38.81394,137],[-90.39234,38.81397,139],[-90.39234,38.814,141],[-90.39233,38.81403,142],[-90.3923,38.81405,143],[-90.39228,38.81409,146],[-90.39227,38.81412,148],[-90.39227,38.81415,149],[-90.39231,38.81417,150],[-90.39235,38.81419,150],[-90.39238,38.81422,151],[-90.39239,38.81426,152],[-90.39242,38.81428,152],[-90.39246,38.81428,152],[-90.3925,38.8143,152],[-90.39254,38.81431,152],[-90.39258,38.81431,152],[-90.39261,38.81432,152],[-90.39263,38.81434,152],[-90.39266,38.81436,152],[-90.39269,38.81438,152],[-90.39272,38.8144,152],[-90.39273,38.81442,152],[-90.39276,38.81445,153],[-90.39277,38.81448,152],[-90.3928,38.81451,152],[-90.39283,38.81454,151],[-90.39287,38.81455,150],[-90.3929,38.81457,149],[-90.39292,38.8146,149],[-90.39293,38.81463,149],[-90.39296,38.81466,148],[-90.39297,38.81468,148],[-90.39298,38.81472,147],[-90.39298,38.81475,147],[-90.39298,38.81478,147],[-90.39298,38.81481,147],[-90.39299,38.81484,147],[-90.393,38.81487,147],[-90.39301,38.8149,147],[-90.39303,38.81493,147],[-90.39304,38.81496,147],[-90.39307,38.81498,147],[-90.39309,38.81501,147],[-90.39311,38.81503,146],[-90.39312,38.81506,146],[-90.39314,38.81509,145],[-90.39316,38.81512,144],[-90.39317,38.81515,144],[-90.39315,38.81518,144],[-90.39314,38.81521,144],[-90.39312,38.81525,144],[-90.39311,38.81528,144],[-90.39309,38.81531,144],[-90.39308,38.81534,143],[-90.39306,38.81536,143],[-90.39302,38.81538,143],[-90.39299,38.81539,144],[-90.39295,38.8154,144],[-90.39292,38.81542,145],[-90.39289,38.81544,145],[-90.39286,38.81547,145],[-90.39283,38.81549,145],[-90.39279,38.8155,146],[-90.39275,38.8155,147],[-90.39273,38.81553,147],[-90.3927,38.81555,148],[-90.39267,38.81558,148],[-90.39265,38.8156,149],[-90.39263,38.81563,149],[-90.39261,38.81567,149],[-90.39262,38.81571,148],[-90.39264,38.81573,146],[-90.39266,38.81576,145],[-90.39267,38.81579,144],[-90.39266,38.81582,144],[-90.39266,38.81585,143],[-90.39267,38.81588,143],[-90.39268,38.81591,143],[-90.39269,38.81594,142],[-90.39268,38.81597,143],[-90.39268,38.816,143],[-90.39266,38.81603,143],[-90.39264,38.81606,144],[-90.3926,38.81608,145],[-90.39258,38.81611,146],[-90.39255,38.81613,147],[-90.39252,38.81615,147],[-90.39247,38.81615,149],[-90.39244,38.81617,149],[-90.39242,38.8162,149],[-90.3924,38.81623,149],[-90.39236,38.81624,150],[-90.39235,38.81627,149],[-90.39234,38.81629,149],[-90.39232,38.81631,149],[-90.39231,38.81634,148],[-90.39232,38.81637,147],[-90.39232,38.8164,146],[-90.39231,38.81643,146],[-90.39229,38.81646,146],[-90.39226,38.81648,147],[-90.39224,38.81651,147],[-90.39223,38.81654,147],[-90.3922,38.81657,147],[-90.39217,38.81658,147],[-90.39213,38.81659,148],[-90.39211,38.81662,148],[-90.3921,38.81665,148],[-90.39206,38.81667,148],[-90.39203,38.81669,149],[-90.39202,38.81671,149],[-90.39199,38.81674,149],[-90.39197,38.81677,149],[-90.39194,38.8168,150],[-90.39191,38.81682,150],[-90.39188,38.81684,150],[-90.39186,38.81686,149],[-90.39183,38.81688,149],[-90.39181,38.8169,149],[-90.39179,38.81693,148],[-90.39175,38.81695,147],[-90.39172,38.81697,147],[-90.39168,38.81698,146],[-90.39165,38.817,146],[-90.39161,38.81702,145],[-90.39157,38.81702,146],[-90.39153,38.81703,146],[-90.39149,38.81704,147],[-90.39145,38.81706,147],[-90.39142,38.81708,146],[-90.39139,38.81711,145],[-90.39136,38.81713,145],[-90.39132,38.81715,145],[-90.39127,38.81716,145],[-90.39124,38.81718,145],[-90.3912,38.81719,145],[-90.39116,38.81721,145],[-90.39113,38.81722,145],[-90.39116,38.81722,145],[-90.3912,38.81723,144],[-90.3912,38.8172,145],[-90.39117,38.81722,145],[-90.39115,38.81725,144],[-90.3911,38.81726,145],[-90.39108,38.81729,144],[-90.39107,38.81731,144],[-90.39103,38.81734,144],[-90.391,38.81737,143],[-90.39097,38.81739,143],[-90.39092,38.81738,144],[-90.39088,38.81737,145],[-90.39084,38.81736,146],[-90.3908,38.81736,147],[-90.39078,38.81739,146],[-90.39076,38.81741,146],[-90.39074,38.81744,145],[-90.39074,38.81747,144],[-90.39076,38.81749,143],[-90.39079,38.81751,142],[-90.39082,38.81753,141],[-90.39085,38.81752,141],[-90.39089,38.81751,141],[-90.39086,38.81749,142],[-90.39083,38.81747,142],[-90.3908,38.81746,143],[-90.39076,38.81745,144],[-90.39073,38.81744,145],[-90.3907,38.81743,146],[-90.39067,38.81744,146],[-90.39068,38.81747,145],[-90.39063,38.81748,145],[-90.39054,38.8175,146],[-90.39052,38.81748,147],[-90.39048,38.81745,148],[-90.39049,38.8175,146],[-90.39048,38.81753,146],[-90.39053,38.81755,145],[-90.39049,38.81758,144],[-90.39046,38.8176,144],[-90.39041,38.81762,144],[-90.39032,38.81768,144],[-90.39027,38.81782,142],[-90.39015,38.8178,144],[-90.39021,38.81782,143],[-90.3902,38.81785,143],[-90.39015,38.81786,144],[-90.39015,38.8179,143],[-90.39009,38.81787,144],[-90.39007,38.81785,145],[-90.39004,38.81786,145],[-90.39,38.81786,146],[-90.38997,38.81787,146],[-90.38992,38.81788,147],[-90.38988,38.8179,147],[-90.38984,38.81791,147],[-90.3898,38.81792,147],[-90.38978,38.8179,148],[-90.38974,38.8179,148],[-90.38969,38.81792,149],[-90.38965,38.81792,149],[-90.38961,38.81794,149],[-90.38952,38.81797,148],[-90.38947,38.81799,148],[-90.38943,38.81801,148],[-90.38939,38.81805,147],[-90.38927,38.818,150],[-90.38926,38.81795,152],[-90.38936,38.81795,150],[-90.38942,38.81796,149],[-90.38947,38.81797,148],[-90.38966,38.81796,148],[-90.38976,38.81782,149],[-90.39002,38.81768,149],[-90.39012,38.81784,144],[-90.39018,38.8178,144],[-90.39016,38.81775,145],[-90.39021,38.81771,145],[-90.39025,38.81769,145],[-90.39028,38.81767,145],[-90.39032,38.81765,145],[-90.39037,38.81762,145],[-90.3904,38.81761,145],[-90.39041,38.81757,146],[-90.39041,38.81752,147],[-90.39041,38.81748,148],[-90.39041,38.81745,149],[-90.39042,38.81741,150],[-90.3904,38.81737,151],[-90.39043,38.81741,150],[-90.39045,38.81744,149],[-90.39042,38.81746,148],[-90.3904,38.81749,147],[-90.39036,38.81748,148],[-90.39033,38.81747,149],[-90.39029,38.81746,150],[-90.39026,38.81746,150],[-90.39022,38.81745,150],[-90.3902,38.81742,151],[-90.3902,38.81739,152],[-90.39017,38.81737,153],[-90.39015,38.81734,154],[-90.39014,38.81731,155],[-90.39012,38.81728,156],[-90.39009,38.81726,156],[-90.39007,38.81723,157],[-90.39005,38.81721,158],[-90.39004,38.81718,158],[-90.39,38.81715,159],[-90.38997,38.81713,160],[-90.38993,38.8171,161],[-90.38991,38.81708,161],[-90.3899,38.81705,162],[-90.38989,38.81702,163],[-90.38988,38.81697,164],[-90.38986,38.81695,164],[-90.38983,38.81693,164],[-90.38984,38.8169,165],[-90.38984,38.81687,165],[-90.38983,38.81684,165],[-90.38982,38.81681,166],[-90.3898,38.81678,166],[-90.38977,38.81676,166],[-90.38974,38.81675,166],[-90.38971,38.81673,167],[-90.38969,38.81669,167],[-90.38969,38.81667,167],[-90.38968,38.81664,168],[-90.38965,38.81661,168],[-90.38962,38.81658,168],[-90.38959,38.81655,168],[-90.38959,38.81652,168],[-90.38956,38.8165,168],[-90.38954,38.81646,168],[-90.38952,38.81641,169],[-90.38949,38.81639,169],[-90.38945,38.81638,169],[-90.38948,38.81632,169],[-90.38958,38.8163,170],[-90.38964,38.8163,170],[-90.38959,38.81627,170],[-90.38954,38.81625,170],[-90.38953,38.81622,171],[-90.38953,38.81619,171],[-90.38953,38.81616,171],[-90.3895,38.81613,171],[-90.38947,38.8161,172],[-90.38944,38.81607,172],[-90.3894,38.81605,172],[-90.38937,38.81604,172],[-90.38936,38.81601,172],[-90.38936,38.81598,173],[-90.38935,38.81595,173],[-90.38932,38.81592,173],[-90.3893,38.81589,174],[-90.3893,38.81585,174],[-90.38926,38.81583,175],[-90.38918,38.81581,175],[-90.38921,38.81578,176],[-90.38921,38.81575,177],[-90.38924,38.81572,178],[-90.38922,38.81569,178],[-90.38921,38.81566,179],[-90.38918,38.81564,180],[-90.38916,38.81561,181],[-90.38914,38.81559,182],[-90.38912,38.81556,182],[-90.38908,38.81555,183],[-90.38905,38.81553,183],[-90.38904,38.8155,183],[-90.38902,38.81548,184],[-90.38899,38.81546,184],[-90.38896,38.81544,184],[-90.38894,38.81541,185],[-90.38891,38.81539,185],[-90.38889,38.81537,185],[-90.3889,38.81542,184],[-90.38888,38.81539,185],[-90.38885,38.81537,185],[-90.38882,38.81535,185],[-90.38882,38.81532,186],[-90.38881,38.81529,186],[-90.38881,38.81526,187],[-90.38881,38.81523,187],[-90.38885,38.81517,187],[-90.38885,38.81515,187],[-90.38884,38.81511,187],[-90.38887,38.81509,187],[-90.38888,38.81507,187],[-90.38885,38.81504,187],[-90.38882,38.81502,187],[-90.38883,38.81499,188],[-90.38888,38.81497,188],[-90.38891,38.81495,188],[-90.38892,38.81492,188],[-90.38891,38.81489,188],[-90.38889,38.81486,188],[-90.38888,38.81483,188],[-90.38888,38.8148,188],[-90.38885,38.81479,188],[-90.38881,38.8148,188],[-90.38877,38.81479,189],[-90.38872,38.81477,189],[-90.38868,38.81476,189],[-90.38864,38.81474,189],[-90.38859,38.81471,190],[-90.38855,38.81473,190],[-90.38855,38.81476,190],[-90.38854,38.81479,190],[-90.38851,38.81481,190],[-90.38848,38.81484,190],[-90.38844,38.81483,191],[-90.38841,38.81482,191],[-90.38837,38.81483,191],[-90.38832,38.81484,192],[-90.38828,38.81484,192],[-90.38824,38.81484,192],[-90.3882,38.81484,193],[-90.38816,38.81485,193],[-90.38813,38.81485,193],[-90.38808,38.81485,194],[-90.38803,38.81483,194],[-90.38799,38.81483,195],[-90.38795,38.81485,195],[-90.38792,38.81486,195],[-90.38788,38.81486,195],[-90.38784,38.81485,196],[-90.3878,38.81483,196],[-90.38776,38.81482,197],[-90.38771,38.81481,198],[-90.38767,38.8148,198],[-90.38764,38.81478,199],[-90.3876,38.81477,199],[-90.38758,38.81475,200],[-90.38757,38.81472,200],[-90.38756,38.81469,200],[-90.38753,38.81467,200],[-90.38748,38.81467,201],[-90.38745,38.81467,201],[-90.38741,38.81469,201],[-90.38737,38.8147,201],[-90.38733,38.81469,202],[-90.3873,38.81467,202],[-90.38727,38.81465,202],[-90.38723,38.81463,202],[-90.38719,38.81462,203],[-90.38715,38.81461,203],[-90.38711,38.8146,203],[-90.38707,38.8146,203],[-90.38702,38.8146,203],[-90.38698,38.8146,203],[-90.38695,38.81458,203],[-90.38692,38.81455,203],[-90.38689,38.81453,203],[-90.38686,38.81452,203],[-90.38682,38.81451,203],[-90.38678,38.81452,203],[-90.38674,38.81451,203],[-90.38671,38.81449,203],[-90.38667,38.81448,203],[-90.38664,38.81446,203],[-90.3866,38.81444,202],[-90.38656,38.81442,202],[-90.38653,38.81439,202],[-90.38652,38.81437,202],[-90.38651,38.81434,201],[-90.3865,38.81431,201],[-90.38648,38.81428,201],[-90.38646,38.81424,200],[-90.38644,38.81422,200],[-90.38643,38.81418,199],[-90.38645,38.81415,199],[-90.38649,38.81414,199],[-90.38653,38.81413,199],[-90.38657,38.81412,199],[-90.38661,38.81412,200],[-90.38665,38.81412,200],[-90.3867,38.81411,200],[-90.38674,38.8141,200],[-90.38677,38.8141,200],[-90.38681,38.8141,200],[-90.38686,38.81409,200],[-90.3869,38.81409,201],[-90.38693,38.81408,201],[-90.38697,38.81406,200],[-90.387,38.81405,200],[-90.38703,38.81404,200],[-90.38707,38.81403,200],[-90.38712,38.81403,200],[-90.38717,38.81403,200],[-90.38721,38.81403,200],[-90.38726,38.81403,200],[-90.38731,38.81402,200],[-90.38735,38.814,200],[-90.38739,38.81399,200],[-90.38743,38.81398,200],[-90.38747,38.81397,200],[-90.38751,38.81397,200],[-90.38756,38.81397,200],[-90.3876,38.81397,200],[-90.3876,38.81394,200],[-90.38762,38.81391,200],[-90.38763,38.81394,200],[-90.38762,38.81396,200],[-90.3876,38.81393,200],[-90.38757,38.81391,200],[-90.38753,38.81389,199],[-90.3875,38.81388,199],[-90.38748,38.81385,199],[-90.38749,38.81382,198],[-90.38751,38.81385,199],[-90.38754,38.81388,199],[-90.38759,38.8139,200],[-90.38761,38.81392,200],[-90.38763,38.81395,200],[-90.38769,38.81396,200],[-90.38775,38.81396,200],[-90.38778,38.81397,199],[-90.38782,38.81397,199],[-90.38786,38.81396,199],[-90.3879,38.81395,199],[-90.38795,38.81394,199],[-90.38799,38.81392,199],[-90.38805,38.8139,199],[-90.38814,38.81391,198],[-90.38819,38.81392,198],[-90.38822,38.81393,198],[-90.38825,38.81396,198],[-90.38831,38.81398,198],[-90.38837,38.814,198],[-90.3884,38.81402,197],[-90.38844,38.81403,197],[-90.38848,38.81405,197],[-90.38853,38.81406,196],[-90.38857,38.81407,196],[-90.38864,38.81406,195],[-90.3887,38.81409,195],[-90.38874,38.8141,194],[-90.38878,38.8141,194],[-90.38881,38.81412,193],[-90.38884,38.81413,193],[-90.38887,38.81415,193],[-90.38891,38.81416,192],[-90.38894,38.81417,192],[-90.38901,38.81419,192],[-90.38908,38.8142,192],[-90.38912,38.81421,192],[-90.38915,38.81421,192],[-90.38919,38.81422,192],[-90.38923,38.81423,191],[-90.38928,38.81425,190],[-90.38932,38.81427,190],[-90.38937,38.81428,189],[-90.3894,38.81429,189],[-90.38941,38.81432,189],[-90.38942,38.81435,189],[-90.38938,38.81435,190],[-90.38938,38.81433,189],[-90.38936,38.81435,190],[-90.38939,38.81433,189],[-90.38936,38.81433,190],[-90.38939,38.81432,189],[-90.38941,38.81434,189],[-90.38944,38.81437,189],[-90.38947,38.81438,189],[-90.38949,38.8144,189],[-90.38952,38.81442,189],[-90.38953,38.81445,189],[-90.38953,38.81448,189],[-90.38952,38.81451,190],[-90.38951,38.81454,190],[-90.38951,38.81458,190],[-90.38951,38.81461,190],[-90.3895,38.81464,190],[-90.3895,38.81467,190],[-90.38949,38.8147,191],[-90.3895,38.81473,191],[-90.38951,38.81476,190],[-90.38953,38.81478,190],[-90.38956,38.81481,190],[-90.38958,38.81483,190],[-90.38958,38.81487,189],[-90.3896,38.8149,189],[-90.3896,38.81493,189],[-90.38961,38.81496,189],[-90.38963,38.81499,188],[-90.38969,38.81502,188],[-90.38976,38.81503,188],[-90.38981,38.81505,187],[-90.38986,38.81511,186],[-90.38991,38.81518,184],[-90.38993,38.81525,182],[-90.39001,38.81526,182],[-90.39008,38.81527,182],[-90.39016,38.81527,182],[-90.39016,38.81532,181],[-90.39022,38.81534,181],[-90.39026,38.81537,180],[-90.3903,38.81541,180],[-90.39037,38.81541,181],[-90.39042,38.81542,181],[-90.39046,38.81544,181],[-90.39051,38.81543,182],[-90.39056,38.81543,182],[-90.39059,38.81543,183],[-90.39064,38.81544,183],[-90.39067,38.81546,183],[-90.39074,38.81548,184],[-90.39078,38.81549,184],[-90.39082,38.81548,185],[-90.39086,38.81548,185],[-90.3909,38.81548,185],[-90.39094,38.81547,185],[-90.391,38.81547,186],[-90.39103,38.81545,186],[-90.39108,38.81546,186],[-90.39113,38.81544,186],[-90.39116,38.81542,186],[-90.39119,38.81539,186],[-90.39124,38.81538,186],[-90.39128,38.81539,185],[-90.39132,38.81539,185],[-90.39135,38.8154,185],[-90.39139,38.81541,185],[-90.39142,38.81542,185],[-90.39145,38.81544,184],[-90.39148,38.81546,184],[-90.39152,38.81548,183],[-90.39155,38.8155,183],[-90.39156,38.81553,183],[-90.3916,38.81556,183],[-90.39163,38.81557,183],[-90.39167,38.81559,182],[-90.39169,38.81562,181],[-90.39171,38.81567,180],[-90.39176,38.81568,179],[-90.39182,38.81568,178],[-90.39188,38.81568,176],[-90.39193,38.81567,175],[-90.39196,38.81569,174],[-90.39193,38.8157,175],[-90.39196,38.8157,174],[-90.39197,38.81567,174],[-90.39193,38.81566,176],[-90.39194,38.81568,175],[-90.39192,38.81571,175],[-90.39194,38.81569,175],[-90.39197,38.81566,174],[-90.39196,38.81563,175],[-90.39195,38.8156,176],[-90.39194,38.81557,177],[-90.39195,38.81554,177],[-90.39196,38.8155,176],[-90.39197,38.81547,176],[-90.392,38.81543,175],[-90.392,38.8154,174],[-90.39199,38.81537,175],[-90.39197,38.81534,175],[-90.39196,38.81531,175],[-90.39195,38.81528,175],[-90.39194,38.81525,175],[-90.39194,38.81519,172],[-90.39197,38.81516,171],[-90.39197,38.81513,169],[-90.39197,38.8151,169],[-90.39198,38.81507,167],[-90.392,38.81503,165],[-90.392,38.81501,164],[-90.39197,38.81499,165],[-90.39194,38.81498,166],[-90.39192,38.81495,166],[-90.39191,38.81492,166],[-90.3919,38.81488,166],[-90.39191,38.81485,165],[-90.39194,38.81483,164],[-90.39193,38.81479,164],[-90.39192,38.81477,164],[-90.39191,38.81469,163],[-90.3919,38.81465,163],[-90.39189,38.81462,163],[-90.39187,38.81458,163],[-90.39183,38.81457,164],[-90.3918,38.81453,164],[-90.39179,38.8145,164],[-90.3918,38.81447,163],[-90.39181,38.81443,162],[-90.39181,38.8144,161],[-90.3918,38.81437,161],[-90.3918,38.81434,160],[-90.3918,38.81431,159],[-90.39179,38.81428,158],[-90.39182,38.81427,157],[-90.39181,38.81425,157],[-90.39178,38.81422,157],[-90.3918,38.8142,156],[-90.39185,38.81418,154],[-90.3919,38.81417,153],[-90.39192,38.81414,151],[-90.39194,38.81412,149],[-90.39199,38.81409,147],[-90.39203,38.81409,147],[-90.39207,38.81408,146],[-90.39211,38.81408,146],[-90.39215,38.81406,144],[-90.39219,38.81406,144],[-90.39223,38.81405,143],[-90.39224,38.81402,141],[-90.39221,38.81401,141],[-90.39226,38.81402,141],[-90.3923,38.81401,141],[-90.39233,38.814,141],[-90.39235,38.81397,139],[-90.39236,38.81394,138],[-90.39238,38.81392,137],[-90.39242,38.8139,137],[-90.39244,38.81387,137],[-90.39246,38.81385,137],[-90.39247,38.81382,137],[-90.39248,38.81379,138],[-90.39249,38.81376,138],[-90.39253,38.81373,138],[-90.39256,38.81372,138],[-90.39258,38.81369,138],[-90.39259,38.81367,138],[-90.3926,38.81364,138],[-90.3926,38.81361,138],[-90.39259,38.81357,138],[-90.39263,38.81355,137],[-90.39266,38.81353,137],[-90.39269,38.8135,137],[-90.3927,38.81347,136],[-90.3927,38.81344,136],[-90.39267,38.81343,136],[-90.39264,38.8134,136],[-90.39262,38.81337,136],[-90.39259,38.81337,136],[-90.39255,38.81337,136],[-90.39252,38.81335,137],[-90.39249,38.81332,137],[-90.39245,38.8133,137],[-90.39241,38.81328,137],[-90.39238,38.81326,137],[-90.39235,38.81324,137],[-90.39232,38.81323,137],[-90.39229,38.81321,137],[-90.39226,38.81319,137],[-90.39224,38.81316,137],[-90.39221,38.81314,137],[-90.39218,38.81313,137],[-90.39214,38.81312,138],[-90.3921,38.81311,138],[-90.39208,38.81309,138],[-90.39206,38.81307,138],[-90.39202,38.81304,138],[-90.39199,38.81302,138],[-90.39195,38.81301,138],[-90.39192,38.81299,138],[-90.3919,38.81296,138],[-90.39188,38.81294,138],[-90.39185,38.81293,138],[-90.39182,38.8129,138],[-90.39179,38.81289,138],[-90.39175,38.81287,139],[-90.39171,38.81286,139],[-90.39168,38.81284,139],[-90.39166,38.81282,139],[-90.39163,38.8128,139],[-90.39159,38.81279,140],[-90.39155,38.81277,140],[-90.39153,38.81273,139],[-90.39151,38.81271,139],[-90.39149,38.81268,139],[-90.3915,38.81265,138],[-90.39152,38.81261,137],[-90.39154,38.81259,137],[-90.39156,38.81256,136],[-90.39158,38.81254,135],[-90.39158,38.81251,135],[-90.39159,38.81248,135],[-90.39162,38.81245,135],[-90.39164,38.81242,136],[-90.39165,38.81239,136],[-90.39166,38.81236,136],[-90.39168,38.81233,136],[-90.3917,38.8123,137],[-90.39172,38.81228,137],[-90.39174,38.81226,137],[-90.39176,38.81224,137],[-90.39178,38.8122,137],[-90.39182,38.81218,137],[-90.39185,38.81217,137],[-90.39187,38.81214,138],[-90.3919,38.81212,138],[-90.39193,38.8121,137],[-90.39197,38.81209,137],[-90.39202,38.81209,137],[-90.39206,38.81209,137],[-90.3921,38.8121,136],[-90.39215,38.81211,136],[-90.39218,38.81213,136],[-90.39223,38.81214,135],[-90.39227,38.81216,135],[-90.39231,38.81218,135],[-90.39234,38.8122,135],[-90.39237,38.81221,135],[-90.3924,38.81223,135],[-90.39243,38.81225,135],[-90.39246,38.81227,135],[-90.39249,38.81229,135],[-90.39252,38.81231,135],[-90.39255,38.81233,135],[-90.39257,38.81235,134],[-90.3926,38.81237,134],[-90.39263,38.81239,134],[-90.39266,38.81241,134],[-90.39269,38.81243,134],[-90.39271,38.81245,134],[-90.39273,38.81248,134],[-90.39275,38.8125,134],[-90.39278,38.81253,134],[-90.39281,38.81255,134],[-90.39284,38.81256,134],[-90.39288,38.81258,134],[-90.39293,38.81259,134],[-90.39296,38.81261,134],[-90.393,38.81263,134],[-90.39303,38.81265,134],[-90.39306,38.81267,134],[-90.39308,38.81269,134],[-90.39311,38.81271,134],[-90.39315,38.81273,134],[-90.39318,38.81274,134],[-90.39322,38.81276,134],[-90.39324,38.81279,134],[-90.39325,38.81281,134],[-90.39327,38.81285,134],[-90.3933,38.81286,134],[-90.39334,38.81287,134],[-90.39338,38.81289,134],[-90.39342,38.81288,133],[-90.39346,38.81285,134],[-90.39349,38.81283,134],[-90.39352,38.81282,134],[-90.39355,38.8128,134],[-90.39358,38.81278,134],[-90.39361,38.81276,134],[-90.39364,38.81274,134],[-90.39368,38.81272,134],[-90.39371,38.8127,134],[-90.39374,38.81268,134],[-90.39377,38.81265,135],[-90.3938,38.81263,135],[-90.39384,38.81262,135],[-90.39387,38.81259,135],[-90.3939,38.81257,136],[-90.39393,38.81255,136],[-90.39396,38.81253,136],[-90.394,38.81251,136],[-90.39404,38.81248,137],[-90.39407,38.81246,137],[-90.3941,38.81243,137],[-90.39412,38.8124,137],[-90.39413,38.81237,137],[-90.39417,38.81235,137],[-90.3942,38.81233,137],[-90.39422,38.8123,137],[-90.39426,38.81229,137],[-90.39429,38.81226,137],[-90.39431,38.81223,137],[-90.39434,38.8122,138],[-90.39437,38.81218,138],[-90.3944,38.81216,138],[-90.39443,38.81214,138],[-90.39447,38.81211,137],[-90.3945,38.81208,137],[-90.39452,38.81206,137],[-90.39457,38.81204,137],[-90.3946,38.81202,137],[-90.39462,38.812,137],[-90.39465,38.81197,137],[-90.39467,38.81195,137],[-90.39471,38.81193,136],[-90.39473,38.8119,136],[-90.39475,38.81187,136],[-90.39478,38.81185,135],[-90.39481,38.81182,135],[-90.39483,38.8118,134],[-90.39486,38.81177,134],[-90.39489,38.81175,134],[-90.39493,38.81173,133],[-90.39496,38.81172,133],[-90.39499,38.81169,133],[-90.39501,38.81166,132],[-90.39502,38.81163,132],[-90.39505,38.81161,132],[-90.39508,38.81159,132],[-90.3951,38.81156,132],[-90.39512,38.81154,132]]],
        "bbox": [
          -90.38643,
          38.81805,
          -90.39513,
          38.81154
        ]
      },
      "properties": {
        "name": "7.10.2023"
      }
    }
  ]
}