{
  "type": "FeatureCollection",
  "features": [
    {
      "type": "Feature",
      "geometry": {
        "type": "MultiLineString",
        "coordinates": [[[-90.39493,38.81176,134],[-90.39491,38.81178,134],[-90.39487,38.81181,134],[-90.39484,38.81184,135],[-90.39481,38.81186,135],[-90.39478,38.81188,135],[-90.39475,38.8119,136],[-90.39472,38.81192,136],[-90.39469,38.81195,137],[-90.39467,38.81197,137],[-90.39463,38.81199,137],[-90.39461,38.81201,137],[-90.39458,38.81203,137],[-90.39455,38.81206,137],[-90.39453,38.81208,137],[-90.39451,38.81211,137],[-90.39448,38.81213,137],[-90.39445,38.81215,137],[-90.39443,38.81218,138],[-90.39439,38.8122,138],[-90.39436,38.81222,138],[-90.39432,38.81225,137],[-90.3943,38.81227,137],[-90.39426,38.8123,137],[-90.39423,38.81232,137],[-90.3942,38.81234,137],[-90.39417,38.81237,137],[-90.39413,38.8124,137],[-90.3941,38.81243,137],[-90.39407,38.81246,137],[-90.39405,38.81248,137],[-90.39402,38.81249,137],[-90.39399,38.81251,136],[-90.39396,38.81253,136],[-90.39394,38.81255,136],[-90.39391,38.81258,136],[-90.39389,38.8126,135],[-90.39386,38.81262,135],[-90.39382,38.81264,135],[-90.3938,38.81266,135],[-90.39377,38.81268,134],[-90.39374,38.8127,134],[-90.39371,38.81272,134],[-90.39368,38.81273,134],[-90.39365,38.81275,134],[-90.39361,38.81277,134],[-90.39357,38.81279,134],[-90.39354,38.81281,134],[-90.3935,38.81284,133],[-90.39346,38.81286,133],[-90.39343,38.81288,133],[-90.39339,38.81291,133],[-90.39336,38.81292,133],[-90.39333,38.81294,133],[-90.39329,38.81297,133],[-90.39325,38.81299,133],[-90.39321,38.81302,133],[-90.39317,38.81304,133],[-90.39314,38.81306,132],[-90.3931,38.81309,132],[-90.39308,38.81312,132],[-90.39305,38.81315,133],[-90.39301,38.81318,133],[-90.39299,38.81321,133],[-90.39296,38.81323,133],[-90.39293,38.81326,133],[-90.3929,38.81329,134],[-90.39286,38.81332,134],[-90.39283,38.81334,134],[-90.39279,38.81338,135],[-90.39276,38.8134,135],[-90.39271,38.81343,136],[-90.39268,38.81345,136],[-90.39266,38.81349,137],[-90.39265,38.81352,137],[-90.39263,38.81355,137],[-90.39261,38.81358,138],[-90.39259,38.81361,138],[-90.39257,38.81364,138],[-90.39256,38.81368,138],[-90.39255,38.8137,138],[-90.39254,38.81374,138],[-90.39252,38.81377,138],[-90.39249,38.81379,138],[-90.39248,38.81383,137],[-90.39246,38.81385,137],[-90.39243,38.81389,136],[-90.39241,38.81392,137],[-90.39239,38.81394,138],[-90.39237,38.81398,140],[-90.39236,38.81401,142],[-90.39235,38.81404,143],[-90.39232,38.81407,145],[-90.39228,38.81408,145],[-90.39223,38.81407,144],[-90.39219,38.81406,144],[-90.39215,38.81404,143],[-90.39212,38.81402,142],[-90.39209,38.814,141],[-90.39206,38.81397,140],[-90.39204,38.81395,139],[-90.392,38.81392,138],[-90.39198,38.8139,137],[-90.39196,38.81388,137],[-90.39192,38.81386,139],[-90.39188,38.81384,140],[-90.39184,38.81383,141],[-90.39181,38.81381,142],[-90.39178,38.81379,143],[-90.39176,38.81377,143],[-90.39174,38.81374,143],[-90.39172,38.81371,143],[-90.39169,38.81368,143],[-90.39167,38.81365,143],[-90.39166,38.81361,143],[-90.39165,38.81358,143],[-90.39164,38.81354,144],[-90.39163,38.81351,145],[-90.39163,38.81347,145],[-90.39162,38.81344,146],[-90.3916,38.81341,147],[-90.39158,38.81338,147],[-90.39155,38.81336,148],[-90.39151,38.81335,149],[-90.39148,38.81333,149],[-90.39144,38.81332,150],[-90.3914,38.8133,150],[-90.39138,38.81328,150],[-90.39138,38.81324,150],[-90.39139,38.81322,150],[-90.39136,38.81321,151],[-90.39132,38.81318,151],[-90.39128,38.81315,151],[-90.39125,38.81313,152],[-90.39122,38.8131,152],[-90.3912,38.81307,152],[-90.39117,38.81304,152],[-90.39114,38.813,152],[-90.39111,38.81297,151],[-90.39108,38.81294,151],[-90.39106,38.81291,150],[-90.39104,38.81288,150],[-90.39102,38.81286,150],[-90.391,38.81282,149],[-90.39099,38.8128,149],[-90.39099,38.81277,148],[-90.39098,38.81274,147],[-90.39097,38.81271,147],[-90.39096,38.81268,146],[-90.39095,38.81265,146],[-90.39093,38.81268,147],[-90.39095,38.81264,146],[-90.39096,38.81261,145],[-90.39096,38.81258,144],[-90.39097,38.81255,143],[-90.39097,38.81251,142],[-90.39096,38.81247,143],[-90.39094,38.81244,144],[-90.39093,38.8124,145],[-90.39093,38.81237,146],[-90.39094,38.81234,146],[-90.39093,38.8123,147],[-90.39093,38.81226,148],[-90.39093,38.81223,149],[-90.39094,38.81219,149],[-90.39094,38.81214,149],[-90.39094,38.81209,149],[-90.39095,38.81206,149],[-90.39095,38.81202,150],[-90.39096,38.81198,150],[-90.39096,38.81194,150],[-90.39096,38.8119,149],[-90.39096,38.81187,149],[-90.39096,38.81183,148],[-90.39097,38.81179,148],[-90.39098,38.81176,147],[-90.39101,38.81172,146],[-90.39104,38.81168,145],[-90.39107,38.81165,145],[-90.39109,38.81162,144],[-90.39112,38.81158,143],[-90.39114,38.81154,142],[-90.39114,38.81151,142],[-90.39112,38.81146,141],[-90.3911,38.81143,141],[-90.39107,38.8114,141],[-90.39104,38.81137,141],[-90.391,38.81135,141],[-90.39098,38.81132,141],[-90.39096,38.8113,141],[-90.39094,38.81127,141],[-90.39091,38.81124,141],[-90.39087,38.81123,141],[-90.39082,38.81122,141],[-90.39078,38.81122,141],[-90.39074,38.81122,141],[-90.3907,38.81124,142],[-90.39066,38.81126,142],[-90.39063,38.81126,142],[-90.39059,38.81126,142],[-90.39055,38.81127,142],[-90.39051,38.81126,142],[-90.39047,38.81126,142],[-90.39043,38.81124,142],[-90.3904,38.81123,142],[-90.39036,38.81121,142],[-90.39033,38.8112,142],[-90.39029,38.8112,142],[-90.39025,38.81121,143],[-90.39022,38.81121,143],[-90.39018,38.8112,144],[-90.39014,38.8112,144],[-90.3901,38.81119,145],[-90.39007,38.81119,145],[-90.39002,38.81119,146],[-90.38998,38.81119,146],[-90.38994,38.8112,147],[-90.38991,38.81121,147],[-90.38988,38.81122,148],[-90.38984,38.81124,148],[-90.38978,38.81124,149],[-90.38973,38.81124,150],[-90.38968,38.81124,150],[-90.38961,38.81125,151],[-90.38957,38.81128,151],[-90.38953,38.81131,151],[-90.3895,38.81135,151],[-90.38946,38.81139,151],[-90.38942,38.81142,152],[-90.38937,38.81142,152],[-90.38931,38.81143,152],[-90.38926,38.81145,152],[-90.38921,38.81148,152],[-90.38917,38.81149,152],[-90.38912,38.81152,153],[-90.38907,38.81153,154],[-90.38901,38.81153,156],[-90.38896,38.81155,157],[-90.38895,38.81157,157],[-90.38892,38.81159,158],[-90.38888,38.8116,159],[-90.38886,38.81162,160],[-90.38883,38.81164,160],[-90.38879,38.81165,161],[-90.38875,38.81167,162],[-90.38872,38.81168,162],[-90.38869,38.8117,163],[-90.38866,38.81172,163],[-90.38865,38.81175,163],[-90.38863,38.81177,163],[-90.38861,38.8118,163],[-90.3886,38.81184,163],[-90.38861,38.81187,162],[-90.38862,38.81189,162],[-90.38866,38.81191,161],[-90.38868,38.81194,160],[-90.38869,38.81197,160],[-90.3887,38.812,160],[-90.38872,38.81202,160],[-90.38875,38.81204,160],[-90.38876,38.81206,160],[-90.38878,38.8121,161],[-90.38878,38.81213,161],[-90.38876,38.81217,162],[-90.38874,38.81221,162],[-90.3887,38.81225,163],[-90.38865,38.81227,164],[-90.38861,38.81228,165],[-90.3886,38.8123,165],[-90.38859,38.81233,166],[-90.38858,38.81236,167],[-90.38859,38.81239,167],[-90.3886,38.81242,167],[-90.3886,38.81244,168],[-90.38858,38.81247,169],[-90.38858,38.81251,169],[-90.38858,38.81254,169],[-90.38856,38.81257,170],[-90.38852,38.8126,171],[-90.38849,38.81263,172],[-90.38846,38.81266,174],[-90.38843,38.81269,175],[-90.3884,38.8127,176],[-90.38837,38.81271,177],[-90.38834,38.81273,178],[-90.38832,38.81276,180],[-90.38828,38.81276,181],[-90.38824,38.81276,182],[-90.38821,38.81278,183],[-90.38818,38.8128,184],[-90.38815,38.81282,185],[-90.38812,38.81282,186],[-90.38808,38.81283,188],[-90.38807,38.81286,188],[-90.38807,38.81289,188],[-90.38806,38.81292,189],[-90.38807,38.81296,189],[-90.38807,38.813,190],[-90.38807,38.81303,190],[-90.38807,38.81306,190],[-90.38806,38.81309,191],[-90.38805,38.81312,192],[-90.38803,38.81314,192],[-90.38801,38.81318,193],[-90.38799,38.8132,193],[-90.38796,38.81322,194],[-90.38793,38.81325,194],[-90.3879,38.81327,195],[-90.38787,38.81329,195],[-90.38784,38.81331,195],[-90.3878,38.81332,195],[-90.38776,38.81332,195],[-90.38772,38.81331,195],[-90.38768,38.81332,195],[-90.38764,38.81333,195],[-90.38762,38.81334,194],[-90.38761,38.81337,195],[-90.38761,38.81341,195],[-90.38761,38.81345,195],[-90.38761,38.81348,195],[-90.3876,38.81352,196],[-90.38759,38.81356,196],[-90.38758,38.8136,196],[-90.38757,38.81363,196],[-90.38756,38.81367,197],[-90.38754,38.8137,197],[-90.38753,38.81372,197],[-90.38752,38.81375,198],[-90.38751,38.81378,198],[-90.38751,38.81381,198],[-90.38751,38.81385,199],[-90.38754,38.81387,199],[-90.38757,38.8139,200],[-90.38759,38.81392,200],[-90.38763,38.81395,200],[-90.38767,38.81397,200],[-90.3877,38.81397,200],[-90.38775,38.81397,200],[-90.3878,38.81398,199],[-90.38784,38.81399,199],[-90.3879,38.81399,199],[-90.38794,38.81398,199],[-90.38797,38.81397,199],[-90.38801,38.81396,199],[-90.38806,38.81395,199],[-90.3881,38.81394,199],[-90.38815,38.81393,198],[-90.38819,38.81394,198],[-90.38822,38.81395,198],[-90.38825,38.81396,198],[-90.38829,38.81398,198],[-90.38833,38.814,198],[-90.38837,38.81402,198],[-90.3884,38.81405,198],[-90.38844,38.81407,197],[-90.38847,38.81409,197],[-90.38851,38.81411,197],[-90.38856,38.81411,197],[-90.3886,38.81412,196],[-90.38864,38.81414,196],[-90.38867,38.81416,196],[-90.3887,38.81417,195],[-90.38875,38.81419,195],[-90.3888,38.8142,194],[-90.38886,38.81421,193],[-90.38891,38.81423,192],[-90.38897,38.81425,192],[-90.38902,38.81427,192],[-90.38908,38.8143,192],[-90.38913,38.81432,192],[-90.38918,38.81436,192],[-90.38922,38.81439,191],[-90.38927,38.81442,191],[-90.38932,38.81446,190],[-90.38937,38.81449,190],[-90.38942,38.81453,190],[-90.38945,38.81456,190],[-90.38946,38.8146,190],[-90.38947,38.81465,190],[-90.38947,38.81468,190],[-90.38946,38.81473,190],[-90.38947,38.81478,190],[-90.38949,38.81482,190],[-90.3895,38.81486,189],[-90.38952,38.81489,189],[-90.38955,38.81493,189],[-90.38958,38.81497,188],[-90.38961,38.815,188],[-90.38964,38.81503,188],[-90.38968,38.81506,187],[-90.38972,38.81509,187],[-90.38976,38.81512,186],[-90.3898,38.81514,185],[-90.38985,38.81518,184],[-90.38988,38.81521,184],[-90.38991,38.81524,183],[-90.38996,38.81527,182],[-90.38999,38.8153,181],[-90.39004,38.81532,181],[-90.39009,38.81534,180],[-90.39014,38.81536,180],[-90.39018,38.81539,180],[-90.39023,38.81541,180],[-90.39028,38.81543,179],[-90.39033,38.81544,180],[-90.39039,38.81546,180],[-90.39044,38.81547,181],[-90.39049,38.81549,181],[-90.39055,38.8155,182],[-90.3906,38.81551,182],[-90.39065,38.81552,183],[-90.39071,38.81552,183],[-90.39077,38.81552,184],[-90.39082,38.81551,185],[-90.39086,38.8155,185],[-90.39091,38.81549,185],[-90.39096,38.81548,185],[-90.39103,38.81548,186],[-90.39108,38.81548,186],[-90.39114,38.81549,186],[-90.3912,38.8155,185],[-90.39127,38.81551,185],[-90.39133,38.81553,185],[-90.39138,38.81555,185],[-90.39141,38.81558,184],[-90.39145,38.81561,183],[-90.39148,38.81564,183],[-90.39153,38.81567,182],[-90.39158,38.8157,181],[-90.39162,38.81573,181],[-90.39166,38.81576,180],[-90.39169,38.8158,179],[-90.3917,38.81584,178],[-90.39172,38.81589,177],[-90.39173,38.81593,176],[-90.39173,38.81597,175],[-90.39171,38.816,175],[-90.39169,38.81604,174],[-90.39168,38.81608,174],[-90.39168,38.81613,172],[-90.39168,38.81617,171],[-90.39167,38.81622,170],[-90.39165,38.81626,168],[-90.39163,38.81629,168],[-90.39159,38.81633,167],[-90.39156,38.81636,167],[-90.39153,38.8164,167],[-90.39151,38.81643,166],[-90.39148,38.81647,166],[-90.39145,38.8165,165],[-90.39144,38.81652,165],[-90.39144,38.81656,164],[-90.39142,38.8166,163],[-90.39139,38.81662,163],[-90.39137,38.81666,162],[-90.39135,38.81668,162],[-90.39133,38.8167,161],[-90.3913,38.81672,161],[-90.39127,38.81674,161],[-90.39124,38.81676,161],[-90.39121,38.81677,161],[-90.39117,38.81679,161],[-90.39114,38.8168,161],[-90.39111,38.81681,161],[-90.39108,38.81679,162],[-90.39106,38.81676,163],[-90.39105,38.81674,164],[-90.39102,38.81671,165],[-90.39099,38.8167,165],[-90.39097,38.81667,166],[-90.39094,38.81665,167],[-90.3909,38.81666,166],[-90.39087,38.81668,166],[-90.39084,38.8167,166],[-90.39081,38.81672,166],[-90.39079,38.81674,165],[-90.39078,38.81677,165],[-90.39074,38.81678,165],[-90.39071,38.8168,165],[-90.39066,38.81681,165],[-90.39063,38.81683,165],[-90.3906,38.81686,165],[-90.39056,38.81688,165],[-90.39052,38.81691,165],[-90.39051,38.81693,165],[-90.39051,38.81696,164],[-90.39051,38.81699,163],[-90.39051,38.81702,162],[-90.39052,38.81705,161],[-90.39051,38.81708,160],[-90.39051,38.81711,159],[-90.3905,38.81714,158],[-90.3905,38.81717,157],[-90.39051,38.8172,156],[-90.39053,38.81723,155],[-90.39055,38.81725,155],[-90.39058,38.81727,153],[-90.39058,38.81729,153],[-90.39061,38.81731,151],[-90.39062,38.81734,150],[-90.39063,38.81737,149],[-90.39065,38.8174,148],[-90.39066,38.81743,146],[-90.39062,38.81744,147],[-90.39058,38.81744,147],[-90.39054,38.81743,148],[-90.3905,38.81743,149],[-90.39046,38.81744,149],[-90.39046,38.81747,148],[-90.39045,38.8175,147],[-90.39044,38.81753,146],[-90.39043,38.81756,146],[-90.39041,38.8176,145],[-90.39039,38.81763,144],[-90.39036,38.81766,144],[-90.39032,38.81768,144],[-90.39029,38.81771,144],[-90.39026,38.81773,144],[-90.39022,38.81775,144],[-90.39019,38.81778,144],[-90.39016,38.81779,144],[-90.39012,38.81781,145],[-90.39008,38.81783,145],[-90.39004,38.81783,146],[-90.39,38.81783,147],[-90.38996,38.81783,147],[-90.38992,38.81783,147],[-90.38988,38.81784,148],[-90.38985,38.81785,148],[-90.38981,38.81787,148],[-90.38978,38.81788,148],[-90.38974,38.81789,149],[-90.38971,38.81789,149],[-90.38967,38.8179,149],[-90.38964,38.81792,149],[-90.38961,38.81794,149],[-90.38957,38.81796,148],[-90.38953,38.81798,148],[-90.38949,38.81799,148],[-90.38945,38.81799,148],[-90.38942,38.81799,148],[-90.38938,38.81799,149],[-90.38935,38.81798,149],[-90.38931,38.81798,150],[-90.38928,38.818,150],[-90.38924,38.81801,150],[-90.3892,38.81801,151],[-90.38915,38.81801,151],[-90.38912,38.81803,151],[-90.38908,38.81802,153],[-90.38904,38.81802,154],[-90.389,38.81802,155],[-90.38897,38.81801,156],[-90.38895,38.81803,156],[-90.38896,38.81806,154],[-90.38893,38.81808,154],[-90.38889,38.81808,155],[-90.38884,38.81808,157],[-90.3888,38.81808,157],[-90.38877,38.81808,158],[-90.38873,38.81809,158],[-90.38869,38.8181,159],[-90.38865,38.81811,159],[-90.38862,38.81812,159],[-90.38858,38.81813,159],[-90.38856,38.81816,158],[-90.38856,38.81818,157],[-90.38856,38.81822,155],[-90.38855,38.81825,154],[-90.38853,38.81828,152],[-90.38851,38.8183,151],[-90.38848,38.81832,150],[-90.38844,38.81833,150],[-90.38842,38.81836,148],[-90.3884,38.81838,148],[-90.3884,38.81841,146],[-90.38841,38.81844,145],[-90.38843,38.81846,144],[-90.38843,38.81849,143],[-90.38839,38.81851,142],[-90.38836,38.81852,141],[-90.38833,38.81854,141],[-90.38829,38.81856,140],[-90.38825,38.81857,140],[-90.38821,38.81859,140],[-90.38818,38.8186,140],[-90.38814,38.81861,140],[-90.38811,38.81863,141],[-90.38808,38.81866,141],[-90.38805,38.81868,141],[-90.38803,38.8187,141],[-90.38799,38.81872,141],[-90.38794,38.81874,142],[-90.38791,38.81876,142],[-90.38788,38.81877,142],[-90.38784,38.81878,142],[-90.38781,38.8188,142],[-90.38777,38.81882,142],[-90.38774,38.81884,142],[-90.38771,38.81885,142],[-90.38766,38.81887,142],[-90.38761,38.81887,142],[-90.38757,38.81889,141],[-90.38754,38.8189,141],[-90.38752,38.81893,140],[-90.38751,38.81896,139],[-90.38749,38.81899,138],[-90.38748,38.81902,137],[-90.38749,38.81904,137],[-90.38749,38.81907,136],[-90.38745,38.81909,135],[-90.38741,38.81911,134],[-90.38737,38.81912,134],[-90.38733,38.81913,133],[-90.38729,38.81914,133],[-90.38725,38.81915,132],[-90.38721,38.81916,132],[-90.38718,38.81918,132],[-90.38717,38.81921,132],[-90.38715,38.81924,132],[-90.38712,38.81926,132],[-90.38709,38.81927,132],[-90.38705,38.81928,132],[-90.38701,38.81928,132],[-90.38697,38.81929,132],[-90.38694,38.81931,132],[-90.38691,38.81933,132],[-90.38688,38.81934,132],[-90.38684,38.81935,132],[-90.3868,38.81937,132],[-90.38678,38.81939,132],[-90.38674,38.8194,132],[-90.38671,38.81941,132],[-90.38668,38.81943,132],[-90.38666,38.81945,131],[-90.38663,38.81947,131],[-90.3866,38.81949,131],[-90.38656,38.81949,131],[-90.38653,38.8195,131],[-90.38649,38.81951,131],[-90.38645,38.81952,131],[-90.38642,38.81953,131],[-90.38638,38.81954,131],[-90.38633,38.81955,132],[-90.38629,38.81956,132],[-90.38626,38.81958,132],[-90.38623,38.8196,133],[-90.38619,38.81961,133],[-90.38615,38.81961,133],[-90.38611,38.81962,134],[-90.38607,38.81962,134],[-90.38603,38.81963,133],[-90.38599,38.81963,134],[-90.38595,38.81962,134],[-90.38591,38.81962,134],[-90.38587,38.81963,134],[-90.38584,38.81963,134],[-90.3858,38.81964,134],[-90.38577,38.81963,134],[-90.38573,38.81965,133],[-90.38569,38.81965,133],[-90.38567,38.81962,135],[-90.38563,38.81962,135],[-90.38559,38.81963,134],[-90.38555,38.81965,133],[-90.38552,38.81966,133],[-90.38548,38.81967,133],[-90.38544,38.81968,132],[-90.3854,38.81968,132],[-90.38536,38.81968,132],[-90.38533,38.81967,133],[-90.38528,38.81967,133],[-90.38524,38.81967,132],[-90.3852,38.81967,132],[-90.38517,38.81967,132],[-90.38513,38.81966,133],[-90.38509,38.81966,133],[-90.38505,38.81967,132],[-90.38502,38.81968,132],[-90.385,38.81971,131],[-90.38497,38.81972,132],[-90.38493,38.81973,133],[-90.38488,38.81973,135],[-90.38484,38.81973,136],[-90.38479,38.81973,138],[-90.38475,38.81974,139]],[[-90.38679,38.81929,133],[-90.38684,38.81928,133],[-90.38689,38.81927,133],[-90.38694,38.81927,132],[-90.38699,38.81926,132],[-90.38703,38.81926,132],[-90.38706,38.81925,132],[-90.3871,38.81923,132],[-90.38713,38.8192,132],[-90.38715,38.81918,132],[-90.38718,38.81916,132],[-90.38722,38.81914,133],[-90.38725,38.81913,133],[-90.38729,38.81911,134],[-90.38732,38.8191,135],[-90.38736,38.81908,135],[-90.38739,38.81906,136],[-90.38741,38.81903,137],[-90.38743,38.819,138],[-90.38745,38.81897,139],[-90.38746,38.81893,140],[-90.38748,38.8189,141],[-90.38752,38.81888,142],[-90.38755,38.81886,142],[-90.38759,38.81885,142],[-90.38763,38.81884,142],[-90.38767,38.81883,143],[-90.38771,38.81882,143],[-90.38774,38.8188,143],[-90.38779,38.81878,143],[-90.38783,38.81876,143],[-90.38787,38.81874,142],[-90.38791,38.81873,142],[-90.38794,38.81871,142],[-90.38797,38.81869,142],[-90.38801,38.81868,141],[-90.38805,38.81865,141],[-90.38809,38.81864,141],[-90.38813,38.81863,140],[-90.38817,38.81861,140],[-90.3882,38.81858,141],[-90.38822,38.81856,141],[-90.38825,38.81853,142],[-90.38827,38.8185,143],[-90.38828,38.81847,144],[-90.38829,38.81844,145],[-90.38829,38.81841,146],[-90.3883,38.81837,148],[-90.38832,38.81834,149],[-90.38833,38.81831,151],[-90.38834,38.81828,152],[-90.38836,38.81826,153],[-90.38839,38.81823,155],[-90.38842,38.81821,156],[-90.38844,38.81818,157],[-90.38845,38.81816,158],[-90.38847,38.81812,160],[-90.38849,38.8181,161],[-90.38852,38.81808,162],[-90.38857,38.81807,162],[-90.38861,38.81806,162],[-90.38864,38.81806,162],[-90.38869,38.81805,161],[-90.38874,38.81804,160],[-90.38878,38.81804,159],[-90.38882,38.81804,158],[-90.38887,38.81804,157],[-90.38891,38.81804,156],[-90.38895,38.81805,155],[-90.38898,38.81804,155],[-90.38901,38.81801,155],[-90.38903,38.81798,155],[-90.38906,38.81796,155],[-90.3891,38.81795,154],[-90.38916,38.81796,153],[-90.38919,38.81797,152],[-90.38923,38.81797,151],[-90.38927,38.81797,151],[-90.38931,38.81797,150],[-90.38936,38.81796,150],[-90.38941,38.81795,149],[-90.38944,38.81794,149],[-90.38947,38.81791,150],[-90.3895,38.81789,150],[-90.38953,38.81786,150],[-90.38957,38.81784,150],[-90.38962,38.81783,150],[-90.38967,38.81782,150],[-90.38972,38.81782,150],[-90.38976,38.81782,149],[-90.3898,38.8178,149],[-90.38984,38.81778,149],[-90.38988,38.81777,149],[-90.38993,38.81777,148],[-90.38998,38.81776,148],[-90.39002,38.81773,148],[-90.39005,38.81771,148],[-90.39007,38.81769,148],[-90.39009,38.81766,148],[-90.39012,38.81763,148],[-90.39014,38.81762,148],[-90.39018,38.81759,148],[-90.39022,38.81757,148],[-90.39025,38.81756,148],[-90.39027,38.81753,148],[-90.39028,38.81749,149],[-90.39029,38.81746,150],[-90.3903,38.81743,150],[-90.39032,38.8174,151],[-90.39035,38.81739,151],[-90.39039,38.81738,151],[-90.39043,38.81736,151],[-90.39046,38.81734,152],[-90.39048,38.81732,152],[-90.39048,38.81729,153],[-90.39048,38.81726,154],[-90.39046,38.81723,156],[-90.39046,38.8172,157],[-90.39046,38.81717,158],[-90.39046,38.81714,159],[-90.39046,38.81711,160],[-90.39046,38.81708,161],[-90.39046,38.81704,162],[-90.39047,38.81699,164],[-90.39048,38.81695,165],[-90.3905,38.81692,165],[-90.39052,38.8169,165],[-90.39055,38.81687,165],[-90.39057,38.81685,165],[-90.3906,38.81683,165],[-90.39065,38.81681,165],[-90.39069,38.81679,165],[-90.39071,38.81678,165],[-90.39075,38.81679,165],[-90.39078,38.81679,165],[-90.39082,38.81678,165],[-90.39086,38.81678,164],[-90.39088,38.81675,165],[-90.39092,38.81675,164],[-90.39096,38.81675,164],[-90.391,38.81675,164],[-90.39103,38.81676,163],[-90.39107,38.81678,163],[-90.39111,38.81679,162],[-90.39114,38.81678,162],[-90.39117,38.81676,162],[-90.3912,38.81674,162],[-90.39123,38.81672,162],[-90.39126,38.8167,162],[-90.39129,38.81669,162],[-90.39133,38.81667,162],[-90.39136,38.81666,162],[-90.3914,38.81665,162],[-90.39143,38.81663,162],[-90.39146,38.81661,162],[-90.39148,38.81658,162],[-90.3915,38.81655,163],[-90.39152,38.81653,163],[-90.39155,38.8165,163],[-90.39157,38.81648,163],[-90.3916,38.81646,163],[-90.39161,38.81642,164],[-90.39161,38.81639,165],[-90.39163,38.81636,165],[-90.39164,38.81633,166],[-90.39164,38.8163,167],[-90.39165,38.81626,168],[-90.39167,38.81624,169],[-90.39168,38.81621,170],[-90.3917,38.81619,170],[-90.39172,38.81615,170],[-90.39174,38.81612,171],[-90.39175,38.81609,172],[-90.39175,38.81606,172],[-90.39175,38.81602,173],[-90.39176,38.816,173],[-90.39176,38.81597,174],[-90.39177,38.81594,174],[-90.39177,38.81591,175],[-90.39177,38.81587,176],[-90.39177,38.81583,177],[-90.39177,38.8158,177],[-90.39177,38.81577,177],[-90.39177,38.81573,178],[-90.39177,38.81569,179],[-90.39178,38.81566,179],[-90.3918,38.81564,179],[-90.39184,38.81562,178],[-90.39188,38.81561,178],[-90.39192,38.81562,177],[-90.39195,38.81562,176],[-90.39197,38.81559,176],[-90.39198,38.81556,176],[-90.39199,38.81553,175],[-90.39199,38.8155,175],[-90.39199,38.81546,175],[-90.39199,38.81543,175],[-90.39198,38.8154,175],[-90.39196,38.81537,176],[-90.39194,38.81534,176],[-90.39192,38.8153,176],[-90.39192,38.81526,175],[-90.39193,38.81521,173],[-90.39194,38.81516,171],[-90.39194,38.81511,170],[-90.39193,38.81507,169],[-90.39191,38.81503,168],[-90.39189,38.81499,167],[-90.39188,38.81494,167],[-90.39187,38.81489,167],[-90.39186,38.81485,167],[-90.39184,38.8148,167],[-90.39182,38.81475,166],[-90.3918,38.81471,166],[-90.39178,38.81466,166],[-90.39176,38.81461,166],[-90.39173,38.81457,166],[-90.39171,38.81453,167],[-90.3917,38.81447,166],[-90.39172,38.81442,164],[-90.39173,38.81438,163],[-90.39175,38.81434,161],[-90.39178,38.81431,160],[-90.39179,38.81428,158],[-90.3918,38.81425,157],[-90.39181,38.81422,156],[-90.39183,38.81419,155],[-90.39186,38.81417,154],[-90.39189,38.81414,152],[-90.39191,38.81412,150],[-90.39194,38.8141,148],[-90.39198,38.81409,147],[-90.39202,38.81409,147],[-90.39207,38.81409,147],[-90.3921,38.81409,147],[-90.39214,38.81408,145],[-90.39218,38.81408,145],[-90.39223,38.81407,144],[-90.39226,38.81406,144],[-90.3923,38.81405,143],[-90.39232,38.81403,142],[-90.39235,38.81401,141],[-90.39237,38.81399,141],[-90.39239,38.81396,139],[-90.39241,38.81394,138],[-90.39242,38.8139,137],[-90.39245,38.81387,137],[-90.39248,38.81383,137],[-90.3925,38.81379,138],[-90.39252,38.81375,138],[-90.39254,38.81372,138],[-90.39256,38.81369,138],[-90.39257,38.81365,138],[-90.39259,38.81361,138],[-90.39261,38.81358,138],[-90.39263,38.81355,137],[-90.39265,38.81352,137],[-90.39267,38.81349,137],[-90.39269,38.81346,136],[-90.39271,38.81343,136],[-90.39272,38.8134,136],[-90.39269,38.81337,135],[-90.39264,38.81336,136],[-90.39258,38.81335,136],[-90.39252,38.81334,136],[-90.39247,38.81333,137],[-90.39243,38.81331,137],[-90.39238,38.81329,137],[-90.39233,38.81325,137],[-90.39228,38.81321,137],[-90.39223,38.81318,137],[-90.39219,38.81315,137],[-90.39214,38.81312,138],[-90.3921,38.81308,138],[-90.39206,38.81305,138],[-90.39201,38.81302,138],[-90.39196,38.81298,137],[-90.3919,38.81295,138],[-90.39184,38.81292,138],[-90.3918,38.8129,138],[-90.39176,38.81287,138],[-90.3917,38.81284,139],[-90.39165,38.81281,139],[-90.39161,38.81278,139],[-90.39157,38.81274,139],[-90.39155,38.81271,139],[-90.39153,38.81268,138],[-90.39153,38.81264,138],[-90.39153,38.81261,137],[-90.39153,38.81256,136],[-90.39155,38.81253,136],[-90.39157,38.81249,135],[-90.3916,38.81246,135],[-90.39164,38.81243,135],[-90.39167,38.8124,136],[-90.3917,38.81238,136],[-90.39173,38.81235,136],[-90.39176,38.81232,136],[-90.39178,38.81229,136],[-90.39181,38.81226,137],[-90.39184,38.81222,137],[-90.39186,38.8122,137],[-90.3919,38.81217,137],[-90.39193,38.81214,137],[-90.39196,38.81212,137],[-90.39199,38.81209,137],[-90.39203,38.81209,137],[-90.39207,38.81209,137],[-90.3921,38.8121,136],[-90.39214,38.81212,136],[-90.39217,38.81214,136],[-90.39221,38.81217,136],[-90.39224,38.8122,135],[-90.39228,38.81222,135],[-90.39232,38.81224,135],[-90.39236,38.81226,135],[-90.39239,38.81228,135],[-90.39242,38.81231,135],[-90.39246,38.81234,135],[-90.39249,38.81236,135],[-90.39252,38.81239,135],[-90.39255,38.81241,135],[-90.39259,38.81243,135],[-90.39263,38.81244,134],[-90.39267,38.81246,134],[-90.39271,38.81247,134],[-90.39274,38.81249,134],[-90.39278,38.81251,134],[-90.39281,38.81253,134],[-90.39283,38.81255,134],[-90.39287,38.81258,134],[-90.39291,38.8126,134],[-90.39295,38.81262,134],[-90.39298,38.81264,134],[-90.39302,38.81266,134],[-90.39305,38.81268,134],[-90.39308,38.81269,134],[-90.39312,38.81272,134],[-90.39314,38.81274,134],[-90.39317,38.81276,134],[-90.3932,38.81279,134],[-90.39324,38.81281,134],[-90.39327,38.81284,134],[-90.3933,38.81285,134],[-90.39334,38.81287,134],[-90.39338,38.81288,134],[-90.39343,38.81287,133],[-90.39346,38.81285,134],[-90.39349,38.81284,133],[-90.39351,38.81282,134],[-90.39355,38.81279,134],[-90.39358,38.81278,134],[-90.39362,38.81276,134],[-90.39366,38.81274,134],[-90.3937,38.81272,134],[-90.39374,38.8127,134],[-90.39377,38.81267,134],[-90.3938,38.81265,135],[-90.39384,38.81263,135],[-90.39388,38.8126,135],[-90.39391,38.81258,136],[-90.39394,38.81255,136],[-90.39397,38.81253,136],[-90.394,38.8125,137],[-90.39403,38.81248,137],[-90.39406,38.81245,137],[-90.3941,38.81242,137],[-90.39413,38.8124,137],[-90.39415,38.81238,137],[-90.39417,38.81235,137],[-90.3942,38.81233,137],[-90.39423,38.81231,137],[-90.39426,38.81228,137],[-90.3943,38.81225,137],[-90.39433,38.81222,138],[-90.39436,38.81219,138],[-90.39438,38.81217,138],[-90.39441,38.81215,138],[-90.39445,38.81213,137],[-90.39448,38.8121,137],[-90.39451,38.81208,137],[-90.39453,38.81205,137],[-90.39456,38.81203,137],[-90.39459,38.812,137],[-90.39462,38.81197,137],[-90.39465,38.81195,137],[-90.39468,38.81192,136],[-90.39472,38.81189,136],[-90.39475,38.81188,136],[-90.39478,38.81186,135],[-90.3948,38.81184,135],[-90.39483,38.81181,134],[-90.39485,38.81179,134],[-90.39488,38.81177,134],[-90.39491,38.81174,133]]],
        "bbox": [
          -90.38475,
          38.81974,
          -90.39493,
          38.81119
        ]
      },
      "properties": {
        "name": "5.17.2023B"
      }
    }
  ]
}