{
  "type": "FeatureCollection",
  "features": [
    {
      "type": "Feature",
      "geometry": {
        "type": "MultiLineString",
        "coordinates": [[[-90.39408,38.81249,137],[-90.39407,38.81253,136],[-90.39406,38.81256,136],[-90.39403,38.81259,135],[-90.394,38.8126,135],[-90.39396,38.81262,135],[-90.39392,38.81264,135],[-90.39389,38.81266,135],[-90.39386,38.81267,135],[-90.39384,38.81269,134],[-90.3938,38.81271,134],[-90.39376,38.81273,134],[-90.39374,38.81275,134],[-90.39371,38.81277,134],[-90.39368,38.81279,133],[-90.39365,38.8128,133],[-90.39361,38.81281,133],[-90.39357,38.81282,133],[-90.39353,38.81284,133],[-90.3935,38.81285,133],[-90.39347,38.81286,133],[-90.39343,38.81288,133],[-90.3934,38.81291,133],[-90.39337,38.81293,133],[-90.39334,38.81291,134],[-90.39333,38.81293,133],[-90.39332,38.81296,133],[-90.39329,38.81299,133],[-90.39326,38.813,133],[-90.39323,38.81303,133],[-90.39321,38.81305,133],[-90.39317,38.81307,132],[-90.39314,38.81309,132],[-90.3931,38.81312,132],[-90.39307,38.81314,132],[-90.39304,38.81316,133],[-90.39301,38.81319,133],[-90.39299,38.81321,133],[-90.39297,38.81324,133],[-90.39294,38.81327,133],[-90.39291,38.8133,134],[-90.39287,38.81333,134],[-90.39284,38.81335,134],[-90.3928,38.81336,135],[-90.39278,38.81338,135],[-90.39275,38.81341,135],[-90.39271,38.81343,136],[-90.39269,38.81346,136],[-90.39267,38.81349,137],[-90.39264,38.81352,137],[-90.39262,38.81354,137],[-90.3926,38.81357,138],[-90.39258,38.8136,138],[-90.39256,38.81363,138],[-90.39255,38.81367,138],[-90.39254,38.8137,138],[-90.39252,38.81373,138],[-90.39252,38.81376,138],[-90.3925,38.8138,138],[-90.39248,38.81382,137],[-90.39247,38.81385,137],[-90.39246,38.81387,137],[-90.39244,38.8139,137],[-90.39241,38.81392,137],[-90.39238,38.81394,138],[-90.39236,38.81396,139],[-90.39235,38.814,141],[-90.39233,38.81403,142],[-90.3923,38.81405,143],[-90.39228,38.81408,145],[-90.39226,38.81411,147],[-90.39227,38.81414,149],[-90.3923,38.81417,150],[-90.39233,38.81419,151],[-90.39235,38.81422,151],[-90.39238,38.81424,151],[-90.39241,38.81426,152],[-90.39245,38.81427,152],[-90.39249,38.81429,152],[-90.39252,38.81431,152],[-90.39256,38.81432,152],[-90.39259,38.81433,152],[-90.39263,38.81435,152],[-90.39265,38.81436,152],[-90.39268,38.81438,152],[-90.3927,38.81441,153],[-90.39272,38.81443,153],[-90.39274,38.81446,153],[-90.39277,38.81448,152],[-90.3928,38.81449,152],[-90.39283,38.81451,151],[-90.39286,38.81452,150],[-90.3929,38.81454,150],[-90.39292,38.81456,149],[-90.39294,38.81459,149],[-90.39295,38.81462,148],[-90.39297,38.81465,148],[-90.39298,38.81467,147],[-90.39298,38.81471,147],[-90.39298,38.81474,147],[-90.39299,38.81477,147],[-90.39299,38.8148,147],[-90.39299,38.81482,147],[-90.39299,38.81485,147],[-90.393,38.81489,147],[-90.39302,38.81491,147],[-90.39304,38.81494,147],[-90.39306,38.81496,147],[-90.39309,38.81499,147],[-90.39311,38.81501,146],[-90.39311,38.81504,146],[-90.39311,38.81508,146],[-90.39312,38.8151,145],[-90.39312,38.81514,145],[-90.39312,38.81517,145],[-90.39311,38.81514,145],[-90.39311,38.81511,145],[-90.39308,38.81513,146],[-90.39309,38.81515,146],[-90.39308,38.81518,146],[-90.39306,38.81521,146],[-90.39304,38.81524,146],[-90.39302,38.81527,146],[-90.39299,38.8153,146],[-90.39297,38.81533,146],[-90.39295,38.81535,146],[-90.39291,38.81536,147],[-90.39288,38.81537,147],[-90.39285,38.81539,147],[-90.39281,38.81541,148],[-90.39277,38.81542,149],[-90.39274,38.81545,149],[-90.3927,38.81546,150],[-90.39268,38.8155,150],[-90.39266,38.81552,150],[-90.39263,38.81554,151],[-90.3926,38.81556,151],[-90.39257,38.81558,152],[-90.39254,38.8156,153],[-90.39254,38.81564,152],[-90.39254,38.81567,151],[-90.39255,38.81571,150],[-90.39256,38.81575,148],[-90.39258,38.81577,147],[-90.39259,38.8158,146],[-90.39259,38.81583,146],[-90.3926,38.81586,145],[-90.39261,38.81589,145],[-90.39261,38.81592,145],[-90.39262,38.81595,145],[-90.39262,38.81598,145],[-90.39262,38.81602,145],[-90.39261,38.81605,145],[-90.39258,38.81608,146],[-90.39254,38.81609,147],[-90.39251,38.81611,148],[-90.39247,38.81612,149],[-90.39244,38.81613,150],[-90.3924,38.81613,151],[-90.39236,38.81614,152],[-90.39234,38.81617,152],[-90.39233,38.8162,152],[-90.39231,38.81623,151],[-90.3923,38.81627,150],[-90.39228,38.8163,150],[-90.39227,38.81633,149],[-90.39227,38.81636,148],[-90.39226,38.8164,148],[-90.39223,38.81642,148],[-90.39221,38.81645,148],[-90.3922,38.81648,148],[-90.39219,38.81651,148],[-90.39217,38.81653,148],[-90.39214,38.81655,148],[-90.39209,38.81656,149],[-90.39206,38.81659,150],[-90.39205,38.81661,149],[-90.39203,38.81664,149],[-90.39199,38.81666,150],[-90.39196,38.81668,150],[-90.39194,38.81671,150],[-90.39191,38.81673,151],[-90.39188,38.81675,151],[-90.39185,38.81678,151],[-90.39183,38.8168,150],[-90.39179,38.81681,150],[-90.39177,38.81684,150],[-90.39175,38.81687,149],[-90.39173,38.8169,149],[-90.39171,38.81692,148],[-90.39167,38.81693,148],[-90.39163,38.81695,148],[-90.3916,38.81696,148],[-90.39156,38.81697,148],[-90.39153,38.81699,148],[-90.39149,38.817,148],[-90.39145,38.81701,149],[-90.39142,38.81703,148],[-90.39139,38.81704,148],[-90.39136,38.81706,148],[-90.39133,38.81708,148],[-90.39129,38.8171,148],[-90.39126,38.81712,147],[-90.39122,38.81713,147],[-90.39119,38.81715,147],[-90.39116,38.81717,147],[-90.39112,38.81719,147],[-90.39108,38.81721,146],[-90.39105,38.81724,146],[-90.39103,38.81726,146],[-90.391,38.81729,146],[-90.39098,38.8173,146],[-90.39095,38.81733,145],[-90.39092,38.81735,145],[-90.39088,38.81735,146],[-90.39084,38.81734,147],[-90.3908,38.81735,147],[-90.39076,38.81737,147],[-90.39073,38.81739,147],[-90.39069,38.8174,147],[-90.39065,38.8174,148],[-90.3906,38.81741,148],[-90.39056,38.81742,148],[-90.39053,38.81744,148],[-90.39049,38.81745,148],[-90.39045,38.81744,149],[-90.39041,38.81744,149],[-90.39039,38.81746,149],[-90.39034,38.81745,149],[-90.39029,38.81745,150],[-90.39026,38.81745,150],[-90.39021,38.81745,151],[-90.39019,38.81743,151],[-90.39018,38.8174,152],[-90.39017,38.81737,153],[-90.39016,38.81734,154],[-90.39015,38.81731,155],[-90.39014,38.81729,155],[-90.39012,38.81726,156],[-90.39011,38.81723,157],[-90.39008,38.8172,158],[-90.39006,38.81718,158],[-90.39004,38.81715,159],[-90.39003,38.81712,160],[-90.39002,38.81708,161],[-90.38999,38.81706,162],[-90.38998,38.81703,162],[-90.38999,38.817,163],[-90.38999,38.81697,164],[-90.38998,38.81695,164],[-90.38997,38.81691,165],[-90.38995,38.81689,165],[-90.38994,38.81686,165],[-90.38993,38.81683,166],[-90.3899,38.8168,166],[-90.38986,38.81678,166],[-90.38983,38.81677,166],[-90.38979,38.81677,166],[-90.38975,38.81676,166],[-90.38971,38.81674,166],[-90.3897,38.81671,167],[-90.38969,38.81668,167],[-90.38969,38.81664,168],[-90.38968,38.81661,168],[-90.38968,38.81657,168],[-90.38968,38.81654,168],[-90.38966,38.81651,168],[-90.38964,38.81648,169],[-90.38962,38.81645,169],[-90.38961,38.81643,169],[-90.3896,38.81639,169],[-90.38959,38.81635,169],[-90.38959,38.81632,170],[-90.38962,38.8163,170],[-90.38966,38.81628,170],[-90.38967,38.81625,171],[-90.38965,38.81623,171],[-90.38963,38.81619,171],[-90.38961,38.81616,172],[-90.38958,38.81612,172],[-90.38954,38.8161,172],[-90.3895,38.81609,172],[-90.38947,38.81606,172],[-90.38944,38.81603,172],[-90.38943,38.816,173],[-90.38942,38.81598,173],[-90.38941,38.81595,173],[-90.38939,38.81592,173],[-90.38938,38.81589,174],[-90.38937,38.81586,174],[-90.38936,38.81583,175],[-90.38936,38.8158,175],[-90.38935,38.81576,176],[-90.38932,38.81573,177],[-90.38931,38.81571,178],[-90.38929,38.81568,178],[-90.38928,38.81565,179],[-90.38927,38.81562,180],[-90.38925,38.81559,181],[-90.38923,38.81556,182],[-90.38921,38.81553,183],[-90.38917,38.81551,183],[-90.38914,38.8155,183],[-90.3891,38.81549,183],[-90.38908,38.81547,184],[-90.38906,38.81543,184],[-90.38903,38.81541,185],[-90.38901,38.81538,185],[-90.38898,38.81536,185],[-90.38896,38.81533,186],[-90.38894,38.81531,186],[-90.38892,38.81528,186],[-90.38889,38.81527,187],[-90.38888,38.81524,187],[-90.38888,38.81521,187],[-90.3889,38.81517,187],[-90.38891,38.81514,187],[-90.38891,38.81511,187],[-90.38891,38.81508,187],[-90.38891,38.81505,187],[-90.3889,38.81502,187],[-90.38891,38.81498,188],[-90.38893,38.81497,188],[-90.38896,38.81495,188],[-90.38899,38.81493,188],[-90.38901,38.8149,188],[-90.38901,38.81487,188],[-90.38901,38.81483,188],[-90.38899,38.8148,188],[-90.38896,38.81477,188],[-90.38892,38.81476,188],[-90.38888,38.81477,188],[-90.38884,38.81476,189],[-90.3888,38.81475,189],[-90.38875,38.81472,189],[-90.38872,38.8147,190],[-90.38868,38.8147,190],[-90.38864,38.81471,190],[-90.38861,38.81473,189],[-90.38857,38.81474,190],[-90.38853,38.81476,191],[-90.3885,38.81477,191],[-90.38845,38.81478,191],[-90.38843,38.8148,191],[-90.38839,38.81481,192],[-90.38835,38.8148,192],[-90.38831,38.81479,193],[-90.38828,38.81477,194],[-90.38825,38.81476,194],[-90.38821,38.81475,195],[-90.38816,38.81476,195],[-90.38812,38.81478,195],[-90.38807,38.81479,195],[-90.38804,38.81481,195],[-90.38801,38.81482,195],[-90.38797,38.8148,196],[-90.38792,38.8148,196],[-90.38788,38.8148,196],[-90.38785,38.81479,197],[-90.38779,38.81479,197],[-90.38775,38.81479,198],[-90.3877,38.81478,198],[-90.38767,38.81477,199],[-90.38763,38.81479,199],[-90.38759,38.81477,199],[-90.38756,38.81474,200],[-90.38753,38.81474,200],[-90.38755,38.81472,200],[-90.38755,38.81469,200],[-90.38754,38.81466,200],[-90.3875,38.81465,201],[-90.38746,38.81465,201],[-90.38742,38.81466,201],[-90.38739,38.81468,201],[-90.38735,38.8147,202],[-90.38731,38.81468,202],[-90.38728,38.81465,202],[-90.38723,38.81463,202],[-90.38719,38.81461,203],[-90.38717,38.81459,203],[-90.38713,38.81457,203],[-90.38708,38.81457,203],[-90.38705,38.81458,203],[-90.38702,38.81459,203],[-90.38698,38.81459,203],[-90.38694,38.81459,203],[-90.38691,38.81457,203],[-90.3869,38.81454,203],[-90.38686,38.81452,203],[-90.38682,38.8145,203],[-90.38679,38.81449,203],[-90.38675,38.81447,203],[-90.38672,38.81445,203],[-90.3867,38.81443,202],[-90.3867,38.8144,202],[-90.38666,38.81438,202],[-90.38662,38.81438,202],[-90.38658,38.81436,202],[-90.38655,38.81434,201],[-90.38652,38.81431,201],[-90.3865,38.81428,201],[-90.38649,38.81425,200],[-90.38648,38.81422,200],[-90.38646,38.81419,199],[-90.38645,38.81417,199],[-90.38648,38.81414,199],[-90.38652,38.81413,199],[-90.38656,38.81413,199],[-90.3866,38.81413,200],[-90.38665,38.81412,200],[-90.38669,38.81412,200],[-90.38673,38.81411,200],[-90.38678,38.81411,200],[-90.38682,38.8141,200],[-90.38686,38.8141,200],[-90.38691,38.81409,201],[-90.38695,38.81408,201],[-90.38698,38.81407,200],[-90.38702,38.81406,200],[-90.38706,38.81405,200],[-90.3871,38.81403,200],[-90.38713,38.81402,200],[-90.38717,38.81401,200],[-90.38721,38.814,200],[-90.38724,38.81399,200],[-90.38728,38.81399,200],[-90.38733,38.81399,200],[-90.38737,38.81399,200],[-90.38741,38.81398,200],[-90.38744,38.81398,200],[-90.38748,38.81398,200],[-90.38752,38.81398,200],[-90.38756,38.81398,200],[-90.3876,38.81397,200],[-90.38763,38.81396,200],[-90.38763,38.81393,200],[-90.3876,38.81391,200],[-90.38756,38.81389,199],[-90.38753,38.81387,199],[-90.3875,38.81385,199],[-90.38749,38.81383,199],[-90.38748,38.8138,198],[-90.38749,38.81377,198],[-90.3875,38.81374,197],[-90.3875,38.81371,197],[-90.38751,38.81368,197],[-90.38752,38.81365,196],[-90.38753,38.81362,196],[-90.38754,38.81359,196],[-90.38755,38.81356,195],[-90.38756,38.81353,195],[-90.38756,38.8135,195],[-90.38757,38.81347,195],[-90.38758,38.81344,195],[-90.38759,38.81341,195],[-90.3876,38.81338,195],[-90.38762,38.81335,194],[-90.38765,38.81333,195],[-90.3877,38.81333,195],[-90.38773,38.81334,195],[-90.38777,38.81334,195],[-90.38781,38.81334,196],[-90.38786,38.81334,196],[-90.38788,38.81332,195],[-90.38791,38.81329,195],[-90.38793,38.81327,195],[-90.38794,38.81324,194],[-90.38796,38.81321,194],[-90.38798,38.81319,193],[-90.388,38.81316,193],[-90.38802,38.81312,192],[-90.38804,38.81309,191],[-90.38806,38.81307,191],[-90.38808,38.81305,190],[-90.38809,38.81302,189],[-90.38809,38.81299,189],[-90.38807,38.81295,189],[-90.38807,38.81292,189],[-90.38807,38.81289,188],[-90.38808,38.81286,188],[-90.38808,38.81282,187],[-90.3881,38.8128,187],[-90.38814,38.81281,186],[-90.38817,38.81281,185],[-90.38821,38.8128,184],[-90.38823,38.81278,183],[-90.38825,38.81275,181],[-90.38829,38.81276,180],[-90.38833,38.81276,179],[-90.38837,38.81274,178],[-90.3884,38.81273,176],[-90.38844,38.81272,175],[-90.38846,38.81269,174],[-90.38848,38.81267,173],[-90.38852,38.81266,172],[-90.38854,38.81264,171],[-90.38855,38.81261,171],[-90.38857,38.81258,170],[-90.38859,38.81256,169],[-90.38861,38.81253,169],[-90.38863,38.8125,168],[-90.38862,38.81246,168],[-90.38861,38.81243,167],[-90.38861,38.8124,167],[-90.38863,38.81237,166],[-90.38865,38.81235,165],[-90.38867,38.81232,165],[-90.3887,38.81231,164],[-90.38873,38.8123,164],[-90.38877,38.81228,163],[-90.38878,38.81225,163],[-90.38881,38.81221,162],[-90.38883,38.81219,161],[-90.38882,38.81215,161],[-90.38882,38.81212,160],[-90.3888,38.81208,160],[-90.38877,38.81206,160],[-90.38873,38.81204,160],[-90.38871,38.81201,160],[-90.38869,38.81198,161],[-90.38867,38.81195,160],[-90.38865,38.81192,161],[-90.38862,38.8119,162],[-90.38858,38.81188,163],[-90.38858,38.81184,163],[-90.38859,38.81181,163],[-90.3886,38.81178,163],[-90.38862,38.81176,163],[-90.38864,38.81173,163],[-90.38866,38.8117,163],[-90.38869,38.81168,163],[-90.38872,38.81166,163],[-90.38875,38.81163,162],[-90.38877,38.81161,161],[-90.38877,38.81158,161],[-90.38879,38.81156,161],[-90.38884,38.81157,160],[-90.38887,38.81157,159],[-90.38891,38.81155,158],[-90.38895,38.81153,157],[-90.38899,38.81152,156],[-90.38903,38.81152,155],[-90.38907,38.81151,154],[-90.3891,38.81149,153],[-90.38913,38.81147,152],[-90.38916,38.81145,152],[-90.38919,38.81143,152],[-90.38922,38.8114,152],[-90.38926,38.81139,152],[-90.38929,38.81139,152],[-90.38934,38.8114,152],[-90.38938,38.81139,152],[-90.3894,38.81136,152],[-90.38941,38.81134,152],[-90.38944,38.81131,152],[-90.38946,38.81129,151],[-90.38949,38.81126,151],[-90.38951,38.81123,151],[-90.38953,38.8112,151],[-90.38956,38.81118,151],[-90.38959,38.81117,151],[-90.38963,38.81118,151],[-90.38967,38.81118,150],[-90.38971,38.81119,150],[-90.38975,38.8112,150],[-90.38979,38.81119,149],[-90.38983,38.81118,149],[-90.38986,38.81117,148],[-90.3899,38.81115,148],[-90.38994,38.81115,147],[-90.38999,38.81115,146],[-90.39003,38.81116,146],[-90.39007,38.81117,145],[-90.39012,38.81117,145],[-90.39015,38.81119,144],[-90.39018,38.8112,144],[-90.39023,38.81121,143],[-90.39028,38.81121,142],[-90.39032,38.8112,142],[-90.39036,38.81122,142],[-90.39039,38.81124,142],[-90.39042,38.81126,142],[-90.39045,38.81128,142],[-90.3905,38.8113,142],[-90.39054,38.8113,142],[-90.39057,38.8113,142],[-90.39061,38.8113,142],[-90.39064,38.81128,142],[-90.39067,38.81126,142],[-90.39071,38.81123,142],[-90.39074,38.81122,141],[-90.39079,38.81121,141],[-90.39084,38.81122,141],[-90.39086,38.81125,141],[-90.39087,38.81128,141],[-90.39088,38.81131,142],[-90.39091,38.81133,141],[-90.39094,38.81136,141],[-90.39097,38.81138,141],[-90.39099,38.81141,142],[-90.39101,38.81143,142],[-90.39105,38.81146,142],[-90.39107,38.81148,142],[-90.3911,38.81151,142],[-90.3911,38.81153,143],[-90.3911,38.81157,143],[-90.39107,38.81159,144],[-90.39104,38.81162,144],[-90.39101,38.81164,145],[-90.39097,38.81166,145],[-90.39094,38.81169,146],[-90.39093,38.81172,147],[-90.39091,38.81175,147],[-90.39089,38.81178,147],[-90.39088,38.81181,148],[-90.39088,38.81185,148],[-90.39089,38.81188,148],[-90.3909,38.81191,149],[-90.39091,38.81195,149],[-90.3909,38.81198,149],[-90.39089,38.81201,149],[-90.39089,38.81205,149],[-90.39088,38.81209,149],[-90.39086,38.81211,149],[-90.39085,38.81214,149],[-90.39085,38.81217,149],[-90.39086,38.81221,149],[-90.39087,38.81224,149],[-90.39087,38.81227,148],[-90.39088,38.81231,147],[-90.39089,38.81234,147],[-90.3909,38.81238,146],[-90.39092,38.81242,144],[-90.39093,38.81244,144],[-90.39095,38.81248,143],[-90.39095,38.81251,142],[-90.39096,38.81254,143],[-90.39098,38.81256,143],[-90.39098,38.81259,144],[-90.39099,38.81263,145],[-90.391,38.81267,146],[-90.39101,38.8127,146],[-90.39101,38.81273,147],[-90.39101,38.81276,148],[-90.39099,38.8128,149],[-90.39099,38.81283,149],[-90.39101,38.81285,150],[-90.39103,38.81287,150],[-90.39107,38.81288,150],[-90.3911,38.81291,150],[-90.39111,38.81294,151],[-90.39112,38.81297,151],[-90.39115,38.81299,151],[-90.39116,38.81303,152],[-90.39118,38.81306,152],[-90.39118,38.8131,153],[-90.39118,38.81313,153],[-90.39119,38.81316,153],[-90.39121,38.81318,152],[-90.39123,38.81322,152],[-90.39124,38.81324,152],[-90.39128,38.81323,152],[-90.39128,38.8132,152],[-90.39129,38.81323,152],[-90.39131,38.81325,151],[-90.39134,38.81327,151],[-90.39136,38.8133,151],[-90.39138,38.81332,151],[-90.39142,38.81335,150],[-90.39145,38.81335,150],[-90.39149,38.81337,149],[-90.39151,38.81339,148],[-90.39154,38.81341,148],[-90.39156,38.81344,147],[-90.39159,38.81346,146],[-90.3916,38.8135,145],[-90.39161,38.81354,145],[-90.3916,38.81357,145],[-90.39159,38.81361,145],[-90.3916,38.81365,145],[-90.39161,38.81369,145],[-90.39164,38.81371,145],[-90.39167,38.81373,145],[-90.39169,38.81376,145],[-90.39172,38.81378,144],[-90.39176,38.8138,143],[-90.39178,38.81382,143],[-90.39181,38.81385,142],[-90.39183,38.81387,142],[-90.39187,38.8139,141],[-90.3919,38.81392,141],[-90.39194,38.81393,140],[-90.39196,38.81395,140],[-90.39199,38.81397,141],[-90.39202,38.81399,142],[-90.39205,38.81402,143],[-90.39208,38.81403,143],[-90.39211,38.81405,144],[-90.39214,38.81407,145],[-90.39216,38.81409,146],[-90.39219,38.81412,148],[-90.39223,38.81412,148],[-90.39227,38.8141,146],[-90.3923,38.81408,145],[-90.39233,38.81405,143],[-90.39235,38.81403,143],[-90.39237,38.814,141],[-90.39239,38.81396,139],[-90.39241,38.81393,138],[-90.39243,38.8139,137],[-90.39245,38.81387,137],[-90.39247,38.81385,137],[-90.39248,38.81382,137],[-90.3925,38.8138,138],[-90.39251,38.81377,138],[-90.39253,38.81374,138],[-90.39254,38.81371,138],[-90.39255,38.81368,138],[-90.39257,38.81365,138],[-90.39258,38.81362,138],[-90.39259,38.81359,138],[-90.39261,38.81355,138],[-90.39264,38.81352,137],[-90.39266,38.8135,137],[-90.39268,38.81347,137],[-90.3927,38.81344,136],[-90.39271,38.81341,136],[-90.39274,38.81338,135],[-90.39276,38.81335,135],[-90.39278,38.81332,134],[-90.39281,38.8133,134],[-90.39283,38.81327,134],[-90.39286,38.81324,134],[-90.39289,38.81322,133],[-90.39291,38.8132,133],[-90.39294,38.81317,133],[-90.39297,38.81316,133],[-90.393,38.81314,133],[-90.39304,38.81312,133],[-90.39307,38.81309,132],[-90.3931,38.81307,132],[-90.39313,38.81305,133],[-90.39315,38.81303,133],[-90.39319,38.81301,133],[-90.39321,38.81299,133],[-90.39324,38.81297,133],[-90.39327,38.81295,133],[-90.3933,38.81293,133],[-90.39334,38.81291,134],[-90.39338,38.81289,134],[-90.39341,38.81287,134],[-90.39344,38.81286,134],[-90.39347,38.81283,134],[-90.39351,38.81281,134],[-90.39353,38.81279,134],[-90.39357,38.81277,134],[-90.39359,38.81274,134],[-90.39361,38.81272,134],[-90.39364,38.81273,134],[-90.39369,38.81273,134],[-90.39372,38.81272,134],[-90.39376,38.81269,134],[-90.3938,38.81267,135],[-90.39383,38.81265,135],[-90.39387,38.81262,135],[-90.3939,38.81261,135],[-90.39393,38.81259,135],[-90.39397,38.81256,136],[-90.39399,38.81254,136],[-90.39403,38.81251,136],[-90.39406,38.81249,137],[-90.3941,38.81247,137],[-90.39413,38.81244,137],[-90.39416,38.81241,137],[-90.39419,38.81238,137],[-90.39421,38.81235,137],[-90.39424,38.81233,137],[-90.39427,38.81231,137],[-90.39429,38.81228,137],[-90.39432,38.81225,137],[-90.39436,38.81223,137],[-90.39439,38.8122,138],[-90.39442,38.81217,138],[-90.39445,38.81214,137],[-90.39447,38.81211,137],[-90.39449,38.81209,137],[-90.39452,38.81206,137],[-90.39455,38.81203,137],[-90.39459,38.81201,137],[-90.39462,38.81198,137],[-90.39465,38.81196,137],[-90.39467,38.81194,137],[-90.3947,38.81191,136],[-90.39473,38.81188,136],[-90.39476,38.81186,135],[-90.39479,38.81184,135],[-90.39481,38.81181,135],[-90.39483,38.81179,134],[-90.39486,38.81177,134],[-90.39488,38.81174,134],[-90.39491,38.81172,133],[-90.39494,38.8117,133],[-90.39498,38.81168,133]]],
        "bbox": [
          -90.38645,
          38.81746,
          -90.39498,
          38.81115
        ]
      },
      "properties": {
        "name": "3.20.2024"
      }
    }
  ]
}