{
  "type": "FeatureCollection",
  "features": [
    {
      "type": "Feature",
      "geometry": {
        "type": "MultiLineString",
        "coordinates": [[[-90.39326,38.81296,133],[-90.39326,38.81299,133],[-90.39326,38.81302,133],[-90.39323,38.81306,132],[-90.39317,38.81308,132],[-90.39312,38.8131,132],[-90.39309,38.81312,132],[-90.39305,38.81314,133],[-90.39302,38.81316,133],[-90.39299,38.81319,133],[-90.39296,38.81322,133],[-90.39294,38.81325,133],[-90.39292,38.81327,133],[-90.3929,38.8133,134],[-90.39287,38.81332,134],[-90.39283,38.81335,134],[-90.3928,38.81336,135],[-90.39275,38.81339,135],[-90.39273,38.81341,136],[-90.3927,38.81343,136],[-90.39268,38.81346,136],[-90.39266,38.81348,137],[-90.39263,38.8135,137],[-90.39262,38.81353,137],[-90.39261,38.81356,138],[-90.39259,38.81359,138],[-90.39258,38.81362,138],[-90.39256,38.81364,138],[-90.39253,38.81368,138],[-90.39252,38.8137,138],[-90.3925,38.81373,138],[-90.39248,38.81376,138],[-90.39246,38.81379,137],[-90.39244,38.81382,137],[-90.39242,38.81385,136],[-90.39239,38.81388,136],[-90.39237,38.81391,136],[-90.39235,38.81395,138],[-90.39232,38.81398,139],[-90.3923,38.814,140],[-90.39228,38.81402,141],[-90.39225,38.81404,143],[-90.39222,38.81406,144],[-90.39219,38.81407,145],[-90.39215,38.81408,145],[-90.39211,38.81409,146],[-90.39208,38.8141,147],[-90.39204,38.81412,149],[-90.392,38.81412,149],[-90.39195,38.81413,150],[-90.39192,38.81415,151],[-90.39189,38.81417,153],[-90.39186,38.81419,154],[-90.39183,38.8142,155],[-90.39182,38.81423,156],[-90.39181,38.81426,157],[-90.3918,38.81428,158],[-90.39177,38.8143,160],[-90.39177,38.81433,160],[-90.39176,38.81438,162],[-90.39177,38.81441,163],[-90.3918,38.81444,163],[-90.39181,38.81446,163],[-90.39183,38.81449,162],[-90.39183,38.81453,163],[-90.39185,38.81455,163],[-90.39188,38.81458,162],[-90.39189,38.81461,162],[-90.39189,38.81464,163],[-90.39188,38.81467,164],[-90.39188,38.8147,164],[-90.39189,38.81473,164],[-90.39191,38.81476,164],[-90.39193,38.81479,164],[-90.39194,38.81482,164],[-90.39194,38.81485,164],[-90.39192,38.81487,165],[-90.3919,38.81489,166],[-90.39189,38.81492,166],[-90.39191,38.81496,166],[-90.39192,38.81499,166],[-90.39194,38.81501,166],[-90.39196,38.81504,167],[-90.39197,38.81507,167],[-90.39198,38.81509,168],[-90.39202,38.81512,168],[-90.39201,38.81516,169],[-90.39201,38.81519,170],[-90.39198,38.81523,173],[-90.39197,38.81525,174],[-90.39195,38.81528,175],[-90.39195,38.81531,175],[-90.39196,38.81535,176],[-90.39198,38.81537,175],[-90.39201,38.8154,174],[-90.39198,38.81541,175],[-90.39198,38.81544,175],[-90.39199,38.81547,175],[-90.392,38.8155,175],[-90.39199,38.81554,175],[-90.39199,38.81557,175],[-90.39197,38.8156,175],[-90.39195,38.81563,175],[-90.39194,38.81566,175],[-90.39198,38.81567,173],[-90.39198,38.8157,173],[-90.39194,38.8157,175],[-90.3919,38.8157,175],[-90.39187,38.81569,176],[-90.39183,38.81569,177],[-90.39179,38.8157,178],[-90.39174,38.81571,179],[-90.39172,38.81574,179],[-90.39172,38.81577,179],[-90.39173,38.8158,178],[-90.39174,38.81583,177],[-90.39176,38.81586,176],[-90.39177,38.81589,175],[-90.39177,38.81593,174],[-90.39176,38.81597,174],[-90.39176,38.816,173],[-90.39175,38.81604,173],[-90.39175,38.81607,172],[-90.39174,38.8161,172],[-90.39173,38.81613,171],[-90.39173,38.81615,170],[-90.39173,38.81619,169],[-90.39171,38.81622,168],[-90.39169,38.81624,168],[-90.39167,38.81629,167],[-90.39167,38.81633,166],[-90.39165,38.81636,165],[-90.39163,38.81638,165],[-90.39162,38.81641,164],[-90.3916,38.81645,163],[-90.39158,38.81647,163],[-90.39156,38.81651,162],[-90.39154,38.81653,162],[-90.39158,38.81651,162],[-90.39155,38.81654,162],[-90.39152,38.81656,162],[-90.39151,38.81659,161],[-90.39147,38.81658,162],[-90.39144,38.81658,163],[-90.39147,38.81655,163],[-90.39148,38.81658,162],[-90.39144,38.81659,163],[-90.3914,38.81659,164],[-90.39139,38.81656,165],[-90.39143,38.81656,164],[-90.39146,38.81656,163],[-90.39143,38.81657,164],[-90.39146,38.81654,164],[-90.39148,38.81652,164],[-90.39152,38.81651,164],[-90.39154,38.81648,164],[-90.39155,38.81645,165],[-90.39156,38.81643,165],[-90.39158,38.8164,165],[-90.3916,38.81638,165],[-90.39163,38.81635,166],[-90.39165,38.81633,166],[-90.39166,38.8163,167],[-90.39166,38.81627,168],[-90.39167,38.81623,169],[-90.39168,38.8162,170],[-90.39169,38.81617,171],[-90.3917,38.81614,172],[-90.39171,38.81611,172],[-90.39171,38.81607,173],[-90.39172,38.81604,173],[-90.39173,38.81602,174],[-90.39174,38.81598,174],[-90.39176,38.81596,174],[-90.39176,38.81592,175],[-90.39177,38.81589,175],[-90.39178,38.81586,176],[-90.39178,38.81583,176],[-90.39177,38.81579,177],[-90.39176,38.81576,178],[-90.39174,38.81572,179],[-90.39172,38.81569,180],[-90.39168,38.81567,181],[-90.39164,38.81565,182],[-90.39161,38.81564,182],[-90.39159,38.81561,182],[-90.39159,38.81558,183],[-90.39158,38.81554,183],[-90.39156,38.81551,183],[-90.39153,38.8155,183],[-90.3915,38.81548,184],[-90.39148,38.81551,184],[-90.39144,38.8155,184],[-90.3914,38.81548,185],[-90.39136,38.81547,185],[-90.39132,38.81547,185],[-90.39128,38.81546,185],[-90.39124,38.81545,185],[-90.3912,38.81544,186],[-90.39116,38.81543,186],[-90.39112,38.81544,186],[-90.39108,38.81546,186],[-90.39104,38.81547,186],[-90.391,38.81548,185],[-90.39096,38.81549,185],[-90.39091,38.81549,185],[-90.39088,38.81549,185],[-90.39084,38.81547,185],[-90.3908,38.81546,185],[-90.39075,38.81546,184],[-90.39071,38.81546,184],[-90.39068,38.81546,184],[-90.39064,38.81545,183],[-90.3906,38.81546,183],[-90.39056,38.81545,182],[-90.39052,38.81545,182],[-90.39049,38.81544,182],[-90.39045,38.81542,181],[-90.39043,38.8154,181],[-90.39039,38.81539,181],[-90.39036,38.8154,181],[-90.39032,38.81539,180],[-90.39028,38.81538,180],[-90.39024,38.81537,180],[-90.39021,38.81537,180],[-90.39017,38.81535,180],[-90.39013,38.81534,181],[-90.39009,38.81532,181],[-90.39005,38.8153,181],[-90.39002,38.81529,181],[-90.38998,38.81528,182],[-90.38995,38.81527,182],[-90.38992,38.81524,183],[-90.38989,38.81522,183],[-90.38985,38.81519,184],[-90.38983,38.81517,185],[-90.38981,38.81515,185],[-90.38979,38.81512,186],[-90.38977,38.8151,186],[-90.38974,38.81508,187],[-90.38972,38.81505,187],[-90.38969,38.81502,188],[-90.38966,38.815,188],[-90.38964,38.81497,189],[-90.38963,38.81494,189],[-90.38962,38.81491,189],[-90.3896,38.81489,189],[-90.38958,38.81485,190],[-90.38957,38.81483,190],[-90.38956,38.8148,190],[-90.38954,38.81477,190],[-90.38953,38.81474,191],[-90.38953,38.8147,191],[-90.38952,38.81467,190],[-90.38952,38.81464,190],[-90.38954,38.81462,190],[-90.38956,38.81459,190],[-90.38955,38.81456,190],[-90.38953,38.81453,190],[-90.38951,38.8145,190],[-90.38951,38.81447,189],[-90.3895,38.81444,189],[-90.38948,38.81441,189],[-90.38946,38.81439,189],[-90.38943,38.81436,189],[-90.38943,38.81433,189],[-90.38945,38.81431,188],[-90.38947,38.81428,188],[-90.38946,38.81431,188],[-90.38942,38.81433,189],[-90.38939,38.81432,189],[-90.38936,38.8143,190],[-90.38934,38.81427,190],[-90.3893,38.81427,190],[-90.38927,38.81426,191],[-90.38923,38.81424,191],[-90.3892,38.81423,192],[-90.38917,38.81421,192],[-90.38914,38.8142,192],[-90.38909,38.81419,192],[-90.38904,38.81419,192],[-90.38899,38.81418,192],[-90.38895,38.81418,192],[-90.38892,38.81416,192],[-90.38887,38.81415,193],[-90.38884,38.81414,193],[-90.3888,38.81413,193],[-90.38877,38.81412,194],[-90.38873,38.8141,194],[-90.3887,38.81409,195],[-90.38867,38.81407,195],[-90.38863,38.81406,195],[-90.3886,38.81405,196],[-90.38856,38.81403,196],[-90.38851,38.814,196],[-90.38848,38.81398,196],[-90.38844,38.81396,197],[-90.38841,38.81396,197],[-90.38837,38.81395,197],[-90.38833,38.81394,198],[-90.3883,38.81393,198],[-90.38825,38.81391,198],[-90.38822,38.8139,198],[-90.38818,38.8139,198],[-90.38814,38.81389,198],[-90.38811,38.81389,198],[-90.38806,38.81388,198],[-90.38802,38.8139,199],[-90.38798,38.81392,199],[-90.38795,38.81393,199],[-90.38791,38.81393,199],[-90.38787,38.81393,199],[-90.38784,38.81393,199],[-90.38778,38.81394,199],[-90.38775,38.81395,200],[-90.3877,38.81394,200],[-90.38767,38.81393,200],[-90.38763,38.81392,200],[-90.38758,38.8139,200],[-90.38756,38.81387,199],[-90.38754,38.81384,199],[-90.38753,38.81382,199],[-90.38752,38.81378,198],[-90.38752,38.81373,197],[-90.38752,38.81369,197],[-90.38752,38.81366,196],[-90.38754,38.81365,196],[-90.38754,38.81362,196],[-90.38754,38.81358,196],[-90.38755,38.81355,195],[-90.38756,38.81352,195],[-90.38756,38.81347,195],[-90.38757,38.81344,195],[-90.38758,38.81341,195],[-90.38758,38.81338,194],[-90.38759,38.81336,194],[-90.3876,38.81332,194],[-90.38761,38.81329,194],[-90.38765,38.81328,194],[-90.3877,38.81328,194],[-90.38775,38.81328,195],[-90.38778,38.81329,195],[-90.38783,38.81328,195],[-90.38786,38.81327,195],[-90.38789,38.81325,194],[-90.38793,38.81323,194],[-90.38795,38.81321,194],[-90.38798,38.81318,193],[-90.388,38.81315,192],[-90.38803,38.81311,192],[-90.38805,38.81308,191],[-90.38806,38.81305,190],[-90.38807,38.81302,190],[-90.38808,38.81298,189],[-90.38809,38.81296,189],[-90.38809,38.81292,188],[-90.38808,38.81288,188],[-90.38808,38.81285,188],[-90.38808,38.81282,187],[-90.38809,38.81278,186],[-90.38809,38.81274,186],[-90.38813,38.81274,184],[-90.38817,38.81273,183],[-90.3882,38.81272,182],[-90.38824,38.81272,181],[-90.38828,38.81271,180],[-90.38831,38.81271,179],[-90.38835,38.81271,178],[-90.38839,38.81269,176],[-90.38843,38.81269,175],[-90.38846,38.81268,174],[-90.38849,38.81267,173],[-90.38852,38.81265,172],[-90.38856,38.81262,170],[-90.38857,38.8126,170],[-90.38857,38.81257,170],[-90.38858,38.81254,169],[-90.38859,38.81251,169],[-90.38861,38.81248,168],[-90.38862,38.81246,168],[-90.38863,38.81242,167],[-90.3886,38.8124,167],[-90.38858,38.81237,167],[-90.38857,38.81233,166],[-90.38858,38.8123,165],[-90.3886,38.81228,165],[-90.38862,38.81225,164],[-90.38866,38.81225,164],[-90.3887,38.81224,163],[-90.38873,38.81224,163],[-90.38875,38.81222,163],[-90.38877,38.81219,162],[-90.38879,38.81216,161],[-90.38878,38.81213,161],[-90.38877,38.8121,161],[-90.38876,38.81207,160],[-90.38874,38.81205,160],[-90.38872,38.81202,160],[-90.38869,38.81199,161],[-90.38867,38.81196,161],[-90.38864,38.81194,161],[-90.38862,38.81193,162],[-90.38859,38.81191,162],[-90.38856,38.81188,163],[-90.38855,38.81185,163],[-90.38854,38.81182,164],[-90.38855,38.81177,164],[-90.38858,38.81173,164],[-90.38861,38.81171,164],[-90.38864,38.8117,164],[-90.38868,38.81169,163],[-90.38871,38.81167,163],[-90.38874,38.81164,162],[-90.38878,38.81161,161],[-90.38882,38.81159,160],[-90.38884,38.81156,160],[-90.38884,38.81153,160],[-90.38887,38.81153,159],[-90.38891,38.81153,158],[-90.38895,38.81152,157],[-90.389,38.81151,156],[-90.38904,38.8115,155],[-90.38908,38.81149,154],[-90.38911,38.81148,153],[-90.38915,38.81146,152],[-90.38918,38.81144,152],[-90.38919,38.81141,152],[-90.3892,38.81139,152],[-90.38923,38.81137,152],[-90.38922,38.81134,152],[-90.38924,38.81132,152],[-90.38927,38.81133,152],[-90.3893,38.81135,152],[-90.38934,38.81136,152],[-90.38938,38.81136,152],[-90.38941,38.81135,152],[-90.38944,38.81133,152],[-90.38947,38.8113,151],[-90.38947,38.81127,151],[-90.38948,38.81123,151],[-90.38949,38.8112,151],[-90.3895,38.81117,151],[-90.38952,38.81115,151],[-90.38956,38.81114,151],[-90.3896,38.81114,151],[-90.38964,38.81114,151],[-90.38968,38.81116,151],[-90.38972,38.81117,150],[-90.38976,38.81119,150],[-90.38979,38.8112,149],[-90.38983,38.81118,149],[-90.38987,38.81115,148],[-90.38991,38.81113,148],[-90.38996,38.81112,147],[-90.39,38.81113,146],[-90.39003,38.81114,146],[-90.39007,38.81115,145],[-90.39011,38.81116,145],[-90.39016,38.81117,144],[-90.3902,38.81118,144],[-90.39024,38.81118,143],[-90.39028,38.81117,142],[-90.39031,38.81116,142],[-90.39036,38.81117,142],[-90.3904,38.81118,142],[-90.39043,38.81119,142],[-90.39046,38.81121,142],[-90.39049,38.81123,142],[-90.39053,38.81125,142],[-90.39056,38.81126,142],[-90.39061,38.81125,142],[-90.39064,38.81124,142],[-90.39067,38.81122,142],[-90.3907,38.8112,141],[-90.39074,38.81118,141],[-90.39077,38.81117,141],[-90.39081,38.81118,141],[-90.39084,38.81118,141],[-90.39088,38.81119,141],[-90.39091,38.81121,141],[-90.39094,38.81123,140],[-90.39097,38.81126,140],[-90.39099,38.8113,141],[-90.39101,38.81133,141],[-90.39103,38.81136,141],[-90.39106,38.81138,141],[-90.39108,38.81141,141],[-90.39105,38.81144,142],[-90.39106,38.81147,142],[-90.39106,38.8115,142],[-90.39106,38.81153,143],[-90.39106,38.81156,143],[-90.39107,38.81159,144],[-90.3911,38.81159,143],[-90.39114,38.8116,143],[-90.39118,38.81159,142],[-90.39119,38.81162,143],[-90.3912,38.81159,142],[-90.3912,38.81162,143],[-90.39116,38.81161,143],[-90.39113,38.8116,143],[-90.39108,38.81162,144],[-90.39106,38.81164,145],[-90.39102,38.81166,145],[-90.39101,38.81169,146],[-90.39098,38.81172,146],[-90.39096,38.81174,147],[-90.39094,38.81177,147],[-90.39093,38.81181,148],[-90.39093,38.81185,148],[-90.39094,38.81188,149],[-90.39095,38.81193,150],[-90.39097,38.81195,150],[-90.39097,38.81198,150],[-90.39095,38.81201,150],[-90.39092,38.81204,149],[-90.3909,38.81207,149],[-90.3909,38.81211,149],[-90.3909,38.81214,149],[-90.39091,38.81218,149],[-90.39093,38.81221,149],[-90.39094,38.81224,149],[-90.39096,38.81228,148],[-90.39097,38.81231,147],[-90.39098,38.81234,146],[-90.39099,38.81237,145],[-90.39101,38.81239,145],[-90.39102,38.81242,144],[-90.39102,38.81245,143],[-90.39103,38.81248,142],[-90.39103,38.81251,142],[-90.39101,38.81253,142],[-90.39101,38.81257,143],[-90.39102,38.8126,144],[-90.39103,38.81263,144],[-90.39105,38.81266,145],[-90.39106,38.81269,145],[-90.39107,38.81271,146],[-90.39106,38.81275,147],[-90.39105,38.81278,147],[-90.39104,38.8128,148],[-90.39105,38.81284,149],[-90.39106,38.81286,149],[-90.39108,38.81291,150],[-90.39109,38.81295,151],[-90.3911,38.81298,152],[-90.39112,38.813,152],[-90.39114,38.81303,152],[-90.39117,38.81305,153],[-90.3912,38.81306,152],[-90.39122,38.81309,152],[-90.39123,38.81313,152],[-90.39126,38.81316,152],[-90.3913,38.81319,151],[-90.39134,38.8132,151],[-90.39138,38.8132,150],[-90.39139,38.81322,150],[-90.39139,38.81325,150],[-90.3914,38.81328,150],[-90.39143,38.81331,150],[-90.39147,38.81333,149],[-90.39151,38.81335,149],[-90.39154,38.81338,148],[-90.39157,38.8134,147],[-90.3916,38.81343,146],[-90.39161,38.81345,146],[-90.39163,38.81349,145],[-90.39164,38.81353,144],[-90.39166,38.81356,143],[-90.39169,38.8136,142],[-90.39172,38.81363,142],[-90.39175,38.81367,143],[-90.39177,38.81369,142],[-90.39178,38.81372,142],[-90.39178,38.81376,143],[-90.39179,38.81378,142],[-90.39183,38.8138,142],[-90.39186,38.81382,141],[-90.39191,38.81383,139],[-90.39195,38.81386,138],[-90.39198,38.81388,137],[-90.39201,38.81391,137],[-90.39203,38.81393,138],[-90.39206,38.81395,139],[-90.39208,38.81398,140],[-90.39211,38.81401,142],[-90.39214,38.81403,142],[-90.39217,38.81407,145],[-90.39221,38.81409,146],[-90.39227,38.81408,145],[-90.3923,38.81406,144],[-90.39232,38.81403,142],[-90.39235,38.814,141],[-90.3924,38.81395,139],[-90.39242,38.81391,137],[-90.39242,38.81388,136],[-90.39241,38.81384,136],[-90.39242,38.8138,137],[-90.39245,38.81376,137],[-90.39248,38.81374,138],[-90.39249,38.81371,138],[-90.39251,38.81368,138],[-90.39255,38.81367,138],[-90.39256,38.81363,138],[-90.39258,38.8136,138],[-90.39261,38.81357,138],[-90.39263,38.81355,137],[-90.39266,38.81353,137],[-90.39269,38.81351,137],[-90.39273,38.81348,136],[-90.39275,38.81345,136],[-90.39276,38.81342,136],[-90.39278,38.81339,135],[-90.3928,38.81337,135],[-90.39282,38.81334,134],[-90.39285,38.81332,134],[-90.39287,38.81329,134],[-90.39289,38.81327,134],[-90.39292,38.81324,133],[-90.39294,38.81322,133],[-90.39296,38.81319,133],[-90.39299,38.81317,133],[-90.39302,38.81315,133],[-90.39306,38.81315,132],[-90.39309,38.81315,132],[-90.39313,38.81312,132],[-90.39315,38.81311,132],[-90.39319,38.81308,132],[-90.39321,38.81306,132],[-90.39323,38.81303,133],[-90.39325,38.81301,133],[-90.39328,38.81298,133],[-90.3933,38.81296,133],[-90.39333,38.81293,133],[-90.39337,38.81291,133],[-90.3934,38.81289,133],[-90.39344,38.81288,133],[-90.39348,38.81287,133],[-90.39351,38.81285,133],[-90.39356,38.81281,133],[-90.39361,38.81279,133],[-90.39364,38.81278,133],[-90.3936,38.81277,134],[-90.39357,38.81276,134],[-90.39362,38.81277,134],[-90.39364,38.81275,134],[-90.39367,38.81273,134],[-90.3937,38.8127,134],[-90.39374,38.8127,134],[-90.39377,38.81268,134],[-90.3938,38.81266,135],[-90.39383,38.81263,135],[-90.39388,38.81259,135],[-90.39393,38.81254,136],[-90.39399,38.81249,137],[-90.39403,38.81245,137],[-90.39405,38.81243,137],[-90.3941,38.81242,137],[-90.39413,38.81241,137],[-90.39416,38.81239,137],[-90.39419,38.81236,137],[-90.39424,38.8123,137],[-90.3943,38.81226,137],[-90.39436,38.81221,138],[-90.39442,38.81216,138],[-90.39448,38.81211,137],[-90.39453,38.81206,137],[-90.39458,38.81201,137],[-90.39464,38.81197,137],[-90.39469,38.81192,136],[-90.39475,38.81187,136],[-90.39481,38.81183,135],[-90.39484,38.81181,134],[-90.39487,38.81178,134],[-90.39489,38.81175,134],[-90.39491,38.81172,133],[-90.39494,38.8117,133],[-90.39495,38.81173,133],[-90.39498,38.81174,133],[-90.39499,38.81171,133],[-90.39499,38.81174,133],[-90.39495,38.81174,133]]],
        "bbox": [
          -90.38752,
          38.81659,
          -90.39499,
          38.81112
        ]
      },
      "properties": {
        "name": "1.23.2021"
      }
    }
  ]
}