{
  "type": "FeatureCollection",
  "features": [
    {
      "type": "Feature",
      "geometry": {
        "type": "MultiLineString",
        "coordinates": [[[-90.39267,38.81357,137],[-90.3927,38.81359,138],[-90.3927,38.81354,137],[-90.39266,38.81356,137],[-90.39264,38.81359,138],[-90.39261,38.81362,138],[-90.3926,38.81365,138],[-90.39259,38.81368,138],[-90.39256,38.81371,138],[-90.39254,38.81374,138],[-90.39252,38.81377,138],[-90.39251,38.8138,138],[-90.39252,38.81383,138],[-90.39249,38.81384,137],[-90.39247,38.81387,137],[-90.39245,38.8139,137],[-90.39242,38.81392,138],[-90.39238,38.81395,139],[-90.39235,38.81398,140],[-90.39233,38.81401,141],[-90.39231,38.81404,143],[-90.39228,38.81406,144],[-90.39226,38.81408,145],[-90.3923,38.81409,146],[-90.39233,38.81411,147],[-90.39232,38.81414,149],[-90.39229,38.81416,150],[-90.3923,38.81419,151],[-90.39232,38.81423,151],[-90.39236,38.81421,151],[-90.39241,38.81422,151],[-90.39245,38.81423,151],[-90.39248,38.81427,152],[-90.39253,38.81427,151],[-90.39258,38.81427,151],[-90.39263,38.81429,151],[-90.39266,38.81433,151],[-90.39268,38.81436,152],[-90.39269,38.8144,152],[-90.39272,38.81443,153],[-90.39275,38.81445,153],[-90.39278,38.81447,152],[-90.39283,38.81448,151],[-90.39287,38.81449,150],[-90.3929,38.81452,150],[-90.39292,38.81454,149],[-90.39295,38.81457,148],[-90.39297,38.81461,148],[-90.39298,38.81464,147],[-90.393,38.81467,147],[-90.393,38.8147,147],[-90.39299,38.81474,147],[-90.39297,38.81477,148],[-90.39295,38.8148,148],[-90.39294,38.81483,148],[-90.39295,38.81485,148],[-90.39297,38.81488,148],[-90.39299,38.81491,148],[-90.39303,38.81491,147],[-90.39306,38.81493,147],[-90.39308,38.81495,147],[-90.39309,38.81498,147],[-90.39311,38.81501,146],[-90.39315,38.81503,145],[-90.39316,38.81506,145],[-90.39315,38.81509,145],[-90.39313,38.81512,145],[-90.39311,38.81514,145],[-90.39309,38.81517,145],[-90.39306,38.81519,146],[-90.39303,38.81522,147],[-90.393,38.81526,147],[-90.39298,38.8153,147],[-90.39295,38.81532,147],[-90.3929,38.81533,148],[-90.39286,38.81535,148],[-90.39281,38.81539,148],[-90.39276,38.8154,149],[-90.3927,38.81541,151],[-90.39265,38.81543,152],[-90.39262,38.81546,152],[-90.3926,38.8155,152],[-90.39259,38.81553,152],[-90.3926,38.81558,151],[-90.3926,38.81562,150],[-90.3926,38.81566,149],[-90.39261,38.81571,148],[-90.39261,38.81575,147],[-90.39258,38.81576,148],[-90.39255,38.81578,148],[-90.39255,38.81582,147],[-90.39257,38.81584,146],[-90.39259,38.81586,145],[-90.39263,38.81589,144],[-90.39267,38.81591,143],[-90.39269,38.81593,142],[-90.39267,38.81596,143],[-90.39265,38.81599,144],[-90.39263,38.81601,144],[-90.39261,38.81604,145],[-90.39259,38.81607,145],[-90.39257,38.8161,146],[-90.39254,38.81612,147],[-90.39251,38.81612,148],[-90.39247,38.81612,149],[-90.39244,38.81614,150],[-90.39242,38.81617,150],[-90.3924,38.8162,149],[-90.39239,38.81623,149],[-90.39235,38.81623,150],[-90.39234,38.81626,149],[-90.39233,38.81629,149],[-90.39235,38.81631,148],[-90.39235,38.81634,147],[-90.39234,38.81637,146],[-90.39233,38.8164,146],[-90.39232,38.81643,146],[-90.39229,38.81645,146],[-90.39228,38.81648,146],[-90.39225,38.81649,147],[-90.39221,38.8165,148],[-90.39217,38.81651,148],[-90.39214,38.81654,149],[-90.39212,38.81657,149],[-90.39211,38.8166,148],[-90.39208,38.81662,149],[-90.39204,38.8166,150],[-90.39202,38.81658,150],[-90.39203,38.81661,150],[-90.39202,38.81664,150],[-90.39207,38.81664,149],[-90.39209,38.81666,148],[-90.39206,38.81668,148],[-90.39209,38.81671,148],[-90.39208,38.81674,148],[-90.39206,38.81672,148],[-90.39202,38.81671,149],[-90.39198,38.81673,149],[-90.39195,38.81674,150],[-90.39191,38.81676,150],[-90.3919,38.81679,150],[-90.39189,38.81682,150],[-90.39184,38.81683,150],[-90.39181,38.81684,150],[-90.39179,38.81687,149],[-90.39177,38.8169,149],[-90.39173,38.81691,149],[-90.39169,38.81692,148],[-90.39165,38.81693,148],[-90.39161,38.81694,149],[-90.39157,38.81693,150],[-90.39154,38.81692,150],[-90.3915,38.81693,151],[-90.39147,38.81696,150],[-90.39144,38.81698,150],[-90.39142,38.817,150],[-90.39139,38.81703,149],[-90.39138,38.81706,148],[-90.39136,38.81709,147],[-90.39134,38.81711,146],[-90.3913,38.81712,147],[-90.39127,38.81713,147],[-90.39122,38.81715,147],[-90.39119,38.81717,146],[-90.39116,38.81718,146],[-90.39113,38.81719,147],[-90.3911,38.81721,146],[-90.39108,38.81724,146],[-90.39108,38.81727,145],[-90.39107,38.8173,144],[-90.39103,38.81732,144],[-90.39099,38.81732,145],[-90.39096,38.81734,145],[-90.39094,38.81737,144],[-90.39093,38.81739,144],[-90.39091,38.81742,143],[-90.39089,38.81745,142],[-90.39087,38.81749,141],[-90.39086,38.81752,141],[-90.39082,38.81754,141],[-90.39078,38.81755,141],[-90.39074,38.81756,142],[-90.39071,38.81758,142],[-90.39068,38.81761,141],[-90.39065,38.81763,142],[-90.39061,38.81763,142],[-90.39058,38.81763,142],[-90.39055,38.81761,143],[-90.39052,38.8176,144],[-90.39048,38.8176,144],[-90.39044,38.81761,144],[-90.39039,38.81761,145],[-90.39037,38.81764,144],[-90.39034,38.81766,144],[-90.39031,38.81767,144],[-90.39028,38.81768,145],[-90.39026,38.81771,144],[-90.39023,38.81774,144],[-90.39019,38.81776,144],[-90.39015,38.81777,145],[-90.39011,38.81778,146],[-90.39008,38.81778,146],[-90.39004,38.81777,147],[-90.39,38.81778,147],[-90.38997,38.81779,148],[-90.38993,38.81781,148],[-90.3899,38.81782,148],[-90.38986,38.81783,148],[-90.38982,38.81784,149],[-90.38978,38.81784,149],[-90.38974,38.81785,149],[-90.3897,38.81787,149],[-90.38967,38.81788,149],[-90.38964,38.8179,149],[-90.38961,38.81792,149],[-90.38958,38.81794,149],[-90.38954,38.81795,148],[-90.3895,38.81796,148],[-90.38947,38.81797,148],[-90.38942,38.81798,148],[-90.38938,38.81797,149],[-90.38934,38.81795,150],[-90.38931,38.81794,151],[-90.38927,38.81794,152],[-90.38923,38.81794,152],[-90.38918,38.81794,153],[-90.38914,38.81795,154],[-90.38909,38.81797,154],[-90.38904,38.81798,155],[-90.389,38.81799,156],[-90.38895,38.81801,156],[-90.3889,38.81802,157],[-90.38889,38.81806,156],[-90.38889,38.81809,155],[-90.38886,38.81813,154],[-90.38882,38.81816,154],[-90.38877,38.81818,154],[-90.38874,38.81821,153],[-90.38869,38.81823,153],[-90.38863,38.81824,153],[-90.38859,38.81826,153],[-90.38858,38.8183,151],[-90.38858,38.81833,150],[-90.38858,38.81836,148],[-90.38856,38.81838,148],[-90.38852,38.8184,147],[-90.38849,38.81842,146],[-90.38845,38.81843,145],[-90.38841,38.81845,144],[-90.38838,38.81847,144],[-90.38838,38.8185,142],[-90.38837,38.81854,141],[-90.38836,38.81856,140],[-90.38833,38.81858,139],[-90.3883,38.8186,138],[-90.38827,38.81862,138],[-90.38823,38.81863,139],[-90.38819,38.81864,139],[-90.38814,38.81865,140],[-90.3881,38.81868,140],[-90.38806,38.81865,141],[-90.38801,38.81865,142],[-90.38795,38.81864,143],[-90.38792,38.81868,143],[-90.3879,38.81872,142],[-90.38786,38.81874,143],[-90.38784,38.81877,142],[-90.38778,38.81877,143],[-90.38773,38.81878,143],[-90.38769,38.8188,143],[-90.38764,38.81882,143],[-90.3876,38.81884,143],[-90.38757,38.81888,142],[-90.38753,38.8189,141],[-90.3875,38.81893,140],[-90.38749,38.81897,139],[-90.38748,38.81901,138],[-90.38744,38.81904,137],[-90.38741,38.81905,136],[-90.38737,38.81906,136],[-90.38733,38.81906,136],[-90.38729,38.81907,136],[-90.38725,38.81907,136],[-90.38725,38.8191,134],[-90.38724,38.81913,133],[-90.38723,38.8191,134],[-90.3872,38.81909,135],[-90.38716,38.81909,135],[-90.38714,38.81911,134],[-90.38715,38.81914,133],[-90.38716,38.81917,132],[-90.38716,38.8192,132],[-90.38714,38.81922,132],[-90.3871,38.81924,132],[-90.38707,38.81927,132],[-90.38704,38.81928,132],[-90.387,38.81927,132],[-90.38697,38.81928,132],[-90.38694,38.81929,132],[-90.3869,38.81931,132],[-90.38686,38.81933,132],[-90.38683,38.81935,132],[-90.3868,38.81937,132],[-90.38677,38.81938,132],[-90.38675,38.8194,132],[-90.38672,38.81942,132],[-90.38668,38.81941,132],[-90.38665,38.81943,132],[-90.38665,38.81945,131],[-90.38666,38.81948,131],[-90.38667,38.81945,131],[-90.38666,38.81943,132],[-90.38664,38.81945,131],[-90.38662,38.81948,131],[-90.38659,38.8195,131],[-90.38661,38.81952,131],[-90.38661,38.81955,131],[-90.38661,38.81952,131],[-90.38658,38.81954,131],[-90.38655,38.81955,131],[-90.38651,38.81955,131],[-90.38647,38.81955,131],[-90.38643,38.81957,131],[-90.3864,38.81957,131],[-90.38635,38.81958,131],[-90.38631,38.81959,132],[-90.38628,38.81961,132],[-90.38626,38.81963,132],[-90.38623,38.81965,132],[-90.38626,38.81966,131],[-90.38623,38.81966,132],[-90.38619,38.81966,132],[-90.38616,38.81966,132],[-90.38612,38.81967,132],[-90.38609,38.81969,131],[-90.38613,38.8197,131],[-90.38609,38.8197,131],[-90.38605,38.81969,131],[-90.38601,38.81969,132],[-90.38598,38.81969,132],[-90.38594,38.8197,131],[-90.38589,38.81971,131],[-90.38586,38.81972,131],[-90.3859,38.81972,131],[-90.38589,38.81969,132],[-90.38589,38.81966,133],[-90.38586,38.81967,132],[-90.38582,38.81968,132],[-90.3858,38.8197,131],[-90.3858,38.81973,131],[-90.38583,38.81972,131],[-90.38586,38.81971,131],[-90.38582,38.81972,131],[-90.38578,38.81972,131],[-90.38576,38.81974,131],[-90.38575,38.81971,131],[-90.38572,38.81971,131],[-90.38567,38.81972,131],[-90.38564,38.81973,131],[-90.38561,38.81971,131],[-90.38557,38.8197,131],[-90.38554,38.81969,132],[-90.38554,38.81971,131],[-90.38553,38.81969,132],[-90.38553,38.81965,133],[-90.38556,38.81965,133],[-90.3856,38.81966,133],[-90.38563,38.81965,133],[-90.38566,38.81963,134],[-90.38571,38.81964,134],[-90.38575,38.81967,133],[-90.3858,38.81968,132],[-90.38584,38.81969,132],[-90.3859,38.8197,131],[-90.38594,38.81969,132],[-90.38599,38.81969,132],[-90.38604,38.81968,132],[-90.38609,38.81967,132],[-90.38613,38.81965,132],[-90.38618,38.81966,132],[-90.38623,38.81965,132],[-90.38628,38.81963,132],[-90.38633,38.81961,131],[-90.38637,38.81959,131],[-90.38642,38.81957,131],[-90.38646,38.81957,131],[-90.38652,38.81957,131],[-90.38656,38.81955,131],[-90.38656,38.81952,131],[-90.38655,38.81955,131],[-90.38658,38.81957,131],[-90.38658,38.81953,131],[-90.38657,38.81951,131],[-90.38656,38.81953,131],[-90.3866,38.81952,131],[-90.38663,38.8195,131],[-90.38667,38.81948,131],[-90.3867,38.81948,131],[-90.38673,38.81946,131],[-90.38674,38.81943,132],[-90.38675,38.8194,132],[-90.3868,38.81941,132],[-90.38685,38.81939,132],[-90.38689,38.81937,132],[-90.38692,38.81934,132],[-90.38697,38.81932,132],[-90.38702,38.81929,132],[-90.38706,38.81928,132],[-90.3871,38.81925,132],[-90.38712,38.81922,132],[-90.38718,38.81921,132],[-90.38723,38.8192,132],[-90.38727,38.81917,132],[-90.3873,38.81914,133],[-90.38735,38.81913,133],[-90.3874,38.81911,134],[-90.38742,38.81907,136],[-90.38743,38.81903,137],[-90.38743,38.819,138],[-90.38746,38.81896,139],[-90.38749,38.81893,140],[-90.38754,38.81892,141],[-90.38759,38.8189,141],[-90.38764,38.81889,141],[-90.38768,38.81886,142],[-90.38771,38.81883,143],[-90.38774,38.8188,143],[-90.38778,38.81878,143],[-90.38784,38.81877,142],[-90.38789,38.81875,142],[-90.38794,38.81873,142],[-90.38798,38.8187,142],[-90.38803,38.81869,141],[-90.38809,38.8187,140],[-90.38814,38.81871,140],[-90.38819,38.81871,139],[-90.38824,38.81871,139],[-90.38825,38.81868,138],[-90.38828,38.81864,138],[-90.3883,38.81861,138],[-90.38831,38.81856,140],[-90.38831,38.81852,142],[-90.38832,38.81848,143],[-90.38833,38.81844,145],[-90.38833,38.8184,147],[-90.38834,38.81836,148],[-90.3884,38.81837,148],[-90.38845,38.81837,148],[-90.38851,38.81837,148],[-90.38855,38.81835,149],[-90.38857,38.81832,150],[-90.38863,38.8183,151],[-90.38868,38.81831,150],[-90.38872,38.81828,150],[-90.38877,38.81826,150],[-90.38882,38.81825,150],[-90.38885,38.81821,151],[-90.38886,38.81818,152],[-90.38885,38.81814,154],[-90.3889,38.81813,153],[-90.38895,38.81811,153],[-90.38897,38.81808,153],[-90.38899,38.81805,154],[-90.38904,38.81806,152],[-90.3891,38.81806,151],[-90.38915,38.81805,150],[-90.3892,38.81806,149],[-90.38925,38.81806,148],[-90.3893,38.81806,148],[-90.38931,38.81802,149],[-90.3893,38.81798,150],[-90.38931,38.81793,151],[-90.38935,38.81793,151],[-90.38938,38.81794,150],[-90.38942,38.81795,149],[-90.38945,38.81795,149],[-90.3895,38.81795,149],[-90.38955,38.81792,149],[-90.38958,38.8179,149],[-90.38961,38.81789,149],[-90.38964,38.81786,150],[-90.38968,38.81786,150],[-90.38973,38.81787,149],[-90.38976,38.81786,149],[-90.3898,38.81785,149],[-90.38984,38.81786,148],[-90.38987,38.81787,147],[-90.38991,38.81786,147],[-90.38992,38.81783,147],[-90.38996,38.81782,147],[-90.39,38.81782,147],[-90.39004,38.81782,146],[-90.39009,38.81783,145],[-90.3901,38.81779,146],[-90.39013,38.81776,145],[-90.39017,38.81774,145],[-90.39021,38.81771,145],[-90.39026,38.8177,144],[-90.39031,38.81769,144],[-90.39033,38.81766,144],[-90.39038,38.81766,144],[-90.39041,38.81769,143],[-90.39046,38.81769,142],[-90.39046,38.81766,143],[-90.39044,38.81769,143],[-90.39039,38.8177,143],[-90.39035,38.81768,144],[-90.39034,38.81764,145],[-90.39034,38.8176,146],[-90.3904,38.8176,145],[-90.39044,38.81761,144],[-90.3905,38.81761,144],[-90.39054,38.8176,143],[-90.39059,38.81759,143],[-90.39064,38.81759,142],[-90.39068,38.81756,143],[-90.39069,38.81753,143],[-90.39067,38.8175,144],[-90.39063,38.81749,145],[-90.3906,38.81749,145],[-90.39064,38.81748,145],[-90.39064,38.81745,146],[-90.39062,38.81743,147],[-90.39062,38.8174,148],[-90.39063,38.81736,149],[-90.39063,38.81732,151],[-90.39063,38.81729,152],[-90.39059,38.81729,152],[-90.39055,38.8173,153],[-90.39059,38.81732,151],[-90.39063,38.81736,149],[-90.3906,38.81733,151],[-90.39056,38.81731,152],[-90.39056,38.81728,153],[-90.39055,38.81724,155],[-90.39052,38.8172,156],[-90.39053,38.81717,157],[-90.39055,38.81713,158],[-90.39058,38.8171,159],[-90.39063,38.81709,159],[-90.3906,38.81706,160],[-90.39055,38.81706,161],[-90.39053,38.81702,162],[-90.39054,38.81698,163],[-90.39055,38.81694,165],[-90.39053,38.8169,165],[-90.39048,38.81692,165],[-90.39053,38.81689,165],[-90.39057,38.81687,165],[-90.39059,38.81683,165],[-90.39062,38.8168,166],[-90.39065,38.81677,166],[-90.3907,38.81679,165],[-90.39073,38.81682,165],[-90.39076,38.81685,164],[-90.39079,38.81682,164],[-90.39078,38.81678,165],[-90.39073,38.81681,165],[-90.39073,38.81684,164],[-90.39079,38.81684,164],[-90.39083,38.81681,164],[-90.39086,38.81677,164],[-90.3909,38.81679,164],[-90.39091,38.81683,163],[-90.39086,38.81684,163],[-90.39085,38.81681,164],[-90.39087,38.81676,165],[-90.39091,38.81675,165],[-90.39094,38.81672,165],[-90.39095,38.81676,164],[-90.391,38.81677,163],[-90.39104,38.81678,163],[-90.39109,38.81679,162],[-90.39112,38.81677,162],[-90.39117,38.81675,162],[-90.39122,38.81677,161],[-90.39127,38.81676,160],[-90.39131,38.81673,161],[-90.39132,38.8167,161],[-90.39138,38.81669,161],[-90.39142,38.81667,161],[-90.39145,38.81664,161],[-90.39145,38.8166,162],[-90.39143,38.81656,164],[-90.39142,38.81653,165],[-90.39137,38.81651,167],[-90.39141,38.81654,165],[-90.39138,38.81657,165],[-90.39143,38.81656,164],[-90.39146,38.81653,164],[-90.39152,38.81653,163],[-90.39155,38.8165,163],[-90.3916,38.81648,162],[-90.39161,38.81644,163],[-90.39161,38.8164,165],[-90.39158,38.81637,166],[-90.3916,38.81632,167],[-90.39162,38.81628,168],[-90.39164,38.81624,169],[-90.39165,38.8162,171],[-90.39167,38.81617,171],[-90.3917,38.81613,172],[-90.39172,38.81608,173],[-90.39174,38.81605,173],[-90.39177,38.81602,172],[-90.39182,38.81601,171],[-90.39185,38.81603,170],[-90.39183,38.81599,171],[-90.39181,38.81595,173],[-90.3918,38.81591,174],[-90.39178,38.81587,176],[-90.39177,38.81583,177],[-90.39176,38.81579,177],[-90.39174,38.81576,178],[-90.39172,38.81572,179],[-90.39174,38.81568,179],[-90.39173,38.81564,180],[-90.39177,38.81566,179],[-90.39173,38.81569,180],[-90.39168,38.81567,181],[-90.39163,38.81566,182],[-90.39159,38.81564,182],[-90.39155,38.81562,183],[-90.39153,38.81559,183],[-90.3915,38.81555,184],[-90.39147,38.81552,184],[-90.39142,38.81552,184],[-90.3914,38.81547,185],[-90.39136,38.81545,185],[-90.39131,38.81544,185],[-90.39126,38.81544,185],[-90.39122,38.81545,185],[-90.39117,38.81544,186],[-90.39112,38.81545,186],[-90.39106,38.81546,186],[-90.39101,38.81545,186],[-90.39097,38.81543,186],[-90.39092,38.81543,186],[-90.39086,38.81543,185],[-90.39083,38.81546,185],[-90.3908,38.8155,185],[-90.39078,38.81554,184],[-90.39073,38.81555,183],[-90.39068,38.81554,183],[-90.39063,38.81553,183],[-90.39058,38.81554,182],[-90.39054,38.81551,182],[-90.39052,38.81547,182],[-90.39049,38.81544,182],[-90.39044,38.81544,181],[-90.39038,38.81544,180],[-90.39033,38.81545,180],[-90.39029,38.81542,180],[-90.39026,38.81539,180],[-90.3902,38.81541,179],[-90.39015,38.8154,180],[-90.3901,38.81539,180],[-90.39006,38.81536,180],[-90.39003,38.81533,181],[-90.38999,38.8153,181],[-90.38995,38.81528,182],[-90.3899,38.81523,183],[-90.38987,38.8152,184],[-90.38983,38.81516,185],[-90.38981,38.81513,186],[-90.38975,38.81511,186],[-90.38971,38.81509,187],[-90.38968,38.81505,187],[-90.38964,38.81502,188],[-90.38959,38.81499,188],[-90.38958,38.81495,189],[-90.38956,38.81492,189],[-90.38956,38.81487,189],[-90.38955,38.81484,190],[-90.38957,38.81479,190],[-90.38955,38.81474,191],[-90.38954,38.8147,191],[-90.38953,38.81467,190],[-90.38955,38.81463,190],[-90.38957,38.8146,190],[-90.38955,38.81455,190],[-90.38952,38.81453,190],[-90.38947,38.81455,190],[-90.3895,38.81451,190],[-90.38954,38.81449,189],[-90.38951,38.81452,190],[-90.38951,38.81447,189],[-90.38951,38.81443,189],[-90.38948,38.8144,189],[-90.38943,38.8144,189],[-90.38941,38.81436,189],[-90.38936,38.81434,190],[-90.38931,38.81432,190],[-90.38927,38.81429,191],[-90.38923,38.81428,191],[-90.3892,38.81425,192],[-90.38914,38.81425,192],[-90.38909,38.81424,192],[-90.38904,38.81423,192],[-90.38898,38.81424,192],[-90.38893,38.81424,192],[-90.38888,38.81423,193],[-90.38884,38.8142,193],[-90.38879,38.81419,194],[-90.38875,38.81417,195],[-90.3887,38.81417,195],[-90.38865,38.81417,196],[-90.3886,38.81416,197],[-90.38856,38.81414,197],[-90.38853,38.81411,197],[-90.38849,38.81408,197],[-90.38845,38.81405,197],[-90.38839,38.81404,198],[-90.38833,38.81403,198],[-90.38828,38.81401,198],[-90.38823,38.81399,198],[-90.38818,38.81395,198],[-90.38815,38.81393,198],[-90.38809,38.81393,199],[-90.38805,38.81393,199],[-90.388,38.81394,199],[-90.38795,38.81395,199],[-90.3879,38.81395,199],[-90.38785,38.81397,199],[-90.38779,38.81396,199],[-90.38774,38.81396,200],[-90.38768,38.81395,200],[-90.38764,38.81397,200],[-90.38759,38.81395,200],[-90.38756,38.81392,200],[-90.3875,38.81392,200],[-90.38753,38.81389,199],[-90.38751,38.81385,199],[-90.38752,38.81382,199],[-90.38757,38.8138,198],[-90.38757,38.81376,198],[-90.38761,38.81375,198],[-90.3876,38.81371,197],[-90.38758,38.81367,197],[-90.38759,38.81362,196],[-90.3876,38.81358,196],[-90.38763,38.81355,196],[-90.38764,38.81351,196],[-90.38764,38.81346,195],[-90.38763,38.81342,195],[-90.38762,38.81338,195],[-90.38767,38.81339,195],[-90.38768,38.81336,195],[-90.38768,38.81331,195],[-90.38772,38.81333,195],[-90.38774,38.81337,195],[-90.38778,38.8134,196],[-90.38781,38.81337,196],[-90.38783,38.8134,196],[-90.38786,38.81344,196],[-90.38786,38.81339,196],[-90.38787,38.81335,196],[-90.3879,38.81332,195],[-90.38791,38.81328,195],[-90.38791,38.81325,194],[-90.38786,38.81323,194],[-90.38785,38.81319,194],[-90.38789,38.81322,194],[-90.38793,38.81322,194],[-90.38797,38.81319,193],[-90.38801,38.81316,193],[-90.38803,38.81313,192],[-90.38802,38.81309,191],[-90.38806,38.81306,190],[-90.38809,38.81303,189],[-90.3881,38.81299,189],[-90.38813,38.81302,188],[-90.38813,38.81298,188],[-90.38813,38.81293,187],[-90.38811,38.81289,187],[-90.38814,38.81286,186],[-90.38818,38.81284,185],[-90.38822,38.81283,184],[-90.38824,38.81279,182],[-90.38829,38.8128,181],[-90.38834,38.81278,179],[-90.38834,38.81274,178],[-90.38837,38.81272,177],[-90.3884,38.81269,176],[-90.38844,38.81271,175],[-90.38848,38.81274,174],[-90.38853,38.81272,172],[-90.38855,38.81268,171],[-90.38857,38.81264,170],[-90.38861,38.81261,169],[-90.38865,38.81258,168],[-90.38869,38.81256,167],[-90.38866,38.81253,168],[-90.38864,38.81249,168],[-90.38862,38.81245,167],[-90.38862,38.81241,167],[-90.38865,38.81237,166],[-90.38869,38.81236,165],[-90.38871,38.8124,165],[-90.38874,38.81236,164],[-90.38875,38.81232,164],[-90.3888,38.8123,163],[-90.38883,38.81227,162],[-90.38881,38.81224,162],[-90.38881,38.8122,162],[-90.38879,38.81216,161],[-90.38876,38.81212,161],[-90.38874,38.81209,161],[-90.38871,38.81206,161],[-90.3887,38.81201,161],[-90.3887,38.81198,160],[-90.38872,38.81201,160],[-90.38871,38.81205,161],[-90.38872,38.81209,161],[-90.38867,38.81209,162],[-90.38862,38.81209,162],[-90.38866,38.81206,162],[-90.38871,38.81207,161],[-90.38875,38.81205,160],[-90.38875,38.812,160],[-90.38875,38.81197,159],[-90.38873,38.812,160],[-90.38873,38.81204,160],[-90.38872,38.81201,160],[-90.3887,38.81204,161],[-90.3887,38.81208,161],[-90.38873,38.81205,161],[-90.38868,38.81206,161],[-90.38865,38.81203,162],[-90.38861,38.812,162],[-90.38859,38.81196,162],[-90.38857,38.81193,162],[-90.3886,38.81189,162],[-90.38861,38.81185,163],[-90.38861,38.81181,163],[-90.38863,38.81177,163],[-90.38867,38.81174,163],[-90.38868,38.8117,163],[-90.38868,38.81176,162],[-90.38868,38.8118,162],[-90.3887,38.81176,162],[-90.38875,38.81177,161],[-90.38872,38.81173,162],[-90.38873,38.81168,162],[-90.38875,38.81165,162],[-90.38877,38.81162,161],[-90.38881,38.81159,161],[-90.38886,38.81159,159],[-90.3889,38.81161,159],[-90.38895,38.81161,158],[-90.38892,38.81165,158],[-90.38893,38.81161,158],[-90.38896,38.81158,157],[-90.389,38.81155,156],[-90.38904,38.81153,155],[-90.38908,38.8115,154],[-90.38913,38.81149,152],[-90.38917,38.81146,152],[-90.38921,38.81144,152],[-90.38926,38.81145,152],[-90.38932,38.81145,152],[-90.38935,38.81141,152],[-90.38938,38.81137,152],[-90.38941,38.81134,152],[-90.38946,38.81132,151],[-90.38949,38.81129,151],[-90.38953,38.81126,151],[-90.38958,38.81124,151],[-90.38961,38.81127,151],[-90.38966,38.81126,150],[-90.38971,38.81124,150],[-90.38977,38.81123,149],[-90.38982,38.81123,149],[-90.38986,38.81121,148],[-90.3899,38.81119,147],[-90.38995,38.81118,147],[-90.39,38.81121,146],[-90.39004,38.81123,145],[-90.39007,38.81126,145],[-90.39011,38.81128,144],[-90.39016,38.81127,144],[-90.39021,38.81127,143],[-90.39026,38.81127,143],[-90.39031,38.81128,142],[-90.39036,38.81127,142],[-90.39042,38.81126,142],[-90.39046,38.81128,142],[-90.39048,38.81131,142],[-90.39052,38.81134,142],[-90.39055,38.81132,142],[-90.3906,38.8113,142],[-90.39063,38.81127,142],[-90.39064,38.81123,142],[-90.39061,38.8112,142],[-90.39066,38.81119,142],[-90.3907,38.81118,141],[-90.39074,38.81117,141],[-90.39078,38.81117,141],[-90.39081,38.81115,141],[-90.39081,38.81112,141],[-90.39081,38.81109,140],[-90.39081,38.81106,140],[-90.39082,38.81103,140],[-90.39084,38.811,139],[-90.39085,38.81097,139],[-90.39087,38.81093,138],[-90.39087,38.8109,138],[-90.39087,38.81087,138],[-90.39086,38.81084,137],[-90.39084,38.81081,138],[-90.39083,38.81078,138],[-90.39082,38.81075,138],[-90.39083,38.81072,138],[-90.39084,38.81069,138],[-90.3908,38.81071,138],[-90.39075,38.81071,139],[-90.39071,38.81071,139],[-90.39068,38.8107,139],[-90.39064,38.81069,139],[-90.3906,38.81069,139],[-90.39056,38.8107,139],[-90.39052,38.81073,139],[-90.3905,38.81075,139],[-90.39048,38.81078,140],[-90.39046,38.81082,140],[-90.39042,38.81084,141],[-90.39036,38.81083,141],[-90.39033,38.81083,141],[-90.39029,38.81083,141],[-90.39025,38.81082,142],[-90.39023,38.81079,141],[-90.39023,38.81076,141],[-90.39022,38.81073,141],[-90.39017,38.81074,141],[-90.39012,38.81075,142],[-90.39008,38.81076,142],[-90.39004,38.81078,142],[-90.39,38.8108,143],[-90.38996,38.81081,144],[-90.38991,38.81081,144],[-90.38986,38.8108,144],[-90.38982,38.81079,145],[-90.38977,38.81078,145],[-90.38972,38.81079,146],[-90.38968,38.81079,146],[-90.38965,38.81078,146],[-90.38961,38.81078,146],[-90.38957,38.81077,146],[-90.38952,38.81076,146],[-90.38948,38.81074,146],[-90.38944,38.81073,146],[-90.3894,38.81071,146],[-90.38938,38.81068,146],[-90.38936,38.81065,145],[-90.38935,38.81062,145],[-90.38933,38.81059,144],[-90.38932,38.81056,143],[-90.3893,38.81053,143],[-90.38926,38.8105,144],[-90.38923,38.81048,144],[-90.38921,38.81045,143],[-90.3892,38.81041,143],[-90.38919,38.81038,143],[-90.38919,38.81034,143],[-90.38918,38.8103,143],[-90.38917,38.81027,143],[-90.38916,38.81024,143],[-90.38914,38.81021,143],[-90.38914,38.81018,144],[-90.38913,38.81015,144],[-90.38913,38.81011,144],[-90.38912,38.81008,144],[-90.38911,38.81005,145],[-90.3891,38.81002,145],[-90.38909,38.80999,145],[-90.38908,38.80996,145],[-90.38907,38.80993,145],[-90.38906,38.80991,145],[-90.38905,38.80988,145],[-90.38905,38.80985,145],[-90.38904,38.80981,145],[-90.38902,38.80978,145],[-90.38899,38.80975,146],[-90.38897,38.80974,146],[-90.38895,38.80971,146],[-90.38891,38.80968,146],[-90.38889,38.80966,146],[-90.38887,38.80963,146],[-90.38886,38.80959,145],[-90.38884,38.80956,145],[-90.38881,38.80954,146],[-90.38877,38.80953,146],[-90.38872,38.80952,147],[-90.38871,38.80949,146],[-90.38871,38.80946,146],[-90.3887,38.80942,145],[-90.38869,38.80939,145],[-90.38868,38.80936,144],[-90.38867,38.80933,144],[-90.38865,38.80929,143],[-90.38865,38.80926,143],[-90.38864,38.80923,142],[-90.38864,38.8092,142],[-90.38863,38.80917,141],[-90.38862,38.80913,141],[-90.38862,38.8091,141],[-90.38861,38.80907,141],[-90.38861,38.80904,141],[-90.38859,38.80902,141],[-90.38856,38.80899,142],[-90.38856,38.80894,142],[-90.38857,38.80891,141],[-90.38857,38.80887,141],[-90.38856,38.80883,142],[-90.38855,38.80879,142],[-90.38854,38.80876,142],[-90.38851,38.80873,142],[-90.38851,38.8087,143],[-90.38851,38.80868,143],[-90.3885,38.80864,143],[-90.38848,38.80862,143],[-90.38845,38.80859,144],[-90.38845,38.80857,144],[-90.38845,38.80853,144],[-90.38845,38.8085,144],[-90.38845,38.80847,143],[-90.38844,38.80844,144],[-90.38843,38.80841,144],[-90.38843,38.80837,144],[-90.38843,38.80835,144],[-90.38843,38.80831,143],[-90.38843,38.80827,143],[-90.38843,38.80823,143],[-90.38844,38.80819,142],[-90.38844,38.80816,142],[-90.38844,38.80813,142],[-90.38843,38.8081,142],[-90.38842,38.80806,141],[-90.38842,38.80803,141],[-90.38843,38.808,141],[-90.38842,38.80796,142],[-90.3884,38.80793,142],[-90.38838,38.80791,142],[-90.38837,38.80789,143],[-90.38836,38.80785,143],[-90.38836,38.80782,143],[-90.38836,38.80778,143],[-90.38836,38.80775,143],[-90.38835,38.80771,143],[-90.38834,38.80768,143],[-90.38833,38.80765,143],[-90.38832,38.80762,143],[-90.3883,38.80759,143],[-90.38829,38.80757,143],[-90.38828,38.80753,143],[-90.38828,38.80748,143],[-90.38827,38.80744,143],[-90.38824,38.80741,143],[-90.38823,38.80737,143],[-90.38822,38.80733,143],[-90.3882,38.80729,143],[-90.38819,38.80726,143],[-90.38816,38.80722,144],[-90.38815,38.80718,143],[-90.38816,38.80714,143],[-90.38819,38.80711,142],[-90.38817,38.80706,141],[-90.38816,38.80703,141],[-90.38816,38.80699,141],[-90.38815,38.80695,140],[-90.38813,38.80691,141],[-90.38812,38.80687,140],[-90.38812,38.80682,140],[-90.3881,38.80679,140],[-90.38812,38.80675,139],[-90.38811,38.80671,140],[-90.3881,38.80667,139],[-90.38808,38.80663,140],[-90.38808,38.80658,140],[-90.38808,38.80654,141],[-90.38808,38.8065,141],[-90.38809,38.80644,141],[-90.3881,38.8064,141],[-90.3881,38.80636,141],[-90.38808,38.80631,141],[-90.38808,38.80627,141],[-90.38807,38.80623,141],[-90.38807,38.8062,141],[-90.38807,38.80616,141],[-90.38806,38.80612,141],[-90.38806,38.80609,141],[-90.38806,38.80605,141],[-90.38805,38.80601,142],[-90.38804,38.80597,142],[-90.38801,38.80593,143],[-90.38799,38.8059,143],[-90.38797,38.80586,144],[-90.38792,38.80584,145],[-90.38789,38.80579,145],[-90.38788,38.80575,145],[-90.38788,38.8057,144],[-90.3879,38.80566,142],[-90.38793,38.80563,141],[-90.38795,38.8056,141],[-90.38796,38.80556,140],[-90.38794,38.80552,140],[-90.38793,38.80548,141],[-90.38791,38.80545,141],[-90.38788,38.80542,142],[-90.38785,38.80538,142],[-90.38786,38.80533,142],[-90.38785,38.80538,142],[-90.38781,38.80534,143],[-90.38781,38.8053,143],[-90.38782,38.80526,143],[-90.38782,38.80522,143],[-90.38781,38.80518,144],[-90.3878,38.80514,144],[-90.3878,38.80509,144],[-90.38782,38.80506,144],[-90.38782,38.80502,144],[-90.3878,38.80498,144],[-90.38778,38.80494,144],[-90.38778,38.8049,144],[-90.38779,38.80486,143],[-90.38778,38.80482,143],[-90.3878,38.80479,143],[-90.38781,38.80475,142],[-90.38778,38.80472,142],[-90.38776,38.80467,143],[-90.38774,38.80463,143],[-90.38772,38.80459,143],[-90.38773,38.80455,143],[-90.38771,38.80452,143],[-90.3877,38.80448,143],[-90.38764,38.80449,144],[-90.3876,38.80447,144],[-90.38764,38.8045,144],[-90.38761,38.80446,144],[-90.38756,38.80444,145],[-90.38751,38.80444,145],[-90.38746,38.80446,146],[-90.3875,38.80443,146],[-90.38751,38.80439,146],[-90.38748,38.80436,146],[-90.38744,38.80433,147],[-90.38739,38.80432,148],[-90.38734,38.80433,149],[-90.38731,38.80437,149],[-90.38728,38.80439,149],[-90.38725,38.80435,150],[-90.38726,38.80431,150],[-90.38723,38.80428,150],[-90.38718,38.80426,151],[-90.38714,38.80424,152],[-90.3871,38.80421,153],[-90.38708,38.80418,154],[-90.38708,38.80414,154],[-90.38704,38.80417,154],[-90.38705,38.80413,154],[-90.38707,38.8041,154],[-90.38712,38.80411,153],[-90.38717,38.80411,152],[-90.38718,38.80416,152],[-90.3872,38.8042,151],[-90.38721,38.80423,151],[-90.38721,38.80427,151],[-90.38726,38.8043,150],[-90.38731,38.8043,149],[-90.38733,38.80427,149],[-90.38735,38.80423,149],[-90.38737,38.80419,148],[-90.3874,38.80416,148],[-90.38743,38.80413,148],[-90.38743,38.80409,148],[-90.38743,38.80413,148],[-90.38744,38.80417,147],[-90.38741,38.8042,148],[-90.38739,38.80425,148],[-90.38739,38.80429,148],[-90.38737,38.80433,148],[-90.38742,38.80435,147],[-90.38745,38.80438,147],[-90.3875,38.80439,146],[-90.38755,38.8044,145],[-90.38759,38.80441,144],[-90.38763,38.80444,144],[-90.38767,38.80447,143],[-90.38771,38.8045,143],[-90.38771,38.80453,143],[-90.38768,38.80456,143],[-90.3877,38.80459,143],[-90.38774,38.80463,143],[-90.38778,38.80465,142],[-90.3878,38.80469,142],[-90.38781,38.80474,142],[-90.38781,38.80479,143],[-90.38779,38.80484,143],[-90.38778,38.80488,144],[-90.38777,38.80493,144],[-90.38776,38.80497,145],[-90.38777,38.80501,145],[-90.38777,38.80505,144],[-90.38776,38.80509,144],[-90.38777,38.80513,144],[-90.38778,38.80517,144],[-90.38777,38.80521,144],[-90.38777,38.80525,144],[-90.38779,38.80529,143],[-90.3878,38.80533,143],[-90.3878,38.80537,143],[-90.38783,38.80541,142],[-90.38784,38.80544,142],[-90.38785,38.80549,142],[-90.38784,38.80552,142],[-90.38784,38.80558,142],[-90.38785,38.80562,143],[-90.38786,38.80566,143],[-90.38787,38.8057,144],[-90.38786,38.80574,145],[-90.38786,38.80579,146],[-90.38788,38.80583,146],[-90.3879,38.80588,145],[-90.3879,38.80593,146],[-90.38792,38.80597,145],[-90.38792,38.80601,145],[-90.38791,38.80606,146],[-90.38789,38.8061,146],[-90.3879,38.80615,146],[-90.38793,38.8062,145],[-90.38797,38.80623,144],[-90.388,38.80627,143],[-90.38802,38.80631,142],[-90.38803,38.80635,142],[-90.38803,38.80639,142],[-90.38803,38.80644,142],[-90.38802,38.80649,142],[-90.38802,38.80653,142],[-90.38802,38.80656,142],[-90.38805,38.8066,141],[-90.38806,38.80664,140],[-90.38807,38.80668,140],[-90.38807,38.80671,140],[-90.38807,38.80676,141],[-90.38807,38.80679,141],[-90.38809,38.80684,141],[-90.3881,38.80688,141],[-90.38812,38.80692,141],[-90.38814,38.80695,141],[-90.38814,38.80699,141],[-90.38813,38.80703,142],[-90.38814,38.80707,142],[-90.38813,38.80711,143],[-90.38812,38.80715,143],[-90.38813,38.8072,144],[-90.38814,38.80724,144],[-90.38814,38.80728,144],[-90.38816,38.80733,144],[-90.38818,38.80737,144],[-90.3882,38.8074,144],[-90.38822,38.80743,144],[-90.38822,38.80747,144],[-90.38822,38.80752,144],[-90.38823,38.80756,144],[-90.38825,38.8076,144],[-90.38826,38.80764,144],[-90.38826,38.80769,144],[-90.38825,38.80773,144],[-90.38826,38.80777,145],[-90.38827,38.80781,144],[-90.38828,38.80784,144],[-90.38829,38.80789,144],[-90.38829,38.80792,144],[-90.38833,38.80795,143],[-90.38838,38.80795,142],[-90.38837,38.80799,142],[-90.38839,38.80803,142],[-90.38841,38.80807,141],[-90.38841,38.80811,142],[-90.38841,38.80816,142],[-90.38841,38.8082,143],[-90.38842,38.80824,143],[-90.38845,38.80828,143],[-90.38845,38.80832,143],[-90.38844,38.80836,143],[-90.38844,38.8084,143],[-90.38845,38.80845,143],[-90.38846,38.80849,143],[-90.38845,38.80853,144],[-90.38846,38.80857,144],[-90.38847,38.80861,143],[-90.38848,38.80865,143],[-90.38849,38.80869,143],[-90.38851,38.80872,143],[-90.38853,38.80876,142],[-90.38855,38.8088,142],[-90.38856,38.80884,141],[-90.38857,38.80888,141],[-90.38858,38.80892,141],[-90.3886,38.80895,141],[-90.38859,38.80899,141],[-90.38859,38.80903,141],[-90.38862,38.80907,141],[-90.38864,38.80911,141],[-90.38864,38.80915,141],[-90.38866,38.80919,142],[-90.3887,38.80923,142],[-90.38872,38.80927,143],[-90.38873,38.8093,143],[-90.38876,38.80934,143],[-90.38877,38.80938,144],[-90.38877,38.80942,144],[-90.38878,38.80947,145],[-90.3888,38.8095,145],[-90.38876,38.80952,146],[-90.38879,38.80955,146],[-90.38882,38.80958,146],[-90.38885,38.80962,146],[-90.38887,38.80965,146],[-90.38889,38.80969,146],[-90.38891,38.80972,146],[-90.38894,38.80976,146],[-90.38895,38.80979,146],[-90.38897,38.80984,147],[-90.389,38.80986,146],[-90.38903,38.8099,146],[-90.38905,38.80994,146],[-90.38906,38.80998,146],[-90.38905,38.81002,146],[-90.38905,38.81006,146],[-90.38904,38.8101,146],[-90.38905,38.81014,146],[-90.38908,38.81017,145],[-90.38912,38.81019,144],[-90.38915,38.81022,143],[-90.38915,38.81026,143],[-90.38918,38.81029,143],[-90.38921,38.81032,143],[-90.38923,38.81036,143],[-90.38922,38.8104,143],[-90.38922,38.81044,143],[-90.38925,38.81048,143],[-90.38929,38.81052,143],[-90.38932,38.81054,143],[-90.38935,38.81058,144],[-90.38937,38.81061,144],[-90.38941,38.81064,145],[-90.38946,38.81066,145],[-90.38951,38.81067,145],[-90.38955,38.81069,145],[-90.38959,38.81071,145],[-90.38964,38.81073,145],[-90.38969,38.81076,145],[-90.38973,38.81077,145],[-90.38978,38.81078,145],[-90.38984,38.81079,145],[-90.38989,38.81079,144],[-90.38994,38.81079,144],[-90.39001,38.8108,143],[-90.39007,38.81078,142],[-90.39014,38.81076,142],[-90.39019,38.81076,141],[-90.39024,38.81077,141],[-90.39029,38.81076,141],[-90.39033,38.81078,141],[-90.39037,38.8108,141],[-90.39042,38.8108,140],[-90.39046,38.81078,140],[-90.39051,38.81077,140],[-90.39054,38.8108,139],[-90.39059,38.81082,139],[-90.39063,38.81085,139],[-90.39067,38.81088,139],[-90.39072,38.8109,139],[-90.39076,38.81092,139],[-90.3908,38.81094,139],[-90.3908,38.81098,139],[-90.3908,38.81101,140],[-90.3908,38.81106,140],[-90.39079,38.8111,141],[-90.39078,38.81114,141],[-90.39078,38.81118,141],[-90.3908,38.81121,141],[-90.39083,38.81123,141],[-90.39086,38.81124,141],[-90.3909,38.81125,141],[-90.39092,38.81127,141],[-90.39091,38.8113,141],[-90.39093,38.81132,141],[-90.39094,38.81136,141],[-90.39096,38.81138,141],[-90.391,38.81138,141],[-90.39103,38.8114,141],[-90.39107,38.81143,141],[-90.3911,38.81147,142],[-90.3911,38.81151,142],[-90.39109,38.81155,143],[-90.39105,38.81158,144],[-90.391,38.8116,144],[-90.39096,38.81163,145],[-90.39094,38.81166,146],[-90.39094,38.8117,146],[-90.39091,38.81174,147],[-90.39092,38.81178,147],[-90.3909,38.81182,148],[-90.39088,38.81186,148],[-90.39088,38.8119,149],[-90.39087,38.81195,149],[-90.39085,38.81199,149],[-90.39084,38.81202,149],[-90.39083,38.81207,149],[-90.39081,38.81211,149],[-90.39083,38.81214,149],[-90.39087,38.81216,149],[-90.3909,38.81219,149],[-90.39091,38.81224,149],[-90.39092,38.81228,148],[-90.39094,38.81232,147],[-90.39097,38.81235,146],[-90.39099,38.81239,145],[-90.39101,38.81243,143],[-90.39101,38.81246,143],[-90.39102,38.8125,141],[-90.39103,38.81253,142],[-90.39104,38.81256,143],[-90.39107,38.81259,143],[-90.39107,38.81262,144],[-90.39104,38.81263,144],[-90.391,38.81264,145],[-90.39102,38.81267,145],[-90.39102,38.81271,146],[-90.39101,38.81274,147],[-90.39102,38.81277,148],[-90.39105,38.81279,148],[-90.39108,38.81282,148],[-90.39111,38.81283,148],[-90.39111,38.81286,149],[-90.39111,38.81289,149],[-90.39112,38.81292,150],[-90.39114,38.81295,150],[-90.39115,38.81298,151],[-90.39114,38.81301,152],[-90.39115,38.81304,153],[-90.39117,38.81306,153],[-90.39121,38.81309,152],[-90.39124,38.81311,152],[-90.39126,38.81314,152],[-90.39129,38.81316,151],[-90.39132,38.81317,151],[-90.39132,38.8132,151],[-90.39134,38.81324,151],[-90.39136,38.81328,151],[-90.3914,38.8133,150],[-90.39145,38.81332,150],[-90.39149,38.81334,149],[-90.39152,38.81337,148],[-90.39152,38.81342,148],[-90.3915,38.81347,148],[-90.3915,38.81351,147],[-90.39152,38.81355,147],[-90.39155,38.81358,146],[-90.39158,38.81361,145],[-90.39161,38.81364,144],[-90.3916,38.81369,146],[-90.39162,38.81373,146],[-90.39166,38.81375,145],[-90.3917,38.81377,145],[-90.39173,38.8138,144],[-90.39176,38.81384,144],[-90.39179,38.81387,143],[-90.39182,38.8139,142],[-90.39186,38.81393,142],[-90.39189,38.81397,143],[-90.39194,38.814,143],[-90.39199,38.81401,143],[-90.39204,38.81403,144],[-90.39207,38.81407,146],[-90.3921,38.81409,147],[-90.39215,38.81409,146],[-90.3922,38.81407,145],[-90.39224,38.81404,142],[-90.39226,38.814,140],[-90.39229,38.81396,138],[-90.39233,38.81393,137],[-90.39238,38.8139,136],[-90.39241,38.81388,136],[-90.39244,38.81384,137],[-90.39248,38.81381,138],[-90.39251,38.81377,138],[-90.39254,38.81374,138],[-90.39258,38.81371,138],[-90.3926,38.81367,138],[-90.39264,38.81364,138],[-90.39266,38.81359,138],[-90.39269,38.81355,137],[-90.39272,38.81351,137],[-90.39276,38.81349,136],[-90.39278,38.81345,136],[-90.3928,38.81341,135],[-90.39283,38.81337,134],[-90.39287,38.81333,134],[-90.39291,38.8133,134],[-90.39294,38.81327,133],[-90.39297,38.81324,133],[-90.39299,38.81321,133],[-90.39304,38.81317,133],[-90.39307,38.81314,132],[-90.3931,38.81311,132],[-90.39313,38.81308,132],[-90.39317,38.81305,133],[-90.39321,38.81302,133],[-90.39324,38.81299,133],[-90.39327,38.81296,133],[-90.39331,38.81293,133],[-90.39333,38.8129,134],[-90.39334,38.81286,134],[-90.39329,38.81284,134],[-90.39325,38.81283,134],[-90.39324,38.81279,134],[-90.39321,38.81275,134],[-90.39317,38.81273,134],[-90.39312,38.81271,134],[-90.39307,38.81269,134],[-90.39303,38.81267,134],[-90.39299,38.81265,134],[-90.39295,38.81262,134],[-90.39292,38.81258,134],[-90.39286,38.81257,134],[-90.39281,38.81257,134],[-90.39275,38.81256,134],[-90.39271,38.81253,134],[-90.39267,38.81251,134],[-90.39263,38.81249,135],[-90.3926,38.81245,135],[-90.39257,38.81242,135],[-90.39253,38.81239,135],[-90.39249,38.81237,135],[-90.39246,38.81234,135],[-90.39244,38.8123,135],[-90.3924,38.81227,135],[-90.39237,38.81224,135],[-90.39234,38.81221,135],[-90.39229,38.81222,135],[-90.39227,38.81219,135],[-90.39223,38.81217,135],[-90.39218,38.81215,136],[-90.39215,38.81212,136],[-90.39211,38.81211,136],[-90.39205,38.81211,137],[-90.392,38.81211,137],[-90.39195,38.81213,137],[-90.39191,38.81215,137],[-90.39189,38.81218,137],[-90.39186,38.81221,137],[-90.39181,38.81225,137],[-90.39177,38.81227,137],[-90.39174,38.8123,136],[-90.39173,38.81234,136],[-90.39171,38.81238,136],[-90.39168,38.81241,135],[-90.39164,38.81244,135],[-90.39161,38.81247,135],[-90.39159,38.81251,135],[-90.39156,38.81254,136],[-90.39152,38.81258,137],[-90.39152,38.81261,137],[-90.39151,38.81265,138],[-90.39151,38.81269,139],[-90.39151,38.81274,140],[-90.39151,38.81278,141],[-90.39155,38.81281,141],[-90.39161,38.81282,140],[-90.39165,38.81284,140],[-90.39167,38.81289,140],[-90.39168,38.81292,140],[-90.39172,38.81296,140],[-90.39175,38.81298,140],[-90.3918,38.813,140],[-90.39184,38.81302,140],[-90.39188,38.81305,139],[-90.39192,38.81307,139],[-90.39196,38.81308,139],[-90.39202,38.8131,138],[-90.39206,38.81312,138],[-90.3921,38.81315,138],[-90.39214,38.81317,138],[-90.39218,38.81319,138],[-90.39221,38.81323,138],[-90.39223,38.81326,138],[-90.39228,38.81327,138],[-90.39233,38.81329,137],[-90.39238,38.8133,137],[-90.39243,38.8133,137],[-90.39246,38.81333,137],[-90.39249,38.81336,137],[-90.39253,38.81339,137],[-90.39258,38.81342,137],[-90.39262,38.81344,137],[-90.39268,38.81343,136],[-90.39274,38.81339,135],[-90.39279,38.81336,135],[-90.39283,38.81334,134],[-90.39288,38.81332,134],[-90.39292,38.81331,133],[-90.39296,38.81329,133],[-90.393,38.81326,133],[-90.39303,38.81322,133],[-90.39305,38.81318,133],[-90.39308,38.81314,132],[-90.39311,38.8131,132],[-90.39314,38.81307,132],[-90.39318,38.81305,133],[-90.39321,38.81302,133],[-90.39326,38.81299,133],[-90.3933,38.81296,133],[-90.39334,38.81294,133],[-90.39339,38.81291,133],[-90.39343,38.81289,133],[-90.39346,38.81286,133],[-90.3935,38.81283,134],[-90.39353,38.8128,134],[-90.39357,38.81278,134],[-90.3936,38.81277,134],[-90.39365,38.81276,134],[-90.39367,38.81274,134],[-90.39369,38.81271,134],[-90.39371,38.81268,134],[-90.39373,38.81266,135],[-90.39377,38.81264,135],[-90.3938,38.81262,135],[-90.39384,38.8126,135],[-90.39388,38.81257,136],[-90.3939,38.81255,136],[-90.39393,38.81252,136],[-90.39396,38.81251,136],[-90.39398,38.81248,137],[-90.39401,38.81246,137],[-90.39404,38.81243,137],[-90.39407,38.81239,137],[-90.39409,38.81237,137],[-90.39411,38.81235,137],[-90.39414,38.81232,137],[-90.39417,38.8123,137],[-90.39419,38.81228,137],[-90.39423,38.81226,137],[-90.39426,38.81223,137],[-90.3943,38.8122,138],[-90.39433,38.81219,138],[-90.39436,38.81217,138],[-90.39439,38.81215,138],[-90.39443,38.81213,138],[-90.39446,38.81211,137],[-90.39449,38.81208,137],[-90.39452,38.81206,137],[-90.39454,38.81204,137],[-90.39457,38.81201,137],[-90.3946,38.812,137],[-90.39464,38.81198,137],[-90.39466,38.81196,137],[-90.39469,38.81193,136],[-90.39471,38.8119,136],[-90.39473,38.81187,136],[-90.39476,38.81186,135],[-90.39478,38.81184,135],[-90.39481,38.81181,135],[-90.39484,38.81179,134],[-90.39486,38.81176,134],[-90.3949,38.81174,134],[-90.39494,38.81173,133],[-90.39496,38.8117,133],[-90.395,38.81167,133],[-90.39504,38.81165,132],[-90.39507,38.81163,132],[-90.3951,38.8116,132],[-90.39513,38.81157,132],[-90.3951,38.81158,132]]],
        "bbox": [
          -90.38553,
          38.81974,
          -90.39513,
          38.80409
        ]
      },
      "properties": {
        "name": "10.23.2021"
      }
    }
  ]
}