{
  "type": "FeatureCollection",
  "features": [
    {
      "type": "Feature",
      "geometry": {
        "type": "MultiLineString",
        "coordinates": [[[-90.39084,38.81124,141],[-90.39087,38.81127,141],[-90.39089,38.81129,141],[-90.39091,38.81132,141],[-90.39094,38.81135,141],[-90.39097,38.81136,141],[-90.391,38.81138,141],[-90.39103,38.8114,141],[-90.39106,38.81142,141],[-90.39107,38.81146,142],[-90.39109,38.81149,142],[-90.3911,38.81152,142],[-90.3911,38.81154,143],[-90.39109,38.81158,143],[-90.39107,38.8116,144],[-90.39105,38.81163,144],[-90.39102,38.81165,145],[-90.39099,38.81168,146],[-90.39097,38.8117,146],[-90.39094,38.81173,147],[-90.39093,38.81177,147],[-90.39092,38.8118,148],[-90.39091,38.81183,148],[-90.39092,38.81186,148],[-90.39093,38.8119,149],[-90.39093,38.81193,149],[-90.39093,38.81196,150],[-90.39092,38.812,149],[-90.39091,38.81203,149],[-90.3909,38.81206,149],[-90.39089,38.81209,149],[-90.39089,38.81212,149],[-90.39088,38.81215,149],[-90.39087,38.81218,149],[-90.39088,38.8122,149],[-90.39089,38.81223,149],[-90.39089,38.81226,148],[-90.3909,38.81229,148],[-90.39091,38.81232,147],[-90.39094,38.81233,147],[-90.39096,38.81237,145],[-90.39097,38.81241,144],[-90.39097,38.81244,144],[-90.39096,38.81247,143],[-90.39097,38.8125,142],[-90.39097,38.81253,143],[-90.39098,38.81256,143],[-90.39099,38.81259,144],[-90.391,38.81262,144],[-90.39101,38.81265,145],[-90.39102,38.81268,146],[-90.39104,38.81271,146],[-90.39103,38.81274,147],[-90.39102,38.81278,148],[-90.39104,38.8128,148],[-90.39107,38.81282,148],[-90.39109,38.81284,148],[-90.39109,38.81287,149],[-90.39109,38.81289,150],[-90.39109,38.81293,151],[-90.39109,38.81295,151],[-90.3911,38.81298,152],[-90.39113,38.81299,152],[-90.39115,38.81301,152],[-90.39116,38.81304,152],[-90.39118,38.81307,153],[-90.39122,38.8131,152],[-90.39119,38.81313,153],[-90.39126,38.8131,152],[-90.39131,38.81315,151],[-90.39134,38.8132,151],[-90.39135,38.81325,151],[-90.39139,38.81328,150],[-90.39141,38.81331,150],[-90.39146,38.81331,149],[-90.3915,38.81331,149],[-90.39153,38.81333,148],[-90.39157,38.81334,148],[-90.39157,38.81337,147],[-90.39159,38.8134,147],[-90.39158,38.81345,146],[-90.39161,38.81349,145],[-90.39162,38.81353,145],[-90.39165,38.81356,144],[-90.39168,38.81358,143],[-90.39168,38.81362,143],[-90.39171,38.81365,143],[-90.39172,38.81368,143],[-90.39168,38.81369,144],[-90.39173,38.81369,143],[-90.39176,38.81373,143],[-90.39181,38.81375,142],[-90.39184,38.81378,141],[-90.39188,38.8138,140],[-90.39191,38.81381,139],[-90.39194,38.81383,138],[-90.39198,38.81385,137],[-90.392,38.81387,137],[-90.392,38.81391,138],[-90.392,38.81394,139],[-90.39205,38.81393,138],[-90.3921,38.81394,138],[-90.39214,38.81396,138],[-90.39217,38.81399,140],[-90.3922,38.81401,141],[-90.39225,38.81402,141],[-90.39229,38.81403,142],[-90.39233,38.81401,141],[-90.39236,38.81399,141],[-90.39238,38.81396,139],[-90.39239,38.81393,138],[-90.3924,38.8139,136],[-90.3924,38.81388,136],[-90.39243,38.81389,136],[-90.39247,38.81386,137],[-90.39249,38.81381,138],[-90.39249,38.81375,138],[-90.39251,38.81371,138],[-90.39253,38.81367,138],[-90.39255,38.81363,138],[-90.39257,38.81359,138],[-90.3926,38.81354,138],[-90.39263,38.81352,137],[-90.39266,38.81348,137],[-90.39269,38.81345,136],[-90.39271,38.81343,136],[-90.39273,38.8134,136],[-90.39276,38.81338,135],[-90.39279,38.81335,135],[-90.39282,38.81334,134],[-90.39285,38.81331,134],[-90.39287,38.81329,134],[-90.3929,38.81326,133],[-90.39292,38.81324,133],[-90.39295,38.81321,133],[-90.39297,38.81319,133],[-90.393,38.81317,133],[-90.39303,38.81315,133],[-90.39306,38.81313,132],[-90.39309,38.81311,132],[-90.39311,38.81308,132],[-90.39313,38.81306,132],[-90.39317,38.81303,133],[-90.39319,38.81301,133],[-90.39322,38.81299,133],[-90.39326,38.81297,133],[-90.39329,38.81295,133],[-90.39332,38.81293,133],[-90.39335,38.81291,134],[-90.3934,38.81291,133],[-90.39344,38.81291,133],[-90.39347,38.81293,133],[-90.39349,38.81295,133],[-90.39352,38.81297,132],[-90.39355,38.813,132],[-90.39357,38.81303,132],[-90.39359,38.81306,132],[-90.39361,38.81308,132],[-90.39363,38.8131,132],[-90.39365,38.81313,132],[-90.39368,38.81315,132],[-90.3937,38.81317,132],[-90.39373,38.81319,132],[-90.39376,38.81321,132],[-90.39379,38.81323,132],[-90.39382,38.81325,132],[-90.39385,38.81327,132],[-90.39388,38.8133,132],[-90.39391,38.81331,132],[-90.39394,38.81333,132],[-90.39397,38.81335,132],[-90.394,38.81337,132],[-90.39403,38.81339,132],[-90.39406,38.81341,132],[-90.39409,38.81343,132],[-90.39412,38.81345,132],[-90.39416,38.81347,132],[-90.3942,38.81349,133],[-90.39422,38.8135,133],[-90.39425,38.81352,133],[-90.39429,38.81354,133],[-90.39432,38.81356,133],[-90.39435,38.81358,133],[-90.39438,38.8136,133],[-90.39442,38.81362,133],[-90.39445,38.81364,134],[-90.39449,38.81365,134],[-90.39452,38.81367,134],[-90.39455,38.81369,134],[-90.39458,38.81371,134],[-90.39462,38.81372,135],[-90.39465,38.81374,135],[-90.39469,38.81375,135],[-90.39472,38.81377,135],[-90.39476,38.81379,135],[-90.3948,38.8138,135],[-90.39484,38.81383,135],[-90.39487,38.81385,135],[-90.39489,38.81387,135],[-90.39492,38.81389,135],[-90.39495,38.81391,134],[-90.39497,38.81392,134],[-90.39501,38.81394,135],[-90.39505,38.81395,135],[-90.39508,38.81397,135],[-90.39507,38.81401,135],[-90.39506,38.81403,135],[-90.3951,38.81403,135],[-90.39514,38.81403,135],[-90.39513,38.814,135],[-90.39517,38.81402,135],[-90.3952,38.81405,135],[-90.39522,38.81407,135],[-90.39519,38.81405,135],[-90.39523,38.81407,135],[-90.39526,38.81409,135],[-90.3953,38.81411,135],[-90.39533,38.81413,135],[-90.39536,38.81414,135],[-90.3954,38.81415,135],[-90.39543,38.81417,135],[-90.39547,38.81418,135],[-90.39548,38.81421,135],[-90.39552,38.81423,135],[-90.39555,38.81424,135],[-90.39558,38.81426,135],[-90.39562,38.81428,135],[-90.39565,38.8143,135],[-90.39568,38.81432,135],[-90.39572,38.81434,135],[-90.39576,38.81435,135],[-90.39579,38.81437,135],[-90.39582,38.81439,135],[-90.39585,38.81441,135],[-90.39589,38.81443,135],[-90.39592,38.81444,135],[-90.39596,38.81446,136],[-90.396,38.81447,135],[-90.39604,38.81449,135],[-90.39608,38.8145,135],[-90.39612,38.81451,135],[-90.39614,38.81454,135],[-90.39618,38.81455,134],[-90.39621,38.81457,134],[-90.39625,38.81458,134],[-90.39628,38.8146,133],[-90.39632,38.81462,132],[-90.39635,38.81464,132],[-90.39638,38.81465,131],[-90.39641,38.81467,131],[-90.39644,38.81469,131],[-90.39648,38.81471,130],[-90.39653,38.81473,130],[-90.39656,38.81474,130],[-90.39659,38.81477,129],[-90.39662,38.81478,129],[-90.39665,38.8148,129],[-90.39668,38.81482,129],[-90.39671,38.81484,129],[-90.39673,38.81487,129],[-90.39676,38.8149,129],[-90.39679,38.81492,129],[-90.39681,38.81495,129],[-90.39685,38.81498,129],[-90.39687,38.815,129],[-90.39689,38.81502,129],[-90.39692,38.81504,129],[-90.39694,38.81507,129],[-90.39697,38.81509,129],[-90.39699,38.81511,129],[-90.39702,38.81513,129],[-90.39704,38.81516,129],[-90.39707,38.81518,130],[-90.3971,38.81521,130],[-90.39713,38.81523,130],[-90.39716,38.81525,130],[-90.39719,38.81527,130],[-90.39722,38.81529,130],[-90.39724,38.81531,131],[-90.39727,38.81533,131],[-90.39729,38.81535,131],[-90.39733,38.81537,131],[-90.39736,38.81539,131],[-90.3974,38.81541,131],[-90.39744,38.81543,131],[-90.39747,38.81545,131],[-90.3975,38.81547,131],[-90.39752,38.81549,132],[-90.39755,38.8155,132],[-90.39758,38.81552,132],[-90.39762,38.81553,132],[-90.39766,38.81555,132],[-90.39769,38.81558,132],[-90.39772,38.8156,132],[-90.39775,38.81561,132],[-90.39778,38.81562,131],[-90.39781,38.81564,131],[-90.39784,38.81566,131],[-90.39788,38.81569,131],[-90.3979,38.81571,131],[-90.39793,38.81573,131],[-90.39796,38.81575,131],[-90.39799,38.81577,131],[-90.39802,38.81579,131],[-90.39805,38.81581,131],[-90.39807,38.81583,130],[-90.3981,38.81586,130],[-90.39814,38.81588,130],[-90.39817,38.81589,130],[-90.3982,38.81591,129],[-90.39824,38.81594,129],[-90.39826,38.81596,129],[-90.39829,38.81598,129],[-90.39832,38.816,129],[-90.39836,38.81601,129],[-90.39838,38.81603,129],[-90.39841,38.81605,129],[-90.39845,38.81607,129],[-90.39848,38.81609,130],[-90.39852,38.81611,130],[-90.39855,38.81612,130],[-90.39858,38.81614,130],[-90.3986,38.81617,131],[-90.39862,38.8162,131],[-90.39865,38.81622,131],[-90.39868,38.81624,131],[-90.39872,38.81625,132],[-90.39875,38.81627,132],[-90.39878,38.81629,132],[-90.39882,38.81631,133],[-90.39885,38.81633,133],[-90.39888,38.81634,133],[-90.39892,38.81636,134],[-90.39895,38.81638,134],[-90.39898,38.81641,134],[-90.39901,38.81643,134],[-90.39905,38.81645,134],[-90.39908,38.81647,134],[-90.39911,38.81649,135],[-90.39914,38.8165,135],[-90.39917,38.81652,135],[-90.3992,38.81654,135],[-90.39923,38.81655,135],[-90.39926,38.81657,135],[-90.3993,38.81658,135],[-90.39932,38.8166,135],[-90.39936,38.81663,135],[-90.39938,38.81664,135],[-90.39942,38.81666,135],[-90.39945,38.81667,134],[-90.39949,38.81669,134],[-90.39952,38.81671,134],[-90.39954,38.81673,134],[-90.39958,38.81675,134],[-90.39961,38.81677,134],[-90.39965,38.81679,134],[-90.39969,38.8168,134],[-90.39972,38.81681,133],[-90.39975,38.81683,133],[-90.39979,38.81684,133],[-90.39982,38.81686,133],[-90.39984,38.81688,133],[-90.39987,38.8169,133],[-90.39991,38.81692,133],[-90.39995,38.81693,133],[-90.39998,38.81695,133],[-90.40001,38.81697,133],[-90.40004,38.81698,133],[-90.40008,38.81699,133],[-90.40011,38.81702,133],[-90.40013,38.81704,133],[-90.40016,38.81706,133],[-90.40019,38.81708,133],[-90.40023,38.81709,133],[-90.40026,38.81711,133],[-90.40029,38.81713,134],[-90.40033,38.81715,134],[-90.40036,38.81717,134],[-90.40039,38.81719,134],[-90.40042,38.81721,134],[-90.40046,38.81722,134],[-90.4005,38.81724,134],[-90.40053,38.81725,134],[-90.40056,38.81727,134],[-90.40059,38.81729,134],[-90.40063,38.81731,134],[-90.40067,38.81732,134],[-90.40069,38.81734,134],[-90.40073,38.81737,134],[-90.40075,38.81741,133],[-90.40077,38.81744,133],[-90.4008,38.81746,133],[-90.40083,38.81748,133],[-90.40086,38.81751,133],[-90.40089,38.81752,133],[-90.40092,38.81754,133],[-90.40095,38.81756,133],[-90.40098,38.81759,133],[-90.40103,38.81758,133],[-90.40106,38.81759,133],[-90.40109,38.81762,133],[-90.40112,38.81763,133],[-90.40115,38.81765,134],[-90.40117,38.81768,134],[-90.4012,38.81771,134],[-90.40122,38.81773,134],[-90.40126,38.81774,134],[-90.40129,38.81775,134],[-90.40132,38.81776,134],[-90.40135,38.81779,135],[-90.40137,38.81781,135],[-90.40141,38.81783,134],[-90.40144,38.81784,134],[-90.40148,38.81785,134],[-90.4015,38.81787,134],[-90.40154,38.81789,133],[-90.40157,38.81792,133],[-90.4016,38.81793,133],[-90.40164,38.81796,132],[-90.40167,38.81798,132],[-90.4017,38.81799,132],[-90.40173,38.81802,132],[-90.40176,38.81804,132],[-90.4018,38.81805,132],[-90.40184,38.81806,132],[-90.40186,38.81807,132],[-90.4019,38.81809,132],[-90.40193,38.81811,132],[-90.40194,38.81814,132],[-90.40198,38.81816,132],[-90.40201,38.81818,132],[-90.40205,38.81819,133],[-90.40209,38.8182,133],[-90.40212,38.81822,133],[-90.40213,38.81825,134],[-90.40217,38.81827,134],[-90.4022,38.81829,135],[-90.40223,38.81831,135],[-90.40226,38.81832,135],[-90.40229,38.81834,136],[-90.40233,38.81835,136],[-90.40236,38.81837,136],[-90.40239,38.81839,136],[-90.40242,38.81841,137],[-90.40245,38.81842,137],[-90.40249,38.81844,137],[-90.40252,38.81846,137],[-90.40256,38.81848,137],[-90.4026,38.81849,137],[-90.40263,38.81851,137],[-90.40266,38.81853,137],[-90.4027,38.81855,136],[-90.40273,38.81856,136],[-90.40276,38.81858,136],[-90.4028,38.81859,135],[-90.40283,38.81861,135],[-90.40286,38.81863,135],[-90.4029,38.81864,135],[-90.40292,38.81867,135],[-90.40294,38.81869,135],[-90.40296,38.81871,134],[-90.403,38.81873,134],[-90.40303,38.81875,134],[-90.40306,38.81876,134],[-90.40309,38.81879,134],[-90.40311,38.81881,134],[-90.40314,38.81883,135],[-90.40315,38.81886,135],[-90.40318,38.81888,135],[-90.40321,38.8189,135],[-90.40324,38.81892,135],[-90.40327,38.81894,135],[-90.40327,38.81896,135],[-90.40331,38.81898,135],[-90.40334,38.81899,135],[-90.40338,38.81901,135],[-90.40341,38.81903,135],[-90.40343,38.81905,135],[-90.40346,38.81907,135],[-90.40349,38.81908,134],[-90.40351,38.81911,134],[-90.40355,38.81912,134],[-90.40358,38.81914,133],[-90.40361,38.81917,132],[-90.40363,38.8192,132],[-90.40365,38.81922,132],[-90.40368,38.81924,132],[-90.40372,38.81925,131],[-90.40375,38.81927,131],[-90.40378,38.81928,131],[-90.40382,38.81928,131],[-90.40385,38.8193,131],[-90.40388,38.81932,130],[-90.40391,38.81933,130],[-90.40395,38.81934,131],[-90.40399,38.81934,131],[-90.40403,38.81935,131],[-90.40407,38.81936,131],[-90.4041,38.81935,131],[-90.40414,38.81936,131],[-90.40418,38.81937,132],[-90.4042,38.81939,132],[-90.40424,38.8194,132],[-90.40427,38.81938,132],[-90.4043,38.81935,132],[-90.40434,38.81934,132],[-90.40438,38.81933,132],[-90.40442,38.81933,132],[-90.40446,38.81933,131],[-90.4045,38.81934,131],[-90.40454,38.81935,131],[-90.40457,38.81933,131],[-90.40461,38.81932,131],[-90.40464,38.81933,131],[-90.40468,38.81933,131],[-90.40472,38.81934,131],[-90.40475,38.81935,131],[-90.40479,38.81935,131],[-90.40483,38.81936,131],[-90.40487,38.81937,131],[-90.40492,38.81937,132],[-90.40495,38.81937,132],[-90.40499,38.81938,132],[-90.40501,38.8194,132],[-90.40504,38.81942,133],[-90.40508,38.81943,133],[-90.40504,38.81943,133],[-90.40501,38.81942,132],[-90.40504,38.81942,133],[-90.40508,38.8194,133],[-90.40512,38.81941,133],[-90.40515,38.81943,134],[-90.40518,38.81945,135],[-90.40522,38.81946,135],[-90.40525,38.81947,135],[-90.4053,38.81948,136],[-90.40535,38.81948,136],[-90.40539,38.81949,136],[-90.40543,38.81949,136],[-90.40547,38.81949,136],[-90.40551,38.81949,136],[-90.40554,38.8195,136],[-90.40558,38.81951,136],[-90.40561,38.81953,137],[-90.40564,38.81954,137],[-90.40568,38.81954,136],[-90.40571,38.81953,136],[-90.40575,38.81955,136],[-90.40579,38.81957,136],[-90.40582,38.81959,137],[-90.40584,38.81962,137],[-90.40587,38.81964,137],[-90.40589,38.81967,137],[-90.40592,38.81969,137],[-90.40596,38.8197,137],[-90.406,38.8197,136],[-90.40604,38.81971,136],[-90.40608,38.81972,136],[-90.40611,38.81973,135],[-90.40615,38.81974,135],[-90.40618,38.81975,135],[-90.40622,38.81975,134],[-90.40626,38.81976,134],[-90.4063,38.81977,134],[-90.40634,38.81977,133],[-90.40638,38.81977,133],[-90.40641,38.81977,133],[-90.40645,38.81978,133],[-90.40648,38.81978,133],[-90.40653,38.8198,133],[-90.40657,38.81982,132],[-90.40661,38.81982,132],[-90.40662,38.81985,132],[-90.40661,38.81988,132],[-90.40661,38.81991,132],[-90.40661,38.81994,132],[-90.40662,38.81997,132],[-90.40663,38.82,132],[-90.40659,38.81999,132],[-90.40658,38.81996,132],[-90.40657,38.81992,132],[-90.40658,38.81989,132],[-90.40656,38.81986,132],[-90.40652,38.81985,132],[-90.40649,38.81984,132],[-90.40645,38.81983,133],[-90.40642,38.81982,133],[-90.40638,38.81981,133],[-90.40633,38.81979,133],[-90.4063,38.81978,134],[-90.40625,38.81977,134],[-90.40622,38.81976,134],[-90.40618,38.81974,135],[-90.40615,38.81973,135],[-90.40611,38.81972,135],[-90.40607,38.81971,136],[-90.40604,38.81971,136],[-90.406,38.8197,136],[-90.40597,38.81969,137],[-90.40593,38.81967,137],[-90.40589,38.81966,137],[-90.40586,38.81964,137],[-90.40584,38.81962,137],[-90.40581,38.8196,137],[-90.40577,38.81959,137],[-90.40574,38.81958,137],[-90.40569,38.81958,137],[-90.40566,38.81957,137],[-90.40562,38.81957,137],[-90.40559,38.81954,137],[-90.40555,38.81953,137],[-90.40552,38.81952,137],[-90.4055,38.8195,136],[-90.40546,38.8195,136],[-90.40542,38.81952,136],[-90.40538,38.81951,136],[-90.40536,38.81949,136],[-90.40532,38.81949,136],[-90.40529,38.81948,136],[-90.40525,38.81948,136],[-90.40521,38.81948,135],[-90.40517,38.81947,135],[-90.40513,38.81947,134],[-90.40509,38.81945,134],[-90.40505,38.81945,133],[-90.40501,38.81943,132],[-90.40498,38.81942,132],[-90.40496,38.8194,132],[-90.40492,38.8194,132],[-90.40488,38.8194,131],[-90.40484,38.81938,131],[-90.40481,38.81937,131],[-90.40477,38.81936,131],[-90.40473,38.81936,131],[-90.40469,38.81937,131],[-90.40466,38.81937,131],[-90.40462,38.81935,131],[-90.40459,38.81935,131],[-90.40455,38.81936,131],[-90.40451,38.81936,131],[-90.40448,38.81935,131],[-90.40445,38.81933,131],[-90.40441,38.81933,132],[-90.40436,38.81933,132],[-90.40431,38.81935,132],[-90.40428,38.81937,132],[-90.40424,38.81938,132],[-90.4042,38.81939,132],[-90.40416,38.81939,131],[-90.40411,38.81938,131],[-90.40407,38.81938,131],[-90.40404,38.81937,131],[-90.40399,38.81937,131],[-90.40395,38.81936,130],[-90.40392,38.81934,130],[-90.40388,38.81933,130],[-90.40384,38.81933,130],[-90.4038,38.81931,131],[-90.40376,38.8193,131],[-90.40372,38.81929,131],[-90.40375,38.81927,131],[-90.40372,38.81927,131],[-90.40368,38.81926,131],[-90.40365,38.81924,132],[-90.40362,38.81922,132],[-90.40358,38.8192,132],[-90.40355,38.81918,133],[-90.40351,38.81915,134],[-90.40349,38.81913,134],[-90.40347,38.8191,134],[-90.40344,38.81908,135],[-90.40341,38.81906,135],[-90.40339,38.81904,135],[-90.40336,38.81902,135],[-90.40333,38.819,135],[-90.4033,38.81898,135],[-90.40327,38.81896,135],[-90.40324,38.81893,135],[-90.40321,38.81892,135],[-90.40318,38.81889,135],[-90.40315,38.81887,135],[-90.40312,38.81885,135],[-90.4031,38.81882,134],[-90.40307,38.8188,134],[-90.40304,38.81878,134],[-90.40302,38.81876,134],[-90.40298,38.81874,134],[-90.40295,38.81872,135],[-90.40292,38.8187,135],[-90.40289,38.81868,135],[-90.40286,38.81866,135],[-90.40283,38.81864,135],[-90.4028,38.81861,135],[-90.40277,38.81859,136],[-90.40274,38.81858,136],[-90.4027,38.81857,136],[-90.40267,38.81855,137],[-90.40264,38.81854,137],[-90.40262,38.81851,137],[-90.40258,38.8185,137],[-90.40254,38.81849,137],[-90.40251,38.81848,138],[-90.40247,38.81846,137],[-90.40244,38.81845,137],[-90.40241,38.81844,137],[-90.40237,38.81842,137],[-90.40234,38.81841,136],[-90.40232,38.81838,136],[-90.4023,38.81836,136],[-90.40227,38.81834,136],[-90.40224,38.81831,135],[-90.40221,38.8183,135],[-90.40217,38.81831,135],[-90.40214,38.81829,134],[-90.40211,38.81827,134],[-90.40209,38.81825,133],[-90.40205,38.81823,133],[-90.40201,38.81822,133],[-90.40198,38.8182,133],[-90.40195,38.81818,132],[-90.40193,38.81815,132],[-90.4019,38.81813,132],[-90.40187,38.81811,132],[-90.40183,38.81809,132],[-90.4018,38.81807,132],[-90.40177,38.81806,132],[-90.40173,38.81804,132],[-90.40171,38.81802,132],[-90.40169,38.818,132],[-90.40166,38.81798,132],[-90.40163,38.81796,132],[-90.40161,38.81794,133],[-90.40158,38.81792,133],[-90.40154,38.81791,133],[-90.40151,38.8179,134],[-90.40147,38.81788,134],[-90.40144,38.81786,134],[-90.40141,38.81784,135],[-90.40138,38.81782,135],[-90.40135,38.8178,135],[-90.40133,38.81778,135],[-90.4013,38.81775,134],[-90.40127,38.81773,134],[-90.40123,38.81772,134],[-90.4012,38.81771,134],[-90.40116,38.81771,134],[-90.40113,38.81769,134],[-90.4011,38.81766,134],[-90.40107,38.81764,133],[-90.40104,38.81762,133],[-90.40101,38.8176,133],[-90.40097,38.81758,133],[-90.40094,38.81756,133],[-90.4009,38.81754,133],[-90.40088,38.81752,133],[-90.40084,38.81751,133],[-90.4008,38.81749,133],[-90.40077,38.81748,133],[-90.40075,38.81746,133],[-90.40074,38.81743,133],[-90.40072,38.81741,133],[-90.40069,38.81738,134],[-90.40066,38.81736,134],[-90.40063,38.81733,134],[-90.4006,38.81732,134],[-90.40056,38.81731,134],[-90.40053,38.81729,134],[-90.40049,38.81727,134],[-90.40045,38.81726,134],[-90.40042,38.81723,134],[-90.40038,38.81721,134],[-90.40036,38.8172,134],[-90.40032,38.81718,134],[-90.40029,38.81716,134],[-90.40026,38.81714,133],[-90.40023,38.81712,133],[-90.4002,38.81711,133],[-90.40016,38.81709,133],[-90.40015,38.81707,133],[-90.40011,38.81705,133],[-90.40008,38.81703,133],[-90.40005,38.81701,133],[-90.40001,38.81699,133],[-90.39998,38.81698,133],[-90.39995,38.81696,133],[-90.39991,38.81694,133],[-90.39988,38.81692,133],[-90.39984,38.81691,133],[-90.3998,38.81689,133],[-90.39977,38.81687,133],[-90.39975,38.81685,133],[-90.39972,38.81684,133],[-90.39969,38.81682,133],[-90.39965,38.8168,134],[-90.39962,38.81678,134],[-90.39959,38.81677,134],[-90.39956,38.81675,134],[-90.39953,38.81673,134],[-90.3995,38.81672,134],[-90.39946,38.8167,134],[-90.39944,38.81668,134],[-90.39941,38.81667,135],[-90.39937,38.81665,135],[-90.39934,38.81663,135],[-90.39931,38.81661,135],[-90.39928,38.81659,135],[-90.39926,38.81657,135],[-90.39922,38.81655,135],[-90.3992,38.81654,135],[-90.39916,38.81652,135],[-90.39914,38.8165,135],[-90.39911,38.81648,135],[-90.39908,38.81646,134],[-90.39905,38.81644,134],[-90.39902,38.81644,134],[-90.39898,38.81642,134],[-90.39895,38.81639,134],[-90.39891,38.81637,134],[-90.39888,38.81635,133],[-90.39885,38.81633,133],[-90.39881,38.81631,133],[-90.39877,38.81629,132],[-90.39874,38.81627,132],[-90.39872,38.81625,132],[-90.39869,38.81623,131],[-90.39866,38.81622,131],[-90.39862,38.8162,131],[-90.39859,38.81618,131],[-90.39855,38.81616,130],[-90.39852,38.81614,130],[-90.39849,38.81612,130],[-90.39846,38.8161,129],[-90.39843,38.81608,129],[-90.39841,38.81606,129],[-90.39837,38.81604,129],[-90.39834,38.81602,129],[-90.3983,38.816,129],[-90.39827,38.81598,129],[-90.39824,38.81596,129],[-90.39821,38.81595,129],[-90.39821,38.81592,129],[-90.39818,38.8159,129],[-90.39815,38.81589,130],[-90.39812,38.81586,130],[-90.39808,38.81584,130],[-90.39805,38.81582,131],[-90.39801,38.81581,131],[-90.39798,38.81579,131],[-90.39796,38.81577,131],[-90.39794,38.81575,131],[-90.39791,38.81573,131],[-90.39787,38.81571,131],[-90.39783,38.81569,131],[-90.39779,38.81568,131],[-90.39777,38.81566,132],[-90.39774,38.81564,132],[-90.3977,38.81562,132],[-90.39767,38.8156,132],[-90.39764,38.81558,132],[-90.39761,38.81556,132],[-90.39758,38.81554,132],[-90.39755,38.81552,132],[-90.39751,38.8155,132],[-90.39747,38.81548,131],[-90.39744,38.81546,131],[-90.39741,38.81544,131],[-90.39739,38.81542,131],[-90.39736,38.81541,131],[-90.39733,38.81539,131],[-90.3973,38.81537,131],[-90.39726,38.81535,131],[-90.39723,38.81533,131],[-90.3972,38.81531,130],[-90.39717,38.81529,130],[-90.39714,38.81527,130],[-90.39712,38.81525,130],[-90.39709,38.81524,129],[-90.39706,38.81521,129],[-90.39703,38.81519,129],[-90.397,38.81516,129],[-90.39697,38.81514,129],[-90.39695,38.81512,129],[-90.39693,38.81509,129],[-90.3969,38.81507,129],[-90.39688,38.81505,129],[-90.39686,38.81502,129],[-90.39683,38.815,129],[-90.39681,38.81498,129],[-90.39678,38.81495,129],[-90.39675,38.81493,129],[-90.39673,38.81491,129],[-90.3967,38.81489,129],[-90.39668,38.81486,129],[-90.39665,38.81483,129],[-90.39662,38.81481,129],[-90.39659,38.81479,129],[-90.39656,38.81476,130],[-90.39653,38.81474,130],[-90.3965,38.81472,130],[-90.39647,38.8147,130],[-90.39644,38.81469,131],[-90.39641,38.81467,131],[-90.39638,38.81465,131],[-90.39635,38.81463,132],[-90.39631,38.81461,133],[-90.39628,38.81459,133],[-90.39625,38.81458,134],[-90.39622,38.81456,134],[-90.39619,38.81455,134],[-90.39615,38.81453,135],[-90.3961,38.81451,135],[-90.39607,38.8145,135],[-90.39603,38.81448,135],[-90.396,38.81447,135],[-90.39596,38.81446,136],[-90.39593,38.81444,135],[-90.39589,38.81442,135],[-90.39586,38.81441,135],[-90.39582,38.81439,135],[-90.39578,38.81438,135],[-90.39576,38.81436,135],[-90.39573,38.81434,135],[-90.39569,38.81433,135],[-90.39565,38.81431,135],[-90.39563,38.81429,135],[-90.3956,38.81427,135],[-90.39556,38.81426,135],[-90.39553,38.81424,135],[-90.39549,38.81422,135],[-90.39545,38.8142,135],[-90.39542,38.81418,135],[-90.39539,38.81417,135],[-90.39535,38.81416,135],[-90.39531,38.81414,135],[-90.39528,38.81412,135],[-90.39524,38.81411,135],[-90.3952,38.81409,135],[-90.39517,38.81407,135],[-90.39514,38.81405,135],[-90.39512,38.81403,135],[-90.39509,38.81401,135],[-90.39507,38.81399,135],[-90.39503,38.81397,135],[-90.395,38.81396,134],[-90.39496,38.81394,134],[-90.39493,38.81392,134],[-90.3949,38.8139,134],[-90.39487,38.81388,135],[-90.39484,38.81386,135],[-90.39481,38.81384,135],[-90.39477,38.81383,135],[-90.39474,38.81381,135],[-90.3947,38.81379,135],[-90.39467,38.81377,135],[-90.39463,38.81376,134],[-90.39459,38.81375,134],[-90.39456,38.81373,134],[-90.39453,38.8137,134],[-90.3945,38.81369,134],[-90.39447,38.81367,134],[-90.39443,38.81365,133],[-90.3944,38.81364,133],[-90.39436,38.81362,133],[-90.39433,38.8136,133],[-90.3943,38.81358,133],[-90.39426,38.81356,133],[-90.39423,38.81354,133],[-90.3942,38.81353,133],[-90.39417,38.81351,133],[-90.39415,38.81349,132],[-90.39411,38.81347,132],[-90.39408,38.81346,132],[-90.39404,38.81344,132],[-90.39402,38.81341,132],[-90.39399,38.81339,132],[-90.39396,38.81337,132],[-90.39392,38.81335,132],[-90.39388,38.81333,132],[-90.39386,38.81331,132],[-90.39383,38.81329,132],[-90.3938,38.81327,132],[-90.39376,38.81326,132],[-90.39374,38.81323,132],[-90.39371,38.81321,132],[-90.39368,38.81318,132],[-90.39365,38.81316,132],[-90.39361,38.81314,132],[-90.39359,38.81312,132],[-90.39357,38.81309,132],[-90.39355,38.81305,132],[-90.39353,38.81302,132],[-90.39352,38.81299,132],[-90.39351,38.81296,133],[-90.39348,38.81293,133],[-90.39346,38.81292,133],[-90.39342,38.8129,133],[-90.39338,38.8129,133],[-90.39334,38.81292,133],[-90.39331,38.81293,133],[-90.39328,38.81295,133],[-90.39324,38.81297,133],[-90.39322,38.81299,133],[-90.39319,38.81301,133],[-90.39317,38.81303,133],[-90.39315,38.81305,133],[-90.39313,38.81308,132],[-90.3931,38.8131,132],[-90.39306,38.81313,132],[-90.39304,38.81315,133],[-90.39302,38.81318,133],[-90.39299,38.8132,133],[-90.39296,38.81322,133],[-90.39293,38.81324,133],[-90.39291,38.81328,133],[-90.39288,38.8133,134],[-90.39286,38.81332,134],[-90.39283,38.81335,134],[-90.39281,38.81337,135],[-90.39278,38.81339,135],[-90.39275,38.81341,135],[-90.39272,38.81344,136],[-90.39269,38.81346,136],[-90.39266,38.81349,137],[-90.39265,38.81352,137],[-90.39264,38.81355,137],[-90.39262,38.81358,138],[-90.3926,38.81361,138],[-90.39258,38.81364,138],[-90.39257,38.81367,138],[-90.39255,38.8137,138],[-90.39253,38.81373,138],[-90.39251,38.81376,138],[-90.39248,38.81379,138],[-90.39247,38.81382,137],[-90.39247,38.81384,137],[-90.39244,38.81387,137],[-90.39242,38.8139,137],[-90.3924,38.81393,138],[-90.39239,38.81396,139],[-90.39237,38.81399,141],[-90.39235,38.81402,142],[-90.39232,38.81405,143],[-90.3923,38.81408,145],[-90.39226,38.81409,146],[-90.39222,38.81408,145],[-90.39219,38.81407,145],[-90.39215,38.81406,144],[-90.39211,38.81407,145],[-90.39207,38.8141,147],[-90.39205,38.81411,148],[-90.39201,38.81413,149],[-90.39198,38.81415,151],[-90.39194,38.81416,151],[-90.39194,38.81419,152],[-90.39192,38.81422,153],[-90.3919,38.81424,155],[-90.39187,38.81427,156],[-90.39183,38.81428,157],[-90.39181,38.81429,158],[-90.39179,38.81432,159],[-90.39179,38.81435,160],[-90.3918,38.81438,161],[-90.39181,38.81441,162],[-90.39182,38.81443,162],[-90.39183,38.81447,162],[-90.39184,38.81451,163],[-90.39185,38.81454,163],[-90.39187,38.81456,162],[-90.3919,38.81459,162],[-90.39192,38.81461,162],[-90.39192,38.81464,162],[-90.39191,38.81467,163],[-90.3919,38.8147,164],[-90.39191,38.81472,164],[-90.39194,38.81475,163],[-90.39196,38.81477,163],[-90.39197,38.81481,163],[-90.39197,38.81483,163],[-90.39196,38.81486,164],[-90.39195,38.81489,164],[-90.39195,38.81492,164],[-90.39193,38.81494,165],[-90.39197,38.81496,165],[-90.39197,38.81499,165],[-90.39193,38.81499,166],[-90.39196,38.81497,165],[-90.39199,38.81498,164],[-90.39201,38.81502,165],[-90.39201,38.81505,165],[-90.39202,38.81508,166],[-90.39201,38.81512,168],[-90.39201,38.81515,169],[-90.392,38.81518,171],[-90.39198,38.81522,172],[-90.39197,38.81525,174],[-90.39197,38.81528,175],[-90.39197,38.81531,175],[-90.39198,38.81534,175],[-90.39199,38.81536,175],[-90.39199,38.81539,175],[-90.39198,38.81542,175],[-90.39196,38.81544,176],[-90.39198,38.81548,175],[-90.39199,38.8155,175],[-90.39199,38.81553,175],[-90.39199,38.81557,175],[-90.39198,38.8156,175],[-90.39196,38.81563,175],[-90.39195,38.81566,175],[-90.39194,38.81568,175],[-90.39192,38.81566,176],[-90.39188,38.81566,177],[-90.39184,38.81565,178],[-90.3918,38.81566,178],[-90.39177,38.81568,179],[-90.39175,38.81571,179],[-90.39171,38.81572,180],[-90.39167,38.81572,181],[-90.39165,38.81569,181],[-90.39163,38.81567,181],[-90.3916,38.81564,182],[-90.39158,38.81561,182],[-90.39155,38.81559,183],[-90.39152,38.81557,183],[-90.39149,38.81555,184],[-90.39147,38.81552,184],[-90.39145,38.81549,184],[-90.39142,38.81547,184],[-90.39138,38.81546,185],[-90.39134,38.81546,185],[-90.3913,38.81545,185],[-90.39126,38.81545,185],[-90.39121,38.81545,186],[-90.39116,38.81544,186],[-90.39113,38.81544,186],[-90.39109,38.81545,186],[-90.39105,38.81546,186],[-90.39102,38.81547,186],[-90.39098,38.81548,185],[-90.39097,38.81551,185],[-90.39094,38.81552,185],[-90.3909,38.81551,185],[-90.39086,38.8155,185],[-90.39082,38.81551,185],[-90.39078,38.81551,184],[-90.39074,38.81551,184],[-90.3907,38.8155,183],[-90.39066,38.81551,183],[-90.39062,38.8155,183],[-90.39058,38.81549,182],[-90.39054,38.81549,182],[-90.39051,38.81548,181],[-90.39046,38.81548,181],[-90.39043,38.81547,181],[-90.39039,38.81545,180],[-90.39035,38.81544,180],[-90.39031,38.81544,180],[-90.39027,38.81544,179],[-90.39024,38.81543,179],[-90.39021,38.81541,179],[-90.39021,38.81538,180],[-90.39025,38.81536,180],[-90.39022,38.81535,180],[-90.39018,38.81535,180],[-90.39014,38.81536,180],[-90.3901,38.81536,180],[-90.39007,38.81533,181],[-90.39004,38.81531,181],[-90.39002,38.81529,181],[-90.38998,38.81528,182],[-90.38994,38.81526,182],[-90.38991,38.81525,182],[-90.38987,38.81524,183],[-90.38984,38.81522,183],[-90.38982,38.8152,184],[-90.38978,38.81519,184],[-90.38975,38.81517,185],[-90.38973,38.81515,185],[-90.38971,38.81512,186],[-90.38969,38.8151,186],[-90.38965,38.81507,187],[-90.38963,38.81505,187],[-90.3896,38.81503,188],[-90.38958,38.815,188],[-90.38955,38.81497,188],[-90.38953,38.81495,188],[-90.38951,38.81492,189],[-90.38949,38.8149,189],[-90.38948,38.81487,189],[-90.38949,38.81484,189],[-90.38949,38.81479,190],[-90.38949,38.81476,190],[-90.38949,38.81473,191],[-90.38949,38.8147,191],[-90.38949,38.81466,190],[-90.38949,38.81462,190],[-90.38948,38.81459,190],[-90.38948,38.81456,190],[-90.38949,38.81453,190],[-90.3895,38.8145,190],[-90.3895,38.81447,189],[-90.38949,38.81445,189],[-90.38946,38.8144,189],[-90.38944,38.81437,189],[-90.38941,38.81435,189],[-90.38938,38.81434,189],[-90.38934,38.81433,190],[-90.38931,38.81431,190],[-90.38929,38.8143,190],[-90.38922,38.81428,191],[-90.38919,38.81426,192],[-90.38915,38.81425,192],[-90.38911,38.81423,192],[-90.38907,38.81422,192],[-90.38903,38.81421,192],[-90.38899,38.81421,192],[-90.38896,38.8142,192],[-90.38891,38.8142,192],[-90.38886,38.81419,193],[-90.38883,38.81419,193],[-90.38879,38.81417,194],[-90.38877,38.81415,194],[-90.38874,38.81414,194],[-90.3887,38.81413,195],[-90.38867,38.81412,195],[-90.38862,38.8141,196],[-90.38858,38.81408,196],[-90.38854,38.81407,196],[-90.38851,38.81407,197],[-90.38847,38.81406,197],[-90.38844,38.81404,197],[-90.3884,38.81403,197],[-90.38836,38.81402,198],[-90.38833,38.814,198],[-90.3883,38.81399,198],[-90.38826,38.81397,198],[-90.38822,38.81396,198],[-90.38819,38.81396,198],[-90.38815,38.81395,198],[-90.3881,38.81394,199],[-90.38806,38.81394,199],[-90.38802,38.81394,199],[-90.38799,38.81395,199],[-90.38795,38.81395,199],[-90.38791,38.81395,199],[-90.38787,38.81396,199],[-90.38783,38.81397,199],[-90.38778,38.81397,199],[-90.38773,38.81398,200],[-90.38769,38.81398,200],[-90.38765,38.81398,200],[-90.38763,38.81396,200],[-90.38762,38.81393,200],[-90.38758,38.81391,200],[-90.38755,38.8139,200],[-90.38753,38.81387,199],[-90.3875,38.81384,199],[-90.38748,38.81381,198],[-90.38748,38.81378,198],[-90.38748,38.81375,197],[-90.38749,38.81372,197],[-90.38749,38.81369,197],[-90.38751,38.81366,196],[-90.38751,38.81363,196],[-90.38753,38.8136,196],[-90.38754,38.81357,195],[-90.38754,38.81354,195],[-90.38755,38.81351,195],[-90.38757,38.81349,195],[-90.38757,38.81346,195],[-90.38757,38.81343,195],[-90.38758,38.8134,195],[-90.38758,38.81336,194],[-90.38758,38.81333,194],[-90.38759,38.8133,194],[-90.38763,38.81328,194],[-90.38766,38.81329,194],[-90.3877,38.8133,195],[-90.38774,38.8133,195],[-90.38778,38.81329,195],[-90.38782,38.81328,195],[-90.38784,38.81326,195],[-90.38788,38.81327,195],[-90.38791,38.81325,194],[-90.3879,38.81322,194],[-90.38794,38.81321,194],[-90.38795,38.81318,193],[-90.38798,38.81316,193],[-90.388,38.81314,192],[-90.38801,38.81309,191],[-90.38802,38.81306,191],[-90.38803,38.81303,190],[-90.38805,38.81301,190],[-90.38804,38.81298,190],[-90.38803,38.81305,191],[-90.38803,38.81298,190],[-90.38802,38.81294,189],[-90.38804,38.81291,189],[-90.38805,38.81288,189],[-90.38805,38.81285,188],[-90.38805,38.81282,188],[-90.38808,38.81279,187],[-90.3881,38.81277,186],[-90.38814,38.81275,185],[-90.38817,38.81274,183],[-90.38817,38.81271,183],[-90.3882,38.81271,182],[-90.38822,38.81274,182],[-90.38828,38.81273,180],[-90.38834,38.81272,178],[-90.38839,38.81273,177],[-90.38839,38.8127,176],[-90.38839,38.81267,176],[-90.38843,38.81267,175],[-90.38847,38.81265,173],[-90.38851,38.81266,172],[-90.38852,38.81263,172],[-90.38853,38.81259,171],[-90.38856,38.81258,170],[-90.38859,38.81256,169],[-90.38858,38.81254,169],[-90.38858,38.81251,169],[-90.3886,38.81248,168],[-90.3886,38.81245,168],[-90.38861,38.81242,167],[-90.3886,38.81239,167],[-90.38864,38.81238,166],[-90.38865,38.81235,165],[-90.38866,38.81232,165],[-90.38867,38.81229,164],[-90.3887,38.81227,164],[-90.38873,38.81224,163],[-90.38875,38.81222,163],[-90.38877,38.8122,162],[-90.38879,38.81217,161],[-90.38879,38.81214,161],[-90.38878,38.81211,161],[-90.38877,38.81208,160],[-90.38875,38.81205,160],[-90.3887,38.81203,161],[-90.38868,38.812,161],[-90.38864,38.81198,161],[-90.38862,38.81196,161],[-90.38859,38.81194,162],[-90.38858,38.81191,162],[-90.38855,38.81187,163],[-90.38855,38.81184,163],[-90.38857,38.8118,164],[-90.38859,38.81178,164],[-90.38861,38.81175,164],[-90.38864,38.81172,163],[-90.38866,38.81169,163],[-90.38869,38.81167,163],[-90.38872,38.81165,163],[-90.38875,38.81162,162],[-90.38876,38.81159,161],[-90.38875,38.81156,162],[-90.38879,38.81155,161],[-90.38882,38.81155,160],[-90.38886,38.81156,159],[-90.38889,38.81154,158],[-90.38891,38.81152,158],[-90.38894,38.81151,157],[-90.38897,38.81149,156],[-90.38901,38.81148,155],[-90.38906,38.81147,154],[-90.38909,38.81145,153],[-90.38912,38.81143,153],[-90.38915,38.81142,152],[-90.38917,38.81139,152],[-90.3892,38.81137,152],[-90.38925,38.81138,152],[-90.3893,38.81139,152],[-90.38934,38.8114,152],[-90.38938,38.81139,152],[-90.38938,38.81137,152],[-90.3894,38.81134,152],[-90.38941,38.81131,152],[-90.38943,38.81129,152],[-90.38944,38.81126,152],[-90.38945,38.81124,151],[-90.38946,38.81121,151],[-90.38949,38.81119,151],[-90.38954,38.81118,151],[-90.38957,38.81116,151],[-90.38962,38.81117,151],[-90.38966,38.81118,151],[-90.38969,38.81119,150],[-90.38973,38.81119,150],[-90.38976,38.8112,150],[-90.3898,38.81121,149],[-90.38985,38.81119,148],[-90.38988,38.81116,148],[-90.38991,38.81115,148],[-90.38995,38.81114,147],[-90.38999,38.81114,146],[-90.39003,38.81115,146],[-90.39007,38.81115,145],[-90.39011,38.81116,145],[-90.39014,38.81117,144],[-90.39019,38.81118,144],[-90.39022,38.81118,143],[-90.39025,38.81118,143],[-90.39029,38.81116,142],[-90.39033,38.81117,142],[-90.39035,38.8112,142],[-90.39038,38.81122,142],[-90.39041,38.81121,142],[-90.39045,38.81123,142],[-90.39048,38.81124,142],[-90.39053,38.81126,142],[-90.39057,38.81126,142],[-90.39061,38.81125,142],[-90.39064,38.81123,142],[-90.39067,38.81121,142],[-90.39071,38.8112,141],[-90.39075,38.81119,141],[-90.39078,38.81118,141],[-90.3908,38.81114,141],[-90.39081,38.81112,141],[-90.3908,38.81111,141]]],
        "bbox": [
          -90.38748,
          38.82,
          -90.40663,
          38.81111
        ]
      },
      "properties": {
        "name": "4.28.2025"
      }
    }
  ]
}