{
  "type": "FeatureCollection",
  "features": [
    {
      "type": "Feature",
      "geometry": {
        "type": "MultiLineString",
        "coordinates": [[[-90.39072,38.81084,138],[-90.39075,38.81087,138],[-90.39077,38.81089,139],[-90.3908,38.81092,139],[-90.39082,38.81094,139],[-90.39083,38.81097,139],[-90.39082,38.811,139],[-90.39081,38.81103,140],[-90.39081,38.81106,140],[-90.39081,38.81109,140],[-90.39081,38.81112,141],[-90.39081,38.81115,141],[-90.39081,38.81118,141],[-90.39082,38.81121,141],[-90.39083,38.81123,141],[-90.39085,38.81126,141],[-90.39088,38.81129,141],[-90.39091,38.81131,141],[-90.39095,38.81132,141],[-90.39097,38.81134,141],[-90.39099,38.81137,141],[-90.39102,38.81139,141],[-90.39098,38.81136,141],[-90.39095,38.81133,141],[-90.39093,38.81131,141],[-90.39091,38.81128,141],[-90.39088,38.81126,141],[-90.39086,38.81124,141],[-90.39083,38.81121,141],[-90.39081,38.81119,141],[-90.39079,38.81116,141],[-90.39077,38.81114,141],[-90.39074,38.81117,141],[-90.39073,38.8112,141],[-90.3907,38.81122,142],[-90.39067,38.81123,142],[-90.39064,38.81125,142],[-90.39061,38.81126,142],[-90.3907,38.81126,142],[-90.3908,38.81125,142],[-90.39085,38.81124,141],[-90.3909,38.81122,141],[-90.39088,38.8112,141],[-90.39084,38.81119,141],[-90.39081,38.81119,141],[-90.39082,38.81114,141],[-90.39083,38.81107,140],[-90.39083,38.81101,139],[-90.39083,38.81095,139],[-90.39082,38.81091,138],[-90.39082,38.81086,138],[-90.39077,38.81083,138],[-90.39073,38.81082,138],[-90.39069,38.81079,139],[-90.39066,38.81078,139],[-90.39061,38.81078,139],[-90.39057,38.81078,139],[-90.39053,38.81078,139],[-90.39049,38.81077,140],[-90.39044,38.81077,140],[-90.3904,38.81076,140],[-90.39035,38.81076,140],[-90.39031,38.81075,140],[-90.39026,38.81075,141],[-90.39021,38.81074,141],[-90.39016,38.81074,141],[-90.39012,38.81073,141],[-90.39007,38.81073,142],[-90.39003,38.81072,142],[-90.38998,38.81072,142],[-90.38994,38.81072,142],[-90.38989,38.81072,143],[-90.38985,38.81071,143],[-90.38981,38.81071,143],[-90.38976,38.8107,144],[-90.38972,38.81069,144],[-90.38967,38.81069,144],[-90.38963,38.81068,144],[-90.38958,38.81067,144],[-90.38954,38.81067,144],[-90.38949,38.81065,144],[-90.38946,38.81064,144],[-90.38943,38.81062,144],[-90.3894,38.8106,144],[-90.38937,38.81058,144],[-90.38934,38.81055,143],[-90.38931,38.81053,143],[-90.38929,38.8105,143],[-90.38926,38.81047,143],[-90.38924,38.81045,143],[-90.38922,38.81041,143],[-90.38921,38.81038,143],[-90.38919,38.81035,143],[-90.38918,38.81032,143],[-90.38919,38.81028,142],[-90.38919,38.81025,143],[-90.38919,38.81021,143],[-90.38918,38.81017,143],[-90.38917,38.81013,143],[-90.38916,38.8101,143],[-90.38915,38.81006,144],[-90.38914,38.81003,144],[-90.38913,38.81,144],[-90.38912,38.80996,144],[-90.38911,38.80993,145],[-90.3891,38.80989,145],[-90.38909,38.80986,145],[-90.38908,38.80982,145],[-90.38907,38.80979,145],[-90.38904,38.80976,145],[-90.38901,38.80972,145],[-90.38899,38.80969,145],[-90.38896,38.80966,145],[-90.38893,38.80963,145],[-90.38891,38.8096,145],[-90.38888,38.80958,145],[-90.38885,38.80955,145],[-90.38883,38.80953,145],[-90.38881,38.8095,145],[-90.38879,38.80946,145],[-90.38877,38.80943,145],[-90.38876,38.8094,144],[-90.38875,38.80936,144],[-90.38875,38.80933,143],[-90.38874,38.8093,143],[-90.38873,38.80926,142],[-90.38871,38.80923,142],[-90.3887,38.8092,142],[-90.38869,38.80916,141],[-90.38867,38.80913,141],[-90.38866,38.8091,141],[-90.38865,38.80907,141],[-90.38863,38.80903,141],[-90.38862,38.809,141],[-90.38861,38.80897,141],[-90.38861,38.80893,141],[-90.3886,38.8089,141],[-90.38859,38.80886,141],[-90.38858,38.80883,141],[-90.38857,38.80879,141],[-90.38857,38.80876,141],[-90.38856,38.80873,142],[-90.38855,38.80869,142],[-90.38854,38.80866,142],[-90.38853,38.80862,142],[-90.38853,38.80859,142],[-90.38852,38.80855,142],[-90.38851,38.80852,142],[-90.3885,38.80849,143],[-90.38849,38.80845,143],[-90.38848,38.80842,143],[-90.38848,38.80838,142],[-90.38847,38.80835,143],[-90.38846,38.80832,143],[-90.38846,38.80828,142],[-90.38848,38.80825,142],[-90.38848,38.80822,142],[-90.38848,38.80818,141],[-90.38847,38.80815,141],[-90.38847,38.80812,141],[-90.38846,38.80808,141],[-90.38845,38.80805,141],[-90.38845,38.80802,141],[-90.38844,38.80798,141],[-90.38843,38.80795,142],[-90.38843,38.80792,142],[-90.38842,38.80788,142],[-90.38841,38.80785,142],[-90.3884,38.80782,142],[-90.38839,38.80778,143],[-90.38839,38.80775,143],[-90.38838,38.80772,142],[-90.38836,38.80769,143],[-90.38835,38.80765,142],[-90.38834,38.80762,142],[-90.38834,38.80759,142],[-90.38833,38.80756,142],[-90.38832,38.80753,142],[-90.3883,38.8075,142],[-90.38829,38.80746,142],[-90.38829,38.80742,142],[-90.38828,38.80739,142],[-90.38827,38.80735,142],[-90.38826,38.80732,142],[-90.38826,38.80729,142],[-90.38825,38.80725,142],[-90.38824,38.80723,142],[-90.38822,38.8072,142],[-90.38823,38.80717,142],[-90.38823,38.80713,141],[-90.38823,38.80709,141],[-90.38822,38.80706,140],[-90.3882,38.80702,140],[-90.38819,38.807,140],[-90.38818,38.80696,140],[-90.38818,38.80692,140],[-90.38817,38.80689,140],[-90.38817,38.80685,139],[-90.38816,38.80682,139],[-90.38815,38.80679,139],[-90.38815,38.80676,139],[-90.38814,38.80673,139],[-90.38813,38.80669,139],[-90.38812,38.80666,139],[-90.38811,38.80663,139],[-90.38811,38.8066,140],[-90.3881,38.80656,140],[-90.38809,38.80653,140],[-90.38808,38.8065,141],[-90.38808,38.80647,141],[-90.38807,38.80644,141],[-90.38806,38.8064,141],[-90.38806,38.80637,141],[-90.38805,38.80634,142],[-90.38805,38.8063,142],[-90.38804,38.80627,142],[-90.38803,38.80624,142],[-90.38803,38.8062,142],[-90.38802,38.80617,142],[-90.38802,38.80614,142],[-90.38801,38.8061,143],[-90.38801,38.80607,143],[-90.388,38.80604,143],[-90.38799,38.806,143],[-90.38799,38.80597,143],[-90.38798,38.80593,144],[-90.38797,38.8059,144],[-90.38796,38.80587,144],[-90.38796,38.80583,144],[-90.38795,38.8058,144],[-90.38794,38.80577,143],[-90.38793,38.80573,143],[-90.38793,38.8057,143],[-90.38792,38.80567,142],[-90.38791,38.80563,142],[-90.38791,38.8056,141],[-90.3879,38.80557,141],[-90.38789,38.80553,141],[-90.38789,38.8055,141],[-90.38788,38.80547,141],[-90.38787,38.80543,142],[-90.38786,38.8054,142],[-90.38786,38.80537,142],[-90.38785,38.80533,143],[-90.38784,38.8053,143],[-90.38784,38.80526,143],[-90.38783,38.80523,143],[-90.38783,38.8052,143],[-90.38782,38.80516,144],[-90.38781,38.80513,144],[-90.38781,38.80509,144],[-90.3878,38.80506,144],[-90.3878,38.80503,144],[-90.38779,38.80499,144],[-90.38778,38.80496,144],[-90.38778,38.80492,144],[-90.38777,38.80489,144],[-90.38777,38.80486,144],[-90.38776,38.80482,143],[-90.38777,38.80479,143],[-90.38778,38.80475,143],[-90.38779,38.80472,142],[-90.38779,38.80469,142],[-90.38778,38.80466,142],[-90.38777,38.80463,142],[-90.38776,38.80461,142],[-90.38775,38.80458,142],[-90.38775,38.80455,142],[-90.38774,38.80452,142],[-90.38773,38.80449,142],[-90.38771,38.80446,143],[-90.3877,38.80443,143],[-90.38769,38.8044,143],[-90.38768,38.80437,143],[-90.38757,38.80437,145],[-90.38748,38.80437,146],[-90.38741,38.80437,147],[-90.38735,38.80437,148],[-90.3873,38.80437,149],[-90.38726,38.80435,150],[-90.38725,38.80432,150],[-90.38724,38.80429,150],[-90.38726,38.80425,150],[-90.3873,38.80424,149],[-90.38733,38.80422,149],[-90.38736,38.8042,148],[-90.38739,38.80418,148],[-90.38741,38.80415,148],[-90.38744,38.80413,147],[-90.38747,38.80411,147],[-90.38749,38.80409,147],[-90.38747,38.80406,147],[-90.38745,38.80404,148],[-90.38745,38.80401,148],[-90.38744,38.80398,148],[-90.38743,38.80396,148],[-90.38743,38.80399,148],[-90.38743,38.80402,148],[-90.38744,38.80405,148],[-90.38745,38.80409,148],[-90.38745,38.80412,147],[-90.38744,38.80415,147],[-90.3874,38.80417,148],[-90.38737,38.80419,148],[-90.38735,38.80422,149],[-90.38733,38.80424,149],[-90.38731,38.80427,149],[-90.38729,38.8043,149],[-90.38728,38.80433,149],[-90.38728,38.80436,149],[-90.38728,38.80439,149],[-90.38727,38.80442,150],[-90.38727,38.80445,150],[-90.38726,38.80448,150],[-90.38726,38.80451,150],[-90.38727,38.80448,150],[-90.38729,38.80445,149],[-90.3873,38.80442,149],[-90.38731,38.80439,149],[-90.38734,38.80437,149],[-90.38738,38.80439,148],[-90.38742,38.8044,147],[-90.38745,38.80441,146],[-90.38749,38.80441,146],[-90.38753,38.80443,145],[-90.38757,38.80444,144],[-90.3876,38.80445,144],[-90.38764,38.80447,144],[-90.38768,38.80449,143],[-90.3877,38.80451,143],[-90.38773,38.80454,142],[-90.38775,38.80457,142],[-90.38775,38.8046,142],[-90.38771,38.80462,143],[-90.38771,38.80465,143],[-90.38772,38.80467,143],[-90.38774,38.8047,143],[-90.38775,38.80472,143],[-90.38776,38.80475,143],[-90.38776,38.80478,143],[-90.38776,38.80482,143],[-90.38776,38.80485,144],[-90.38777,38.80487,144],[-90.38777,38.80491,144],[-90.38777,38.80494,144],[-90.38777,38.80498,144],[-90.38777,38.80501,145],[-90.38778,38.80505,144],[-90.38778,38.80508,144],[-90.38779,38.80512,144],[-90.38779,38.80515,144],[-90.3878,38.80519,144],[-90.3878,38.80522,143],[-90.3878,38.80525,143],[-90.38781,38.80529,143],[-90.38782,38.80532,143],[-90.38782,38.80535,143],[-90.38783,38.80538,142],[-90.38786,38.80541,142],[-90.38787,38.80544,142],[-90.38787,38.80547,142],[-90.38786,38.80551,141],[-90.38786,38.80554,141],[-90.38787,38.80557,141],[-90.38787,38.80561,142],[-90.38788,38.80564,143],[-90.38788,38.80567,143],[-90.38789,38.80571,143],[-90.38791,38.80574,144],[-90.38792,38.80578,144],[-90.38793,38.80581,144],[-90.38794,38.80584,144],[-90.38794,38.80588,144],[-90.38795,38.80591,144],[-90.38796,38.80594,144],[-90.38797,38.80597,144],[-90.38798,38.806,144],[-90.38799,38.80604,143],[-90.388,38.80607,143],[-90.388,38.80611,143],[-90.38801,38.80614,143],[-90.38802,38.80618,142],[-90.38802,38.80622,142],[-90.38803,38.80625,142],[-90.38804,38.80629,142],[-90.38804,38.80632,142],[-90.38804,38.80636,142],[-90.38805,38.80639,142],[-90.38804,38.80643,142],[-90.38804,38.80646,142],[-90.38805,38.8065,141],[-90.38806,38.80654,141],[-90.38807,38.80657,141],[-90.38807,38.80661,140],[-90.38808,38.80664,140],[-90.38809,38.80668,140],[-90.3881,38.80671,140],[-90.3881,38.80675,140],[-90.38812,38.80678,140],[-90.38812,38.80681,140],[-90.38813,38.80685,140],[-90.38814,38.80688,140],[-90.38815,38.80692,140],[-90.38816,38.80695,140],[-90.38817,38.80699,141],[-90.38818,38.80702,141],[-90.38818,38.80705,141],[-90.38819,38.80709,141],[-90.3882,38.80712,142],[-90.38821,38.80715,142],[-90.38821,38.80719,142],[-90.38822,38.80722,142],[-90.38823,38.80725,143],[-90.38823,38.80729,143],[-90.38824,38.80732,143],[-90.38825,38.80735,143],[-90.38825,38.80738,143],[-90.38826,38.80741,143],[-90.38827,38.80745,143],[-90.38827,38.80749,143],[-90.38828,38.80753,143],[-90.38829,38.80756,143],[-90.38829,38.8076,143],[-90.38831,38.80762,143],[-90.38829,38.80764,143],[-90.3883,38.80767,143],[-90.3883,38.80771,144],[-90.38831,38.80774,144],[-90.38833,38.80778,144],[-90.38834,38.80781,143],[-90.38835,38.80785,143],[-90.38837,38.80788,143],[-90.38838,38.80792,142],[-90.38839,38.80795,142],[-90.3884,38.80799,142],[-90.38841,38.80802,141],[-90.38842,38.80806,141],[-90.38843,38.80809,141],[-90.38843,38.80813,142],[-90.38844,38.80816,142],[-90.38845,38.8082,142],[-90.38845,38.80823,142],[-90.38846,38.80827,142],[-90.38846,38.8083,143],[-90.38847,38.80834,142],[-90.38847,38.80837,143],[-90.38848,38.80841,143],[-90.38848,38.80844,143],[-90.38848,38.80848,143],[-90.38849,38.80851,143],[-90.3885,38.80853,143],[-90.38849,38.80856,143],[-90.3885,38.80859,143],[-90.38851,38.80864,143],[-90.38851,38.80867,143],[-90.38852,38.8087,142],[-90.38853,38.80873,142],[-90.38853,38.80876,142],[-90.38854,38.8088,142],[-90.38855,38.80884,142],[-90.38855,38.80887,142],[-90.38856,38.8089,142],[-90.38858,38.80894,141],[-90.38858,38.80897,141],[-90.38859,38.80901,141],[-90.3886,38.80904,141],[-90.38861,38.80908,141],[-90.38862,38.80911,141],[-90.38863,38.80915,141],[-90.38864,38.80918,142],[-90.38865,38.80922,142],[-90.38866,38.80925,143],[-90.38867,38.80929,143],[-90.38869,38.80932,144],[-90.38872,38.80931,143],[-90.38874,38.80934,144],[-90.38875,38.80937,144],[-90.38876,38.80941,144],[-90.38878,38.80944,145],[-90.3888,38.80947,145],[-90.38882,38.8095,145],[-90.38884,38.80953,145],[-90.38886,38.80956,145],[-90.38888,38.80959,145],[-90.3889,38.80962,145],[-90.38892,38.80965,145],[-90.38895,38.80968,145],[-90.38897,38.80971,146],[-90.389,38.80974,145],[-90.38902,38.80977,145],[-90.38904,38.80979,145],[-90.38907,38.80983,145],[-90.38909,38.80986,145],[-90.38911,38.80989,145],[-90.38911,38.80992,145],[-90.38911,38.80995,145],[-90.38911,38.80999,145],[-90.38912,38.81002,144],[-90.38913,38.81005,144],[-90.38913,38.81008,144],[-90.38914,38.81011,144],[-90.38914,38.81014,144],[-90.38915,38.81017,143],[-90.38916,38.8102,143],[-90.38917,38.81024,143],[-90.38918,38.81027,142],[-90.38919,38.8103,143],[-90.3892,38.81033,143],[-90.38923,38.81035,143],[-90.38924,38.81037,143],[-90.38924,38.81041,143],[-90.38925,38.81044,143],[-90.38926,38.81048,143],[-90.38928,38.81051,143],[-90.38931,38.81053,143],[-90.38933,38.81055,143],[-90.38936,38.81058,144],[-90.38938,38.8106,144],[-90.38942,38.81062,144],[-90.38946,38.81063,144],[-90.38949,38.81064,144],[-90.38953,38.81065,144],[-90.38957,38.81067,144],[-90.38962,38.81068,144],[-90.38966,38.81069,144],[-90.38971,38.8107,144],[-90.38976,38.81071,144],[-90.3898,38.81071,144],[-90.38984,38.81072,143],[-90.38989,38.81073,143],[-90.38993,38.81073,143],[-90.38998,38.81074,142],[-90.39002,38.81074,142],[-90.39007,38.81075,142],[-90.39011,38.81075,142],[-90.39016,38.81076,141],[-90.3902,38.81076,141],[-90.39025,38.81077,141],[-90.3903,38.81077,141],[-90.39034,38.81078,141],[-90.39039,38.81078,140],[-90.39043,38.81078,140],[-90.39048,38.81079,140],[-90.39053,38.81078,139],[-90.39056,38.81076,139],[-90.39059,38.81075,139],[-90.39063,38.81074,139],[-90.39064,38.81072,139],[-90.39061,38.81073,139],[-90.39061,38.81072,139]]],
        "bbox": [
          -90.38724,
          38.81139,
          -90.39102,
          38.80396
        ]
      },
      "properties": {
        "name": "7.16.2025 - mostly on straight trail"
      }
    }
  ]
}