{
  "type": "FeatureCollection",
  "features": [
    {
      "type": "Feature",
      "geometry": {
        "type": "MultiLineString",
        "coordinates": [[[-90.38949,38.81063,144],[-90.38946,38.81062,144],[-90.38943,38.8106,144],[-90.3894,38.81058,143],[-90.38937,38.81056,143],[-90.38935,38.81054,143],[-90.38932,38.81052,143],[-90.3893,38.81049,143],[-90.38928,38.81046,143],[-90.38926,38.81043,143],[-90.38924,38.8104,143],[-90.38923,38.81037,143],[-90.38922,38.81034,143],[-90.38921,38.81031,143],[-90.38921,38.81028,142],[-90.3892,38.81026,142],[-90.38916,38.81025,143],[-90.38918,38.81027,142],[-90.38917,38.81024,143],[-90.38917,38.81022,143],[-90.38917,38.81019,143],[-90.38916,38.81016,143],[-90.38915,38.81013,143],[-90.38914,38.8101,144],[-90.38914,38.81007,144],[-90.38913,38.81003,144],[-90.38912,38.81,144],[-90.38911,38.80997,145],[-90.3891,38.80993,145],[-90.38909,38.8099,145],[-90.38908,38.80987,145],[-90.38907,38.80984,145],[-90.38905,38.8098,145],[-90.38903,38.80978,145],[-90.38901,38.80974,145],[-90.38899,38.80971,145],[-90.38897,38.80968,145],[-90.38895,38.80965,145],[-90.38893,38.80962,145],[-90.3889,38.80959,145],[-90.38888,38.80956,145],[-90.38886,38.80953,145],[-90.38884,38.80951,145],[-90.3888,38.80952,146],[-90.38875,38.80953,146],[-90.38872,38.80954,147],[-90.38869,38.80956,148],[-90.38866,38.80957,149],[-90.38862,38.80957,149],[-90.38859,38.80955,149],[-90.38855,38.80954,150],[-90.38852,38.80953,150],[-90.38848,38.80952,150],[-90.38844,38.8095,150],[-90.3884,38.80948,150],[-90.38836,38.80947,151],[-90.38833,38.80945,151],[-90.38833,38.80942,150],[-90.38833,38.80939,150],[-90.38835,38.80936,149],[-90.38838,38.80934,148],[-90.38838,38.80931,148],[-90.38838,38.80928,147],[-90.38837,38.80924,147],[-90.38836,38.80921,147],[-90.38838,38.80918,146],[-90.3884,38.80916,145],[-90.3884,38.80913,145],[-90.3884,38.8091,145],[-90.38838,38.80907,145],[-90.38834,38.80906,146],[-90.3883,38.80904,147],[-90.38827,38.80902,147],[-90.38826,38.80899,148],[-90.38828,38.80896,147],[-90.38828,38.80894,147],[-90.38827,38.80891,147],[-90.38826,38.80888,147],[-90.38826,38.80885,147],[-90.38826,38.80882,148],[-90.38827,38.80879,148],[-90.38826,38.80875,148],[-90.38825,38.80872,148],[-90.38826,38.80869,148],[-90.38826,38.80866,148],[-90.38826,38.80863,148],[-90.38825,38.8086,148],[-90.38824,38.80857,149],[-90.38824,38.80854,148],[-90.38823,38.8085,148],[-90.38822,38.80847,148],[-90.38821,38.80844,149],[-90.38821,38.8084,148],[-90.3882,38.80838,148],[-90.38819,38.80835,148],[-90.38817,38.80832,148],[-90.38814,38.80829,149],[-90.38813,38.80826,148],[-90.38813,38.80823,148],[-90.38813,38.8082,148],[-90.38811,38.80818,148],[-90.38809,38.80815,148],[-90.38809,38.80811,147],[-90.38809,38.80808,147],[-90.38809,38.80805,147],[-90.3881,38.80802,147],[-90.3881,38.80799,147],[-90.38809,38.80796,147],[-90.38809,38.80794,147],[-90.38809,38.8079,147],[-90.38809,38.80787,147],[-90.38807,38.80785,147],[-90.38806,38.80781,147],[-90.38807,38.80779,147],[-90.38805,38.80776,148],[-90.38803,38.80773,148],[-90.38801,38.8077,149],[-90.388,38.80767,149],[-90.38797,38.80765,149],[-90.38796,38.80763,150],[-90.38796,38.8076,150],[-90.38797,38.80757,149],[-90.38796,38.80754,150],[-90.38793,38.80751,150],[-90.38791,38.80749,151],[-90.38791,38.80746,150],[-90.38791,38.80744,150],[-90.38791,38.8074,150],[-90.38791,38.80737,149],[-90.38791,38.80734,149],[-90.38791,38.80731,149],[-90.38791,38.80728,149],[-90.38789,38.80725,149],[-90.38786,38.80722,149],[-90.38782,38.80719,150],[-90.38778,38.80717,150],[-90.38775,38.80715,151],[-90.38773,38.80713,151],[-90.38772,38.80711,152],[-90.38776,38.80709,151],[-90.38779,38.80708,150],[-90.38782,38.80706,150],[-90.38781,38.80703,150],[-90.3878,38.807,150],[-90.38779,38.80698,150],[-90.38778,38.80695,150],[-90.38778,38.80691,150],[-90.38778,38.80688,150],[-90.38779,38.80685,150],[-90.38778,38.80682,150],[-90.38777,38.80679,150],[-90.38776,38.80676,150],[-90.38776,38.80673,150],[-90.38775,38.80669,150],[-90.38774,38.80667,150],[-90.38773,38.80664,150],[-90.38772,38.80661,151],[-90.3877,38.80659,151],[-90.38769,38.80656,151],[-90.38767,38.80652,151],[-90.38766,38.80649,151],[-90.38765,38.80646,151],[-90.38765,38.80642,151],[-90.38764,38.80639,151],[-90.38764,38.80636,151],[-90.38766,38.80633,151],[-90.38766,38.8063,151],[-90.38765,38.80627,151],[-90.38763,38.80624,152],[-90.38763,38.80621,152],[-90.38763,38.80618,152],[-90.38764,38.80614,151],[-90.38764,38.80611,151],[-90.38765,38.80608,151],[-90.38766,38.80605,151],[-90.38766,38.80602,151],[-90.38766,38.80599,151],[-90.38765,38.80596,151],[-90.38765,38.80593,150],[-90.38764,38.8059,150],[-90.38762,38.80587,150],[-90.38761,38.80584,150],[-90.38761,38.80581,150],[-90.38759,38.80578,150],[-90.38757,38.80575,149],[-90.38754,38.80573,149],[-90.38752,38.8057,149],[-90.3875,38.80567,149],[-90.38748,38.80564,149],[-90.38747,38.80561,149],[-90.38747,38.80558,148],[-90.38747,38.80555,148],[-90.38746,38.80551,148],[-90.38746,38.80548,148],[-90.38747,38.80545,147],[-90.38748,38.80541,147],[-90.38746,38.80538,147],[-90.38744,38.80535,147],[-90.38741,38.80533,147],[-90.38739,38.8053,147],[-90.38739,38.80527,147],[-90.38739,38.80524,147],[-90.38739,38.8052,147],[-90.38738,38.80517,148],[-90.38738,38.80514,148],[-90.38737,38.80511,148],[-90.38736,38.80508,148],[-90.38736,38.80505,149],[-90.38737,38.80502,149],[-90.38738,38.80499,149],[-90.38738,38.80496,149],[-90.38737,38.80493,149],[-90.38737,38.8049,149],[-90.38736,38.80487,149],[-90.38736,38.80484,149],[-90.38737,38.8048,149],[-90.38737,38.80477,149],[-90.38735,38.80474,149],[-90.38733,38.80472,149],[-90.38731,38.80469,149],[-90.38729,38.80467,149],[-90.38725,38.80466,150],[-90.3872,38.80467,151],[-90.38714,38.80467,152],[-90.3871,38.80468,152],[-90.38705,38.80468,153],[-90.38701,38.80469,154],[-90.38696,38.80469,154],[-90.38693,38.80468,155],[-90.38691,38.80465,155],[-90.38689,38.80462,156],[-90.38686,38.8046,156],[-90.38682,38.80459,157],[-90.38678,38.80458,158],[-90.38674,38.80457,158],[-90.38671,38.80456,159],[-90.38668,38.80454,159],[-90.38665,38.80451,160],[-90.38662,38.80449,160],[-90.38658,38.80449,160],[-90.38653,38.80449,161],[-90.3865,38.80448,161],[-90.38647,38.80446,161],[-90.38644,38.80444,161],[-90.38642,38.80442,161],[-90.38639,38.8044,161],[-90.38637,38.80438,161],[-90.38634,38.80436,161],[-90.38632,38.80434,161],[-90.3863,38.80431,161],[-90.38627,38.80428,162],[-90.38623,38.80426,163],[-90.3862,38.80425,163],[-90.38616,38.80424,164],[-90.38613,38.80422,165],[-90.3861,38.80421,165],[-90.38607,38.80419,166],[-90.38603,38.80417,168],[-90.38599,38.80416,169],[-90.38598,38.80413,169],[-90.38596,38.8041,170],[-90.38593,38.80407,171],[-90.38592,38.80405,172],[-90.3859,38.80402,173],[-90.38587,38.80399,174],[-90.38586,38.80397,175],[-90.38585,38.80394,176],[-90.38585,38.80391,176],[-90.38585,38.80388,177],[-90.38587,38.80385,175],[-90.38587,38.80383,175],[-90.38587,38.8038,174],[-90.38587,38.80376,173],[-90.38586,38.80373,173],[-90.38584,38.80371,173],[-90.38583,38.80368,173],[-90.38583,38.80365,172],[-90.38585,38.80362,171],[-90.38584,38.80359,171],[-90.3858,38.80358,171],[-90.38577,38.80356,171],[-90.38574,38.80355,171],[-90.3857,38.80354,171],[-90.38567,38.80353,172],[-90.38562,38.80352,172],[-90.38558,38.80352,172],[-90.38555,38.80352,172],[-90.38553,38.80349,172],[-90.38554,38.80346,171],[-90.38553,38.80343,171],[-90.38553,38.8034,171],[-90.38553,38.80337,170],[-90.38552,38.80334,170],[-90.38552,38.80331,169],[-90.38551,38.80328,169],[-90.38551,38.80325,168],[-90.38549,38.80322,168],[-90.38547,38.80319,168],[-90.38545,38.80317,168],[-90.38545,38.80314,167],[-90.38546,38.80311,167],[-90.38546,38.80307,166],[-90.38545,38.80304,166],[-90.38544,38.80301,167],[-90.38543,38.80298,167],[-90.38543,38.80295,167],[-90.38544,38.80292,168],[-90.38545,38.80288,168],[-90.38546,38.80286,168],[-90.38549,38.80283,168],[-90.38551,38.80281,168],[-90.38553,38.80278,168],[-90.38553,38.80274,168],[-90.38555,38.80271,168],[-90.38558,38.8027,168],[-90.38561,38.80268,168],[-90.38564,38.80266,168],[-90.38568,38.80265,168],[-90.38571,38.80264,168],[-90.38575,38.80262,168],[-90.38579,38.80261,168],[-90.38583,38.8026,167],[-90.38587,38.80261,167],[-90.3859,38.80263,167],[-90.38591,38.80266,167],[-90.38591,38.80269,168],[-90.38593,38.80272,168],[-90.38596,38.80274,168],[-90.38599,38.80276,168],[-90.386,38.80279,168],[-90.38604,38.80278,168],[-90.38608,38.80276,168],[-90.38611,38.80274,168],[-90.38615,38.80274,167],[-90.38618,38.80273,167],[-90.38622,38.80273,166],[-90.38626,38.80274,165],[-90.3863,38.80275,164],[-90.38634,38.80276,164],[-90.38637,38.80277,163],[-90.38641,38.80278,162],[-90.38645,38.80279,161],[-90.38648,38.8028,160],[-90.38652,38.8028,160],[-90.38656,38.80283,159],[-90.3866,38.80286,158],[-90.38662,38.80288,157],[-90.38666,38.80289,156],[-90.38669,38.8029,156],[-90.3867,38.80293,156],[-90.38671,38.80296,156],[-90.38672,38.80299,155],[-90.38671,38.80302,155],[-90.3867,38.80305,155],[-90.3867,38.80308,156],[-90.38673,38.8031,156],[-90.38676,38.80311,156],[-90.38677,38.80314,156],[-90.38679,38.80317,157],[-90.38682,38.80318,157],[-90.38685,38.8032,157],[-90.38688,38.80322,157],[-90.38691,38.80325,158],[-90.38693,38.80328,159],[-90.38694,38.80331,159],[-90.38696,38.80333,159],[-90.38698,38.80335,159],[-90.387,38.80337,159],[-90.38702,38.8034,159],[-90.38702,38.80343,159],[-90.38702,38.80346,159],[-90.38702,38.80349,159],[-90.38704,38.80352,159],[-90.38706,38.80355,159],[-90.3871,38.80356,159],[-90.38713,38.80358,159],[-90.38715,38.80356,159],[-90.38715,38.80359,159],[-90.38717,38.80363,158],[-90.38721,38.80366,157],[-90.38725,38.80367,157],[-90.38728,38.80366,157],[-90.38727,38.80369,156],[-90.38728,38.80372,156],[-90.3873,38.80376,154],[-90.38731,38.80379,154],[-90.38732,38.80382,153],[-90.38734,38.80385,152],[-90.38736,38.80389,150],[-90.38737,38.80392,150],[-90.38738,38.80394,149],[-90.3874,38.80398,149],[-90.38741,38.80401,149],[-90.38742,38.80404,148],[-90.38743,38.80407,148],[-90.38743,38.8041,148],[-90.38741,38.80414,148],[-90.38738,38.80415,148],[-90.38735,38.80417,149],[-90.38733,38.80419,149],[-90.38731,38.80422,149],[-90.3873,38.80425,149],[-90.38729,38.80428,149],[-90.38728,38.80431,150],[-90.38727,38.80434,150],[-90.3873,38.80435,149],[-90.38732,38.80438,149],[-90.38736,38.8044,148],[-90.3874,38.8044,147],[-90.38743,38.80441,147],[-90.38747,38.80443,146],[-90.3875,38.80444,146],[-90.38754,38.80444,145],[-90.38759,38.80445,144],[-90.38762,38.80446,144],[-90.38765,38.80448,143],[-90.38768,38.8045,143],[-90.3877,38.80453,143],[-90.3877,38.80456,143],[-90.38771,38.80459,143],[-90.38771,38.80462,143],[-90.38771,38.80465,143],[-90.38771,38.80469,143],[-90.38772,38.80472,143],[-90.38772,38.80474,143],[-90.38772,38.80478,144],[-90.38773,38.80482,144],[-90.38773,38.80485,144],[-90.38774,38.80488,144],[-90.38774,38.80491,144],[-90.38774,38.80494,144],[-90.38775,38.80497,145],[-90.38775,38.805,145],[-90.38776,38.80504,145],[-90.38776,38.80507,144],[-90.38777,38.8051,144],[-90.38778,38.80513,144],[-90.38779,38.80516,144],[-90.3878,38.8052,144],[-90.38781,38.80523,143],[-90.38781,38.80526,143],[-90.38782,38.80529,143],[-90.38783,38.80532,143],[-90.38784,38.80536,142],[-90.38784,38.80539,142],[-90.38785,38.80542,142],[-90.38785,38.80546,142],[-90.38785,38.80549,142],[-90.38785,38.80553,142],[-90.38785,38.80556,142],[-90.38786,38.8056,142],[-90.38787,38.80562,142],[-90.38788,38.80566,143],[-90.38789,38.80569,143],[-90.38789,38.80572,144],[-90.3879,38.80576,144],[-90.38791,38.80579,144],[-90.38791,38.80582,145],[-90.38791,38.80586,145],[-90.38791,38.80589,145],[-90.38792,38.80593,145],[-90.38793,38.80596,145],[-90.38794,38.80599,145],[-90.38794,38.80603,145],[-90.38795,38.80607,145],[-90.38796,38.8061,144],[-90.38797,38.80613,144],[-90.38798,38.80615,144],[-90.38798,38.80619,144],[-90.388,38.80621,143],[-90.38801,38.80625,143],[-90.38802,38.80628,142],[-90.38802,38.80632,142],[-90.38802,38.80635,142],[-90.38802,38.80637,142],[-90.38802,38.8064,142],[-90.38803,38.80644,142],[-90.38804,38.80646,142],[-90.38805,38.80649,141],[-90.38806,38.80652,141],[-90.38806,38.80655,141],[-90.38807,38.80658,141],[-90.38807,38.80661,140],[-90.38808,38.80664,140],[-90.38808,38.80667,140],[-90.38808,38.80671,140],[-90.38809,38.80674,140],[-90.3881,38.80676,140],[-90.38811,38.80679,140],[-90.38811,38.80683,140],[-90.38811,38.80687,141],[-90.38812,38.8069,141],[-90.38813,38.80693,141],[-90.38814,38.80697,141],[-90.38815,38.807,141],[-90.38815,38.80703,141],[-90.38815,38.80707,142],[-90.38816,38.8071,142],[-90.38817,38.80713,142],[-90.38818,38.80716,142],[-90.38819,38.8072,143],[-90.3882,38.80723,143],[-90.3882,38.80726,143],[-90.3882,38.80729,143],[-90.38821,38.80732,143],[-90.38822,38.80735,143],[-90.38824,38.80738,143],[-90.38823,38.80742,143],[-90.38824,38.80744,143],[-90.38825,38.80747,143],[-90.38825,38.8075,143],[-90.38826,38.80753,143],[-90.38826,38.80757,143],[-90.38827,38.8076,143],[-90.38828,38.80763,143],[-90.38829,38.80766,143],[-90.38831,38.80769,143],[-90.38831,38.80772,143],[-90.38832,38.80775,143],[-90.38833,38.80779,144],[-90.38834,38.80781,143],[-90.38836,38.80784,143],[-90.38836,38.80787,143],[-90.38837,38.8079,143],[-90.38838,38.80793,142],[-90.38839,38.80796,142],[-90.3884,38.80799,142],[-90.38841,38.80802,141],[-90.38842,38.80805,141],[-90.38841,38.80808,142],[-90.38841,38.80811,142],[-90.38842,38.80814,142],[-90.38843,38.80817,142],[-90.38843,38.8082,142],[-90.38844,38.80823,142],[-90.38845,38.80826,142],[-90.38845,38.8083,143],[-90.38845,38.80832,143],[-90.38845,38.80835,143],[-90.38847,38.80837,143],[-90.38847,38.8084,143],[-90.38847,38.80843,143],[-90.38847,38.80847,143],[-90.38847,38.8085,143],[-90.38847,38.80853,143],[-90.38848,38.80856,143],[-90.38849,38.80859,143],[-90.3885,38.80861,143],[-90.3885,38.80865,143],[-90.38852,38.80867,142],[-90.38853,38.8087,142],[-90.38853,38.80873,142],[-90.38853,38.80877,142],[-90.38854,38.8088,142],[-90.38854,38.80883,142],[-90.38855,38.80887,142],[-90.38855,38.8089,142],[-90.38856,38.80893,142],[-90.38858,38.80896,141],[-90.38859,38.80899,141],[-90.3886,38.80902,141],[-90.3886,38.80905,141],[-90.38861,38.80908,141],[-90.38862,38.80911,141],[-90.38863,38.80913,141],[-90.38864,38.80917,141],[-90.38865,38.8092,142],[-90.38866,38.80922,142],[-90.38868,38.80925,143],[-90.38869,38.80927,143],[-90.38871,38.80931,143],[-90.38873,38.80933,143],[-90.38874,38.80937,144],[-90.38875,38.80939,144],[-90.38877,38.80942,144],[-90.38878,38.80945,145],[-90.38879,38.80948,145],[-90.3888,38.80951,145],[-90.38882,38.80954,146],[-90.38883,38.80957,146],[-90.38886,38.80959,145],[-90.38887,38.80962,146],[-90.38889,38.80965,146],[-90.38892,38.80968,146],[-90.38894,38.80971,146],[-90.38896,38.80974,146],[-90.38898,38.80976,146],[-90.38899,38.8098,146],[-90.38901,38.80982,146],[-90.38904,38.80983,145],[-90.38906,38.80986,145],[-90.38905,38.80989,145],[-90.38905,38.80992,146],[-90.38906,38.80994,146],[-90.38906,38.80998,146],[-90.38907,38.81001,146],[-90.38908,38.81004,145],[-90.38909,38.81008,145],[-90.3891,38.81011,145],[-90.3891,38.81014,145],[-90.38912,38.81017,144],[-90.38913,38.8102,144],[-90.38915,38.81022,143],[-90.38916,38.81025,143],[-90.38917,38.81028,143],[-90.38916,38.81031,143],[-90.38918,38.81034,143],[-90.3892,38.81037,143],[-90.38921,38.8104,143],[-90.38922,38.81043,143],[-90.38924,38.81045,143],[-90.38926,38.81048,143],[-90.38928,38.81051,143],[-90.3893,38.81053,143],[-90.38931,38.81056,144],[-90.38933,38.81058,144],[-90.38935,38.8106,144],[-90.38938,38.81063,145],[-90.38942,38.81064,144],[-90.38946,38.81065,144],[-90.3895,38.81066,144],[-90.38954,38.81067,144],[-90.38958,38.81068,144],[-90.38962,38.8107,145],[-90.38965,38.81071,145],[-90.38969,38.81072,145],[-90.38973,38.81072,144],[-90.38977,38.81072,144],[-90.3898,38.81073,144],[-90.38984,38.81074,144],[-90.38988,38.81074,143],[-90.38993,38.81074,143],[-90.38997,38.81075,143],[-90.39002,38.81075,142],[-90.39005,38.81076,142],[-90.39009,38.81076,142],[-90.39013,38.81076,142],[-90.39016,38.81076,141],[-90.3902,38.81076,141],[-90.39025,38.81076,141],[-90.39029,38.81077,141],[-90.39033,38.81077,141],[-90.39037,38.81077,140],[-90.39041,38.81078,140],[-90.39045,38.81078,140],[-90.39045,38.81074,140],[-90.39045,38.81071,139],[-90.3905,38.81073,139],[-90.39054,38.81072,139],[-90.39058,38.81071,139],[-90.39062,38.8107,139],[-90.39066,38.8107,139],[-90.3907,38.8107,139],[-90.39074,38.8107,139],[-90.39078,38.8107,139],[-90.39081,38.81071,138],[-90.39083,38.81068,139],[-90.39082,38.81071,138]]],
        "bbox": [
          -90.38543,
          38.81078,
          -90.39083,
          38.8026
        ]
      },
      "properties": {
        "name": "4.24.2025 - not on trail hill"
      }
    }
  ]
}