{
  "type": "FeatureCollection",
  "features": [
    {
      "type": "Feature",
      "geometry": {
        "type": "MultiLineString",
        "coordinates": [[[-90.39084,38.81114,141],[-90.39083,38.81117,141],[-90.3908,38.81119,141],[-90.39077,38.81121,141],[-90.39074,38.81124,142],[-90.39072,38.81127,142],[-90.39069,38.8113,142],[-90.39065,38.81132,142],[-90.39062,38.81133,142],[-90.39058,38.81133,142],[-90.39054,38.81133,142],[-90.39051,38.81131,142],[-90.39049,38.81129,142],[-90.39046,38.81127,142],[-90.39042,38.81127,142],[-90.39038,38.81126,142],[-90.39035,38.81124,142],[-90.3903,38.81124,142],[-90.39027,38.81124,143],[-90.39022,38.81124,143],[-90.39018,38.81123,144],[-90.39014,38.81123,144],[-90.3901,38.81122,145],[-90.39006,38.81122,145],[-90.39002,38.81121,146],[-90.38998,38.81121,146],[-90.38994,38.81121,147],[-90.38991,38.81122,147],[-90.38987,38.81123,148],[-90.38984,38.81125,148],[-90.38981,38.81126,149],[-90.38977,38.81127,149],[-90.38973,38.81127,150],[-90.3897,38.81128,150],[-90.38966,38.81128,150],[-90.38963,38.81126,150],[-90.38959,38.81126,151],[-90.38956,38.81127,151],[-90.38952,38.81127,151],[-90.3895,38.8113,151],[-90.38948,38.81132,151],[-90.38947,38.81136,151],[-90.38944,38.81139,152],[-90.38943,38.81141,152],[-90.3894,38.81144,152],[-90.38937,38.81144,152],[-90.38932,38.81144,152],[-90.38928,38.81144,152],[-90.38926,38.81146,152],[-90.38924,38.81149,152],[-90.38922,38.81151,152],[-90.38919,38.81153,152],[-90.38915,38.81155,152],[-90.38912,38.81156,153],[-90.38908,38.81157,154],[-90.38904,38.81157,155],[-90.389,38.81158,156],[-90.38897,38.8116,157],[-90.38893,38.81161,158],[-90.3889,38.81162,159],[-90.38886,38.81163,160],[-90.38884,38.81165,160],[-90.38883,38.81168,160],[-90.3888,38.8117,161],[-90.38877,38.81172,161],[-90.38874,38.81174,161],[-90.38872,38.81177,161],[-90.3887,38.8118,161],[-90.38867,38.81183,162],[-90.38865,38.81185,162],[-90.38865,38.81188,162],[-90.38867,38.81191,161],[-90.3887,38.81193,160],[-90.38873,38.81194,159],[-90.38874,38.81197,159],[-90.38876,38.81199,159],[-90.38879,38.81201,159],[-90.38881,38.81204,159],[-90.38884,38.81206,159],[-90.38886,38.81208,159],[-90.38887,38.81211,160],[-90.38887,38.81214,160],[-90.38887,38.81217,161],[-90.38885,38.81221,162],[-90.38883,38.81224,162],[-90.3888,38.81226,163],[-90.38878,38.81229,163],[-90.38876,38.81231,163],[-90.38873,38.81233,164],[-90.38871,38.81236,165],[-90.3887,38.81239,165],[-90.38869,38.81241,166],[-90.38867,38.81244,166],[-90.3887,38.81246,166],[-90.38871,38.81249,167],[-90.38869,38.81252,167],[-90.38867,38.81255,168],[-90.38866,38.81258,168],[-90.38865,38.81261,168],[-90.38864,38.81264,169],[-90.38861,38.81267,169],[-90.38858,38.81269,170],[-90.38854,38.8127,171],[-90.38851,38.81272,173],[-90.38848,38.81274,174],[-90.38845,38.81275,175],[-90.38842,38.81277,176],[-90.38839,38.81278,177],[-90.38835,38.8128,179],[-90.38831,38.8128,180],[-90.38827,38.81282,182],[-90.38824,38.81283,183],[-90.38821,38.81285,184],[-90.38817,38.81286,185],[-90.38814,38.81287,186],[-90.3881,38.81287,187],[-90.38811,38.81291,188],[-90.38811,38.81294,188],[-90.3881,38.81297,189],[-90.38811,38.81301,189],[-90.38811,38.81303,189],[-90.38809,38.81306,190],[-90.38809,38.81309,190],[-90.38808,38.81312,191],[-90.38807,38.81315,192],[-90.38805,38.81318,193],[-90.38803,38.8132,193],[-90.388,38.81322,194],[-90.38798,38.81325,194],[-90.38796,38.81328,195],[-90.38792,38.81329,195],[-90.38788,38.81331,195],[-90.38785,38.81332,195],[-90.3878,38.81333,195],[-90.38776,38.81335,195],[-90.38772,38.81336,195],[-90.38768,38.81336,195],[-90.38764,38.81336,195],[-90.38762,38.81338,195],[-90.38762,38.81341,195],[-90.38763,38.81344,195],[-90.38763,38.81347,195],[-90.38762,38.8135,196],[-90.38761,38.81353,196],[-90.3876,38.81356,196],[-90.3876,38.81359,196],[-90.38759,38.81362,196],[-90.38758,38.81365,197],[-90.38757,38.81369,197],[-90.38757,38.81372,197],[-90.38756,38.81375,198],[-90.38756,38.81378,198],[-90.38755,38.81381,198],[-90.38755,38.81384,199],[-90.38756,38.81386,199],[-90.38759,38.81389,199],[-90.38762,38.81391,200],[-90.38766,38.81393,200],[-90.38769,38.81395,200],[-90.38773,38.81396,200],[-90.38777,38.81397,200],[-90.38781,38.81397,199],[-90.38785,38.81397,199],[-90.38789,38.81396,199],[-90.38792,38.81395,199],[-90.38796,38.81394,199],[-90.38799,38.81393,199],[-90.38803,38.81393,199],[-90.38807,38.81393,199],[-90.38811,38.81393,198],[-90.38815,38.81393,198],[-90.3882,38.81394,198],[-90.38824,38.81396,198],[-90.38828,38.81398,198],[-90.38832,38.81399,198],[-90.38837,38.814,198],[-90.38841,38.81401,197],[-90.38846,38.81402,197],[-90.3885,38.81404,197],[-90.38853,38.81406,196],[-90.38857,38.81407,196],[-90.38861,38.81409,196],[-90.38864,38.8141,196],[-90.38868,38.81412,195],[-90.38872,38.81412,195],[-90.38877,38.81413,194],[-90.38881,38.81415,194],[-90.38885,38.81416,193],[-90.3889,38.81418,192],[-90.38895,38.81419,192],[-90.38899,38.81419,192],[-90.38903,38.8142,192],[-90.38907,38.8142,192],[-90.38912,38.81421,192],[-90.38916,38.81422,192],[-90.3892,38.81424,192],[-90.38924,38.81425,191],[-90.38928,38.81427,191],[-90.38932,38.81429,190],[-90.38935,38.81431,190],[-90.3894,38.81432,189],[-90.38944,38.81434,189],[-90.38948,38.81435,188],[-90.38952,38.81437,188],[-90.38954,38.81439,188],[-90.38956,38.81442,189],[-90.38956,38.81446,189],[-90.38955,38.8145,189],[-90.38954,38.81453,190],[-90.38954,38.81456,190],[-90.38955,38.81459,190],[-90.38956,38.81462,190],[-90.38956,38.81465,190],[-90.38955,38.81469,191],[-90.38955,38.81473,191],[-90.38955,38.81476,190],[-90.38956,38.81478,190],[-90.38957,38.81482,190],[-90.38958,38.81485,190],[-90.3896,38.81488,189],[-90.38961,38.8149,189],[-90.38963,38.81494,189],[-90.38964,38.81496,189],[-90.38968,38.81498,189],[-90.38971,38.81501,188],[-90.38974,38.81504,188],[-90.38977,38.81506,187],[-90.38981,38.81508,187],[-90.38984,38.81511,186],[-90.38987,38.81513,185],[-90.38991,38.81515,185],[-90.38994,38.81518,184],[-90.38996,38.8152,184],[-90.38999,38.81523,183],[-90.39001,38.81525,182],[-90.39005,38.81527,182],[-90.39008,38.81529,181],[-90.39012,38.81531,181],[-90.39016,38.81533,181],[-90.39021,38.81535,180],[-90.39025,38.81536,180],[-90.39028,38.81538,180],[-90.39032,38.8154,180],[-90.39036,38.81541,180],[-90.3904,38.81542,181],[-90.39043,38.81544,181],[-90.39047,38.81546,181],[-90.39051,38.81547,182],[-90.39055,38.81548,182],[-90.3906,38.81548,183],[-90.39064,38.81549,183],[-90.39068,38.8155,183],[-90.39071,38.8155,184],[-90.39075,38.81551,184],[-90.39079,38.81551,184],[-90.39084,38.8155,185],[-90.39088,38.8155,185],[-90.39092,38.81549,185],[-90.39096,38.81548,185],[-90.39099,38.81547,186],[-90.39103,38.81545,186],[-90.39107,38.81544,186],[-90.39111,38.81543,186],[-90.39116,38.81543,186],[-90.39121,38.81543,186],[-90.39125,38.81544,185],[-90.39129,38.81544,185],[-90.39133,38.81545,185],[-90.39136,38.81546,185],[-90.3914,38.81548,185],[-90.39144,38.8155,184],[-90.39148,38.81552,184],[-90.39152,38.81553,183],[-90.39155,38.81555,183],[-90.39158,38.81556,183],[-90.39162,38.81558,183],[-90.39166,38.8156,182],[-90.39169,38.81562,181],[-90.39172,38.81564,180],[-90.39175,38.81567,179],[-90.39178,38.81569,178],[-90.39179,38.81572,178],[-90.39181,38.81575,177],[-90.39182,38.81578,176],[-90.39182,38.81582,175],[-90.39182,38.81585,175],[-90.39183,38.81589,174],[-90.39183,38.81592,173],[-90.39183,38.81594,172],[-90.39181,38.81597,172],[-90.3918,38.816,172],[-90.39179,38.81603,172],[-90.39179,38.81606,171],[-90.39178,38.81609,171],[-90.39177,38.81612,170],[-90.39176,38.81616,169],[-90.39174,38.81619,169],[-90.39173,38.81622,168],[-90.39171,38.81626,167],[-90.3917,38.81629,166],[-90.3917,38.81632,165],[-90.39169,38.81635,164],[-90.39166,38.81637,164],[-90.39164,38.8164,164],[-90.39162,38.81642,164],[-90.3916,38.81645,163],[-90.39158,38.81648,163],[-90.39156,38.81651,162],[-90.39154,38.81653,162],[-90.39152,38.81656,162],[-90.3915,38.81659,161],[-90.39147,38.81662,161],[-90.39144,38.81664,161],[-90.39141,38.81666,161],[-90.39139,38.81669,161],[-90.39137,38.81671,160],[-90.39134,38.81673,160],[-90.39132,38.81675,160],[-90.3913,38.81678,159],[-90.39127,38.8168,159],[-90.39124,38.81682,159],[-90.39122,38.81684,159],[-90.39119,38.81686,159],[-90.39115,38.81687,159],[-90.39111,38.81687,160],[-90.39107,38.81685,161],[-90.39102,38.81684,161],[-90.391,38.81681,162],[-90.39097,38.81679,163],[-90.39094,38.81677,164],[-90.39093,38.8168,163],[-90.3909,38.81681,163],[-90.39088,38.81683,163],[-90.39085,38.81685,163],[-90.39082,38.81687,163],[-90.39079,38.81689,163],[-90.39075,38.81689,163],[-90.39071,38.8169,164],[-90.39067,38.81691,164],[-90.39064,38.81692,164],[-90.3906,38.81693,164],[-90.39057,38.81695,164],[-90.39054,38.81697,164],[-90.39055,38.817,163],[-90.39056,38.81702,162],[-90.39059,38.81705,161],[-90.3906,38.81708,159],[-90.39059,38.81711,159],[-90.39057,38.81714,158],[-90.39058,38.81716,157],[-90.39054,38.81717,157],[-90.3905,38.81717,157],[-90.39048,38.81714,159],[-90.3905,38.81712,159],[-90.39049,38.81709,160],[-90.39046,38.81706,161],[-90.39045,38.81703,162],[-90.39043,38.817,163],[-90.39042,38.81697,165],[-90.39044,38.81694,165],[-90.39048,38.81693,165],[-90.3905,38.81691,165],[-90.39053,38.81688,165],[-90.39056,38.81686,165],[-90.3906,38.81685,165],[-90.39064,38.81684,165],[-90.39067,38.81682,165],[-90.39071,38.81682,165],[-90.39075,38.81682,164],[-90.39078,38.8168,165],[-90.39082,38.81679,164],[-90.39082,38.81676,165],[-90.39083,38.81673,165],[-90.39086,38.81671,166],[-90.39092,38.81671,165],[-90.39095,38.81672,165],[-90.39099,38.81672,165],[-90.39103,38.81672,164],[-90.39107,38.81674,164],[-90.3911,38.81676,163],[-90.39112,38.81678,162],[-90.39114,38.8168,161],[-90.39116,38.81682,160],[-90.39119,38.81681,160],[-90.39123,38.81679,160],[-90.39125,38.81676,161],[-90.39127,38.81674,161],[-90.3913,38.81671,161],[-90.39131,38.81668,162],[-90.39134,38.81665,163],[-90.39137,38.81664,163],[-90.39141,38.81663,162],[-90.39143,38.8166,163],[-90.39145,38.81658,163],[-90.39148,38.81656,163],[-90.3915,38.81653,163],[-90.39151,38.81651,164],[-90.39153,38.81648,164],[-90.39155,38.81644,165],[-90.39157,38.81641,165],[-90.39159,38.81639,165],[-90.39161,38.81637,166],[-90.39163,38.81633,166],[-90.39164,38.8163,167],[-90.39165,38.81627,168],[-90.39166,38.81623,169],[-90.39167,38.8162,170],[-90.39168,38.81616,171],[-90.39168,38.81613,172],[-90.39168,38.8161,173],[-90.39169,38.81608,173],[-90.3917,38.81605,174],[-90.39171,38.81602,174],[-90.39171,38.81599,175],[-90.39171,38.81596,176],[-90.39171,38.81593,176],[-90.39171,38.81589,177],[-90.39171,38.81587,178],[-90.3917,38.81583,179],[-90.3917,38.8158,179],[-90.3917,38.81577,179],[-90.39169,38.81574,180],[-90.39165,38.81573,181],[-90.39162,38.81571,181],[-90.39159,38.81568,182],[-90.39156,38.81565,182],[-90.39153,38.81563,183],[-90.3915,38.81561,183],[-90.39146,38.8156,183],[-90.39142,38.81558,184],[-90.39138,38.81557,184],[-90.39134,38.81555,185],[-90.39131,38.81555,185],[-90.39127,38.81554,185],[-90.39123,38.81553,185],[-90.39119,38.81553,185],[-90.39115,38.81553,185],[-90.39111,38.81554,186],[-90.39107,38.81555,185],[-90.39103,38.81556,185],[-90.39099,38.81556,185],[-90.39095,38.81557,185],[-90.3909,38.81557,185],[-90.39086,38.81558,184],[-90.39081,38.81558,184],[-90.39076,38.81558,184],[-90.39072,38.81557,183],[-90.39067,38.81557,183],[-90.39063,38.81556,182],[-90.39058,38.81556,182],[-90.39054,38.81555,181],[-90.3905,38.81555,181],[-90.39047,38.81554,180],[-90.39043,38.81552,180],[-90.3904,38.81551,180],[-90.39036,38.8155,179],[-90.39033,38.81549,179],[-90.39028,38.81548,179],[-90.39025,38.81548,179],[-90.39021,38.81548,178],[-90.39016,38.81547,178],[-90.39012,38.81548,178],[-90.39009,38.81547,178],[-90.39005,38.81546,178],[-90.39002,38.81543,179],[-90.38999,38.81541,179],[-90.38996,38.81539,180],[-90.38992,38.81537,180],[-90.38989,38.81535,181],[-90.38986,38.81533,181],[-90.38984,38.8153,182],[-90.38981,38.81528,182],[-90.38977,38.81527,183],[-90.38975,38.81524,183],[-90.38971,38.81521,184],[-90.38969,38.81519,185],[-90.38966,38.81516,185],[-90.38962,38.81514,186],[-90.38959,38.81511,186],[-90.38955,38.81508,187],[-90.38953,38.81506,187],[-90.38951,38.81504,187],[-90.38949,38.81501,188],[-90.38947,38.81499,188],[-90.38946,38.81495,188],[-90.38945,38.81492,188],[-90.38945,38.81489,189],[-90.38944,38.81486,189],[-90.38944,38.81483,189],[-90.38943,38.8148,190],[-90.38943,38.81476,190],[-90.38942,38.81473,190],[-90.38942,38.8147,190],[-90.38943,38.81467,190],[-90.38943,38.81464,190],[-90.38944,38.81461,190],[-90.38945,38.81458,190],[-90.38946,38.81454,190],[-90.38946,38.81452,190],[-90.38945,38.81449,190],[-90.38944,38.81445,190],[-90.38943,38.81442,189],[-90.38941,38.8144,189],[-90.38937,38.81439,190],[-90.38933,38.81437,190],[-90.3893,38.81436,190],[-90.38926,38.81435,191],[-90.38923,38.81434,191],[-90.38919,38.81432,192],[-90.38916,38.8143,192],[-90.38913,38.81429,192],[-90.38909,38.81427,192],[-90.38906,38.81427,192],[-90.38901,38.81427,192],[-90.38897,38.81427,192],[-90.38893,38.81427,192],[-90.38889,38.81426,192],[-90.38886,38.81426,193],[-90.38882,38.81425,194],[-90.38878,38.81423,194],[-90.38874,38.81421,195],[-90.3887,38.81419,195],[-90.38865,38.81418,196],[-90.38861,38.81417,197],[-90.38857,38.81415,197],[-90.38853,38.81414,197],[-90.38849,38.81413,197],[-90.38845,38.81412,197],[-90.3884,38.8141,198],[-90.38836,38.81409,198],[-90.38832,38.81407,198],[-90.38829,38.81405,198],[-90.38825,38.81404,198],[-90.38821,38.81402,198],[-90.38817,38.81401,199],[-90.38813,38.81401,199],[-90.38809,38.81402,199],[-90.38805,38.81402,199],[-90.388,38.81401,199],[-90.38796,38.81402,199],[-90.38791,38.81403,199],[-90.38786,38.81403,199],[-90.38782,38.81404,199],[-90.38778,38.81403,199],[-90.38773,38.81403,200],[-90.38769,38.81403,200],[-90.38766,38.81401,200],[-90.38763,38.814,200],[-90.3876,38.81397,200],[-90.38756,38.81395,200],[-90.38753,38.81392,200],[-90.38751,38.8139,200],[-90.38749,38.81387,199],[-90.38749,38.81383,199],[-90.38749,38.81379,198],[-90.38749,38.81375,197],[-90.3875,38.81371,197],[-90.3875,38.81367,196],[-90.38751,38.81364,196],[-90.38752,38.81361,196],[-90.38752,38.81358,195],[-90.38753,38.81354,195],[-90.38753,38.81351,195],[-90.38754,38.81348,195],[-90.38755,38.81346,195],[-90.38755,38.81342,194],[-90.38755,38.81339,194],[-90.38755,38.81336,194],[-90.38756,38.81333,194],[-90.3876,38.81332,194],[-90.38764,38.81332,194],[-90.38768,38.81332,195],[-90.38772,38.81332,195],[-90.38776,38.81332,195],[-90.3878,38.81332,195],[-90.38783,38.81331,195],[-90.38786,38.81329,195],[-90.38789,38.81327,195],[-90.38789,38.81324,194],[-90.38792,38.81321,194],[-90.38794,38.81319,193],[-90.38795,38.81316,193],[-90.38797,38.81314,192],[-90.388,38.81312,192],[-90.38801,38.81309,191],[-90.38802,38.81306,191],[-90.38802,38.81302,190],[-90.38801,38.81298,190],[-90.38801,38.81295,190],[-90.38802,38.81292,189],[-90.38802,38.81288,189],[-90.38802,38.81284,188],[-90.38804,38.81281,188],[-90.38807,38.81281,187],[-90.38811,38.81279,186],[-90.38814,38.81277,185],[-90.38818,38.81276,183],[-90.38821,38.81275,183],[-90.38824,38.81274,182],[-90.38828,38.81275,180],[-90.38831,38.81273,179],[-90.38834,38.81272,178],[-90.38838,38.81272,177],[-90.3884,38.81269,176],[-90.38841,38.81266,175],[-90.38845,38.81265,174],[-90.38848,38.81264,173],[-90.3885,38.81262,172],[-90.38851,38.81259,171],[-90.38853,38.81256,171],[-90.38855,38.81254,170],[-90.38856,38.81251,170],[-90.38857,38.81248,169],[-90.38856,38.81244,168],[-90.38856,38.81241,168],[-90.38857,38.81238,167],[-90.38859,38.81236,166],[-90.38861,38.81233,165],[-90.38864,38.81232,165],[-90.38867,38.8123,164],[-90.3887,38.81228,164],[-90.38872,38.81226,163],[-90.38875,38.81222,163],[-90.38876,38.8122,162],[-90.38878,38.81217,162],[-90.38878,38.81213,161],[-90.38876,38.8121,161],[-90.38872,38.81209,161],[-90.38868,38.81207,161],[-90.38866,38.81205,162],[-90.38863,38.81203,162],[-90.38859,38.81201,162],[-90.38858,38.81199,162],[-90.38857,38.81195,162],[-90.38856,38.81192,163],[-90.38856,38.81189,163],[-90.38856,38.81185,163],[-90.38857,38.81183,163],[-90.38858,38.81179,164],[-90.3886,38.81176,164],[-90.38863,38.81173,163],[-90.38865,38.8117,163],[-90.38867,38.81168,163],[-90.3887,38.81165,163],[-90.38872,38.81162,162],[-90.38872,38.81159,162],[-90.38876,38.81157,161],[-90.3888,38.81158,161],[-90.38884,38.81158,160],[-90.38886,38.81155,159],[-90.38889,38.81154,158],[-90.38893,38.81152,157],[-90.38897,38.81151,156],[-90.38901,38.8115,155],[-90.38904,38.81149,155],[-90.38907,38.81147,154],[-90.38911,38.81144,153],[-90.38915,38.81142,152],[-90.38917,38.8114,152],[-90.38922,38.81139,152],[-90.38927,38.81139,152],[-90.38932,38.8114,152],[-90.38936,38.8114,152],[-90.38938,38.81138,152],[-90.38939,38.81135,152],[-90.3894,38.81132,152],[-90.38941,38.81128,152],[-90.38943,38.81126,152],[-90.38944,38.81123,152],[-90.38946,38.81121,151],[-90.3895,38.81119,151],[-90.38954,38.81118,151],[-90.38958,38.81118,151],[-90.38963,38.81118,151],[-90.38966,38.81119,150],[-90.3897,38.8112,150],[-90.38974,38.8112,150],[-90.38978,38.8112,149],[-90.38982,38.81118,149],[-90.38985,38.81117,148],[-90.38989,38.81116,148],[-90.38993,38.81115,147],[-90.38997,38.81116,147],[-90.39001,38.81116,146],[-90.39005,38.81116,145],[-90.39009,38.81117,145],[-90.39014,38.81118,144],[-90.39018,38.81118,144],[-90.39023,38.81118,143],[-90.39026,38.81118,143],[-90.3903,38.81118,142],[-90.39034,38.81118,142],[-90.39038,38.81119,142],[-90.39042,38.8112,142],[-90.39046,38.81121,142],[-90.39051,38.81122,142],[-90.39055,38.81123,142],[-90.39058,38.81124,142],[-90.39062,38.81126,142],[-90.39066,38.81125,142],[-90.39068,38.81123,142],[-90.39071,38.81121,142],[-90.39074,38.8112,141],[-90.39077,38.81118,141],[-90.39079,38.81115,141],[-90.39078,38.81112,141],[-90.3908,38.81109,140],[-90.39081,38.81106,140]]],
        "bbox": [
          -90.38749,
          38.81717,
          -90.39183,
          38.81106
        ]
      },
      "properties": {
        "name": "5.18.2022"
      }
    }
  ]
}