{
  "type": "FeatureCollection",
  "features": [
    {
      "type": "Feature",
      "geometry": {
        "type": "MultiLineString",
        "coordinates": [[[-90.39516,38.81151,132],[-90.39517,38.81154,132],[-90.39517,38.81157,132],[-90.39514,38.81159,132],[-90.39512,38.81161,132],[-90.3951,38.81164,132],[-90.39508,38.81167,133],[-90.39506,38.81169,133],[-90.39504,38.81172,133],[-90.39501,38.81174,133],[-90.39497,38.81176,133],[-90.39493,38.81178,134],[-90.3949,38.8118,134],[-90.39487,38.81182,134],[-90.39485,38.81185,135],[-90.39481,38.81187,135],[-90.39477,38.8119,136],[-90.39474,38.81193,136],[-90.39471,38.81195,137],[-90.39468,38.81198,137],[-90.39465,38.812,137],[-90.39462,38.81203,137],[-90.39459,38.81205,137],[-90.39455,38.81208,137],[-90.39452,38.8121,137],[-90.3945,38.81213,137],[-90.39447,38.81216,137],[-90.39445,38.81218,137],[-90.39442,38.81219,138],[-90.39438,38.81222,138],[-90.39435,38.81224,137],[-90.39432,38.81227,137],[-90.39429,38.8123,137],[-90.39426,38.81233,137],[-90.39423,38.81235,137],[-90.3942,38.81237,137],[-90.39417,38.8124,137],[-90.39414,38.81243,137],[-90.39411,38.81246,137],[-90.39408,38.81248,137],[-90.39404,38.81251,136],[-90.39401,38.81254,136],[-90.39397,38.81256,136],[-90.39394,38.81259,135],[-90.3939,38.81261,135],[-90.39387,38.81264,135],[-90.39383,38.81266,135],[-90.39379,38.81268,134],[-90.39375,38.8127,134],[-90.39372,38.81273,134],[-90.39367,38.81275,134],[-90.39364,38.81276,134],[-90.39361,38.81279,133],[-90.39357,38.81281,133],[-90.39354,38.81283,133],[-90.39351,38.81286,133],[-90.39347,38.81288,133],[-90.39343,38.8129,133],[-90.39339,38.81293,133],[-90.39336,38.81295,133],[-90.39333,38.81297,133],[-90.39329,38.81299,133],[-90.39326,38.81302,133],[-90.39322,38.81305,133],[-90.39319,38.81308,132],[-90.39316,38.81311,132],[-90.39313,38.81314,132],[-90.39309,38.81316,132],[-90.39306,38.81319,132],[-90.39303,38.81322,133],[-90.39299,38.81325,133],[-90.39296,38.81328,133],[-90.39293,38.81331,133],[-90.3929,38.81333,134],[-90.39287,38.81336,134],[-90.39283,38.81338,135],[-90.3928,38.81341,135],[-90.39277,38.81343,136],[-90.39274,38.81346,136],[-90.39272,38.81348,136],[-90.39269,38.81351,137],[-90.39267,38.81354,137],[-90.39266,38.81357,138],[-90.39264,38.8136,138],[-90.39262,38.81363,138],[-90.3926,38.81366,138],[-90.39259,38.81369,138],[-90.39257,38.81373,138],[-90.39256,38.81376,138],[-90.39254,38.81379,138],[-90.39252,38.81381,138],[-90.39249,38.81384,137],[-90.39248,38.81386,137],[-90.39246,38.81389,137],[-90.39247,38.81392,138],[-90.39245,38.81395,139],[-90.39242,38.81398,141],[-90.39241,38.81401,142],[-90.39238,38.81403,143],[-90.39235,38.81405,144],[-90.39232,38.81407,145],[-90.39228,38.81409,146],[-90.39225,38.81411,147],[-90.39221,38.81412,148],[-90.39217,38.81413,148],[-90.39213,38.81414,149],[-90.39209,38.81414,149],[-90.39206,38.81414,150],[-90.39202,38.81415,150],[-90.39198,38.81416,151],[-90.39196,38.81418,152],[-90.39194,38.81421,153],[-90.39193,38.81424,154],[-90.39191,38.81426,155],[-90.39189,38.81429,156],[-90.39189,38.81432,157],[-90.39191,38.81435,157],[-90.39191,38.81438,158],[-90.39192,38.81441,158],[-90.39193,38.81444,159],[-90.39193,38.81447,159],[-90.39194,38.8145,159],[-90.39197,38.81453,159],[-90.39198,38.81455,159],[-90.39199,38.81459,160],[-90.39199,38.81462,160],[-90.39199,38.81465,161],[-90.392,38.81468,161],[-90.39202,38.81471,161],[-90.39204,38.81474,161],[-90.39204,38.81477,161],[-90.39203,38.8148,162],[-90.39201,38.81483,162],[-90.392,38.81486,163],[-90.39201,38.81489,163],[-90.39204,38.81492,162],[-90.39205,38.81495,162],[-90.39206,38.81497,162],[-90.39208,38.815,162],[-90.39209,38.81505,163],[-90.39209,38.81508,165],[-90.39208,38.81512,166],[-90.39207,38.81516,168],[-90.39206,38.81519,169],[-90.39205,38.81522,170],[-90.39205,38.81525,171],[-90.39206,38.81528,172],[-90.39207,38.81531,172],[-90.39208,38.81533,172],[-90.39209,38.81536,171],[-90.39209,38.8154,171],[-90.39209,38.81542,171],[-90.39208,38.81546,172],[-90.39207,38.81549,172],[-90.39206,38.81552,172],[-90.39205,38.81555,173],[-90.39203,38.81558,173],[-90.39202,38.81561,173],[-90.39202,38.81564,172],[-90.392,38.81567,173],[-90.39197,38.81568,174],[-90.39192,38.81569,175],[-90.39188,38.81569,176],[-90.39185,38.8157,177],[-90.39181,38.81572,177],[-90.3918,38.81574,177],[-90.39182,38.81577,176],[-90.39183,38.81581,175],[-90.39183,38.81585,174],[-90.39183,38.81588,174],[-90.39184,38.8159,173],[-90.39184,38.81594,172],[-90.39183,38.81597,172],[-90.39183,38.816,171],[-90.39183,38.81604,170],[-90.39181,38.81607,170],[-90.39181,38.8161,170],[-90.3918,38.81614,169],[-90.39179,38.81617,168],[-90.39179,38.8162,167],[-90.39178,38.81623,166],[-90.39176,38.81626,165],[-90.39174,38.8163,165],[-90.39172,38.81633,164],[-90.3917,38.81636,164],[-90.39168,38.81638,164],[-90.39165,38.81641,163],[-90.39162,38.81644,163],[-90.3916,38.81647,163],[-90.39159,38.8165,162],[-90.39158,38.81653,162],[-90.39156,38.81656,161],[-90.39154,38.81659,161],[-90.39151,38.81661,161],[-90.39148,38.81663,161],[-90.39145,38.81666,160],[-90.39142,38.81667,161],[-90.3914,38.8167,160],[-90.39137,38.81672,160],[-90.39135,38.81675,159],[-90.39132,38.81677,159],[-90.39129,38.81678,159],[-90.39127,38.8168,159],[-90.39124,38.81682,159],[-90.39121,38.81684,159],[-90.39117,38.81685,159],[-90.39114,38.81684,160],[-90.39112,38.81681,161],[-90.39109,38.8168,162],[-90.39106,38.81679,162],[-90.39102,38.81677,163],[-90.39099,38.81676,164],[-90.39095,38.81675,164],[-90.39093,38.81677,164],[-90.39091,38.81679,164],[-90.39088,38.81682,163],[-90.39086,38.81684,163],[-90.39082,38.81685,163],[-90.39078,38.81686,163],[-90.39075,38.81687,164],[-90.39071,38.81688,164],[-90.39067,38.81689,164],[-90.39063,38.81691,164],[-90.39059,38.81692,164],[-90.39058,38.81695,164],[-90.39059,38.81698,163],[-90.3906,38.81701,162],[-90.39061,38.81704,161],[-90.39062,38.81707,160],[-90.39061,38.8171,159],[-90.3906,38.81713,158],[-90.3906,38.81716,157],[-90.39061,38.81719,156],[-90.3906,38.81721,155],[-90.39057,38.81723,155],[-90.39059,38.81725,154],[-90.39061,38.81728,152],[-90.39062,38.81732,151],[-90.39064,38.81734,150],[-90.39067,38.81736,149],[-90.39067,38.81739,148],[-90.39063,38.8174,148],[-90.3906,38.8174,148],[-90.39057,38.81738,150],[-90.39055,38.81735,151],[-90.39053,38.81732,152],[-90.39052,38.81729,153],[-90.3905,38.81727,154],[-90.39049,38.81724,155],[-90.39048,38.81721,156],[-90.39047,38.81718,157],[-90.39047,38.81714,159],[-90.39047,38.81711,160],[-90.39049,38.81708,160],[-90.39048,38.81705,161],[-90.39047,38.81702,163],[-90.39047,38.817,163],[-90.39046,38.81697,164],[-90.39046,38.81694,165],[-90.39048,38.81691,165],[-90.39051,38.8169,165],[-90.39054,38.81688,165],[-90.39056,38.81685,166],[-90.39059,38.81682,166],[-90.39062,38.81681,165],[-90.39065,38.81679,166],[-90.39069,38.81678,165],[-90.39072,38.81678,165],[-90.39076,38.81677,165],[-90.3908,38.81675,165],[-90.39082,38.81672,166],[-90.39083,38.8167,166],[-90.39087,38.81668,166],[-90.39092,38.81668,166],[-90.39096,38.81669,166],[-90.391,38.81669,165],[-90.39104,38.8167,165],[-90.39107,38.81672,164],[-90.3911,38.81674,164],[-90.39113,38.81676,163],[-90.39117,38.81676,162],[-90.39121,38.81675,162],[-90.39124,38.81674,161],[-90.39126,38.81671,162],[-90.39128,38.81669,162],[-90.39131,38.81667,163],[-90.39134,38.81665,163],[-90.39137,38.81663,163],[-90.3914,38.81661,163],[-90.39143,38.81658,163],[-90.39145,38.81655,164],[-90.39147,38.81653,164],[-90.39149,38.8165,165],[-90.39152,38.81648,164],[-90.39154,38.81645,165],[-90.39156,38.81642,165],[-90.39158,38.81639,166],[-90.39161,38.81636,166],[-90.39163,38.81634,166],[-90.39164,38.8163,167],[-90.39165,38.81628,168],[-90.39166,38.81625,169],[-90.39166,38.81621,170],[-90.39166,38.81618,171],[-90.39167,38.81615,172],[-90.39169,38.81611,173],[-90.3917,38.81607,173],[-90.39171,38.81604,174],[-90.39172,38.816,174],[-90.39174,38.81597,174],[-90.39174,38.81594,175],[-90.39173,38.81591,176],[-90.39173,38.81587,177],[-90.39173,38.81584,177],[-90.39173,38.81581,178],[-90.39172,38.81577,179],[-90.39171,38.81573,180],[-90.39168,38.81572,180],[-90.39164,38.8157,181],[-90.39161,38.81567,182],[-90.39157,38.81565,182],[-90.39155,38.81562,183],[-90.39152,38.8156,183],[-90.39149,38.81558,183],[-90.39146,38.81556,184],[-90.39142,38.81554,184],[-90.39139,38.81553,185],[-90.39136,38.81551,185],[-90.39132,38.81551,185],[-90.39128,38.8155,185],[-90.39124,38.8155,185],[-90.3912,38.8155,185],[-90.39116,38.81549,186],[-90.39112,38.8155,186],[-90.39108,38.81551,186],[-90.39104,38.81552,185],[-90.391,38.81553,185],[-90.39095,38.81554,185],[-90.39091,38.81554,185],[-90.39086,38.81554,185],[-90.39081,38.81554,184],[-90.39076,38.81555,184],[-90.39071,38.81555,183],[-90.39067,38.81554,183],[-90.39063,38.81553,183],[-90.39058,38.81553,182],[-90.39054,38.81552,182],[-90.3905,38.81551,181],[-90.39046,38.81551,181],[-90.39043,38.8155,180],[-90.39039,38.81548,180],[-90.39036,38.81546,180],[-90.39031,38.81546,179],[-90.39027,38.81545,179],[-90.39023,38.81544,179],[-90.39019,38.81543,179],[-90.39016,38.81542,179],[-90.39012,38.81541,179],[-90.39008,38.81539,180],[-90.39004,38.81538,180],[-90.39001,38.81536,180],[-90.38999,38.81534,180],[-90.38995,38.81532,181],[-90.38992,38.81529,182],[-90.38988,38.81527,182],[-90.38984,38.81525,183],[-90.38981,38.81522,184],[-90.38979,38.81519,184],[-90.38975,38.81516,185],[-90.38973,38.81514,185],[-90.3897,38.81511,186],[-90.38967,38.81509,187],[-90.38964,38.81508,187],[-90.38962,38.81506,187],[-90.38959,38.81504,187],[-90.38957,38.81501,188],[-90.38954,38.81499,188],[-90.38952,38.81495,188],[-90.38951,38.81493,188],[-90.3895,38.8149,189],[-90.38948,38.81486,189],[-90.38947,38.81482,190],[-90.38946,38.81479,190],[-90.38946,38.81475,190],[-90.38945,38.81472,191],[-90.38945,38.81468,190],[-90.38946,38.81465,190],[-90.38946,38.81461,190],[-90.38947,38.81458,190],[-90.38947,38.81455,190],[-90.38947,38.81452,190],[-90.38947,38.81448,190],[-90.38946,38.81445,189],[-90.38943,38.81442,189],[-90.38942,38.8144,189],[-90.38938,38.81439,190],[-90.38934,38.81437,190],[-90.3893,38.81436,190],[-90.38927,38.81434,191],[-90.38923,38.81432,191],[-90.3892,38.8143,192],[-90.38916,38.81428,192],[-90.38913,38.81427,192],[-90.38909,38.81426,192],[-90.38905,38.81426,192],[-90.38901,38.81426,192],[-90.38897,38.81426,192],[-90.38893,38.81425,192],[-90.38889,38.81423,192],[-90.38885,38.81422,193],[-90.38881,38.81421,194],[-90.38877,38.81419,194],[-90.38873,38.81417,195],[-90.38868,38.81417,196],[-90.38864,38.81416,196],[-90.3886,38.81415,196],[-90.38856,38.81413,197],[-90.38852,38.81412,197],[-90.38849,38.81411,197],[-90.38845,38.8141,197],[-90.38841,38.81408,198],[-90.38837,38.81406,198],[-90.38833,38.81404,198],[-90.38829,38.81402,198],[-90.38825,38.814,198],[-90.3882,38.81399,198],[-90.38817,38.81399,198],[-90.38813,38.814,199],[-90.38809,38.814,199],[-90.38805,38.814,199],[-90.38801,38.814,199],[-90.38797,38.814,199],[-90.38793,38.814,199],[-90.38788,38.81401,199],[-90.38784,38.81402,199],[-90.38779,38.81402,199],[-90.38774,38.81402,200],[-90.3877,38.81401,200],[-90.38767,38.81399,200],[-90.38764,38.81396,200],[-90.3876,38.81394,200],[-90.38756,38.81392,200],[-90.38753,38.81389,199],[-90.38751,38.81387,199],[-90.38751,38.81384,199],[-90.38751,38.81381,198],[-90.38751,38.81378,198],[-90.38751,38.81374,197],[-90.38751,38.8137,197],[-90.38751,38.81367,196],[-90.38752,38.81364,196],[-90.38753,38.81361,196],[-90.38753,38.81358,195],[-90.38754,38.81354,195],[-90.38754,38.81351,195],[-90.38754,38.81348,195],[-90.38755,38.81345,195],[-90.38755,38.81341,194],[-90.38755,38.81338,194],[-90.38756,38.81334,194],[-90.38757,38.81331,194],[-90.38761,38.8133,194],[-90.38764,38.81329,194],[-90.38769,38.81329,194],[-90.38773,38.81329,195],[-90.38777,38.81328,195],[-90.38781,38.81327,195],[-90.38784,38.81325,194],[-90.38787,38.81323,194],[-90.38788,38.81321,194],[-90.3879,38.81318,193],[-90.38793,38.81317,193],[-90.38794,38.81314,193],[-90.38796,38.81311,192],[-90.38797,38.81308,191],[-90.38799,38.81305,191],[-90.388,38.81302,190],[-90.38801,38.813,190],[-90.388,38.81297,190],[-90.388,38.81294,190],[-90.38801,38.81291,189],[-90.38802,38.81287,189],[-90.38803,38.81284,188],[-90.38803,38.81281,188],[-90.38806,38.81279,187],[-90.38809,38.81278,186],[-90.38812,38.81276,185],[-90.38815,38.81274,184],[-90.38818,38.81272,183],[-90.38821,38.81271,182],[-90.38826,38.81271,180],[-90.3883,38.81272,179],[-90.38833,38.8127,178],[-90.38835,38.81268,177],[-90.38839,38.81267,176],[-90.38842,38.81265,175],[-90.38845,38.81263,174],[-90.38848,38.81261,172],[-90.38851,38.81259,171],[-90.38852,38.81256,171],[-90.38855,38.81253,170],[-90.38857,38.81251,169],[-90.38859,38.81248,169],[-90.38858,38.81245,168],[-90.38858,38.81243,168],[-90.38858,38.81239,167],[-90.38859,38.81237,167],[-90.3886,38.81234,166],[-90.38862,38.81231,165],[-90.38866,38.8123,164],[-90.38869,38.81227,164],[-90.38869,38.81225,163],[-90.38871,38.81222,163],[-90.38873,38.8122,162],[-90.38875,38.81216,162],[-90.38875,38.81213,161],[-90.38874,38.8121,161],[-90.3887,38.81209,161],[-90.38867,38.81206,162],[-90.38866,38.81203,161],[-90.38863,38.81201,162],[-90.3886,38.81198,162],[-90.38859,38.81195,162],[-90.38858,38.81192,162],[-90.38858,38.81188,163],[-90.38858,38.81184,163],[-90.38858,38.81181,163],[-90.38859,38.81177,164],[-90.38861,38.81174,164],[-90.38863,38.81171,164],[-90.38866,38.81168,164],[-90.38868,38.81165,163],[-90.38872,38.81163,162],[-90.38874,38.8116,162],[-90.38875,38.81157,162],[-90.38877,38.81155,161],[-90.38881,38.81155,160],[-90.38885,38.81154,159],[-90.38888,38.81152,159],[-90.38891,38.81151,158],[-90.38895,38.81149,157],[-90.389,38.81149,156],[-90.38904,38.81147,155],[-90.38907,38.81145,154],[-90.38909,38.81143,153],[-90.38912,38.8114,152],[-90.38915,38.81138,152],[-90.38918,38.81136,152],[-90.38922,38.81135,152],[-90.38926,38.81135,152],[-90.3893,38.81136,152],[-90.38933,38.81137,152],[-90.38937,38.81136,152],[-90.38939,38.81133,152],[-90.3894,38.81129,152],[-90.38942,38.81126,152],[-90.38944,38.81124,152],[-90.38946,38.8112,151],[-90.38949,38.81117,151],[-90.38953,38.81116,151],[-90.38958,38.81116,151],[-90.38963,38.81117,151],[-90.38968,38.81118,150],[-90.38973,38.81118,150],[-90.38977,38.81117,150],[-90.3898,38.81115,149],[-90.38985,38.81113,149],[-90.38989,38.81113,148],[-90.38993,38.81113,147],[-90.38997,38.81114,147],[-90.39001,38.81114,146],[-90.39004,38.81115,146],[-90.39009,38.81116,145],[-90.39013,38.81116,144],[-90.39017,38.81117,144],[-90.39021,38.81117,143],[-90.39025,38.81116,143],[-90.39029,38.81115,142],[-90.39033,38.81115,142],[-90.39037,38.81117,142],[-90.39042,38.81119,142],[-90.39046,38.81121,142],[-90.3905,38.81122,142],[-90.39054,38.81123,142],[-90.39058,38.81124,142],[-90.39062,38.81124,142],[-90.39062,38.81127,142],[-90.39058,38.81128,142],[-90.39055,38.81129,142],[-90.39051,38.81128,142],[-90.39047,38.81127,142],[-90.39044,38.81126,142],[-90.3904,38.81124,142],[-90.39036,38.81123,142],[-90.39031,38.81123,142],[-90.39028,38.81123,142],[-90.39023,38.81123,143],[-90.39019,38.81122,144],[-90.39016,38.81122,144],[-90.39012,38.81121,144],[-90.39008,38.8112,145],[-90.39004,38.8112,145],[-90.39,38.81119,146],[-90.38995,38.81119,147],[-90.38992,38.8112,147],[-90.38988,38.81122,148],[-90.38984,38.81123,148],[-90.38979,38.81124,149],[-90.38974,38.81124,150],[-90.3897,38.81124,150],[-90.38966,38.81122,150],[-90.38962,38.81122,151],[-90.38959,38.81124,151],[-90.38956,38.81126,151],[-90.38953,38.81129,151],[-90.38951,38.81132,151],[-90.38949,38.81135,151],[-90.38946,38.81138,151],[-90.38943,38.8114,152],[-90.38938,38.81141,152],[-90.38934,38.81141,152],[-90.38931,38.81143,152],[-90.38928,38.81145,152],[-90.38925,38.81147,152],[-90.38922,38.81149,152],[-90.38918,38.81151,152],[-90.38915,38.81152,152],[-90.38912,38.81153,153],[-90.38908,38.81155,154],[-90.38904,38.81156,155],[-90.38902,38.81158,155],[-90.38898,38.81159,157],[-90.38895,38.8116,157],[-90.38891,38.81161,159],[-90.38889,38.81163,159],[-90.38886,38.81166,160],[-90.38883,38.81168,160],[-90.38881,38.8117,161],[-90.38878,38.81173,161],[-90.38875,38.81175,161],[-90.38873,38.81177,161],[-90.38871,38.8118,161],[-90.38871,38.81184,161],[-90.38871,38.81187,161],[-90.38872,38.8119,160],[-90.38874,38.81193,159],[-90.38876,38.81196,159],[-90.38877,38.81198,159],[-90.38879,38.81201,159],[-90.38881,38.81204,159],[-90.38884,38.81207,159],[-90.38885,38.8121,160],[-90.38887,38.81213,160],[-90.38887,38.81217,161],[-90.38886,38.8122,161],[-90.38885,38.81224,162],[-90.38884,38.81227,162],[-90.38881,38.81229,163],[-90.38878,38.81232,163],[-90.38876,38.81234,164],[-90.38874,38.81236,164],[-90.38871,38.81238,165],[-90.38869,38.81241,166],[-90.38871,38.81244,166],[-90.38871,38.81247,166],[-90.38869,38.8125,167],[-90.38869,38.81253,167],[-90.38869,38.81256,167],[-90.38867,38.8126,168],[-90.38864,38.81262,168],[-90.38861,38.81264,169],[-90.38859,38.81267,170],[-90.38856,38.8127,171],[-90.38853,38.81271,172],[-90.3885,38.81273,173],[-90.38847,38.81275,174],[-90.38843,38.81276,176],[-90.3884,38.81277,177],[-90.38836,38.81278,179],[-90.38832,38.81278,180],[-90.38829,38.81278,181],[-90.38826,38.81279,182],[-90.38823,38.81281,183],[-90.38819,38.81283,184],[-90.38816,38.81285,185],[-90.38817,38.81287,186],[-90.38816,38.8129,186],[-90.38815,38.81293,187],[-90.38814,38.81296,188],[-90.38814,38.81299,188],[-90.38813,38.81302,188],[-90.38812,38.81305,189],[-90.38811,38.81308,190],[-90.38809,38.8131,191],[-90.38808,38.81313,191],[-90.38806,38.81315,192],[-90.38805,38.81318,193],[-90.38803,38.81321,193],[-90.38801,38.81323,194],[-90.38798,38.81326,194],[-90.38795,38.81327,195],[-90.38792,38.8133,195],[-90.38788,38.81331,195],[-90.38784,38.81333,195],[-90.38781,38.81334,196],[-90.38778,38.81335,196],[-90.38774,38.81335,195],[-90.3877,38.81336,195],[-90.38766,38.81337,195],[-90.38766,38.8134,195],[-90.38766,38.81342,195],[-90.38765,38.81346,195],[-90.38765,38.81349,196],[-90.38764,38.81352,196],[-90.38764,38.81356,196],[-90.38763,38.81358,196],[-90.38762,38.81361,196],[-90.3876,38.81365,197],[-90.38759,38.81367,197],[-90.38758,38.81371,197],[-90.38757,38.81374,198],[-90.38757,38.81378,198],[-90.38756,38.8138,198],[-90.38757,38.81383,199],[-90.3876,38.81386,199],[-90.38763,38.81388,199],[-90.38766,38.8139,200],[-90.38769,38.81392,200],[-90.38772,38.81394,200],[-90.38776,38.81394,200],[-90.3878,38.81394,199],[-90.38784,38.81394,199],[-90.38788,38.81394,199],[-90.38791,38.81394,199],[-90.38795,38.81394,199],[-90.38798,38.81393,199],[-90.38803,38.81393,199],[-90.38807,38.81392,199],[-90.38811,38.81392,198],[-90.38815,38.81392,198],[-90.38819,38.81392,198],[-90.38823,38.81393,198],[-90.38827,38.81395,198],[-90.38831,38.81396,198],[-90.38834,38.81397,198],[-90.38838,38.81399,197],[-90.38842,38.814,197],[-90.38846,38.81401,197],[-90.38851,38.81403,196],[-90.38855,38.81404,196],[-90.38858,38.81405,196],[-90.38862,38.81407,196],[-90.38865,38.81408,195],[-90.38869,38.81409,195],[-90.38874,38.81411,194],[-90.38878,38.81412,194],[-90.38882,38.81414,193],[-90.38886,38.81415,193],[-90.38891,38.81416,192],[-90.38895,38.81417,192],[-90.38899,38.81418,192],[-90.38903,38.81418,192],[-90.38907,38.81419,192],[-90.38911,38.81419,192],[-90.38916,38.8142,192],[-90.38919,38.81422,192],[-90.38924,38.81423,191],[-90.38928,38.81425,190],[-90.38932,38.81427,190],[-90.38936,38.81428,189],[-90.3894,38.8143,189],[-90.38943,38.81432,189],[-90.38946,38.81433,189],[-90.38949,38.81435,188],[-90.38952,38.81437,188],[-90.38954,38.8144,189],[-90.38956,38.81443,189],[-90.38956,38.81446,189],[-90.38956,38.8145,189],[-90.38956,38.81453,190],[-90.38956,38.81455,190],[-90.38956,38.81459,190],[-90.38956,38.81463,190],[-90.38956,38.81466,190],[-90.38956,38.8147,191],[-90.38956,38.81474,191],[-90.38957,38.81477,190],[-90.38959,38.8148,190],[-90.3896,38.81484,190],[-90.38962,38.81487,190],[-90.38963,38.81489,189],[-90.38966,38.81492,189],[-90.38969,38.81494,189],[-90.38971,38.81496,189],[-90.38974,38.81499,189],[-90.38977,38.81502,188],[-90.38979,38.81504,188],[-90.38982,38.81507,187],[-90.38984,38.81509,186],[-90.38987,38.81512,186],[-90.38989,38.81515,185],[-90.38993,38.81517,184],[-90.38996,38.81519,184],[-90.38999,38.81521,183],[-90.39002,38.81524,182],[-90.39005,38.81526,182],[-90.39009,38.81528,181],[-90.39012,38.8153,181],[-90.39016,38.81532,181],[-90.39019,38.81533,181],[-90.39022,38.81534,181],[-90.39027,38.81536,180],[-90.39031,38.81537,181],[-90.39036,38.81539,181],[-90.39039,38.8154,181],[-90.39043,38.81541,181],[-90.39046,38.81542,181],[-90.3905,38.81543,182],[-90.39054,38.81544,182],[-90.39059,38.81545,183],[-90.39064,38.81546,183],[-90.39068,38.81547,183],[-90.39072,38.81548,184],[-90.39077,38.81549,184],[-90.39082,38.81549,185],[-90.39086,38.81549,185],[-90.39091,38.81548,185],[-90.39095,38.81546,185],[-90.39099,38.81545,186],[-90.39103,38.81544,186],[-90.39106,38.81542,186],[-90.39109,38.81539,186],[-90.39113,38.81539,186],[-90.39117,38.81539,186],[-90.39121,38.8154,186],[-90.39125,38.81541,186],[-90.3913,38.81541,185],[-90.39135,38.81541,185],[-90.39139,38.81543,185],[-90.39144,38.81544,184],[-90.39147,38.81546,184],[-90.39149,38.81547,184],[-90.39154,38.8155,183],[-90.39156,38.81551,183],[-90.3916,38.81554,183],[-90.39164,38.81556,183],[-90.39168,38.81559,182],[-90.3917,38.81561,181],[-90.39173,38.81564,180],[-90.39176,38.81566,179],[-90.3918,38.81565,179],[-90.39184,38.81565,178],[-90.39187,38.81565,177],[-90.39191,38.81566,176],[-90.39193,38.81564,176],[-90.39192,38.81561,177],[-90.39193,38.81558,177],[-90.39194,38.81555,178],[-90.39195,38.81552,177],[-90.39195,38.81549,177],[-90.39194,38.81546,177],[-90.39194,38.81543,177],[-90.39193,38.81539,177],[-90.39192,38.81535,176],[-90.39191,38.81533,176],[-90.39192,38.81529,176],[-90.39193,38.81525,175],[-90.39194,38.81522,174],[-90.39195,38.81519,172],[-90.39195,38.81517,171],[-90.39196,38.81514,170],[-90.39196,38.8151,169],[-90.39196,38.81507,168],[-90.39194,38.81504,167],[-90.39192,38.81501,167],[-90.3919,38.81498,167],[-90.39189,38.81494,167],[-90.3919,38.81492,166],[-90.3919,38.81489,166],[-90.39191,38.81485,165],[-90.3919,38.81482,165],[-90.3919,38.81479,165],[-90.39189,38.81476,164],[-90.39188,38.81473,165],[-90.39188,38.8147,164],[-90.39187,38.81467,164],[-90.39186,38.81464,164],[-90.39184,38.81461,164],[-90.39182,38.81458,164],[-90.39181,38.81455,164],[-90.39181,38.81451,163],[-90.3918,38.81448,163],[-90.39179,38.81445,163],[-90.39179,38.81442,162],[-90.39178,38.81438,162],[-90.39178,38.81435,161],[-90.39177,38.81432,160],[-90.39178,38.81429,159],[-90.39178,38.81426,158],[-90.39182,38.81425,157],[-90.39183,38.81422,156],[-90.39184,38.81419,155],[-90.39186,38.81417,154],[-90.39186,38.81413,152],[-90.39189,38.81411,150],[-90.39192,38.8141,149],[-90.39196,38.81409,148],[-90.392,38.81409,147],[-90.39204,38.81407,146],[-90.39207,38.81406,145],[-90.39211,38.81405,144],[-90.39215,38.81405,144],[-90.39217,38.81408,145],[-90.39216,38.8141,147],[-90.39213,38.81412,148],[-90.3921,38.81414,149],[-90.39206,38.81415,150],[-90.39203,38.81416,151],[-90.39199,38.81416,151],[-90.39198,38.81419,152],[-90.39195,38.81421,153],[-90.39192,38.81423,154],[-90.39191,38.81426,155],[-90.3919,38.81428,156],[-90.3919,38.81431,156],[-90.3919,38.81434,157],[-90.39189,38.81437,158],[-90.39191,38.8144,158],[-90.39192,38.81443,159],[-90.39193,38.81446,159],[-90.39193,38.81449,160],[-90.39195,38.81452,159],[-90.39196,38.81454,160],[-90.39197,38.81457,160],[-90.39198,38.8146,160],[-90.39198,38.81463,161],[-90.39198,38.81467,161],[-90.39198,38.8147,162],[-90.39199,38.81472,162],[-90.39201,38.81475,162],[-90.39202,38.81478,162],[-90.39202,38.81481,162],[-90.39201,38.81484,162],[-90.39199,38.81487,163],[-90.392,38.8149,163],[-90.39202,38.81493,163],[-90.39204,38.81496,163],[-90.39205,38.81499,163],[-90.39206,38.81502,163],[-90.39207,38.81505,164],[-90.39207,38.81509,166],[-90.39207,38.81512,167],[-90.39207,38.81516,168],[-90.39206,38.81519,169],[-90.39205,38.81522,170],[-90.39203,38.81524,172],[-90.39203,38.81527,173],[-90.39205,38.81531,172],[-90.39206,38.81533,172],[-90.39207,38.81536,172],[-90.39207,38.81539,172],[-90.39207,38.81543,172],[-90.39206,38.81545,172],[-90.39205,38.81548,173],[-90.39204,38.81551,173],[-90.39203,38.81554,174],[-90.39203,38.81557,174],[-90.39201,38.8156,173],[-90.39201,38.81563,173],[-90.392,38.81566,173],[-90.39199,38.81568,173],[-90.39194,38.8157,175],[-90.39191,38.8157,175],[-90.39187,38.8157,176],[-90.39183,38.81572,177],[-90.39179,38.81574,177],[-90.3918,38.81577,177],[-90.39182,38.81579,176],[-90.39183,38.81582,175],[-90.39183,38.81586,174],[-90.39183,38.81589,174],[-90.39183,38.81592,173],[-90.39183,38.81595,172],[-90.39183,38.81598,172],[-90.39182,38.81602,171],[-90.39182,38.81605,170],[-90.39181,38.81608,170],[-90.3918,38.81612,169],[-90.3918,38.81615,168],[-90.39179,38.81619,167],[-90.39179,38.81622,166],[-90.39178,38.81625,165],[-90.39176,38.81629,164],[-90.39175,38.81633,163],[-90.39173,38.81635,163],[-90.3917,38.81638,163],[-90.39168,38.81641,163],[-90.39166,38.81644,162],[-90.39163,38.81647,162],[-90.39161,38.8165,162],[-90.39158,38.81653,162],[-90.39156,38.81656,161],[-90.39154,38.81659,161],[-90.3915,38.81662,160],[-90.39147,38.81664,161],[-90.39145,38.81666,160],[-90.39142,38.81668,160],[-90.39139,38.8167,160],[-90.39137,38.81673,160],[-90.39135,38.81676,159],[-90.39132,38.81678,159],[-90.39129,38.8168,159],[-90.39126,38.81682,159],[-90.39122,38.81683,159],[-90.39119,38.81684,159],[-90.39115,38.81684,160],[-90.39111,38.81683,161],[-90.39107,38.81681,162],[-90.39104,38.81681,162],[-90.39101,38.81679,163],[-90.39097,38.81678,163],[-90.39093,38.81678,164],[-90.39092,38.81681,163],[-90.39089,38.81683,163],[-90.39086,38.81685,163],[-90.39083,38.81686,163],[-90.3908,38.81687,163],[-90.39076,38.81687,163],[-90.39072,38.81689,164],[-90.39069,38.81691,164],[-90.39065,38.81692,164],[-90.39062,38.81694,164],[-90.39059,38.81696,164],[-90.39059,38.81699,163],[-90.39061,38.81701,162],[-90.39063,38.81704,160],[-90.39063,38.81707,159],[-90.39061,38.81711,158],[-90.3906,38.81713,158],[-90.3906,38.81716,157],[-90.39062,38.81719,156],[-90.39062,38.81722,155],[-90.39059,38.81723,155],[-90.39056,38.81725,155],[-90.39059,38.81727,153],[-90.39061,38.8173,152],[-90.39063,38.81732,151],[-90.39064,38.81735,150],[-90.39066,38.81737,148],[-90.3907,38.81739,147],[-90.39067,38.8174,147],[-90.39063,38.81741,148],[-90.39059,38.81742,148],[-90.39055,38.8174,149],[-90.39053,38.81738,150],[-90.39052,38.81735,151],[-90.3905,38.81733,152],[-90.39049,38.8173,153],[-90.39048,38.81727,154],[-90.39048,38.81724,155],[-90.39047,38.81721,156],[-90.39047,38.81718,157],[-90.39047,38.81715,158],[-90.39048,38.81713,159],[-90.39048,38.8171,160],[-90.39048,38.81707,161],[-90.39047,38.81704,162],[-90.39046,38.81701,163],[-90.39046,38.81697,164],[-90.39047,38.81694,165],[-90.3905,38.81692,165],[-90.39052,38.8169,165],[-90.39054,38.81687,165],[-90.39056,38.81685,166],[-90.3906,38.81683,165],[-90.39063,38.81681,165],[-90.39067,38.8168,165],[-90.39071,38.81679,165],[-90.39075,38.81679,165],[-90.39076,38.81676,165],[-90.39079,38.81674,165],[-90.3908,38.81671,166],[-90.39083,38.81668,166],[-90.39086,38.81667,166],[-90.3909,38.81668,166],[-90.39095,38.81669,166],[-90.39099,38.81669,165],[-90.39102,38.8167,165],[-90.39106,38.81671,164],[-90.39109,38.81673,164],[-90.39111,38.81676,163],[-90.39114,38.81678,162],[-90.39118,38.81676,162],[-90.39121,38.81675,162],[-90.39124,38.81673,162],[-90.39126,38.81671,162],[-90.39129,38.81669,162],[-90.39132,38.81666,163],[-90.39135,38.81664,163],[-90.39137,38.81662,163],[-90.39141,38.81661,163],[-90.39144,38.81658,163],[-90.39147,38.81656,163],[-90.39149,38.81653,164],[-90.39152,38.8165,164],[-90.39154,38.81648,164],[-90.39156,38.81645,164],[-90.39157,38.81642,165],[-90.3916,38.8164,165],[-90.39162,38.81637,165],[-90.39164,38.81635,166],[-90.39165,38.81632,166],[-90.39166,38.81629,167],[-90.39167,38.81626,168],[-90.39168,38.81623,169],[-90.39169,38.8162,170],[-90.3917,38.81617,170],[-90.3917,38.81613,172],[-90.39171,38.8161,173],[-90.39172,38.81607,173],[-90.39173,38.81604,173],[-90.39173,38.81601,174],[-90.39174,38.81598,174],[-90.39174,38.81594,175],[-90.39174,38.81591,176],[-90.39175,38.81587,176],[-90.39174,38.81583,177],[-90.39173,38.8158,178],[-90.39172,38.81577,179],[-90.39173,38.81573,179],[-90.39175,38.81571,179],[-90.39178,38.81569,178],[-90.39181,38.81568,178],[-90.39186,38.81568,177],[-90.3919,38.81569,176],[-90.39192,38.81567,176],[-90.39193,38.81563,176],[-90.39194,38.8156,177],[-90.39196,38.81558,176],[-90.39195,38.81555,177],[-90.39196,38.81552,177],[-90.39196,38.81549,176],[-90.39196,38.81545,176],[-90.39195,38.81541,176],[-90.39194,38.81538,176],[-90.39193,38.81536,176],[-90.39192,38.81533,176],[-90.39193,38.81529,176],[-90.39194,38.81526,175],[-90.39195,38.81523,174],[-90.39195,38.81519,172],[-90.39196,38.81517,171],[-90.39196,38.81514,170],[-90.39196,38.8151,169],[-90.39195,38.81507,168],[-90.39194,38.81504,167],[-90.39193,38.81502,167],[-90.39191,38.81499,167],[-90.3919,38.81496,167],[-90.39189,38.81493,167],[-90.3919,38.8149,166],[-90.39191,38.81486,165],[-90.39191,38.81483,165],[-90.3919,38.8148,165],[-90.39189,38.81477,165],[-90.39188,38.81474,165],[-90.39188,38.81471,164],[-90.39188,38.81467,164],[-90.39187,38.81464,164],[-90.39185,38.81461,164],[-90.39183,38.81458,164],[-90.39181,38.81455,164],[-90.3918,38.81452,164],[-90.3918,38.81449,163],[-90.39179,38.81446,163],[-90.39178,38.81443,163],[-90.39178,38.8144,162],[-90.39178,38.81437,161],[-90.39177,38.81434,161],[-90.39177,38.81431,160],[-90.39177,38.81428,159],[-90.39177,38.81425,158],[-90.39179,38.81423,157],[-90.39182,38.8142,155],[-90.39185,38.81419,154],[-90.39187,38.81417,154],[-90.3919,38.81414,151],[-90.3919,38.81412,150],[-90.39194,38.81411,149],[-90.39198,38.8141,148],[-90.39201,38.8141,148],[-90.39205,38.81409,147],[-90.39209,38.81407,145],[-90.39213,38.81406,144],[-90.39217,38.81405,143],[-90.39221,38.81404,142],[-90.39225,38.81402,141],[-90.39228,38.814,140],[-90.3923,38.81398,139],[-90.39232,38.81395,138],[-90.39233,38.81392,136],[-90.39235,38.81389,135],[-90.39237,38.81386,136],[-90.39239,38.81383,136],[-90.39242,38.8138,137],[-90.39244,38.81378,137],[-90.39246,38.81375,138],[-90.39247,38.81372,138],[-90.39248,38.8137,138],[-90.39249,38.81367,138],[-90.3925,38.81363,138],[-90.39253,38.8136,138],[-90.39256,38.81357,138],[-90.39258,38.81354,138],[-90.3926,38.81352,137],[-90.39262,38.8135,137],[-90.39265,38.81347,137],[-90.39269,38.81345,136],[-90.39273,38.81343,136],[-90.39276,38.81341,135],[-90.39278,38.81338,135],[-90.39279,38.81335,135],[-90.39281,38.81332,134],[-90.39283,38.81328,134],[-90.39286,38.81325,134],[-90.39289,38.81322,133],[-90.39291,38.81319,133],[-90.39295,38.81317,133],[-90.39298,38.81314,133],[-90.39301,38.81312,133],[-90.39304,38.8131,133],[-90.39307,38.81307,132],[-90.3931,38.81306,132],[-90.39313,38.81304,133],[-90.39317,38.81301,133],[-90.3932,38.81299,133],[-90.39322,38.81297,133],[-90.39324,38.81295,133],[-90.39327,38.81292,133],[-90.39331,38.81291,134],[-90.39335,38.81289,134],[-90.39338,38.81288,134],[-90.39343,38.81286,134],[-90.39347,38.81284,134],[-90.39351,38.81282,134],[-90.39355,38.8128,134],[-90.39359,38.81278,134],[-90.39363,38.81276,134],[-90.39367,38.81273,134],[-90.3937,38.81271,134],[-90.39373,38.81268,134],[-90.39376,38.81265,135],[-90.3938,38.81263,135],[-90.39384,38.81261,135],[-90.39387,38.81258,136],[-90.39391,38.81255,136],[-90.39394,38.81253,136],[-90.39397,38.8125,137],[-90.394,38.81248,137],[-90.39403,38.81245,137],[-90.39407,38.81242,137],[-90.3941,38.8124,137],[-90.39413,38.81237,137],[-90.39417,38.81235,137],[-90.3942,38.81232,137],[-90.39423,38.81229,137],[-90.39426,38.81227,137],[-90.39429,38.81224,137],[-90.39432,38.81221,138],[-90.39435,38.81218,138],[-90.39438,38.81216,138],[-90.39441,38.81213,138],[-90.39445,38.81211,137],[-90.39448,38.81208,137],[-90.39451,38.81206,137],[-90.39454,38.81203,137],[-90.39457,38.81201,137],[-90.3946,38.81198,137],[-90.39463,38.81196,137],[-90.39466,38.81193,137],[-90.39469,38.8119,136],[-90.39473,38.81188,136],[-90.39476,38.81185,135],[-90.39479,38.81183,135],[-90.39483,38.8118,134],[-90.39486,38.81178,134],[-90.39489,38.81176,134],[-90.39493,38.81174,133],[-90.39496,38.81172,133],[-90.39499,38.8117,133],[-90.39502,38.81168,133],[-90.39505,38.81165,132],[-90.39507,38.81163,132],[-90.3951,38.8116,132],[-90.39514,38.81158,132],[-90.39517,38.81156,132],[-90.39519,38.81154,132],[-90.39522,38.81156,132],[-90.39519,38.81155,132],[-90.3952,38.81152,132]]],
        "bbox": [
          -90.38751,
          38.81742,
          -90.39522,
          38.81113
        ]
      },
      "properties": {
        "name": "4.28.2022"
      }
    }
  ]
}