{
  "type": "FeatureCollection",
  "features": [
    {
      "type": "Feature",
      "geometry": {
        "type": "MultiLineString",
        "coordinates": [[[-90.39513,38.81158,132],[-90.39513,38.81161,132],[-90.39512,38.81164,132],[-90.3951,38.81167,133],[-90.39507,38.81169,133],[-90.39505,38.81172,133],[-90.39502,38.81174,133],[-90.395,38.81177,133],[-90.39498,38.8118,134],[-90.39494,38.81183,134],[-90.39491,38.81185,134],[-90.39488,38.81187,135],[-90.39485,38.81189,135],[-90.39482,38.81191,135],[-90.39479,38.81193,136],[-90.39476,38.81195,136],[-90.39473,38.81198,136],[-90.3947,38.812,136],[-90.39467,38.81202,136],[-90.39464,38.81204,137],[-90.39462,38.81206,137],[-90.39458,38.81209,137],[-90.39456,38.81211,137],[-90.39453,38.81213,137],[-90.3945,38.81216,137],[-90.39447,38.81218,137],[-90.39444,38.81221,138],[-90.39441,38.81223,137],[-90.39437,38.81226,137],[-90.39433,38.81228,137],[-90.3943,38.8123,137],[-90.39428,38.81233,137],[-90.39425,38.81235,137],[-90.39422,38.81237,137],[-90.3942,38.81239,137],[-90.39418,38.81241,137],[-90.39415,38.81244,137],[-90.39413,38.81246,137],[-90.3941,38.81249,137],[-90.39407,38.81251,136],[-90.39405,38.81254,136],[-90.39402,38.81257,136],[-90.394,38.81259,135],[-90.39397,38.81261,135],[-90.39394,38.81264,135],[-90.3938,38.81269,134],[-90.39377,38.81271,134],[-90.39373,38.81272,134],[-90.39368,38.81275,134],[-90.39362,38.81276,134],[-90.39358,38.81278,134],[-90.39355,38.8128,134],[-90.39351,38.81282,134],[-90.39349,38.81284,133],[-90.39345,38.81286,134],[-90.39342,38.81288,133],[-90.3934,38.8129,133],[-90.39337,38.81293,133],[-90.39335,38.81295,133],[-90.39332,38.81298,133],[-90.3933,38.81301,133],[-90.39328,38.81303,133],[-90.39325,38.81305,133],[-90.39322,38.81308,132],[-90.3932,38.8131,132],[-90.39317,38.81313,132],[-90.39313,38.81316,132],[-90.39311,38.81318,132],[-90.39308,38.8132,132],[-90.39305,38.81322,133],[-90.39302,38.81325,133],[-90.39299,38.81327,133],[-90.39296,38.81329,133],[-90.39293,38.81332,133],[-90.3929,38.81336,134],[-90.39287,38.81338,134],[-90.39285,38.81341,135],[-90.39282,38.81343,135],[-90.39279,38.81346,136],[-90.39276,38.81349,136],[-90.39273,38.81351,137],[-90.39271,38.81353,137],[-90.39268,38.81355,137],[-90.39266,38.81357,138],[-90.39265,38.8136,138],[-90.39263,38.81363,138],[-90.39262,38.81368,138],[-90.3926,38.81371,138],[-90.39257,38.81375,138],[-90.39255,38.81377,138],[-90.39253,38.8138,138],[-90.39251,38.81383,138],[-90.39249,38.81385,137],[-90.39248,38.81389,137],[-90.39247,38.81391,138],[-90.39245,38.81395,139],[-90.39242,38.81397,140],[-90.39239,38.814,141],[-90.39238,38.81402,142],[-90.39237,38.81406,144],[-90.39238,38.81409,146],[-90.3924,38.81412,148],[-90.39243,38.81415,149],[-90.39244,38.81417,150],[-90.39246,38.8142,150],[-90.39249,38.81422,151],[-90.39251,38.81425,151],[-90.39254,38.81427,151],[-90.39257,38.81428,151],[-90.39261,38.8143,151],[-90.39264,38.81433,152],[-90.39268,38.81436,152],[-90.39272,38.81438,152],[-90.39275,38.8144,152],[-90.39279,38.81443,152],[-90.39282,38.81445,152],[-90.39286,38.81448,151],[-90.39289,38.81452,150],[-90.39291,38.81455,149],[-90.39292,38.81457,149],[-90.39293,38.8146,149],[-90.39294,38.81464,148],[-90.39295,38.81467,148],[-90.39297,38.81471,147],[-90.39298,38.81474,147],[-90.39299,38.81477,147],[-90.393,38.81481,147],[-90.39302,38.81484,147],[-90.39304,38.81487,147],[-90.39306,38.8149,147],[-90.39307,38.81492,147],[-90.39308,38.81496,147],[-90.39309,38.81501,147],[-90.3931,38.81505,146],[-90.39311,38.81508,146],[-90.39312,38.81511,145],[-90.39313,38.81514,145],[-90.39312,38.81518,145],[-90.39311,38.81521,145],[-90.3931,38.81523,145],[-90.39309,38.81527,145],[-90.39308,38.8153,144],[-90.39306,38.81534,143],[-90.39303,38.81536,144],[-90.39299,38.81538,144],[-90.39295,38.8154,144],[-90.39292,38.81542,145],[-90.3929,38.81545,144],[-90.39287,38.81547,144],[-90.39284,38.8155,144],[-90.39282,38.81553,144],[-90.39279,38.81556,144],[-90.39277,38.81558,144],[-90.39275,38.81562,144],[-90.39273,38.81565,145],[-90.39272,38.81568,144],[-90.39271,38.81571,144],[-90.3927,38.81574,144],[-90.3927,38.81577,143],[-90.3927,38.8158,143],[-90.39271,38.81583,142],[-90.39271,38.81588,142],[-90.39271,38.81592,142],[-90.3927,38.81595,142],[-90.39269,38.81599,142],[-90.39268,38.81602,143],[-90.39266,38.81604,143],[-90.39263,38.81607,144],[-90.39261,38.81609,145],[-90.39258,38.81611,146],[-90.39256,38.81613,146],[-90.39254,38.81616,146],[-90.39252,38.81619,146],[-90.39248,38.81622,147],[-90.39245,38.81623,147],[-90.39243,38.81625,147],[-90.39241,38.81628,147],[-90.3924,38.81631,147],[-90.39238,38.81634,146],[-90.39236,38.81637,146],[-90.39234,38.8164,146],[-90.39232,38.81643,146],[-90.39231,38.81646,146],[-90.39229,38.81649,146],[-90.39228,38.81652,146],[-90.39224,38.81655,146],[-90.39222,38.81657,147],[-90.3922,38.8166,147],[-90.39218,38.81662,147],[-90.39214,38.81664,147],[-90.39211,38.81666,148],[-90.39208,38.81668,148],[-90.39206,38.81671,148],[-90.39204,38.81673,149],[-90.39201,38.81676,149],[-90.39199,38.81679,149],[-90.39197,38.81682,149],[-90.39195,38.81685,149],[-90.39191,38.81687,149],[-90.39188,38.81689,149],[-90.39185,38.8169,149],[-90.39181,38.81692,148],[-90.39176,38.81694,148],[-90.39173,38.81695,147],[-90.39169,38.81696,147],[-90.39167,38.81699,146],[-90.39164,38.81702,145],[-90.39161,38.81704,145],[-90.39159,38.81706,144],[-90.39156,38.81709,143],[-90.39153,38.8171,143],[-90.39149,38.81712,143],[-90.39146,38.81715,143],[-90.39143,38.81717,142],[-90.39139,38.81718,142],[-90.39136,38.8172,142],[-90.39131,38.81722,142],[-90.39127,38.81723,142],[-90.39123,38.81724,143],[-90.39119,38.81726,143],[-90.39117,38.81728,143],[-90.39114,38.8173,143],[-90.39111,38.81733,143],[-90.39108,38.81735,143],[-90.39104,38.81738,143],[-90.39101,38.8174,142],[-90.39099,38.81742,142],[-90.39094,38.81745,142],[-90.3909,38.81745,142],[-90.39087,38.81746,142],[-90.39082,38.81746,143],[-90.39077,38.81747,143],[-90.39073,38.81748,144],[-90.3907,38.81747,144],[-90.39065,38.81745,146],[-90.39061,38.81746,146],[-90.3906,38.81749,145],[-90.39058,38.81752,145],[-90.39055,38.81755,144],[-90.39052,38.81757,144],[-90.39049,38.81758,144],[-90.39046,38.8176,144],[-90.39043,38.81763,144],[-90.39042,38.81765,144],[-90.39039,38.81769,143],[-90.39036,38.81773,143],[-90.39034,38.81777,142],[-90.3903,38.8178,142],[-90.39026,38.81782,142],[-90.39023,38.81784,143],[-90.3902,38.81786,143],[-90.39016,38.81787,143],[-90.39013,38.81789,144],[-90.3901,38.8179,144],[-90.39006,38.81791,144],[-90.39003,38.81792,145],[-90.39,38.81794,145],[-90.38997,38.81797,144],[-90.38993,38.81799,145],[-90.3899,38.81802,145],[-90.38985,38.81803,145],[-90.38981,38.81803,146],[-90.38975,38.81803,146],[-90.38971,38.81802,147],[-90.38967,38.81801,147],[-90.38964,38.81801,147],[-90.38959,38.81802,147],[-90.38955,38.81802,147],[-90.3895,38.81803,147],[-90.38947,38.81804,147],[-90.38943,38.81803,147],[-90.38939,38.81802,148],[-90.38934,38.81803,148],[-90.38931,38.81804,148],[-90.38928,38.81806,148],[-90.38924,38.81807,148],[-90.38921,38.81807,148],[-90.38917,38.81807,149],[-90.38913,38.81805,151],[-90.38909,38.81806,151],[-90.38905,38.81807,152],[-90.38902,38.81809,152],[-90.38898,38.81811,152],[-90.38895,38.81813,152],[-90.38891,38.81816,152],[-90.38887,38.81817,152],[-90.38884,38.81819,152],[-90.3888,38.8182,152],[-90.38877,38.81822,152],[-90.38875,38.81825,151],[-90.38872,38.81828,150],[-90.38868,38.8183,150],[-90.38863,38.81831,150],[-90.3886,38.81833,150],[-90.38857,38.81836,148],[-90.38854,38.81838,148],[-90.38851,38.81841,146],[-90.38848,38.81842,146],[-90.38845,38.81843,145],[-90.38841,38.81846,144],[-90.3884,38.81848,143],[-90.38837,38.81853,141],[-90.38835,38.81856,140],[-90.38832,38.81859,139],[-90.3883,38.81863,138],[-90.38826,38.81864,138],[-90.38822,38.81866,139],[-90.38818,38.81867,139],[-90.38814,38.81867,140],[-90.38809,38.81868,140],[-90.38807,38.8187,140],[-90.38804,38.81873,140],[-90.388,38.81875,141],[-90.38796,38.81877,141],[-90.38791,38.8188,141],[-90.38787,38.81881,142],[-90.38784,38.81883,142],[-90.3878,38.81884,142],[-90.38777,38.81886,142],[-90.38774,38.81887,142],[-90.3877,38.81888,142],[-90.38767,38.8189,141],[-90.38763,38.81892,141],[-90.3876,38.81894,140],[-90.38755,38.81897,139],[-90.38753,38.819,138],[-90.38751,38.81902,137],[-90.38747,38.81905,136],[-90.38744,38.81908,135],[-90.38741,38.8191,135],[-90.38738,38.81911,134],[-90.38734,38.81912,134],[-90.3873,38.81913,133],[-90.38728,38.81915,132],[-90.38726,38.81918,132],[-90.38723,38.81921,132],[-90.3872,38.81923,132],[-90.38717,38.81925,132],[-90.38713,38.81926,132],[-90.3871,38.81929,132],[-90.38707,38.81931,132],[-90.38704,38.81932,132],[-90.38701,38.81934,132],[-90.38698,38.81936,132],[-90.38694,38.81938,132],[-90.3869,38.8194,132],[-90.38687,38.81942,132],[-90.38683,38.81944,132],[-90.38679,38.81945,131],[-90.38676,38.81946,131],[-90.38673,38.81948,131],[-90.3867,38.8195,131],[-90.38666,38.8195,131],[-90.38662,38.81951,131],[-90.3866,38.81954,131],[-90.38656,38.81957,131],[-90.38652,38.81957,131],[-90.38648,38.81958,131],[-90.38645,38.81959,131],[-90.38641,38.8196,131],[-90.38637,38.81961,131],[-90.38633,38.81962,131],[-90.38629,38.81962,132],[-90.38624,38.81963,132],[-90.38619,38.81963,132],[-90.38614,38.81964,133],[-90.3861,38.81965,133],[-90.38607,38.81966,132],[-90.38602,38.81966,133],[-90.38598,38.81967,132],[-90.38589,38.81968,132],[-90.38585,38.81967,132],[-90.38582,38.81967,133],[-90.38578,38.81967,133],[-90.38575,38.81968,132],[-90.38572,38.81969,132],[-90.38568,38.81971,131],[-90.38564,38.81971,131],[-90.3856,38.81972,131],[-90.38555,38.81973,131],[-90.38551,38.81973,131],[-90.38548,38.81972,131],[-90.38545,38.8197,131],[-90.38541,38.8197,131],[-90.38543,38.81968,132],[-90.38548,38.81967,133],[-90.38552,38.81966,133],[-90.38557,38.81965,133],[-90.3856,38.81964,134],[-90.38564,38.81963,134],[-90.38568,38.81963,134],[-90.38573,38.81962,135],[-90.38577,38.81962,135],[-90.38582,38.81961,135],[-90.38587,38.8196,135],[-90.38592,38.81959,135],[-90.38595,38.81959,135],[-90.38599,38.81958,135],[-90.38603,38.81957,135],[-90.38608,38.81956,135],[-90.38612,38.81956,135],[-90.38616,38.81955,135],[-90.3862,38.81954,134],[-90.38624,38.81953,133],[-90.3863,38.81953,132],[-90.38634,38.81953,132],[-90.38638,38.81953,131],[-90.38642,38.81952,131],[-90.38647,38.81951,131],[-90.3865,38.8195,131],[-90.38653,38.81948,131],[-90.38657,38.81945,131],[-90.3866,38.81943,132],[-90.38664,38.81942,132],[-90.38668,38.8194,132],[-90.38672,38.81938,132],[-90.38676,38.81936,133],[-90.3868,38.81935,133],[-90.38684,38.81933,133],[-90.38688,38.8193,132],[-90.38693,38.81928,132],[-90.38697,38.81927,132],[-90.38701,38.81925,132],[-90.38705,38.81923,132],[-90.38709,38.8192,132],[-90.38713,38.81918,132],[-90.38717,38.81917,132],[-90.3872,38.81915,132],[-90.38723,38.81913,133],[-90.38726,38.81911,134],[-90.3873,38.8191,134],[-90.38733,38.81908,135],[-90.38736,38.81906,136],[-90.38739,38.81904,137],[-90.38742,38.81901,138],[-90.38746,38.81898,139],[-90.38749,38.81896,139],[-90.38752,38.81894,140],[-90.38755,38.81891,141],[-90.38758,38.8189,141],[-90.38762,38.81889,141],[-90.38767,38.81886,142],[-90.3877,38.81884,142],[-90.38774,38.81882,143],[-90.38777,38.8188,143],[-90.3878,38.81878,143],[-90.38784,38.81877,142],[-90.38787,38.81875,142],[-90.3879,38.81874,142],[-90.38794,38.81873,142],[-90.38798,38.81872,141],[-90.38803,38.8187,141],[-90.38807,38.81869,140],[-90.38812,38.81867,140],[-90.38816,38.81865,140],[-90.38821,38.81863,139],[-90.38824,38.81862,139],[-90.38828,38.8186,139],[-90.38831,38.81858,139],[-90.38834,38.81855,140],[-90.38836,38.81853,141],[-90.38839,38.8185,142],[-90.38841,38.81848,143],[-90.38845,38.81846,144],[-90.38849,38.81843,145],[-90.38853,38.81842,146],[-90.38857,38.81838,148],[-90.38859,38.81836,148],[-90.38861,38.81833,150],[-90.38864,38.81831,150],[-90.38869,38.81829,150],[-90.38873,38.81827,150],[-90.38876,38.81824,151],[-90.38879,38.81822,152],[-90.38882,38.8182,152],[-90.38884,38.81817,153],[-90.38886,38.81815,153],[-90.38888,38.81812,154],[-90.38892,38.8181,154],[-90.38895,38.81809,154],[-90.38899,38.81808,153],[-90.38903,38.81808,152],[-90.38907,38.81808,151],[-90.38911,38.81808,150],[-90.38914,38.81807,150],[-90.38918,38.81806,149],[-90.38922,38.81805,149],[-90.38926,38.81804,149],[-90.3893,38.81803,149],[-90.38934,38.81801,149],[-90.38938,38.81799,149],[-90.38943,38.81798,148],[-90.38946,38.81796,149],[-90.3895,38.81796,148],[-90.38954,38.81795,148],[-90.38958,38.81794,149],[-90.38962,38.81794,148],[-90.38967,38.81794,148],[-90.38971,38.81794,148],[-90.38976,38.81793,148],[-90.3898,38.81793,147],[-90.38985,38.81793,147],[-90.38989,38.81792,146],[-90.38993,38.81791,146],[-90.38998,38.8179,146],[-90.39002,38.81789,145],[-90.39006,38.81789,145],[-90.3901,38.81788,144],[-90.39013,38.81787,144],[-90.39017,38.81784,144],[-90.39022,38.81784,143],[-90.39026,38.81783,142],[-90.39031,38.81782,142],[-90.39035,38.81781,141],[-90.39039,38.8178,141],[-90.39044,38.81778,141],[-90.39047,38.81776,141],[-90.39049,38.81774,141],[-90.39052,38.81772,141],[-90.39052,38.81769,142],[-90.39053,38.81765,143],[-90.39056,38.81763,143],[-90.39059,38.8176,143],[-90.39061,38.81758,143],[-90.39063,38.81755,143],[-90.39066,38.81752,144],[-90.39069,38.8175,143],[-90.39071,38.81748,144],[-90.39074,38.81746,144],[-90.39077,38.81744,144],[-90.39081,38.81743,144],[-90.39085,38.81741,144],[-90.39089,38.8174,144],[-90.39093,38.81737,144],[-90.39096,38.81735,145],[-90.39099,38.81733,145],[-90.39101,38.81731,145],[-90.39105,38.81729,145],[-90.39108,38.81728,145],[-90.39112,38.81727,144],[-90.39116,38.81725,144],[-90.3912,38.81724,143],[-90.39125,38.81722,143],[-90.39129,38.8172,143],[-90.39132,38.81718,144],[-90.39134,38.81716,144],[-90.39138,38.81714,144],[-90.39142,38.81713,144],[-90.39145,38.81712,144],[-90.39149,38.8171,144],[-90.39154,38.81707,145],[-90.39157,38.81705,145],[-90.39162,38.81702,145],[-90.39167,38.81701,145],[-90.39172,38.81701,145],[-90.39175,38.817,146],[-90.39179,38.81699,146],[-90.39182,38.81696,147],[-90.39185,38.81693,148],[-90.39188,38.81691,149],[-90.39191,38.81688,149],[-90.39194,38.81683,149],[-90.39196,38.81679,149],[-90.39199,38.81676,149],[-90.39202,38.81674,149],[-90.39205,38.81672,148],[-90.39207,38.81669,148],[-90.3921,38.81666,148],[-90.39212,38.81664,148],[-90.39215,38.81662,147],[-90.39219,38.8166,147],[-90.39223,38.81659,146],[-90.39226,38.81657,146],[-90.39229,38.81656,145],[-90.39229,38.81652,146],[-90.3923,38.81649,146],[-90.39231,38.81647,146],[-90.39234,38.81644,145],[-90.39236,38.81641,145],[-90.39238,38.81638,145],[-90.39241,38.81636,145],[-90.39244,38.81634,145],[-90.39246,38.81631,145],[-90.39247,38.81627,146],[-90.39247,38.81624,147],[-90.39248,38.81621,147],[-90.39246,38.81623,147],[-90.39245,38.81626,147],[-90.39242,38.81628,147],[-90.39241,38.81625,148],[-90.39242,38.81621,149],[-90.39244,38.81617,149],[-90.39245,38.81615,149],[-90.39245,38.81612,150],[-90.39249,38.81612,149],[-90.39253,38.81612,147],[-90.39256,38.8161,146],[-90.39259,38.81607,145],[-90.39261,38.81605,145],[-90.39262,38.81602,145],[-90.39263,38.81598,144],[-90.39264,38.81595,144],[-90.39264,38.81592,144],[-90.39265,38.81589,144],[-90.39264,38.81586,144],[-90.39264,38.81584,144],[-90.39263,38.8158,145],[-90.39262,38.81578,146],[-90.39262,38.81574,147],[-90.39263,38.8157,147],[-90.39264,38.81567,148],[-90.39265,38.81564,148],[-90.39265,38.81561,149],[-90.39265,38.81557,149],[-90.39266,38.81553,150],[-90.39267,38.81549,150],[-90.3927,38.81546,150],[-90.39274,38.81544,149],[-90.39278,38.81541,149],[-90.39281,38.81539,148],[-90.39284,38.81537,148],[-90.39287,38.81536,148],[-90.3929,38.81534,148],[-90.39294,38.81531,147],[-90.39298,38.81531,146],[-90.39301,38.81529,146],[-90.39303,38.81526,146],[-90.39303,38.81523,146],[-90.39302,38.8152,147],[-90.39301,38.81516,147],[-90.393,38.81513,147],[-90.39299,38.81509,148],[-90.39298,38.81506,148],[-90.39297,38.81503,148],[-90.39296,38.815,148],[-90.39295,38.81497,148],[-90.39294,38.81494,148],[-90.39292,38.81492,148],[-90.39291,38.81489,149],[-90.3929,38.81486,149],[-90.39289,38.81483,149],[-90.39288,38.81479,149],[-90.39287,38.81476,149],[-90.39286,38.81472,150],[-90.39283,38.81468,151],[-90.3928,38.81466,151],[-90.39278,38.81464,152],[-90.39276,38.81461,152],[-90.39273,38.81458,153],[-90.39271,38.81456,153],[-90.3927,38.81452,153],[-90.39269,38.81448,153],[-90.39267,38.81445,154],[-90.39264,38.81443,154],[-90.39262,38.81441,154],[-90.39259,38.81439,153],[-90.39254,38.81438,154],[-90.3925,38.81437,154],[-90.39245,38.81436,154],[-90.39241,38.81434,153],[-90.39239,38.81432,153],[-90.39236,38.81428,152],[-90.39234,38.81425,152],[-90.39233,38.81421,151],[-90.3923,38.81419,151],[-90.39227,38.81417,150],[-90.39224,38.81415,149],[-90.39221,38.81414,149],[-90.39217,38.81412,148],[-90.39214,38.81411,147],[-90.3921,38.8141,147],[-90.39206,38.8141,147],[-90.39202,38.81412,149],[-90.392,38.81414,150],[-90.39197,38.81415,151],[-90.39193,38.81417,152],[-90.3919,38.81417,153],[-90.39186,38.81418,154],[-90.39182,38.81419,155],[-90.39183,38.81422,156],[-90.39183,38.81425,157],[-90.39184,38.81427,157],[-90.39184,38.8143,158],[-90.39184,38.81433,159],[-90.39185,38.81436,159],[-90.39186,38.81439,159],[-90.39186,38.81442,160],[-90.39187,38.81445,161],[-90.39188,38.81448,161],[-90.39189,38.81451,161],[-90.39191,38.81454,161],[-90.39193,38.81457,161],[-90.39194,38.8146,161],[-90.39194,38.81463,161],[-90.39193,38.81466,162],[-90.39193,38.81469,162],[-90.39192,38.81472,163],[-90.39192,38.81476,164],[-90.39192,38.81479,164],[-90.39193,38.81482,164],[-90.39193,38.81485,164],[-90.39194,38.81488,164],[-90.39194,38.81491,165],[-90.39195,38.81494,165],[-90.39196,38.81497,165],[-90.39197,38.815,165],[-90.39197,38.81503,166],[-90.39196,38.81507,168],[-90.39195,38.81509,169],[-90.39194,38.81513,170],[-90.39194,38.81516,171],[-90.39194,38.81519,172],[-90.39195,38.81523,174],[-90.39195,38.81526,175],[-90.39196,38.8153,175],[-90.39196,38.81533,175],[-90.39197,38.81537,175],[-90.39197,38.8154,176],[-90.39197,38.81543,176],[-90.39198,38.81547,175],[-90.39198,38.8155,176],[-90.39197,38.81553,176],[-90.39196,38.81556,177],[-90.39197,38.81561,175],[-90.39198,38.81564,174],[-90.39201,38.81566,172],[-90.39202,38.81569,171],[-90.392,38.81571,172],[-90.39197,38.81573,173],[-90.39195,38.8157,174],[-90.39193,38.81568,175],[-90.3919,38.8157,175],[-90.39186,38.8157,176],[-90.39182,38.8157,177],[-90.3918,38.81573,177],[-90.39179,38.81577,177],[-90.39179,38.8158,176],[-90.39179,38.81583,176],[-90.3918,38.81587,175],[-90.3918,38.8159,174],[-90.3918,38.81594,173],[-90.3918,38.81598,173],[-90.39179,38.81601,172],[-90.39179,38.81604,171],[-90.39178,38.81608,171],[-90.39178,38.81611,170],[-90.39176,38.81613,170],[-90.39173,38.81616,170],[-90.39173,38.81619,169],[-90.39172,38.81622,168],[-90.39172,38.81625,167],[-90.39171,38.81629,166],[-90.3917,38.81631,165],[-90.39169,38.81635,164],[-90.39167,38.81638,164],[-90.39165,38.81641,163],[-90.39162,38.81644,163],[-90.39161,38.81646,163],[-90.39158,38.81649,163],[-90.39155,38.8165,163],[-90.39152,38.81652,163],[-90.39151,38.81655,162],[-90.39147,38.81657,163],[-90.39143,38.81657,164],[-90.39145,38.8166,162],[-90.39144,38.81663,161],[-90.39142,38.81665,161],[-90.39139,38.81668,161],[-90.39136,38.81671,161],[-90.39135,38.81668,162],[-90.39138,38.81664,163],[-90.39141,38.81662,163],[-90.39144,38.8166,162],[-90.39147,38.81657,163],[-90.39148,38.81654,164],[-90.3915,38.81651,164],[-90.39151,38.81649,164],[-90.39154,38.81646,165],[-90.39156,38.81643,165],[-90.39158,38.8164,165],[-90.3916,38.81638,165],[-90.39161,38.81635,166],[-90.39163,38.81632,167],[-90.39164,38.81629,168],[-90.39165,38.81626,168],[-90.39167,38.81622,170],[-90.39169,38.81619,170],[-90.3917,38.81615,171],[-90.39171,38.81612,172],[-90.39171,38.81609,173],[-90.39173,38.81605,173],[-90.39174,38.81601,174],[-90.39175,38.81598,174],[-90.39174,38.81596,175],[-90.39172,38.81592,176],[-90.3917,38.8159,177],[-90.39168,38.81587,178],[-90.39166,38.81583,180],[-90.39165,38.8158,180],[-90.39163,38.81578,180],[-90.39161,38.81576,181],[-90.3916,38.81573,181],[-90.39159,38.8157,181],[-90.39158,38.81567,182],[-90.39157,38.81565,182],[-90.39155,38.81561,183],[-90.39152,38.81557,183],[-90.39147,38.81555,184],[-90.3914,38.81555,184],[-90.39105,38.81541,186],[-90.39085,38.81554,185],[-90.3907,38.81556,183],[-90.3906,38.81553,182],[-90.39053,38.81551,182],[-90.39046,38.81552,180],[-90.39041,38.81551,180],[-90.39036,38.8155,179],[-90.39031,38.8155,179],[-90.39026,38.81547,179],[-90.39024,38.81545,179],[-90.3902,38.81544,179],[-90.39016,38.81543,179],[-90.39013,38.81542,179],[-90.39008,38.8154,179],[-90.39004,38.81538,180],[-90.39001,38.81535,180],[-90.38998,38.81533,181],[-90.38995,38.81531,181],[-90.38992,38.81528,182],[-90.38988,38.81526,182],[-90.38985,38.81524,183],[-90.38983,38.81521,184],[-90.38981,38.81519,184],[-90.38978,38.81517,185],[-90.38975,38.81515,185],[-90.38971,38.81513,186],[-90.38969,38.8151,186],[-90.38966,38.81507,187],[-90.38964,38.81504,188],[-90.38962,38.815,188],[-90.3896,38.81497,188],[-90.38959,38.81494,189],[-90.38958,38.81491,189],[-90.38958,38.81487,189],[-90.38956,38.81484,190],[-90.38956,38.8148,190],[-90.38955,38.81477,190],[-90.38955,38.81474,191],[-90.38955,38.81471,191],[-90.38955,38.81468,191],[-90.38954,38.81465,190],[-90.38952,38.81462,190],[-90.38951,38.81459,190],[-90.3895,38.81456,190],[-90.3895,38.81453,190],[-90.3895,38.81449,190],[-90.38947,38.81446,189],[-90.38946,38.81443,189],[-90.38943,38.81441,189],[-90.3894,38.81441,190],[-90.38937,38.81439,190],[-90.38934,38.81437,190],[-90.38931,38.81436,190],[-90.38927,38.81434,191],[-90.38924,38.81432,191],[-90.38921,38.8143,191],[-90.38916,38.81429,192],[-90.38912,38.81427,192],[-90.38909,38.81426,192],[-90.38904,38.81425,192],[-90.38901,38.81425,192],[-90.38896,38.81424,192],[-90.38893,38.81424,192],[-90.38889,38.81422,192],[-90.38885,38.81421,193],[-90.38881,38.8142,194],[-90.38875,38.8142,195],[-90.38872,38.81419,195],[-90.38868,38.81416,195],[-90.38866,38.81414,196],[-90.38863,38.81411,196],[-90.38859,38.8141,196],[-90.38855,38.81408,196],[-90.3885,38.81407,197],[-90.38847,38.81406,197],[-90.38843,38.81405,197],[-90.3884,38.81404,197],[-90.38837,38.81402,198],[-90.38834,38.81401,198],[-90.38829,38.81399,198],[-90.38825,38.81399,198],[-90.38821,38.81399,198],[-90.38817,38.81399,198],[-90.38813,38.81399,199],[-90.38808,38.81399,199],[-90.38804,38.81399,199],[-90.38799,38.81399,199],[-90.38795,38.81398,199],[-90.3879,38.81399,199],[-90.38785,38.81399,199],[-90.38781,38.81399,199],[-90.38777,38.81398,200],[-90.38773,38.81396,200],[-90.3877,38.81394,200],[-90.38766,38.81392,200],[-90.38762,38.81392,200],[-90.38759,38.81389,199],[-90.38757,38.81386,199],[-90.38756,38.81384,199],[-90.38753,38.8138,198],[-90.38752,38.81377,198],[-90.38752,38.81374,197],[-90.38752,38.81371,197],[-90.38752,38.81368,197],[-90.38752,38.81364,196],[-90.38752,38.81361,196],[-90.38752,38.81358,195],[-90.38752,38.81355,195],[-90.38754,38.81352,195],[-90.38755,38.81349,195],[-90.38756,38.81346,195],[-90.38757,38.81342,195],[-90.38759,38.81339,195],[-90.38761,38.81337,195],[-90.38764,38.81335,195],[-90.38768,38.81333,195],[-90.38771,38.81331,195],[-90.38775,38.8133,195],[-90.38779,38.8133,195],[-90.38782,38.81328,195],[-90.38784,38.81326,195],[-90.38787,38.81324,194],[-90.3879,38.81321,194],[-90.38791,38.81318,193],[-90.38792,38.81316,193],[-90.38794,38.81313,192],[-90.38795,38.8131,192],[-90.38797,38.81306,191],[-90.38798,38.81303,191],[-90.38799,38.813,190],[-90.388,38.81297,190],[-90.38801,38.81293,189],[-90.38803,38.8129,189],[-90.38806,38.81288,188],[-90.38808,38.81285,188],[-90.3881,38.81282,187],[-90.38811,38.8128,186],[-90.38814,38.81278,185],[-90.38818,38.81277,184],[-90.38822,38.81276,182],[-90.38826,38.81277,181],[-90.38829,38.81276,180],[-90.38832,38.81275,179],[-90.38835,38.81273,178],[-90.38838,38.81271,177],[-90.38841,38.8127,176],[-90.38845,38.8127,174],[-90.38848,38.81268,173],[-90.38851,38.81266,172],[-90.38854,38.81264,171],[-90.38857,38.81263,170],[-90.38858,38.81261,170],[-90.38858,38.81257,170],[-90.38857,38.81254,170],[-90.38858,38.8125,169],[-90.38858,38.81247,169],[-90.38857,38.81244,168],[-90.38856,38.81241,168],[-90.38859,38.81238,167],[-90.38861,38.81235,166],[-90.38863,38.81233,165],[-90.38866,38.81231,165],[-90.38868,38.81228,164],[-90.38869,38.81226,164],[-90.3887,38.81223,163],[-90.38869,38.8122,163],[-90.38867,38.81217,163],[-90.38867,38.81214,162],[-90.38865,38.8121,162],[-90.38864,38.81207,162],[-90.38862,38.81204,162],[-90.38861,38.81201,162],[-90.38861,38.81197,162],[-90.38861,38.81194,162],[-90.38862,38.81191,162],[-90.38862,38.81187,162],[-90.38862,38.81184,162],[-90.38863,38.8118,163],[-90.38865,38.81177,163],[-90.38867,38.81174,163],[-90.38869,38.81171,163],[-90.3887,38.81169,163],[-90.38871,38.81166,163],[-90.38872,38.81162,162],[-90.38873,38.8116,162],[-90.38876,38.81158,161],[-90.3888,38.81157,161],[-90.38884,38.81155,160],[-90.38886,38.81153,159],[-90.3889,38.81151,158],[-90.38893,38.8115,157],[-90.38896,38.81149,156],[-90.38899,38.81146,156],[-90.38901,38.81144,155],[-90.38904,38.81142,154],[-90.38906,38.8114,154],[-90.3891,38.81139,153],[-90.38913,38.81137,152],[-90.38917,38.81136,152],[-90.38921,38.81135,152],[-90.38925,38.81134,152],[-90.38929,38.81133,152],[-90.38934,38.81132,152],[-90.38938,38.8113,152],[-90.38942,38.81127,152],[-90.38944,38.81125,152],[-90.38946,38.81122,151],[-90.38949,38.8112,151],[-90.38953,38.81119,151],[-90.38958,38.81119,151],[-90.38962,38.81118,151],[-90.38966,38.81117,151],[-90.38969,38.81116,150],[-90.38975,38.81116,150],[-90.38979,38.81115,149],[-90.38985,38.81115,149],[-90.38989,38.81115,148],[-90.38992,38.81115,147],[-90.38997,38.81115,147],[-90.39,38.81115,146],[-90.39004,38.81114,146],[-90.39008,38.81114,145],[-90.39013,38.81114,145],[-90.39019,38.81114,144],[-90.39023,38.81114,143],[-90.39027,38.81115,143],[-90.3903,38.81115,142],[-90.39034,38.81116,142],[-90.39038,38.81118,142],[-90.39043,38.81119,142],[-90.39046,38.8112,142],[-90.3905,38.8112,142],[-90.39054,38.81119,142],[-90.39058,38.81118,142],[-90.39062,38.81118,142],[-90.39066,38.81118,141],[-90.3907,38.81118,141],[-90.39074,38.8112,141],[-90.39077,38.81122,141],[-90.3908,38.81123,141],[-90.39084,38.81126,142],[-90.39087,38.81128,141],[-90.3909,38.8113,141],[-90.39093,38.81132,141],[-90.39096,38.81133,141],[-90.391,38.81136,141],[-90.39102,38.81139,141],[-90.39104,38.81142,141],[-90.39105,38.81146,142],[-90.39106,38.81149,142],[-90.39106,38.81153,143],[-90.39106,38.81156,143],[-90.39106,38.8116,144],[-90.39105,38.81163,144],[-90.39104,38.81166,145],[-90.39103,38.81169,146],[-90.39101,38.81172,146],[-90.39098,38.81175,147],[-90.39097,38.81178,147],[-90.39096,38.81181,148],[-90.39096,38.81185,148],[-90.39095,38.81188,149],[-90.39094,38.81191,149],[-90.39094,38.81194,150],[-90.39095,38.81197,150],[-90.39095,38.81201,150],[-90.39095,38.81205,150],[-90.39095,38.81207,149],[-90.39093,38.81211,149],[-90.39091,38.81214,149],[-90.39091,38.81217,149],[-90.3909,38.8122,149],[-90.3909,38.81222,149],[-90.3909,38.81225,149],[-90.39092,38.81229,148],[-90.39095,38.81232,147],[-90.39098,38.81235,146],[-90.39099,38.81238,145],[-90.39099,38.81241,144],[-90.39099,38.81246,143],[-90.391,38.81249,142],[-90.39101,38.81251,142],[-90.39102,38.81254,142],[-90.39102,38.81258,143],[-90.39103,38.81261,144],[-90.39103,38.81264,145],[-90.39103,38.81267,145],[-90.39106,38.81271,146],[-90.39107,38.81273,146],[-90.39109,38.81276,146],[-90.39111,38.81279,147],[-90.39113,38.81282,147],[-90.39114,38.81286,148],[-90.39115,38.81288,149],[-90.39117,38.81292,149],[-90.39118,38.81296,150],[-90.39119,38.81298,150],[-90.39121,38.813,151],[-90.39123,38.81303,151],[-90.39125,38.81306,152],[-90.39128,38.81308,151],[-90.39131,38.8131,151],[-90.39134,38.81314,150],[-90.39135,38.81317,150],[-90.39136,38.8132,150],[-90.39139,38.81323,150],[-90.39143,38.81325,149],[-90.39146,38.81326,149],[-90.3915,38.81328,148],[-90.39152,38.81331,148],[-90.39154,38.81333,148],[-90.39156,38.81337,148],[-90.39157,38.81341,147],[-90.39157,38.81343,147],[-90.39158,38.81347,146],[-90.39161,38.81351,145],[-90.39164,38.81353,144],[-90.39166,38.81356,143],[-90.39167,38.81359,143],[-90.39169,38.81362,142],[-90.39172,38.81365,143],[-90.39174,38.81367,143],[-90.39177,38.8137,142],[-90.39179,38.81373,142],[-90.39183,38.81376,141],[-90.39185,38.8138,141],[-90.39187,38.81382,140],[-90.3919,38.81385,139],[-90.39192,38.81387,138],[-90.39194,38.81389,138],[-90.39198,38.81391,138],[-90.39201,38.81392,138],[-90.39204,38.81394,139],[-90.39209,38.81396,139],[-90.39213,38.81397,139],[-90.39217,38.81398,139],[-90.39221,38.81399,139],[-90.39225,38.81399,139],[-90.3923,38.81398,139],[-90.39233,38.81397,139],[-90.39236,38.81395,138],[-90.39239,38.81392,137],[-90.39241,38.81389,136],[-90.39243,38.81386,137],[-90.39245,38.81384,137],[-90.39246,38.81381,137],[-90.39248,38.81378,138],[-90.39249,38.81375,138],[-90.3925,38.81371,138],[-90.39252,38.81367,138],[-90.39253,38.81365,138],[-90.39255,38.81362,138],[-90.39257,38.81359,138],[-90.39258,38.81356,138],[-90.3926,38.81353,137],[-90.39262,38.8135,137],[-90.39263,38.81348,137],[-90.39265,38.81345,137],[-90.39266,38.81343,136],[-90.39268,38.8134,136],[-90.3927,38.81338,136],[-90.39273,38.81335,135],[-90.39276,38.81333,135],[-90.39278,38.8133,134],[-90.39281,38.81326,134],[-90.39285,38.81323,134],[-90.39289,38.81321,133],[-90.39292,38.81319,133],[-90.39295,38.81317,133],[-90.39298,38.81315,133],[-90.39302,38.81313,133],[-90.39305,38.81311,133],[-90.39307,38.81308,132],[-90.39309,38.81306,132],[-90.39311,38.81303,133],[-90.39313,38.81301,133],[-90.39316,38.81299,133],[-90.39319,38.81297,133],[-90.39323,38.81294,133],[-90.39327,38.81292,133],[-90.39331,38.8129,134],[-90.39335,38.81288,134],[-90.39338,38.81286,134],[-90.39341,38.81284,134],[-90.39345,38.81282,134],[-90.39349,38.8128,134],[-90.39353,38.81278,134],[-90.39356,38.81275,134],[-90.39359,38.81273,134],[-90.39362,38.81272,134],[-90.39366,38.8127,134],[-90.39369,38.81268,134],[-90.39372,38.81266,135],[-90.39375,38.81264,135],[-90.39378,38.81261,135],[-90.39381,38.81259,135],[-90.39384,38.81256,136],[-90.39387,38.81254,136],[-90.3939,38.81252,136],[-90.39392,38.8125,137],[-90.39395,38.81248,137],[-90.39398,38.81246,137],[-90.39401,38.81243,137],[-90.39404,38.8124,137],[-90.39406,38.81238,137],[-90.39408,38.81236,137],[-90.39411,38.81233,137],[-90.39415,38.81231,137],[-90.39417,38.81229,137],[-90.3942,38.81227,137],[-90.39423,38.81225,137],[-90.39426,38.81223,137],[-90.39429,38.81222,138],[-90.39432,38.8122,138],[-90.39435,38.81218,138],[-90.39439,38.81215,138],[-90.39441,38.81213,138],[-90.39445,38.8121,137],[-90.39448,38.81208,137],[-90.39451,38.81206,137],[-90.39453,38.81203,137],[-90.39455,38.81201,137],[-90.39458,38.81199,137],[-90.39461,38.81197,137],[-90.39464,38.81194,137],[-90.39467,38.81192,136],[-90.3947,38.81189,136],[-90.39473,38.81187,136],[-90.39477,38.81185,135],[-90.3948,38.81183,135],[-90.39482,38.8118,134],[-90.39485,38.81178,134],[-90.39488,38.81176,134],[-90.39491,38.81175,133],[-90.39494,38.81172,133],[-90.39498,38.81169,133],[-90.39501,38.81167,133],[-90.39504,38.81166,132],[-90.39507,38.81164,132],[-90.39505,38.81161,132],[-90.39503,38.81159,132],[-90.39508,38.8116,132],[-90.39507,38.81157,132],[-90.39506,38.81152,132],[-90.39506,38.81155,132],[-90.39505,38.81158,132]]],
        "bbox": [
          -90.38541,
          38.81973,
          -90.39513,
          38.81114
        ]
      },
      "properties": {
        "name": "1.31.2021"
      }
    }
  ]
}