{
  "type": "FeatureCollection",
  "features": [
    {
      "type": "Feature",
      "geometry": {
        "type": "MultiLineString",
        "coordinates": [[[-90.3908,38.81068,139],[-90.39082,38.81071,138],[-90.39082,38.81074,138],[-90.39082,38.81077,138],[-90.39082,38.8108,138],[-90.39081,38.81083,138],[-90.39084,38.81085,138],[-90.39083,38.81088,138],[-90.39081,38.81092,139],[-90.3908,38.81096,139],[-90.39082,38.81099,139],[-90.39082,38.81103,140],[-90.39082,38.81106,140],[-90.39082,38.8111,140],[-90.39082,38.81113,141],[-90.39082,38.81116,141],[-90.39083,38.81119,141],[-90.39083,38.81122,141],[-90.39086,38.81125,141],[-90.39089,38.81127,141],[-90.39091,38.8113,141],[-90.39091,38.81133,141],[-90.39092,38.81136,142],[-90.39095,38.81139,142],[-90.39098,38.81142,142],[-90.391,38.81144,142],[-90.39103,38.81146,142],[-90.39103,38.81149,143],[-90.39103,38.81152,143],[-90.39101,38.81156,144],[-90.391,38.8116,144],[-90.39097,38.81162,145],[-90.39094,38.81163,145],[-90.39091,38.81166,146],[-90.39089,38.81168,146],[-90.39088,38.81171,147],[-90.39088,38.81174,147],[-90.39086,38.81177,147],[-90.39086,38.81181,148],[-90.39086,38.81184,148],[-90.39086,38.81187,148],[-90.39084,38.8119,148],[-90.39083,38.81193,148],[-90.39082,38.81196,149],[-90.3908,38.81199,148],[-90.39079,38.81202,149],[-90.39078,38.81204,148],[-90.39078,38.81207,148],[-90.39077,38.81211,148],[-90.39076,38.81215,148],[-90.39075,38.81218,148],[-90.39075,38.81221,148],[-90.39076,38.81224,148],[-90.39079,38.81227,148],[-90.39082,38.8123,148],[-90.39084,38.81233,147],[-90.39085,38.81236,146],[-90.39086,38.8124,145],[-90.39086,38.81242,145],[-90.39085,38.81245,144],[-90.39085,38.81249,144],[-90.39086,38.81252,144],[-90.39087,38.81255,144],[-90.39089,38.81257,145],[-90.39091,38.8126,145],[-90.39091,38.81263,146],[-90.3909,38.81266,147],[-90.39091,38.81269,147],[-90.39092,38.81272,148],[-90.39094,38.81275,148],[-90.39095,38.81278,149],[-90.39096,38.81281,149],[-90.39097,38.81284,150],[-90.39098,38.81287,150],[-90.39101,38.81289,151],[-90.391,38.81293,152],[-90.391,38.81296,152],[-90.39101,38.81299,153],[-90.39102,38.81302,153],[-90.39103,38.81305,154],[-90.39104,38.81307,154],[-90.39107,38.81309,154],[-90.3911,38.81308,154],[-90.39114,38.81309,153],[-90.39116,38.81312,153],[-90.3912,38.81314,153],[-90.39123,38.81317,152],[-90.39125,38.8132,152],[-90.39126,38.81324,152],[-90.39129,38.81326,152],[-90.3913,38.81329,152],[-90.39133,38.81331,151],[-90.39136,38.81333,151],[-90.39139,38.81336,150],[-90.39142,38.81338,150],[-90.39143,38.81342,149],[-90.39146,38.81343,149],[-90.39149,38.81345,148],[-90.39149,38.81348,148],[-90.39149,38.81351,148],[-90.3915,38.81354,147],[-90.3915,38.81358,147],[-90.3915,38.81362,147],[-90.39151,38.81365,147],[-90.39154,38.81368,147],[-90.39156,38.81371,147],[-90.39158,38.81373,147],[-90.39161,38.81376,147],[-90.39163,38.81378,146],[-90.39166,38.81381,146],[-90.39168,38.81383,146],[-90.39171,38.81385,145],[-90.39174,38.81387,145],[-90.39178,38.81389,144],[-90.39181,38.81391,143],[-90.39184,38.81393,143],[-90.39187,38.81396,144],[-90.39189,38.81398,144],[-90.39193,38.814,144],[-90.39195,38.81401,144],[-90.39198,38.81404,145],[-90.392,38.81407,146],[-90.392,38.8141,148],[-90.39199,38.81412,149],[-90.39196,38.81411,149],[-90.39193,38.81411,149],[-90.39189,38.81411,150],[-90.39186,38.81412,151],[-90.39184,38.81414,153],[-90.39183,38.81417,154],[-90.39182,38.81421,156],[-90.39179,38.81422,157],[-90.39181,38.81425,157],[-90.39183,38.81427,157],[-90.39179,38.81429,159],[-90.39176,38.8143,160],[-90.39173,38.81431,161],[-90.39174,38.81434,161],[-90.39175,38.81437,162],[-90.39176,38.8144,163],[-90.39175,38.81443,164],[-90.39176,38.81446,164],[-90.39175,38.81449,165],[-90.39175,38.81452,165],[-90.39177,38.81455,165],[-90.39177,38.81458,165],[-90.39178,38.81461,166],[-90.39179,38.81464,166],[-90.3918,38.81467,166],[-90.3918,38.8147,166],[-90.39181,38.81473,167],[-90.39182,38.81476,167],[-90.39182,38.81479,167],[-90.39182,38.81482,167],[-90.3918,38.81485,169],[-90.39181,38.81489,169],[-90.39183,38.81493,169],[-90.39184,38.81496,169],[-90.39186,38.81498,168],[-90.39188,38.81502,169],[-90.39189,38.81505,169],[-90.39189,38.81508,170],[-90.39189,38.81511,171],[-90.39189,38.81515,172],[-90.39188,38.81518,174],[-90.39187,38.81521,175],[-90.39187,38.81524,175],[-90.39187,38.81527,176],[-90.39187,38.8153,177],[-90.39186,38.81533,177],[-90.39187,38.81536,177],[-90.39188,38.81539,177],[-90.39188,38.81543,178],[-90.39189,38.81545,178],[-90.39189,38.81548,178],[-90.39189,38.81551,178],[-90.39188,38.81554,179],[-90.39188,38.81557,178],[-90.39188,38.81561,178],[-90.39188,38.81564,177],[-90.39184,38.81565,178],[-90.3918,38.81565,179],[-90.39176,38.81565,179],[-90.39173,38.81563,180],[-90.3917,38.8156,181],[-90.39169,38.81557,182],[-90.39167,38.81555,182],[-90.39163,38.81552,182],[-90.39161,38.81549,182],[-90.39159,38.81547,183],[-90.39156,38.81545,183],[-90.39153,38.81543,183],[-90.3915,38.81541,183],[-90.39146,38.8154,184],[-90.39142,38.81539,185],[-90.39138,38.81537,185],[-90.39134,38.81536,185],[-90.3913,38.81535,186],[-90.39126,38.81536,186],[-90.39122,38.81538,186],[-90.39119,38.81539,186],[-90.39115,38.8154,186],[-90.39109,38.81541,186],[-90.39105,38.81541,186],[-90.391,38.81542,186],[-90.39095,38.81542,186],[-90.3909,38.81543,186],[-90.39086,38.81544,185],[-90.39082,38.81543,185],[-90.39078,38.81542,185],[-90.39073,38.81542,184],[-90.39069,38.81542,184],[-90.39065,38.81543,183],[-90.39061,38.81542,183],[-90.39058,38.81542,183],[-90.39054,38.81541,182],[-90.39051,38.81538,182],[-90.39048,38.81537,182],[-90.39044,38.81537,182],[-90.3904,38.81536,181],[-90.39036,38.81536,181],[-90.39031,38.81535,181],[-90.39028,38.81533,181],[-90.39023,38.81533,181],[-90.3902,38.81532,181],[-90.39016,38.8153,181],[-90.39013,38.81528,181],[-90.39008,38.81527,182],[-90.39005,38.81525,182],[-90.39003,38.81522,183],[-90.39,38.8152,183],[-90.38997,38.81519,184],[-90.38993,38.81517,184],[-90.38991,38.81515,185],[-90.38987,38.81513,185],[-90.38984,38.81511,186],[-90.38981,38.81508,187],[-90.38978,38.81506,187],[-90.38976,38.81504,188],[-90.38973,38.81501,188],[-90.38971,38.81498,189],[-90.38969,38.81496,189],[-90.38966,38.81494,189],[-90.38966,38.81491,189],[-90.38965,38.81489,189],[-90.38967,38.81487,190],[-90.38966,38.81484,190],[-90.38966,38.81481,190],[-90.38966,38.81478,191],[-90.38966,38.81475,191],[-90.38965,38.81472,191],[-90.38964,38.81469,191],[-90.38964,38.81466,191],[-90.38963,38.81464,190],[-90.38962,38.81461,190],[-90.38961,38.81458,190],[-90.3896,38.81455,190],[-90.3896,38.81452,190],[-90.38959,38.81448,189],[-90.38958,38.81446,189],[-90.38956,38.81442,189],[-90.38953,38.81439,189],[-90.38952,38.81436,188],[-90.38949,38.81433,188],[-90.38946,38.81431,188],[-90.38944,38.81429,188],[-90.38941,38.81427,189],[-90.38937,38.81425,189],[-90.38933,38.81423,190],[-90.3893,38.81422,190],[-90.38927,38.8142,191],[-90.38923,38.8142,191],[-90.38919,38.81418,192],[-90.38915,38.81416,192],[-90.38911,38.81416,192],[-90.38907,38.81415,192],[-90.38903,38.81414,192],[-90.389,38.81413,192],[-90.38896,38.81411,192],[-90.38892,38.8141,192],[-90.38889,38.81409,192],[-90.38884,38.81408,193],[-90.38881,38.81408,193],[-90.38877,38.81409,194],[-90.38873,38.8141,194],[-90.3887,38.81411,195],[-90.38866,38.8141,195],[-90.38862,38.81408,196],[-90.38859,38.81407,196],[-90.38855,38.81408,196],[-90.38852,38.81409,197],[-90.38849,38.81406,197],[-90.38846,38.81403,197],[-90.38843,38.814,197],[-90.3884,38.81398,197],[-90.3884,38.81394,197],[-90.38836,38.81394,197],[-90.38832,38.81395,198],[-90.38829,38.81394,198],[-90.38826,38.81392,198],[-90.38821,38.81391,198],[-90.38817,38.8139,198],[-90.38813,38.81389,198],[-90.38809,38.81389,198],[-90.38804,38.81389,199],[-90.38799,38.81389,199],[-90.38795,38.81389,199],[-90.38792,38.8139,199],[-90.38788,38.81391,199],[-90.38785,38.81391,199],[-90.3878,38.81391,199],[-90.38776,38.81393,200],[-90.38772,38.81392,200],[-90.38769,38.8139,200],[-90.38767,38.81388,199],[-90.38764,38.81386,199],[-90.38762,38.81383,199],[-90.38759,38.81382,199],[-90.38755,38.81382,199],[-90.38757,38.81379,198],[-90.38757,38.81376,198],[-90.38755,38.81373,197],[-90.38755,38.8137,197],[-90.38757,38.81367,197],[-90.38758,38.81364,196],[-90.38759,38.81361,196],[-90.38759,38.81358,196],[-90.3876,38.81355,196],[-90.38762,38.81352,196],[-90.38763,38.81349,196],[-90.38764,38.81346,195],[-90.38764,38.81343,195],[-90.38764,38.81341,195],[-90.38764,38.81337,195],[-90.38764,38.81334,195],[-90.38768,38.81334,195],[-90.38771,38.81332,195],[-90.38775,38.81332,195],[-90.38778,38.81333,195],[-90.38782,38.81333,195],[-90.38786,38.81333,195],[-90.3879,38.81332,195],[-90.38792,38.8133,195],[-90.38795,38.81328,195],[-90.38798,38.81325,194],[-90.38802,38.81322,194],[-90.38804,38.8132,193],[-90.38806,38.81317,192],[-90.38808,38.81313,191],[-90.38809,38.81311,191],[-90.38811,38.81308,190],[-90.38813,38.81304,189],[-90.38814,38.813,188],[-90.38815,38.81297,187],[-90.38816,38.81294,187],[-90.38817,38.81291,186],[-90.38818,38.81288,185],[-90.38816,38.81291,186],[-90.38814,38.81288,186],[-90.38813,38.81285,186],[-90.3881,38.81283,187],[-90.38814,38.81281,186],[-90.38817,38.81282,185],[-90.38821,38.81281,184],[-90.38822,38.81278,183],[-90.38826,38.81279,182],[-90.38829,38.81278,181],[-90.38833,38.81279,180],[-90.38836,38.81279,179],[-90.3884,38.81278,177],[-90.38844,38.81278,176],[-90.38848,38.81277,174],[-90.38851,38.81276,173],[-90.38854,38.81275,172],[-90.38857,38.81272,171],[-90.38858,38.81269,170],[-90.38858,38.81266,170],[-90.3886,38.81263,169],[-90.38863,38.81261,169],[-90.38865,38.81258,168],[-90.38866,38.81255,168],[-90.38868,38.81252,167],[-90.38871,38.81247,166],[-90.38873,38.81245,166],[-90.38868,38.81244,166],[-90.38865,38.81245,167],[-90.38861,38.81245,168],[-90.38865,38.81244,167],[-90.38869,38.81243,166],[-90.38873,38.81242,165],[-90.38875,38.81239,165],[-90.38876,38.81234,164],[-90.38875,38.81237,164],[-90.38872,38.81239,165],[-90.38872,38.81242,165],[-90.3887,38.81239,165],[-90.38872,38.81237,165],[-90.38873,38.81234,164],[-90.38877,38.81235,164],[-90.38879,38.81232,163],[-90.38882,38.81229,163],[-90.38884,38.81227,162],[-90.38886,38.81225,162],[-90.38888,38.81222,162],[-90.38888,38.81218,161],[-90.38887,38.81215,160],[-90.38886,38.81212,160],[-90.38885,38.81209,160],[-90.38883,38.81206,159],[-90.38881,38.81204,159],[-90.38878,38.81201,159],[-90.38876,38.81198,159],[-90.38874,38.81195,159],[-90.38871,38.81193,160],[-90.38869,38.8119,161],[-90.38869,38.81187,161],[-90.3887,38.81185,161],[-90.38872,38.81182,161],[-90.38875,38.8118,161],[-90.38877,38.81177,160],[-90.38879,38.81174,161],[-90.3888,38.81171,161],[-90.38883,38.81169,160],[-90.38885,38.81166,160],[-90.38887,38.81163,160],[-90.38888,38.8116,159],[-90.38887,38.81158,159],[-90.38884,38.81157,160],[-90.3888,38.81155,160],[-90.38882,38.81157,160],[-90.38886,38.81157,159],[-90.38891,38.81156,158],[-90.38895,38.81156,157],[-90.38899,38.81156,156],[-90.38904,38.81156,155],[-90.38909,38.81155,153],[-90.38914,38.81154,152],[-90.38918,38.81153,152],[-90.38922,38.81153,152],[-90.38925,38.81152,152],[-90.38929,38.8115,152],[-90.38931,38.81147,152],[-90.38934,38.81144,152],[-90.38936,38.81142,152],[-90.38939,38.81139,152],[-90.38942,38.81136,152],[-90.38945,38.81132,151],[-90.38949,38.8113,151],[-90.38952,38.81128,151],[-90.38955,38.81125,151],[-90.38959,38.81125,151],[-90.38963,38.81126,150],[-90.38967,38.81126,150],[-90.38972,38.81126,150],[-90.38976,38.81126,149],[-90.3898,38.81125,149],[-90.38984,38.81123,148],[-90.38987,38.81121,148],[-90.38991,38.8112,147],[-90.38995,38.8112,147],[-90.38998,38.81121,146],[-90.39003,38.8112,146],[-90.39007,38.8112,145],[-90.39011,38.81119,145],[-90.39015,38.8112,144],[-90.3902,38.8112,143],[-90.39024,38.81119,143],[-90.39028,38.81119,142],[-90.39033,38.8112,142],[-90.39036,38.81122,142],[-90.39039,38.81124,142],[-90.39043,38.81126,142],[-90.39047,38.81127,142],[-90.39051,38.81128,142],[-90.39057,38.81128,142],[-90.3906,38.81128,142],[-90.39064,38.81128,142],[-90.39068,38.81128,142],[-90.39072,38.81127,142],[-90.39075,38.81127,142],[-90.39079,38.81125,142],[-90.39082,38.81123,141],[-90.39082,38.8112,141],[-90.39083,38.81116,141],[-90.39085,38.81112,140],[-90.39087,38.81108,140],[-90.39089,38.81105,139],[-90.3909,38.81103,139],[-90.39091,38.811,139],[-90.39091,38.81097,138],[-90.39091,38.81094,138],[-90.39092,38.81091,138],[-90.39092,38.81088,137]]],
        "bbox": [
          -90.38755,
          38.81565,
          -90.392,
          38.81068
        ]
      },
      "properties": {
        "name": "4.19.2020A"
      }
    }
  ]
}