{
  "type": "FeatureCollection",
  "features": [
    {
      "type": "Feature",
      "geometry": {
        "type": "MultiLineString",
        "coordinates": [[[-90.39505,38.8117,133],[-90.39502,38.81169,133],[-90.39496,38.81171,133],[-90.39492,38.81173,133],[-90.39489,38.81175,134],[-90.39486,38.81177,134],[-90.39483,38.81178,134],[-90.39479,38.8118,135],[-90.39476,38.81182,135],[-90.39472,38.81181,135],[-90.39468,38.81182,135],[-90.39465,38.81184,136],[-90.39463,38.81187,136],[-90.39461,38.81189,136],[-90.39458,38.81192,137],[-90.39455,38.81195,137],[-90.39453,38.81198,137],[-90.39451,38.812,137],[-90.39449,38.81203,137],[-90.39446,38.81205,137],[-90.39443,38.81207,138],[-90.39439,38.81208,138],[-90.39436,38.8121,138],[-90.39432,38.81213,138],[-90.3943,38.81216,138],[-90.39428,38.81219,138],[-90.39425,38.81222,138],[-90.39423,38.81225,137],[-90.39421,38.81227,137],[-90.39419,38.81229,137],[-90.39415,38.81231,137],[-90.39412,38.81233,137],[-90.39408,38.81236,137],[-90.39405,38.81238,137],[-90.39403,38.81241,137],[-90.394,38.81243,137],[-90.39396,38.81246,137],[-90.39394,38.81249,137],[-90.39391,38.81252,136],[-90.39388,38.81254,136],[-90.39385,38.81257,136],[-90.39382,38.81259,135],[-90.39379,38.81261,135],[-90.39376,38.81263,135],[-90.39374,38.81265,135],[-90.39371,38.81268,134],[-90.39367,38.81269,134],[-90.39364,38.81272,134],[-90.39361,38.81274,134],[-90.39358,38.81276,134],[-90.39354,38.81277,134],[-90.3935,38.81278,134],[-90.39347,38.81279,134],[-90.39345,38.81282,134],[-90.39342,38.81284,134],[-90.39339,38.81286,134],[-90.39336,38.81288,134],[-90.39332,38.81289,134],[-90.39328,38.8129,134],[-90.39325,38.81292,133],[-90.39321,38.81294,133],[-90.39318,38.81298,133],[-90.39315,38.81302,133],[-90.39311,38.81305,133],[-90.39307,38.81309,132],[-90.39303,38.81313,133],[-90.39299,38.81317,133],[-90.39292,38.81319,133],[-90.39287,38.81322,134],[-90.39281,38.81325,134],[-90.39276,38.81329,134],[-90.39273,38.81332,135],[-90.39271,38.81336,135],[-90.39267,38.81338,136],[-90.39264,38.81341,136],[-90.3926,38.81343,137],[-90.39257,38.81345,137],[-90.39252,38.81347,137],[-90.39249,38.81349,138],[-90.39247,38.81352,138],[-90.39245,38.81355,138],[-90.39243,38.81359,138],[-90.3924,38.81363,138],[-90.39237,38.81366,138],[-90.39236,38.8137,137],[-90.39235,38.81374,137],[-90.39234,38.81377,136],[-90.39232,38.81381,135],[-90.39231,38.81385,135],[-90.39231,38.81388,134],[-90.39227,38.81392,135],[-90.39223,38.81394,136],[-90.39221,38.81398,139],[-90.39218,38.81399,140],[-90.39218,38.81402,141],[-90.39219,38.81405,143],[-90.39221,38.81407,144],[-90.39224,38.81408,145],[-90.39222,38.81413,148],[-90.3922,38.81417,151],[-90.3922,38.8142,151],[-90.39221,38.81425,152],[-90.39224,38.81428,152],[-90.39229,38.81431,153],[-90.39233,38.81433,153],[-90.39238,38.81435,153],[-90.39243,38.81438,154],[-90.39246,38.81442,155],[-90.39251,38.81444,155],[-90.39255,38.81446,155],[-90.3926,38.81447,154],[-90.39264,38.8145,154],[-90.39268,38.81454,153],[-90.3927,38.81457,153],[-90.39271,38.8146,153],[-90.39273,38.81464,152],[-90.39275,38.81467,152],[-90.39277,38.8147,152],[-90.39277,38.81475,151],[-90.39277,38.81479,151],[-90.39278,38.81484,151],[-90.3928,38.81489,150],[-90.39281,38.81493,150],[-90.39283,38.81496,149],[-90.39285,38.815,149],[-90.39288,38.81503,149],[-90.39291,38.81506,149],[-90.39293,38.8151,149],[-90.39296,38.81515,148],[-90.39297,38.81519,148],[-90.39295,38.81522,148],[-90.39293,38.81526,149],[-90.39291,38.81529,149],[-90.39289,38.81532,148],[-90.39287,38.81535,148],[-90.39283,38.81536,149],[-90.39277,38.81538,150],[-90.39271,38.81541,151],[-90.39266,38.81543,152],[-90.39262,38.81547,152],[-90.39262,38.81551,152],[-90.39261,38.81555,151],[-90.39259,38.81559,151],[-90.39257,38.81562,151],[-90.39256,38.81566,151],[-90.39255,38.81571,150],[-90.39254,38.81574,149],[-90.39252,38.81579,149],[-90.39253,38.81583,148],[-90.39257,38.81586,146],[-90.39256,38.8159,146],[-90.39255,38.81595,147],[-90.39252,38.81598,148],[-90.3925,38.81602,148],[-90.3925,38.81605,148],[-90.39254,38.81607,147],[-90.3926,38.81608,145],[-90.3926,38.81611,145],[-90.39256,38.81612,146],[-90.39252,38.81612,148],[-90.39248,38.81612,149],[-90.39242,38.81612,151],[-90.39237,38.81614,152],[-90.39233,38.81618,152],[-90.3923,38.81622,152],[-90.39228,38.81626,151],[-90.3923,38.81631,149],[-90.39228,38.81636,148],[-90.39226,38.81639,148],[-90.39224,38.81644,148],[-90.39222,38.81648,148],[-90.39219,38.81651,148],[-90.39214,38.81651,149],[-90.39209,38.81653,150],[-90.39208,38.81658,149],[-90.39206,38.81661,149],[-90.39202,38.81664,150],[-90.39196,38.81667,150],[-90.39194,38.81671,150],[-90.3919,38.81674,151],[-90.39185,38.81674,151],[-90.39181,38.81676,151],[-90.39179,38.8168,151],[-90.39178,38.81683,150],[-90.39176,38.81686,150],[-90.39173,38.8169,149],[-90.3917,38.81692,148],[-90.39164,38.81693,148],[-90.3916,38.81696,148],[-90.39156,38.81699,147],[-90.39152,38.817,148],[-90.39146,38.81702,148],[-90.39142,38.81705,147],[-90.39135,38.81708,147],[-90.39129,38.81712,147],[-90.39123,38.81713,147],[-90.39118,38.81718,146],[-90.39111,38.81718,147],[-90.39103,38.81718,149],[-90.39096,38.81719,150],[-90.3909,38.81722,149],[-90.39087,38.81727,148],[-90.39085,38.81732,147],[-90.39086,38.81737,145],[-90.39086,38.81741,144],[-90.39084,38.81744,143],[-90.39082,38.81747,143],[-90.39079,38.81749,142],[-90.39076,38.8175,143],[-90.39072,38.8175,143],[-90.39069,38.81747,145],[-90.39066,38.81749,144],[-90.39062,38.81751,144],[-90.3906,38.81753,144],[-90.39057,38.81752,145],[-90.3906,38.81751,145],[-90.39059,38.81748,146],[-90.39057,38.81745,147],[-90.39054,38.81743,148],[-90.3905,38.81742,149],[-90.39047,38.81741,149],[-90.39049,38.81739,150],[-90.39054,38.81738,150],[-90.39058,38.81737,150],[-90.39059,38.81735,150],[-90.39058,38.81732,152],[-90.39055,38.8173,153],[-90.39053,38.81728,154],[-90.39059,38.81726,154],[-90.3906,38.81721,155],[-90.39064,38.81726,153],[-90.39068,38.81722,153],[-90.39063,38.81725,153],[-90.39061,38.81721,155],[-90.39058,38.81718,156],[-90.39058,38.81715,157],[-90.3906,38.81713,158],[-90.39061,38.81709,159],[-90.39059,38.81706,160],[-90.39056,38.81702,162],[-90.39055,38.81698,163],[-90.39057,38.81694,164],[-90.3906,38.81691,164],[-90.39063,38.81689,164],[-90.39066,38.81686,164],[-90.39062,38.81688,165],[-90.39059,38.81689,165],[-90.39055,38.81691,165],[-90.39051,38.81692,165],[-90.39047,38.8169,166],[-90.39045,38.81688,166],[-90.39043,38.81686,166],[-90.39042,38.81683,167],[-90.3904,38.81679,167],[-90.39037,38.81677,167],[-90.39034,38.81674,168],[-90.39032,38.81671,168],[-90.3903,38.81668,168],[-90.39027,38.81667,168],[-90.39024,38.81664,169],[-90.39021,38.81666,169],[-90.39018,38.81666,169],[-90.39021,38.81668,168],[-90.39025,38.81668,168],[-90.39028,38.81666,169],[-90.39025,38.81667,168],[-90.39021,38.81665,169],[-90.39019,38.81663,169],[-90.39017,38.81661,169],[-90.39013,38.81659,169],[-90.3901,38.81658,169],[-90.39015,38.8166,169],[-90.39018,38.81658,169],[-90.39031,38.81668,168],[-90.39034,38.8167,168],[-90.39032,38.81667,168],[-90.39033,38.8167,168],[-90.39036,38.81673,168],[-90.39038,38.81675,167],[-90.3904,38.81678,167],[-90.39042,38.81681,167],[-90.39043,38.81684,166],[-90.39045,38.81687,166],[-90.39048,38.81689,166],[-90.39051,38.81691,165],[-90.39055,38.81691,165],[-90.39058,38.81688,165],[-90.39061,38.81686,165],[-90.39063,38.81683,165],[-90.39068,38.81681,165],[-90.39072,38.8168,165],[-90.39076,38.81679,165],[-90.3908,38.81678,165],[-90.39082,38.81676,165],[-90.39079,38.81676,165],[-90.39081,38.81678,165],[-90.39085,38.81677,165],[-90.39087,38.81674,165],[-90.39089,38.81671,165],[-90.39091,38.81669,166],[-90.39092,38.81672,165],[-90.39092,38.81669,166],[-90.3909,38.81667,166],[-90.391,38.8167,165],[-90.39103,38.81671,165],[-90.39106,38.81673,164],[-90.39108,38.81675,163],[-90.39111,38.81678,162],[-90.39114,38.81679,161],[-90.39118,38.81677,161],[-90.39121,38.81678,161],[-90.39125,38.81679,160],[-90.39128,38.81678,160],[-90.3913,38.81675,160],[-90.39131,38.81672,161],[-90.39133,38.81669,162],[-90.39136,38.81667,162],[-90.39139,38.81665,162],[-90.39141,38.81663,162],[-90.39144,38.81661,162],[-90.39145,38.81656,164],[-90.39145,38.81659,163],[-90.39145,38.81655,164],[-90.39148,38.81649,165],[-90.3915,38.8164,167],[-90.39157,38.81634,167],[-90.39157,38.81626,170],[-90.39159,38.81619,172],[-90.39159,38.81612,174],[-90.39158,38.81605,175],[-90.39157,38.81599,177],[-90.39163,38.81597,177],[-90.39161,38.8159,178],[-90.39165,38.81586,179],[-90.39167,38.8158,180],[-90.39169,38.81576,180],[-90.3917,38.81572,180],[-90.39166,38.81571,181],[-90.39163,38.81569,181],[-90.39161,38.81567,182],[-90.39158,38.81565,182],[-90.39154,38.81564,182],[-90.3915,38.81563,183],[-90.39145,38.8156,183],[-90.39139,38.81558,184],[-90.39134,38.81557,184],[-90.39128,38.81557,185],[-90.39122,38.81553,185],[-90.39115,38.81552,185],[-90.3911,38.8155,186],[-90.39104,38.81552,185],[-90.39099,38.81554,185],[-90.39093,38.81555,185],[-90.39087,38.81555,185],[-90.3908,38.81555,184],[-90.39074,38.81554,184],[-90.39066,38.81553,183],[-90.3906,38.81553,182],[-90.39055,38.81551,182],[-90.39048,38.81549,181],[-90.39041,38.81547,180],[-90.39032,38.81548,179],[-90.39022,38.81549,178],[-90.39014,38.81549,178],[-90.39009,38.81543,179],[-90.39004,38.81537,180],[-90.38997,38.81533,181],[-90.38989,38.81531,181],[-90.3898,38.81532,182],[-90.38972,38.81529,182],[-90.38968,38.81523,184],[-90.38967,38.81517,185],[-90.38963,38.81513,186],[-90.38958,38.81508,187],[-90.38954,38.81503,187],[-90.38948,38.81501,188],[-90.38943,38.81495,188],[-90.38939,38.81492,188],[-90.38936,38.81488,189],[-90.38934,38.81482,189],[-90.38934,38.81478,189],[-90.38938,38.81474,190],[-90.38942,38.81468,190],[-90.38942,38.81461,190],[-90.38937,38.81455,190],[-90.38942,38.81449,190],[-90.38941,38.81443,190],[-90.38937,38.81437,190],[-90.3893,38.81433,190],[-90.38923,38.81433,191],[-90.38915,38.81434,192],[-90.38907,38.81433,192],[-90.38902,38.81427,192],[-90.38897,38.81422,192],[-90.38889,38.81419,192],[-90.3888,38.8142,194],[-90.38872,38.81422,195],[-90.38864,38.8142,196],[-90.38857,38.81419,197],[-90.38851,38.81418,197],[-90.38844,38.81416,198],[-90.38839,38.81411,198],[-90.38833,38.81409,198],[-90.38826,38.81406,198],[-90.38818,38.81403,199],[-90.38811,38.81401,199],[-90.38804,38.81401,199],[-90.38799,38.81405,199],[-90.38791,38.81405,199],[-90.38785,38.81401,199],[-90.38778,38.81399,199],[-90.38771,38.814,200],[-90.38765,38.81399,200],[-90.38758,38.81398,200],[-90.38753,38.81393,200],[-90.38751,38.81387,199],[-90.3875,38.81381,198],[-90.38748,38.81376,198],[-90.38748,38.81371,197],[-90.38749,38.81367,196],[-90.38751,38.81362,196],[-90.38754,38.81359,196],[-90.38754,38.81353,195],[-90.38752,38.81349,195],[-90.38749,38.81345,194],[-90.38745,38.81341,194],[-90.38745,38.81335,193],[-90.38748,38.81329,193],[-90.38755,38.81328,194],[-90.38762,38.81327,194],[-90.38768,38.81328,194],[-90.38774,38.81328,195],[-90.3878,38.81328,195],[-90.38785,38.81327,195],[-90.3879,38.81323,194],[-90.3879,38.81318,193],[-90.38793,38.81312,192],[-90.38801,38.8131,192],[-90.38805,38.81303,190],[-90.388,38.81297,190],[-90.388,38.81291,189],[-90.38798,38.81286,189],[-90.38801,38.8128,188],[-90.38806,38.81278,187],[-90.38809,38.81274,186],[-90.38813,38.8127,184],[-90.38821,38.81268,181],[-90.38827,38.81266,179],[-90.38835,38.81263,176],[-90.38843,38.81264,174],[-90.3885,38.81261,172],[-90.3885,38.81253,171],[-90.3885,38.81247,170],[-90.38849,38.81241,169],[-90.38846,38.81234,168],[-90.38852,38.8123,166],[-90.38859,38.81226,165],[-90.38864,38.81221,163],[-90.38869,38.81217,162],[-90.38863,38.8122,163],[-90.38866,38.81214,162],[-90.38863,38.81209,162],[-90.38856,38.81206,163],[-90.38854,38.812,163],[-90.38853,38.81193,163],[-90.3885,38.81186,164],[-90.38849,38.8118,165],[-90.38852,38.81174,165],[-90.38856,38.81169,165],[-90.3886,38.81165,165],[-90.38863,38.8116,164],[-90.38872,38.81156,162],[-90.38878,38.81155,161],[-90.38885,38.81155,160],[-90.3889,38.81154,158],[-90.38895,38.81152,157],[-90.38899,38.81149,156],[-90.38905,38.81145,154],[-90.38911,38.81143,153],[-90.38916,38.81138,152],[-90.38925,38.81138,152],[-90.38934,38.8114,152],[-90.38941,38.81142,152],[-90.38947,38.81135,151],[-90.38945,38.81127,151],[-90.38949,38.81121,151],[-90.38956,38.81117,151],[-90.38964,38.81118,151],[-90.38972,38.81118,150],[-90.38978,38.81117,149],[-90.38981,38.81112,149],[-90.38987,38.81112,148],[-90.38994,38.81112,147],[-90.39001,38.81112,146],[-90.39008,38.81111,145],[-90.39014,38.81112,145],[-90.39019,38.81113,144],[-90.39024,38.81112,143],[-90.3903,38.81112,142],[-90.39035,38.81113,142],[-90.39039,38.81117,142],[-90.39042,38.8112,142],[-90.39048,38.81121,142],[-90.39054,38.81124,142],[-90.39059,38.81123,142],[-90.39063,38.81119,142],[-90.39068,38.81116,141],[-90.39075,38.81117,141],[-90.3908,38.81119,141],[-90.39085,38.81121,141],[-90.39091,38.81123,141],[-90.39095,38.81125,140],[-90.39099,38.81129,140],[-90.39101,38.81133,141],[-90.39104,38.81138,141],[-90.39108,38.81141,141],[-90.39111,38.81144,141],[-90.39112,38.81148,142],[-90.39112,38.81153,142],[-90.39112,38.81157,143],[-90.3911,38.8116,144],[-90.39105,38.81165,145],[-90.39103,38.81169,146],[-90.391,38.81173,146],[-90.39097,38.81176,147],[-90.39095,38.8118,148],[-90.39095,38.81184,148],[-90.39096,38.81187,149],[-90.39097,38.81192,150],[-90.39098,38.81196,150],[-90.39099,38.81201,150],[-90.39099,38.81205,150],[-90.39095,38.81208,149],[-90.39094,38.81214,149],[-90.39096,38.81218,149],[-90.39093,38.81222,149],[-90.3909,38.81226,148],[-90.39087,38.8123,148],[-90.39093,38.8123,147],[-90.39098,38.81233,146],[-90.39102,38.81237,145],[-90.39103,38.81241,144],[-90.39105,38.81246,142],[-90.39105,38.8125,141],[-90.39105,38.81254,142],[-90.39106,38.8126,143],[-90.39108,38.81265,144],[-90.39109,38.8127,145],[-90.39111,38.81276,146],[-90.39113,38.8128,147],[-90.39118,38.81282,147],[-90.3912,38.81288,148],[-90.39122,38.81292,149],[-90.39126,38.81295,149],[-90.39129,38.813,150],[-90.3913,38.81303,150],[-90.39133,38.81306,150],[-90.39137,38.81308,150],[-90.39141,38.8131,149],[-90.39146,38.81312,148],[-90.39148,38.81316,148],[-90.39149,38.8132,148],[-90.39151,38.81324,148],[-90.39154,38.81327,148],[-90.39157,38.81329,147],[-90.3916,38.81333,147],[-90.39162,38.81336,147],[-90.39164,38.81339,146],[-90.39165,38.81343,145],[-90.39167,38.81347,145],[-90.3917,38.81351,144],[-90.39172,38.81354,143],[-90.39173,38.81359,142],[-90.39177,38.81361,142],[-90.39182,38.81363,141],[-90.39186,38.81366,141],[-90.39191,38.81368,140],[-90.39193,38.81371,140],[-90.39198,38.81373,139],[-90.39202,38.81375,138],[-90.39205,38.81379,137],[-90.39209,38.81382,136],[-90.39213,38.81385,135],[-90.39216,38.81388,134],[-90.3922,38.81392,135],[-90.39224,38.81395,137],[-90.39227,38.81398,139],[-90.39233,38.81395,138],[-90.39235,38.8139,135],[-90.39237,38.81385,136],[-90.3924,38.81382,136],[-90.39244,38.81378,137],[-90.39244,38.81373,138],[-90.39243,38.81367,138],[-90.39248,38.81363,138],[-90.39251,38.81357,138],[-90.39252,38.81352,138],[-90.39255,38.81346,137],[-90.39256,38.81341,137],[-90.39257,38.81336,136],[-90.39263,38.81333,136],[-90.3927,38.81331,135],[-90.39277,38.81328,134],[-90.39281,38.81323,134],[-90.39284,38.81317,134],[-90.39286,38.81312,133],[-90.3929,38.81307,133],[-90.39298,38.81303,133],[-90.39305,38.81301,133],[-90.39309,38.81296,133],[-90.39316,38.81294,133],[-90.39323,38.81292,133],[-90.39329,38.81288,134],[-90.39333,38.81285,134],[-90.39337,38.81284,134],[-90.3934,38.81284,134],[-90.39344,38.81283,134],[-90.39348,38.81281,134],[-90.39351,38.81279,134],[-90.39356,38.81277,134],[-90.39359,38.81276,134],[-90.39363,38.81274,134],[-90.39366,38.81272,134],[-90.3937,38.8127,134],[-90.39373,38.81269,134],[-90.39377,38.81267,134],[-90.3938,38.81264,135],[-90.39383,38.81262,135],[-90.39385,38.81259,135],[-90.39389,38.81257,136],[-90.39392,38.81255,136],[-90.39395,38.81252,136],[-90.39398,38.8125,137],[-90.39402,38.81248,137],[-90.39405,38.81246,137],[-90.39408,38.81244,137],[-90.3941,38.81241,137],[-90.39412,38.81238,137],[-90.39415,38.81235,137],[-90.39417,38.81233,137],[-90.3942,38.81231,137],[-90.39424,38.81229,137],[-90.39426,38.81226,137],[-90.3943,38.81223,137],[-90.39433,38.81222,138],[-90.39437,38.8122,138],[-90.39439,38.81218,138],[-90.39441,38.81215,138],[-90.39444,38.81212,138],[-90.39446,38.81209,137],[-90.39448,38.81207,137],[-90.39451,38.81204,137],[-90.39454,38.81202,137],[-90.39458,38.81198,137],[-90.39462,38.81195,137],[-90.39467,38.81192,136],[-90.39469,38.8119,136],[-90.39471,38.81186,136],[-90.39474,38.81184,135],[-90.39477,38.81181,135],[-90.3948,38.81178,134],[-90.39482,38.81175,134],[-90.39485,38.81172,134],[-90.39488,38.8117,133],[-90.39492,38.81168,133],[-90.39495,38.81166,133],[-90.39498,38.81164,132],[-90.395,38.81161,132],[-90.39503,38.81162,132],[-90.39504,38.81166,132],[-90.39503,38.81162,132]]],
        "bbox": [
          -90.38745,
          38.81753,
          -90.39505,
          38.81111
        ]
      },
      "properties": {
        "name": "7.28.2020"
      }
    }
  ]
}