{
  "type": "FeatureCollection",
  "features": [
    {
      "type": "Feature",
      "geometry": {
        "type": "MultiLineString",
        "coordinates": [[[-90.39295,38.81314,133],[-90.39291,38.81315,133],[-90.39288,38.81317,133],[-90.39285,38.81318,134],[-90.39283,38.81321,134],[-90.3928,38.81323,134],[-90.39278,38.81325,134],[-90.39276,38.81328,134],[-90.39273,38.8133,135],[-90.39271,38.81333,135],[-90.39268,38.81336,135],[-90.39266,38.81339,136],[-90.39264,38.81343,136],[-90.39263,38.81346,137],[-90.39261,38.81348,137],[-90.3926,38.81351,137],[-90.39258,38.81354,138],[-90.39257,38.81356,138],[-90.39255,38.8136,138],[-90.39253,38.81364,138],[-90.3925,38.81367,138],[-90.39248,38.81369,138],[-90.39246,38.81372,138],[-90.39245,38.81376,137],[-90.39244,38.81379,137],[-90.39242,38.81382,137],[-90.39239,38.81385,136],[-90.39236,38.81388,135],[-90.39234,38.81391,136],[-90.39231,38.81393,137],[-90.39229,38.81396,138],[-90.39227,38.81398,139],[-90.39225,38.81401,141],[-90.39224,38.81404,142],[-90.39225,38.81407,144],[-90.39227,38.8141,146],[-90.39228,38.81412,148],[-90.3923,38.81415,149],[-90.39233,38.81417,150],[-90.39236,38.8142,151],[-90.39239,38.81421,151],[-90.39243,38.81424,151],[-90.39246,38.81426,152],[-90.39249,38.81427,152],[-90.39252,38.81428,152],[-90.39255,38.8143,152],[-90.39257,38.81432,152],[-90.3926,38.81435,152],[-90.39262,38.81437,153],[-90.39265,38.81439,153],[-90.39268,38.81442,153],[-90.3927,38.81444,153],[-90.39273,38.81447,153],[-90.39277,38.81449,152],[-90.39279,38.8145,152],[-90.39282,38.81453,151],[-90.39285,38.81456,150],[-90.39287,38.81458,150],[-90.39288,38.81462,150],[-90.39288,38.81465,149],[-90.39289,38.81468,149],[-90.3929,38.81471,149],[-90.39291,38.81475,149],[-90.39292,38.81478,148],[-90.39292,38.81481,148],[-90.39293,38.81484,148],[-90.39294,38.81486,148],[-90.39296,38.81489,148],[-90.39293,38.81491,148],[-90.39291,38.81488,149],[-90.39288,38.81491,149],[-90.39287,38.81494,149],[-90.39283,38.81494,149],[-90.39283,38.81497,149],[-90.39287,38.81496,149],[-90.39288,38.81494,149],[-90.39288,38.81491,149],[-90.39288,38.81487,149],[-90.39287,38.81485,149],[-90.39285,38.81481,150],[-90.39284,38.81477,150],[-90.39283,38.81474,150],[-90.39282,38.81471,151],[-90.39279,38.81467,151],[-90.39276,38.81464,152],[-90.39272,38.81461,152],[-90.39268,38.81457,153],[-90.39264,38.81454,154],[-90.3926,38.81449,154],[-90.39258,38.81447,155],[-90.39255,38.81445,155],[-90.3925,38.81442,155],[-90.39245,38.81439,154],[-90.3924,38.81436,154],[-90.39236,38.81434,153],[-90.39233,38.81432,153],[-90.39229,38.8143,152],[-90.39227,38.81428,152],[-90.39223,38.81426,152],[-90.39222,38.81423,151],[-90.39219,38.8142,151],[-90.39216,38.81418,151],[-90.39212,38.81419,151],[-90.39208,38.81419,151],[-90.39204,38.8142,152],[-90.392,38.81419,152],[-90.39196,38.81418,152],[-90.39193,38.8142,153],[-90.3919,38.81421,154],[-90.39187,38.81422,155],[-90.39185,38.81425,156],[-90.39183,38.81428,157],[-90.3918,38.81429,158],[-90.39179,38.81432,159],[-90.39175,38.81433,161],[-90.39175,38.8143,160],[-90.39179,38.8143,159],[-90.39183,38.81431,158],[-90.39183,38.81434,159],[-90.39184,38.81437,160],[-90.39183,38.8144,161],[-90.39182,38.81443,162],[-90.39184,38.81445,162],[-90.39187,38.81447,161],[-90.39187,38.8145,161],[-90.39188,38.81453,162],[-90.39185,38.81455,163],[-90.39185,38.81459,163],[-90.39184,38.81462,164],[-90.39186,38.81465,164],[-90.39187,38.81468,164],[-90.39188,38.8147,164],[-90.39189,38.81473,164],[-90.39189,38.81476,164],[-90.3919,38.81479,165],[-90.39192,38.81482,164],[-90.39191,38.81485,165],[-90.39191,38.81488,165],[-90.39192,38.8149,165],[-90.39194,38.81494,165],[-90.39195,38.81496,165],[-90.39196,38.81499,165],[-90.39197,38.81502,166],[-90.39197,38.81505,167],[-90.39196,38.81508,168],[-90.39194,38.81511,170],[-90.39194,38.81515,171],[-90.39194,38.81518,172],[-90.39193,38.81521,173],[-90.39192,38.81524,174],[-90.39193,38.81527,175],[-90.39194,38.8153,176],[-90.39195,38.81534,176],[-90.39195,38.81536,176],[-90.39195,38.8154,176],[-90.39195,38.81544,176],[-90.39195,38.81547,177],[-90.39196,38.8155,176],[-90.39195,38.81553,177],[-90.39194,38.81557,177],[-90.39194,38.8156,177],[-90.39193,38.81563,176],[-90.3919,38.81565,176],[-90.39187,38.81567,177],[-90.39183,38.81566,178],[-90.39179,38.81566,179],[-90.39175,38.81567,179],[-90.39171,38.81567,180],[-90.39168,38.81564,181],[-90.39165,38.81562,182],[-90.39162,38.8156,182],[-90.39159,38.81558,183],[-90.39155,38.81555,183],[-90.39153,38.81553,183],[-90.39149,38.81551,184],[-90.39146,38.81549,184],[-90.39142,38.81547,184],[-90.39137,38.81546,185],[-90.39133,38.81546,185],[-90.39128,38.81546,185],[-90.39124,38.81546,185],[-90.39119,38.81546,186],[-90.39114,38.81546,186],[-90.3911,38.81546,186],[-90.39106,38.81548,186],[-90.39101,38.81549,185],[-90.39097,38.8155,185],[-90.39093,38.81549,185],[-90.39089,38.81549,185],[-90.39084,38.81549,185],[-90.39079,38.8155,184],[-90.39075,38.81551,184],[-90.39071,38.81551,183],[-90.39067,38.8155,183],[-90.39062,38.81549,183],[-90.39057,38.81549,182],[-90.39053,38.8155,182],[-90.39049,38.81551,181],[-90.39045,38.81551,180],[-90.39042,38.81549,180],[-90.39037,38.81549,180],[-90.39032,38.81549,179],[-90.39029,38.81549,179],[-90.39025,38.81548,179],[-90.39022,38.81545,179],[-90.39019,38.81544,179],[-90.39015,38.81542,179],[-90.39011,38.81541,179],[-90.39007,38.8154,179],[-90.39004,38.81539,180],[-90.38999,38.81538,180],[-90.38995,38.81536,180],[-90.38992,38.81533,181],[-90.3899,38.81531,181],[-90.38987,38.81529,182],[-90.38985,38.81526,182],[-90.38981,38.81524,183],[-90.38978,38.81522,184],[-90.38975,38.81519,184],[-90.38972,38.81517,185],[-90.38969,38.81515,185],[-90.38965,38.81513,186],[-90.38962,38.81512,186],[-90.3896,38.81509,187],[-90.38957,38.81506,187],[-90.38954,38.81504,187],[-90.38953,38.81501,188],[-90.38951,38.81499,188],[-90.3895,38.81495,188],[-90.3895,38.81493,188],[-90.38949,38.81489,189],[-90.38949,38.81487,189],[-90.38949,38.81483,189],[-90.38948,38.81479,190],[-90.38947,38.81476,190],[-90.38948,38.81472,191],[-90.38949,38.8147,191],[-90.38949,38.81467,190],[-90.3895,38.81463,190],[-90.3895,38.81459,190],[-90.38948,38.81456,190],[-90.38944,38.81447,190],[-90.38942,38.81443,190],[-90.3894,38.81441,190],[-90.38937,38.81438,190],[-90.38934,38.81436,190],[-90.3893,38.81434,190],[-90.38927,38.81432,191],[-90.38924,38.8143,191],[-90.3892,38.81429,192],[-90.38916,38.81427,192],[-90.38913,38.81426,192],[-90.3891,38.81424,192],[-90.38907,38.81423,192],[-90.38904,38.81422,192],[-90.389,38.81421,192],[-90.38896,38.81419,192],[-90.38891,38.81417,192],[-90.38888,38.81415,193],[-90.38884,38.81414,193],[-90.3888,38.81412,193],[-90.38876,38.81411,194],[-90.38872,38.8141,194],[-90.38869,38.8141,195],[-90.38865,38.81409,195],[-90.38861,38.81408,196],[-90.38857,38.81407,196],[-90.38854,38.81406,196],[-90.3885,38.81405,197],[-90.38846,38.81403,197],[-90.38842,38.81402,197],[-90.38839,38.81401,197],[-90.38835,38.814,198],[-90.38831,38.81399,198],[-90.38826,38.81398,198],[-90.38822,38.81398,198],[-90.38817,38.81397,198],[-90.38812,38.81397,199],[-90.38808,38.81397,199],[-90.38804,38.81397,199],[-90.388,38.81397,199],[-90.38795,38.81397,199],[-90.3879,38.81396,199],[-90.38786,38.81396,199],[-90.38782,38.81396,199],[-90.38777,38.81396,200],[-90.38773,38.81396,200],[-90.3877,38.81395,200],[-90.38766,38.81393,200],[-90.38763,38.81392,200],[-90.38759,38.8139,200],[-90.38755,38.81388,199],[-90.38752,38.81386,199],[-90.38752,38.81383,199],[-90.38752,38.81379,198],[-90.38753,38.81376,198],[-90.38753,38.81373,197],[-90.38753,38.8137,197],[-90.38753,38.81367,197],[-90.38754,38.81363,196],[-90.38754,38.8136,196],[-90.38755,38.81356,195],[-90.38756,38.81353,195],[-90.38756,38.8135,195],[-90.38757,38.81346,195],[-90.38757,38.81342,195],[-90.38757,38.81339,194],[-90.38757,38.81336,194],[-90.38758,38.81333,194],[-90.38763,38.81332,194],[-90.38767,38.81332,195],[-90.38771,38.81332,195],[-90.38775,38.81332,195],[-90.38778,38.81332,195],[-90.38782,38.81331,195],[-90.38785,38.81329,195],[-90.38786,38.81326,195],[-90.38787,38.81323,194],[-90.38789,38.81321,194],[-90.38792,38.81319,193],[-90.38794,38.81316,193],[-90.38796,38.81314,193],[-90.38798,38.81311,192],[-90.38798,38.81308,191],[-90.38798,38.81305,191],[-90.38798,38.81301,191],[-90.38798,38.81298,190],[-90.38797,38.81296,190],[-90.38796,38.81293,190],[-90.38796,38.8129,189],[-90.38797,38.81287,189],[-90.38799,38.81285,189],[-90.38802,38.81283,188],[-90.38806,38.81281,188],[-90.38808,38.81279,187],[-90.38811,38.81277,186],[-90.38815,38.81276,184],[-90.38818,38.81276,183],[-90.38822,38.81276,182],[-90.38826,38.81275,181],[-90.3883,38.81274,180],[-90.38834,38.81273,178],[-90.38837,38.81273,178],[-90.3884,38.8127,176],[-90.38842,38.81268,175],[-90.38844,38.81266,174],[-90.38846,38.81263,173],[-90.38848,38.8126,172],[-90.38849,38.81257,172],[-90.3885,38.81254,171],[-90.38852,38.81252,171],[-90.38853,38.81248,170],[-90.38854,38.81245,169],[-90.38856,38.81242,168],[-90.38858,38.8124,167],[-90.38859,38.81237,167],[-90.38862,38.81235,166],[-90.38866,38.81234,165],[-90.38867,38.81231,164],[-90.38868,38.81228,164],[-90.38868,38.81224,163],[-90.38867,38.81221,163],[-90.38867,38.81217,163],[-90.38869,38.81215,162],[-90.38868,38.81212,162],[-90.38866,38.81211,162],[-90.38867,38.81208,162],[-90.38867,38.81205,161],[-90.38865,38.81203,162],[-90.38863,38.81206,162],[-90.38867,38.81204,161],[-90.38864,38.81205,162],[-90.38861,38.81203,162],[-90.3886,38.812,162],[-90.38859,38.81196,162],[-90.38859,38.81192,162],[-90.38858,38.81189,163],[-90.38859,38.81185,163],[-90.38859,38.81182,163],[-90.3886,38.81179,163],[-90.38862,38.81176,163],[-90.38864,38.81174,163],[-90.38866,38.81171,163],[-90.38868,38.81168,163],[-90.38869,38.81166,163],[-90.38871,38.81162,163],[-90.38874,38.81159,162],[-90.38878,38.81159,161],[-90.38882,38.81159,160],[-90.38886,38.81158,159],[-90.38889,38.81156,159],[-90.38892,38.81154,158],[-90.38895,38.81152,157],[-90.38899,38.81152,156],[-90.38902,38.8115,155],[-90.38903,38.81147,155],[-90.38906,38.81145,154],[-90.38909,38.81144,153],[-90.38912,38.81143,153],[-90.38916,38.81142,152],[-90.3892,38.81142,152],[-90.38924,38.81141,152],[-90.38926,38.81139,152],[-90.38928,38.81136,152],[-90.38931,38.81134,152],[-90.38934,38.81132,152],[-90.38936,38.81129,152],[-90.38938,38.81127,152],[-90.38941,38.81125,152],[-90.38944,38.81123,152],[-90.38948,38.81124,151],[-90.38952,38.81125,151],[-90.38957,38.81125,151],[-90.38961,38.81125,151],[-90.38965,38.81124,150],[-90.3897,38.81123,150],[-90.38974,38.81122,150],[-90.38978,38.81121,149],[-90.38983,38.81121,148],[-90.38987,38.81121,148],[-90.38992,38.81121,147],[-90.38996,38.81122,146],[-90.39,38.81123,146],[-90.39004,38.81123,145],[-90.39007,38.81124,145],[-90.39011,38.81122,144],[-90.39016,38.81122,144],[-90.39019,38.81122,144],[-90.39024,38.81123,143],[-90.39028,38.81124,142],[-90.39031,38.81126,142],[-90.39034,38.81128,142],[-90.39037,38.8113,142],[-90.39041,38.81132,142],[-90.39045,38.81132,142],[-90.39049,38.81132,142],[-90.39053,38.81132,142],[-90.39056,38.8113,142],[-90.3906,38.81129,142],[-90.39064,38.81127,142],[-90.39068,38.81126,142],[-90.39071,38.81127,142],[-90.39074,38.81128,142],[-90.39077,38.8113,142],[-90.39079,38.81133,142],[-90.39082,38.81136,142],[-90.39085,38.81138,142],[-90.39089,38.81141,142],[-90.39092,38.81143,142],[-90.39095,38.81145,143],[-90.39097,38.81147,143],[-90.39099,38.8115,143],[-90.391,38.81154,143],[-90.39102,38.81157,144],[-90.39104,38.8116,144],[-90.39102,38.81163,145],[-90.39099,38.81165,145],[-90.39097,38.81167,146],[-90.39095,38.8117,146],[-90.39094,38.81173,147],[-90.39092,38.81175,147],[-90.39092,38.81178,147],[-90.39092,38.81182,148],[-90.39092,38.81185,148],[-90.3909,38.81189,149],[-90.3909,38.81192,149],[-90.39089,38.81194,149],[-90.39087,38.81198,149],[-90.39085,38.81201,149],[-90.39083,38.81204,149],[-90.39082,38.81208,149],[-90.39081,38.81211,149],[-90.39081,38.81215,149],[-90.39081,38.81219,149],[-90.3908,38.81222,149],[-90.3908,38.81225,149],[-90.39081,38.81229,148],[-90.39084,38.81231,148],[-90.39087,38.81234,147],[-90.3909,38.81237,146],[-90.39092,38.81239,145],[-90.39094,38.81242,144],[-90.39094,38.81246,143],[-90.39095,38.81249,142],[-90.39095,38.81253,143],[-90.39095,38.81256,144],[-90.39096,38.81259,144],[-90.39098,38.81261,144],[-90.39099,38.81264,145],[-90.391,38.81268,146],[-90.391,38.81271,147],[-90.39099,38.81275,148],[-90.391,38.81279,148],[-90.39101,38.81282,149],[-90.39102,38.81284,149],[-90.39103,38.81287,150],[-90.39105,38.8129,150],[-90.39107,38.81293,151],[-90.39109,38.81296,151],[-90.3911,38.813,152],[-90.39111,38.81303,153],[-90.39112,38.81307,153],[-90.39114,38.81311,153],[-90.39116,38.81314,153],[-90.39118,38.81316,153],[-90.39122,38.81318,152],[-90.39125,38.81321,152],[-90.39127,38.81324,152],[-90.39129,38.81326,152],[-90.39133,38.81328,151],[-90.39137,38.8133,151],[-90.3914,38.81332,150],[-90.39144,38.81334,150],[-90.39146,38.81336,149],[-90.3915,38.81338,148],[-90.39152,38.81341,148],[-90.39155,38.81343,147],[-90.39157,38.81347,146],[-90.39158,38.8135,146],[-90.3916,38.81352,145],[-90.39161,38.81356,145],[-90.39163,38.8136,144],[-90.39164,38.81362,143],[-90.39166,38.81365,143],[-90.39168,38.81368,144],[-90.39169,38.81371,144],[-90.39171,38.81374,144],[-90.39174,38.81376,144],[-90.39177,38.81378,143],[-90.3918,38.8138,142],[-90.39184,38.81383,141],[-90.39188,38.81386,140],[-90.39191,38.81389,139],[-90.39195,38.81392,139],[-90.39197,38.81393,139],[-90.392,38.81395,140],[-90.39203,38.81397,140],[-90.39207,38.81399,141],[-90.39211,38.81401,142],[-90.39214,38.81402,142],[-90.39216,38.81405,143],[-90.39219,38.81408,145],[-90.39223,38.81409,146],[-90.39227,38.81408,145],[-90.39229,38.81405,143],[-90.39231,38.81403,142],[-90.39234,38.81401,141],[-90.39235,38.81398,140],[-90.39237,38.81394,138],[-90.39239,38.81391,137],[-90.39242,38.81387,136],[-90.39243,38.81383,137],[-90.39243,38.81379,137],[-90.39243,38.81375,137],[-90.39244,38.81372,138],[-90.39245,38.81368,138],[-90.39247,38.81365,138],[-90.39248,38.81362,138],[-90.3925,38.81359,138],[-90.39252,38.81356,138],[-90.39254,38.81352,138],[-90.39254,38.81349,137],[-90.39253,38.81347,137],[-90.39251,38.81344,137],[-90.39248,38.81342,137],[-90.39245,38.81339,137],[-90.39242,38.81338,137],[-90.39239,38.81335,137],[-90.39236,38.81332,137],[-90.39232,38.8133,138],[-90.39228,38.81329,138],[-90.39224,38.81327,138],[-90.39219,38.81326,138],[-90.39216,38.81325,139],[-90.39212,38.81322,139],[-90.39208,38.81321,139],[-90.39204,38.81318,139],[-90.39202,38.81316,139],[-90.39199,38.81313,139],[-90.39196,38.8131,139],[-90.39192,38.81307,139],[-90.39189,38.81304,139],[-90.39186,38.81302,139],[-90.39184,38.81299,139],[-90.39181,38.81296,139],[-90.39177,38.81294,139],[-90.39173,38.81292,140],[-90.3917,38.8129,140],[-90.39166,38.81288,140],[-90.39162,38.81287,141],[-90.39158,38.81287,141],[-90.39155,38.81284,141],[-90.39154,38.8128,141],[-90.39153,38.81277,140],[-90.39153,38.81273,139],[-90.39153,38.8127,139],[-90.39153,38.81266,138],[-90.39154,38.81262,137],[-90.39155,38.8126,137],[-90.39157,38.81257,136],[-90.39159,38.81254,135],[-90.39161,38.81251,135],[-90.39163,38.81249,135],[-90.39164,38.81246,135],[-90.39166,38.81244,135],[-90.39168,38.81241,135],[-90.39171,38.81237,136],[-90.39173,38.81235,136],[-90.39176,38.81232,136],[-90.39179,38.81229,136],[-90.39183,38.81226,137],[-90.39186,38.81224,137],[-90.39189,38.81222,137],[-90.39192,38.81221,137],[-90.39196,38.81219,137],[-90.392,38.81219,136],[-90.39205,38.81219,136],[-90.39208,38.8122,136],[-90.39212,38.81221,136],[-90.39217,38.81222,136],[-90.3922,38.81224,136],[-90.39223,38.81226,135],[-90.39226,38.81228,135],[-90.39229,38.81229,135],[-90.39232,38.81231,135],[-90.39234,38.81233,135],[-90.39237,38.81235,135],[-90.3924,38.81237,135],[-90.39243,38.81239,135],[-90.39247,38.81241,135],[-90.3925,38.81244,135],[-90.39253,38.81246,135],[-90.39256,38.81248,135],[-90.39259,38.8125,135],[-90.39264,38.81252,135],[-90.39268,38.81254,134],[-90.3927,38.81256,134],[-90.39274,38.81258,134],[-90.39277,38.81259,134],[-90.39281,38.81261,134],[-90.39285,38.81262,134],[-90.39289,38.81264,134],[-90.39292,38.81265,134],[-90.39295,38.81267,134],[-90.39298,38.81269,134],[-90.39301,38.81271,134],[-90.39304,38.81272,134],[-90.39307,38.81274,134],[-90.3931,38.81276,134],[-90.39313,38.81278,134],[-90.39316,38.81281,134],[-90.39319,38.81283,134],[-90.39323,38.81285,134],[-90.39326,38.81287,134],[-90.39329,38.81289,134],[-90.39333,38.81291,134],[-90.39336,38.81293,133],[-90.39339,38.81294,133],[-90.39342,38.81296,133],[-90.39346,38.81298,133],[-90.39351,38.813,132],[-90.39354,38.81302,132],[-90.39357,38.81305,132],[-90.39359,38.81307,132],[-90.39361,38.81309,132],[-90.39364,38.81312,132],[-90.39366,38.81315,132],[-90.39368,38.81318,132],[-90.3937,38.81321,132],[-90.39374,38.81323,132],[-90.39378,38.81325,132],[-90.39381,38.81326,132],[-90.39385,38.81327,132],[-90.39389,38.81329,132],[-90.39392,38.81331,132],[-90.39396,38.81333,132],[-90.394,38.81334,132],[-90.39403,38.81336,132],[-90.39406,38.8134,132],[-90.3941,38.81343,132],[-90.39412,38.81345,132],[-90.39414,38.81347,132],[-90.39417,38.81349,133],[-90.39419,38.81351,133],[-90.39422,38.81353,133],[-90.39425,38.81355,133],[-90.39428,38.81358,133],[-90.39431,38.8136,133],[-90.39434,38.81362,133],[-90.39437,38.81364,133],[-90.3944,38.81365,133],[-90.39443,38.81367,133],[-90.39448,38.81369,134],[-90.39453,38.81371,134],[-90.39456,38.81372,134],[-90.3946,38.81374,134],[-90.39463,38.81376,134],[-90.39466,38.81378,135],[-90.39437,38.81366,133],[-90.39434,38.81363,133],[-90.39431,38.81361,133],[-90.39428,38.81358,133],[-90.39427,38.81356,133],[-90.39425,38.81353,133],[-90.39423,38.81351,133],[-90.3942,38.81348,133],[-90.39417,38.81347,133],[-90.39414,38.81345,132],[-90.39411,38.81343,132],[-90.39408,38.81341,132],[-90.39405,38.81338,132],[-90.39401,38.81335,132],[-90.39397,38.81333,132],[-90.39393,38.81331,132],[-90.39389,38.8133,132],[-90.39386,38.81328,132],[-90.39382,38.81326,132],[-90.39378,38.81324,132],[-90.39376,38.81322,132],[-90.39374,38.81319,132],[-90.39372,38.81316,132],[-90.39368,38.81316,132],[-90.39364,38.81316,132],[-90.39361,38.81314,132],[-90.39358,38.81311,132],[-90.39356,38.81307,132],[-90.39354,38.81303,132],[-90.39352,38.813,132],[-90.39352,38.81297,132],[-90.39352,38.81294,133],[-90.39353,38.81291,133],[-90.39355,38.81287,133],[-90.39359,38.81284,133],[-90.39362,38.81283,133],[-90.39365,38.81281,133],[-90.39368,38.81278,133],[-90.39371,38.81275,134],[-90.39375,38.81273,134],[-90.39379,38.8127,134],[-90.39382,38.81268,134],[-90.39385,38.81266,135],[-90.39388,38.81264,135],[-90.3939,38.81261,135],[-90.39393,38.81259,135],[-90.39396,38.81257,136],[-90.39399,38.81255,136],[-90.39402,38.81252,136],[-90.39404,38.81249,137],[-90.39407,38.81247,137],[-90.39409,38.81245,137],[-90.39412,38.81243,137],[-90.39414,38.81241,137],[-90.39417,38.81239,137],[-90.39419,38.81236,137],[-90.39422,38.81234,137],[-90.39424,38.81232,137],[-90.39427,38.81229,137],[-90.39429,38.81227,137],[-90.39431,38.81225,137],[-90.39434,38.81222,138],[-90.39436,38.8122,138],[-90.39439,38.81218,138],[-90.39442,38.81216,138],[-90.39445,38.81215,137],[-90.39448,38.81213,137],[-90.39451,38.8121,137],[-90.39454,38.81209,137],[-90.39457,38.81207,137],[-90.3946,38.81205,137],[-90.39462,38.81203,137],[-90.39465,38.812,137],[-90.39467,38.81198,137],[-90.39469,38.81196,137],[-90.39471,38.81193,136],[-90.39474,38.81191,136],[-90.39477,38.81188,135],[-90.39479,38.81186,135],[-90.39482,38.81184,135],[-90.39485,38.81181,134],[-90.39506,38.81165,132],[-90.39509,38.81163,132],[-90.39513,38.81161,132],[-90.39515,38.81159,132]]],
        "bbox": [
          -90.38752,
          38.81567,
          -90.39515,
          38.81121
        ]
      },
      "properties": {
        "name": "5.30.2020"
      }
    }
  ]
}