{
  "type": "FeatureCollection",
  "features": [
    {
      "type": "Feature",
      "geometry": {
        "type": "MultiLineString",
        "coordinates": [[[-90.39476,38.81191,136],[-90.39473,38.81193,136],[-90.3947,38.81195,137],[-90.39467,38.81197,137],[-90.39465,38.81199,137],[-90.39463,38.81202,137],[-90.39461,38.81204,137],[-90.39458,38.81206,137],[-90.39455,38.81208,137],[-90.39453,38.81211,137],[-90.3945,38.81212,137],[-90.39447,38.81214,137],[-90.39444,38.81215,138],[-90.39447,38.81216,137],[-90.39444,38.81214,138],[-90.3944,38.81214,138],[-90.39436,38.81218,138],[-90.39434,38.81221,138],[-90.39433,38.81224,137],[-90.3943,38.81227,137],[-90.39427,38.81229,137],[-90.39423,38.81231,137],[-90.39421,38.81233,137],[-90.39418,38.81235,137],[-90.39414,38.81237,137],[-90.39411,38.81238,137],[-90.39408,38.81241,137],[-90.39406,38.81244,137],[-90.39404,38.81246,137],[-90.394,38.81249,137],[-90.39397,38.81251,136],[-90.39393,38.81254,136],[-90.39389,38.81256,136],[-90.39386,38.81259,135],[-90.39383,38.81261,135],[-90.3938,38.81262,135],[-90.39376,38.81264,135],[-90.39374,38.81266,135],[-90.39369,38.81269,134],[-90.39366,38.81271,134],[-90.39363,38.81273,134],[-90.39359,38.81276,134],[-90.39356,38.81278,134],[-90.39353,38.8128,134],[-90.39349,38.81282,134],[-90.39345,38.81284,134],[-90.39341,38.81285,134],[-90.39337,38.81287,134],[-90.39334,38.81289,134],[-90.39331,38.81292,133],[-90.39328,38.81294,133],[-90.39326,38.81297,133],[-90.39323,38.81299,133],[-90.39319,38.813,133],[-90.39315,38.81302,133],[-90.39312,38.81304,133],[-90.39309,38.81307,132],[-90.39306,38.81309,132],[-90.39302,38.81311,133],[-90.39299,38.81314,133],[-90.39295,38.81315,133],[-90.39295,38.81319,133],[-90.39293,38.81323,133],[-90.39291,38.81328,133],[-90.39287,38.8133,134],[-90.39283,38.81332,134],[-90.3928,38.81335,135],[-90.39277,38.81338,135],[-90.39273,38.8134,136],[-90.39269,38.81342,136],[-90.39265,38.81344,136],[-90.39264,38.81347,137],[-90.39263,38.8135,137],[-90.39261,38.81352,137],[-90.3926,38.81356,138],[-90.39259,38.81359,138],[-90.39257,38.81362,138],[-90.39256,38.81366,138],[-90.39255,38.81369,138],[-90.39254,38.81372,138],[-90.39254,38.81376,138],[-90.3925,38.81379,138],[-90.39248,38.81383,137],[-90.39246,38.81386,137],[-90.39245,38.81389,137],[-90.39239,38.81392,137],[-90.39236,38.81395,138],[-90.39233,38.81398,140],[-90.39229,38.814,140],[-90.39225,38.81401,141],[-90.39221,38.81404,142],[-90.39219,38.81408,145],[-90.39223,38.81412,148],[-90.39226,38.81413,148],[-90.39226,38.81417,150],[-90.39231,38.81419,151],[-90.39235,38.8142,151],[-90.39239,38.81421,151],[-90.39246,38.81423,151],[-90.3925,38.81424,151],[-90.39253,38.81427,151],[-90.39257,38.81429,151],[-90.39261,38.8143,151],[-90.39265,38.81433,151],[-90.39269,38.81436,152],[-90.39272,38.81439,152],[-90.39274,38.81443,153],[-90.39276,38.81447,153],[-90.3928,38.81449,152],[-90.39285,38.81449,151],[-90.3929,38.81451,150],[-90.39293,38.81454,149],[-90.39296,38.81456,148],[-90.39297,38.81459,148],[-90.39298,38.81462,147],[-90.39302,38.81466,146],[-90.39303,38.8147,146],[-90.39304,38.81474,146],[-90.39305,38.81478,146],[-90.39305,38.81482,146],[-90.39304,38.81487,147],[-90.39306,38.8149,147],[-90.39307,38.81494,147],[-90.39311,38.81498,146],[-90.39314,38.81501,146],[-90.39316,38.81503,145],[-90.39319,38.81502,144],[-90.39319,38.81506,144],[-90.39321,38.8151,143],[-90.3932,38.81514,143],[-90.39319,38.81518,143],[-90.39317,38.81521,143],[-90.39315,38.81525,143],[-90.39313,38.81528,144],[-90.3931,38.81533,143],[-90.39307,38.81535,143],[-90.39305,38.81537,143],[-90.39302,38.8154,143],[-90.393,38.81543,142],[-90.39297,38.81545,142],[-90.39293,38.81547,143],[-90.39288,38.81548,144],[-90.39283,38.8155,145],[-90.39279,38.81551,145],[-90.39277,38.81554,145],[-90.39274,38.81558,146],[-90.39269,38.81559,147],[-90.39265,38.81562,148],[-90.39262,38.81566,149],[-90.39261,38.81569,148],[-90.39259,38.81572,148],[-90.39257,38.81577,148],[-90.39256,38.81581,147],[-90.39261,38.81584,145],[-90.39263,38.81589,144],[-90.39266,38.81592,143],[-90.39269,38.81595,142],[-90.3927,38.81598,142],[-90.39266,38.81601,143],[-90.39263,38.81603,144],[-90.3926,38.81606,145],[-90.39258,38.81609,146],[-90.39257,38.81613,146],[-90.39261,38.81612,145],[-90.39265,38.81613,143],[-90.39263,38.81615,144],[-90.3926,38.81617,144],[-90.39259,38.8162,144],[-90.39256,38.81617,145],[-90.39255,38.81613,147],[-90.3926,38.81614,145],[-90.39262,38.81617,144],[-90.39259,38.81619,144],[-90.39255,38.81619,145],[-90.3925,38.8162,147],[-90.39245,38.8162,148],[-90.39241,38.81622,149],[-90.3924,38.81625,148],[-90.39238,38.81629,148],[-90.39236,38.81633,147],[-90.39237,38.81636,146],[-90.39232,38.81634,148],[-90.39236,38.81636,146],[-90.39232,38.81635,148],[-90.39233,38.81639,146],[-90.39234,38.81642,146],[-90.39232,38.81646,146],[-90.39228,38.81648,146],[-90.39224,38.81651,147],[-90.39223,38.81655,147],[-90.39221,38.81659,147],[-90.39219,38.81662,147],[-90.39215,38.81664,147],[-90.3921,38.81665,148],[-90.39207,38.81669,148],[-90.39206,38.81672,148],[-90.39203,38.81674,149],[-90.39199,38.81676,149],[-90.39195,38.81679,149],[-90.39193,38.81682,150],[-90.39191,38.81685,149],[-90.39187,38.81687,149],[-90.39184,38.81689,149],[-90.3918,38.81691,149],[-90.39179,38.81694,148],[-90.39176,38.81697,147],[-90.39179,38.81695,148],[-90.39181,38.81698,147],[-90.39177,38.81698,147],[-90.39173,38.81699,146],[-90.39168,38.817,145],[-90.39164,38.81702,145],[-90.39161,38.81704,145],[-90.39156,38.81706,145],[-90.39153,38.81708,144],[-90.39148,38.81707,146],[-90.39143,38.81708,146],[-90.39141,38.81711,145],[-90.39135,38.81712,146],[-90.39131,38.81715,145],[-90.39128,38.81718,144],[-90.39123,38.8172,144],[-90.39119,38.81723,144],[-90.39112,38.81723,145],[-90.39109,38.81727,145],[-90.39107,38.81731,144],[-90.39105,38.81734,143],[-90.39102,38.81738,143],[-90.39098,38.81742,142],[-90.39095,38.81746,141],[-90.39091,38.81748,141],[-90.39088,38.81746,142],[-90.39091,38.81748,141],[-90.39095,38.81746,141],[-90.39098,38.81744,142],[-90.39101,38.81743,142],[-90.39105,38.81744,141],[-90.39106,38.81747,140],[-90.39101,38.81748,140],[-90.39097,38.81749,140],[-90.39094,38.81751,140],[-90.3909,38.81754,140],[-90.39086,38.81755,140],[-90.39085,38.81759,140],[-90.39082,38.81762,139],[-90.39079,38.81764,140],[-90.39076,38.81767,139],[-90.39074,38.8177,139],[-90.39072,38.81772,139],[-90.39069,38.81771,139],[-90.39057,38.81767,142],[-90.39053,38.81767,142],[-90.3905,38.81768,142],[-90.39047,38.81769,142],[-90.39043,38.81769,143],[-90.39041,38.81766,144],[-90.39042,38.81762,144],[-90.39043,38.8176,145],[-90.39046,38.81756,145],[-90.39045,38.81753,146],[-90.39043,38.81749,147],[-90.39043,38.81745,148],[-90.39043,38.81741,150],[-90.39048,38.81739,150],[-90.39052,38.81737,150],[-90.39057,38.81737,150],[-90.39059,38.81734,151],[-90.39058,38.8173,152],[-90.39055,38.81731,152],[-90.39052,38.81728,154],[-90.3905,38.81724,155],[-90.39052,38.8172,156],[-90.39049,38.81718,157],[-90.39048,38.81722,156],[-90.39048,38.81726,154],[-90.39048,38.81721,156],[-90.3905,38.81717,157],[-90.39048,38.81713,159],[-90.39052,38.8171,160],[-90.39055,38.81706,161],[-90.39057,38.81703,161],[-90.39055,38.81698,163],[-90.39053,38.81696,164],[-90.39051,38.81692,165],[-90.39048,38.81688,166],[-90.39048,38.81684,166],[-90.39051,38.81681,166],[-90.39057,38.81681,166],[-90.39062,38.81681,165],[-90.39066,38.81679,165],[-90.39072,38.81678,165],[-90.39075,38.81675,166],[-90.39079,38.81674,165],[-90.39083,38.81675,165],[-90.39087,38.81675,165],[-90.39091,38.81676,164],[-90.39096,38.81674,164],[-90.391,38.81674,164],[-90.39099,38.81669,165],[-90.391,38.81664,167],[-90.39084,38.81657,169],[-90.39094,38.81665,167],[-90.39101,38.81672,165],[-90.39107,38.81678,163],[-90.3911,38.81685,160],[-90.39116,38.81688,159],[-90.39118,38.81682,160],[-90.39124,38.81678,160],[-90.39129,38.81674,161],[-90.39133,38.81671,161],[-90.39135,38.81667,162],[-90.39141,38.81665,162],[-90.39143,38.81661,162],[-90.39148,38.8166,162],[-90.3915,38.81657,162],[-90.39153,38.81658,161],[-90.39157,38.81656,161],[-90.39158,38.81654,161],[-90.39154,38.81654,162],[-90.39149,38.81654,163],[-90.39145,38.81656,164],[-90.39141,38.81658,164],[-90.39152,38.81651,164],[-90.39154,38.81648,164],[-90.39156,38.81645,164],[-90.39158,38.81642,165],[-90.3916,38.81639,165],[-90.39162,38.81637,165],[-90.39165,38.81634,166],[-90.39169,38.81634,164],[-90.39174,38.81631,164],[-90.39176,38.81628,165],[-90.39176,38.81625,166],[-90.39176,38.81622,167],[-90.39177,38.81618,168],[-90.39178,38.81615,169],[-90.39178,38.81612,170],[-90.39179,38.81608,171],[-90.39182,38.81604,171],[-90.39183,38.81601,171],[-90.39183,38.81598,172],[-90.39183,38.81593,173],[-90.39183,38.81588,174],[-90.39182,38.81584,175],[-90.39182,38.8158,176],[-90.39181,38.81575,177],[-90.39179,38.81571,178],[-90.39175,38.81569,179],[-90.3917,38.81567,180],[-90.39166,38.81565,181],[-90.39162,38.81562,182],[-90.39159,38.81559,183],[-90.39155,38.81557,183],[-90.39151,38.81553,184],[-90.39146,38.8155,184],[-90.39142,38.81549,184],[-90.39136,38.81549,185],[-90.39132,38.81547,185],[-90.39128,38.81545,185],[-90.39124,38.81544,185],[-90.39118,38.81543,186],[-90.39114,38.81542,186],[-90.39109,38.81545,186],[-90.39104,38.81546,186],[-90.391,38.81549,185],[-90.39094,38.8155,185],[-90.39089,38.81551,185],[-90.39084,38.81553,185],[-90.3908,38.81554,184],[-90.39077,38.81557,184],[-90.39073,38.81557,183],[-90.39067,38.81555,183],[-90.39063,38.81555,182],[-90.39057,38.81552,182],[-90.39054,38.81552,182],[-90.39049,38.81552,181],[-90.39045,38.81552,180],[-90.3904,38.8155,180],[-90.39036,38.81548,180],[-90.39031,38.81545,179],[-90.39025,38.81544,179],[-90.3902,38.81542,179],[-90.39015,38.81539,180],[-90.3901,38.81536,180],[-90.39005,38.81536,180],[-90.38999,38.81533,181],[-90.38995,38.81529,181],[-90.38988,38.81526,182],[-90.38984,38.81523,183],[-90.3898,38.81521,184],[-90.38977,38.81516,185],[-90.38971,38.81513,186],[-90.38968,38.81509,187],[-90.38964,38.81505,187],[-90.3896,38.81501,188],[-90.38957,38.81497,188],[-90.38954,38.81493,189],[-90.38953,38.81488,189],[-90.38949,38.81484,189],[-90.38947,38.81479,190],[-90.38946,38.81474,190],[-90.38945,38.81469,190],[-90.38946,38.81465,190],[-90.38949,38.81462,190],[-90.38951,38.81458,190],[-90.3895,38.81454,190],[-90.3895,38.81449,190],[-90.3895,38.81445,189],[-90.38948,38.81441,189],[-90.38945,38.81437,189],[-90.3894,38.81435,189],[-90.38935,38.81433,190],[-90.38931,38.81431,190],[-90.38924,38.81429,191],[-90.38918,38.81428,192],[-90.38913,38.81426,192],[-90.38908,38.81424,192],[-90.38903,38.81423,192],[-90.38898,38.81421,192],[-90.38892,38.8142,192],[-90.38886,38.81421,193],[-90.38882,38.81418,194],[-90.38876,38.81416,194],[-90.38872,38.81414,195],[-90.38866,38.8141,195],[-90.38861,38.81408,196],[-90.38854,38.81406,196],[-90.38849,38.81403,197],[-90.38843,38.81401,197],[-90.38839,38.81401,197],[-90.38833,38.81399,198],[-90.38829,38.81396,198],[-90.38825,38.81393,198],[-90.3882,38.81392,198],[-90.38815,38.81392,198],[-90.38809,38.81393,199],[-90.38803,38.81394,199],[-90.38798,38.81393,199],[-90.38793,38.81393,199],[-90.38788,38.81393,199],[-90.38783,38.81394,199],[-90.38778,38.81396,199],[-90.38774,38.81397,200],[-90.3877,38.81398,200],[-90.38765,38.81396,200],[-90.38761,38.81395,200],[-90.38756,38.81395,200],[-90.38751,38.81394,200],[-90.38748,38.81391,200],[-90.38746,38.81388,199],[-90.38745,38.81384,199],[-90.38745,38.8138,198],[-90.38745,38.81377,198],[-90.38746,38.81374,197],[-90.38749,38.81372,197],[-90.38752,38.81369,197],[-90.38754,38.81366,196],[-90.38755,38.81364,196],[-90.38756,38.81361,196],[-90.38757,38.81357,196],[-90.38757,38.81354,196],[-90.38757,38.8135,195],[-90.38758,38.81346,195],[-90.38759,38.81343,195],[-90.38761,38.81339,195],[-90.38762,38.81334,194],[-90.38765,38.81331,194],[-90.38768,38.81328,194],[-90.38773,38.81328,195],[-90.38777,38.81328,195],[-90.38781,38.81329,195],[-90.38786,38.81329,195],[-90.38789,38.81327,195],[-90.38793,38.81326,194],[-90.38797,38.81323,194],[-90.38798,38.8132,193],[-90.38801,38.81317,193],[-90.38804,38.81314,192],[-90.38805,38.8131,191],[-90.38808,38.81307,190],[-90.38809,38.81304,190],[-90.38812,38.81301,188],[-90.38813,38.81297,188],[-90.38813,38.81293,187],[-90.38813,38.8129,187],[-90.38813,38.81285,186],[-90.38813,38.81282,186],[-90.38815,38.81279,185],[-90.38819,38.81278,184],[-90.38823,38.81277,182],[-90.38827,38.81276,181],[-90.3883,38.81273,180],[-90.38834,38.81273,178],[-90.38838,38.81272,177],[-90.38842,38.81271,175],[-90.38846,38.81271,174],[-90.38843,38.81268,175],[-90.38847,38.81268,173],[-90.38851,38.81266,172],[-90.38853,38.81263,171],[-90.38856,38.8126,170],[-90.38858,38.81257,170],[-90.38863,38.81255,168],[-90.38866,38.81252,168],[-90.38868,38.81248,167],[-90.38869,38.81244,166],[-90.38864,38.81241,166],[-90.38866,38.81237,166],[-90.38869,38.81233,165],[-90.38869,38.81229,164],[-90.38873,38.81228,163],[-90.38876,38.81226,163],[-90.38881,38.81225,162],[-90.38881,38.81221,162],[-90.38884,38.81219,161],[-90.38889,38.81217,160],[-90.38886,38.81212,160],[-90.38883,38.81208,160],[-90.3888,38.81205,160],[-90.38875,38.81203,160],[-90.38871,38.81201,160],[-90.38868,38.81195,160],[-90.38863,38.81196,161],[-90.38861,38.81199,162],[-90.3886,38.81202,162],[-90.38864,38.81201,162],[-90.38861,38.81204,162],[-90.38857,38.81183,163],[-90.38857,38.8118,164],[-90.38861,38.81177,163],[-90.38864,38.81174,163],[-90.38866,38.81171,163],[-90.3887,38.81168,163],[-90.38874,38.81166,162],[-90.38878,38.81165,161],[-90.38881,38.81163,161],[-90.38883,38.8116,160],[-90.38881,38.81156,160],[-90.38883,38.81153,160],[-90.38887,38.81151,159],[-90.3889,38.81148,158],[-90.38894,38.8115,157],[-90.38899,38.81151,156],[-90.38903,38.81153,155],[-90.38908,38.81153,154],[-90.38913,38.81155,152],[-90.38918,38.81153,152],[-90.3892,38.81149,152],[-90.3892,38.81144,152],[-90.38924,38.8114,152],[-90.3893,38.81138,152],[-90.38934,38.81137,152],[-90.38938,38.81137,152],[-90.38943,38.81136,152],[-90.38945,38.81132,151],[-90.38945,38.81128,151],[-90.38949,38.81125,151],[-90.38953,38.81122,151],[-90.38957,38.81119,151],[-90.38962,38.81118,151],[-90.38967,38.81118,150],[-90.38972,38.8112,150],[-90.38978,38.8112,149],[-90.38984,38.8112,148],[-90.38987,38.81116,148],[-90.38991,38.81115,148],[-90.38996,38.81114,147],[-90.39001,38.81115,146],[-90.39008,38.81115,145],[-90.39012,38.81116,145],[-90.39017,38.81116,144],[-90.39023,38.81117,143],[-90.39029,38.81119,142],[-90.39034,38.81118,142],[-90.39038,38.81118,142],[-90.39042,38.81119,142],[-90.39046,38.81118,142],[-90.3905,38.8112,142],[-90.39053,38.81123,142],[-90.39056,38.81126,142],[-90.39059,38.81129,142]],[[-90.39066,38.81128,142],[-90.39068,38.81123,142],[-90.39072,38.81122,142],[-90.39076,38.8112,141],[-90.3908,38.8112,141],[-90.39084,38.81119,141],[-90.39087,38.81122,141],[-90.3909,38.81122,141],[-90.39092,38.81124,141],[-90.39096,38.81128,141],[-90.39099,38.81129,140],[-90.39101,38.81131,141],[-90.39104,38.81134,141],[-90.39107,38.81136,141],[-90.39108,38.81141,141],[-90.39109,38.81144,141],[-90.39112,38.81146,141],[-90.39114,38.8115,142],[-90.39115,38.81153,142],[-90.39112,38.81157,143],[-90.3911,38.8116,144],[-90.39106,38.81162,144],[-90.39102,38.81164,145],[-90.39098,38.81166,145],[-90.39095,38.81169,146],[-90.39093,38.81172,147],[-90.39091,38.81175,147],[-90.39088,38.81178,147],[-90.39088,38.81181,148],[-90.3909,38.81184,148],[-90.39092,38.81187,149],[-90.39093,38.81191,149],[-90.39095,38.81195,150],[-90.39096,38.81198,150],[-90.39094,38.81203,149],[-90.39097,38.81206,150],[-90.391,38.81209,150],[-90.39101,38.81212,149],[-90.39098,38.81215,149],[-90.39093,38.81217,149],[-90.39089,38.81217,149],[-90.39087,38.81215,149]],[[-90.39086,38.8121,149],[-90.39084,38.81214,149],[-90.39085,38.81218,149],[-90.39089,38.81221,149],[-90.39092,38.81224,149],[-90.3909,38.81229,148],[-90.39092,38.81233,147],[-90.3909,38.81237,146],[-90.39093,38.8124,145],[-90.39098,38.8124,144],[-90.39101,38.81242,144],[-90.39099,38.81246,143],[-90.39101,38.81248,142],[-90.39102,38.81251,142],[-90.39104,38.81254,142],[-90.39104,38.81257,143],[-90.39104,38.81261,144],[-90.39104,38.81264,144],[-90.39105,38.81268,145],[-90.39106,38.81273,146],[-90.39105,38.81277,147],[-90.3911,38.81282,148],[-90.39115,38.81284,147],[-90.39116,38.81288,148],[-90.39119,38.81292,149],[-90.3912,38.81296,150],[-90.39123,38.813,150],[-90.39126,38.81303,151],[-90.39126,38.81307,151],[-90.39127,38.81311,151],[-90.3913,38.81315,151],[-90.39135,38.81317,150],[-90.39138,38.81319,150],[-90.39139,38.81322,150],[-90.39147,38.81322,149],[-90.39146,38.81325,149],[-90.3915,38.81327,148],[-90.39153,38.8133,148],[-90.39156,38.81332,148],[-90.39159,38.81333,148],[-90.39163,38.81335,147],[-90.39165,38.81338,146],[-90.39169,38.81339,145],[-90.39169,38.81342,145],[-90.3917,38.81345,144],[-90.39172,38.81349,144],[-90.39171,38.81352,143],[-90.3917,38.81355,143],[-90.39171,38.81358,143],[-90.39174,38.8136,142],[-90.39177,38.81363,142],[-90.39179,38.81366,142],[-90.39179,38.8137,142],[-90.39181,38.81373,142],[-90.39183,38.81376,141],[-90.39186,38.81377,141],[-90.3919,38.8138,140],[-90.39195,38.81379,138],[-90.392,38.8138,138],[-90.39202,38.81383,137],[-90.39205,38.81386,136],[-90.39208,38.8139,136],[-90.39212,38.81392,136],[-90.39217,38.81395,137],[-90.3922,38.81398,139],[-90.39224,38.81401,141],[-90.39228,38.81404,143],[-90.39232,38.81404,143],[-90.39238,38.81403,143],[-90.39242,38.81401,142],[-90.39245,38.81397,140],[-90.39249,38.81394,139],[-90.39252,38.81391,139],[-90.39252,38.81387,138],[-90.39255,38.81383,138],[-90.39255,38.8138,138]],[[-90.39245,38.81379,137],[-90.39249,38.81377,138],[-90.39252,38.81374,138],[-90.39255,38.81372,138],[-90.39259,38.81368,138],[-90.39258,38.81364,138],[-90.39265,38.81361,138],[-90.39265,38.81358,138],[-90.39264,38.81355,137],[-90.39265,38.81351,137],[-90.39267,38.81348,137],[-90.39269,38.81346,136],[-90.39271,38.81343,136],[-90.39274,38.8134,135],[-90.39279,38.81339,135],[-90.39284,38.81336,134],[-90.39287,38.81332,134],[-90.39293,38.81331,133],[-90.393,38.81328,133],[-90.39303,38.81324,133],[-90.39306,38.81319,132],[-90.39307,38.81315,132],[-90.39311,38.81312,132],[-90.39316,38.81308,132],[-90.39321,38.81306,132],[-90.39324,38.81303,133],[-90.39328,38.813,133],[-90.39332,38.81298,133],[-90.39335,38.81294,133],[-90.39339,38.81292,133],[-90.39343,38.8129,133],[-90.39348,38.81289,133],[-90.39352,38.81288,133],[-90.39356,38.81286,133],[-90.39357,38.81283,133],[-90.39361,38.81281,133],[-90.39363,38.81278,133],[-90.39366,38.81277,134],[-90.3937,38.81274,134],[-90.39373,38.81272,134],[-90.39376,38.81268,134],[-90.39378,38.81266,135],[-90.39382,38.81265,135],[-90.39386,38.81264,135],[-90.39389,38.81262,135],[-90.39391,38.81259,135],[-90.39395,38.81256,136],[-90.39398,38.81254,136],[-90.39401,38.81252,136],[-90.39403,38.81249,137],[-90.39406,38.81247,137],[-90.3941,38.81246,137],[-90.39413,38.81243,137],[-90.39416,38.81241,137],[-90.39419,38.81239,137],[-90.39421,38.81237,137],[-90.39425,38.81236,137],[-90.39428,38.81232,137],[-90.39431,38.81229,137],[-90.39435,38.81226,137],[-90.39437,38.81224,137],[-90.3944,38.8122,138],[-90.39442,38.81217,138],[-90.39444,38.81215,138],[-90.39446,38.81212,137],[-90.39451,38.81206,137],[-90.39454,38.81204,137],[-90.39457,38.81202,137],[-90.3946,38.81199,137],[-90.39464,38.81196,137],[-90.39467,38.81194,137],[-90.39471,38.81192,136],[-90.39474,38.8119,136],[-90.39478,38.81189,136],[-90.39481,38.81187,135],[-90.39484,38.81184,135],[-90.39485,38.81181,134],[-90.39489,38.81179,134],[-90.39492,38.81177,134],[-90.39495,38.81174,133],[-90.39498,38.81172,133],[-90.39501,38.8117,133],[-90.39505,38.81169,133],[-90.39508,38.81169,133],[-90.39512,38.8117,133],[-90.39516,38.81171,133],[-90.39516,38.81168,133],[-90.39513,38.81165,132],[-90.39509,38.81167,133],[-90.39504,38.81166,132],[-90.39505,38.81163,132],[-90.39508,38.81164,132],[-90.39506,38.81168,133],[-90.39506,38.81164,132],[-90.39499,38.81163,132],[-90.39501,38.81166,132],[-90.39505,38.81168,133],[-90.39502,38.81164,132],[-90.39503,38.81167,133],[-90.39499,38.81167,133],[-90.39501,38.8117,133],[-90.39504,38.81169,133],[-90.39508,38.81169,133],[-90.39504,38.81167,133],[-90.39497,38.81168,133],[-90.39501,38.81168,133],[-90.39504,38.81167,133],[-90.39508,38.81171,133],[-90.39505,38.81169,133],[-90.395,38.81168,133],[-90.39502,38.81166,132],[-90.39505,38.81167,133],[-90.39508,38.81162,132],[-90.39508,38.81165,132],[-90.39506,38.81167,133],[-90.39502,38.81166,132],[-90.39498,38.81165,133],[-90.39502,38.81165,132]]],
        "bbox": [
          -90.38745,
          38.81772,
          -90.39516,
          38.81114
        ]
      },
      "properties": {
        "name": "5.17.2020A"
      }
    }
  ]
}