{
  "type": "FeatureCollection",
  "features": [
    {
      "type": "Feature",
      "geometry": {
        "type": "MultiLineString",
        "coordinates": [[[-90.39075,38.81088,139],[-90.39078,38.81091,139],[-90.39081,38.81094,139],[-90.39082,38.81097,139],[-90.39082,38.811,139],[-90.39083,38.81103,140],[-90.39083,38.81106,140],[-90.39083,38.8111,140],[-90.39082,38.81113,141],[-90.39082,38.81116,141],[-90.39081,38.81119,141],[-90.39078,38.81121,141],[-90.39074,38.81123,142],[-90.39071,38.81125,142],[-90.39068,38.81127,142],[-90.39065,38.81129,142],[-90.39061,38.8113,142],[-90.39057,38.8113,142],[-90.39053,38.8113,142],[-90.39049,38.81128,142],[-90.39044,38.81125,142],[-90.3904,38.81124,142],[-90.39036,38.81123,142],[-90.39033,38.81122,142],[-90.39029,38.81121,142],[-90.39025,38.81121,143],[-90.39021,38.81122,143],[-90.39017,38.81122,144],[-90.39013,38.81122,144],[-90.39009,38.81121,145],[-90.39005,38.8112,145],[-90.39001,38.8112,146],[-90.38997,38.81119,146],[-90.38993,38.81118,147],[-90.38988,38.8112,148],[-90.38985,38.81122,148],[-90.38982,38.81123,149],[-90.38978,38.81124,149],[-90.38974,38.81124,150],[-90.3897,38.81123,150],[-90.38966,38.81122,150],[-90.38961,38.81122,151],[-90.38957,38.81123,151],[-90.38954,38.81124,151],[-90.38951,38.81127,151],[-90.38949,38.8113,151],[-90.38946,38.81132,151],[-90.38944,38.81134,152],[-90.38942,38.81137,152],[-90.38941,38.8114,152],[-90.38939,38.81142,152],[-90.38935,38.81143,152],[-90.3893,38.81142,152],[-90.38926,38.81142,152],[-90.38923,38.81145,152],[-90.38922,38.81148,152],[-90.38919,38.8115,152],[-90.38916,38.81152,152],[-90.38912,38.81154,153],[-90.38909,38.81155,153],[-90.38905,38.81156,154],[-90.38902,38.81157,155],[-90.38898,38.81158,157],[-90.38894,38.81158,158],[-90.38891,38.8116,158],[-90.38888,38.81161,159],[-90.38884,38.81161,160],[-90.38882,38.81164,161],[-90.38882,38.81166,161],[-90.3888,38.81169,161],[-90.38877,38.81171,161],[-90.38875,38.81173,161],[-90.38872,38.81175,162],[-90.38869,38.81177,162],[-90.38866,38.81179,162],[-90.38864,38.81182,162],[-90.38863,38.81185,162],[-90.38862,38.81187,162],[-90.38863,38.81191,161],[-90.38865,38.81194,161],[-90.38868,38.81196,160],[-90.38871,38.81199,160],[-90.38873,38.81201,160],[-90.38876,38.81203,160],[-90.38879,38.81205,160],[-90.38882,38.81207,160],[-90.38883,38.81211,160],[-90.38884,38.81213,160],[-90.38884,38.81216,161],[-90.38884,38.81219,161],[-90.38883,38.81223,162],[-90.38882,38.81226,162],[-90.3888,38.81228,163],[-90.38877,38.81231,163],[-90.38874,38.81233,164],[-90.3887,38.81234,165],[-90.38869,38.81237,165],[-90.38866,38.81239,166],[-90.38864,38.81242,167],[-90.38864,38.81244,167],[-90.38866,38.81247,167],[-90.38866,38.8125,168],[-90.38865,38.81253,168],[-90.38864,38.81255,168],[-90.38864,38.81258,168],[-90.38863,38.81261,169],[-90.38861,38.81264,169],[-90.38857,38.81266,170],[-90.38854,38.81268,171],[-90.38852,38.81271,172],[-90.38849,38.81273,173],[-90.38846,38.81275,175],[-90.38842,38.81276,176],[-90.38839,38.81277,177],[-90.38836,38.81279,179],[-90.38832,38.81281,180],[-90.38828,38.81281,181],[-90.38824,38.8128,183],[-90.3882,38.8128,184],[-90.38818,38.81282,184],[-90.38815,38.81285,186],[-90.38811,38.81285,187],[-90.3881,38.81288,187],[-90.38811,38.81291,188],[-90.38809,38.81294,188],[-90.38809,38.81297,189],[-90.38809,38.813,189],[-90.38809,38.81303,189],[-90.38808,38.81306,190],[-90.38808,38.81309,191],[-90.38807,38.81313,192],[-90.38805,38.81316,192],[-90.38803,38.81319,193],[-90.38801,38.81321,193],[-90.38798,38.81324,194],[-90.38796,38.81326,194],[-90.38793,38.81329,195],[-90.3879,38.81331,195],[-90.38787,38.81333,195],[-90.38783,38.81334,196],[-90.38779,38.81335,196],[-90.38775,38.81335,195],[-90.38771,38.81336,195],[-90.38768,38.81336,195],[-90.38764,38.81336,195],[-90.38761,38.81338,195],[-90.38761,38.81342,195],[-90.38762,38.81345,195],[-90.38762,38.81348,195],[-90.38761,38.81351,196],[-90.38759,38.81353,196],[-90.38758,38.81356,196],[-90.38758,38.8136,196],[-90.38758,38.81363,196],[-90.38756,38.81366,197],[-90.38755,38.81369,197],[-90.38754,38.81373,197],[-90.38753,38.81375,198],[-90.38753,38.81378,198],[-90.38752,38.81381,198],[-90.38752,38.81384,199],[-90.38755,38.81386,199],[-90.38758,38.81388,199],[-90.38762,38.8139,200],[-90.38765,38.81391,200],[-90.38768,38.81393,200],[-90.38772,38.81394,200],[-90.38776,38.81395,200],[-90.3878,38.81396,199],[-90.38784,38.81396,199],[-90.38788,38.81395,199],[-90.38791,38.81395,199],[-90.38795,38.81395,199],[-90.38798,38.81394,199],[-90.38802,38.81394,199],[-90.38807,38.81394,199],[-90.38811,38.81393,198],[-90.38815,38.81393,198],[-90.38819,38.81394,198],[-90.38823,38.81394,198],[-90.38828,38.81396,198],[-90.38832,38.81397,198],[-90.38836,38.81398,198],[-90.38839,38.814,197],[-90.38844,38.81401,197],[-90.38848,38.81402,197],[-90.38851,38.81403,196],[-90.38854,38.81406,196],[-90.38858,38.81407,196],[-90.38861,38.81408,196],[-90.38865,38.8141,195],[-90.38868,38.81411,195],[-90.38872,38.81412,195],[-90.38877,38.81413,194],[-90.3888,38.81414,194],[-90.38884,38.81415,193],[-90.38888,38.81417,193],[-90.38892,38.81418,192],[-90.38896,38.81418,192],[-90.38901,38.81418,192],[-90.38905,38.81419,192],[-90.3891,38.81419,192],[-90.38913,38.8142,192],[-90.38917,38.81422,192],[-90.38921,38.81424,192],[-90.38924,38.81425,191],[-90.38927,38.81427,191],[-90.3893,38.81428,190],[-90.38934,38.8143,190],[-90.38938,38.81433,189],[-90.38942,38.81435,189],[-90.38945,38.81437,189],[-90.38949,38.81439,189],[-90.38952,38.81441,189],[-90.38954,38.81444,189],[-90.38954,38.81447,189],[-90.38953,38.8145,190],[-90.38953,38.81454,190],[-90.38953,38.81457,190],[-90.38953,38.8146,190],[-90.38953,38.81464,190],[-90.38953,38.81468,191],[-90.38952,38.81472,191],[-90.38953,38.81476,190],[-90.38954,38.81479,190],[-90.38955,38.81482,190],[-90.38956,38.81485,190],[-90.38956,38.81488,189],[-90.38957,38.81492,189],[-90.38958,38.81495,189],[-90.38961,38.81498,188],[-90.38964,38.815,188],[-90.38967,38.81502,188],[-90.38971,38.81504,188],[-90.38975,38.81506,187],[-90.38978,38.81509,186],[-90.3898,38.81511,186],[-90.38983,38.81513,186],[-90.38987,38.81514,185],[-90.38989,38.81517,184],[-90.38992,38.8152,184],[-90.38995,38.81522,183],[-90.38998,38.81524,183],[-90.39001,38.81525,182],[-90.39004,38.81528,181],[-90.39007,38.8153,181],[-90.3901,38.81531,181],[-90.39014,38.81533,181],[-90.39018,38.81536,180],[-90.39022,38.81538,180],[-90.39025,38.8154,180],[-90.39028,38.81542,180],[-90.39031,38.81543,180],[-90.39035,38.81544,180],[-90.39039,38.81545,180],[-90.39043,38.81545,181],[-90.39046,38.81547,181],[-90.3905,38.81547,181],[-90.39054,38.81547,182],[-90.39057,38.81547,182],[-90.39062,38.81547,183],[-90.39065,38.81548,183],[-90.3907,38.81548,184],[-90.39074,38.81549,184],[-90.39079,38.81549,185],[-90.39083,38.8155,185],[-90.39086,38.81549,185],[-90.3909,38.81549,185],[-90.39094,38.81548,185],[-90.39098,38.81547,185],[-90.39102,38.81546,186],[-90.39105,38.81545,186],[-90.39109,38.81544,186],[-90.39113,38.81543,186],[-90.39117,38.81543,186],[-90.39121,38.81542,186],[-90.39125,38.81542,185],[-90.39129,38.81542,185],[-90.39134,38.81543,185],[-90.39139,38.81544,185],[-90.39143,38.81545,184],[-90.39146,38.81547,184],[-90.39149,38.81545,184],[-90.39151,38.81548,183],[-90.39153,38.8155,183],[-90.39155,38.81553,183],[-90.39156,38.81555,183],[-90.39156,38.81559,183],[-90.3916,38.8156,182],[-90.39164,38.81562,182],[-90.39166,38.81564,182],[-90.39169,38.81567,181],[-90.39172,38.81569,180],[-90.39176,38.8157,179],[-90.39179,38.81568,178],[-90.39183,38.81568,177],[-90.39187,38.81568,177],[-90.39191,38.81569,175],[-90.39194,38.81567,175],[-90.39193,38.81564,176],[-90.39193,38.81561,177],[-90.39194,38.81558,177],[-90.39194,38.81555,178],[-90.39194,38.81552,177],[-90.39195,38.81549,177],[-90.39194,38.81545,177],[-90.39193,38.81542,177],[-90.39193,38.81539,177],[-90.39192,38.81536,176],[-90.3919,38.81533,177],[-90.39189,38.8153,176],[-90.39189,38.81527,176],[-90.3919,38.81524,175],[-90.39193,38.8152,173],[-90.39194,38.81517,172],[-90.39195,38.81514,170],[-90.39195,38.81511,169],[-90.39195,38.81508,168],[-90.39194,38.81504,167],[-90.39192,38.815,166],[-90.39189,38.81498,167],[-90.39187,38.81496,168],[-90.39186,38.81492,167],[-90.39187,38.81489,167],[-90.39189,38.81486,166],[-90.3919,38.81482,165],[-90.39188,38.81479,165],[-90.39187,38.81476,165],[-90.39187,38.81473,165],[-90.39186,38.8147,165],[-90.39185,38.81467,164],[-90.39184,38.81464,164],[-90.39183,38.81461,164],[-90.39182,38.81458,164],[-90.3918,38.81455,164],[-90.39178,38.81452,164],[-90.39178,38.81449,164],[-90.39177,38.81446,164],[-90.39176,38.81442,163],[-90.39176,38.81439,162],[-90.39176,38.81436,161],[-90.39175,38.81433,161],[-90.39176,38.8143,160],[-90.39176,38.81427,159],[-90.39178,38.81425,158],[-90.39179,38.81422,157],[-90.3918,38.8142,156],[-90.39183,38.81417,154],[-90.39185,38.81415,153],[-90.39185,38.81411,151],[-90.39188,38.8141,150],[-90.39192,38.8141,149],[-90.39195,38.81411,149],[-90.39199,38.81411,148],[-90.39203,38.81411,148],[-90.39206,38.8141,147],[-90.3921,38.81408,146],[-90.39215,38.81407,145],[-90.39218,38.81406,144],[-90.39218,38.81409,146],[-90.39215,38.81411,147],[-90.39211,38.81412,148],[-90.39208,38.81413,149],[-90.39204,38.81414,150],[-90.392,38.81415,151],[-90.39196,38.81416,151],[-90.39193,38.81417,152],[-90.39191,38.8142,153],[-90.39189,38.81422,154],[-90.39189,38.81425,155],[-90.39187,38.81428,156],[-90.39184,38.81429,157],[-90.39184,38.81433,159],[-90.39185,38.81436,159],[-90.39185,38.81439,160],[-90.39187,38.81442,160],[-90.39187,38.81445,161],[-90.39187,38.81449,161],[-90.39189,38.81451,161],[-90.39191,38.81454,161],[-90.39192,38.81456,161],[-90.39194,38.81459,161],[-90.39196,38.81462,161],[-90.39196,38.81466,161],[-90.39196,38.81469,162],[-90.39197,38.81472,162],[-90.39198,38.81475,162],[-90.39199,38.81478,162],[-90.392,38.81481,162],[-90.39199,38.81485,163],[-90.39198,38.81487,163],[-90.39196,38.8149,164],[-90.39197,38.81494,164],[-90.39199,38.81497,164],[-90.39201,38.81499,164],[-90.39203,38.81503,164],[-90.39205,38.81506,165],[-90.39206,38.81509,166],[-90.39206,38.81513,167],[-90.39205,38.81517,169],[-90.39204,38.8152,170],[-90.39202,38.81522,171],[-90.392,38.81525,173],[-90.39199,38.81528,174],[-90.39199,38.81531,174],[-90.392,38.81534,174],[-90.39201,38.81538,174],[-90.39202,38.81541,174],[-90.39203,38.81544,174],[-90.39204,38.81547,173],[-90.39204,38.8155,173],[-90.39203,38.81552,174],[-90.39202,38.81555,174],[-90.39202,38.81558,174],[-90.392,38.81561,174],[-90.39198,38.81564,174],[-90.39197,38.81567,174],[-90.39196,38.8157,174],[-90.39192,38.81571,175],[-90.39188,38.81572,176],[-90.39183,38.81572,177],[-90.3918,38.81573,177],[-90.39177,38.81574,178],[-90.39175,38.81577,178],[-90.39177,38.8158,177],[-90.39179,38.81583,176],[-90.3918,38.81586,175],[-90.3918,38.8159,174],[-90.3918,38.81593,174],[-90.3918,38.81596,173],[-90.39179,38.81599,172],[-90.39178,38.81602,172],[-90.39178,38.81605,172],[-90.39178,38.81608,171],[-90.39177,38.81612,170],[-90.39176,38.81614,170],[-90.39175,38.81617,169],[-90.39174,38.81621,168],[-90.39174,38.81624,167],[-90.39173,38.81627,166],[-90.39172,38.8163,165],[-90.3917,38.81633,165],[-90.39169,38.81637,163],[-90.39167,38.8164,163],[-90.39164,38.81641,164],[-90.39162,38.81644,163],[-90.3916,38.81647,163],[-90.39158,38.8165,162],[-90.39156,38.81652,162],[-90.39154,38.81655,162],[-90.39152,38.81658,161],[-90.3915,38.8166,161],[-90.39148,38.81663,161],[-90.39145,38.81665,161],[-90.39143,38.81667,160],[-90.3914,38.81669,160],[-90.39137,38.8167,161],[-90.39134,38.81673,160],[-90.39132,38.81675,160],[-90.3913,38.81678,159],[-90.39128,38.8168,159],[-90.39124,38.81681,159],[-90.39122,38.81683,159],[-90.39119,38.81684,159],[-90.39117,38.81686,159],[-90.39112,38.81685,160],[-90.39108,38.81684,161],[-90.39105,38.81681,162],[-90.39103,38.81679,163],[-90.39099,38.81679,163],[-90.39095,38.81678,163],[-90.39092,38.81679,163],[-90.39089,38.81681,163],[-90.39085,38.81682,164],[-90.39082,38.81683,164],[-90.3908,38.81686,163],[-90.39076,38.81687,163],[-90.39073,38.81687,164],[-90.39069,38.81687,164],[-90.39066,38.81688,164],[-90.39062,38.81689,164],[-90.39059,38.8169,165],[-90.39055,38.81692,165],[-90.39051,38.81693,165],[-90.39052,38.81696,164],[-90.39053,38.81699,163],[-90.39054,38.81702,162],[-90.39055,38.81705,161],[-90.39057,38.81708,160],[-90.39058,38.8171,159],[-90.39057,38.81713,158],[-90.39055,38.81716,157],[-90.39054,38.81719,157],[-90.39056,38.81722,156],[-90.39056,38.81725,155],[-90.39054,38.81727,154],[-90.39056,38.8173,153],[-90.39057,38.81733,151],[-90.39059,38.81736,150],[-90.3906,38.81739,149],[-90.39058,38.81743,148],[-90.39055,38.81745,147],[-90.39052,38.81746,147],[-90.3905,38.81744,148],[-90.39048,38.81742,149],[-90.39049,38.81739,150],[-90.39047,38.81736,151],[-90.39047,38.81733,152],[-90.39047,38.8173,153],[-90.39045,38.81727,154],[-90.39045,38.81723,156],[-90.39044,38.8172,157],[-90.39044,38.81718,157],[-90.39044,38.81715,158],[-90.39046,38.81712,159],[-90.39047,38.81709,160],[-90.39046,38.81705,162],[-90.39045,38.81703,162],[-90.39044,38.817,163],[-90.39044,38.81696,165],[-90.39044,38.81694,165],[-90.39045,38.8169,166],[-90.39048,38.81688,166],[-90.39052,38.81687,166],[-90.39055,38.81685,166],[-90.39058,38.81682,166],[-90.39062,38.81681,165],[-90.39066,38.8168,165],[-90.3907,38.8168,165],[-90.39073,38.8168,165],[-90.39077,38.81679,165],[-90.3908,38.81676,165],[-90.39082,38.81674,165],[-90.39083,38.8167,166],[-90.39087,38.81669,166],[-90.39092,38.8167,165],[-90.39096,38.8167,165],[-90.39099,38.8167,165],[-90.39103,38.8167,165],[-90.39106,38.81671,164],[-90.39109,38.81673,164],[-90.39111,38.81676,163],[-90.39112,38.81679,162],[-90.39115,38.8168,161],[-90.39118,38.81678,161],[-90.39122,38.81677,161],[-90.39124,38.81674,161],[-90.39125,38.81671,162],[-90.39127,38.81668,163],[-90.3913,38.81666,163],[-90.39133,38.81663,163],[-90.39137,38.81662,163],[-90.3914,38.8166,163],[-90.39142,38.81658,164],[-90.39145,38.81656,164],[-90.39147,38.81654,164],[-90.39149,38.81651,164],[-90.39152,38.81648,164],[-90.39154,38.81646,165],[-90.39156,38.81643,165],[-90.39157,38.8164,166],[-90.39159,38.81638,166],[-90.39162,38.81636,166],[-90.39163,38.81632,167],[-90.39164,38.81629,168],[-90.39164,38.81626,169],[-90.39165,38.81623,169],[-90.39166,38.8162,170],[-90.39168,38.81617,171],[-90.39169,38.81614,172],[-90.3917,38.81611,173],[-90.39171,38.81608,173],[-90.39171,38.81605,174],[-90.3917,38.81602,174],[-90.3917,38.81599,175],[-90.3917,38.81595,176],[-90.39171,38.81591,177],[-90.39171,38.81589,177],[-90.39172,38.81586,177],[-90.39172,38.81582,178],[-90.39171,38.81579,179],[-90.39169,38.81576,180],[-90.39169,38.81572,180],[-90.39172,38.8157,180],[-90.39176,38.81569,179],[-90.39179,38.81568,178],[-90.39183,38.81569,177],[-90.39186,38.8157,176],[-90.3919,38.8157,175],[-90.39192,38.81568,175],[-90.39192,38.81565,176],[-90.39191,38.81562,177],[-90.39192,38.81559,177],[-90.39193,38.81556,178],[-90.39194,38.81554,178],[-90.39195,38.8155,177],[-90.39195,38.81546,177],[-90.39194,38.81543,177],[-90.39193,38.81541,177],[-90.39192,38.81538,177],[-90.39191,38.81535,177],[-90.3919,38.81532,176],[-90.3919,38.81528,176],[-90.3919,38.81525,175],[-90.39191,38.81522,174],[-90.39192,38.8152,173],[-90.39193,38.81516,172],[-90.39195,38.81513,170],[-90.39195,38.81509,169],[-90.39195,38.81506,167],[-90.39193,38.81503,167],[-90.39191,38.815,167],[-90.39189,38.81497,167],[-90.39187,38.81494,167],[-90.39188,38.8149,167],[-90.3919,38.81487,166],[-90.39191,38.81484,165],[-90.39191,38.81481,165],[-90.3919,38.81478,165],[-90.39189,38.81475,164],[-90.39188,38.81472,164],[-90.39188,38.81469,164],[-90.39187,38.81466,164],[-90.39186,38.81463,164],[-90.39184,38.8146,164],[-90.39181,38.81458,164],[-90.39179,38.81455,164],[-90.39179,38.81451,164],[-90.39178,38.81448,164],[-90.39178,38.81445,163],[-90.39178,38.81441,162],[-90.39177,38.81439,162],[-90.39177,38.81436,161],[-90.39176,38.81433,161],[-90.39177,38.8143,160],[-90.39177,38.81427,159],[-90.39179,38.81425,158],[-90.39182,38.81423,156],[-90.39182,38.8142,155],[-90.39183,38.81417,154],[-90.39186,38.81415,153],[-90.39186,38.81412,151],[-90.39188,38.8141,150],[-90.39192,38.8141,149],[-90.39196,38.81409,148],[-90.392,38.81409,147],[-90.39203,38.81409,147],[-90.39207,38.81408,146],[-90.39211,38.81408,146],[-90.39215,38.81407,145],[-90.39219,38.81406,144],[-90.39216,38.81409,146],[-90.39211,38.8141,147],[-90.39207,38.81412,148],[-90.39203,38.81413,149],[-90.392,38.81413,149],[-90.39196,38.81413,150],[-90.39193,38.81415,151],[-90.39194,38.81417,152],[-90.39192,38.8142,153],[-90.39191,38.81423,154],[-90.39189,38.81426,155],[-90.39186,38.81427,156],[-90.39184,38.8143,158],[-90.39185,38.81433,158],[-90.39185,38.81436,159],[-90.39185,38.81439,160],[-90.39187,38.81442,160],[-90.39187,38.81445,161],[-90.39188,38.81447,161],[-90.39189,38.81451,161],[-90.3919,38.81453,161],[-90.39193,38.81455,160],[-90.39194,38.81458,161],[-90.39196,38.8146,161],[-90.39197,38.81463,161],[-90.39197,38.81466,161],[-90.39197,38.81469,162],[-90.39198,38.81472,162],[-90.39199,38.81475,162],[-90.392,38.81478,162],[-90.39201,38.81481,162],[-90.39201,38.81484,162],[-90.39199,38.81487,163],[-90.39197,38.81489,164],[-90.39197,38.81492,164],[-90.39199,38.81495,164],[-90.392,38.81498,164],[-90.39202,38.81501,164],[-90.39204,38.81504,165],[-90.39206,38.81507,165],[-90.39206,38.8151,166],[-90.39205,38.81513,167],[-90.39204,38.81517,169],[-90.39203,38.81519,170],[-90.39201,38.81523,172],[-90.392,38.81525,173],[-90.392,38.81529,174],[-90.39202,38.81531,173],[-90.39203,38.81534,173],[-90.39203,38.81538,173],[-90.39203,38.81541,173],[-90.39203,38.81545,174],[-90.39203,38.81548,174],[-90.39202,38.81551,174],[-90.39201,38.81555,175],[-90.392,38.81558,175],[-90.39198,38.8156,175],[-90.39197,38.81563,175],[-90.39196,38.81566,175],[-90.39195,38.81569,174],[-90.39191,38.81571,175],[-90.39187,38.81571,176],[-90.39183,38.81572,177],[-90.3918,38.81572,177],[-90.39175,38.81574,179],[-90.39171,38.81574,179],[-90.39167,38.81572,181],[-90.39163,38.8157,181],[-90.3916,38.81568,182],[-90.39157,38.81566,182],[-90.39154,38.81564,182],[-90.39151,38.81561,183],[-90.39147,38.81559,183],[-90.39144,38.81557,184],[-90.39141,38.81554,184],[-90.39137,38.81552,185],[-90.39134,38.81551,185],[-90.39129,38.8155,185],[-90.39125,38.8155,185],[-90.39121,38.8155,185],[-90.39117,38.8155,186],[-90.39113,38.81549,186],[-90.39109,38.81549,186],[-90.39105,38.81551,185],[-90.39101,38.81552,185],[-90.39096,38.81553,185],[-90.39093,38.81554,185],[-90.39089,38.81555,185],[-90.39084,38.81554,185],[-90.39079,38.81554,184],[-90.39075,38.81553,184],[-90.39071,38.81553,183],[-90.39067,38.81553,183],[-90.39063,38.81552,183],[-90.39058,38.8155,182],[-90.39054,38.81549,182],[-90.3905,38.81549,181],[-90.39045,38.81548,181],[-90.39041,38.81547,180],[-90.39037,38.81546,180],[-90.39034,38.81544,180],[-90.3903,38.81543,180],[-90.39026,38.81543,179],[-90.39022,38.81543,179],[-90.39018,38.81543,179],[-90.39014,38.81542,179],[-90.39011,38.8154,179],[-90.39007,38.81539,180],[-90.39003,38.81537,180],[-90.38999,38.81536,180],[-90.38996,38.81534,181],[-90.38992,38.81533,181],[-90.38989,38.8153,182],[-90.38986,38.81529,182],[-90.38983,38.81527,182],[-90.38979,38.81525,183],[-90.38977,38.81522,184],[-90.38974,38.8152,184],[-90.38971,38.81518,185],[-90.38968,38.81516,185],[-90.38967,38.81513,186],[-90.38964,38.8151,186],[-90.3896,38.81508,187],[-90.38957,38.81506,187],[-90.38955,38.81503,188],[-90.38952,38.815,188],[-90.3895,38.81497,188],[-90.38949,38.81494,188],[-90.38948,38.8149,189],[-90.38947,38.81487,189],[-90.38945,38.81484,189],[-90.38943,38.81481,189],[-90.38943,38.81477,190],[-90.38943,38.81474,190],[-90.38943,38.8147,190],[-90.38944,38.81467,190],[-90.38944,38.81464,190],[-90.38944,38.81461,190],[-90.38945,38.81457,190],[-90.38945,38.81454,190],[-90.38945,38.81451,190],[-90.38946,38.81448,190],[-90.38946,38.81445,189],[-90.38945,38.81442,189],[-90.38943,38.8144,189],[-90.3894,38.81438,190],[-90.38936,38.81436,190],[-90.38932,38.81434,190],[-90.38928,38.81433,191],[-90.38923,38.81432,191],[-90.3892,38.8143,192],[-90.38916,38.81429,192],[-90.38913,38.81427,192],[-90.38909,38.81424,192],[-90.38906,38.81422,192],[-90.38902,38.81422,192],[-90.38898,38.81421,192],[-90.38895,38.81421,192],[-90.38891,38.8142,192],[-90.38887,38.8142,193],[-90.38883,38.81419,193],[-90.38879,38.81419,194],[-90.38875,38.81418,195],[-90.38872,38.81416,195],[-90.38867,38.81415,196],[-90.38863,38.81414,196],[-90.3886,38.81413,196],[-90.38856,38.81412,197],[-90.38852,38.8141,197],[-90.38848,38.81409,197],[-90.38844,38.81408,197],[-90.3884,38.81406,198],[-90.38835,38.81404,198],[-90.38832,38.81403,198],[-90.38828,38.81401,198],[-90.38825,38.81399,198],[-90.38822,38.81397,198],[-90.38817,38.81396,198],[-90.38814,38.81396,198],[-90.3881,38.81396,199],[-90.38805,38.81396,199],[-90.38802,38.81397,199],[-90.38798,38.81398,199],[-90.38793,38.81399,199],[-90.38789,38.81399,199],[-90.38786,38.81399,199],[-90.38781,38.81399,199],[-90.38777,38.81398,200],[-90.38772,38.81397,200],[-90.38768,38.81397,200],[-90.38763,38.81396,200],[-90.3876,38.81393,200],[-90.38757,38.81391,200],[-90.38754,38.81389,199],[-90.38752,38.81387,199],[-90.3875,38.81384,199],[-90.38749,38.8138,198],[-90.3875,38.81377,198],[-90.3875,38.81374,197],[-90.38751,38.81371,197],[-90.38752,38.81367,196],[-90.38752,38.81364,196],[-90.38752,38.81362,196],[-90.38751,38.81359,195],[-90.38751,38.81356,195],[-90.38752,38.81352,195],[-90.38752,38.81348,195],[-90.38753,38.81344,194],[-90.38753,38.81341,194],[-90.38754,38.81338,194],[-90.38754,38.81335,194],[-90.38754,38.81331,194],[-90.38757,38.8133,194],[-90.38762,38.81329,194],[-90.38766,38.81329,194],[-90.38769,38.81329,194],[-90.38773,38.81328,195],[-90.38777,38.81328,195],[-90.38781,38.81328,195],[-90.38784,38.81328,195],[-90.38788,38.81326,195],[-90.3879,38.81323,194],[-90.38791,38.81321,194],[-90.38793,38.81318,193],[-90.38796,38.81315,193],[-90.38798,38.81313,192],[-90.38799,38.8131,192],[-90.38798,38.81306,191],[-90.38799,38.81304,191],[-90.38801,38.813,190],[-90.38801,38.81297,190],[-90.388,38.81294,190],[-90.388,38.81291,189],[-90.38802,38.81289,189],[-90.38803,38.81285,188],[-90.38803,38.81282,188],[-90.38804,38.81279,188],[-90.38806,38.81277,187],[-90.3881,38.81276,186],[-90.38814,38.81274,184],[-90.38818,38.81273,183],[-90.38821,38.81271,182],[-90.38824,38.8127,181],[-90.38828,38.8127,179],[-90.38832,38.8127,178],[-90.38836,38.81269,177],[-90.38839,38.81267,176],[-90.38842,38.81266,175],[-90.38845,38.81263,174],[-90.38847,38.81261,173],[-90.3885,38.8126,172],[-90.38853,38.81257,171],[-90.38853,38.81254,171],[-90.38855,38.81252,170],[-90.38857,38.81249,169],[-90.38858,38.81246,168],[-90.38858,38.81243,168],[-90.38856,38.81241,168],[-90.38856,38.81237,167],[-90.38857,38.81233,166],[-90.38858,38.8123,165],[-90.3886,38.81227,165],[-90.38863,38.81226,164],[-90.38867,38.81226,164],[-90.38871,38.81223,163],[-90.38872,38.81221,163],[-90.38875,38.81218,162],[-90.38876,38.81215,161],[-90.38875,38.81211,161],[-90.38874,38.81208,161],[-90.38872,38.81205,161],[-90.38869,38.81204,161],[-90.38866,38.81202,161],[-90.38864,38.81199,161],[-90.38861,38.81196,162],[-90.38858,38.81194,162],[-90.38856,38.81192,163],[-90.38855,38.81188,163],[-90.38855,38.81184,163],[-90.38855,38.81181,164],[-90.38856,38.81178,164],[-90.38858,38.81175,164],[-90.38859,38.81173,164],[-90.38862,38.8117,164],[-90.38865,38.81168,164],[-90.38868,38.81165,163],[-90.3887,38.81163,163],[-90.38873,38.8116,162],[-90.38874,38.81158,162],[-90.38874,38.81154,162],[-90.38877,38.81152,161],[-90.38881,38.81152,160],[-90.38885,38.81153,159],[-90.38888,38.81152,159],[-90.38892,38.81151,158],[-90.38894,38.81149,157],[-90.38899,38.81147,156],[-90.38903,38.81147,155],[-90.38906,38.81146,154],[-90.3891,38.81143,153],[-90.38913,38.81141,152],[-90.38915,38.81138,152],[-90.38917,38.81136,152],[-90.3892,38.81133,152],[-90.38924,38.81133,152],[-90.38929,38.81134,152],[-90.38933,38.81136,152],[-90.38938,38.81136,152],[-90.3894,38.81134,152],[-90.38941,38.8113,152],[-90.3894,38.81127,152],[-90.38941,38.81125,152],[-90.38942,38.81122,152],[-90.38945,38.81119,151],[-90.38947,38.81115,151],[-90.38949,38.81113,151],[-90.38953,38.81111,151],[-90.38957,38.81111,151],[-90.38961,38.81112,151],[-90.38965,38.81114,151],[-90.38969,38.81115,151],[-90.38973,38.81116,150],[-90.38977,38.81116,150],[-90.38981,38.81115,149],[-90.38984,38.81114,149],[-90.38989,38.81113,148],[-90.38994,38.81113,147],[-90.38998,38.81114,147],[-90.39001,38.81114,146],[-90.39006,38.81114,145],[-90.3901,38.81115,145],[-90.39014,38.81116,144],[-90.39019,38.81116,144],[-90.39023,38.81116,143],[-90.39027,38.81116,143],[-90.39032,38.81116,142],[-90.39036,38.81118,142],[-90.3904,38.81119,142],[-90.39044,38.8112,142],[-90.39047,38.81121,142],[-90.39051,38.81123,142],[-90.39055,38.81124,142],[-90.39059,38.81125,142],[-90.39063,38.81124,142],[-90.39066,38.81122,142],[-90.39069,38.8112,141],[-90.39072,38.81119,141],[-90.39076,38.81117,141],[-90.39078,38.81115,141],[-90.39078,38.81112,141],[-90.39079,38.81108,140],[-90.3908,38.81105,140],[-90.3908,38.81102,140],[-90.39081,38.81098,139],[-90.39081,38.81095,139],[-90.3908,38.81091,139],[-90.39079,38.81088,138],[-90.39078,38.81085,138],[-90.39078,38.81082,138],[-90.3908,38.81079,138],[-90.39082,38.81082,138],[-90.39078,38.81081,138]]],
        "bbox": [
          -90.38749,
          38.81746,
          -90.39219,
          38.81079
        ]
      },
      "properties": {
        "name": "9.7.2022"
      }
    }
  ]
}