{
  "type": "FeatureCollection",
  "features": [
    {
      "type": "Feature",
      "geometry": {
        "type": "MultiLineString",
        "coordinates": [[[-90.39458,38.81203,137],[-90.39456,38.81206,137],[-90.39453,38.81207,137],[-90.3945,38.81209,137],[-90.39448,38.81212,137],[-90.39446,38.81215,137],[-90.39444,38.81217,138],[-90.3944,38.8122,138],[-90.39437,38.81222,138],[-90.39435,38.81224,137],[-90.39432,38.81226,137],[-90.3943,38.81229,137],[-90.39428,38.81232,137],[-90.39425,38.81234,137],[-90.39422,38.81236,137],[-90.3942,38.81238,137],[-90.39418,38.81242,137],[-90.39415,38.81244,137],[-90.39414,38.81247,137],[-90.39411,38.81248,137],[-90.39407,38.81249,137],[-90.39403,38.81249,137],[-90.39402,38.81251,136],[-90.394,38.81254,136],[-90.39398,38.81257,136],[-90.39396,38.81259,135],[-90.39392,38.81261,135],[-90.39389,38.81261,135],[-90.39385,38.81264,135],[-90.39382,38.81267,135],[-90.3938,38.81269,134],[-90.39377,38.81271,134],[-90.39373,38.81273,134],[-90.3937,38.81275,134],[-90.39366,38.81276,134],[-90.39363,38.81278,133],[-90.3936,38.8128,133],[-90.39357,38.81283,133],[-90.39354,38.81286,133],[-90.3935,38.81288,133],[-90.39347,38.8129,133],[-90.39343,38.81293,133],[-90.39339,38.81294,133],[-90.39334,38.81297,133],[-90.3933,38.81301,133],[-90.39326,38.81305,133],[-90.39323,38.81308,132],[-90.39319,38.8131,132],[-90.39314,38.81313,132],[-90.3931,38.81316,132],[-90.39306,38.81319,132],[-90.39303,38.81323,133],[-90.393,38.81326,133],[-90.39298,38.8133,133],[-90.39294,38.81332,133],[-90.3929,38.81335,134],[-90.39287,38.81339,134],[-90.39284,38.81342,135],[-90.39281,38.81345,136],[-90.39278,38.81348,136],[-90.39275,38.8135,136],[-90.39272,38.81354,137],[-90.39269,38.81358,138],[-90.39267,38.81362,138],[-90.39265,38.81365,138],[-90.39265,38.81369,138],[-90.39262,38.81373,138],[-90.3926,38.81377,138],[-90.39256,38.81381,138],[-90.39255,38.81385,138],[-90.39253,38.81388,138],[-90.39251,38.81392,139],[-90.39247,38.81394,139],[-90.39244,38.81397,140],[-90.39241,38.814,141],[-90.39238,38.81404,143],[-90.39235,38.81407,145],[-90.39233,38.8141,146],[-90.39235,38.81414,149],[-90.39237,38.81418,150],[-90.39241,38.81421,151],[-90.39246,38.81421,151],[-90.39251,38.81421,150],[-90.39255,38.81423,150],[-90.39259,38.81426,150],[-90.39264,38.81428,150],[-90.3927,38.8143,150],[-90.39274,38.81432,150],[-90.39278,38.81435,150],[-90.39283,38.81437,150],[-90.39286,38.8144,150],[-90.39289,38.81445,150],[-90.39292,38.81448,149],[-90.39294,38.81451,149],[-90.39295,38.81456,148],[-90.39296,38.81459,148],[-90.39299,38.81462,147],[-90.39301,38.81466,147],[-90.393,38.8147,147],[-90.39299,38.81474,147],[-90.393,38.81478,147],[-90.39301,38.81482,147],[-90.39302,38.81486,147],[-90.39304,38.81489,147],[-90.39309,38.81491,146],[-90.39313,38.81493,145],[-90.39316,38.81497,145],[-90.39317,38.815,145],[-90.39319,38.81504,144],[-90.39323,38.81507,143],[-90.39326,38.8151,142],[-90.39326,38.81514,142],[-90.39326,38.81518,141],[-90.39324,38.81522,141],[-90.39321,38.81526,142],[-90.39318,38.81529,142],[-90.39315,38.81531,142],[-90.39311,38.81534,142],[-90.39306,38.81536,143],[-90.39302,38.81539,143],[-90.39298,38.81542,143],[-90.39293,38.81545,143],[-90.39288,38.81548,144],[-90.39286,38.81552,143],[-90.39284,38.81555,143],[-90.39281,38.81558,143],[-90.39278,38.81561,144],[-90.39274,38.81564,144],[-90.39268,38.81567,146],[-90.39269,38.8157,145],[-90.39273,38.81573,143],[-90.39274,38.81577,142],[-90.39276,38.81581,140],[-90.39278,38.81585,140],[-90.39279,38.81588,139],[-90.3928,38.81592,139],[-90.39279,38.81597,139],[-90.39277,38.81601,140],[-90.39274,38.81604,141],[-90.3927,38.81607,142],[-90.39265,38.8161,144],[-90.39261,38.81612,145],[-90.39257,38.81613,146],[-90.39251,38.81615,147],[-90.39248,38.81618,148],[-90.39245,38.81621,148],[-90.39241,38.81623,148],[-90.3924,38.81627,148],[-90.39236,38.81626,149],[-90.39234,38.81622,151],[-90.39233,38.8162,152],[-90.39234,38.81623,150],[-90.39238,38.81622,150],[-90.3924,38.81619,150],[-90.39242,38.81617,150],[-90.39246,38.81617,148],[-90.39246,38.81614,149],[-90.39248,38.81612,149],[-90.39252,38.8161,148],[-90.39254,38.81609,147],[-90.3926,38.81608,145],[-90.39264,38.81604,144],[-90.39265,38.816,144],[-90.39266,38.81596,143],[-90.39267,38.81592,143],[-90.39269,38.81588,142],[-90.39268,38.81584,143],[-90.39263,38.81584,144],[-90.3926,38.81587,145],[-90.39257,38.81583,146],[-90.39255,38.81587,147],[-90.39253,38.8159,147],[-90.39256,38.81587,146],[-90.39259,38.81584,145],[-90.3926,38.8158,146],[-90.39258,38.81583,146],[-90.39256,38.81587,146],[-90.39252,38.81589,148],[-90.39255,38.81586,147],[-90.39256,38.81582,147],[-90.39258,38.81578,147],[-90.39257,38.81574,148],[-90.39256,38.81571,149],[-90.39254,38.81567,151],[-90.39251,38.81564,153],[-90.39253,38.81561,153],[-90.39256,38.81557,153],[-90.39258,38.81554,153],[-90.3926,38.81551,152],[-90.39263,38.81547,152],[-90.39267,38.81545,151],[-90.39271,38.81542,150],[-90.39274,38.8154,150],[-90.39279,38.81538,149],[-90.39284,38.81536,149],[-90.39289,38.81533,148],[-90.39293,38.81531,148],[-90.39297,38.81529,147],[-90.39301,38.81526,147],[-90.39303,38.81522,147],[-90.39306,38.81519,146],[-90.3931,38.81517,145],[-90.39312,38.81513,145],[-90.3931,38.8151,146],[-90.39305,38.81509,147],[-90.39301,38.81507,147],[-90.39297,38.81504,148],[-90.39294,38.81502,148],[-90.39294,38.81497,148],[-90.39294,38.81493,148],[-90.39293,38.81489,148],[-90.39293,38.81486,148],[-90.39292,38.81481,148],[-90.39291,38.81476,149],[-90.3929,38.81472,149],[-90.39289,38.81469,149],[-90.39287,38.81465,150],[-90.39285,38.81461,150],[-90.3928,38.81462,151],[-90.39275,38.81461,152],[-90.39271,38.81458,153],[-90.39268,38.81454,153],[-90.39265,38.81451,154],[-90.39264,38.81447,154],[-90.39265,38.81443,154],[-90.3926,38.81442,154],[-90.39255,38.81441,154],[-90.3925,38.81439,154],[-90.39245,38.81438,154],[-90.39241,38.81435,153],[-90.39236,38.81432,153],[-90.39233,38.8143,152],[-90.39231,38.81426,152],[-90.39229,38.81423,151],[-90.39228,38.81419,151],[-90.39224,38.81417,150],[-90.3922,38.81415,150],[-90.39215,38.81417,151],[-90.39209,38.8142,152],[-90.39204,38.8142,152],[-90.392,38.81418,152],[-90.39197,38.81423,153],[-90.39198,38.81419,152],[-90.39199,38.81415,151],[-90.39198,38.81419,152],[-90.39195,38.81422,153],[-90.39191,38.81425,155],[-90.39187,38.81425,156],[-90.39182,38.81427,157],[-90.39181,38.8143,159],[-90.39185,38.81433,158],[-90.39187,38.81437,159],[-90.39188,38.8144,159],[-90.3919,38.81444,160],[-90.39189,38.81448,161],[-90.39187,38.81452,162],[-90.39191,38.81454,161],[-90.39196,38.81454,160],[-90.39199,38.81457,160],[-90.39198,38.81461,160],[-90.39196,38.81465,161],[-90.39196,38.81469,162],[-90.39199,38.81473,162],[-90.39202,38.81476,161],[-90.39201,38.8148,162],[-90.39199,38.81484,163],[-90.392,38.81487,163],[-90.39201,38.81491,163],[-90.39201,38.81495,163],[-90.39203,38.81499,163],[-90.39205,38.81503,164],[-90.39207,38.81507,165],[-90.39206,38.81511,166],[-90.39205,38.81515,168],[-90.39203,38.81518,170],[-90.39201,38.81522,171],[-90.39202,38.81525,172],[-90.39202,38.81529,173],[-90.39202,38.81533,173],[-90.39205,38.81537,173],[-90.39208,38.81541,172],[-90.39209,38.81544,171],[-90.39208,38.81548,172],[-90.39203,38.81549,174],[-90.392,38.81552,175],[-90.39197,38.81555,176],[-90.39194,38.81559,177],[-90.39194,38.81562,176],[-90.39191,38.81566,176],[-90.39187,38.81566,177],[-90.39182,38.81567,178],[-90.39178,38.81569,178],[-90.39175,38.81572,179],[-90.39176,38.81577,178],[-90.39179,38.8158,176],[-90.39181,38.81583,175],[-90.39183,38.81587,174],[-90.39183,38.81591,173],[-90.39183,38.81596,172],[-90.39182,38.81599,172],[-90.3918,38.81603,171],[-90.39179,38.81606,171],[-90.39176,38.8161,171],[-90.39173,38.81613,171],[-90.39172,38.81616,170],[-90.39171,38.8162,169],[-90.39171,38.81624,168],[-90.3917,38.81628,166],[-90.39168,38.81632,166],[-90.39166,38.81635,165],[-90.39162,38.81638,165],[-90.3916,38.81641,165],[-90.39158,38.81645,164],[-90.39157,38.81649,163],[-90.39155,38.81652,162],[-90.39154,38.81656,162],[-90.39151,38.81659,161],[-90.39147,38.81658,162],[-90.39142,38.8166,163],[-90.39138,38.81662,163],[-90.3914,38.81658,164],[-90.39145,38.81657,163],[-90.39148,38.8166,162],[-90.39146,38.81657,163],[-90.39147,38.81655,163],[-90.39149,38.81652,164],[-90.3915,38.8165,164],[-90.39153,38.81648,164],[-90.39155,38.81646,164],[-90.39156,38.81643,165],[-90.39157,38.8164,166],[-90.39159,38.81637,166],[-90.39162,38.81635,166],[-90.39164,38.81633,166],[-90.39165,38.81629,167],[-90.39165,38.81626,168],[-90.39166,38.81623,169],[-90.39167,38.8162,170],[-90.39168,38.81617,171],[-90.39168,38.81614,172],[-90.39168,38.81611,173],[-90.3917,38.81609,173],[-90.39173,38.81607,173],[-90.39174,38.81603,173],[-90.39174,38.81599,174],[-90.39175,38.81596,174],[-90.39174,38.81591,176],[-90.39173,38.81587,177],[-90.39173,38.81583,178],[-90.39172,38.81579,178],[-90.39168,38.81577,180],[-90.39167,38.81573,181],[-90.39165,38.81571,181],[-90.39163,38.81568,181],[-90.39162,38.81566,182],[-90.39161,38.81563,182],[-90.3916,38.8156,182],[-90.39156,38.81558,183],[-90.39154,38.81556,183],[-90.39151,38.81554,184],[-90.39147,38.81553,184],[-90.39142,38.81553,184],[-90.39137,38.81552,185],[-90.39133,38.81551,185],[-90.39128,38.81552,185],[-90.39124,38.81553,185],[-90.39121,38.81554,185],[-90.39117,38.81553,185],[-90.39112,38.81552,186],[-90.39108,38.81553,186],[-90.39104,38.81553,185],[-90.391,38.81553,185],[-90.39095,38.81553,185],[-90.39091,38.81554,185],[-90.39087,38.81555,185],[-90.39083,38.81554,185],[-90.39077,38.81552,184],[-90.39071,38.81552,183],[-90.39066,38.81554,183],[-90.39061,38.81552,182],[-90.39056,38.8155,182],[-90.39051,38.81551,181],[-90.39046,38.8155,181],[-90.39041,38.81548,180],[-90.39039,38.81545,180],[-90.39035,38.81542,180],[-90.3903,38.81541,180],[-90.39027,38.81537,180],[-90.39022,38.81535,180],[-90.39017,38.81536,180],[-90.39011,38.81535,180],[-90.39007,38.81535,180],[-90.39002,38.81534,180],[-90.38996,38.81534,181],[-90.38991,38.81533,181],[-90.38987,38.81532,181],[-90.38981,38.8153,182],[-90.38977,38.81528,182],[-90.38973,38.81524,183],[-90.38969,38.81521,184],[-90.38966,38.81518,185],[-90.38962,38.81515,186],[-90.38958,38.81512,186],[-90.38957,38.81509,187],[-90.38956,38.81504,187],[-90.38953,38.81501,188],[-90.38952,38.81496,188],[-90.3895,38.81492,189],[-90.38947,38.81489,189],[-90.38945,38.81485,189],[-90.38946,38.81481,190],[-90.38948,38.81476,190],[-90.38951,38.81472,191],[-90.38952,38.81468,191],[-90.38952,38.81464,190],[-90.38952,38.81459,190],[-90.38953,38.81455,190],[-90.38955,38.81452,190],[-90.38953,38.81448,189],[-90.38949,38.81445,189],[-90.38947,38.81441,189],[-90.38942,38.81441,189],[-90.3894,38.81438,190],[-90.38938,38.81436,190],[-90.38936,38.81433,190],[-90.38933,38.81431,190],[-90.38929,38.8143,190],[-90.38926,38.81429,191],[-90.38922,38.81428,191],[-90.38919,38.81427,192],[-90.38915,38.81424,192],[-90.38912,38.81422,192],[-90.38909,38.81422,192],[-90.38905,38.81422,192],[-90.38901,38.81421,192],[-90.38898,38.8142,192],[-90.38895,38.81418,192],[-90.3889,38.81418,192],[-90.38886,38.81417,193],[-90.38883,38.81417,193],[-90.3888,38.81414,194],[-90.38876,38.81414,194],[-90.38873,38.81413,194],[-90.38869,38.81414,195],[-90.38865,38.81414,196],[-90.38861,38.81415,196],[-90.38857,38.81414,197],[-90.38854,38.81413,197],[-90.3885,38.81411,197],[-90.38847,38.8141,197],[-90.38843,38.81411,198],[-90.38839,38.8141,198],[-90.38836,38.81409,198],[-90.38833,38.81407,198],[-90.38829,38.81405,198],[-90.38826,38.81403,198],[-90.38821,38.81402,198],[-90.38816,38.81402,199],[-90.38811,38.81402,199],[-90.38805,38.81401,199],[-90.38801,38.81399,199],[-90.38797,38.81398,199],[-90.3879,38.81398,199],[-90.38785,38.81399,199],[-90.3878,38.81399,199],[-90.38775,38.81399,200],[-90.3877,38.81397,200],[-90.38767,38.81396,200],[-90.38765,38.81394,200],[-90.38762,38.81392,200],[-90.38758,38.81391,200],[-90.38754,38.81389,199],[-90.38751,38.81387,199],[-90.38749,38.81384,199],[-90.38749,38.81381,198],[-90.38751,38.81379,198],[-90.38751,38.81375,198],[-90.38751,38.81372,197],[-90.3875,38.81368,196],[-90.3875,38.81365,196],[-90.38753,38.81363,196],[-90.38755,38.8136,196],[-90.38756,38.81357,196],[-90.38758,38.81355,196],[-90.38762,38.81353,196],[-90.38763,38.8135,196],[-90.38762,38.81347,195],[-90.38762,38.81344,195],[-90.38762,38.81341,195],[-90.38761,38.81338,195],[-90.38761,38.81335,194],[-90.38761,38.81332,194],[-90.38766,38.8133,194],[-90.38771,38.81331,195],[-90.38773,38.81328,195],[-90.38778,38.81327,195],[-90.38783,38.81329,195],[-90.38787,38.81329,195],[-90.38792,38.81327,195],[-90.38795,38.81325,194],[-90.38797,38.81321,194],[-90.38799,38.81318,193],[-90.38799,38.81313,192],[-90.38799,38.8131,192],[-90.38802,38.81306,191],[-90.38802,38.81302,190],[-90.38803,38.81298,190],[-90.38802,38.81294,189],[-90.38801,38.8129,189],[-90.38803,38.81287,189],[-90.38803,38.81283,188],[-90.38801,38.81279,188],[-90.38803,38.81275,187],[-90.38807,38.81275,186],[-90.38809,38.81271,185],[-90.38814,38.81269,183],[-90.38818,38.81269,182],[-90.38823,38.81269,181],[-90.38828,38.81269,179],[-90.38833,38.81269,178],[-90.38837,38.8127,177],[-90.38841,38.81268,175],[-90.38844,38.81265,174],[-90.38847,38.81262,173],[-90.38851,38.81259,171],[-90.38854,38.81257,170],[-90.38857,38.81254,170],[-90.38856,38.8125,170],[-90.38857,38.81246,169],[-90.38857,38.81242,168],[-90.38856,38.81239,168],[-90.38858,38.81235,166],[-90.38858,38.81231,166],[-90.38861,38.81227,164],[-90.38866,38.81228,164],[-90.38871,38.81228,164],[-90.38874,38.81225,163],[-90.38875,38.81221,162],[-90.38875,38.81217,162],[-90.38877,38.81213,161],[-90.38876,38.8121,161],[-90.38871,38.81209,161],[-90.38866,38.81209,162],[-90.38863,38.81205,162],[-90.3886,38.81201,162],[-90.38857,38.81197,162],[-90.38855,38.81193,163],[-90.38853,38.81189,163],[-90.38852,38.81185,164],[-90.38852,38.81182,164],[-90.38855,38.81177,164],[-90.38857,38.81174,164],[-90.38858,38.8117,164],[-90.3886,38.81167,165],[-90.38864,38.81164,164],[-90.38867,38.81161,163],[-90.38869,38.81156,163],[-90.3887,38.81152,163],[-90.38875,38.81151,161],[-90.3888,38.81151,160],[-90.38885,38.81149,159],[-90.3889,38.81148,158],[-90.38895,38.81149,157],[-90.389,38.81148,156],[-90.38905,38.81147,154],[-90.38909,38.81145,153],[-90.38914,38.81144,152],[-90.38916,38.81141,152],[-90.38921,38.81139,152],[-90.38927,38.81141,152],[-90.38932,38.81141,152],[-90.38935,38.81137,152],[-90.38939,38.81135,152],[-90.38942,38.81131,152],[-90.38943,38.81127,152],[-90.38947,38.81125,151],[-90.3895,38.81122,151],[-90.38953,38.81119,151],[-90.38957,38.81117,151],[-90.38962,38.81117,151],[-90.38967,38.81119,150],[-90.38972,38.8112,150],[-90.38977,38.8112,149],[-90.38982,38.81119,149],[-90.38987,38.81119,148],[-90.38989,38.81116,148],[-90.38994,38.81114,147],[-90.38999,38.81113,146],[-90.39004,38.81114,146],[-90.39008,38.81116,145],[-90.39013,38.81115,144],[-90.39018,38.81117,144],[-90.39024,38.81116,143],[-90.39028,38.81115,142],[-90.39033,38.81114,142],[-90.39038,38.81114,142],[-90.39042,38.81117,142],[-90.39045,38.8112,142],[-90.39051,38.8112,142],[-90.39056,38.81121,142],[-90.3906,38.81123,142],[-90.39064,38.81123,142],[-90.39069,38.81121,142],[-90.39074,38.8112,141],[-90.39079,38.8112,141],[-90.39084,38.8112,141],[-90.39088,38.81122,141],[-90.3909,38.81125,141],[-90.39093,38.81128,141],[-90.39097,38.8113,141],[-90.39101,38.81132,141],[-90.39104,38.81137,141],[-90.39104,38.81141,141],[-90.39105,38.81145,142],[-90.39107,38.81149,142],[-90.39111,38.81152,142],[-90.39114,38.81155,142],[-90.39117,38.81158,142],[-90.3912,38.81162,143],[-90.3912,38.81166,143],[-90.39115,38.81168,144],[-90.3911,38.8117,145],[-90.39106,38.81173,146],[-90.39103,38.81176,147],[-90.39103,38.8118,148],[-90.39103,38.81184,149],[-90.39105,38.81188,149],[-90.39105,38.81192,150],[-90.39102,38.81196,150],[-90.39102,38.812,150],[-90.39101,38.81204,150],[-90.39099,38.81208,150],[-90.39099,38.81212,149],[-90.39101,38.81216,149],[-90.39102,38.8122,149],[-90.39103,38.81224,148],[-90.39102,38.81228,147],[-90.39103,38.81232,146],[-90.39106,38.81235,145],[-90.39109,38.81238,144],[-90.39109,38.81243,143],[-90.39108,38.81246,142],[-90.39107,38.8125,141],[-90.39108,38.81253,141],[-90.39113,38.81256,142],[-90.39115,38.8126,142],[-90.39116,38.81264,143],[-90.39114,38.81267,144],[-90.39113,38.81271,145],[-90.3911,38.81274,146],[-90.39111,38.81278,146],[-90.39111,38.81282,148],[-90.39112,38.81286,148],[-90.39113,38.81289,149],[-90.39114,38.81293,150],[-90.39115,38.81297,151],[-90.39117,38.81301,152],[-90.3912,38.81304,152],[-90.39124,38.81306,152],[-90.39127,38.8131,151],[-90.39128,38.81314,151],[-90.3913,38.81318,151],[-90.39133,38.8132,151],[-90.39137,38.81319,150],[-90.3914,38.81323,150],[-90.3914,38.81328,150],[-90.39145,38.81329,149],[-90.39149,38.81328,149],[-90.39154,38.8133,148],[-90.39158,38.81334,148],[-90.39161,38.81337,147],[-90.39164,38.81341,146],[-90.39167,38.81345,145],[-90.3917,38.81347,144],[-90.39174,38.8135,143],[-90.39176,38.81353,143],[-90.39177,38.81357,142],[-90.39177,38.81361,142],[-90.39181,38.81364,142],[-90.39185,38.81367,141],[-90.39189,38.8137,140],[-90.3919,38.81374,140],[-90.39191,38.81379,140],[-90.39192,38.81382,139],[-90.39194,38.81387,138],[-90.39199,38.81388,137],[-90.39203,38.8139,137],[-90.39207,38.81392,137],[-90.3921,38.81395,138],[-90.39215,38.81397,139],[-90.39219,38.81398,139],[-90.39221,38.81402,141],[-90.39226,38.81403,142],[-90.39229,38.814,140],[-90.3923,38.81396,138],[-90.39233,38.81393,137],[-90.39236,38.81389,135],[-90.39238,38.81386,136],[-90.39239,38.81381,136],[-90.39241,38.81378,137],[-90.39243,38.81374,137],[-90.39243,38.8137,138],[-90.39242,38.81366,138],[-90.39243,38.81362,138],[-90.39248,38.81361,138],[-90.39251,38.81357,138],[-90.39252,38.81353,138],[-90.39253,38.81349,137],[-90.39255,38.81345,137],[-90.39259,38.81342,137],[-90.39263,38.81339,136],[-90.39268,38.81336,135],[-90.39271,38.81334,135],[-90.39275,38.81331,135],[-90.39278,38.81327,134],[-90.3928,38.81324,134],[-90.39284,38.81321,134],[-90.39287,38.81318,133],[-90.39291,38.81315,133],[-90.39294,38.81312,133],[-90.39299,38.8131,133],[-90.39303,38.81307,133],[-90.39307,38.81304,133],[-90.39312,38.81302,133],[-90.39316,38.813,133],[-90.3932,38.81297,133],[-90.39323,38.81295,133],[-90.39326,38.81292,133],[-90.39332,38.8129,134],[-90.39337,38.81289,134],[-90.39341,38.8129,133],[-90.39344,38.81291,133],[-90.39347,38.81293,133],[-90.39349,38.81296,133],[-90.39351,38.81298,132],[-90.39353,38.81301,132],[-90.39354,38.81303,132],[-90.39357,38.81305,132],[-90.3936,38.81306,132],[-90.39364,38.81308,132],[-90.39367,38.8131,132],[-90.3937,38.81312,132],[-90.39373,38.81314,132],[-90.39374,38.81317,132],[-90.39377,38.8132,132],[-90.39381,38.81322,132],[-90.39384,38.81324,132],[-90.39386,38.81326,132],[-90.39388,38.81328,132],[-90.3939,38.81331,132],[-90.39395,38.81332,132],[-90.39398,38.81334,132],[-90.39401,38.81336,132],[-90.39405,38.81339,132],[-90.39408,38.81343,132],[-90.39412,38.81346,132],[-90.39416,38.81349,132],[-90.39421,38.8135,133],[-90.39425,38.81351,133],[-90.3943,38.81354,133],[-90.39433,38.81357,133],[-90.39437,38.81359,133],[-90.39442,38.8136,133],[-90.39446,38.81362,134],[-90.39451,38.81364,134],[-90.39456,38.81365,134],[-90.3946,38.81368,134],[-90.39464,38.8137,135],[-90.39469,38.81372,135],[-90.39474,38.81374,135],[-90.39478,38.81377,135],[-90.39484,38.81379,135],[-90.39487,38.81381,135],[-90.39492,38.81384,135],[-90.39495,38.81387,135],[-90.39499,38.8139,134],[-90.39501,38.81393,135],[-90.39503,38.81397,135],[-90.39507,38.81399,135],[-90.39511,38.81401,135],[-90.39507,38.814,135],[-90.39502,38.81398,135],[-90.39499,38.81396,134],[-90.39494,38.81394,134],[-90.39489,38.81392,134],[-90.39486,38.81389,135],[-90.39482,38.81386,135],[-90.39477,38.81383,135],[-90.39473,38.8138,135],[-90.39469,38.81379,135],[-90.39463,38.81377,134],[-90.39459,38.81374,134],[-90.39454,38.81371,134],[-90.3945,38.81368,134],[-90.39446,38.81365,134],[-90.39441,38.81364,133],[-90.39436,38.81362,133],[-90.39433,38.8136,133],[-90.39429,38.81357,133],[-90.39424,38.81356,133],[-90.3942,38.81353,133],[-90.39417,38.8135,133],[-90.39412,38.81349,132],[-90.39407,38.81347,132],[-90.39402,38.81344,132],[-90.39398,38.81341,132],[-90.39394,38.81339,132],[-90.39388,38.81337,132],[-90.39384,38.81335,132],[-90.3938,38.81333,132],[-90.39376,38.8133,132],[-90.39372,38.81328,132],[-90.39368,38.81325,132],[-90.39364,38.81322,132],[-90.39361,38.81318,132],[-90.39358,38.81315,132],[-90.39355,38.81312,132],[-90.39353,38.81308,132],[-90.39352,38.81304,132],[-90.39351,38.813,132],[-90.3935,38.81297,133],[-90.3935,38.81294,133],[-90.39352,38.81292,133],[-90.39354,38.81289,133],[-90.39357,38.81286,133],[-90.39358,38.81284,133],[-90.39359,38.81281,133],[-90.3936,38.81278,134],[-90.39362,38.81276,134],[-90.39365,38.81273,134],[-90.39368,38.81271,134],[-90.39372,38.81269,134],[-90.39375,38.81266,135],[-90.39378,38.81264,135],[-90.39382,38.81262,135],[-90.39386,38.8126,135],[-90.3939,38.81257,136],[-90.39393,38.81255,136],[-90.39396,38.81252,136],[-90.39398,38.8125,137],[-90.39401,38.81248,137],[-90.39404,38.81246,137],[-90.39407,38.81244,137],[-90.3941,38.81241,137],[-90.39413,38.81239,137],[-90.39417,38.81236,137],[-90.39421,38.81233,137],[-90.39425,38.8123,137],[-90.39429,38.81228,137],[-90.39432,38.81225,137],[-90.39436,38.81222,138],[-90.39439,38.81219,138],[-90.39443,38.81216,138],[-90.39447,38.81213,137],[-90.39451,38.8121,137],[-90.39454,38.81206,137],[-90.39457,38.81203,137],[-90.39461,38.81199,137],[-90.39465,38.81197,137],[-90.39468,38.81195,137],[-90.39471,38.81193,136],[-90.39475,38.81191,136],[-90.39478,38.81189,136],[-90.39481,38.81186,135],[-90.39484,38.81184,135],[-90.39486,38.81181,134],[-90.39489,38.81179,134],[-90.39491,38.81177,134],[-90.39493,38.81175,133],[-90.39497,38.81173,133],[-90.395,38.81171,133],[-90.39503,38.81169,133],[-90.39506,38.81166,132],[-90.39508,38.81164,132],[-90.3951,38.81161,132],[-90.39512,38.81159,132],[-90.39514,38.81156,132],[-90.39517,38.81155,132],[-90.39519,38.81157,132],[-90.39515,38.81159,132],[-90.39514,38.81162,132],[-90.39513,38.81159,132],[-90.3951,38.81158,132]]],
        "bbox": [
          -90.38749,
          38.81662,
          -90.39519,
          38.81113
        ]
      },
      "properties": {
        "name": "10.13.2022"
      }
    }
  ]
}