{
  "type": "FeatureCollection",
  "features": [
    {
      "type": "Feature",
      "geometry": {
        "type": "MultiLineString",
        "coordinates": [[[-90.39497,38.81168,133],[-90.39495,38.8117,133],[-90.39492,38.81173,133],[-90.39494,38.81177,134],[-90.39491,38.81179,134],[-90.39488,38.81182,134],[-90.39485,38.81184,135],[-90.39482,38.81186,135],[-90.39479,38.81188,135],[-90.39476,38.81191,136],[-90.39473,38.81194,136],[-90.3947,38.81196,137],[-90.39467,38.81198,137],[-90.39464,38.81199,137],[-90.3946,38.81201,137],[-90.39457,38.81202,137],[-90.39454,38.81205,137],[-90.39451,38.81207,137],[-90.39448,38.81209,137],[-90.39446,38.81211,137],[-90.39443,38.81213,138],[-90.39441,38.81216,138],[-90.3944,38.81213,138],[-90.39444,38.81212,138],[-90.39448,38.81213,137],[-90.39444,38.81214,138],[-90.39441,38.81216,138],[-90.39439,38.81219,138],[-90.39436,38.81221,138],[-90.39434,38.81223,137],[-90.39431,38.81226,137],[-90.39428,38.81228,137],[-90.39424,38.81231,137],[-90.39422,38.81234,137],[-90.39419,38.81235,137],[-90.39415,38.81237,137],[-90.39413,38.81239,137],[-90.39411,38.81242,137],[-90.39407,38.81245,137],[-90.39405,38.81247,137],[-90.39402,38.8125,137],[-90.39398,38.81252,136],[-90.39395,38.81254,136],[-90.39391,38.81256,136],[-90.39388,38.81258,136],[-90.39385,38.81261,135],[-90.39382,38.81263,135],[-90.39378,38.81266,135],[-90.39375,38.81269,134],[-90.39372,38.81271,134],[-90.39369,38.81272,134],[-90.39366,38.81274,134],[-90.39364,38.81276,134],[-90.3936,38.81278,134],[-90.39357,38.8128,133],[-90.39354,38.81282,133],[-90.39351,38.81285,133],[-90.39349,38.81286,133],[-90.39345,38.81288,133],[-90.39341,38.81289,133],[-90.39337,38.81289,134],[-90.39335,38.81291,134],[-90.39333,38.81294,133],[-90.39331,38.81296,133],[-90.39328,38.81298,133],[-90.39325,38.813,133],[-90.39322,38.81303,133],[-90.39318,38.81304,133],[-90.39314,38.81305,133],[-90.39312,38.81306,132],[-90.39308,38.81308,132],[-90.39304,38.8131,133],[-90.39302,38.81313,133],[-90.39299,38.81315,133],[-90.39296,38.81318,133],[-90.39293,38.81322,133],[-90.39289,38.81325,134],[-90.39284,38.81327,134],[-90.3928,38.8133,134],[-90.39277,38.81332,135],[-90.39276,38.81335,135],[-90.39273,38.81339,135],[-90.39271,38.81341,136],[-90.39269,38.81345,136],[-90.39269,38.81347,136],[-90.39269,38.8135,137],[-90.39266,38.81353,137],[-90.39263,38.81356,138],[-90.39258,38.81358,138],[-90.39255,38.81359,138],[-90.39251,38.81362,138],[-90.3925,38.81365,138],[-90.39248,38.81368,138],[-90.39247,38.81371,138],[-90.39245,38.81374,138],[-90.39243,38.81376,137],[-90.39241,38.81379,137],[-90.39244,38.8138,137],[-90.39246,38.81384,137],[-90.39243,38.81386,137],[-90.39239,38.81389,135],[-90.39236,38.81392,137],[-90.39233,38.81395,138],[-90.39232,38.81398,139],[-90.39232,38.81401,141],[-90.39233,38.81404,143],[-90.39233,38.81407,145],[-90.39235,38.81409,146],[-90.39234,38.81413,148],[-90.39233,38.81416,150],[-90.39233,38.81419,151],[-90.39236,38.81417,150],[-90.3924,38.8142,151],[-90.39243,38.81424,151],[-90.39246,38.81426,152],[-90.39249,38.81429,152],[-90.39252,38.81433,153],[-90.39255,38.81436,153],[-90.39257,38.81438,153],[-90.39261,38.81442,154],[-90.39263,38.81444,154],[-90.39264,38.81448,154],[-90.39266,38.81452,153],[-90.39268,38.81455,153],[-90.3927,38.81458,153],[-90.39272,38.8146,153],[-90.39275,38.81462,152],[-90.3928,38.81461,151],[-90.39284,38.81462,151],[-90.39287,38.81465,150],[-90.3929,38.81466,149],[-90.39294,38.81465,148],[-90.39297,38.81466,148],[-90.39298,38.81469,147],[-90.39298,38.81473,147],[-90.39297,38.81475,147],[-90.39297,38.81479,148],[-90.39298,38.81482,147],[-90.39302,38.81484,147],[-90.39305,38.81487,147],[-90.39307,38.8149,147],[-90.39308,38.81493,146],[-90.39311,38.81491,146],[-90.39315,38.81492,145],[-90.39316,38.81495,145],[-90.39317,38.81497,145],[-90.3932,38.81499,144],[-90.39319,38.81502,144],[-90.3932,38.81505,144],[-90.39322,38.81508,143],[-90.39323,38.81511,143],[-90.39323,38.81514,142],[-90.39322,38.81517,142],[-90.39321,38.8152,142],[-90.39318,38.81523,143],[-90.39316,38.81526,143],[-90.39313,38.81529,143],[-90.3931,38.81532,143],[-90.39309,38.81535,142],[-90.39308,38.81538,142],[-90.39304,38.8154,142],[-90.39301,38.81541,142],[-90.39298,38.81543,143],[-90.39295,38.81545,143],[-90.39293,38.81548,142],[-90.39289,38.8155,143],[-90.39284,38.8155,144],[-90.3928,38.8155,146],[-90.39277,38.8155,146],[-90.39273,38.81551,148],[-90.39267,38.81552,149],[-90.39264,38.81553,150],[-90.39261,38.81555,151],[-90.39258,38.81557,152],[-90.39255,38.8156,153],[-90.39254,38.81564,152],[-90.39253,38.81567,151],[-90.39255,38.8157,150],[-90.39254,38.81574,149],[-90.39255,38.81577,148],[-90.39257,38.81579,147],[-90.39258,38.81582,146],[-90.39258,38.81585,146],[-90.39259,38.81588,145],[-90.39259,38.81591,145],[-90.39256,38.81593,146],[-90.39256,38.81597,146],[-90.39254,38.816,147],[-90.39252,38.81603,148],[-90.39256,38.81605,146],[-90.3926,38.81607,145],[-90.39264,38.81608,144],[-90.3926,38.8161,145],[-90.39256,38.81609,146],[-90.39252,38.81609,148],[-90.39255,38.81607,147],[-90.39253,38.8161,147],[-90.39254,38.81612,147],[-90.39251,38.81613,148],[-90.39247,38.81614,149],[-90.39242,38.81615,150],[-90.3924,38.81617,150],[-90.39237,38.8162,150],[-90.39235,38.81622,150],[-90.39235,38.81625,150],[-90.39233,38.81628,149],[-90.3923,38.8163,149],[-90.39229,38.81633,149],[-90.39227,38.81635,149],[-90.39226,38.81639,148],[-90.39224,38.81641,148],[-90.39223,38.81644,148],[-90.39224,38.81647,147],[-90.39221,38.81649,148],[-90.39219,38.81652,148],[-90.39216,38.81654,148],[-90.39213,38.81656,149],[-90.39211,38.81658,149],[-90.39208,38.81661,149],[-90.39205,38.81663,149],[-90.39201,38.81663,150],[-90.39197,38.81664,151],[-90.39196,38.81666,150],[-90.39194,38.8167,150],[-90.39193,38.81673,150],[-90.39192,38.81676,150],[-90.39191,38.81679,150],[-90.39187,38.81681,150],[-90.39183,38.81682,150],[-90.39182,38.81679,151],[-90.3918,38.81682,150],[-90.39177,38.81684,150],[-90.39174,38.81685,150],[-90.39176,38.81687,149],[-90.39177,38.8169,149],[-90.3918,38.81693,148],[-90.39177,38.81694,148],[-90.39174,38.81698,146],[-90.39171,38.81701,145],[-90.39169,38.81703,144],[-90.39166,38.81705,143],[-90.39163,38.81706,144],[-90.39159,38.81706,144],[-90.39157,38.81703,146],[-90.39152,38.81704,146],[-90.3915,38.81706,146],[-90.39148,38.81709,145],[-90.39146,38.81711,144],[-90.39146,38.81714,143],[-90.39144,38.81717,142],[-90.39141,38.81719,142],[-90.39139,38.81721,141],[-90.39136,38.81724,141],[-90.39134,38.81728,140],[-90.39131,38.8173,140],[-90.39127,38.81731,140],[-90.39123,38.81731,141],[-90.3912,38.81732,141],[-90.39117,38.81735,141],[-90.39115,38.81737,141],[-90.39113,38.81739,141],[-90.3911,38.81742,141],[-90.39106,38.81742,141],[-90.39103,38.81745,141],[-90.391,38.81748,140],[-90.39098,38.8175,140],[-90.39095,38.8175,140],[-90.39091,38.81748,141],[-90.39088,38.81745,143],[-90.39093,38.81746,142],[-90.39097,38.81746,141],[-90.391,38.81748,140],[-90.39098,38.81751,140],[-90.39094,38.81752,140],[-90.3909,38.81753,140],[-90.39088,38.81756,140],[-90.39085,38.81759,140],[-90.39083,38.81761,140],[-90.3908,38.81764,139],[-90.39076,38.81765,140],[-90.39074,38.81767,140],[-90.39072,38.8177,139],[-90.39068,38.81771,140],[-90.39064,38.81772,140],[-90.39061,38.81773,140],[-90.39058,38.81775,140],[-90.3906,38.81772,140],[-90.39061,38.81769,141],[-90.39063,38.81767,141],[-90.39065,38.81764,141],[-90.39061,38.81764,142],[-90.39058,38.81765,142],[-90.39062,38.81765,141],[-90.39065,38.81765,141],[-90.39063,38.81768,141],[-90.3906,38.81769,141],[-90.39057,38.81767,142],[-90.39055,38.81765,142],[-90.39052,38.81764,143],[-90.3905,38.81761,144],[-90.39048,38.81759,144],[-90.39047,38.81756,145],[-90.39044,38.81753,146],[-90.39043,38.81751,147],[-90.39043,38.81747,148],[-90.39044,38.81744,149],[-90.39048,38.81745,148],[-90.39049,38.81748,147],[-90.39052,38.81745,148],[-90.39054,38.81748,146],[-90.39057,38.81747,146],[-90.39061,38.81746,146],[-90.39058,38.81743,148],[-90.39058,38.8174,149],[-90.39055,38.81737,150],[-90.39053,38.81735,151],[-90.39051,38.81732,152],[-90.39048,38.81729,153],[-90.39047,38.81726,154],[-90.39047,38.81723,156],[-90.39049,38.8172,156],[-90.39052,38.81718,157],[-90.39055,38.81717,157],[-90.39052,38.81719,157],[-90.3905,38.81722,156],[-90.3905,38.81718,157],[-90.39052,38.81715,158],[-90.39055,38.81712,159],[-90.39057,38.81709,160],[-90.39052,38.81708,160],[-90.39053,38.81704,162],[-90.3905,38.81702,162],[-90.39051,38.81699,163],[-90.39052,38.81696,164],[-90.39052,38.81693,165],[-90.39053,38.8169,165],[-90.3905,38.81688,166],[-90.39053,38.81687,165],[-90.39056,38.81685,166],[-90.3906,38.81684,165],[-90.39063,38.81682,165],[-90.39067,38.8168,165],[-90.3907,38.81679,165],[-90.39076,38.81678,165],[-90.3908,38.81678,165],[-90.39085,38.81677,165],[-90.39084,38.81673,165],[-90.39088,38.81674,165],[-90.39093,38.81674,165],[-90.39098,38.81673,164],[-90.39094,38.81677,164],[-90.39099,38.81675,164],[-90.39104,38.81676,163],[-90.39107,38.81681,162],[-90.39103,38.81682,162],[-90.39106,38.81684,161],[-90.39111,38.81686,160],[-90.39115,38.81684,160],[-90.39116,38.81681,161],[-90.3912,38.81679,161],[-90.39124,38.81678,160],[-90.39127,38.81676,160],[-90.3913,38.81674,161],[-90.39131,38.81671,161],[-90.39133,38.81668,162],[-90.39136,38.81666,162],[-90.39138,38.81664,163],[-90.39142,38.81662,162],[-90.39145,38.8166,162],[-90.39148,38.81658,162],[-90.39151,38.81657,162],[-90.3915,38.8166,161],[-90.39148,38.81657,163],[-90.3915,38.81655,163],[-90.39152,38.81652,163],[-90.39154,38.8165,163],[-90.39155,38.81648,164],[-90.39157,38.81644,164],[-90.39159,38.81641,165],[-90.39162,38.81638,165],[-90.39163,38.81635,166],[-90.39164,38.81632,167],[-90.39166,38.8163,167],[-90.39168,38.81628,167],[-90.39169,38.81624,168],[-90.39171,38.81621,169],[-90.39173,38.81618,169],[-90.39174,38.81615,170],[-90.39175,38.81612,171],[-90.39171,38.81613,172],[-90.39173,38.81609,172],[-90.39174,38.81606,173],[-90.39176,38.81604,172],[-90.39176,38.81601,173],[-90.39177,38.81598,173],[-90.39179,38.81596,173],[-90.3918,38.81593,174],[-90.39179,38.81589,175],[-90.3918,38.81586,175],[-90.3918,38.81582,176],[-90.39179,38.8158,176],[-90.39178,38.81576,177],[-90.39178,38.81572,178],[-90.39176,38.81569,179],[-90.39174,38.81571,179],[-90.39171,38.81568,180],[-90.39168,38.81566,181],[-90.39165,38.81563,182],[-90.39163,38.8156,182],[-90.39161,38.81558,183],[-90.39159,38.81556,183],[-90.39156,38.81553,183],[-90.39154,38.8155,183],[-90.39151,38.81548,183],[-90.39148,38.81546,184],[-90.39144,38.81545,184],[-90.39139,38.81545,185],[-90.39134,38.81544,185],[-90.39129,38.81543,185],[-90.39124,38.81544,185],[-90.3912,38.81544,186],[-90.39115,38.81543,186],[-90.39109,38.81544,186],[-90.39104,38.81545,186],[-90.391,38.81546,186],[-90.39097,38.81548,185],[-90.39092,38.81548,185],[-90.39087,38.81549,185],[-90.39083,38.81549,185],[-90.39079,38.8155,184],[-90.39076,38.81553,184],[-90.39076,38.81556,184],[-90.39075,38.81559,183],[-90.39074,38.81555,184],[-90.39077,38.81557,184],[-90.39073,38.81558,183],[-90.3907,38.8156,183],[-90.39067,38.81558,183],[-90.39065,38.81555,183],[-90.39063,38.81553,183],[-90.39058,38.81552,182],[-90.39053,38.81549,182],[-90.39048,38.81547,181],[-90.39044,38.81544,181],[-90.39038,38.81542,181],[-90.39032,38.8154,180],[-90.39026,38.81538,180],[-90.39022,38.81537,180],[-90.39018,38.81534,181],[-90.39014,38.81533,181],[-90.39009,38.81531,181],[-90.39004,38.8153,181],[-90.39,38.81528,181],[-90.38996,38.81527,182],[-90.38992,38.81524,183],[-90.38988,38.81522,183],[-90.38985,38.8152,184],[-90.38982,38.81517,185],[-90.38979,38.81514,185],[-90.38976,38.81511,186],[-90.38971,38.81512,186],[-90.38968,38.81507,187],[-90.38966,38.81504,188],[-90.38963,38.81501,188],[-90.38961,38.81498,188],[-90.38959,38.81495,189],[-90.38959,38.81491,189],[-90.38961,38.81488,189],[-90.3896,38.81484,190],[-90.38959,38.8148,190],[-90.38957,38.81476,191],[-90.38955,38.81472,191],[-90.38954,38.81468,191],[-90.38954,38.81465,190],[-90.38953,38.81461,190],[-90.38952,38.81457,190],[-90.3895,38.81452,190],[-90.38951,38.81448,189],[-90.38953,38.81445,189],[-90.38953,38.81441,189],[-90.38951,38.81438,189],[-90.38949,38.81434,188],[-90.38945,38.81434,189],[-90.38941,38.81433,189],[-90.38937,38.81433,190],[-90.38934,38.81432,190],[-90.3893,38.8143,190],[-90.38927,38.81429,191],[-90.38923,38.81428,191],[-90.38919,38.81427,192],[-90.38916,38.81425,192],[-90.38912,38.81422,192],[-90.38908,38.81421,192],[-90.38905,38.81419,192],[-90.389,38.81418,192],[-90.38895,38.81418,192],[-90.38891,38.81417,192],[-90.38886,38.81414,193],[-90.38882,38.81412,193],[-90.38879,38.81409,193],[-90.38874,38.81407,194],[-90.3887,38.81406,194],[-90.38865,38.81406,195],[-90.38859,38.81405,196],[-90.38855,38.81404,196],[-90.3885,38.81402,196],[-90.38846,38.81401,197],[-90.38843,38.81399,197],[-90.38838,38.81398,197],[-90.38834,38.81396,198],[-90.38829,38.81394,198],[-90.38825,38.81393,198],[-90.38821,38.81391,198],[-90.38816,38.8139,198],[-90.3881,38.81389,198],[-90.38806,38.81389,198],[-90.38801,38.81389,199],[-90.38796,38.8139,199],[-90.38792,38.81391,199],[-90.38788,38.81392,199],[-90.38783,38.81391,199],[-90.3878,38.81393,199],[-90.38775,38.81395,200],[-90.38771,38.81394,200],[-90.38766,38.81394,200],[-90.38765,38.81396,200],[-90.38762,38.81395,200],[-90.38759,38.81392,200],[-90.38756,38.8139,200],[-90.38753,38.81388,199],[-90.38752,38.81384,199],[-90.3875,38.81381,198],[-90.3875,38.81378,198],[-90.38753,38.81375,198],[-90.38753,38.8137,197],[-90.38754,38.81366,196],[-90.38755,38.81362,196],[-90.38757,38.81359,196],[-90.38758,38.81355,196],[-90.38758,38.81352,195],[-90.38759,38.81349,195],[-90.38761,38.81344,195],[-90.38761,38.81341,195],[-90.38762,38.81337,195],[-90.38762,38.81334,194],[-90.38764,38.81331,194],[-90.38769,38.81331,195],[-90.38773,38.81331,195],[-90.38778,38.81329,195],[-90.38783,38.81329,195],[-90.38788,38.81328,195],[-90.38792,38.81327,195],[-90.38796,38.81324,194],[-90.38796,38.8132,193],[-90.388,38.81318,193],[-90.38802,38.81314,192],[-90.38806,38.81312,192],[-90.3881,38.8131,190],[-90.38813,38.81307,189],[-90.38812,38.81304,189],[-90.38812,38.813,188],[-90.38811,38.81296,188],[-90.3881,38.81293,188],[-90.38809,38.8129,188],[-90.3881,38.81287,187],[-90.38812,38.81285,186],[-90.38814,38.81282,186],[-90.38815,38.81278,185],[-90.3882,38.81277,183],[-90.38824,38.81276,182],[-90.38826,38.81273,181],[-90.38831,38.81273,179],[-90.38835,38.81273,178],[-90.38838,38.81274,177],[-90.38842,38.81274,176],[-90.38846,38.81273,174],[-90.38849,38.81271,173],[-90.38852,38.81269,172],[-90.38855,38.81266,171],[-90.38857,38.81264,170],[-90.38858,38.81261,170],[-90.3886,38.81258,169],[-90.3886,38.81255,169],[-90.38861,38.81252,169],[-90.38864,38.81249,168],[-90.38868,38.81247,167],[-90.38871,38.81244,166],[-90.3887,38.8124,165],[-90.38875,38.81238,165],[-90.38873,38.81233,164],[-90.38876,38.81231,163],[-90.38877,38.81226,163],[-90.38881,38.81225,162],[-90.38885,38.81224,162],[-90.38887,38.81221,161],[-90.38889,38.81216,160],[-90.38893,38.81213,159],[-90.38891,38.8121,159],[-90.3889,38.81206,159],[-90.38887,38.81203,158],[-90.38883,38.81202,159],[-90.38879,38.812,159],[-90.38876,38.81202,160],[-90.38873,38.81199,160],[-90.3887,38.81205,161],[-90.38866,38.812,161],[-90.38862,38.81196,161],[-90.38858,38.8119,162],[-90.38862,38.81195,161],[-90.3887,38.81195,160],[-90.38871,38.81191,160],[-90.38865,38.81192,161],[-90.38859,38.81188,163],[-90.38859,38.81183,163],[-90.3886,38.81177,163],[-90.38864,38.81174,163],[-90.38868,38.81171,163],[-90.38873,38.81168,162],[-90.38878,38.81164,161],[-90.38883,38.81163,160],[-90.38885,38.81158,160],[-90.38885,38.81154,159],[-90.38892,38.81153,158],[-90.38898,38.81152,156],[-90.38905,38.81147,154],[-90.38912,38.81147,153],[-90.38917,38.81143,152],[-90.38923,38.81141,152],[-90.38928,38.81139,152],[-90.38933,38.81136,152],[-90.38937,38.81136,152],[-90.38941,38.81136,152],[-90.38944,38.81133,152],[-90.38946,38.81129,151],[-90.38948,38.81127,151],[-90.38949,38.81123,151],[-90.38953,38.8112,151],[-90.38957,38.81117,151],[-90.38962,38.81116,151],[-90.38966,38.81116,151],[-90.3897,38.81117,150],[-90.38974,38.81117,150],[-90.38978,38.81117,149],[-90.38982,38.81117,149],[-90.38986,38.81116,148],[-90.38989,38.81115,148],[-90.38992,38.81113,147],[-90.38995,38.81111,147],[-90.38997,38.81113,147],[-90.39001,38.81115,146],[-90.39006,38.81116,145],[-90.3901,38.81116,145],[-90.39014,38.81117,144],[-90.39017,38.81118,144],[-90.39022,38.81118,143],[-90.39027,38.81117,143],[-90.39031,38.81117,142],[-90.39035,38.81118,142],[-90.39039,38.81118,142],[-90.39043,38.81119,142],[-90.39047,38.8112,142],[-90.3905,38.81121,142],[-90.39052,38.81123,142],[-90.39057,38.81124,142],[-90.39061,38.81124,142],[-90.39064,38.81123,142],[-90.3907,38.81124,142],[-90.39072,38.81128,142],[-90.39076,38.81125,142],[-90.3908,38.81122,141],[-90.39083,38.8112,141],[-90.39084,38.81117,141],[-90.39086,38.8112,141],[-90.39087,38.81123,141],[-90.39089,38.81126,141],[-90.39092,38.81127,141],[-90.39095,38.8113,141],[-90.39098,38.81128,140],[-90.39094,38.81127,141],[-90.39097,38.81129,141],[-90.39101,38.81131,141],[-90.39104,38.81135,141],[-90.39105,38.81137,141],[-90.39106,38.8114,141],[-90.39108,38.81143,141],[-90.39108,38.81146,142],[-90.39108,38.81149,142],[-90.39109,38.81152,143],[-90.39109,38.81155,143],[-90.39108,38.81158,143],[-90.39107,38.81161,144],[-90.39103,38.81164,145],[-90.39099,38.81166,145],[-90.39095,38.81168,146],[-90.39093,38.81172,147],[-90.39092,38.81174,147],[-90.3909,38.81178,147],[-90.39089,38.81181,148],[-90.39091,38.81183,148],[-90.39092,38.81186,148],[-90.39091,38.81189,149],[-90.39089,38.81192,149],[-90.39091,38.81195,149],[-90.39091,38.81199,149],[-90.3909,38.81202,149],[-90.39091,38.81205,149],[-90.39093,38.81208,149],[-90.39094,38.81211,149],[-90.39096,38.81213,149],[-90.39092,38.81215,149],[-90.39092,38.81219,149],[-90.39087,38.81221,149],[-90.39089,38.81223,149],[-90.3909,38.81227,148],[-90.39093,38.81229,148],[-90.39095,38.81231,147],[-90.39098,38.81234,146],[-90.39099,38.81237,145],[-90.39097,38.81241,144],[-90.39097,38.81244,144],[-90.39097,38.81248,143],[-90.39097,38.81252,142],[-90.39097,38.81255,143],[-90.39096,38.81258,144],[-90.39094,38.8126,145],[-90.39094,38.81263,145],[-90.39097,38.81266,146],[-90.391,38.81269,146],[-90.39101,38.81272,147],[-90.39103,38.81275,147],[-90.39104,38.81278,148],[-90.39107,38.81281,148],[-90.39108,38.81285,149],[-90.39111,38.81287,149],[-90.39112,38.8129,149],[-90.39113,38.81293,150],[-90.39115,38.81296,151],[-90.39117,38.81299,151],[-90.39121,38.81302,151],[-90.39118,38.81304,152],[-90.39121,38.81307,152],[-90.39122,38.81311,152],[-90.39125,38.81313,152],[-90.39129,38.81315,151],[-90.39132,38.81316,151],[-90.39136,38.81316,150],[-90.39138,38.81318,150],[-90.39134,38.81319,151],[-90.39134,38.81322,151],[-90.39137,38.81324,150],[-90.39141,38.81325,150],[-90.39145,38.81327,149],[-90.39145,38.81329,149],[-90.39144,38.81333,150],[-90.39147,38.81334,149],[-90.3915,38.81336,149],[-90.39155,38.81338,148],[-90.39159,38.81339,147],[-90.39162,38.8134,146],[-90.39165,38.81341,146],[-90.39169,38.81341,145],[-90.39173,38.8134,145],[-90.39172,38.81342,144],[-90.39172,38.81345,144],[-90.39172,38.81348,144],[-90.39173,38.81352,143],[-90.39173,38.81356,143],[-90.39175,38.81358,142],[-90.39176,38.81362,142],[-90.39178,38.81365,142],[-90.3918,38.81369,142],[-90.39181,38.81371,142],[-90.39183,38.81374,141],[-90.39186,38.81376,141],[-90.3919,38.81377,140],[-90.39192,38.8138,139],[-90.39195,38.81384,138],[-90.39198,38.81387,137],[-90.39202,38.81389,136],[-90.39205,38.81391,137],[-90.39208,38.81394,138],[-90.39212,38.81397,139],[-90.39218,38.81399,140],[-90.39221,38.81402,141],[-90.39226,38.81405,143],[-90.3923,38.81406,144],[-90.39234,38.81406,144],[-90.39237,38.81404,143],[-90.39238,38.81401,142],[-90.3924,38.81398,140],[-90.39242,38.81395,139],[-90.39246,38.81392,138],[-90.39249,38.81389,137],[-90.39251,38.81387,138],[-90.39252,38.81383,138],[-90.39253,38.8138,138],[-90.39254,38.81376,138],[-90.39256,38.81373,138],[-90.39257,38.8137,138],[-90.39258,38.81367,138],[-90.39259,38.8137,138],[-90.39255,38.81371,138],[-90.39252,38.81373,138],[-90.39248,38.81374,138],[-90.39249,38.81371,138],[-90.3925,38.81368,138],[-90.39253,38.81366,138],[-90.39255,38.81368,138],[-90.39259,38.81368,138],[-90.39258,38.81364,138],[-90.3926,38.8136,138],[-90.39263,38.81357,138],[-90.39266,38.81354,137],[-90.39269,38.81353,137],[-90.39271,38.8135,137],[-90.39274,38.81347,136],[-90.39275,38.81344,136],[-90.39278,38.81342,135],[-90.3928,38.8134,135],[-90.39282,38.81337,135],[-90.39286,38.81334,134],[-90.39289,38.81331,134],[-90.39292,38.81328,133],[-90.39296,38.81326,133],[-90.39299,38.81323,133],[-90.39302,38.8132,133],[-90.39304,38.81318,133],[-90.39308,38.81316,132],[-90.39312,38.81314,132],[-90.39316,38.81312,132],[-90.39318,38.8131,132],[-90.39321,38.81308,132],[-90.39325,38.81304,133],[-90.39328,38.81303,133],[-90.3933,38.813,133],[-90.39333,38.81297,133],[-90.39337,38.81295,133],[-90.39339,38.81292,133],[-90.39342,38.8129,133],[-90.39345,38.81288,133],[-90.39349,38.81285,133],[-90.39352,38.81284,133],[-90.39357,38.81284,133],[-90.3936,38.81282,133],[-90.39363,38.8128,133],[-90.39366,38.81279,133],[-90.39369,38.81277,134],[-90.39373,38.81275,134],[-90.39377,38.81273,134],[-90.39379,38.81271,134],[-90.39382,38.81268,134],[-90.39385,38.81265,135],[-90.39387,38.81262,135],[-90.39391,38.8126,135],[-90.39394,38.81258,136],[-90.39397,38.81256,136],[-90.39399,38.81254,136],[-90.39401,38.81251,136],[-90.39404,38.81248,137],[-90.39408,38.81245,137],[-90.39412,38.81244,137],[-90.39414,38.81241,137],[-90.39416,38.81239,137],[-90.39419,38.81236,137],[-90.39422,38.81235,137],[-90.39427,38.81232,137],[-90.3943,38.8123,137],[-90.39433,38.81228,137],[-90.39436,38.81225,137],[-90.39438,38.81223,137],[-90.39441,38.8122,138],[-90.39444,38.81218,138],[-90.39447,38.81215,137],[-90.3945,38.81212,137],[-90.39451,38.81209,137],[-90.39454,38.81207,137],[-90.39456,38.81205,137],[-90.3946,38.81202,137],[-90.39463,38.812,137],[-90.39466,38.81198,137],[-90.39469,38.81195,137],[-90.39472,38.81193,136],[-90.39475,38.81191,136],[-90.39478,38.81188,135],[-90.39481,38.81186,135],[-90.39484,38.81184,135],[-90.39487,38.81183,134],[-90.3949,38.8118,134],[-90.39492,38.81179,134],[-90.39495,38.81176,133],[-90.39499,38.81174,133],[-90.39497,38.81171,133],[-90.39497,38.81168,133],[-90.39501,38.81167,133],[-90.39505,38.81168,133],[-90.39508,38.81169,133],[-90.39509,38.81167,133],[-90.39507,38.81165,132],[-90.39505,38.81162,132],[-90.39509,38.81162,132],[-90.39505,38.81161,132],[-90.39509,38.81161,132],[-90.39512,38.81162,132],[-90.39509,38.81163,132],[-90.39505,38.81163,132],[-90.39507,38.81165,132],[-90.39505,38.81163,132],[-90.39506,38.8116,132],[-90.39505,38.81163,132],[-90.39507,38.8116,132],[-90.39507,38.81164,132],[-90.3951,38.81165,132],[-90.39508,38.81167,133],[-90.39504,38.81168,133],[-90.39507,38.81165,132],[-90.39506,38.81162,132],[-90.39508,38.8116,132],[-90.39512,38.81161,132],[-90.39509,38.8116,132],[-90.39513,38.81161,132],[-90.39509,38.81161,132],[-90.39506,38.81164,132]]],
        "bbox": [
          -90.3875,
          38.81775,
          -90.39513,
          38.81111
        ]
      },
      "properties": {
        "name": "5.17.2020B"
      }
    }
  ]
}