{
  "type": "FeatureCollection",
  "features": [
    {
      "type": "Feature",
      "geometry": {
        "type": "MultiLineString",
        "coordinates": [[[-90.39078,38.81101,140],[-90.3908,38.81092,139],[-90.39081,38.81095,139],[-90.39082,38.81098,139],[-90.39082,38.81102,140],[-90.39082,38.81106,140],[-90.39082,38.81109,140],[-90.39081,38.81112,141],[-90.39079,38.81115,141],[-90.39077,38.81117,141],[-90.39073,38.81118,141],[-90.3907,38.8112,141],[-90.39067,38.81121,142],[-90.39064,38.81123,142],[-90.3906,38.81125,142],[-90.39056,38.81125,142],[-90.39051,38.81125,142],[-90.39047,38.81123,142],[-90.39044,38.81121,142],[-90.39042,38.81119,142],[-90.39039,38.81118,142],[-90.39035,38.81116,142],[-90.39032,38.81116,142],[-90.39028,38.81116,142],[-90.39024,38.81117,143],[-90.3902,38.81117,144],[-90.39016,38.81117,144],[-90.39012,38.81116,145],[-90.39008,38.81116,145],[-90.39003,38.81115,146],[-90.38999,38.81115,146],[-90.38995,38.81114,147],[-90.38991,38.81114,148],[-90.38987,38.81114,148],[-90.38983,38.81116,149],[-90.3898,38.81117,149],[-90.38975,38.81117,150],[-90.38971,38.81118,150],[-90.38967,38.81117,151],[-90.38962,38.81116,151],[-90.38957,38.81116,151],[-90.38953,38.81118,151],[-90.38949,38.8112,151],[-90.38947,38.81123,151],[-90.38945,38.81126,151],[-90.38943,38.81129,152],[-90.38941,38.81132,152],[-90.3894,38.81135,152],[-90.38938,38.81137,152],[-90.38935,38.81139,152],[-90.3893,38.81138,152],[-90.38924,38.81137,152],[-90.3892,38.81138,152],[-90.38917,38.8114,152],[-90.38915,38.81142,152],[-90.38911,38.81145,153],[-90.38908,38.81147,154],[-90.38906,38.81149,154],[-90.389,38.8115,156],[-90.38896,38.8115,157],[-90.38892,38.81151,158],[-90.38888,38.81153,159],[-90.38884,38.81154,160],[-90.38881,38.81154,160],[-90.38877,38.81153,161],[-90.38875,38.81156,162],[-90.38874,38.81159,162],[-90.38873,38.81163,162],[-90.3887,38.81165,163],[-90.38867,38.81168,163],[-90.38864,38.8117,164],[-90.38862,38.81172,164],[-90.3886,38.81175,164],[-90.3886,38.81177,163],[-90.38857,38.8118,164],[-90.38855,38.81183,164],[-90.38853,38.81187,164],[-90.38854,38.8119,163],[-90.38856,38.81193,163],[-90.38859,38.81195,162],[-90.38861,38.81198,162],[-90.38863,38.81202,162],[-90.38867,38.81204,161],[-90.3887,38.81206,161],[-90.38874,38.81207,161],[-90.38876,38.8121,161],[-90.38877,38.81213,161],[-90.38876,38.81217,162],[-90.38873,38.8122,162],[-90.38871,38.81222,163],[-90.38869,38.81225,163],[-90.38866,38.81228,164],[-90.38864,38.8123,165],[-90.3886,38.81232,165],[-90.38858,38.81234,166],[-90.38856,38.81237,167],[-90.38856,38.8124,168],[-90.38858,38.81244,168],[-90.38859,38.81246,168],[-90.38858,38.81249,169],[-90.3886,38.81252,169],[-90.38856,38.81252,170],[-90.38852,38.81253,171],[-90.38851,38.81256,171],[-90.38853,38.81258,171],[-90.38854,38.81261,171],[-90.38851,38.81264,172],[-90.38848,38.81265,173],[-90.38846,38.81267,174],[-90.38842,38.81269,175],[-90.38838,38.8127,177],[-90.38834,38.8127,178],[-90.38831,38.81272,179],[-90.38826,38.81272,180],[-90.38823,38.81273,181],[-90.38819,38.81274,183],[-90.38815,38.81275,184],[-90.38811,38.81277,186],[-90.38807,38.81278,187],[-90.38804,38.8128,188],[-90.38804,38.81283,188],[-90.38804,38.81286,188],[-90.38803,38.8129,189],[-90.38803,38.81293,189],[-90.38803,38.81296,190],[-90.38803,38.813,190],[-90.38803,38.81303,190],[-90.38803,38.81306,191],[-90.38802,38.81309,191],[-90.38801,38.81312,192],[-90.38799,38.81315,192],[-90.38798,38.81317,193],[-90.38795,38.8132,194],[-90.38792,38.81322,194],[-90.3879,38.81324,194],[-90.38787,38.81326,195],[-90.38783,38.81328,195],[-90.38779,38.81328,195],[-90.38775,38.81328,195],[-90.38771,38.81328,195],[-90.38767,38.81328,194],[-90.38763,38.81328,194],[-90.38761,38.81326,194],[-90.38759,38.81329,194],[-90.38758,38.81332,194],[-90.38758,38.81336,194],[-90.38758,38.81339,194],[-90.38758,38.81343,195],[-90.38757,38.81346,195],[-90.38757,38.81349,195],[-90.38756,38.81352,195],[-90.38756,38.81356,196],[-90.38755,38.81359,196],[-90.38754,38.81362,196],[-90.38753,38.81366,196],[-90.38752,38.81368,197],[-90.38751,38.81372,197],[-90.3875,38.81376,198],[-90.38749,38.81379,198],[-90.3875,38.81383,199],[-90.38753,38.81386,199],[-90.38756,38.81387,199],[-90.38759,38.81388,199],[-90.38762,38.8139,200],[-90.38765,38.81393,200],[-90.38763,38.81396,200],[-90.38759,38.81397,200],[-90.38755,38.81398,200],[-90.38752,38.81398,200],[-90.38748,38.81399,200],[-90.38744,38.81399,200],[-90.38739,38.814,200],[-90.38735,38.814,200],[-90.3873,38.814,200],[-90.38727,38.814,200],[-90.38723,38.81401,200],[-90.3872,38.81401,200],[-90.38715,38.81403,200],[-90.38711,38.81403,200],[-90.38708,38.81404,200],[-90.38704,38.81404,200],[-90.387,38.81405,200],[-90.38696,38.81405,200],[-90.38692,38.81406,200],[-90.38687,38.81407,200],[-90.38683,38.81407,200],[-90.38678,38.81408,200],[-90.38674,38.81408,200],[-90.38669,38.81409,200],[-90.38664,38.8141,200],[-90.38659,38.8141,199],[-90.38654,38.81411,199],[-90.3865,38.81411,199],[-90.38647,38.81412,199],[-90.38645,38.81414,199],[-90.38647,38.81418,199],[-90.38649,38.81421,200],[-90.3865,38.81423,200],[-90.38652,38.81426,200],[-90.38653,38.81428,201],[-90.38656,38.81432,201],[-90.38657,38.81434,201],[-90.38659,38.81437,202],[-90.38661,38.81439,202],[-90.38663,38.81441,202],[-90.38665,38.81443,202],[-90.38668,38.81445,203],[-90.38672,38.81447,203],[-90.38677,38.81447,203],[-90.38681,38.81448,203],[-90.38685,38.81449,203],[-90.38688,38.8145,203],[-90.38691,38.81452,203],[-90.38692,38.81455,203],[-90.38694,38.81457,203],[-90.38698,38.81459,203],[-90.38702,38.81459,203],[-90.38706,38.81459,203],[-90.3871,38.81458,203],[-90.38714,38.81458,203],[-90.38717,38.81459,203],[-90.3872,38.81461,203],[-90.38724,38.81463,202],[-90.38726,38.81465,202],[-90.3873,38.81467,202],[-90.38733,38.81468,202],[-90.38739,38.81467,201],[-90.38742,38.81466,201],[-90.38746,38.81466,201],[-90.3875,38.81465,201],[-90.38754,38.81466,200],[-90.38757,38.81467,200],[-90.38758,38.8147,200],[-90.38757,38.81473,200],[-90.38755,38.81476,200],[-90.38755,38.8148,199],[-90.38759,38.81482,199],[-90.38755,38.81482,199],[-90.38759,38.8148,199],[-90.38763,38.81479,199],[-90.38767,38.81479,198],[-90.38771,38.8148,198],[-90.38776,38.8148,197],[-90.38779,38.81481,197],[-90.38784,38.81481,196],[-90.38787,38.81481,196],[-90.38791,38.81482,196],[-90.38795,38.81482,195],[-90.38799,38.81481,195],[-90.38803,38.8148,195],[-90.38807,38.8148,195],[-90.38811,38.8148,194],[-90.38815,38.81479,194],[-90.38818,38.81479,194],[-90.38823,38.81478,194],[-90.38827,38.81479,193],[-90.38831,38.81479,193],[-90.38835,38.81479,193],[-90.38839,38.81478,192],[-90.38843,38.81476,192],[-90.38847,38.81475,192],[-90.38851,38.81476,191],[-90.38855,38.81476,190],[-90.38858,38.81475,190],[-90.38861,38.81473,189],[-90.38864,38.8147,190],[-90.38867,38.81469,190],[-90.3887,38.81471,189],[-90.38874,38.81473,189],[-90.38877,38.81475,189],[-90.38881,38.81476,189],[-90.38875,38.81475,189],[-90.38872,38.81471,189],[-90.38869,38.81469,190],[-90.38872,38.81472,189],[-90.38876,38.81476,189],[-90.38882,38.81478,188],[-90.38886,38.81481,188],[-90.38891,38.81483,188],[-90.38893,38.81486,188],[-90.38894,38.81489,188],[-90.38894,38.81492,188],[-90.38893,38.81495,188],[-90.3889,38.81497,188],[-90.38885,38.81498,188],[-90.38883,38.815,188],[-90.38883,38.81503,187],[-90.38884,38.81506,187],[-90.38885,38.81509,187],[-90.38886,38.81512,187],[-90.38885,38.81516,187],[-90.38884,38.81519,187],[-90.38883,38.81522,187],[-90.38884,38.81525,187],[-90.38885,38.81529,186],[-90.38887,38.81533,186],[-90.38888,38.81536,185],[-90.3889,38.81538,185],[-90.38893,38.81541,185],[-90.38896,38.81544,184],[-90.38898,38.81546,184],[-90.38901,38.81549,183],[-90.38903,38.81551,183],[-90.38906,38.81554,183],[-90.38909,38.81555,183],[-90.38913,38.81556,182],[-90.38916,38.81559,182],[-90.38917,38.81561,181],[-90.38919,38.81564,180],[-90.38921,38.81567,179],[-90.38923,38.81571,178],[-90.38925,38.81574,177],[-90.38927,38.81576,176],[-90.38928,38.81579,176],[-90.38928,38.81582,175],[-90.38929,38.81585,174],[-90.3893,38.81588,174],[-90.38931,38.81591,174],[-90.38932,38.81593,173],[-90.38933,38.81596,173],[-90.38936,38.81599,173],[-90.38937,38.81602,172],[-90.38939,38.81604,172],[-90.38941,38.81607,172],[-90.38943,38.81611,171],[-90.38946,38.81613,171],[-90.38949,38.81615,171],[-90.38951,38.81617,171],[-90.38954,38.8162,171],[-90.38956,38.81622,171],[-90.38959,38.81623,171],[-90.38964,38.81624,171],[-90.38967,38.81626,171],[-90.3897,38.81628,171],[-90.38973,38.8163,170],[-90.38975,38.81632,170],[-90.38979,38.81634,170],[-90.38982,38.81636,170],[-90.38985,38.81637,170],[-90.38989,38.81638,170],[-90.38994,38.81638,170],[-90.38998,38.81639,170],[-90.39003,38.8164,171],[-90.39007,38.81642,170],[-90.39009,38.81645,170],[-90.39012,38.81647,170],[-90.39015,38.81649,170],[-90.39015,38.81653,170],[-90.39015,38.81656,169],[-90.39018,38.81659,169],[-90.3902,38.81661,169],[-90.39023,38.81664,169],[-90.39024,38.81666,169],[-90.39027,38.81669,168],[-90.3903,38.81672,168],[-90.39033,38.81674,168],[-90.39035,38.81677,167],[-90.39036,38.8168,167],[-90.39038,38.81682,167],[-90.39041,38.81684,166],[-90.39045,38.81686,166],[-90.39047,38.81688,166],[-90.3905,38.8169,165],[-90.39049,38.81693,165],[-90.3905,38.81696,164],[-90.39051,38.81699,163],[-90.39052,38.81703,162],[-90.39053,38.81706,161],[-90.39052,38.81709,160],[-90.39052,38.81712,159],[-90.3905,38.81715,158],[-90.3905,38.81718,157],[-90.39049,38.81721,156],[-90.39049,38.81724,155],[-90.39052,38.81727,154],[-90.39052,38.81732,152],[-90.39056,38.81734,151],[-90.39057,38.81739,149],[-90.39058,38.81742,148],[-90.39058,38.81745,147],[-90.39056,38.81748,146],[-90.39059,38.8175,145],[-90.39062,38.81752,144],[-90.39066,38.81754,143],[-90.39069,38.81756,142],[-90.39072,38.81757,142],[-90.39069,38.81755,143],[-90.39065,38.81753,144],[-90.39061,38.81753,144],[-90.39057,38.81753,145],[-90.39053,38.81754,145],[-90.3905,38.81756,145],[-90.39047,38.81758,145],[-90.39043,38.81759,145],[-90.39042,38.81756,146],[-90.39043,38.81753,146],[-90.39045,38.81751,146],[-90.39046,38.81754,146],[-90.39042,38.81753,146],[-90.3904,38.81755,146],[-90.39038,38.81758,146],[-90.39035,38.81761,145],[-90.39031,38.81763,145],[-90.39028,38.81764,145],[-90.39024,38.81767,145],[-90.39021,38.81769,145],[-90.39018,38.81772,145],[-90.39015,38.81775,145],[-90.39012,38.81778,145],[-90.39008,38.8178,146],[-90.39005,38.81781,146],[-90.39,38.81781,147],[-90.38996,38.81781,147],[-90.38992,38.81782,148],[-90.38989,38.81783,148],[-90.38985,38.81784,148],[-90.38981,38.81785,148],[-90.38976,38.81787,149],[-90.38972,38.81786,149],[-90.38968,38.81786,150],[-90.38965,38.81787,150],[-90.38962,38.81789,149],[-90.38959,38.81791,149],[-90.38955,38.81793,149],[-90.38951,38.81794,149],[-90.38947,38.81795,149],[-90.38942,38.81796,149],[-90.38938,38.81796,150],[-90.38934,38.81797,150],[-90.38929,38.81797,151],[-90.38926,38.81798,151],[-90.38922,38.81798,151],[-90.38917,38.81797,152],[-90.38912,38.81797,153],[-90.38908,38.81798,154],[-90.38904,38.818,154],[-90.38901,38.81801,155],[-90.38897,38.81802,156],[-90.38894,38.81803,156],[-90.38889,38.81804,157],[-90.38884,38.81804,158],[-90.3888,38.81804,159],[-90.38874,38.81804,160],[-90.38871,38.81805,160],[-90.38868,38.81806,161],[-90.38864,38.81807,161],[-90.3886,38.81808,161],[-90.38856,38.81808,162],[-90.38853,38.8181,161],[-90.38851,38.81812,160],[-90.3885,38.81815,159],[-90.38848,38.81818,157],[-90.38846,38.81821,156],[-90.38843,38.81825,154],[-90.3884,38.81827,153],[-90.38837,38.8183,151],[-90.38836,38.81833,150],[-90.38836,38.81837,148],[-90.38835,38.8184,147],[-90.38834,38.81844,145],[-90.38834,38.81847,144],[-90.38832,38.8185,142],[-90.38829,38.81853,141],[-90.38826,38.81856,141],[-90.38823,38.81858,140],[-90.38819,38.81859,140],[-90.38815,38.81861,140],[-90.38812,38.81862,140],[-90.38808,38.81864,141],[-90.38804,38.81866,141],[-90.38801,38.81868,141],[-90.38796,38.8187,142],[-90.38793,38.81872,142],[-90.3879,38.81874,142],[-90.38786,38.81876,142],[-90.38782,38.81878,143],[-90.38779,38.8188,143],[-90.38775,38.81881,143],[-90.38772,38.81882,143],[-90.38768,38.81883,143],[-90.38763,38.81884,142],[-90.3876,38.81885,142],[-90.38757,38.81886,142],[-90.38754,38.81889,141],[-90.38749,38.8189,141],[-90.38746,38.81892,141],[-90.38745,38.81894,140],[-90.38745,38.81897,139],[-90.38744,38.81901,138],[-90.38742,38.81904,137],[-90.38738,38.81906,136],[-90.38734,38.81908,135],[-90.3873,38.8191,134],[-90.38727,38.81911,134],[-90.38724,38.81913,133],[-90.38721,38.81915,132],[-90.38719,38.81918,132],[-90.38715,38.81919,132],[-90.38711,38.81921,132],[-90.38708,38.81923,132],[-90.38704,38.81924,132],[-90.38702,38.81926,132],[-90.38699,38.81927,132],[-90.38695,38.81928,132],[-90.38692,38.8193,132],[-90.38688,38.81932,132],[-90.38685,38.81933,132],[-90.38681,38.81934,133],[-90.38678,38.81936,133],[-90.38676,38.81939,132],[-90.38672,38.81941,132],[-90.38668,38.81942,132],[-90.38665,38.81944,132],[-90.38661,38.81946,131],[-90.38658,38.81947,131],[-90.38655,38.81948,131],[-90.38652,38.8195,131],[-90.38648,38.81951,131],[-90.38644,38.81953,131],[-90.38641,38.81953,131],[-90.38637,38.81955,131],[-90.38633,38.81956,131],[-90.38629,38.81957,132],[-90.38624,38.81958,133],[-90.3862,38.81959,133],[-90.38615,38.81959,134],[-90.38611,38.8196,134],[-90.38607,38.8196,134],[-90.38602,38.8196,134],[-90.38598,38.81961,134],[-90.38594,38.81961,134],[-90.38589,38.81962,134],[-90.38586,38.81964,134],[-90.38581,38.81964,134],[-90.38578,38.81965,133],[-90.38581,38.81964,134],[-90.38586,38.81964,134],[-90.3859,38.81962,134],[-90.38594,38.81962,134],[-90.38598,38.81961,134],[-90.38603,38.81961,134],[-90.38608,38.81961,134],[-90.38613,38.81961,133],[-90.38617,38.8196,133],[-90.38621,38.8196,133],[-90.38622,38.81962,132],[-90.38625,38.81964,132],[-90.38628,38.81966,131],[-90.38632,38.81967,131],[-90.38636,38.81966,131],[-90.3864,38.81965,131],[-90.38644,38.81965,131],[-90.38648,38.81963,131],[-90.38652,38.81962,131],[-90.38657,38.81962,131],[-90.38661,38.81961,131],[-90.38665,38.8196,131],[-90.38668,38.81959,131],[-90.38672,38.81958,131],[-90.38676,38.81957,131],[-90.38679,38.81956,131],[-90.38682,38.81954,131],[-90.38683,38.81952,131],[-90.38684,38.81948,131],[-90.38688,38.81946,131],[-90.38692,38.81944,132],[-90.38696,38.81943,132],[-90.38698,38.81941,132],[-90.38701,38.81939,132],[-90.38703,38.81936,132],[-90.38706,38.81935,132],[-90.38711,38.81934,132],[-90.38714,38.81935,132],[-90.38717,38.81933,132],[-90.3872,38.81931,132],[-90.38723,38.81931,132],[-90.38728,38.81931,132],[-90.38732,38.81932,132],[-90.38735,38.81934,132],[-90.38735,38.81937,132],[-90.38734,38.81939,132],[-90.38733,38.81942,132],[-90.38732,38.81945,131],[-90.38732,38.81948,131],[-90.38731,38.81951,131],[-90.38728,38.81949,131],[-90.38724,38.81949,131],[-90.38721,38.8195,131],[-90.38721,38.81953,131],[-90.38718,38.81954,131],[-90.38715,38.81956,131],[-90.38712,38.81958,131],[-90.38708,38.81959,131],[-90.38706,38.8196,131],[-90.38701,38.81959,131],[-90.38698,38.8196,131],[-90.38699,38.81963,131],[-90.38703,38.81962,131],[-90.38698,38.81963,131],[-90.38695,38.8196,131],[-90.38695,38.81957,131],[-90.38693,38.81959,131],[-90.38691,38.81962,131],[-90.38695,38.81961,131],[-90.38699,38.81961,131],[-90.38701,38.81959,131],[-90.38707,38.8196,131],[-90.38711,38.81958,131],[-90.38713,38.81956,131],[-90.38716,38.81953,131],[-90.38719,38.81953,131],[-90.38724,38.81953,131],[-90.38727,38.81951,131],[-90.38729,38.81949,131],[-90.38732,38.81945,131],[-90.38735,38.81941,132],[-90.38734,38.81938,132],[-90.38736,38.81934,132],[-90.38737,38.81931,132],[-90.38737,38.81929,132],[-90.38734,38.81927,132],[-90.38731,38.81926,132],[-90.38727,38.81926,132],[-90.38725,38.81923,132],[-90.38728,38.81921,132],[-90.38729,38.81918,132],[-90.3873,38.81915,132],[-90.38733,38.81914,133],[-90.38737,38.81912,134],[-90.38741,38.8191,135],[-90.38744,38.81908,135],[-90.38746,38.81904,137],[-90.38747,38.81901,138],[-90.38748,38.81897,139],[-90.38748,38.81894,140],[-90.38752,38.81893,140],[-90.38756,38.81891,141],[-90.38759,38.81889,141],[-90.38763,38.81887,142],[-90.38768,38.81886,142],[-90.38771,38.81885,142],[-90.38775,38.81884,142],[-90.38778,38.81883,142],[-90.38782,38.81881,142],[-90.38787,38.81878,142],[-90.3879,38.81876,142],[-90.38793,38.81874,142],[-90.38797,38.81873,141],[-90.38801,38.81871,141],[-90.38805,38.8187,141],[-90.38809,38.81868,140],[-90.38813,38.81866,140],[-90.38817,38.81864,140],[-90.3882,38.81863,139],[-90.38824,38.81861,139],[-90.38828,38.81859,139],[-90.3883,38.81857,140],[-90.38832,38.81855,140],[-90.38835,38.81853,141],[-90.38837,38.8185,142],[-90.38838,38.81847,144],[-90.38839,38.81844,145],[-90.3884,38.81841,146],[-90.3884,38.81838,148],[-90.38841,38.81834,149],[-90.38843,38.81832,150],[-90.38846,38.8183,151],[-90.38849,38.81827,153],[-90.38851,38.81824,154],[-90.38853,38.81821,156],[-90.38855,38.81818,157],[-90.38857,38.81816,158],[-90.38859,38.81813,159],[-90.38861,38.8181,160],[-90.38864,38.81811,159],[-90.38868,38.81811,159],[-90.38872,38.8181,158],[-90.38876,38.8181,157],[-90.3888,38.81809,157],[-90.38884,38.81809,156],[-90.38888,38.81809,155],[-90.38892,38.81809,154],[-90.38896,38.81809,153],[-90.38901,38.81808,153],[-90.38906,38.81807,152],[-90.38911,38.81805,151],[-90.38914,38.81803,151],[-90.38917,38.81801,151],[-90.38922,38.818,151],[-90.38926,38.818,150],[-90.38931,38.81799,150],[-90.38935,38.81798,149],[-90.38939,38.81799,149],[-90.38943,38.81798,148],[-90.38948,38.81798,148],[-90.38953,38.81797,148],[-90.38957,38.81795,148],[-90.38961,38.81793,149],[-90.38965,38.81791,149],[-90.38969,38.8179,149],[-90.38974,38.8179,148],[-90.38979,38.81789,148],[-90.38983,38.81788,148],[-90.38987,38.81786,148],[-90.38992,38.81785,147],[-90.38997,38.81784,147],[-90.39,38.81783,147],[-90.39004,38.81782,146],[-90.39009,38.81781,145],[-90.39012,38.8178,145],[-90.39015,38.81778,145],[-90.39017,38.81776,145],[-90.39021,38.81773,145],[-90.39025,38.81771,144],[-90.39028,38.81769,144],[-90.3903,38.81765,145],[-90.39031,38.81763,145],[-90.39033,38.8176,146],[-90.39036,38.81759,146],[-90.3904,38.81758,145],[-90.39043,38.81756,146],[-90.39045,38.81753,146],[-90.39049,38.81751,146],[-90.39052,38.81749,146],[-90.39053,38.81746,147],[-90.39056,38.81744,148],[-90.39061,38.81743,147],[-90.39066,38.81742,147],[-90.3907,38.81741,146],[-90.39074,38.81739,147],[-90.39077,38.81738,146],[-90.39081,38.81738,146],[-90.39086,38.81739,145],[-90.3909,38.81739,144],[-90.39095,38.81739,143],[-90.39098,38.81737,144],[-90.39101,38.81734,144],[-90.39103,38.81732,144],[-90.39107,38.81729,144],[-90.3911,38.81726,145],[-90.39113,38.81724,145],[-90.39115,38.81722,145],[-90.39118,38.8172,145],[-90.39122,38.81718,145],[-90.39125,38.81717,145],[-90.39129,38.81716,145],[-90.39132,38.81713,146],[-90.39136,38.81711,146],[-90.3914,38.81711,145],[-90.39143,38.8171,145],[-90.39148,38.81709,145],[-90.39151,38.81707,145],[-90.39154,38.81705,145],[-90.39157,38.81703,146],[-90.39161,38.81702,145],[-90.39164,38.817,146],[-90.39164,38.81696,147],[-90.39166,38.81693,148],[-90.39169,38.81695,147],[-90.39173,38.81696,147],[-90.39175,38.81693,148],[-90.39177,38.81691,149],[-90.39181,38.81691,149],[-90.39184,38.81688,149],[-90.39187,38.81686,149],[-90.39191,38.81684,149],[-90.39193,38.81681,150],[-90.39195,38.81679,149],[-90.39197,38.81676,149],[-90.392,38.81674,149],[-90.39201,38.81671,149],[-90.39203,38.81668,149],[-90.39206,38.81666,149],[-90.39209,38.81663,148],[-90.39211,38.81661,148],[-90.39214,38.81658,148],[-90.39217,38.81656,148],[-90.3922,38.81653,148],[-90.39222,38.81651,147],[-90.39222,38.81647,148],[-90.39224,38.81644,148],[-90.39228,38.81641,147],[-90.39229,38.81638,147],[-90.3923,38.81634,148],[-90.39231,38.81631,149],[-90.39231,38.81628,150],[-90.39235,38.81626,149],[-90.39237,38.81623,149],[-90.3924,38.81621,149],[-90.39243,38.81617,149],[-90.39245,38.81615,149],[-90.39249,38.81613,148],[-90.39252,38.81613,148],[-90.39257,38.81611,146],[-90.3926,38.81608,145],[-90.39263,38.81605,144],[-90.39264,38.81601,144],[-90.39264,38.81598,144],[-90.39265,38.81595,144],[-90.39266,38.81592,143],[-90.39265,38.81588,144],[-90.39265,38.81584,144],[-90.39265,38.81581,144],[-90.39266,38.81578,144],[-90.39266,38.81575,145],[-90.39264,38.81571,147],[-90.39262,38.81568,148],[-90.39262,38.81566,149],[-90.39261,38.81562,150],[-90.39262,38.81559,150],[-90.39265,38.81556,150],[-90.39268,38.81555,149],[-90.39272,38.81552,148],[-90.39274,38.81549,148],[-90.39277,38.81546,148],[-90.3928,38.81545,147],[-90.39284,38.81544,146],[-90.39288,38.81543,145],[-90.39291,38.81541,145],[-90.39294,38.8154,145],[-90.39299,38.81539,144],[-90.39302,38.81537,143],[-90.39306,38.81534,143],[-90.39309,38.81531,144],[-90.39312,38.81529,144],[-90.39316,38.81528,143],[-90.3932,38.81529,141],[-90.39322,38.81527,141],[-90.39326,38.81526,141],[-90.3933,38.81526,139],[-90.39326,38.81525,141],[-90.39322,38.81526,142],[-90.39319,38.8153,141],[-90.39319,38.81533,141],[-90.39321,38.81536,139],[-90.3932,38.81539,138],[-90.39321,38.81543,137],[-90.39325,38.81543,136],[-90.39328,38.81541,136],[-90.39331,38.81543,135],[-90.39327,38.81543,136],[-90.39322,38.81543,137],[-90.39321,38.81539,138],[-90.39323,38.81537,138],[-90.39322,38.81533,140],[-90.3932,38.81528,142],[-90.39317,38.81523,143],[-90.39313,38.81521,144],[-90.39318,38.81517,143],[-90.3932,38.81513,143],[-90.39316,38.8151,144],[-90.39313,38.81507,145],[-90.39311,38.81503,146],[-90.39309,38.81499,147],[-90.39308,38.81497,147],[-90.39306,38.81495,147],[-90.39305,38.81492,147],[-90.39301,38.81488,147],[-90.39298,38.81483,147],[-90.39298,38.81478,147],[-90.39297,38.81475,147],[-90.39296,38.81471,148],[-90.39295,38.81468,148],[-90.39294,38.81464,148],[-90.39292,38.81461,149],[-90.39289,38.81458,150],[-90.39287,38.81455,150],[-90.39283,38.81453,151],[-90.3928,38.81451,152],[-90.39276,38.81449,153],[-90.39273,38.81446,153],[-90.3927,38.81444,153],[-90.39267,38.81442,153],[-90.39265,38.81439,153],[-90.39262,38.81437,153],[-90.39258,38.81434,152],[-90.39255,38.81432,152],[-90.39252,38.8143,152],[-90.39248,38.81429,152],[-90.39245,38.81428,152],[-90.39241,38.81426,152],[-90.39237,38.81425,152],[-90.39234,38.81424,151],[-90.39231,38.81422,151],[-90.39228,38.81419,151],[-90.39226,38.81416,150],[-90.39224,38.81414,149],[-90.39222,38.8141,146],[-90.39221,38.81408,145],[-90.39223,38.81405,143],[-90.39226,38.81403,142],[-90.39229,38.81402,141],[-90.39232,38.81401,141],[-90.39235,38.81398,140],[-90.39237,38.81395,138],[-90.39239,38.81392,137],[-90.39241,38.8139,136],[-90.39243,38.81388,136],[-90.39238,38.81391,137],[-90.39236,38.81395,138],[-90.39233,38.81398,140],[-90.3923,38.81401,141],[-90.39227,38.81402,141],[-90.39222,38.81404,142],[-90.39219,38.81404,143],[-90.39214,38.81401,141],[-90.39212,38.81399,140],[-90.39209,38.81397,140],[-90.39206,38.81395,139],[-90.39203,38.81394,139],[-90.39201,38.81392,138],[-90.39198,38.8139,137],[-90.39196,38.81388,137],[-90.39193,38.81385,138],[-90.3919,38.81383,139],[-90.39187,38.81381,140],[-90.39184,38.8138,141],[-90.39181,38.81378,142],[-90.39177,38.81376,143],[-90.39174,38.81374,143],[-90.39171,38.81372,144],[-90.39169,38.81369,144],[-90.39167,38.81367,144],[-90.39166,38.81364,143],[-90.39164,38.81361,143],[-90.39162,38.81358,144],[-90.3916,38.81356,145],[-90.3916,38.81353,145],[-90.3916,38.81349,146],[-90.3916,38.81346,146],[-90.3916,38.81343,146],[-90.3916,38.81341,147],[-90.3916,38.81338,147],[-90.39157,38.81334,148],[-90.39153,38.81333,148],[-90.39149,38.81332,149],[-90.39145,38.81331,149],[-90.3914,38.8133,150],[-90.39137,38.81328,151],[-90.39134,38.81326,151],[-90.39134,38.81323,151],[-90.39131,38.81321,151],[-90.39127,38.81318,152],[-90.39124,38.81315,152],[-90.39122,38.81312,152],[-90.3912,38.81309,152],[-90.39119,38.81305,152],[-90.39117,38.81301,152],[-90.39115,38.81299,151],[-90.39114,38.81296,151],[-90.39112,38.81294,150],[-90.39111,38.81291,150],[-90.3911,38.81288,149],[-90.39108,38.81286,149],[-90.39107,38.81283,148],[-90.39104,38.8128,148],[-90.39102,38.81277,148],[-90.39101,38.81274,147],[-90.39101,38.81271,146],[-90.39101,38.81268,146],[-90.39101,38.81265,145],[-90.391,38.81261,144],[-90.391,38.81258,144],[-90.39099,38.81255,143],[-90.39099,38.81251,142],[-90.39099,38.81248,142],[-90.39099,38.81246,143],[-90.39099,38.81243,144],[-90.39099,38.8124,144],[-90.39097,38.81237,145],[-90.39096,38.81234,146],[-90.39094,38.81231,147],[-90.39093,38.81228,148],[-90.39092,38.81225,149],[-90.39091,38.81222,149],[-90.3909,38.81219,149],[-90.3909,38.81216,149],[-90.3909,38.81213,149],[-90.3909,38.8121,149],[-90.3909,38.81206,149],[-90.39093,38.81202,149],[-90.39094,38.81199,150],[-90.39095,38.81195,150],[-90.39095,38.81191,149],[-90.39095,38.81188,149],[-90.39094,38.81185,148],[-90.39094,38.81182,148],[-90.39094,38.81179,147],[-90.39094,38.81177,147],[-90.39096,38.81174,147],[-90.39097,38.81171,146],[-90.391,38.81169,146],[-90.39102,38.81167,145],[-90.39105,38.81164,145],[-90.39108,38.81161,144],[-90.39111,38.81159,143],[-90.39112,38.81157,143],[-90.39113,38.81154,142],[-90.39113,38.81151,142],[-90.39111,38.81147,142],[-90.3911,38.81144,141],[-90.39108,38.81141,141],[-90.39105,38.81139,141],[-90.39102,38.81137,141],[-90.39099,38.81135,141],[-90.39096,38.81133,141],[-90.39093,38.81131,141],[-90.39091,38.81129,141],[-90.39089,38.81126,141],[-90.39086,38.81123,141],[-90.39083,38.8112,141],[-90.39082,38.81117,141],[-90.39083,38.81114,141],[-90.39083,38.81111,141],[-90.39083,38.81109,140],[-90.39083,38.81106,140],[-90.39083,38.81103,140],[-90.39083,38.811,139],[-90.39082,38.81096,139],[-90.39081,38.81093,139],[-90.3908,38.8109,138],[-90.39079,38.81086,138],[-90.39078,38.81083,138],[-90.39078,38.8108,138],[-90.39077,38.81077,138],[-90.39076,38.81075,138],[-90.39076,38.81072,139],[-90.39075,38.81069,139],[-90.39074,38.81065,139],[-90.39076,38.81062,139],[-90.39073,38.81064,139],[-90.39077,38.81064,139],[-90.39068,38.81087,139]]],
        "bbox": [
          -90.38578,
          38.81967,
          -90.39331,
          38.81062
        ]
      },
      "properties": {
        "name": "12.9.2025"
      }
    }
  ]
}