{
  "type": "FeatureCollection",
  "features": [
    {
      "type": "Feature",
      "geometry": {
        "type": "MultiLineString",
        "coordinates": [[[-90.39067,38.81073,139],[-90.39066,38.81076,139],[-90.39068,38.81079,139],[-90.39071,38.81082,138],[-90.39074,38.81086,138],[-90.39077,38.81088,138],[-90.3908,38.8109,138],[-90.39081,38.81093,139],[-90.39081,38.81096,139],[-90.39081,38.81099,139],[-90.39081,38.81103,140],[-90.39081,38.81107,140],[-90.39081,38.8111,140],[-90.39082,38.81114,141],[-90.39082,38.81117,141],[-90.39084,38.8112,141],[-90.39086,38.81122,141],[-90.39088,38.81126,141],[-90.39091,38.81129,141],[-90.39093,38.81132,141],[-90.39095,38.81135,141],[-90.39097,38.81137,141],[-90.39099,38.8114,142],[-90.39103,38.81143,142],[-90.39106,38.81146,142],[-90.39108,38.81149,142],[-90.39108,38.81152,143],[-90.39107,38.81155,143],[-90.39105,38.81157,144],[-90.39102,38.8116,144],[-90.39099,38.81162,145],[-90.39097,38.81165,145],[-90.39096,38.81168,146],[-90.39093,38.81171,146],[-90.39091,38.81174,147],[-90.3909,38.81178,147],[-90.3909,38.81181,148],[-90.3909,38.81184,148],[-90.3909,38.81188,148],[-90.3909,38.81191,149],[-90.39089,38.81195,149],[-90.39089,38.81198,149],[-90.39088,38.81201,149],[-90.39087,38.81204,149],[-90.3909,38.81206,149],[-90.39088,38.81209,149],[-90.39087,38.81212,149],[-90.39087,38.81215,149],[-90.39088,38.81219,149],[-90.3909,38.81222,149],[-90.3909,38.81225,149],[-90.39091,38.81228,148],[-90.39092,38.81231,147],[-90.39094,38.81234,146],[-90.39095,38.81237,145],[-90.39096,38.8124,145],[-90.39096,38.81243,144],[-90.39097,38.81247,143],[-90.39098,38.8125,142],[-90.39098,38.81253,143],[-90.39099,38.81256,143],[-90.391,38.8126,144],[-90.391,38.81262,144],[-90.39101,38.81266,145],[-90.39101,38.81269,146],[-90.391,38.81272,147],[-90.39101,38.81275,147],[-90.39102,38.81278,148],[-90.39103,38.81281,148],[-90.39104,38.81284,149],[-90.39105,38.81287,150],[-90.39107,38.8129,150],[-90.39109,38.81292,150],[-90.3911,38.81295,151],[-90.39111,38.81298,152],[-90.39113,38.81301,152],[-90.39114,38.81304,153],[-90.39115,38.81307,153],[-90.39116,38.8131,153],[-90.39118,38.81312,153],[-90.39121,38.81314,152],[-90.39123,38.81317,152],[-90.39126,38.8132,152],[-90.39129,38.81322,152],[-90.39132,38.81325,151],[-90.39136,38.81327,151],[-90.39139,38.81328,150],[-90.39142,38.8133,150],[-90.39145,38.81332,150],[-90.39148,38.81333,149],[-90.39151,38.81335,149],[-90.39154,38.81337,148],[-90.39155,38.8134,148],[-90.39156,38.81343,147],[-90.39157,38.81346,147],[-90.39158,38.81349,146],[-90.39158,38.81352,146],[-90.39158,38.81355,145],[-90.39158,38.81358,145],[-90.39161,38.81361,144],[-90.39162,38.81364,144],[-90.39164,38.81367,144],[-90.39166,38.81369,144],[-90.39169,38.81372,144],[-90.39172,38.81375,144],[-90.39175,38.81377,143],[-90.39178,38.81378,143],[-90.39182,38.81379,142],[-90.39186,38.81381,141],[-90.39191,38.81383,139],[-90.39193,38.81385,138],[-90.39195,38.81388,137],[-90.39198,38.8139,137],[-90.39202,38.81392,138],[-90.39204,38.81394,139],[-90.39207,38.81397,140],[-90.39211,38.81398,140],[-90.39215,38.814,141],[-90.39219,38.81402,141],[-90.39222,38.81403,142],[-90.39223,38.81406,144],[-90.39219,38.81406,144],[-90.39215,38.81407,145],[-90.39211,38.81407,145],[-90.39208,38.81407,146],[-90.39204,38.81407,146],[-90.392,38.81408,147],[-90.39197,38.81409,147],[-90.39193,38.8141,148],[-90.39191,38.81412,150],[-90.39188,38.81414,152],[-90.39186,38.81416,153],[-90.39184,38.81419,155],[-90.39182,38.81422,156],[-90.3918,38.81424,157],[-90.39179,38.81427,158],[-90.39179,38.8143,159],[-90.39179,38.81433,160],[-90.39179,38.81436,161],[-90.39178,38.81439,162],[-90.39178,38.81442,163],[-90.39179,38.81445,163],[-90.39179,38.81448,163],[-90.3918,38.81451,164],[-90.39182,38.81453,163],[-90.39184,38.81457,163],[-90.39185,38.8146,163],[-90.39187,38.81462,163],[-90.3919,38.81464,163],[-90.39188,38.81467,164],[-90.39187,38.8147,164],[-90.39188,38.81473,165],[-90.39189,38.81476,164],[-90.3919,38.81479,165],[-90.3919,38.81482,165],[-90.39189,38.81486,166],[-90.39189,38.81489,166],[-90.39189,38.81492,166],[-90.39191,38.81495,166],[-90.39193,38.81499,166],[-90.39195,38.81502,166],[-90.39196,38.81505,167],[-90.39196,38.81509,168],[-90.39196,38.81512,169],[-90.39195,38.81515,171],[-90.39194,38.81518,172],[-90.39192,38.81521,173],[-90.39192,38.81524,174],[-90.39193,38.81528,176],[-90.39194,38.81532,176],[-90.39194,38.81535,176],[-90.39195,38.81537,176],[-90.39199,38.81539,175],[-90.39199,38.81542,175],[-90.392,38.81545,175],[-90.39199,38.81547,175],[-90.39197,38.8155,176],[-90.39195,38.81553,177],[-90.39192,38.81555,178],[-90.39191,38.81558,178],[-90.39191,38.81562,177],[-90.39191,38.81564,176],[-90.39192,38.81567,176],[-90.39189,38.81565,177],[-90.39184,38.81565,178],[-90.39181,38.81565,178],[-90.39177,38.81566,179],[-90.39174,38.81568,179],[-90.39173,38.8157,179],[-90.39172,38.81574,179],[-90.39172,38.81577,179],[-90.39172,38.81581,178],[-90.39171,38.81583,178],[-90.39171,38.81586,178],[-90.3917,38.81589,177],[-90.39169,38.81592,177],[-90.39168,38.81596,176],[-90.39168,38.81599,176],[-90.39168,38.81601,175],[-90.39168,38.81604,175],[-90.39168,38.81608,174],[-90.39168,38.81611,173],[-90.39168,38.81615,172],[-90.39168,38.81618,171],[-90.39168,38.81621,170],[-90.39167,38.81625,168],[-90.39166,38.81628,167],[-90.39165,38.81631,167],[-90.39162,38.81634,166],[-90.3916,38.81636,166],[-90.39157,38.81639,166],[-90.39154,38.81641,166],[-90.39153,38.81644,165],[-90.39153,38.81647,164],[-90.39152,38.81649,164],[-90.3915,38.81653,163],[-90.39149,38.81656,163],[-90.39146,38.81658,163],[-90.39143,38.8166,163],[-90.39139,38.81662,163],[-90.39136,38.81664,163],[-90.39134,38.81667,162],[-90.39131,38.81669,162],[-90.3913,38.81672,161],[-90.39129,38.81675,160],[-90.39126,38.81675,161],[-90.39126,38.81672,162],[-90.39129,38.81669,162],[-90.39132,38.81667,162],[-90.39134,38.81665,163],[-90.39137,38.81662,163],[-90.3914,38.8166,163],[-90.39143,38.81658,163],[-90.39146,38.81656,163],[-90.39149,38.81655,163],[-90.39152,38.81652,163],[-90.39154,38.81649,164],[-90.39156,38.81646,164],[-90.39159,38.81643,164],[-90.39161,38.81641,164],[-90.39163,38.81639,164],[-90.39166,38.81636,165],[-90.39168,38.81632,166],[-90.39168,38.81629,167],[-90.3917,38.81626,167],[-90.39172,38.81623,168],[-90.39173,38.81621,168],[-90.39174,38.81617,169],[-90.39175,38.81613,170],[-90.39175,38.8161,171],[-90.39176,38.81606,172],[-90.39177,38.81603,172],[-90.39178,38.81599,173],[-90.39179,38.81596,173],[-90.3918,38.81593,174],[-90.3918,38.8159,174],[-90.3918,38.81587,175],[-90.3918,38.81584,175],[-90.3918,38.81581,176],[-90.39179,38.81578,177],[-90.39178,38.81575,178],[-90.39177,38.81572,178],[-90.39176,38.8157,179],[-90.39173,38.81567,180],[-90.3917,38.81564,181],[-90.39168,38.81561,182],[-90.39165,38.81558,182],[-90.39162,38.81555,183],[-90.39158,38.81551,183],[-90.39155,38.81549,183],[-90.39152,38.81547,183],[-90.39149,38.81544,184],[-90.39146,38.81542,184],[-90.39142,38.81541,185],[-90.39138,38.81539,185],[-90.39135,38.81538,185],[-90.3913,38.81537,186],[-90.39127,38.81538,186],[-90.39122,38.81538,186],[-90.39117,38.81539,186],[-90.39112,38.8154,186],[-90.39108,38.81541,186],[-90.39104,38.81541,186],[-90.391,38.81542,186],[-90.39096,38.81543,186],[-90.39092,38.81545,185],[-90.39087,38.81545,185],[-90.39082,38.81545,185],[-90.39078,38.81545,185],[-90.39073,38.81545,184],[-90.39069,38.81545,184],[-90.39065,38.81544,183],[-90.39062,38.81543,183],[-90.39058,38.81541,183],[-90.39054,38.8154,182],[-90.39051,38.81539,182],[-90.39047,38.81538,182],[-90.39043,38.81536,182],[-90.39039,38.81535,181],[-90.39035,38.81534,181],[-90.39032,38.81532,181],[-90.39028,38.81531,181],[-90.39024,38.8153,181],[-90.3902,38.81528,181],[-90.39016,38.81527,182],[-90.39012,38.81526,182],[-90.39008,38.81524,182],[-90.39005,38.81522,183],[-90.39002,38.8152,183],[-90.38998,38.81517,184],[-90.38995,38.81516,185],[-90.38991,38.81515,185],[-90.38989,38.81513,185],[-90.38985,38.8151,186],[-90.38983,38.81508,187],[-90.3898,38.81506,187],[-90.38977,38.81504,188],[-90.38974,38.81502,188],[-90.38971,38.815,188],[-90.38969,38.81498,189],[-90.38966,38.81495,189],[-90.38963,38.81494,189],[-90.3896,38.81491,189],[-90.38959,38.81488,189],[-90.38957,38.81485,190],[-90.38956,38.81481,190],[-90.38956,38.81478,190],[-90.38956,38.81475,191],[-90.38956,38.81472,191],[-90.38955,38.81469,191],[-90.38954,38.81465,190],[-90.38954,38.81462,190],[-90.38955,38.81459,190],[-90.38955,38.81455,190],[-90.38955,38.81452,190],[-90.38955,38.81448,189],[-90.38953,38.81444,189],[-90.38952,38.81441,189],[-90.38951,38.81437,188],[-90.38949,38.81434,188],[-90.38946,38.81432,188],[-90.38942,38.8143,189],[-90.3894,38.81428,189],[-90.38936,38.81426,189],[-90.38932,38.81424,190],[-90.38928,38.81421,190],[-90.38925,38.81418,191],[-90.38921,38.81416,192],[-90.38916,38.81415,192],[-90.38911,38.81415,192],[-90.38907,38.81414,192],[-90.38902,38.81414,192],[-90.38899,38.81413,192],[-90.38895,38.81411,192],[-90.38891,38.81409,192],[-90.38886,38.81408,192],[-90.38881,38.81407,193],[-90.38877,38.81406,193],[-90.38873,38.81406,194],[-90.38869,38.81406,195],[-90.38865,38.81405,195],[-90.38862,38.81403,195],[-90.38859,38.81401,196],[-90.38855,38.814,196],[-90.38851,38.81399,196],[-90.38848,38.81398,196],[-90.38843,38.81396,197],[-90.3884,38.81394,197],[-90.38837,38.81392,197],[-90.38833,38.81389,198],[-90.38829,38.81389,198],[-90.38825,38.81388,198],[-90.3882,38.81388,198],[-90.38816,38.81388,198],[-90.38811,38.81389,198],[-90.38806,38.81389,198],[-90.38801,38.8139,199],[-90.38797,38.8139,199],[-90.38793,38.81391,199],[-90.38788,38.81391,199],[-90.38785,38.81392,199],[-90.3878,38.81392,199],[-90.38775,38.81393,200],[-90.3877,38.81394,200],[-90.38767,38.81394,200],[-90.38764,38.81392,200],[-90.38761,38.8139,200],[-90.38759,38.81387,199],[-90.38756,38.81385,199],[-90.38752,38.81383,199],[-90.38749,38.8138,198],[-90.38749,38.81377,198],[-90.3875,38.81373,197],[-90.38751,38.8137,197],[-90.38752,38.81367,196],[-90.38753,38.81364,196],[-90.38755,38.81361,196],[-90.38756,38.81358,196],[-90.38757,38.81355,196],[-90.38758,38.81352,195],[-90.3876,38.81349,195],[-90.38761,38.81346,195],[-90.38761,38.81343,195],[-90.38761,38.8134,195],[-90.38762,38.81337,195],[-90.38763,38.81334,194],[-90.38767,38.81332,195],[-90.38771,38.81332,195],[-90.38776,38.81332,195],[-90.38779,38.81331,195],[-90.38783,38.81331,195],[-90.38787,38.81329,195],[-90.3879,38.81327,195],[-90.38792,38.81325,194],[-90.38795,38.81323,194],[-90.38798,38.81321,194],[-90.38801,38.81319,193],[-90.38803,38.81316,192],[-90.38805,38.81313,192],[-90.38806,38.81309,191],[-90.38807,38.81306,190],[-90.38807,38.81302,190],[-90.38808,38.81299,189],[-90.3881,38.81295,188],[-90.3881,38.81292,188],[-90.3881,38.81289,188],[-90.3881,38.81286,187],[-90.38811,38.81284,187],[-90.38815,38.81283,185],[-90.38818,38.81283,185],[-90.38821,38.8128,184],[-90.38824,38.81279,182],[-90.38828,38.8128,181],[-90.38831,38.81279,180],[-90.38835,38.81278,179],[-90.38839,38.81277,177],[-90.38842,38.81276,176],[-90.38846,38.81274,175],[-90.38849,38.81273,173],[-90.38854,38.81271,171],[-90.38856,38.81267,171],[-90.38858,38.81262,170],[-90.3886,38.8126,169],[-90.38862,38.81257,169],[-90.38863,38.81254,168],[-90.38863,38.8125,168],[-90.38863,38.81247,168],[-90.38863,38.81244,167],[-90.38864,38.8124,166],[-90.38865,38.81237,166],[-90.38868,38.81235,165],[-90.38872,38.81234,164],[-90.38876,38.81233,164],[-90.38879,38.8123,163],[-90.38881,38.81227,163],[-90.38882,38.81224,162],[-90.38883,38.81221,162],[-90.38882,38.81217,161],[-90.38881,38.81213,161],[-90.3888,38.8121,160],[-90.38878,38.81208,160],[-90.38876,38.81205,160],[-90.38874,38.81203,160],[-90.38871,38.812,160],[-90.38868,38.81197,161],[-90.38865,38.81194,161],[-90.38863,38.81191,161],[-90.38862,38.81189,162],[-90.38862,38.81186,162],[-90.38863,38.81183,162],[-90.38865,38.8118,162],[-90.38867,38.81177,162],[-90.3887,38.81175,162],[-90.38874,38.81173,161],[-90.38877,38.8117,161],[-90.38879,38.81168,161],[-90.3888,38.81164,161],[-90.38881,38.81162,161],[-90.38885,38.81161,160],[-90.38888,38.8116,159],[-90.38892,38.81158,158],[-90.38896,38.81157,157],[-90.389,38.81156,156],[-90.38904,38.81155,155],[-90.38908,38.81154,154],[-90.38912,38.81153,153],[-90.38917,38.81151,152],[-90.3892,38.81149,152],[-90.38923,38.81147,152],[-90.38926,38.81144,152],[-90.3893,38.81143,152],[-90.38934,38.8114,152],[-90.38937,38.81139,152],[-90.38941,38.81137,152],[-90.38945,38.81134,151],[-90.38948,38.81131,151],[-90.3895,38.81129,151],[-90.38954,38.81126,151],[-90.38956,38.81123,151],[-90.3896,38.81121,151],[-90.38964,38.81121,151],[-90.38968,38.81121,150],[-90.38971,38.81121,150],[-90.38975,38.81121,150],[-90.3898,38.8112,149],[-90.38984,38.81119,148],[-90.38988,38.81118,148],[-90.38992,38.81118,147],[-90.38996,38.81117,147],[-90.39,38.81118,146],[-90.39004,38.81118,146],[-90.39008,38.81119,145],[-90.39013,38.81119,144],[-90.39018,38.81119,144],[-90.39022,38.81119,143],[-90.39027,38.81119,143],[-90.39031,38.8112,142],[-90.39036,38.8112,142],[-90.3904,38.81122,142],[-90.39044,38.81124,142],[-90.39047,38.81126,142],[-90.39053,38.81126,142],[-90.39057,38.81126,142],[-90.39061,38.81125,142],[-90.39065,38.81125,142],[-90.39068,38.81124,142],[-90.39072,38.81123,142],[-90.39076,38.81122,141],[-90.39079,38.8112,141],[-90.39082,38.81116,141],[-90.39083,38.81112,141],[-90.39084,38.81108,140],[-90.39084,38.81105,140],[-90.39084,38.81101,139],[-90.39082,38.81097,139],[-90.39081,38.81094,139],[-90.39079,38.81091,139],[-90.39077,38.81089,139],[-90.39074,38.81086,138],[-90.3907,38.81083,138],[-90.39068,38.8108,139],[-90.39067,38.81076,139],[-90.39066,38.81073,139],[-90.39074,38.81076,138],[-90.39082,38.81077,138],[-90.39087,38.81079,138],[-90.3909,38.81081,137],[-90.39091,38.81085,137],[-90.39091,38.81089,138],[-90.3909,38.81098,138]]],
        "bbox": [
          -90.38749,
          38.81675,
          -90.39223,
          38.81073
        ]
      },
      "properties": {
        "name": "4.2.2025"
      }
    }
  ]
}