{
  "type": "FeatureCollection",
  "features": [
    {
      "type": "Feature",
      "geometry": {
        "type": "MultiLineString",
        "coordinates": [[[-90.39503,38.8116,132],[-90.395,38.81159,132],[-90.39497,38.81161,132],[-90.39495,38.81164,133],[-90.39493,38.81167,133],[-90.39491,38.8117,133],[-90.39488,38.81172,133],[-90.39488,38.81175,134],[-90.39485,38.81177,134],[-90.39481,38.81178,134],[-90.39479,38.8118,135],[-90.39477,38.81183,135],[-90.39474,38.81185,135],[-90.39472,38.81188,136],[-90.39469,38.81191,136],[-90.39467,38.81194,137],[-90.39464,38.81197,137],[-90.39462,38.81199,137],[-90.39459,38.81202,137],[-90.39456,38.81204,137],[-90.39452,38.81206,137],[-90.3945,38.81208,137],[-90.39447,38.8121,137],[-90.39445,38.81212,137],[-90.39441,38.81215,138],[-90.39437,38.81218,138],[-90.39435,38.81221,138],[-90.39431,38.81224,137],[-90.39424,38.81223,137],[-90.39421,38.8122,138],[-90.39425,38.81222,138],[-90.39428,38.81225,137],[-90.39425,38.81229,137],[-90.3942,38.81232,137],[-90.39417,38.81235,137],[-90.39414,38.81239,137],[-90.39413,38.81243,137],[-90.39409,38.81246,137],[-90.39405,38.81249,137],[-90.39401,38.81252,136],[-90.39397,38.81254,136],[-90.39393,38.81256,136],[-90.39389,38.81259,136],[-90.39386,38.81263,135],[-90.39382,38.81265,135],[-90.39377,38.81268,134],[-90.39373,38.8127,134],[-90.39369,38.81272,134],[-90.39365,38.81276,134],[-90.39361,38.81278,134],[-90.39357,38.8128,133],[-90.39352,38.81282,134],[-90.39347,38.81284,134],[-90.39343,38.81287,133],[-90.39339,38.81289,134],[-90.39334,38.81292,133],[-90.39336,38.81287,134],[-90.39334,38.81285,134],[-90.39331,38.81283,134],[-90.39326,38.81281,134],[-90.39323,38.8128,134],[-90.3932,38.81278,134],[-90.39317,38.81276,134],[-90.39314,38.81275,134],[-90.3931,38.81273,134],[-90.39306,38.81271,134],[-90.39303,38.81269,134],[-90.393,38.81268,134],[-90.39296,38.81267,134],[-90.39292,38.81264,134],[-90.39289,38.81262,134],[-90.39286,38.81259,134],[-90.39283,38.81258,134],[-90.3928,38.81255,134],[-90.39277,38.81253,134],[-90.39273,38.81251,134],[-90.3927,38.81249,134],[-90.39267,38.81247,134],[-90.39265,38.81245,134],[-90.39261,38.81243,134],[-90.39259,38.81241,134],[-90.39256,38.81239,135],[-90.39253,38.81236,135],[-90.3925,38.81234,135],[-90.39247,38.81232,135],[-90.39245,38.8123,135],[-90.39242,38.81229,135],[-90.39239,38.81227,135],[-90.39236,38.81225,135],[-90.39233,38.81223,135],[-90.39225,38.81219,135],[-90.3922,38.81217,136],[-90.39217,38.81215,136],[-90.39213,38.81214,136],[-90.3921,38.81211,136],[-90.39206,38.81211,137],[-90.39202,38.8121,137],[-90.39198,38.81211,137],[-90.39194,38.81211,137],[-90.39189,38.81213,137],[-90.39186,38.81215,137],[-90.39183,38.81218,137],[-90.39181,38.81221,137],[-90.39179,38.81224,137],[-90.39178,38.81227,137],[-90.39176,38.8123,136],[-90.39174,38.81233,136],[-90.39172,38.81235,136],[-90.39168,38.81238,136],[-90.39166,38.81241,136],[-90.39163,38.81244,135],[-90.39161,38.81247,135],[-90.39159,38.8125,135],[-90.39157,38.81253,135],[-90.39155,38.81255,136],[-90.39153,38.81258,137],[-90.39151,38.81262,137],[-90.3915,38.81265,138],[-90.39149,38.81269,139],[-90.39149,38.81273,140],[-90.3915,38.81276,140],[-90.39153,38.8128,141],[-90.39157,38.81281,140],[-90.39162,38.81283,140],[-90.39167,38.81285,140],[-90.39171,38.81287,139],[-90.39175,38.81289,139],[-90.39179,38.81291,139],[-90.39182,38.81294,139],[-90.39186,38.81297,138],[-90.39191,38.813,138],[-90.39194,38.81302,138],[-90.39198,38.81304,138],[-90.39201,38.81307,138],[-90.39204,38.81309,138],[-90.39208,38.81313,138],[-90.39212,38.81315,138],[-90.39217,38.81317,138],[-90.39222,38.81319,137],[-90.39226,38.81321,137],[-90.39229,38.81324,137],[-90.39233,38.81327,137],[-90.39236,38.8133,137],[-90.3924,38.81332,137],[-90.39244,38.81333,137],[-90.39248,38.81336,137],[-90.39251,38.81338,137],[-90.39255,38.8134,137],[-90.39259,38.81342,137],[-90.39264,38.81343,136],[-90.39268,38.81345,136],[-90.39273,38.81343,136],[-90.39276,38.81341,135],[-90.39279,38.81338,135],[-90.39282,38.81335,134],[-90.39285,38.81333,134],[-90.39287,38.8133,134],[-90.3929,38.81327,134],[-90.39293,38.81325,133],[-90.39297,38.81322,133],[-90.393,38.8132,133],[-90.39303,38.81317,133],[-90.39305,38.81314,133],[-90.39308,38.81311,132],[-90.39311,38.81309,132],[-90.39314,38.81306,132],[-90.39318,38.81305,133],[-90.39321,38.81302,133],[-90.39324,38.813,133],[-90.39327,38.81298,133],[-90.3933,38.81295,133],[-90.39338,38.81288,134],[-90.39344,38.81286,134],[-90.39348,38.81284,134],[-90.39352,38.81282,134],[-90.39356,38.81281,133],[-90.3936,38.8128,133],[-90.39363,38.81278,133],[-90.39367,38.81275,134],[-90.3937,38.81273,134],[-90.39372,38.8127,134],[-90.39376,38.81267,134],[-90.39379,38.81265,135],[-90.39383,38.81262,135],[-90.39386,38.8126,135],[-90.3939,38.81258,136],[-90.39394,38.81255,136],[-90.39396,38.81253,136],[-90.394,38.8125,137],[-90.39403,38.81247,137],[-90.39406,38.81244,137],[-90.39408,38.81241,137],[-90.39412,38.81239,137],[-90.39415,38.81236,137],[-90.39419,38.81233,137],[-90.39422,38.81231,137],[-90.39425,38.81229,137],[-90.39429,38.81226,137],[-90.39432,38.81223,137],[-90.39435,38.81221,138],[-90.39439,38.81218,138],[-90.39446,38.81211,137],[-90.3945,38.81208,137],[-90.39453,38.81206,137],[-90.39456,38.81204,137],[-90.3946,38.81201,137],[-90.39463,38.81197,137],[-90.39465,38.81194,137],[-90.39468,38.81191,136],[-90.39472,38.81187,136],[-90.39475,38.81185,135],[-90.39478,38.81183,135],[-90.39482,38.8118,134],[-90.39497,38.8117,133],[-90.39508,38.8116,132],[-90.39509,38.81157,132],[-90.39507,38.81159,132],[-90.39504,38.81161,132],[-90.39502,38.81163,132],[-90.39499,38.81165,132],[-90.39495,38.81167,133],[-90.3949,38.8117,133],[-90.3948,38.81177,134],[-90.39477,38.81181,135],[-90.39475,38.81183,135],[-90.39473,38.81186,136],[-90.39471,38.81188,136],[-90.39468,38.81191,136],[-90.39466,38.81193,137],[-90.39463,38.81195,137],[-90.39459,38.81197,137],[-90.39461,38.81201,137],[-90.39461,38.81206,137],[-90.39452,38.8121,137],[-90.39447,38.81211,137],[-90.39443,38.81213,138],[-90.39439,38.81215,138],[-90.39436,38.81218,138],[-90.39434,38.8122,138],[-90.39431,38.81222,138],[-90.39429,38.81225,137],[-90.39427,38.81227,137],[-90.39424,38.8123,137],[-90.39422,38.81232,137],[-90.39419,38.81234,137],[-90.39415,38.81236,137],[-90.39411,38.81238,137],[-90.39407,38.81241,137],[-90.39404,38.81243,137],[-90.39401,38.81246,137],[-90.39398,38.81248,137],[-90.39395,38.8125,137],[-90.39392,38.81252,136],[-90.39388,38.81255,136],[-90.39385,38.81258,136],[-90.39382,38.8126,135],[-90.39379,38.81262,135],[-90.39376,38.81264,135],[-90.39374,38.81267,134],[-90.39372,38.81269,134],[-90.39369,38.81271,134],[-90.39366,38.81273,134],[-90.39363,38.81275,134],[-90.39359,38.81276,134],[-90.39356,38.81277,134],[-90.39352,38.81279,134],[-90.3935,38.81281,134],[-90.39347,38.81283,134],[-90.39343,38.81285,134],[-90.39338,38.81287,134],[-90.39335,38.81288,134],[-90.39331,38.81291,134],[-90.39329,38.81293,133],[-90.39326,38.81296,133],[-90.39323,38.81298,133],[-90.3932,38.81301,133],[-90.39318,38.81303,133],[-90.39316,38.81306,132],[-90.39314,38.81308,132],[-90.3931,38.81309,132],[-90.39303,38.81311,133],[-90.39299,38.81314,133],[-90.39296,38.81316,133],[-90.39292,38.81318,133],[-90.39289,38.8132,133],[-90.39286,38.81322,134],[-90.39283,38.81325,134],[-90.3928,38.81328,134],[-90.39278,38.81331,134],[-90.39275,38.81333,135],[-90.39272,38.81335,135],[-90.39268,38.81337,136],[-90.39265,38.81339,136],[-90.39263,38.81342,136],[-90.39261,38.81344,137],[-90.39259,38.81347,137],[-90.39258,38.8135,137],[-90.39256,38.81352,138],[-90.39253,38.81354,138],[-90.39251,38.81356,138],[-90.39248,38.81359,138],[-90.39246,38.81363,138],[-90.39245,38.81366,138],[-90.39244,38.8137,138],[-90.39243,38.81373,138],[-90.39242,38.81376,137],[-90.39241,38.8138,137],[-90.3924,38.81384,136],[-90.39238,38.81387,136],[-90.39236,38.8139,136],[-90.39235,38.81394,137],[-90.39233,38.81397,139],[-90.39231,38.814,140],[-90.39227,38.81402,141],[-90.39223,38.81401,140],[-90.3922,38.81402,141],[-90.39216,38.81403,142],[-90.39211,38.81401,142],[-90.3921,38.81399,141],[-90.39204,38.81398,141],[-90.392,38.81395,140],[-90.39197,38.81392,139],[-90.39193,38.81389,138],[-90.3919,38.81387,139],[-90.39187,38.81386,140],[-90.39183,38.81386,142],[-90.3918,38.81384,142],[-90.39178,38.81382,143],[-90.39175,38.81379,144],[-90.39173,38.81377,144],[-90.39171,38.81374,144],[-90.39169,38.81372,144],[-90.39168,38.8137,144],[-90.39166,38.81367,144],[-90.39164,38.81364,144],[-90.39161,38.81363,144],[-90.39156,38.81358,145],[-90.39157,38.81354,146],[-90.39158,38.8135,146],[-90.39159,38.81348,146],[-90.39159,38.81344,146],[-90.39158,38.81341,147],[-90.39157,38.81338,147],[-90.39155,38.81335,148],[-90.39153,38.81333,148],[-90.39149,38.81331,149],[-90.39143,38.8133,150],[-90.39138,38.81329,150],[-90.39133,38.81328,151],[-90.3913,38.81322,151],[-90.3912,38.81315,153],[-90.39117,38.81311,153],[-90.39115,38.81307,153],[-90.39115,38.81304,153],[-90.39114,38.81301,152],[-90.39114,38.81298,151],[-90.39112,38.81294,150],[-90.3911,38.81291,150],[-90.39108,38.81288,149],[-90.39106,38.81285,149],[-90.39105,38.81282,148],[-90.39104,38.8128,148],[-90.39101,38.81276,148],[-90.391,38.81273,147],[-90.391,38.81269,146],[-90.391,38.81266,145],[-90.39098,38.81263,145],[-90.39096,38.8126,144],[-90.39096,38.81256,144],[-90.39095,38.81253,143],[-90.39094,38.81249,143],[-90.39095,38.81245,143],[-90.39096,38.81241,144],[-90.39096,38.81237,145],[-90.39095,38.81234,146],[-90.39093,38.8123,147],[-90.39092,38.81227,148],[-90.3909,38.81223,149],[-90.39089,38.8122,149],[-90.39087,38.81217,149],[-90.39086,38.81213,149],[-90.39087,38.81208,149],[-90.39088,38.81205,149],[-90.3909,38.81202,149],[-90.39093,38.81198,149],[-90.39095,38.81195,150],[-90.39096,38.81192,150],[-90.39095,38.81187,149],[-90.39094,38.81184,148],[-90.39093,38.8118,148],[-90.39095,38.81171,146],[-90.39098,38.81168,146],[-90.39101,38.81165,145],[-90.39104,38.81162,144],[-90.39107,38.8116,144],[-90.39111,38.81157,143],[-90.39112,38.81153,142],[-90.39113,38.8115,142],[-90.39112,38.81146,141],[-90.3911,38.81144,141],[-90.39108,38.81141,141],[-90.39103,38.81137,141],[-90.391,38.81135,141],[-90.39097,38.81132,141],[-90.39094,38.8113,141],[-90.39091,38.81127,141],[-90.39088,38.81124,141],[-90.39085,38.81121,141],[-90.39082,38.81118,141],[-90.39079,38.81115,141],[-90.39075,38.81115,141],[-90.39071,38.81117,141],[-90.39068,38.81119,141],[-90.39064,38.81121,142],[-90.3906,38.81124,142],[-90.39057,38.81127,142],[-90.39053,38.81129,142],[-90.39049,38.81129,142],[-90.39045,38.81127,142],[-90.39042,38.81125,142],[-90.39039,38.81122,142],[-90.39034,38.8112,142],[-90.39031,38.81119,142],[-90.39027,38.81119,143],[-90.39023,38.81119,143],[-90.39018,38.81118,144],[-90.39014,38.81118,144],[-90.3901,38.81117,145],[-90.39007,38.81115,145],[-90.39004,38.81114,146],[-90.39,38.81114,146],[-90.38996,38.81115,147],[-90.38992,38.81114,147],[-90.38988,38.81114,148],[-90.38985,38.81116,148],[-90.38982,38.81119,149],[-90.38979,38.81121,149],[-90.38975,38.81121,150],[-90.38971,38.81121,150],[-90.38966,38.8112,150],[-90.38962,38.81118,151],[-90.38957,38.81117,151],[-90.38952,38.81117,151],[-90.38948,38.81118,151],[-90.38945,38.81121,151],[-90.38943,38.81123,152],[-90.38941,38.81127,152],[-90.38939,38.8113,152],[-90.38936,38.81133,152],[-90.38934,38.81136,152],[-90.38932,38.81138,152],[-90.38928,38.8114,152],[-90.38924,38.81139,152],[-90.38919,38.81137,152],[-90.38915,38.81137,152],[-90.38915,38.8114,152],[-90.38904,38.81147,155],[-90.389,38.81149,156],[-90.38897,38.81151,156],[-90.38892,38.81152,158],[-90.38887,38.81152,159],[-90.38882,38.81152,160],[-90.38877,38.81153,161],[-90.38873,38.81156,162],[-90.38873,38.81159,162],[-90.38872,38.81162,162],[-90.38869,38.81165,163],[-90.38866,38.81168,164],[-90.38863,38.81171,164],[-90.3886,38.81173,164],[-90.38857,38.81176,164],[-90.38854,38.81179,164],[-90.38851,38.81182,164],[-90.38851,38.81186,164],[-90.38851,38.81189,164],[-90.38852,38.81193,163],[-90.38855,38.81195,163],[-90.38859,38.81197,162],[-90.38863,38.812,162],[-90.38865,38.81203,162],[-90.38866,38.81206,162],[-90.38868,38.81209,162],[-90.38872,38.81211,161],[-90.38876,38.81212,161],[-90.38877,38.81216,162],[-90.38876,38.81219,162],[-90.38875,38.81223,163],[-90.38871,38.81225,163],[-90.38867,38.81228,164],[-90.38862,38.81229,165],[-90.38857,38.81229,165],[-90.38854,38.81232,166],[-90.38854,38.81236,167],[-90.38854,38.8124,168],[-90.38854,38.81243,169],[-90.38855,38.81246,169],[-90.38856,38.8125,170],[-90.38854,38.81253,170],[-90.38851,38.81256,171],[-90.38849,38.81259,172],[-90.3885,38.81263,172],[-90.38849,38.81266,173],[-90.38845,38.81268,174],[-90.38841,38.81269,175],[-90.38837,38.8127,177],[-90.38833,38.81269,178],[-90.38829,38.81268,179],[-90.38825,38.8127,180],[-90.3882,38.8127,182],[-90.38816,38.81271,183],[-90.38811,38.81272,185],[-90.38806,38.81274,186],[-90.38801,38.81276,187],[-90.38797,38.81277,188],[-90.38794,38.8128,188],[-90.38798,38.81279,188],[-90.38796,38.81282,188],[-90.38797,38.81286,189],[-90.38797,38.81289,189],[-90.38797,38.81291,189],[-90.38797,38.81295,190],[-90.38797,38.81299,190],[-90.38797,38.81301,191],[-90.38799,38.81305,191],[-90.388,38.81308,191],[-90.388,38.81311,192],[-90.38799,38.81313,192],[-90.38797,38.81316,193],[-90.38795,38.81319,193],[-90.38794,38.81322,194],[-90.38791,38.81326,194],[-90.38788,38.81328,195],[-90.38784,38.8133,195],[-90.38779,38.81331,195],[-90.38775,38.81333,195],[-90.3877,38.81333,195],[-90.38766,38.81333,195],[-90.38761,38.81332,194],[-90.38756,38.81333,194],[-90.38752,38.81335,194],[-90.3875,38.81338,194],[-90.38749,38.81342,194],[-90.38749,38.81346,194],[-90.38748,38.8135,195],[-90.38748,38.81353,195],[-90.38748,38.81357,195],[-90.38748,38.81362,196],[-90.38748,38.81366,196],[-90.38748,38.81371,197],[-90.38748,38.81374,197],[-90.38747,38.81378,198],[-90.38747,38.81382,198],[-90.38747,38.81386,199],[-90.38748,38.8139,199],[-90.38751,38.81393,200],[-90.38755,38.81396,200],[-90.38759,38.81398,200],[-90.38765,38.81399,200],[-90.38768,38.81397,200],[-90.38774,38.81396,200],[-90.38779,38.81397,199],[-90.38783,38.81397,199],[-90.38787,38.81396,199],[-90.38791,38.81396,199],[-90.38794,38.81395,199],[-90.38798,38.81395,199],[-90.38801,38.81393,199],[-90.38805,38.81393,199],[-90.38809,38.81393,199],[-90.38812,38.81392,198],[-90.38817,38.81393,198],[-90.38821,38.81395,198],[-90.38824,38.81397,198],[-90.38827,38.81399,198],[-90.3883,38.814,198],[-90.38833,38.81402,198],[-90.38836,38.81403,198],[-90.3884,38.81405,198],[-90.38845,38.81406,197],[-90.38849,38.81408,197],[-90.38853,38.81409,197],[-90.38857,38.81411,196],[-90.38861,38.81412,196],[-90.38865,38.81413,196],[-90.38869,38.81414,195],[-90.38873,38.81416,195],[-90.38877,38.81417,194],[-90.38881,38.81418,194],[-90.38886,38.81419,193],[-90.38891,38.8142,192],[-90.38896,38.81422,192],[-90.38901,38.81422,192],[-90.38906,38.81423,192],[-90.38911,38.81423,192],[-90.38915,38.81424,192],[-90.38919,38.81426,192],[-90.38922,38.81428,191],[-90.38926,38.8143,191],[-90.3893,38.81432,190],[-90.38933,38.81434,190],[-90.38937,38.81436,190],[-90.38942,38.81438,189],[-90.38946,38.8144,189],[-90.38947,38.81443,189],[-90.38946,38.81447,190],[-90.38948,38.81449,190],[-90.38948,38.81454,190],[-90.3895,38.81457,190],[-90.3895,38.81461,190],[-90.3895,38.81465,190],[-90.3895,38.81468,190],[-90.3895,38.81472,191],[-90.3895,38.81476,190],[-90.38949,38.81482,190],[-90.38949,38.81485,189],[-90.38949,38.81488,189],[-90.38948,38.8149,189],[-90.38948,38.81493,188],[-90.38948,38.81496,188],[-90.38949,38.81499,188],[-90.38952,38.81501,188],[-90.38955,38.81503,188],[-90.38958,38.81505,187],[-90.38961,38.81507,187],[-90.38964,38.8151,186],[-90.38967,38.81512,186],[-90.3897,38.81514,186],[-90.38972,38.81518,185],[-90.38976,38.81517,185],[-90.3898,38.81519,184],[-90.38985,38.81521,184],[-90.38988,38.81524,183],[-90.3899,38.81526,182],[-90.38992,38.81531,181],[-90.38996,38.81532,181],[-90.39,38.81533,181],[-90.39003,38.81533,181],[-90.39007,38.81534,180],[-90.39011,38.81536,180],[-90.39014,38.81537,180],[-90.39017,38.81537,180],[-90.39021,38.81538,180],[-90.39026,38.81538,180],[-90.3903,38.81539,180],[-90.39034,38.81541,180],[-90.39037,38.81543,180],[-90.39041,38.81545,181],[-90.39042,38.81547,180],[-90.39044,38.8155,180],[-90.39047,38.81552,181],[-90.39051,38.81553,181],[-90.39056,38.81552,182],[-90.39061,38.81552,182],[-90.39066,38.81552,183],[-90.3907,38.81552,183],[-90.39075,38.81552,184],[-90.3908,38.81551,184],[-90.39084,38.81551,185],[-90.39088,38.81551,185],[-90.39093,38.8155,185],[-90.39097,38.81549,185],[-90.39101,38.81547,186],[-90.39105,38.81545,186],[-90.3911,38.81544,186],[-90.39114,38.81542,186],[-90.39118,38.81542,186],[-90.39122,38.81542,186],[-90.39127,38.81542,185],[-90.39131,38.81543,185],[-90.39135,38.81545,185],[-90.39139,38.81547,185],[-90.39143,38.81549,184],[-90.39146,38.81552,184],[-90.39148,38.81555,184],[-90.39151,38.81558,183],[-90.39153,38.81562,183],[-90.39156,38.81563,182],[-90.3916,38.81566,182],[-90.39163,38.8157,181],[-90.39165,38.81573,181],[-90.3917,38.81573,180],[-90.39173,38.81573,179],[-90.39176,38.81575,178],[-90.39176,38.81578,178],[-90.39175,38.81581,178],[-90.39174,38.81585,177],[-90.39173,38.81588,177],[-90.39172,38.81591,176],[-90.39172,38.81595,175],[-90.39172,38.81598,175],[-90.39171,38.816,175],[-90.39171,38.81604,174],[-90.39172,38.81608,173],[-90.39173,38.8161,172],[-90.39172,38.81614,171],[-90.3917,38.81617,170],[-90.39169,38.8162,170],[-90.39167,38.81623,169],[-90.39165,38.81626,168],[-90.39164,38.81628,168],[-90.39163,38.81631,167],[-90.39162,38.81634,166],[-90.39161,38.81637,166],[-90.3916,38.8164,165],[-90.39157,38.81642,165],[-90.39154,38.81644,165],[-90.39151,38.81646,165],[-90.39148,38.81649,165],[-90.39146,38.81652,165],[-90.39144,38.81655,164],[-90.39142,38.81658,164],[-90.3914,38.81662,163],[-90.39138,38.81664,163],[-90.39134,38.81666,162],[-90.3913,38.81668,162],[-90.39126,38.81669,163],[-90.39124,38.81673,162],[-90.39121,38.81676,161],[-90.3912,38.81679,161],[-90.39118,38.81683,160],[-90.39113,38.81682,161],[-90.39109,38.81683,161],[-90.39104,38.81685,161],[-90.39104,38.81688,160],[-90.39108,38.81688,160],[-90.3911,38.81686,160],[-90.39109,38.81683,161],[-90.39108,38.8168,162],[-90.39105,38.81676,163],[-90.39103,38.81673,164],[-90.39099,38.8167,165],[-90.39093,38.81668,166],[-90.39088,38.81671,165],[-90.39085,38.81674,165],[-90.39081,38.81676,165],[-90.3908,38.8168,164],[-90.39079,38.81683,164],[-90.39079,38.8168,164],[-90.39076,38.8168,165],[-90.39072,38.81681,165],[-90.39068,38.8168,165],[-90.39064,38.8168,165],[-90.39059,38.81682,166],[-90.39054,38.81684,166],[-90.39049,38.81687,166],[-90.39049,38.81689,166],[-90.39049,38.81692,165],[-90.39049,38.81695,165],[-90.39049,38.81698,164],[-90.39048,38.81701,163],[-90.39048,38.81705,161],[-90.39049,38.81708,160],[-90.39051,38.8171,160],[-90.39051,38.81713,159],[-90.39049,38.81716,158],[-90.39048,38.81719,157],[-90.39046,38.81721,156],[-90.39044,38.81724,155],[-90.39044,38.81727,154],[-90.39047,38.81729,153],[-90.39049,38.81731,153],[-90.3905,38.81734,152],[-90.39049,38.81736,151],[-90.39053,38.81737,150],[-90.39056,38.8174,149],[-90.39056,38.81743,148],[-90.39057,38.81747,146],[-90.39058,38.8175,145],[-90.39059,38.81754,144],[-90.39061,38.81758,143],[-90.39065,38.81759,142],[-90.39069,38.81759,142],[-90.3907,38.81762,141],[-90.39069,38.81765,141],[-90.39066,38.81767,141],[-90.39063,38.81768,141],[-90.39059,38.81768,141],[-90.39056,38.8177,141],[-90.39053,38.81771,141],[-90.3905,38.81769,142],[-90.39049,38.81766,143],[-90.39047,38.81763,144],[-90.39044,38.81761,144],[-90.3904,38.81761,145],[-90.39036,38.81759,146],[-90.39031,38.81761,146],[-90.39028,38.81763,146],[-90.39023,38.81765,146],[-90.39019,38.81768,146],[-90.39015,38.81769,146],[-90.39011,38.8177,147],[-90.39008,38.81772,147],[-90.39004,38.81774,147],[-90.39,38.81775,148],[-90.38996,38.81776,148],[-90.38993,38.81777,148],[-90.3899,38.81779,148],[-90.38987,38.81781,148],[-90.38984,38.81784,148],[-90.3898,38.81786,148],[-90.38976,38.81788,149],[-90.38972,38.8179,149],[-90.38968,38.81789,149],[-90.38964,38.81788,149],[-90.3896,38.81789,149],[-90.38956,38.81791,149],[-90.38953,38.81794,149],[-90.3895,38.81796,148],[-90.38946,38.81798,148],[-90.38943,38.81801,148],[-90.38939,38.81802,148],[-90.38935,38.81803,148],[-90.3893,38.81802,149],[-90.38926,38.818,150],[-90.38922,38.81798,151],[-90.38918,38.81798,152],[-90.38914,38.818,152],[-90.38911,38.81801,153],[-90.38907,38.81802,153],[-90.38903,38.81802,154],[-90.38899,38.81804,154],[-90.38895,38.81805,155],[-90.38891,38.81805,156],[-90.38887,38.81806,157],[-90.38885,38.8181,156],[-90.38882,38.81814,155],[-90.38877,38.81817,154],[-90.38873,38.81821,153],[-90.38869,38.81824,153],[-90.38866,38.81825,153],[-90.38862,38.81825,153],[-90.38857,38.81827,152],[-90.38855,38.81831,151],[-90.38854,38.81834,149],[-90.38851,38.81837,148],[-90.38848,38.81839,147],[-90.38845,38.81842,146],[-90.38839,38.81843,145],[-90.38834,38.81845,144],[-90.38833,38.81848,143],[-90.38832,38.81851,142],[-90.38832,38.81854,141],[-90.3883,38.81857,140],[-90.38826,38.8186,139],[-90.38823,38.81862,139],[-90.38819,38.81864,139],[-90.38815,38.81865,140],[-90.38812,38.81867,140],[-90.38808,38.81869,140],[-90.38803,38.81869,141],[-90.38799,38.8187,141],[-90.38795,38.81871,142],[-90.38785,38.81879,142],[-90.38781,38.81881,142],[-90.38777,38.81882,142],[-90.38773,38.81884,142],[-90.38769,38.81885,142],[-90.38765,38.81887,142],[-90.38761,38.81888,142],[-90.38757,38.81889,141],[-90.38753,38.81891,141],[-90.38749,38.81894,140],[-90.38745,38.81897,139],[-90.38743,38.819,138],[-90.38741,38.81903,137],[-90.38742,38.81906,136],[-90.38742,38.81909,135],[-90.38738,38.81911,134],[-90.38735,38.81912,134],[-90.3873,38.81913,133],[-90.38727,38.81915,132],[-90.38722,38.81917,132],[-90.38718,38.81918,132],[-90.38715,38.81919,132],[-90.38711,38.81922,132],[-90.38707,38.81924,132],[-90.38704,38.81926,132],[-90.387,38.81928,132],[-90.38696,38.81929,132],[-90.38692,38.81931,132],[-90.38688,38.81933,132],[-90.38684,38.81934,132],[-90.38673,38.8194,132],[-90.3867,38.81943,132],[-90.38668,38.81945,131],[-90.38665,38.81948,131],[-90.38662,38.8195,131],[-90.38657,38.8195,131],[-90.38654,38.81951,131],[-90.38651,38.81952,131],[-90.38647,38.81953,131],[-90.38643,38.81953,131],[-90.38639,38.81954,131],[-90.38635,38.81955,131],[-90.38631,38.81956,132],[-90.38627,38.81957,132],[-90.38622,38.81958,133],[-90.38617,38.8196,133],[-90.38612,38.8196,134],[-90.38608,38.8196,134],[-90.38612,38.81961,134],[-90.38609,38.81962,134],[-90.38605,38.81963,133],[-90.38601,38.81963,134],[-90.38597,38.81964,133],[-90.38593,38.81964,133],[-90.3859,38.81965,133],[-90.38584,38.81967,132],[-90.38581,38.81966,133],[-90.38578,38.81965,133],[-90.38574,38.81966,133],[-90.3857,38.81967,133],[-90.38565,38.81967,133],[-90.3856,38.81967,133],[-90.38547,38.81967,133],[-90.38542,38.81968,132],[-90.38539,38.8197,131],[-90.38535,38.81974,131],[-90.3853,38.81976,131],[-90.38525,38.81976,131],[-90.38521,38.81978,131],[-90.38516,38.81978,131],[-90.38512,38.81978,131],[-90.38507,38.81977,131],[-90.38503,38.81977,131],[-90.38499,38.81977,131],[-90.38493,38.81976,133],[-90.38489,38.81976,134],[-90.38484,38.81975,136],[-90.3848,38.81976,137],[-90.38475,38.81977,138],[-90.38471,38.81978,138],[-90.38467,38.8198,138],[-90.38463,38.81981,137],[-90.38458,38.81983,136],[-90.38455,38.81985,136],[-90.38453,38.81987,135],[-90.38451,38.81991,134],[-90.38449,38.81994,133],[-90.38447,38.81997,132],[-90.38443,38.81998,131],[-90.38442,38.82001,131],[-90.38439,38.82003,131],[-90.38436,38.82005,131],[-90.38436,38.82008,131],[-90.38435,38.82011,131],[-90.38438,38.82008,131],[-90.38441,38.82005,131],[-90.38443,38.82001,131],[-90.38445,38.81998,131],[-90.38447,38.81995,132],[-90.38448,38.81992,133],[-90.38451,38.81989,134],[-90.38453,38.81986,135],[-90.38456,38.81983,136],[-90.38458,38.8198,137],[-90.38459,38.81978,138],[-90.38459,38.81975,139],[-90.38459,38.81972,140],[-90.38462,38.81971,140],[-90.38466,38.8197,140],[-90.3847,38.8197,141],[-90.38474,38.81971,140],[-90.38478,38.8197,139],[-90.38481,38.81968,138],[-90.38485,38.81968,137],[-90.38489,38.81968,136],[-90.38491,38.8197,134],[-90.3849,38.81967,135],[-90.38488,38.81965,136],[-90.38485,38.81966,137],[-90.38481,38.81968,138],[-90.38478,38.8197,139],[-90.38479,38.81973,138],[-90.38481,38.81975,137],[-90.38487,38.81975,135],[-90.38491,38.81976,133],[-90.38495,38.81976,132],[-90.385,38.81977,131],[-90.38505,38.81977,131],[-90.38509,38.81977,131],[-90.38514,38.81976,131],[-90.38519,38.81977,131],[-90.38523,38.81978,131],[-90.38527,38.81977,131],[-90.38532,38.81976,131],[-90.38536,38.81974,131],[-90.3854,38.81974,131],[-90.38545,38.81974,131],[-90.38549,38.81973,131],[-90.38553,38.81973,131],[-90.38557,38.81974,131],[-90.38561,38.81976,131],[-90.38565,38.81974,131],[-90.38568,38.81972,131],[-90.38568,38.81968,132],[-90.38568,38.81965,133],[-90.38571,38.81964,134],[-90.38574,38.81962,135],[-90.38577,38.81958,136],[-90.3858,38.81956,137],[-90.38583,38.81953,138],[-90.38587,38.81951,139],[-90.38591,38.81949,139],[-90.38593,38.81946,140],[-90.38591,38.81943,141],[-90.38589,38.8194,142],[-90.38587,38.81937,142],[-90.38585,38.81934,143],[-90.38582,38.81932,143],[-90.38578,38.81932,143],[-90.38574,38.8193,144],[-90.38569,38.81929,144],[-90.38565,38.81927,144],[-90.38564,38.81924,144],[-90.38565,38.8192,145],[-90.38566,38.81917,145],[-90.38567,38.81913,146],[-90.38568,38.81909,146],[-90.3857,38.81906,146],[-90.38572,38.81903,146],[-90.38573,38.81899,147],[-90.38575,38.81896,147],[-90.38579,38.81894,147],[-90.38583,38.81894,147],[-90.38587,38.81892,147],[-90.3859,38.8189,147],[-90.38594,38.81889,147],[-90.38594,38.81885,148],[-90.38597,38.81884,148],[-90.386,38.81881,148],[-90.38603,38.81879,148],[-90.38608,38.81876,148],[-90.38612,38.81874,148],[-90.38616,38.81871,148],[-90.38619,38.81868,149],[-90.38618,38.81864,149],[-90.38617,38.81859,149],[-90.38616,38.81855,150],[-90.38615,38.81852,150],[-90.38615,38.81849,150],[-90.38615,38.81846,150],[-90.38615,38.81843,150],[-90.38616,38.8184,150],[-90.38619,38.81837,150],[-90.38621,38.81833,150],[-90.38621,38.8183,151],[-90.38622,38.81826,152],[-90.38619,38.81823,153],[-90.38617,38.81821,154],[-90.38616,38.81817,155],[-90.38615,38.81814,156],[-90.38613,38.8181,157],[-90.38614,38.81807,158],[-90.38619,38.81805,159],[-90.38623,38.81803,160],[-90.38628,38.81802,161],[-90.38633,38.81801,161],[-90.38637,38.818,162],[-90.38642,38.81799,163],[-90.38647,38.81799,163],[-90.38652,38.81798,163],[-90.38656,38.81797,164],[-90.38659,38.81794,166],[-90.38661,38.8179,168],[-90.38662,38.81786,171],[-90.38664,38.81783,173],[-90.38667,38.81781,174],[-90.38671,38.81779,175],[-90.38675,38.81778,176],[-90.38679,38.81779,175],[-90.38684,38.81779,174],[-90.38688,38.81781,173],[-90.38688,38.81785,170],[-90.3869,38.81789,168],[-90.38692,38.81792,165],[-90.38694,38.81795,163],[-90.38698,38.81798,161],[-90.38699,38.81801,160],[-90.387,38.81804,158],[-90.38701,38.81808,156],[-90.38703,38.8181,156],[-90.38705,38.81813,156],[-90.3871,38.81813,156],[-90.38714,38.81812,157],[-90.38718,38.8181,157],[-90.38722,38.81813,157],[-90.38728,38.81812,157],[-90.38732,38.8181,158],[-90.38736,38.81808,159],[-90.3874,38.81806,159],[-90.38743,38.81804,160],[-90.38748,38.81803,161],[-90.38753,38.81803,162],[-90.38759,38.81803,162],[-90.38763,38.81804,163],[-90.38767,38.81805,163],[-90.38772,38.81805,163],[-90.38776,38.81806,163],[-90.38781,38.81805,164],[-90.38785,38.81806,164],[-90.38786,38.81808,163],[-90.38785,38.81811,162],[-90.38785,38.81814,161],[-90.38785,38.81817,159],[-90.38788,38.81819,158],[-90.38792,38.8182,158],[-90.38796,38.81819,158],[-90.38799,38.81821,157],[-90.38801,38.81824,155],[-90.38803,38.81826,154],[-90.38807,38.81827,153],[-90.38818,38.8183,152],[-90.38822,38.81829,152],[-90.38824,38.81826,154],[-90.38828,38.81826,154],[-90.38832,38.81827,153],[-90.38836,38.81829,152],[-90.38839,38.81831,151],[-90.38842,38.81834,149],[-90.38846,38.81837,148],[-90.38849,38.8184,147],[-90.38852,38.81842,146],[-90.38855,38.8184,147],[-90.38859,38.81837,148],[-90.38861,38.81835,149],[-90.38862,38.81831,150],[-90.38864,38.81827,152],[-90.38868,38.81826,152],[-90.38871,38.81825,152],[-90.38875,38.81824,152],[-90.38878,38.81822,152],[-90.38882,38.81819,152],[-90.38885,38.81817,153],[-90.38887,38.81813,154],[-90.38889,38.8181,155],[-90.38889,38.81806,156],[-90.38889,38.81803,157],[-90.38891,38.81801,157],[-90.38896,38.818,156],[-90.389,38.818,155],[-90.38904,38.818,154],[-90.38908,38.81798,154],[-90.38913,38.81797,153],[-90.38917,38.81797,152],[-90.38922,38.81798,151],[-90.38927,38.818,150],[-90.38931,38.818,149],[-90.38936,38.81799,149],[-90.3894,38.81799,149],[-90.38945,38.81799,148],[-90.38949,38.81799,148],[-90.38953,38.81797,148],[-90.38957,38.81796,148],[-90.38961,38.81794,149],[-90.38966,38.81792,149],[-90.38969,38.8179,149],[-90.38974,38.81789,149],[-90.38978,38.81789,148],[-90.38982,38.81789,148],[-90.38986,38.81788,147],[-90.3899,38.81786,147],[-90.38994,38.81784,147],[-90.38998,38.81784,147],[-90.39002,38.81783,146],[-90.39007,38.81784,145],[-90.39008,38.81787,145],[-90.39011,38.81787,144],[-90.3902,38.81786,143],[-90.39026,38.81785,142],[-90.3903,38.81783,142],[-90.39034,38.81781,141],[-90.39036,38.81779,141],[-90.39039,38.81778,141],[-90.39043,38.81776,141],[-90.39046,38.81776,141],[-90.3905,38.81776,140],[-90.39053,38.81775,140],[-90.39057,38.81773,140],[-90.39061,38.81771,140],[-90.39064,38.8177,140],[-90.39067,38.81768,140],[-90.39069,38.81766,140],[-90.39072,38.81763,141],[-90.39075,38.81761,141],[-90.39079,38.81759,140],[-90.39083,38.81757,140],[-90.39086,38.81755,140],[-90.39087,38.81751,141],[-90.39089,38.81748,142],[-90.39091,38.81744,143],[-90.39094,38.81741,143],[-90.39096,38.81738,144],[-90.39099,38.81735,144],[-90.39102,38.81732,144],[-90.39105,38.8173,145],[-90.39108,38.81728,145],[-90.39111,38.81726,144],[-90.39113,38.81723,145],[-90.39116,38.8172,146],[-90.39118,38.81718,146],[-90.39123,38.81716,146],[-90.39127,38.81714,146],[-90.39131,38.81712,146],[-90.39135,38.81711,146],[-90.39139,38.81709,146],[-90.39143,38.81706,147],[-90.39147,38.81704,147],[-90.3915,38.81702,147],[-90.39155,38.81701,147],[-90.3916,38.81701,146],[-90.39165,38.81701,145],[-90.39169,38.817,145],[-90.3918,38.81695,148],[-90.39183,38.81693,148],[-90.39185,38.8169,149],[-90.39186,38.81687,149],[-90.39188,38.81684,150],[-90.3919,38.81681,150],[-90.39193,38.81679,150],[-90.39197,38.81677,149],[-90.39202,38.81667,149],[-90.39204,38.81664,149],[-90.39209,38.81662,149],[-90.39212,38.8166,148],[-90.39214,38.81657,148],[-90.39218,38.81655,148],[-90.39222,38.81652,147],[-90.39223,38.81649,147],[-90.39224,38.81646,147],[-90.39226,38.81642,147],[-90.39228,38.81639,147],[-90.3923,38.81637,147],[-90.3923,38.81633,148],[-90.39229,38.8163,150],[-90.3923,38.81627,150],[-90.39233,38.81625,150],[-90.39234,38.81621,151],[-90.39237,38.81619,151],[-90.39242,38.81618,149],[-90.39244,38.81614,150],[-90.39247,38.81612,149],[-90.39252,38.81611,148],[-90.39255,38.8161,147],[-90.3926,38.81609,145],[-90.39265,38.81607,144],[-90.39266,38.81604,143],[-90.39266,38.81601,143],[-90.39265,38.81597,144],[-90.39264,38.81594,144],[-90.39263,38.81591,144],[-90.39262,38.81587,145],[-90.39262,38.81584,145],[-90.39261,38.8158,146],[-90.3926,38.81577,147],[-90.39259,38.81574,148],[-90.39258,38.8157,149],[-90.39258,38.81567,150],[-90.39258,38.81564,150],[-90.3926,38.8156,150],[-90.39262,38.81558,150],[-90.39266,38.81555,149],[-90.39269,38.81553,148],[-90.39272,38.81551,148],[-90.39275,38.81549,147],[-90.39279,38.81547,147],[-90.39283,38.81545,146],[-90.39287,38.81544,145],[-90.3929,38.81543,145],[-90.39294,38.81542,144],[-90.39299,38.8154,143],[-90.39303,38.81538,143],[-90.39306,38.81536,143],[-90.39308,38.81533,143],[-90.39311,38.81529,144],[-90.39314,38.81526,143],[-90.39316,38.81523,143],[-90.39318,38.8152,143],[-90.39317,38.81511,144],[-90.39313,38.81506,145],[-90.39311,38.81503,146],[-90.39309,38.815,147],[-90.39307,38.81497,147],[-90.39304,38.81495,147],[-90.39302,38.81492,147],[-90.393,38.8149,147],[-90.39298,38.81487,148],[-90.39296,38.81483,148],[-90.39296,38.81479,148],[-90.39296,38.81475,148],[-90.39296,38.81471,148],[-90.39295,38.81468,148],[-90.39294,38.81465,148],[-90.39292,38.81462,149],[-90.39291,38.81459,149],[-90.39289,38.81456,150],[-90.39285,38.81453,151],[-90.39282,38.81451,151],[-90.39278,38.81449,152],[-90.39275,38.81447,153],[-90.39271,38.81445,153],[-90.39269,38.81443,153],[-90.39267,38.81439,152],[-90.39268,38.81437,152],[-90.39267,38.81434,151],[-90.39264,38.81432,151],[-90.3926,38.81429,151],[-90.39255,38.81427,151],[-90.39249,38.81426,152],[-90.39245,38.81425,151],[-90.39241,38.81424,151],[-90.39237,38.81423,151],[-90.39233,38.81421,151],[-90.3923,38.81419,151],[-90.39226,38.81417,150],[-90.39223,38.81414,149],[-90.39221,38.81411,147],[-90.39221,38.81408,145],[-90.39223,38.81405,143],[-90.39225,38.81402,141],[-90.39228,38.814,140],[-90.39231,38.81398,139],[-90.39234,38.81396,139],[-90.39236,38.81393,137],[-90.39239,38.81391,137],[-90.39241,38.81387,136],[-90.39244,38.81385,137],[-90.39247,38.81382,137],[-90.3925,38.81379,138],[-90.39253,38.81376,138],[-90.39255,38.81372,138],[-90.39257,38.81368,138],[-90.39259,38.81365,138],[-90.3926,38.81361,138],[-90.39263,38.81356,138],[-90.39266,38.81352,137],[-90.39268,38.81348,137],[-90.3927,38.81344,136],[-90.39274,38.81341,136],[-90.39277,38.81337,135],[-90.39281,38.81334,134],[-90.39285,38.81331,134],[-90.39288,38.81327,134],[-90.39291,38.81324,133],[-90.39295,38.81321,133],[-90.39298,38.81318,133],[-90.39302,38.81314,133],[-90.39305,38.81311,133],[-90.39309,38.81308,132],[-90.39313,38.81305,133],[-90.39318,38.81302,133],[-90.39322,38.813,133],[-90.39327,38.81297,133],[-90.39331,38.81294,133],[-90.39336,38.81291,133],[-90.39339,38.81289,134],[-90.39343,38.81287,133],[-90.39348,38.81285,133],[-90.39351,38.81284,133],[-90.39355,38.81282,133],[-90.39357,38.8128,133],[-90.3936,38.81278,134],[-90.39363,38.81276,134],[-90.39367,38.81275,134],[-90.39371,38.81272,134],[-90.39374,38.81269,134],[-90.39376,38.81266,135],[-90.39378,38.81264,135],[-90.39381,38.81262,135],[-90.39383,38.8126,135],[-90.39385,38.81257,136],[-90.39389,38.81255,136],[-90.39392,38.81253,136],[-90.39395,38.81252,136],[-90.39398,38.8125,137],[-90.39401,38.81248,137],[-90.39403,38.81246,137],[-90.39406,38.81244,137],[-90.39409,38.81242,137],[-90.39412,38.8124,137],[-90.39415,38.81238,137],[-90.39418,38.81235,137],[-90.39422,38.81233,137],[-90.39425,38.81231,137],[-90.39428,38.81228,137],[-90.39431,38.81225,137],[-90.39434,38.81222,138],[-90.39436,38.8122,138],[-90.3944,38.81217,138],[-90.39443,38.81214,138],[-90.39446,38.81212,137],[-90.39449,38.81209,137],[-90.39454,38.81206,137],[-90.39457,38.81204,137],[-90.3946,38.81201,137],[-90.39464,38.81199,137],[-90.39467,38.81197,137],[-90.3947,38.81194,137],[-90.39472,38.81191,136],[-90.39475,38.81188,136],[-90.39479,38.81186,135],[-90.39482,38.81184,135],[-90.39485,38.81181,134],[-90.39488,38.81179,134],[-90.39492,38.81176,134],[-90.39495,38.81173,133],[-90.39499,38.81171,133],[-90.39503,38.81168,133],[-90.39506,38.81166,132],[-90.3951,38.81164,132],[-90.39512,38.81161,132],[-90.39509,38.81162,132],[-90.39506,38.81164,132],[-90.39503,38.81162,132]]],
        "bbox": [
          -90.38435,
          38.82011,
          -90.39512,
          38.81114
        ]
      },
      "properties": {
        "name": "3.5.2022"
      }
    }
  ]
}