{
  "type": "FeatureCollection",
  "features": [
    {
      "type": "Feature",
      "geometry": {
        "type": "MultiLineString",
        "coordinates": [[[-90.38769,38.81391,200],[-90.38765,38.81393,200],[-90.38762,38.81391,200],[-90.38759,38.81389,199],[-90.38756,38.81387,199],[-90.38754,38.81385,199],[-90.38752,38.81383,199],[-90.3875,38.81381,198],[-90.38749,38.81378,198],[-90.38752,38.81375,198],[-90.38755,38.81376,198],[-90.38758,38.81377,198],[-90.38755,38.81377,198],[-90.38752,38.81375,198],[-90.38751,38.81373,197],[-90.3875,38.81369,197],[-90.38751,38.81366,196],[-90.38752,38.81363,196],[-90.38752,38.8136,196],[-90.38753,38.81358,195],[-90.38754,38.81355,195],[-90.38755,38.81352,195],[-90.38757,38.81349,195],[-90.38757,38.81346,195],[-90.38758,38.81342,195],[-90.38758,38.81338,194],[-90.38758,38.81335,194],[-90.38758,38.81332,194],[-90.38759,38.81329,194],[-90.38763,38.81329,194],[-90.38767,38.81329,194],[-90.38771,38.81329,195],[-90.38775,38.81328,195],[-90.38779,38.81328,195],[-90.38783,38.81327,195],[-90.38787,38.81326,195],[-90.38791,38.81325,194],[-90.38793,38.81323,194],[-90.38794,38.8132,194],[-90.38796,38.81317,193],[-90.38797,38.81314,192],[-90.38798,38.81312,192],[-90.38799,38.81309,192],[-90.388,38.81306,191],[-90.38801,38.81303,191],[-90.38803,38.81301,190],[-90.38805,38.81298,190],[-90.38803,38.81295,190],[-90.38802,38.81293,189],[-90.38803,38.8129,189],[-90.38803,38.81286,188],[-90.38804,38.81283,188],[-90.38804,38.8128,188],[-90.38806,38.81278,187],[-90.3881,38.81277,186],[-90.38813,38.81275,185],[-90.38817,38.81273,183],[-90.3882,38.81271,182],[-90.38824,38.8127,181],[-90.38828,38.8127,179],[-90.38832,38.81271,179],[-90.38836,38.8127,177],[-90.38839,38.81268,176],[-90.38842,38.81267,175],[-90.38845,38.81266,174],[-90.38848,38.81264,173],[-90.38851,38.81262,172],[-90.38854,38.8126,171],[-90.38855,38.81258,170],[-90.38856,38.81255,170],[-90.38857,38.81251,169],[-90.38859,38.81249,169],[-90.3886,38.81246,168],[-90.3886,38.81243,167],[-90.38858,38.81241,167],[-90.38858,38.81238,167],[-90.38859,38.81235,166],[-90.3886,38.81232,165],[-90.38862,38.81229,165],[-90.38865,38.81227,164],[-90.38869,38.81226,164],[-90.38873,38.81224,163],[-90.38875,38.81222,163],[-90.38877,38.81219,162],[-90.38879,38.81216,161],[-90.3888,38.81213,161],[-90.38879,38.8121,161],[-90.38878,38.81207,160],[-90.38875,38.81205,160],[-90.3887,38.81203,161],[-90.38867,38.81202,161],[-90.38865,38.81199,161],[-90.38861,38.81197,162],[-90.38858,38.81195,162],[-90.38856,38.81192,163],[-90.38856,38.81188,163],[-90.38857,38.81185,163],[-90.38858,38.81182,163],[-90.3886,38.81179,163],[-90.38863,38.81177,163],[-90.38865,38.81174,163],[-90.38867,38.81172,163],[-90.3887,38.81169,163],[-90.38872,38.81167,163],[-90.38875,38.81164,162],[-90.38877,38.81161,161],[-90.38878,38.81157,161],[-90.38881,38.81154,160],[-90.38886,38.81153,159],[-90.3889,38.81152,158],[-90.38893,38.8115,157],[-90.38896,38.81148,156],[-90.389,38.81147,155],[-90.38904,38.81146,155],[-90.38908,38.81145,154],[-90.38911,38.81143,153],[-90.38914,38.81141,152],[-90.38917,38.81138,152],[-90.38921,38.81135,152],[-90.38925,38.81134,152],[-90.38928,38.81135,152],[-90.38933,38.81136,152],[-90.38936,38.81135,152],[-90.38938,38.81133,152],[-90.38941,38.8113,152],[-90.38943,38.81127,152],[-90.38945,38.81125,151],[-90.38946,38.81122,151],[-90.38948,38.8112,151],[-90.38951,38.81117,151],[-90.38954,38.81115,151],[-90.38959,38.81115,151],[-90.38963,38.81115,151],[-90.38968,38.81116,151],[-90.38972,38.81116,150],[-90.38977,38.81116,150],[-90.38981,38.81116,149],[-90.38984,38.81114,149],[-90.38987,38.81113,148],[-90.38991,38.81111,148],[-90.38994,38.81111,147],[-90.38998,38.81112,147],[-90.39002,38.81112,146],[-90.39005,38.81112,146],[-90.39009,38.81113,145],[-90.39014,38.81114,144],[-90.39018,38.81115,144],[-90.39022,38.81115,143],[-90.39026,38.81114,143],[-90.39031,38.81114,142],[-90.39035,38.81116,142],[-90.39039,38.81117,142],[-90.39043,38.8112,142],[-90.39047,38.81122,142],[-90.39051,38.81124,142],[-90.39055,38.81125,142],[-90.39058,38.81125,142],[-90.39062,38.81124,142],[-90.39065,38.81122,142],[-90.39068,38.81121,142],[-90.39072,38.81119,141],[-90.39076,38.81118,141],[-90.39079,38.81117,141],[-90.39084,38.81118,141],[-90.39086,38.81121,141],[-90.39089,38.81124,141],[-90.39091,38.81126,141],[-90.39094,38.81129,141],[-90.39096,38.81132,141],[-90.39099,38.81135,141],[-90.39101,38.81137,141],[-90.39104,38.81139,141],[-90.39106,38.81142,141],[-90.39109,38.81144,141],[-90.3911,38.81147,142],[-90.39112,38.8115,142],[-90.39113,38.81153,142],[-90.39112,38.81156,143],[-90.3911,38.81159,143],[-90.39107,38.81162,144],[-90.39105,38.81164,145],[-90.39104,38.81167,145],[-90.39102,38.81169,146],[-90.391,38.81172,146],[-90.39099,38.81175,147],[-90.39099,38.81178,147],[-90.39099,38.81181,148],[-90.39099,38.81185,149],[-90.391,38.81188,149],[-90.391,38.81191,150],[-90.391,38.81194,150],[-90.39099,38.81197,150],[-90.39098,38.81201,150],[-90.39097,38.81204,150],[-90.39096,38.81207,150],[-90.39095,38.8121,149],[-90.39095,38.81213,149],[-90.39095,38.81216,149],[-90.39096,38.81219,149],[-90.39095,38.81223,149],[-90.39095,38.81226,148],[-90.39097,38.81229,147],[-90.39098,38.81232,146],[-90.39099,38.81235,146],[-90.39101,38.81237,145],[-90.39102,38.8124,144],[-90.39103,38.81243,143],[-90.39103,38.81246,142],[-90.39104,38.8125,141],[-90.39104,38.81253,142],[-90.39105,38.81257,143],[-90.39106,38.81259,143],[-90.39106,38.81262,144],[-90.39106,38.81265,144],[-90.39108,38.81268,145],[-90.3911,38.8127,145],[-90.39111,38.81273,145],[-90.39112,38.81276,146],[-90.39112,38.81279,147],[-90.39114,38.81283,147],[-90.39115,38.81286,148],[-90.39117,38.81289,149],[-90.39118,38.81292,149],[-90.3912,38.81295,150],[-90.39123,38.81298,150],[-90.39124,38.81301,150],[-90.39126,38.81304,151],[-90.39127,38.81306,151],[-90.39129,38.81309,151],[-90.39132,38.81311,151],[-90.39134,38.81313,150],[-90.39138,38.81315,150],[-90.39142,38.81316,149],[-90.39144,38.81318,149],[-90.39146,38.81321,149],[-90.39146,38.81324,149],[-90.39148,38.81327,149],[-90.39151,38.81329,148],[-90.39155,38.81331,148],[-90.39159,38.81332,148],[-90.39162,38.81334,147],[-90.39165,38.81336,146],[-90.39167,38.81339,146],[-90.39168,38.81342,145],[-90.39168,38.81345,145],[-90.39169,38.81349,144],[-90.39171,38.81352,143],[-90.39171,38.81355,143],[-90.39173,38.81358,142],[-90.39175,38.81361,142],[-90.39178,38.81363,142],[-90.39179,38.81366,142],[-90.39182,38.81369,142],[-90.39184,38.81371,141],[-90.39185,38.81373,141],[-90.39188,38.81375,140],[-90.39191,38.81377,140],[-90.39194,38.8138,139],[-90.39197,38.81381,138],[-90.39201,38.81383,137],[-90.39204,38.81385,136],[-90.39206,38.81388,136],[-90.39209,38.8139,136],[-90.39212,38.81393,137],[-90.39215,38.81394,137],[-90.39219,38.81396,138],[-90.39222,38.81398,138],[-90.39225,38.81401,141],[-90.39228,38.81402,141],[-90.39231,38.81402,142],[-90.39234,38.814,141],[-90.39237,38.81398,140],[-90.39238,38.81395,139],[-90.39239,38.81392,137],[-90.3924,38.81388,136],[-90.39242,38.81385,136],[-90.39244,38.81382,137],[-90.39245,38.8138,137],[-90.39247,38.81376,138],[-90.39249,38.81373,138],[-90.39251,38.8137,138],[-90.39251,38.81367,138],[-90.39251,38.81363,138],[-90.39252,38.8136,138],[-90.39255,38.81358,138],[-90.39257,38.81355,138],[-90.39259,38.81353,137],[-90.39259,38.8135,137],[-90.39261,38.81348,137],[-90.39263,38.81345,137],[-90.39265,38.81342,136],[-90.39268,38.8134,136],[-90.39272,38.81338,135],[-90.39275,38.81336,135],[-90.39278,38.81332,134],[-90.39281,38.8133,134],[-90.39284,38.81328,134],[-90.39288,38.81326,134],[-90.39291,38.81324,133],[-90.39294,38.81322,133],[-90.39297,38.8132,133],[-90.39299,38.81318,133],[-90.39302,38.81316,133],[-90.39305,38.81313,133],[-90.39308,38.81311,132],[-90.39311,38.8131,132],[-90.39313,38.81308,132],[-90.39317,38.81306,132],[-90.3932,38.81305,133],[-90.39323,38.81303,133],[-90.39326,38.81302,133],[-90.3933,38.813,133],[-90.39334,38.81297,133],[-90.39337,38.81295,133],[-90.3934,38.81293,133],[-90.39343,38.8129,133],[-90.39347,38.81288,133],[-90.39351,38.81286,133],[-90.39354,38.81284,133],[-90.39358,38.81282,133],[-90.39361,38.8128,133],[-90.39365,38.81278,133],[-90.39369,38.81276,134],[-90.39372,38.81274,134],[-90.39375,38.81272,134],[-90.39379,38.8127,134],[-90.39382,38.81268,134],[-90.39385,38.81266,135],[-90.39388,38.81263,135],[-90.39391,38.81261,135],[-90.39394,38.81259,135],[-90.39398,38.81257,136],[-90.39401,38.81254,136],[-90.39403,38.81252,136],[-90.39406,38.8125,137],[-90.39409,38.81248,137],[-90.39411,38.81245,137],[-90.39415,38.81243,137],[-90.39418,38.8124,137],[-90.39422,38.81237,137],[-90.39425,38.81235,137],[-90.39427,38.81232,137],[-90.39431,38.8123,137],[-90.39433,38.81228,137],[-90.39436,38.81226,137],[-90.39438,38.81223,137],[-90.39441,38.81222,138],[-90.39445,38.8122,137],[-90.39441,38.8122,138],[-90.39439,38.81226,137],[-90.39438,38.81223,137],[-90.39439,38.8122,138],[-90.39442,38.81218,138],[-90.39445,38.81216,137],[-90.39447,38.81214,137],[-90.3945,38.81212,137],[-90.39453,38.81209,137],[-90.39455,38.81207,137],[-90.39458,38.81204,137],[-90.39461,38.81202,137],[-90.39463,38.812,137],[-90.39467,38.81198,137],[-90.3947,38.81196,137],[-90.39473,38.81193,136],[-90.39476,38.81191,136],[-90.39478,38.81189,136],[-90.3948,38.81187,135],[-90.39483,38.81184,135],[-90.39486,38.81182,134],[-90.39489,38.8118,134],[-90.39492,38.81178,134],[-90.39495,38.81176,133],[-90.39498,38.81174,133],[-90.39501,38.81173,133],[-90.39504,38.8117,133],[-90.39506,38.81168,133],[-90.39509,38.81166,132],[-90.39511,38.81164,132],[-90.39514,38.81161,132],[-90.39515,38.81159,132],[-90.39513,38.81157,132],[-90.39511,38.81159,132],[-90.3951,38.81162,132],[-90.39513,38.81161,132],[-90.39517,38.81157,132],[-90.3952,38.81154,132],[-90.39526,38.8115,132],[-90.39532,38.81147,133],[-90.39538,38.81143,133],[-90.39544,38.8114,133],[-90.39552,38.81136,133],[-90.39558,38.81131,133],[-90.39563,38.81128,133],[-90.39564,38.81125,134],[-90.39565,38.81121,134]]],
        "bbox": [
          -90.38749,
          38.81402,
          -90.39565,
          38.81111
        ]
      },
      "properties": {
        "name": "3.26.2022A"
      }
    }
  ]
}