{
  "type": "FeatureCollection",
  "features": [
    {
      "type": "Feature",
      "geometry": {
        "type": "MultiLineString",
        "coordinates": [[[-90.3951,38.81156,132],[-90.39511,38.81159,132],[-90.39513,38.81157,132],[-90.39514,38.8116,132],[-90.39511,38.81162,132],[-90.39508,38.81164,132],[-90.39504,38.81167,133],[-90.39501,38.8117,133],[-90.39497,38.81172,133],[-90.39494,38.81174,133],[-90.3949,38.81175,134],[-90.39487,38.81179,134],[-90.39484,38.81181,134],[-90.39481,38.81183,135],[-90.39478,38.81186,135],[-90.39473,38.81191,136],[-90.39467,38.81196,137],[-90.39462,38.81201,137],[-90.39456,38.81204,137],[-90.39453,38.81207,137],[-90.39449,38.81211,137],[-90.39445,38.81215,137],[-90.39443,38.81217,138],[-90.39439,38.8122,138],[-90.39435,38.81223,137],[-90.39432,38.81226,137],[-90.3943,38.81228,137],[-90.39428,38.81231,137],[-90.39425,38.81233,137],[-90.39423,38.81235,137],[-90.3942,38.81237,137],[-90.39417,38.8124,137],[-90.39415,38.81243,137],[-90.39409,38.81247,137],[-90.39403,38.81252,136],[-90.39397,38.81257,136],[-90.39392,38.81262,135],[-90.39388,38.81264,135],[-90.39381,38.81268,134],[-90.39375,38.81273,134],[-90.39369,38.81277,134],[-90.39363,38.8128,133],[-90.39357,38.81284,133],[-90.39351,38.81288,133],[-90.39346,38.81291,133],[-90.3934,38.81295,133],[-90.39336,38.81297,133],[-90.39333,38.81299,133],[-90.39329,38.81301,133],[-90.39326,38.81303,133],[-90.39323,38.81304,133],[-90.3932,38.81306,132],[-90.39317,38.81309,132],[-90.39314,38.81311,132],[-90.39312,38.81314,132],[-90.3931,38.81316,132],[-90.39308,38.81319,132],[-90.39306,38.81321,132],[-90.39303,38.81324,133],[-90.39301,38.81326,133],[-90.39298,38.81329,133],[-90.39295,38.81331,133],[-90.39292,38.81333,133],[-90.39289,38.81336,134],[-90.39286,38.81338,134],[-90.39283,38.81341,135],[-90.39281,38.81343,135],[-90.39273,38.81351,137],[-90.39269,38.81355,137],[-90.39267,38.81358,138],[-90.39265,38.8136,138],[-90.39263,38.81363,138],[-90.39257,38.81367,138],[-90.39255,38.81371,138],[-90.39253,38.81374,138],[-90.39251,38.81377,138],[-90.39249,38.8138,138],[-90.39247,38.81382,137],[-90.39245,38.81385,137],[-90.39243,38.81388,136],[-90.39241,38.81391,137],[-90.39239,38.81393,138],[-90.39237,38.81396,139],[-90.39235,38.81399,140],[-90.39233,38.81402,142],[-90.3923,38.81404,143],[-90.39228,38.81406,144],[-90.39224,38.81407,144],[-90.39221,38.81409,146],[-90.39218,38.8141,146],[-90.39214,38.8141,147],[-90.39211,38.8141,147],[-90.39207,38.8141,147],[-90.39203,38.8141,147],[-90.39199,38.8141,148],[-90.39196,38.8141,148],[-90.39195,38.81413,150],[-90.39193,38.81415,151],[-90.3919,38.81417,153],[-90.39189,38.8142,154],[-90.39187,38.81422,155],[-90.39186,38.81425,156],[-90.39185,38.81428,157],[-90.39184,38.8143,158],[-90.39182,38.81433,159],[-90.39182,38.81436,160],[-90.39182,38.81439,160],[-90.39183,38.81441,161],[-90.39185,38.81443,161],[-90.39186,38.81447,161],[-90.39187,38.8145,161],[-90.39189,38.81453,161],[-90.39189,38.81456,162],[-90.39189,38.81459,162],[-90.39189,38.81463,163],[-90.39189,38.81466,163],[-90.39191,38.81469,163],[-90.39192,38.81472,163],[-90.39195,38.81474,163],[-90.39196,38.81476,163],[-90.39195,38.81479,163],[-90.39193,38.81481,164],[-90.39193,38.81484,164],[-90.39194,38.81487,164],[-90.39194,38.8149,165],[-90.39195,38.81493,165],[-90.39197,38.81496,165],[-90.39197,38.81499,165],[-90.39196,38.81502,166],[-90.39195,38.81505,167],[-90.39193,38.81508,169],[-90.39192,38.8151,170],[-90.39191,38.81513,171],[-90.39191,38.81516,172],[-90.39192,38.8152,173],[-90.39193,38.81523,174],[-90.39194,38.81526,175],[-90.39195,38.81529,175],[-90.39195,38.81532,176],[-90.39195,38.81535,176],[-90.39195,38.81538,176],[-90.39194,38.81541,177],[-90.39194,38.81543,177],[-90.39193,38.81547,177],[-90.39191,38.81549,178],[-90.3919,38.81552,178],[-90.39189,38.81554,178],[-90.3919,38.81557,178],[-90.39192,38.8156,177],[-90.39192,38.81562,177],[-90.39189,38.81562,177],[-90.39185,38.81562,178],[-90.39181,38.81563,179],[-90.39178,38.81564,179],[-90.39174,38.81564,180],[-90.39171,38.81563,181],[-90.39168,38.81561,182],[-90.39165,38.8156,182],[-90.39162,38.81557,183],[-90.3916,38.81555,183],[-90.39157,38.81553,183],[-90.39153,38.81551,183],[-90.3915,38.8155,184],[-90.39147,38.81548,184],[-90.39143,38.81547,184],[-90.3914,38.81545,185],[-90.39136,38.81544,185],[-90.39133,38.81544,185],[-90.39129,38.81543,185],[-90.39125,38.81542,185],[-90.39121,38.81542,186],[-90.39117,38.81542,186],[-90.39112,38.81543,186],[-90.39109,38.81544,186],[-90.39105,38.81545,186],[-90.39102,38.81547,186],[-90.39094,38.81549,185],[-90.39088,38.81548,185],[-90.39085,38.81548,185],[-90.39081,38.81547,185],[-90.39077,38.81547,184],[-90.39073,38.81547,184],[-90.39069,38.81547,184],[-90.39063,38.81547,183],[-90.39058,38.81547,182],[-90.39054,38.81546,182],[-90.3905,38.81544,182],[-90.39046,38.81542,181],[-90.39043,38.81541,181],[-90.39039,38.81541,181],[-90.39036,38.81541,180],[-90.39032,38.8154,180],[-90.39029,38.81538,180],[-90.39026,38.81537,180],[-90.39023,38.81535,180],[-90.3902,38.81533,181],[-90.39016,38.81532,181],[-90.39012,38.81531,181],[-90.39008,38.8153,181],[-90.39004,38.81529,181],[-90.39001,38.81527,182],[-90.38997,38.81525,182],[-90.38994,38.81525,182],[-90.3899,38.81523,183],[-90.38988,38.81521,184],[-90.38985,38.81519,184],[-90.38984,38.81516,185],[-90.38982,38.81514,185],[-90.38981,38.81511,186],[-90.38977,38.81506,187],[-90.38973,38.81503,188],[-90.3897,38.81502,188],[-90.38967,38.815,188],[-90.38964,38.81498,188],[-90.38963,38.81495,189],[-90.3896,38.81494,189],[-90.38957,38.81492,189],[-90.38956,38.81489,189],[-90.38956,38.81486,189],[-90.38956,38.81483,190],[-90.38956,38.8148,190],[-90.38956,38.81476,191],[-90.38956,38.81473,191],[-90.38957,38.8147,191],[-90.38957,38.81467,191],[-90.38956,38.81464,190],[-90.38955,38.81462,190],[-90.38953,38.81459,190],[-90.38952,38.81456,190],[-90.38952,38.81453,190],[-90.38951,38.8145,190],[-90.3895,38.81447,189],[-90.38948,38.81444,189],[-90.38945,38.81441,189],[-90.38942,38.81439,189],[-90.38939,38.81438,190],[-90.38931,38.81433,190],[-90.38924,38.8143,191],[-90.3892,38.81429,192],[-90.38917,38.81427,192],[-90.38914,38.81426,192],[-90.38911,38.81424,192],[-90.38907,38.81423,192],[-90.38903,38.81422,192],[-90.38899,38.81421,192],[-90.38895,38.81419,192],[-90.38891,38.81418,192],[-90.38888,38.81417,193],[-90.38885,38.81416,193],[-90.38882,38.81414,193],[-90.38878,38.81412,194],[-90.38875,38.81411,194],[-90.38871,38.8141,195],[-90.38867,38.81409,195],[-90.38863,38.81408,196],[-90.38859,38.81407,196],[-90.38855,38.81406,196],[-90.38851,38.81405,197],[-90.38848,38.81403,197],[-90.38844,38.81402,197],[-90.38841,38.81401,197],[-90.38837,38.81399,198],[-90.38834,38.81397,198],[-90.38831,38.81395,198],[-90.38827,38.81394,198],[-90.38823,38.81394,198],[-90.38817,38.81393,198],[-90.38812,38.81393,198],[-90.38809,38.81394,199],[-90.38805,38.81394,199],[-90.38801,38.81394,199],[-90.38796,38.81394,199],[-90.38793,38.81395,199],[-90.38788,38.81396,199],[-90.38784,38.81396,199],[-90.3878,38.81396,199],[-90.38776,38.81396,200],[-90.38772,38.81396,200],[-90.38769,38.81394,200],[-90.38767,38.81392,200],[-90.38765,38.8139,200],[-90.38763,38.81388,199],[-90.3876,38.81386,199],[-90.38757,38.81384,199],[-90.38754,38.81382,199],[-90.38753,38.81379,198],[-90.38754,38.81372,197],[-90.38754,38.81365,196],[-90.38756,38.8136,196],[-90.38756,38.81353,195],[-90.38758,38.81347,195],[-90.38759,38.81344,195],[-90.38759,38.81341,195],[-90.38759,38.81338,194],[-90.38758,38.81335,194],[-90.38758,38.81332,194],[-90.38762,38.81329,194],[-90.38765,38.81328,194],[-90.38769,38.81327,194],[-90.38773,38.81326,194],[-90.38777,38.81327,195],[-90.38781,38.81326,195],[-90.38785,38.81326,195],[-90.38788,38.81325,194],[-90.3879,38.81322,194],[-90.38793,38.8132,194],[-90.38796,38.81317,193],[-90.38797,38.81315,193],[-90.38799,38.81312,192],[-90.38801,38.81309,191],[-90.38802,38.81306,191],[-90.38802,38.81303,190],[-90.38802,38.813,190],[-90.38802,38.81296,190],[-90.38802,38.81293,189],[-90.38803,38.8129,189],[-90.38802,38.81287,189],[-90.38805,38.81281,188],[-90.38809,38.8128,187],[-90.38812,38.81278,186],[-90.38814,38.81277,185],[-90.38818,38.81275,183],[-90.38819,38.81272,182],[-90.38822,38.81271,181],[-90.38826,38.81271,180],[-90.3883,38.81271,179],[-90.38833,38.8127,178],[-90.38837,38.81268,177],[-90.38841,38.81267,175],[-90.38844,38.81264,174],[-90.38846,38.81261,173],[-90.38847,38.81258,172],[-90.38848,38.81256,172],[-90.38851,38.81252,171],[-90.38854,38.81247,169],[-90.38854,38.81244,169],[-90.38852,38.81242,169],[-90.38852,38.81239,168],[-90.38853,38.81235,167],[-90.38854,38.81232,166],[-90.38855,38.81229,166],[-90.38858,38.81226,165],[-90.38861,38.81225,164],[-90.38864,38.81224,164],[-90.38866,38.81221,163],[-90.38868,38.81219,163],[-90.38872,38.81218,162],[-90.38873,38.81215,162],[-90.38874,38.81211,161],[-90.38874,38.81208,161],[-90.38872,38.81205,161],[-90.3887,38.81203,161],[-90.38867,38.81201,161],[-90.38865,38.81198,161],[-90.38862,38.81197,162],[-90.38859,38.81195,162],[-90.38858,38.81192,162],[-90.38859,38.81189,162],[-90.3886,38.81186,163],[-90.3886,38.81183,163],[-90.3886,38.81178,163],[-90.38862,38.81176,163],[-90.38864,38.81173,163],[-90.38866,38.81171,163],[-90.38869,38.81168,163],[-90.3887,38.81166,163],[-90.38871,38.81163,163],[-90.38872,38.81161,162],[-90.38876,38.8116,161],[-90.38879,38.81159,161],[-90.38882,38.81157,160],[-90.38885,38.81156,160],[-90.38889,38.81154,158],[-90.38892,38.81154,158],[-90.38895,38.81151,157],[-90.38898,38.81149,156],[-90.389,38.81146,155],[-90.38902,38.81144,155],[-90.38905,38.81141,154],[-90.38908,38.81139,153],[-90.38912,38.81138,153],[-90.38915,38.81139,152],[-90.38919,38.8114,152],[-90.38923,38.8114,152],[-90.38926,38.81138,152],[-90.38929,38.81135,152],[-90.38932,38.81133,152],[-90.38934,38.81131,152],[-90.38937,38.81129,152],[-90.38939,38.81126,152],[-90.3894,38.81123,152],[-90.38942,38.8112,152],[-90.38945,38.81118,151],[-90.38949,38.81116,151],[-90.38953,38.81117,151],[-90.38957,38.81118,151],[-90.38961,38.81118,151],[-90.38966,38.81118,151],[-90.38969,38.81117,150],[-90.38974,38.81116,150],[-90.38979,38.81115,149],[-90.38983,38.81115,149],[-90.38986,38.81115,148],[-90.3899,38.81115,148],[-90.38994,38.81115,147],[-90.38998,38.81114,147],[-90.39002,38.81114,146],[-90.39006,38.81115,145],[-90.39009,38.81115,145],[-90.39014,38.81116,144],[-90.39018,38.81115,144],[-90.39022,38.81114,143],[-90.39026,38.81115,143],[-90.3903,38.81116,142],[-90.39033,38.81117,142],[-90.39037,38.81119,142],[-90.3904,38.81121,142],[-90.39043,38.81122,142],[-90.39047,38.81124,142],[-90.39053,38.81124,142],[-90.39057,38.81124,142],[-90.3906,38.81124,142],[-90.39064,38.81123,142],[-90.39067,38.81123,142],[-90.39071,38.81121,142],[-90.39075,38.81121,141],[-90.39078,38.81124,142],[-90.3908,38.81127,142],[-90.39082,38.8113,142],[-90.39085,38.81132,142],[-90.39088,38.81133,142],[-90.39092,38.81134,141],[-90.39095,38.81136,141],[-90.39099,38.81137,141],[-90.39102,38.81138,141],[-90.39106,38.81139,141],[-90.39108,38.81141,141],[-90.3911,38.81144,141],[-90.39111,38.81147,142],[-90.39112,38.8115,142],[-90.3911,38.81153,143],[-90.39108,38.81155,143],[-90.39105,38.81158,144],[-90.39104,38.81161,144],[-90.39102,38.81163,145],[-90.39101,38.81166,145],[-90.391,38.81169,146],[-90.39099,38.81172,146],[-90.39098,38.81175,147],[-90.39098,38.81178,147],[-90.39098,38.81181,148],[-90.39098,38.81184,148],[-90.39097,38.81187,149],[-90.39096,38.8119,149],[-90.39094,38.81193,149],[-90.39094,38.81196,150],[-90.39095,38.81199,150],[-90.39093,38.81201,149],[-90.39093,38.81204,149],[-90.39093,38.81207,149],[-90.39092,38.8121,149],[-90.3909,38.81213,149],[-90.39091,38.81216,149],[-90.39092,38.81219,149],[-90.39093,38.81222,149],[-90.39094,38.81224,149],[-90.39095,38.81227,148],[-90.39096,38.8123,147],[-90.39098,38.81233,146],[-90.391,38.81235,146],[-90.39099,38.81239,145],[-90.39099,38.81242,144],[-90.391,38.81245,143],[-90.391,38.81248,142],[-90.391,38.81251,142],[-90.391,38.81254,143],[-90.39101,38.81257,143],[-90.39103,38.8126,144],[-90.39104,38.81263,144],[-90.39104,38.81266,145],[-90.39103,38.81269,146],[-90.39102,38.81271,146],[-90.39104,38.81274,147],[-90.39106,38.81277,147],[-90.39108,38.81279,147],[-90.39109,38.81282,148],[-90.3911,38.81284,148],[-90.39112,38.81287,149],[-90.39113,38.8129,149],[-90.39115,38.81293,150],[-90.39116,38.81296,150],[-90.39117,38.813,151],[-90.39118,38.81303,152],[-90.39119,38.81305,152],[-90.39122,38.81308,152],[-90.39125,38.8131,152],[-90.39127,38.81312,151],[-90.3913,38.81315,151],[-90.39131,38.81318,151],[-90.39132,38.81321,151],[-90.39136,38.81323,151],[-90.3914,38.81325,150],[-90.39143,38.81326,149],[-90.39147,38.81328,149],[-90.3915,38.81329,149],[-90.39153,38.8133,148],[-90.39156,38.81333,148],[-90.39159,38.81335,147],[-90.39164,38.81339,146],[-90.39167,38.81343,145],[-90.39168,38.81345,145],[-90.39168,38.81349,144],[-90.39168,38.81352,144],[-90.39169,38.81355,143],[-90.39171,38.81358,143],[-90.39172,38.8136,142],[-90.39174,38.81363,142],[-90.39175,38.81366,142],[-90.39177,38.81369,142],[-90.39179,38.81372,142],[-90.39182,38.81373,142],[-90.39184,38.81375,141],[-90.3919,38.8138,140],[-90.39196,38.81385,138],[-90.39198,38.81388,137],[-90.39201,38.81391,137],[-90.39204,38.81393,138],[-90.39207,38.81394,138],[-90.39211,38.81396,139],[-90.39214,38.81397,139],[-90.39217,38.814,140],[-90.39219,38.81403,142],[-90.39222,38.81403,142],[-90.39226,38.81402,141],[-90.39229,38.814,140],[-90.39231,38.81398,139],[-90.39233,38.81395,138],[-90.39234,38.81392,136],[-90.39235,38.81389,135],[-90.39237,38.81386,136],[-90.39238,38.81384,136],[-90.3924,38.81382,136],[-90.39243,38.81379,137],[-90.39246,38.81377,138],[-90.39249,38.81375,138],[-90.39251,38.81372,138],[-90.39252,38.81369,138],[-90.39254,38.81367,138],[-90.39256,38.81364,138],[-90.39257,38.81362,138],[-90.39258,38.81359,138],[-90.39259,38.81356,138],[-90.3926,38.81353,137],[-90.39263,38.8135,137],[-90.39264,38.81347,137],[-90.39263,38.81344,136],[-90.3926,38.81342,137],[-90.39258,38.81339,136],[-90.39255,38.81337,136],[-90.39253,38.81334,136],[-90.39249,38.81332,137],[-90.39245,38.8133,137],[-90.39242,38.81329,137],[-90.39238,38.81327,137],[-90.39235,38.81326,137],[-90.39231,38.81325,137],[-90.39228,38.81323,137],[-90.39225,38.81321,137],[-90.39222,38.81319,137],[-90.39219,38.81317,138],[-90.39216,38.81316,138],[-90.39213,38.81314,138],[-90.3921,38.81313,138],[-90.39206,38.81311,138],[-90.39203,38.81309,138],[-90.39201,38.81307,138],[-90.39196,38.81303,138],[-90.39192,38.81299,138],[-90.3919,38.81297,138],[-90.39187,38.81294,138],[-90.39184,38.81292,138],[-90.39181,38.8129,138],[-90.39178,38.81288,138],[-90.39175,38.81286,139],[-90.39171,38.81284,139],[-90.39168,38.81282,139],[-90.39164,38.8128,139],[-90.39161,38.81278,139],[-90.39157,38.81276,140],[-90.39154,38.81274,140],[-90.39152,38.81271,139],[-90.39151,38.81269,139],[-90.39151,38.81266,138],[-90.39152,38.81263,138],[-90.39153,38.8126,137],[-90.39155,38.81258,136],[-90.39156,38.81255,136],[-90.39157,38.81252,135],[-90.39159,38.81249,135],[-90.39161,38.81247,135],[-90.39164,38.81244,135],[-90.39167,38.81242,135],[-90.39169,38.8124,136],[-90.39171,38.81237,136],[-90.39173,38.81235,136],[-90.39175,38.81232,136],[-90.39177,38.8123,136],[-90.39179,38.81227,137],[-90.39186,38.81221,137],[-90.39194,38.81215,137],[-90.39199,38.81212,137],[-90.39204,38.81211,137],[-90.39207,38.81212,136],[-90.39211,38.81213,136],[-90.39214,38.81215,136],[-90.39217,38.81218,136],[-90.3922,38.81219,136],[-90.39224,38.8122,135],[-90.39227,38.81221,135],[-90.3923,38.81223,135],[-90.39234,38.81223,135],[-90.39237,38.81224,135],[-90.39241,38.81226,135],[-90.39243,38.81228,135],[-90.39246,38.8123,135],[-90.39249,38.81232,135],[-90.39252,38.81234,135],[-90.39256,38.81236,135],[-90.39259,38.81237,134],[-90.39263,38.8124,134],[-90.39267,38.81242,134],[-90.3927,38.81243,134],[-90.39273,38.81245,134],[-90.39276,38.81247,134],[-90.39282,38.81251,134],[-90.39286,38.81252,134],[-90.3929,38.81254,134],[-90.39293,38.81256,134],[-90.39296,38.81258,134],[-90.39299,38.81261,134],[-90.39301,38.81263,134],[-90.39304,38.81266,134],[-90.39307,38.81267,134],[-90.3931,38.81269,134],[-90.39322,38.81276,134],[-90.39326,38.81281,134],[-90.39329,38.81283,134],[-90.39332,38.81285,134],[-90.3934,38.81286,134],[-90.39347,38.81284,134],[-90.3935,38.81282,134],[-90.39353,38.81281,134],[-90.39356,38.81278,134],[-90.3936,38.81276,134],[-90.39362,38.81275,134],[-90.39366,38.81273,134],[-90.39372,38.81269,134],[-90.39378,38.81263,135],[-90.39384,38.81259,135],[-90.39389,38.81256,136],[-90.39393,38.81253,136],[-90.39399,38.81249,137],[-90.39403,38.81246,137],[-90.39407,38.81244,137],[-90.3941,38.81241,137],[-90.39413,38.81239,137],[-90.39415,38.81237,137],[-90.39419,38.81236,137],[-90.39425,38.81231,137],[-90.3943,38.81226,137],[-90.39434,38.81223,137],[-90.39437,38.81221,138],[-90.39439,38.81219,138],[-90.39443,38.81216,138],[-90.39447,38.81212,137],[-90.39452,38.81208,137],[-90.39457,38.81205,137],[-90.39461,38.81201,137],[-90.39465,38.81198,137],[-90.39469,38.81196,137],[-90.39473,38.81191,136],[-90.39477,38.81188,135],[-90.39481,38.81185,135],[-90.39485,38.81182,134],[-90.3949,38.81177,134],[-90.39496,38.81173,133],[-90.395,38.81169,133],[-90.39502,38.81166,132],[-90.39506,38.81164,132],[-90.39509,38.81163,132],[-90.39512,38.81162,132],[-90.39515,38.81159,132],[-90.39515,38.81155,132]]],
        "bbox": [
          -90.38753,
          38.81564,
          -90.39515,
          38.81114
        ]
      },
      "properties": {
        "name": "1.9.2021B"
      }
    }
  ]
}