{
  "type": "FeatureCollection",
  "features": [
    {
      "type": "Feature",
      "geometry": {
        "type": "MultiLineString",
        "coordinates": [[[-90.3952,38.81155,132],[-90.3952,38.81158,132],[-90.39517,38.81161,132],[-90.39515,38.81165,132],[-90.39511,38.81167,133],[-90.39509,38.8117,133],[-90.39507,38.81173,133],[-90.39503,38.81174,133],[-90.395,38.81175,133],[-90.39496,38.81175,133],[-90.39492,38.81177,134],[-90.39488,38.81178,134],[-90.39484,38.8118,134],[-90.39481,38.81183,135],[-90.39479,38.81185,135],[-90.39477,38.81188,135],[-90.39475,38.8119,136],[-90.39471,38.81192,136],[-90.39468,38.81195,137],[-90.39465,38.81198,137],[-90.39462,38.812,137],[-90.39458,38.81203,137],[-90.39455,38.81205,137],[-90.39452,38.81207,137],[-90.39449,38.8121,137],[-90.39446,38.81212,137],[-90.39443,38.81215,138],[-90.3944,38.81218,138],[-90.39438,38.81221,138],[-90.39434,38.81222,138],[-90.39429,38.81224,137],[-90.39426,38.81225,137],[-90.39423,38.81227,137],[-90.3942,38.8123,137],[-90.39417,38.81233,137],[-90.39415,38.81236,137],[-90.39412,38.81238,137],[-90.39409,38.8124,137],[-90.39407,38.81244,137],[-90.39405,38.81247,137],[-90.39401,38.81249,137],[-90.39398,38.81251,136],[-90.39395,38.81253,136],[-90.39392,38.81255,136],[-90.39389,38.81258,136],[-90.39387,38.8126,135],[-90.39384,38.81262,135],[-90.3938,38.81265,135],[-90.39377,38.81267,134],[-90.39374,38.81269,134],[-90.39372,38.81271,134],[-90.39369,38.81273,134],[-90.39365,38.81275,134],[-90.39361,38.81278,134],[-90.39358,38.8128,133],[-90.39355,38.81282,133],[-90.39352,38.81284,133],[-90.39349,38.81287,133],[-90.39344,38.81289,133],[-90.39341,38.8129,133],[-90.39338,38.81292,133],[-90.39334,38.81293,133],[-90.39331,38.81295,133],[-90.39328,38.81297,133],[-90.39324,38.813,133],[-90.39321,38.81302,133],[-90.39318,38.81304,133],[-90.39315,38.81306,132],[-90.39312,38.81308,132],[-90.3931,38.81312,132],[-90.39308,38.81314,132],[-90.39306,38.81318,132],[-90.39304,38.81321,133],[-90.39302,38.81325,133],[-90.39299,38.81328,133],[-90.39296,38.8133,133],[-90.39292,38.81331,133],[-90.39289,38.81333,134],[-90.39287,38.81335,134],[-90.39284,38.81338,135],[-90.39281,38.81339,135],[-90.39277,38.8134,135],[-90.39274,38.81342,136],[-90.39271,38.81344,136],[-90.39269,38.81348,137],[-90.39268,38.81351,137],[-90.39265,38.81354,137],[-90.39263,38.81358,138],[-90.39258,38.8136,138],[-90.39255,38.81363,138],[-90.39254,38.81366,138],[-90.39252,38.81369,138],[-90.39249,38.81371,138],[-90.39249,38.81374,138],[-90.39248,38.81378,138],[-90.39245,38.81381,137],[-90.39244,38.81384,137],[-90.39241,38.81387,136],[-90.39244,38.81384,137],[-90.39246,38.81382,137],[-90.3925,38.81383,138],[-90.39246,38.81383,137],[-90.39243,38.81386,137],[-90.39241,38.81389,136],[-90.3924,38.81392,137],[-90.39239,38.81395,139],[-90.39237,38.81397,139],[-90.39235,38.814,141],[-90.39233,38.81403,142],[-90.39231,38.81405,143],[-90.39227,38.81405,143],[-90.39227,38.81408,145],[-90.39227,38.81411,147],[-90.39229,38.81414,149],[-90.39231,38.81416,150],[-90.39233,38.81418,150],[-90.39236,38.8142,151],[-90.39238,38.81422,151],[-90.39241,38.81424,151],[-90.39245,38.81425,151],[-90.39249,38.81426,152],[-90.39252,38.81429,152],[-90.39256,38.8143,152],[-90.3926,38.81431,151],[-90.39263,38.81432,151],[-90.39267,38.81435,152],[-90.39271,38.81436,151],[-90.39273,38.81439,152],[-90.39275,38.81442,152],[-90.39277,38.81445,153],[-90.3928,38.81448,152],[-90.39284,38.8145,151],[-90.39287,38.81453,150],[-90.3929,38.81455,150],[-90.39293,38.81458,149],[-90.39296,38.8146,148],[-90.39299,38.81462,147],[-90.39301,38.81465,147],[-90.39303,38.81467,146],[-90.39305,38.81471,146],[-90.39305,38.81474,146],[-90.39305,38.81477,146],[-90.39307,38.8148,146],[-90.39308,38.81483,146],[-90.39309,38.81487,146],[-90.39311,38.8149,146],[-90.39313,38.81493,145],[-90.39315,38.81496,145],[-90.39317,38.81498,145],[-90.39317,38.81501,145],[-90.39318,38.81504,144],[-90.3932,38.81507,144],[-90.39323,38.81509,143],[-90.39324,38.81511,142],[-90.39323,38.81515,142],[-90.3932,38.81518,143],[-90.39318,38.81521,143],[-90.39317,38.81524,143],[-90.39314,38.81526,143],[-90.39311,38.81529,144],[-90.39309,38.81532,143],[-90.39306,38.81535,143],[-90.39304,38.81538,143],[-90.39301,38.8154,143],[-90.39298,38.81539,144],[-90.39294,38.8154,145],[-90.39292,38.81543,144],[-90.39289,38.81544,145],[-90.39284,38.81545,146],[-90.39281,38.81546,146],[-90.39277,38.81548,147],[-90.39274,38.8155,148],[-90.39271,38.81552,148],[-90.39268,38.81554,149],[-90.39265,38.81556,150],[-90.39265,38.81558,149],[-90.39262,38.81561,150],[-90.3926,38.81563,150],[-90.39259,38.81567,149],[-90.39259,38.8157,148],[-90.3926,38.81573,148],[-90.39261,38.81576,147],[-90.39262,38.8158,145],[-90.39265,38.81582,144],[-90.39268,38.81586,143],[-90.39269,38.81588,142],[-90.39269,38.81592,142],[-90.39269,38.81595,142],[-90.39267,38.81597,143],[-90.3927,38.81599,142],[-90.39268,38.81601,143],[-90.39267,38.81604,143],[-90.39264,38.81606,144],[-90.39261,38.81609,145],[-90.39257,38.8161,146],[-90.39253,38.81612,147],[-90.39249,38.81613,148],[-90.39247,38.81615,149],[-90.39244,38.81617,149],[-90.39241,38.81619,149],[-90.39237,38.81619,151],[-90.39235,38.81622,150],[-90.39232,38.81624,151],[-90.39229,38.81626,151],[-90.39227,38.81629,150],[-90.39228,38.81632,149],[-90.3923,38.81634,148],[-90.39228,38.81637,148],[-90.39227,38.81641,147],[-90.39226,38.81644,147],[-90.39223,38.81646,148],[-90.3922,38.81648,148],[-90.39217,38.81651,148],[-90.39213,38.81652,149],[-90.39211,38.81654,149],[-90.39209,38.81657,149],[-90.39206,38.8166,149],[-90.39204,38.81663,149],[-90.39202,38.81665,149],[-90.39198,38.81666,150],[-90.39195,38.81666,150],[-90.39193,38.81669,151],[-90.39193,38.81671,150],[-90.39193,38.81674,150],[-90.39191,38.81677,150],[-90.39189,38.8168,150],[-90.39186,38.81682,150],[-90.39185,38.81685,150],[-90.39188,38.81684,150],[-90.39186,38.81687,149],[-90.39183,38.8169,149],[-90.3918,38.81692,148],[-90.39177,38.81693,148],[-90.39173,38.81695,147],[-90.3917,38.81696,147],[-90.39166,38.81697,147],[-90.39161,38.81697,147],[-90.39158,38.81699,147],[-90.39154,38.81699,148],[-90.3915,38.81698,149],[-90.39145,38.817,149],[-90.39142,38.81701,149],[-90.39139,38.81704,148],[-90.39136,38.81707,148],[-90.39133,38.81709,147],[-90.39131,38.81711,147],[-90.39129,38.81715,145],[-90.39126,38.81717,145],[-90.39123,38.81719,145],[-90.3912,38.81721,144],[-90.39114,38.81723,145],[-90.39111,38.81727,144],[-90.39108,38.81729,144],[-90.39103,38.81732,144],[-90.391,38.81735,144],[-90.39099,38.81739,143],[-90.39095,38.8174,143],[-90.39091,38.81742,143],[-90.39087,38.81744,143],[-90.39083,38.81745,143],[-90.39081,38.81747,143],[-90.39077,38.81748,143],[-90.39074,38.81749,143],[-90.39071,38.81751,143],[-90.39066,38.81752,144],[-90.39069,38.81755,143],[-90.3907,38.81758,142],[-90.39068,38.81761,141],[-90.39068,38.81763,141],[-90.39066,38.81766,141],[-90.39062,38.81766,141],[-90.39059,38.81767,141],[-90.39062,38.81766,141],[-90.39059,38.81768,141],[-90.39056,38.81765,142],[-90.39052,38.81767,142],[-90.39049,38.81769,142],[-90.39046,38.8177,142],[-90.39043,38.81772,142],[-90.39039,38.81773,142],[-90.39035,38.81774,143],[-90.39032,38.81777,142],[-90.3903,38.8178,142],[-90.39027,38.81783,142],[-90.39024,38.81786,142],[-90.39022,38.81788,142],[-90.39019,38.8179,142],[-90.39016,38.81792,143],[-90.39013,38.81794,143],[-90.39009,38.81796,143],[-90.39005,38.81797,143],[-90.39001,38.81798,144],[-90.38998,38.81798,144],[-90.38995,38.818,144],[-90.38991,38.81801,145],[-90.38987,38.81802,145],[-90.38983,38.81802,145],[-90.38979,38.81801,146],[-90.38977,38.81802,146],[-90.38974,38.81804,146],[-90.3897,38.81805,147],[-90.38966,38.81804,147],[-90.38962,38.81803,147],[-90.38958,38.81803,147],[-90.38954,38.81803,147],[-90.38951,38.81805,147],[-90.38947,38.81807,146],[-90.38946,38.81804,147],[-90.38943,38.81802,147],[-90.3894,38.81801,148],[-90.38935,38.81799,149],[-90.3893,38.81797,150],[-90.3893,38.81794,151],[-90.38926,38.81794,152],[-90.38922,38.81796,152],[-90.38918,38.81797,152],[-90.38914,38.81798,153],[-90.3891,38.81799,153],[-90.38907,38.81801,153],[-90.38903,38.818,155],[-90.38898,38.818,156],[-90.38895,38.81804,156],[-90.38893,38.81807,155],[-90.38893,38.8181,154],[-90.3889,38.81813,153],[-90.38887,38.81816,153],[-90.38885,38.81818,152],[-90.38882,38.81822,151],[-90.38879,38.81824,151],[-90.38876,38.81826,150],[-90.38874,38.81829,149],[-90.3887,38.8183,150],[-90.38865,38.81831,150],[-90.38863,38.81833,149],[-90.38861,38.81836,148],[-90.38858,38.81837,148],[-90.38856,38.81835,149],[-90.38853,38.81833,150],[-90.38851,38.81836,148],[-90.3885,38.81839,147],[-90.38849,38.81842,146],[-90.38847,38.81846,144],[-90.38846,38.8185,142],[-90.38844,38.81853,141],[-90.38842,38.81855,140],[-90.38841,38.81858,139],[-90.38836,38.81861,138],[-90.38833,38.81862,138],[-90.3883,38.81865,138],[-90.38826,38.81866,138],[-90.38822,38.81866,139],[-90.38819,38.81867,139],[-90.38816,38.81868,140],[-90.38812,38.81868,140],[-90.38809,38.81869,140],[-90.38807,38.81871,140],[-90.38806,38.81875,140],[-90.38803,38.81877,140],[-90.38799,38.81879,140],[-90.38795,38.81881,141],[-90.38791,38.8188,141],[-90.38787,38.81881,142],[-90.38784,38.81882,142],[-90.3878,38.81884,142],[-90.38777,38.81885,142],[-90.38773,38.81887,142],[-90.38769,38.81888,142],[-90.38764,38.81888,142],[-90.38761,38.8189,141],[-90.38759,38.81893,140],[-90.38755,38.81895,140],[-90.38755,38.81899,138],[-90.38753,38.81903,137],[-90.38748,38.81906,136],[-90.38744,38.81908,135],[-90.38739,38.81909,135],[-90.38735,38.81912,134],[-90.38733,38.81915,133],[-90.38728,38.81915,132],[-90.38724,38.81917,132],[-90.38721,38.81918,132],[-90.38717,38.8192,132],[-90.38716,38.81923,132],[-90.38713,38.81924,132],[-90.38708,38.81924,132],[-90.38704,38.81925,132],[-90.387,38.81927,132],[-90.38702,38.8193,132],[-90.38699,38.81932,132],[-90.38696,38.81933,132],[-90.38693,38.81934,132],[-90.38688,38.81934,132],[-90.38685,38.81934,132],[-90.38682,38.81937,132],[-90.38679,38.81939,132],[-90.38677,38.81942,132],[-90.38675,38.81945,131],[-90.3867,38.81944,132],[-90.38667,38.81945,131],[-90.38666,38.81948,131],[-90.38663,38.81948,131],[-90.38659,38.81946,131],[-90.38656,38.81946,131],[-90.38652,38.81945,131],[-90.38648,38.81947,131],[-90.38643,38.81949,131],[-90.3864,38.81951,131],[-90.38638,38.81954,131],[-90.38634,38.81956,131],[-90.38631,38.81958,132],[-90.38626,38.81957,133],[-90.38622,38.81957,133],[-90.38618,38.81956,134],[-90.38614,38.81956,135],[-90.3861,38.81957,135],[-90.38606,38.81958,135],[-90.38603,38.81959,135],[-90.386,38.81961,134],[-90.38596,38.81962,134],[-90.38593,38.81963,134],[-90.38589,38.81963,134],[-90.38585,38.81965,133],[-90.38582,38.81967,133],[-90.38578,38.81967,133],[-90.38575,38.81965,133],[-90.38572,38.81965,133],[-90.38569,38.81967,133],[-90.38572,38.81968,132],[-90.38571,38.81965,133],[-90.38571,38.81961,135],[-90.38573,38.81959,136],[-90.38577,38.81959,136],[-90.38581,38.81959,136],[-90.38585,38.81958,136],[-90.3859,38.81959,135],[-90.38593,38.8196,135],[-90.38597,38.81958,135],[-90.386,38.81956,136],[-90.38604,38.81954,136],[-90.38607,38.81954,136],[-90.3861,38.81955,136],[-90.38614,38.81956,135],[-90.38618,38.81956,134],[-90.38621,38.81956,134],[-90.38626,38.81956,133],[-90.3863,38.81957,132],[-90.38634,38.81955,131],[-90.38637,38.81955,131],[-90.38642,38.81954,131],[-90.38645,38.81952,131],[-90.38648,38.81951,131],[-90.38652,38.81949,131],[-90.38655,38.81947,131],[-90.38659,38.81948,131],[-90.38659,38.81944,131],[-90.3866,38.81941,132],[-90.38664,38.81939,133],[-90.38669,38.81938,133],[-90.38674,38.81939,132],[-90.38678,38.8194,132],[-90.38682,38.81938,132],[-90.38684,38.81936,132],[-90.38688,38.81935,132],[-90.38692,38.81934,132],[-90.38697,38.81932,132],[-90.387,38.8193,132],[-90.38703,38.81928,132],[-90.38707,38.81927,132],[-90.38711,38.81926,132],[-90.38714,38.81924,132],[-90.38716,38.81921,132],[-90.38718,38.81916,132],[-90.38724,38.81915,132],[-90.38728,38.81913,133],[-90.38733,38.81912,134],[-90.38735,38.81909,135],[-90.38737,38.81907,136],[-90.3874,38.81905,136],[-90.38742,38.81902,137],[-90.38746,38.81901,138],[-90.38751,38.81899,138],[-90.38754,38.81898,139],[-90.38756,38.81896,139],[-90.38759,38.81894,140],[-90.38761,38.81892,141],[-90.38764,38.8189,141],[-90.38763,38.81886,142],[-90.38764,38.81883,143],[-90.38765,38.81881,143],[-90.38769,38.8188,143],[-90.38774,38.81879,143],[-90.38778,38.81879,143],[-90.38782,38.81878,143],[-90.38786,38.81876,142],[-90.3879,38.81875,142],[-90.38794,38.81873,142],[-90.38797,38.81872,141],[-90.38801,38.81871,141],[-90.38805,38.81868,141],[-90.3881,38.81868,140],[-90.38813,38.81866,140],[-90.38817,38.81865,140],[-90.38821,38.81864,139],[-90.38825,38.81862,139],[-90.38827,38.8186,139],[-90.38831,38.81859,139],[-90.38834,38.81857,139],[-90.38837,38.81855,140],[-90.38838,38.81852,141],[-90.38841,38.8185,142],[-90.38842,38.81847,144],[-90.38846,38.81845,144],[-90.38849,38.81843,145],[-90.3885,38.8184,147],[-90.38851,38.81837,148],[-90.38851,38.81834,149],[-90.38853,38.8183,151],[-90.38856,38.81828,152],[-90.3886,38.81828,152],[-90.38864,38.81827,152],[-90.38867,38.81824,153],[-90.38872,38.81822,153],[-90.38878,38.81822,152],[-90.38882,38.81821,152],[-90.38879,38.81818,153],[-90.38878,38.81815,155],[-90.38879,38.81812,156],[-90.38881,38.8181,156],[-90.3888,38.81807,158],[-90.38884,38.81806,157],[-90.38887,38.81804,157],[-90.3889,38.81803,157],[-90.38894,38.81803,156],[-90.38897,38.81802,156],[-90.38902,38.81802,154],[-90.38906,38.81802,153],[-90.3891,38.818,153],[-90.38914,38.81801,152],[-90.38917,38.818,151],[-90.38917,38.81797,152],[-90.38921,38.81798,151],[-90.38924,38.81799,151],[-90.38927,38.81796,151],[-90.3893,38.81795,151],[-90.38935,38.81795,150],[-90.38938,38.81798,149],[-90.3894,38.81801,148],[-90.38945,38.81801,148],[-90.38948,38.81802,147],[-90.38952,38.81802,147],[-90.38956,38.818,148],[-90.38957,38.81797,148],[-90.38958,38.81794,149],[-90.38958,38.8179,149],[-90.38963,38.81787,150],[-90.38969,38.81786,150],[-90.38972,38.81786,149],[-90.38976,38.81784,149],[-90.38979,38.81784,149],[-90.38979,38.81781,149],[-90.38979,38.81778,150],[-90.3898,38.81775,150],[-90.38983,38.81773,150],[-90.38986,38.81771,150],[-90.3899,38.81771,150],[-90.38994,38.81771,149],[-90.38999,38.81771,149],[-90.39003,38.81771,148],[-90.39005,38.81768,148],[-90.39009,38.81767,148],[-90.39013,38.81767,147],[-90.39016,38.81764,147],[-90.3902,38.81763,147],[-90.39024,38.81762,146],[-90.39027,38.8176,146],[-90.39031,38.81759,146],[-90.39035,38.81757,146],[-90.39037,38.81754,147],[-90.3904,38.81753,146],[-90.39045,38.81753,146],[-90.39047,38.81751,146],[-90.39048,38.81748,147],[-90.39047,38.81745,148],[-90.3905,38.81743,149],[-90.39052,38.8174,149],[-90.39056,38.8174,149],[-90.39058,38.81738,149],[-90.39058,38.81735,151],[-90.39055,38.81731,152],[-90.39053,38.81729,153],[-90.39053,38.81726,154],[-90.39053,38.81723,155],[-90.39053,38.8172,156],[-90.39054,38.81717,157],[-90.39055,38.81715,158],[-90.39054,38.81712,159],[-90.39054,38.81709,160],[-90.39053,38.81706,161],[-90.39053,38.81703,162],[-90.3905,38.81699,163],[-90.39049,38.81695,165],[-90.39049,38.81691,165],[-90.39048,38.81687,166],[-90.39043,38.81684,166],[-90.39049,38.81685,166],[-90.39054,38.81685,166],[-90.39058,38.81682,166],[-90.39061,38.8168,166],[-90.39066,38.81679,165],[-90.3907,38.81677,165],[-90.39075,38.81676,165],[-90.39078,38.81675,165],[-90.39078,38.81678,165],[-90.39079,38.81675,165],[-90.39081,38.81672,166],[-90.39084,38.81673,165],[-90.39087,38.8167,166],[-90.39088,38.81666,166],[-90.39093,38.81665,167],[-90.39088,38.81664,167],[-90.39094,38.81665,167],[-90.39097,38.81667,166],[-90.39101,38.8167,165],[-90.39104,38.81674,164],[-90.39107,38.81677,163],[-90.39112,38.81678,162],[-90.39116,38.81675,162],[-90.39119,38.81673,162],[-90.39122,38.81672,162],[-90.39126,38.8167,162],[-90.39128,38.81668,163],[-90.39131,38.81667,163],[-90.39133,38.81665,163],[-90.39135,38.81662,164],[-90.39137,38.81659,164],[-90.39139,38.81657,165],[-90.39142,38.81655,165],[-90.39145,38.81653,165],[-90.39148,38.81651,164],[-90.39146,38.81654,164],[-90.39147,38.81656,163],[-90.39148,38.81659,162],[-90.39149,38.81662,161],[-90.3915,38.81659,161],[-90.39151,38.81656,162],[-90.39153,38.81653,163],[-90.39155,38.8165,163],[-90.39157,38.81648,163],[-90.39159,38.8165,162],[-90.39156,38.81648,163],[-90.39157,38.81644,164],[-90.39159,38.8164,165],[-90.39161,38.81637,166],[-90.39162,38.81635,166],[-90.39164,38.81632,167],[-90.39165,38.8163,167],[-90.39168,38.81628,167],[-90.3917,38.81625,168],[-90.3917,38.81622,169],[-90.3917,38.81619,170],[-90.39171,38.81616,171],[-90.39172,38.81613,171],[-90.39173,38.8161,172],[-90.39174,38.81608,172],[-90.39175,38.81604,173],[-90.39175,38.81602,173],[-90.39177,38.81599,173],[-90.39178,38.81596,174],[-90.39178,38.81592,174],[-90.39178,38.81589,175],[-90.39179,38.81585,176],[-90.39178,38.81581,177],[-90.39176,38.81577,178],[-90.39173,38.81573,179],[-90.39172,38.81569,180],[-90.39174,38.81565,180],[-90.39177,38.81563,180],[-90.39182,38.81563,178],[-90.39185,38.81563,178],[-90.3919,38.81564,177],[-90.39194,38.81564,176],[-90.3919,38.81564,177],[-90.39186,38.81563,178],[-90.39182,38.81564,178],[-90.39178,38.81565,179],[-90.39174,38.81565,180],[-90.3917,38.81565,181],[-90.39166,38.81564,182],[-90.39162,38.81562,182],[-90.39159,38.8156,183],[-90.39156,38.81557,183],[-90.39153,38.81555,183],[-90.3915,38.81552,184],[-90.39147,38.81549,184],[-90.39144,38.81547,184],[-90.39141,38.81546,185],[-90.39136,38.81545,185],[-90.39133,38.81544,185],[-90.39129,38.81543,185],[-90.39124,38.81543,185],[-90.39121,38.81544,186],[-90.39116,38.81544,186],[-90.39111,38.81545,186],[-90.39108,38.81548,186],[-90.39104,38.81551,185],[-90.39098,38.81552,185],[-90.39093,38.8155,185],[-90.39089,38.81549,185],[-90.39085,38.81549,185],[-90.3908,38.81549,185],[-90.39077,38.81548,184],[-90.39073,38.81547,184],[-90.39068,38.81548,183],[-90.39065,38.81547,183],[-90.39061,38.81546,183],[-90.3906,38.81543,183],[-90.39058,38.8154,183],[-90.39054,38.81539,183],[-90.39048,38.81538,182],[-90.39043,38.81537,182],[-90.39038,38.81536,181],[-90.39033,38.81536,181],[-90.3903,38.81537,180],[-90.39026,38.81535,180],[-90.39022,38.81534,181],[-90.39017,38.81533,181],[-90.39014,38.81532,181],[-90.39011,38.8153,181],[-90.39008,38.81527,182],[-90.39004,38.81525,182],[-90.39001,38.81524,182],[-90.38999,38.81522,183],[-90.38995,38.8152,184],[-90.38992,38.81519,184],[-90.38989,38.81517,184],[-90.38986,38.81514,185],[-90.38984,38.81512,186],[-90.38981,38.8151,186],[-90.38978,38.81508,187],[-90.38975,38.81505,187],[-90.38971,38.81503,188],[-90.38968,38.81501,188],[-90.38964,38.81499,188],[-90.38962,38.81496,189],[-90.3896,38.81493,189],[-90.38957,38.8149,189],[-90.38957,38.81487,189],[-90.38957,38.81484,190],[-90.38957,38.81481,190],[-90.38955,38.81478,190]],[[-90.38887,38.81422,193],[-90.38884,38.8142,193],[-90.3888,38.81419,194],[-90.38877,38.81417,194],[-90.38874,38.81415,195],[-90.3887,38.81414,195],[-90.38866,38.81412,196],[-90.38863,38.81409,196],[-90.3886,38.81408,196],[-90.38856,38.81405,196],[-90.38851,38.81404,196],[-90.38847,38.81402,197],[-90.38844,38.814,197],[-90.38843,38.81397,197],[-90.38842,38.81394,197],[-90.38839,38.81392,197],[-90.38835,38.81392,197],[-90.38831,38.81391,198],[-90.38828,38.8139,198],[-90.38822,38.8139,198],[-90.38816,38.81391,198],[-90.3881,38.81392,198],[-90.38805,38.81392,199],[-90.38801,38.81393,199],[-90.38797,38.81393,199],[-90.38793,38.81394,199],[-90.38788,38.81394,199],[-90.38782,38.81394,199],[-90.38776,38.81394,200],[-90.38772,38.81394,200],[-90.38766,38.81394,200],[-90.38762,38.81394,200],[-90.38759,38.81393,200],[-90.38755,38.81394,200],[-90.38753,38.81396,200],[-90.38757,38.81395,200],[-90.38762,38.81394,200],[-90.38765,38.81394,200],[-90.38769,38.81392,200],[-90.38768,38.81388,199],[-90.38766,38.81386,199],[-90.38763,38.81384,199],[-90.3876,38.81382,199],[-90.38757,38.8138,198],[-90.38754,38.81377,198],[-90.38753,38.81374,197],[-90.38753,38.8137,197],[-90.38753,38.81366,196],[-90.38753,38.81363,196],[-90.38753,38.81359,196],[-90.38754,38.81356,195],[-90.38754,38.81352,195],[-90.38753,38.81349,195],[-90.38752,38.81345,194],[-90.38753,38.81342,194],[-90.38755,38.8134,194],[-90.38755,38.81336,194],[-90.38754,38.81334,194],[-90.38754,38.8133,194],[-90.38755,38.81324,193],[-90.38757,38.81319,193],[-90.3876,38.81318,193],[-90.38764,38.81319,193],[-90.38769,38.81321,194],[-90.38775,38.81322,194],[-90.3878,38.81322,194],[-90.38784,38.81323,194],[-90.38787,38.81325,194],[-90.38791,38.81323,194],[-90.38793,38.8132,194],[-90.38795,38.81316,193],[-90.38797,38.81313,192],[-90.388,38.81312,192],[-90.38802,38.81309,191],[-90.38804,38.81306,191],[-90.38805,38.81302,190],[-90.38806,38.813,190],[-90.38805,38.81296,190],[-90.38805,38.81293,189],[-90.38805,38.81289,189],[-90.38807,38.81285,188],[-90.38808,38.81282,187],[-90.38808,38.81278,187],[-90.3881,38.81275,186],[-90.38814,38.81275,185],[-90.38819,38.81273,183],[-90.38823,38.81271,181],[-90.38826,38.81269,180],[-90.3883,38.81268,179],[-90.38834,38.81268,177],[-90.38838,38.81266,176],[-90.38841,38.81266,175],[-90.38845,38.81263,174],[-90.38848,38.8126,172],[-90.38852,38.81259,171],[-90.38856,38.81257,170],[-90.38858,38.81254,169],[-90.38861,38.81252,169],[-90.38863,38.81249,168],[-90.38865,38.81247,167],[-90.38868,38.81244,166],[-90.38869,38.81241,166],[-90.38868,38.81238,165],[-90.38867,38.81235,165],[-90.38867,38.81231,164],[-90.38868,38.81228,164],[-90.3887,38.81226,163],[-90.38873,38.81224,163],[-90.38875,38.81221,162],[-90.38877,38.81218,162],[-90.3888,38.81215,161],[-90.38882,38.81212,160],[-90.38882,38.81209,160],[-90.38882,38.81206,160],[-90.38881,38.81203,159],[-90.38878,38.81202,160],[-90.38875,38.812,160],[-90.38872,38.81197,160],[-90.38871,38.81194,160],[-90.38869,38.81192,160],[-90.38866,38.81188,161],[-90.38866,38.81186,162],[-90.38865,38.81182,162],[-90.38865,38.81179,162],[-90.38865,38.81175,163],[-90.38865,38.81172,163],[-90.38869,38.81169,163],[-90.38871,38.81166,163],[-90.38874,38.81163,162],[-90.38878,38.81161,161],[-90.38881,38.81159,161],[-90.38881,38.81156,160],[-90.38883,38.81154,160],[-90.38888,38.81153,159],[-90.38892,38.81152,158],[-90.38896,38.81151,157],[-90.389,38.81149,156],[-90.38904,38.81148,155],[-90.38908,38.81146,154],[-90.38911,38.81144,153],[-90.38913,38.81142,152],[-90.38916,38.81139,152],[-90.38918,38.81136,152],[-90.3892,38.81134,152],[-90.38922,38.81132,152],[-90.38926,38.81131,152],[-90.3893,38.81132,152],[-90.38935,38.8113,152],[-90.38937,38.81127,152],[-90.38939,38.81125,152],[-90.38942,38.81122,152],[-90.38945,38.8112,151],[-90.38949,38.81118,151],[-90.38952,38.81116,151],[-90.38955,38.81115,151],[-90.38958,38.81112,151],[-90.38962,38.81112,151],[-90.38966,38.81114,151],[-90.3897,38.81116,150],[-90.38973,38.81116,150],[-90.38977,38.81116,150],[-90.38981,38.81115,149],[-90.38984,38.81112,149],[-90.38988,38.8111,148],[-90.3899,38.81108,148],[-90.38993,38.81106,147],[-90.38997,38.81107,146],[-90.39,38.81108,146],[-90.39004,38.8111,146],[-90.39006,38.81112,146],[-90.3901,38.81112,145],[-90.39014,38.81111,145],[-90.39018,38.81111,144],[-90.39022,38.81112,143],[-90.39025,38.81111,143],[-90.3903,38.8111,142],[-90.39033,38.81111,142],[-90.39037,38.81111,142],[-90.3904,38.81113,142],[-90.39043,38.81114,142],[-90.39046,38.81116,142],[-90.3905,38.81117,142],[-90.39054,38.81118,142],[-90.39057,38.81121,142],[-90.39061,38.8112,142],[-90.39063,38.81117,141],[-90.39067,38.81115,141],[-90.39072,38.81114,141],[-90.39076,38.81114,141],[-90.39079,38.81112,141],[-90.3908,38.81109,140],[-90.39082,38.81106,140],[-90.39083,38.81103,140],[-90.39085,38.811,139],[-90.39087,38.81097,139],[-90.39089,38.81094,138],[-90.39089,38.81091,138],[-90.39089,38.81088,138],[-90.39089,38.81085,137],[-90.39089,38.81082,137],[-90.39089,38.81079,137],[-90.39088,38.81075,138],[-90.39088,38.81072,138],[-90.39087,38.8107,138],[-90.39086,38.81066,139],[-90.39086,38.81063,139],[-90.39086,38.81066,139],[-90.39087,38.8107,138],[-90.39089,38.81074,138],[-90.39089,38.81077,138],[-90.39089,38.81079,137],[-90.3909,38.81082,137],[-90.39092,38.81086,137],[-90.39092,38.81089,137],[-90.39092,38.81092,138],[-90.39092,38.81096,138],[-90.39091,38.81099,139],[-90.39089,38.81102,139],[-90.39086,38.81105,140],[-90.39084,38.81107,140],[-90.39082,38.8111,140],[-90.39083,38.81114,141],[-90.39083,38.81117,141],[-90.39085,38.8112,141],[-90.39088,38.81122,141],[-90.39092,38.81124,141],[-90.39096,38.81126,140],[-90.39098,38.81129,141],[-90.39101,38.81131,141],[-90.39105,38.81134,140],[-90.39109,38.81136,140],[-90.39111,38.81139,140],[-90.39112,38.81141,141],[-90.39113,38.81144,141],[-90.39113,38.81148,142],[-90.39111,38.81151,142],[-90.39112,38.81155,143],[-90.3911,38.81158,143],[-90.39108,38.8116,144],[-90.39103,38.81162,144],[-90.391,38.81163,145],[-90.39098,38.81165,145],[-90.39096,38.81168,146],[-90.39094,38.81171,146],[-90.39093,38.81174,147],[-90.39096,38.81178,147],[-90.39096,38.81181,148],[-90.39095,38.81185,148],[-90.39095,38.81189,149],[-90.39096,38.81193,150],[-90.39096,38.81196,150],[-90.39096,38.81199,150],[-90.39094,38.81202,149],[-90.39091,38.81204,149],[-90.39091,38.81208,149],[-90.39089,38.8121,149],[-90.39089,38.81214,149],[-90.39085,38.81214,149],[-90.39085,38.81217,149],[-90.39086,38.8122,149],[-90.39087,38.81223,149],[-90.39089,38.81227,148],[-90.3909,38.81229,148],[-90.39093,38.81231,147],[-90.39095,38.81234,146],[-90.39095,38.81237,145],[-90.39094,38.8124,145],[-90.39093,38.81243,144],[-90.39092,38.81246,143],[-90.39093,38.81249,143],[-90.39094,38.81253,143],[-90.39097,38.81257,144],[-90.39098,38.81261,144],[-90.391,38.81264,145],[-90.39101,38.81267,146],[-90.39102,38.8127,146],[-90.39104,38.81273,146],[-90.39106,38.81276,147],[-90.3911,38.81278,147],[-90.39111,38.8128,147],[-90.39112,38.81284,148],[-90.39112,38.81286,148],[-90.39113,38.8129,149],[-90.39114,38.81293,150],[-90.39115,38.81296,151],[-90.39116,38.81299,151],[-90.39116,38.81303,152],[-90.39118,38.81305,152],[-90.39119,38.81308,152],[-90.39121,38.81312,152],[-90.39123,38.81314,152],[-90.39125,38.81316,152],[-90.39129,38.81317,151],[-90.39133,38.81317,151],[-90.39135,38.81321,151],[-90.39135,38.81324,151],[-90.39138,38.81326,150],[-90.39142,38.81328,150],[-90.39145,38.81328,149],[-90.39149,38.81329,149],[-90.39152,38.81331,148],[-90.39154,38.81333,148],[-90.39157,38.81335,148],[-90.39159,38.81338,147],[-90.39159,38.81341,147],[-90.39158,38.81344,147],[-90.39161,38.81346,146],[-90.39162,38.81349,145],[-90.39162,38.81353,145],[-90.39162,38.81356,144],[-90.39163,38.81359,144],[-90.39166,38.81361,143],[-90.39168,38.81363,143],[-90.3917,38.81366,143],[-90.39171,38.81369,143],[-90.39173,38.81372,143],[-90.39177,38.81373,143],[-90.39181,38.81373,142],[-90.39186,38.81374,141],[-90.39189,38.81375,140],[-90.3919,38.81378,140],[-90.39191,38.8138,139],[-90.39194,38.81384,138],[-90.39196,38.81387,137],[-90.39198,38.81389,137],[-90.39201,38.81391,137],[-90.39204,38.81394,139],[-90.39207,38.81394,138],[-90.39212,38.81395,138],[-90.39215,38.81397,139],[-90.39216,38.814,140],[-90.39218,38.81403,142],[-90.3922,38.81405,143],[-90.39224,38.81402,141],[-90.39227,38.814,140],[-90.39229,38.81398,139],[-90.39232,38.81395,138],[-90.39236,38.81392,137],[-90.39239,38.8139,136],[-90.39242,38.81388,136],[-90.39245,38.81385,137],[-90.39247,38.81382,137],[-90.39248,38.81379,138],[-90.39248,38.81377,138],[-90.39248,38.81373,138],[-90.3925,38.8137,138],[-90.39251,38.81367,138],[-90.39254,38.81364,138],[-90.39257,38.81361,138],[-90.39259,38.81357,138],[-90.39262,38.81354,137],[-90.39264,38.81351,137],[-90.39267,38.81349,137],[-90.39269,38.81347,136],[-90.39271,38.81345,136],[-90.39272,38.81341,136],[-90.39273,38.81338,135],[-90.39273,38.81335,135],[-90.39274,38.81331,135],[-90.39275,38.81327,134],[-90.39279,38.81326,134],[-90.39282,38.81324,134],[-90.39286,38.81323,134],[-90.39289,38.81321,133],[-90.39292,38.81319,133],[-90.39294,38.81316,133],[-90.39298,38.81314,133],[-90.39302,38.81311,133],[-90.39304,38.81309,133],[-90.39306,38.81306,132],[-90.39309,38.81304,133],[-90.39312,38.81301,133],[-90.39315,38.81299,133],[-90.39318,38.81298,133],[-90.39321,38.81296,133],[-90.39325,38.81294,133],[-90.39328,38.81292,133],[-90.39332,38.8129,134],[-90.39335,38.81289,134],[-90.39339,38.81288,134],[-90.39343,38.81287,133],[-90.39347,38.81288,133],[-90.39349,38.81291,133],[-90.39353,38.8129,133],[-90.39353,38.81286,133],[-90.39353,38.81283,133],[-90.39354,38.81279,134],[-90.39354,38.81276,134],[-90.39352,38.81273,134],[-90.39356,38.81275,134],[-90.3936,38.81275,134],[-90.39364,38.81274,134],[-90.39367,38.81273,134],[-90.3937,38.8127,134],[-90.39373,38.81268,134],[-90.39377,38.81266,135],[-90.3938,38.81263,135],[-90.39384,38.81261,135],[-90.39387,38.8126,135],[-90.3939,38.81257,136],[-90.39394,38.81256,136],[-90.39397,38.81254,136],[-90.39401,38.81252,136],[-90.39404,38.81249,137],[-90.39406,38.81247,137],[-90.39409,38.81244,137],[-90.39412,38.81242,137],[-90.39414,38.81239,137],[-90.39417,38.81236,137],[-90.39419,38.81234,137],[-90.39422,38.81231,137],[-90.39424,38.81227,137],[-90.39427,38.81225,137],[-90.39431,38.81223,137],[-90.39434,38.81221,138],[-90.39437,38.81219,138],[-90.39441,38.81217,138],[-90.39445,38.81214,137],[-90.39447,38.81212,137],[-90.39449,38.8121,137],[-90.39452,38.81207,137],[-90.39454,38.81204,137],[-90.39456,38.81202,137],[-90.39458,38.81199,137],[-90.39462,38.81196,137],[-90.39465,38.81193,137],[-90.39468,38.81191,136],[-90.3947,38.81188,136],[-90.39472,38.81186,136],[-90.39475,38.81183,135],[-90.39478,38.81181,135],[-90.39481,38.81179,134],[-90.39485,38.81177,134],[-90.39487,38.81175,134],[-90.39491,38.81172,133],[-90.39496,38.81169,133],[-90.39501,38.81167,133],[-90.39504,38.81164,132],[-90.39505,38.81161,132],[-90.39506,38.81157,132],[-90.3951,38.81155,132],[-90.39516,38.81155,132],[-90.39513,38.81153,132],[-90.39515,38.81156,132],[-90.39519,38.81155,132]]],
        "bbox": [
          -90.38569,
          38.81968,
          -90.3952,
          38.81063
        ]
      },
      "properties": {
        "name": "4.30.2020"
      }
    }
  ]
}