{
  "type": "FeatureCollection",
  "features": [
    {
      "type": "Feature",
      "geometry": {
        "type": "MultiLineString",
        "coordinates": [[[-90.39352,38.81276,134],[-90.39347,38.81276,134],[-90.39343,38.81277,134],[-90.39339,38.81278,134],[-90.39336,38.8128,134],[-90.39333,38.81281,134],[-90.39329,38.81281,134],[-90.39324,38.8128,134],[-90.39321,38.81278,134],[-90.39319,38.81274,134],[-90.39317,38.81272,134],[-90.39314,38.81271,134],[-90.39311,38.81268,134],[-90.39309,38.81266,134],[-90.39305,38.81264,134],[-90.39302,38.81262,134],[-90.39298,38.8126,134],[-90.39294,38.81258,134],[-90.39291,38.81255,134],[-90.39287,38.81253,134],[-90.39284,38.81252,134],[-90.39281,38.8125,134],[-90.39277,38.81249,134],[-90.39274,38.81246,134],[-90.39272,38.81243,134],[-90.39269,38.81241,134],[-90.39265,38.8124,134],[-90.39261,38.81238,134],[-90.39257,38.81236,134],[-90.39254,38.81233,135],[-90.39252,38.81231,135],[-90.39249,38.81229,135],[-90.39246,38.81228,135],[-90.39242,38.81226,135],[-90.39237,38.81225,135],[-90.39233,38.81224,135],[-90.3923,38.81222,135],[-90.39227,38.81219,135],[-90.39224,38.81216,135],[-90.39222,38.81213,136],[-90.39219,38.81212,136],[-90.39215,38.81212,136],[-90.39211,38.81212,136],[-90.39208,38.81211,136],[-90.39203,38.81212,137],[-90.39199,38.81213,137],[-90.39195,38.81215,137],[-90.39191,38.81216,137],[-90.39188,38.81218,137],[-90.39186,38.81221,137],[-90.39183,38.81224,137],[-90.3918,38.81227,137],[-90.39178,38.8123,136],[-90.39176,38.81233,136],[-90.39172,38.81235,136],[-90.39171,38.81237,136],[-90.39169,38.81241,135],[-90.39166,38.81243,135],[-90.39164,38.81246,135],[-90.39163,38.81248,135],[-90.39161,38.81251,135],[-90.39159,38.81254,135],[-90.39156,38.81257,136],[-90.39152,38.81259,137],[-90.3915,38.81262,138],[-90.39149,38.81265,138],[-90.39149,38.8127,139],[-90.3915,38.81273,140],[-90.39152,38.81275,140],[-90.39155,38.81278,140],[-90.39158,38.8128,140],[-90.39162,38.81282,140],[-90.39164,38.81284,140],[-90.39166,38.81287,140],[-90.39169,38.81289,140],[-90.39172,38.8129,139],[-90.39177,38.81292,139],[-90.39182,38.81294,139],[-90.39186,38.81296,138],[-90.39189,38.81298,138],[-90.39193,38.813,138],[-90.39195,38.81303,138],[-90.39198,38.81306,138],[-90.392,38.81308,138],[-90.39204,38.8131,138],[-90.39208,38.81311,138],[-90.39211,38.81315,138],[-90.39215,38.81316,138],[-90.39219,38.81318,138],[-90.39222,38.8132,138],[-90.39226,38.81322,137],[-90.39229,38.81324,137],[-90.39232,38.81327,137],[-90.39235,38.81329,137],[-90.39238,38.8133,137],[-90.39242,38.81332,137],[-90.39246,38.81334,137],[-90.39248,38.81337,137],[-90.3925,38.81339,137],[-90.39254,38.81341,137],[-90.39258,38.81343,137],[-90.39262,38.81343,137],[-90.39266,38.81345,136],[-90.39264,38.81348,137],[-90.39262,38.81351,137],[-90.39259,38.81354,138],[-90.39257,38.81357,138],[-90.39255,38.8136,138],[-90.39254,38.81364,138],[-90.39253,38.81368,138],[-90.39251,38.81371,138],[-90.39249,38.81375,138],[-90.39247,38.81379,138],[-90.39245,38.81382,137],[-90.39244,38.81384,137],[-90.39243,38.81387,136],[-90.3924,38.8139,136],[-90.39238,38.81393,138],[-90.39236,38.81395,138],[-90.39234,38.81398,140],[-90.39231,38.814,140],[-90.39229,38.81402,141],[-90.39227,38.81404,143],[-90.39223,38.81404,142],[-90.3922,38.81402,141],[-90.39217,38.814,140],[-90.39213,38.81399,140],[-90.39209,38.81398,140],[-90.39206,38.81396,139],[-90.39203,38.81394,139],[-90.39201,38.81392,138],[-90.39198,38.8139,137],[-90.39195,38.81388,137],[-90.39192,38.81385,139],[-90.39188,38.81383,140],[-90.39186,38.81381,141],[-90.39182,38.81379,142],[-90.39179,38.81377,142],[-90.39177,38.81374,143],[-90.39175,38.81371,143],[-90.39172,38.81368,143],[-90.3917,38.81365,143],[-90.39167,38.81362,143],[-90.39166,38.81359,143],[-90.39165,38.81356,144],[-90.39164,38.81354,144],[-90.39163,38.8135,145],[-90.39162,38.81347,146],[-90.39162,38.81344,146],[-90.3916,38.8134,147],[-90.39158,38.81338,147],[-90.39154,38.81337,148],[-90.3915,38.81335,149],[-90.39147,38.81334,149],[-90.39143,38.81332,150],[-90.3914,38.81331,150],[-90.39138,38.81327,150],[-90.39137,38.81324,150],[-90.39136,38.81321,151],[-90.39134,38.81319,151],[-90.3913,38.81316,151],[-90.39127,38.81315,151],[-90.39125,38.81312,152],[-90.39124,38.81309,152],[-90.39122,38.81306,152],[-90.39121,38.81303,151],[-90.39121,38.813,151],[-90.39118,38.81297,150],[-90.39116,38.81294,150],[-90.39114,38.81291,149],[-90.39113,38.81288,149],[-90.39111,38.81286,149],[-90.39108,38.81283,148],[-90.39105,38.81281,148],[-90.39104,38.81278,148],[-90.39103,38.81275,147],[-90.39103,38.81271,146],[-90.39103,38.81268,145],[-90.39102,38.81265,145],[-90.39102,38.81261,144],[-90.39101,38.81259,144],[-90.39101,38.81255,143],[-90.391,38.81251,142],[-90.391,38.81248,142],[-90.39099,38.81245,143],[-90.39098,38.81241,144],[-90.39097,38.81238,145],[-90.39094,38.81236,146],[-90.39093,38.81233,147],[-90.39092,38.8123,147],[-90.39091,38.81227,148],[-90.3909,38.81224,149],[-90.39089,38.81222,149],[-90.39089,38.81219,149],[-90.3909,38.81215,149],[-90.3909,38.81211,149],[-90.39092,38.81207,149],[-90.39093,38.81205,149],[-90.39094,38.81201,150],[-90.39095,38.81198,150],[-90.39095,38.81195,150],[-90.39095,38.81191,149],[-90.39094,38.81188,149],[-90.39094,38.81185,148],[-90.39095,38.81182,148],[-90.39095,38.81179,147],[-90.39096,38.81175,147],[-90.39097,38.81172,146],[-90.39099,38.81169,146],[-90.39102,38.81167,145],[-90.39105,38.81165,145],[-90.39108,38.81162,144],[-90.3911,38.81159,143],[-90.39111,38.81156,143],[-90.39112,38.81153,142],[-90.3911,38.81149,142],[-90.39108,38.81147,142],[-90.39105,38.81145,142],[-90.39101,38.81142,142],[-90.39099,38.8114,142],[-90.39096,38.81137,141],[-90.39093,38.81134,141],[-90.39091,38.8113,141],[-90.39088,38.81127,141],[-90.39085,38.81124,141],[-90.39083,38.81121,141],[-90.39081,38.81119,141],[-90.39077,38.81118,141],[-90.39073,38.8112,141],[-90.3907,38.81121,142],[-90.39066,38.81123,142],[-90.39063,38.81125,142],[-90.39059,38.81125,142],[-90.39055,38.81124,142],[-90.39052,38.81123,142],[-90.39048,38.81122,142],[-90.39044,38.8112,142],[-90.39041,38.81119,142],[-90.39036,38.81117,142],[-90.39032,38.81117,142],[-90.39028,38.81116,142],[-90.39024,38.81116,143],[-90.3902,38.81115,144],[-90.39015,38.81115,144],[-90.39011,38.81115,145],[-90.39008,38.81114,145],[-90.39004,38.81114,146],[-90.38999,38.81113,146],[-90.38995,38.81112,147],[-90.38991,38.81113,148],[-90.38988,38.81115,148],[-90.38983,38.81117,149],[-90.38979,38.81117,149],[-90.38975,38.81116,150],[-90.38971,38.81116,150],[-90.38967,38.81115,151],[-90.38963,38.81114,151],[-90.38958,38.81115,151],[-90.38955,38.81117,151],[-90.38953,38.81119,151],[-90.38951,38.81122,151],[-90.38949,38.81125,151],[-90.38946,38.81129,151],[-90.38943,38.81132,152],[-90.38941,38.81134,152],[-90.38938,38.81137,152],[-90.38933,38.81137,152],[-90.38929,38.81137,152],[-90.38925,38.81137,152],[-90.38922,38.8114,152],[-90.38919,38.81142,152],[-90.38916,38.81143,152],[-90.38912,38.81145,153],[-90.38909,38.81146,153],[-90.38906,38.81148,154],[-90.38902,38.8115,155],[-90.38899,38.8115,156],[-90.38896,38.81152,157],[-90.38892,38.81154,158],[-90.38888,38.81154,159],[-90.38884,38.81155,160],[-90.38881,38.81155,160],[-90.38877,38.81158,161],[-90.38876,38.8116,161],[-90.38873,38.81163,162],[-90.38871,38.81165,163],[-90.38867,38.81166,163],[-90.38864,38.81168,164],[-90.38862,38.81171,164],[-90.3886,38.81174,164],[-90.38858,38.81177,164],[-90.38856,38.8118,164],[-90.38854,38.81183,164],[-90.38854,38.81186,163],[-90.38855,38.81189,163],[-90.38856,38.81192,163],[-90.38858,38.81195,162],[-90.38861,38.81197,162],[-90.38862,38.812,162],[-90.38863,38.81203,162],[-90.38866,38.81206,162],[-90.38868,38.81208,162],[-90.38872,38.81211,161],[-90.38874,38.81213,161],[-90.38874,38.81216,162],[-90.38875,38.81219,162],[-90.38875,38.81222,163],[-90.38872,38.81224,163],[-90.38869,38.81226,164],[-90.38866,38.81228,164],[-90.38864,38.8123,165],[-90.38861,38.81233,165],[-90.38859,38.81235,166],[-90.38856,38.81238,167],[-90.38857,38.81241,168],[-90.38857,38.81244,168],[-90.38857,38.81247,169],[-90.38857,38.8125,169],[-90.38855,38.81253,170],[-90.38854,38.81257,170],[-90.38854,38.8126,171],[-90.38855,38.81263,171],[-90.38852,38.81264,172],[-90.38848,38.81265,173],[-90.38845,38.81267,174],[-90.38842,38.81268,175],[-90.38838,38.81269,176],[-90.38834,38.8127,178],[-90.3883,38.8127,179],[-90.38827,38.8127,180],[-90.38822,38.81271,181],[-90.38819,38.81273,183],[-90.38815,38.81274,184],[-90.38811,38.81275,185],[-90.38808,38.81277,187],[-90.38805,38.8128,188],[-90.38803,38.81283,188],[-90.38801,38.81285,189],[-90.38805,38.81286,188],[-90.38804,38.81289,189],[-90.38801,38.81291,189],[-90.38801,38.81294,190],[-90.38802,38.81297,190],[-90.38802,38.813,190],[-90.38801,38.81304,191],[-90.388,38.81306,191],[-90.38799,38.8131,192],[-90.38798,38.81313,192],[-90.38795,38.81315,193],[-90.38793,38.81318,193],[-90.38792,38.8132,194],[-90.38791,38.81323,194],[-90.38787,38.81324,194],[-90.38784,38.81326,195],[-90.3878,38.81326,195],[-90.38776,38.81326,195],[-90.38773,38.81326,194],[-90.38769,38.81326,194],[-90.38764,38.81326,194],[-90.38761,38.81329,194],[-90.3876,38.81333,194],[-90.38759,38.81336,194],[-90.38759,38.81339,195],[-90.38759,38.81343,195],[-90.38758,38.81345,195],[-90.38757,38.81348,195],[-90.38755,38.81351,195],[-90.38753,38.81354,195],[-90.38752,38.81357,195],[-90.38752,38.8136,196],[-90.38751,38.81363,196],[-90.3875,38.81367,196],[-90.38749,38.8137,197],[-90.38749,38.81373,197],[-90.38749,38.81376,198],[-90.38748,38.81379,198],[-90.38748,38.81382,198],[-90.3875,38.81385,199],[-90.38753,38.81388,199],[-90.38756,38.81391,200],[-90.38761,38.81394,200],[-90.38765,38.81396,200],[-90.38768,38.81398,200],[-90.38772,38.81399,200],[-90.38776,38.81398,200],[-90.38779,38.81397,199],[-90.38783,38.81397,199],[-90.38787,38.81396,199],[-90.38791,38.81395,199],[-90.38795,38.81395,199],[-90.388,38.81395,199],[-90.38804,38.81395,199],[-90.38808,38.81394,199],[-90.38812,38.81394,198],[-90.38816,38.81394,198],[-90.3882,38.81395,198],[-90.38825,38.81396,198],[-90.38829,38.81398,198],[-90.38832,38.81399,198],[-90.38835,38.81401,198],[-90.38838,38.81404,198],[-90.38842,38.81406,197],[-90.38846,38.81407,197],[-90.38849,38.81408,197],[-90.38852,38.8141,197],[-90.38855,38.81411,197],[-90.38859,38.81412,196],[-90.38863,38.81413,196],[-90.38867,38.81414,195],[-90.3887,38.81415,195],[-90.38874,38.81416,195],[-90.38878,38.81416,194],[-90.38882,38.81418,194],[-90.38885,38.81419,193],[-90.38889,38.8142,192],[-90.38893,38.81421,192],[-90.38896,38.81423,192],[-90.389,38.81424,192],[-90.38903,38.81424,192],[-90.38908,38.81424,192],[-90.38912,38.81424,192],[-90.38915,38.81426,192],[-90.38918,38.81427,192],[-90.38922,38.81428,191],[-90.38926,38.8143,191],[-90.3893,38.81432,190],[-90.38933,38.81434,190],[-90.38936,38.81435,190],[-90.3894,38.81437,189],[-90.38943,38.81438,189],[-90.38946,38.8144,189],[-90.38948,38.81443,189],[-90.38949,38.81446,189],[-90.3895,38.81448,189],[-90.3895,38.81451,190],[-90.38951,38.81454,190],[-90.38951,38.81457,190],[-90.3895,38.81461,190],[-90.38949,38.81463,190],[-90.38947,38.81466,190],[-90.38946,38.81469,190],[-90.38946,38.81472,191],[-90.38948,38.81474,190],[-90.38948,38.81478,190],[-90.38948,38.81482,190],[-90.38949,38.81485,189],[-90.38951,38.8149,189],[-90.38952,38.81493,189],[-90.38954,38.81496,188],[-90.38959,38.81498,188],[-90.38962,38.815,188],[-90.38964,38.81503,188],[-90.38966,38.81506,187],[-90.38968,38.81509,187],[-90.3897,38.81512,186],[-90.38973,38.81514,185],[-90.38976,38.81516,185],[-90.38979,38.81517,185],[-90.38981,38.8152,184],[-90.38985,38.81522,183],[-90.38988,38.81524,183],[-90.38991,38.81526,182],[-90.38994,38.81527,182],[-90.38997,38.8153,181],[-90.39,38.81532,181],[-90.39004,38.81534,180],[-90.39008,38.81535,180],[-90.39011,38.81537,180],[-90.39014,38.81539,180],[-90.39017,38.81541,179],[-90.39021,38.81542,179],[-90.39026,38.81541,180],[-90.3903,38.81542,180],[-90.39034,38.81543,180],[-90.39037,38.81545,180],[-90.39041,38.81547,180],[-90.39044,38.81549,181],[-90.39046,38.81551,181],[-90.39049,38.81553,181],[-90.39053,38.81553,181],[-90.39057,38.81552,182],[-90.3906,38.81552,182],[-90.39065,38.81552,183],[-90.39069,38.81552,183],[-90.39074,38.81553,184],[-90.39078,38.81554,184],[-90.39082,38.81553,185],[-90.39086,38.81551,185],[-90.39089,38.81549,185],[-90.39092,38.81547,185],[-90.39099,38.81547,186],[-90.39102,38.81545,186],[-90.39104,38.81543,186],[-90.39106,38.81541,186],[-90.3911,38.8154,186],[-90.39115,38.81541,186],[-90.39118,38.81543,186],[-90.39121,38.81545,186],[-90.39127,38.81544,185],[-90.39131,38.81543,185],[-90.39136,38.81542,185],[-90.39141,38.81543,185],[-90.39145,38.81544,184],[-90.39149,38.81546,184],[-90.39151,38.81548,183],[-90.39154,38.81551,183],[-90.39156,38.81554,183],[-90.39159,38.81556,183],[-90.39161,38.81558,183],[-90.39164,38.8156,182],[-90.39167,38.81563,182],[-90.39171,38.81565,181],[-90.39175,38.81566,180],[-90.39178,38.81567,179],[-90.39182,38.81566,178],[-90.39185,38.81565,177],[-90.3919,38.81565,176],[-90.39193,38.81565,176],[-90.39196,38.81566,175],[-90.39193,38.81566,176],[-90.39188,38.81566,177],[-90.39185,38.81566,177],[-90.3918,38.81566,178],[-90.39177,38.81568,179],[-90.39176,38.81571,179],[-90.39177,38.81574,178],[-90.39174,38.81573,179],[-90.39173,38.8157,179],[-90.39175,38.81567,179],[-90.39179,38.81567,178],[-90.39184,38.81566,178],[-90.39188,38.81566,177],[-90.39192,38.81566,176],[-90.39196,38.81565,175],[-90.39196,38.81562,175],[-90.39195,38.81565,175],[-90.39191,38.81566,176],[-90.39187,38.81566,177],[-90.39183,38.81567,178],[-90.3918,38.81568,178],[-90.39176,38.81569,179],[-90.39176,38.81572,178],[-90.39177,38.81576,178],[-90.39178,38.81578,177],[-90.39179,38.81581,176],[-90.39179,38.81584,176],[-90.3918,38.81588,175],[-90.3918,38.81591,174],[-90.3918,38.81594,173],[-90.39179,38.81597,173],[-90.39178,38.816,173],[-90.39178,38.81604,172],[-90.39177,38.81607,171],[-90.39176,38.81611,171],[-90.39175,38.81615,170],[-90.39174,38.81618,169],[-90.39173,38.81621,168],[-90.39172,38.81623,168],[-90.3917,38.81626,167],[-90.39169,38.8163,166],[-90.39167,38.81633,166],[-90.39164,38.81636,165],[-90.39162,38.81638,165],[-90.3916,38.81641,165],[-90.39158,38.81644,164],[-90.39157,38.81647,163],[-90.39155,38.8165,163],[-90.39152,38.81652,163],[-90.3915,38.81654,163],[-90.39148,38.81657,163],[-90.39147,38.81661,162],[-90.39143,38.81662,162],[-90.3914,38.81664,162],[-90.39138,38.81666,162],[-90.39134,38.81667,162],[-90.3913,38.81667,163],[-90.39126,38.81667,163],[-90.39125,38.8167,162],[-90.39127,38.81672,162],[-90.39123,38.81673,162],[-90.39119,38.81674,162],[-90.39116,38.81675,162],[-90.39111,38.81675,163],[-90.39108,38.81676,163],[-90.39114,38.81678,162],[-90.39113,38.81675,163],[-90.3911,38.81672,164],[-90.39107,38.8167,165],[-90.39104,38.8167,165],[-90.391,38.81668,166],[-90.39097,38.81665,166],[-90.39092,38.81665,167],[-90.39088,38.81666,166],[-90.39084,38.81667,166],[-90.3908,38.8167,166],[-90.39083,38.81672,166],[-90.39081,38.81675,165],[-90.39077,38.81675,165],[-90.39073,38.81675,166],[-90.39068,38.81677,166],[-90.39063,38.81678,166],[-90.3906,38.8168,166],[-90.39055,38.81683,166],[-90.39053,38.81685,166],[-90.3905,38.81687,166],[-90.39049,38.8169,165],[-90.39049,38.81693,165],[-90.39052,38.81695,165],[-90.39053,38.81698,164],[-90.39055,38.81702,162],[-90.39055,38.81704,161],[-90.39057,38.81707,160],[-90.39053,38.81708,160],[-90.39049,38.81709,160],[-90.39045,38.81712,159],[-90.39048,38.81715,158],[-90.39045,38.81718,157],[-90.39042,38.81719,157],[-90.39045,38.81721,156],[-90.39042,38.81722,156],[-90.39042,38.81725,155],[-90.39044,38.81728,154],[-90.39048,38.81729,153],[-90.39047,38.81732,152],[-90.39048,38.81735,151],[-90.39052,38.81738,150],[-90.39057,38.8174,149],[-90.3906,38.81742,148],[-90.39063,38.81744,146],[-90.39067,38.81744,146],[-90.39071,38.81743,146],[-90.39075,38.81743,145],[-90.39079,38.81742,145],[-90.39082,38.8174,145],[-90.39084,38.81737,146],[-90.39087,38.81735,146],[-90.39091,38.81735,145],[-90.39095,38.81736,144],[-90.39098,38.81737,144],[-90.39101,38.81734,144],[-90.39103,38.81732,144],[-90.39105,38.81728,145],[-90.39107,38.81726,145],[-90.3911,38.81724,145],[-90.39113,38.81721,146],[-90.39114,38.81718,147],[-90.39117,38.81715,148],[-90.39121,38.81714,147],[-90.39126,38.81713,147],[-90.3913,38.81712,147],[-90.39133,38.81711,147],[-90.39136,38.81709,147],[-90.3914,38.81708,146],[-90.39143,38.81706,147],[-90.39147,38.81704,147],[-90.3915,38.81702,147],[-90.39154,38.817,147],[-90.39159,38.81699,147],[-90.39163,38.81699,146],[-90.39166,38.81698,146],[-90.3917,38.81696,147],[-90.39173,38.81694,148],[-90.39176,38.81693,148],[-90.39179,38.81691,149],[-90.39182,38.81687,149],[-90.39184,38.81684,150],[-90.39187,38.81682,150],[-90.39189,38.8168,150],[-90.39193,38.81677,150],[-90.39196,38.81674,150],[-90.39198,38.81672,149],[-90.39199,38.81669,150],[-90.39201,38.81666,149],[-90.39204,38.81664,149],[-90.39207,38.81663,149],[-90.3921,38.8166,149],[-90.39212,38.81658,148],[-90.39215,38.81655,148],[-90.39218,38.81654,148],[-90.39222,38.81651,147],[-90.39224,38.81648,147],[-90.39226,38.81645,147],[-90.39229,38.81642,147],[-90.3923,38.8164,147],[-90.39232,38.81637,147],[-90.39233,38.81634,148],[-90.39232,38.81631,149],[-90.39231,38.81629,149],[-90.39234,38.81626,149],[-90.39236,38.81624,150],[-90.3924,38.81623,149],[-90.39243,38.8162,149],[-90.39245,38.81617,149],[-90.39249,38.81615,148],[-90.39253,38.81615,147],[-90.39257,38.81614,146],[-90.3926,38.81611,145],[-90.39263,38.81609,144],[-90.39266,38.81606,143],[-90.39267,38.81603,143],[-90.39269,38.816,142],[-90.39271,38.81597,142],[-90.39272,38.81594,141],[-90.39273,38.81591,141],[-90.39272,38.81587,141],[-90.39271,38.81584,142],[-90.3927,38.81581,142],[-90.39269,38.81577,144],[-90.39269,38.81574,144],[-90.39269,38.81571,145],[-90.39267,38.81567,146],[-90.39267,38.81564,147],[-90.39269,38.81562,147],[-90.39271,38.81559,147],[-90.39272,38.81556,147],[-90.39275,38.81554,146],[-90.39278,38.81551,146],[-90.39282,38.81549,145],[-90.39286,38.81549,144],[-90.39289,38.81547,144],[-90.39291,38.81544,144],[-90.39294,38.81543,144],[-90.39298,38.81542,143],[-90.39302,38.81541,142],[-90.39305,38.8154,142],[-90.39307,38.81536,143],[-90.39309,38.81533,143],[-90.39312,38.81531,143],[-90.39314,38.81529,143],[-90.39316,38.81526,143],[-90.39318,38.81523,143],[-90.39319,38.8152,143],[-90.3932,38.81517,143],[-90.39322,38.81514,143],[-90.39323,38.81511,143],[-90.39322,38.81508,143],[-90.39321,38.81504,144],[-90.3932,38.81501,144],[-90.39319,38.81498,144],[-90.39316,38.81495,145],[-90.39314,38.81492,145],[-90.39311,38.8149,146],[-90.39308,38.81487,146],[-90.39306,38.81485,146],[-90.39306,38.81482,146],[-90.39305,38.81479,146],[-90.39305,38.81476,146],[-90.39305,38.81473,146],[-90.39305,38.8147,146],[-90.39304,38.81466,146],[-90.39303,38.81463,146],[-90.39301,38.81459,147],[-90.39299,38.81456,147],[-90.39298,38.81454,148],[-90.39296,38.81452,148],[-90.39293,38.8145,149],[-90.3929,38.81447,150],[-90.39286,38.81446,151],[-90.39282,38.81444,151],[-90.3928,38.81442,151],[-90.39276,38.8144,152],[-90.39274,38.81437,151],[-90.39271,38.81435,151],[-90.39268,38.81433,151],[-90.39263,38.81431,151],[-90.3926,38.8143,151],[-90.39257,38.81427,151],[-90.39254,38.81425,151],[-90.39251,38.81424,151],[-90.39247,38.81422,151],[-90.39244,38.81419,150],[-90.39241,38.81417,150],[-90.39239,38.81415,149],[-90.39237,38.81412,148],[-90.39235,38.81409,146],[-90.39233,38.81406,144],[-90.39235,38.81403,143],[-90.39236,38.814,141],[-90.39237,38.81396,139],[-90.39238,38.81393,138],[-90.3924,38.8139,136],[-90.39243,38.81387,136],[-90.39245,38.81384,137],[-90.39247,38.81382,137],[-90.39249,38.81379,138],[-90.39251,38.81377,138],[-90.39254,38.81373,138],[-90.39256,38.8137,138],[-90.39257,38.81367,138],[-90.39258,38.81363,138],[-90.39258,38.8136,138],[-90.3926,38.81357,138],[-90.39262,38.81354,137],[-90.39265,38.81351,137],[-90.39268,38.81349,137],[-90.39271,38.81347,136],[-90.39274,38.81344,136],[-90.39276,38.81342,136],[-90.39279,38.81339,135],[-90.39281,38.81337,135],[-90.39284,38.81333,134],[-90.39287,38.81331,134],[-90.39289,38.81328,134],[-90.39292,38.81325,133],[-90.39295,38.81322,133],[-90.39299,38.81319,133],[-90.39302,38.81315,133],[-90.39304,38.81313,133],[-90.39307,38.8131,132],[-90.3931,38.81308,132],[-90.39313,38.81306,132],[-90.39315,38.81304,133],[-90.39318,38.81302,133],[-90.39322,38.813,133],[-90.39325,38.81298,133],[-90.39328,38.81296,133],[-90.39332,38.81294,133],[-90.39335,38.81292,133],[-90.39339,38.81289,134],[-90.39343,38.81287,133],[-90.39346,38.81286,133],[-90.39349,38.81284,133],[-90.39352,38.81282,134],[-90.39355,38.8128,134],[-90.39359,38.81279,133],[-90.39362,38.81277,134],[-90.39365,38.81275,134],[-90.39368,38.81273,134],[-90.39372,38.81271,134],[-90.39375,38.81269,134],[-90.39379,38.81266,135],[-90.39382,38.81264,135],[-90.39386,38.81262,135],[-90.39389,38.8126,135],[-90.39392,38.81258,136],[-90.39395,38.81255,136],[-90.39398,38.81253,136],[-90.39401,38.81251,136],[-90.39404,38.81248,137],[-90.39407,38.81245,137],[-90.3941,38.81242,137],[-90.39413,38.81239,137],[-90.39415,38.81237,137],[-90.39418,38.81236,137],[-90.39421,38.81234,137],[-90.39425,38.81232,137],[-90.39428,38.81229,137],[-90.39431,38.81226,137],[-90.39434,38.81224,137],[-90.39437,38.81221,138],[-90.3944,38.81219,138],[-90.39443,38.81216,138],[-90.39445,38.81214,137],[-90.39448,38.81212,137],[-90.39451,38.8121,137],[-90.39454,38.81207,137],[-90.39457,38.81205,137],[-90.3946,38.81202,137],[-90.39463,38.812,137],[-90.39466,38.81197,137],[-90.39469,38.81195,137],[-90.39472,38.81192,136],[-90.39475,38.8119,136],[-90.39478,38.81188,135],[-90.39481,38.81185,135],[-90.39483,38.81183,135],[-90.39486,38.8118,134],[-90.39488,38.81178,134],[-90.39491,38.81175,133],[-90.39495,38.81173,133],[-90.39499,38.81172,133],[-90.39502,38.8117,133],[-90.39506,38.81168,133],[-90.39508,38.81166,132],[-90.39511,38.81164,132],[-90.39514,38.81161,132]]],
        "bbox": [
          -90.38748,
          38.81744,
          -90.39514,
          38.81112
        ]
      },
      "properties": {
        "name": "3.7.2021A"
      }
    }
  ]
}