{
  "type": "FeatureCollection",
  "features": [
    {
      "type": "Feature",
      "geometry": {
        "type": "MultiLineString",
        "coordinates": [[[-90.39083,38.81075,138],[-90.39079,38.81077,138],[-90.39077,38.8108,138],[-90.39077,38.81083,138],[-90.3908,38.81086,138],[-90.39082,38.8109,138],[-90.39084,38.81093,138],[-90.39084,38.81097,139],[-90.39084,38.81101,139],[-90.39084,38.81104,140],[-90.39083,38.81107,140],[-90.39082,38.8111,140],[-90.39082,38.81114,141],[-90.39081,38.81116,141],[-90.39078,38.81118,141],[-90.39074,38.81119,141],[-90.3907,38.81121,142],[-90.39067,38.81123,142],[-90.39064,38.81126,142],[-90.3906,38.81127,142],[-90.39056,38.81127,142],[-90.39052,38.81127,142],[-90.39048,38.81125,142],[-90.39045,38.81123,142],[-90.39041,38.81122,142],[-90.39036,38.8112,142],[-90.39031,38.81119,142],[-90.39026,38.81119,143],[-90.39022,38.81119,143],[-90.39018,38.81119,144],[-90.39014,38.81118,144],[-90.39011,38.81119,145],[-90.39007,38.81119,145],[-90.39003,38.81119,146],[-90.38999,38.81119,146],[-90.38995,38.81117,147],[-90.38991,38.81117,147],[-90.38987,38.81119,148],[-90.38983,38.8112,148],[-90.38979,38.8112,149],[-90.38975,38.81121,150],[-90.3897,38.8112,150],[-90.38966,38.81119,150],[-90.38962,38.81118,151],[-90.38959,38.81119,151],[-90.38956,38.81121,151],[-90.38954,38.81123,151],[-90.38953,38.81126,151],[-90.3895,38.81128,151],[-90.38949,38.81131,151],[-90.38946,38.81134,151],[-90.38943,38.81136,152],[-90.38938,38.81137,152],[-90.38934,38.81136,152],[-90.3893,38.81137,152],[-90.38927,38.8114,152],[-90.38925,38.81142,152],[-90.38922,38.81144,152],[-90.38917,38.81146,152],[-90.38914,38.81149,152],[-90.3891,38.8115,153],[-90.38906,38.81151,154],[-90.38902,38.81152,155],[-90.38899,38.81152,156],[-90.38895,38.81154,157],[-90.38891,38.81155,158],[-90.38889,38.81156,159],[-90.38885,38.81158,160],[-90.38885,38.81162,160],[-90.38883,38.81165,160],[-90.38879,38.81167,161],[-90.38877,38.81169,161],[-90.38874,38.81172,162],[-90.38871,38.81174,162],[-90.38869,38.81176,162],[-90.38867,38.81179,162],[-90.38867,38.81182,162],[-90.38866,38.81185,162],[-90.38867,38.81188,161],[-90.38869,38.8119,161],[-90.3887,38.81193,160],[-90.38872,38.81196,160],[-90.38874,38.81198,160],[-90.38877,38.812,159],[-90.3888,38.81203,159],[-90.38882,38.81206,160],[-90.38883,38.8121,160],[-90.38883,38.81213,160],[-90.38882,38.81216,161],[-90.38881,38.8122,162],[-90.3888,38.81223,162],[-90.38878,38.81225,163],[-90.38874,38.81227,163],[-90.38872,38.8123,164],[-90.38871,38.81233,164],[-90.38871,38.81236,165],[-90.38869,38.81238,165],[-90.38868,38.81241,166],[-90.38869,38.81244,166],[-90.38868,38.81247,167],[-90.38866,38.8125,168],[-90.38867,38.81253,168],[-90.38867,38.81256,168],[-90.38865,38.8126,168],[-90.38862,38.81262,169],[-90.38858,38.81263,170],[-90.38854,38.81265,171],[-90.38851,38.81266,172],[-90.38848,38.81267,173],[-90.38845,38.81269,174],[-90.38842,38.8127,175],[-90.38838,38.81271,177],[-90.38836,38.81274,178],[-90.38832,38.81275,179],[-90.38829,38.81277,181],[-90.38826,38.81278,182],[-90.38823,38.81279,183],[-90.38819,38.81279,184],[-90.38815,38.81278,185],[-90.38812,38.81279,186],[-90.38812,38.81282,186],[-90.38812,38.81285,186],[-90.38812,38.81289,187],[-90.38812,38.81291,187],[-90.38812,38.81295,188],[-90.38811,38.81298,188],[-90.3881,38.81301,189],[-90.38809,38.81305,190],[-90.38808,38.81308,190],[-90.38807,38.8131,191],[-90.38806,38.81313,192],[-90.38804,38.81316,192],[-90.388,38.81318,193],[-90.38798,38.81321,194],[-90.38797,38.81324,194],[-90.38795,38.81327,195],[-90.38792,38.81328,195],[-90.38787,38.81329,195],[-90.38783,38.8133,195],[-90.38778,38.81331,195],[-90.38775,38.81331,195],[-90.38771,38.81331,195],[-90.38767,38.81331,195],[-90.38763,38.81332,194],[-90.38762,38.81335,194],[-90.38762,38.81339,195],[-90.38762,38.81342,195],[-90.38762,38.81345,195],[-90.38761,38.81348,195],[-90.3876,38.81351,196],[-90.3876,38.81355,196],[-90.38761,38.81358,196],[-90.38761,38.81361,196],[-90.3876,38.81364,197],[-90.38758,38.81368,197],[-90.38757,38.8137,197],[-90.38757,38.81373,197],[-90.38757,38.81376,198],[-90.38756,38.81379,198],[-90.38757,38.81382,199],[-90.38759,38.81385,199],[-90.38762,38.81388,199],[-90.38765,38.81389,199],[-90.38768,38.81391,200],[-90.38772,38.81391,200],[-90.38776,38.81392,200],[-90.3878,38.81393,199],[-90.38784,38.81393,199],[-90.38788,38.81392,199],[-90.38791,38.81391,199],[-90.38795,38.81391,199],[-90.38799,38.81391,199],[-90.38802,38.81391,199],[-90.38806,38.8139,199],[-90.38809,38.81389,198],[-90.38814,38.8139,198],[-90.38819,38.8139,198],[-90.38823,38.81392,198],[-90.38827,38.81393,198],[-90.38831,38.81394,198],[-90.38835,38.81395,198],[-90.38838,38.81397,197],[-90.38842,38.81399,197],[-90.38846,38.81401,197],[-90.38849,38.81402,197],[-90.38854,38.81402,196],[-90.38858,38.81403,196],[-90.38861,38.81404,196],[-90.38865,38.81405,195],[-90.38869,38.81406,195],[-90.38874,38.81407,194],[-90.38878,38.81409,194],[-90.38881,38.81411,193],[-90.38884,38.81412,193],[-90.38887,38.81414,193],[-90.38892,38.81416,192],[-90.38895,38.81417,192],[-90.389,38.81417,192],[-90.38904,38.81417,192],[-90.38909,38.81418,192],[-90.38913,38.81419,192],[-90.38917,38.8142,192],[-90.38921,38.81422,192],[-90.38925,38.81424,191],[-90.38929,38.81426,190],[-90.38933,38.81427,190],[-90.38937,38.81429,189],[-90.38942,38.8143,189],[-90.38946,38.81432,188],[-90.38949,38.81435,188],[-90.38952,38.81437,188],[-90.38954,38.81441,189],[-90.38955,38.81444,189],[-90.38955,38.81448,189],[-90.38955,38.81452,190],[-90.38955,38.81455,190],[-90.38954,38.81458,190],[-90.38954,38.81462,190],[-90.38955,38.81466,190],[-90.38956,38.81469,191],[-90.38957,38.81473,191],[-90.38958,38.81476,191],[-90.38958,38.8148,190],[-90.38959,38.81484,190],[-90.38961,38.81487,190],[-90.38962,38.8149,189],[-90.38965,38.81493,189],[-90.38968,38.81495,189],[-90.38971,38.81497,189],[-90.38974,38.815,189],[-90.38977,38.81503,188],[-90.3898,38.81506,187],[-90.38983,38.81508,187],[-90.38987,38.8151,186],[-90.3899,38.81512,186],[-90.38992,38.81515,185],[-90.38994,38.81517,184],[-90.38997,38.81519,184],[-90.39001,38.81522,183],[-90.39006,38.81523,183],[-90.39009,38.81524,182],[-90.39012,38.81526,182],[-90.39017,38.81528,181],[-90.39022,38.81529,181],[-90.39026,38.81531,181],[-90.39031,38.81532,181],[-90.39035,38.81533,181],[-90.39038,38.81534,182],[-90.39042,38.81536,182],[-90.39046,38.81538,182],[-90.3905,38.81539,182],[-90.39053,38.81541,182],[-90.39057,38.81542,183],[-90.39061,38.81543,183],[-90.39066,38.81543,184],[-90.39071,38.81543,184],[-90.39075,38.81543,184],[-90.3908,38.81544,185],[-90.39084,38.81544,185],[-90.39088,38.81544,185],[-90.39092,38.81543,186],[-90.39096,38.81542,186],[-90.391,38.81541,186],[-90.39105,38.8154,186],[-90.39108,38.8154,186],[-90.39112,38.8154,186],[-90.39116,38.81539,186],[-90.3912,38.81539,186],[-90.39124,38.81539,186],[-90.39129,38.8154,185],[-90.39133,38.8154,185],[-90.39137,38.81541,185],[-90.39141,38.81543,185],[-90.39147,38.81544,184],[-90.39151,38.81546,183],[-90.39155,38.81549,183],[-90.39158,38.81551,183],[-90.39159,38.81554,183],[-90.39162,38.81556,183],[-90.39165,38.81559,182],[-90.39168,38.81561,182],[-90.39172,38.81563,180],[-90.39175,38.81564,180],[-90.39179,38.81564,179],[-90.39184,38.81564,178],[-90.39188,38.81565,177],[-90.39191,38.81565,176],[-90.39193,38.81563,176],[-90.39193,38.8156,177],[-90.39193,38.81558,177],[-90.39195,38.81555,177],[-90.39196,38.81552,177],[-90.39196,38.81549,176],[-90.39197,38.81546,176],[-90.39196,38.81543,176],[-90.39195,38.8154,176],[-90.39194,38.81537,176],[-90.39193,38.81534,176],[-90.39191,38.81531,176],[-90.39192,38.81528,176],[-90.39193,38.81525,175],[-90.39194,38.81523,174],[-90.39195,38.8152,173],[-90.39197,38.81516,171],[-90.39198,38.81512,169],[-90.39198,38.81509,168],[-90.39198,38.81505,166],[-90.39196,38.81502,166],[-90.39195,38.81499,165],[-90.39193,38.81497,166],[-90.39191,38.81495,166],[-90.3919,38.81492,166],[-90.3919,38.81488,166],[-90.39192,38.81485,165],[-90.39193,38.81482,164],[-90.39192,38.81479,164],[-90.3919,38.81477,164],[-90.39189,38.81474,164],[-90.39188,38.81471,164],[-90.39188,38.81468,164],[-90.39188,38.81465,163],[-90.39187,38.81462,163],[-90.39186,38.81459,163],[-90.39183,38.81456,163],[-90.39181,38.81453,164],[-90.39181,38.8145,163],[-90.39182,38.81446,162],[-90.39182,38.81443,162],[-90.39181,38.8144,161],[-90.3918,38.81437,161],[-90.3918,38.81434,160],[-90.3918,38.81431,159],[-90.39178,38.81428,159],[-90.39177,38.81425,158],[-90.39177,38.81422,157],[-90.39179,38.8142,156],[-90.39182,38.81419,155],[-90.39183,38.81417,154],[-90.39184,38.81414,153],[-90.39187,38.81412,151],[-90.39188,38.81409,150],[-90.3919,38.81407,148],[-90.39194,38.81406,146],[-90.39198,38.81406,146],[-90.39201,38.81407,146],[-90.39205,38.81406,145],[-90.3921,38.81405,144],[-90.39214,38.81404,143],[-90.39218,38.81403,142],[-90.39215,38.81406,144],[-90.39211,38.81407,145],[-90.39208,38.81409,147],[-90.39204,38.81411,148],[-90.392,38.81412,149],[-90.39196,38.81413,150],[-90.39195,38.81416,151],[-90.39191,38.81417,153],[-90.39188,38.81419,154],[-90.39185,38.81421,155],[-90.39185,38.81424,156],[-90.39185,38.81427,157],[-90.39187,38.8143,157],[-90.39188,38.81433,158],[-90.39189,38.81436,158],[-90.3919,38.81439,158],[-90.39191,38.81442,159],[-90.39193,38.81445,159],[-90.39193,38.81448,159],[-90.39193,38.81451,160],[-90.39194,38.81454,160],[-90.39195,38.81457,160],[-90.39196,38.8146,161],[-90.39196,38.81463,161],[-90.39197,38.81466,161],[-90.39198,38.81469,161],[-90.39198,38.81472,162],[-90.39199,38.81474,162],[-90.392,38.81477,162],[-90.392,38.81481,162],[-90.39199,38.81484,163],[-90.39197,38.81487,164],[-90.39197,38.8149,164],[-90.392,38.81493,163],[-90.39201,38.81496,163],[-90.39203,38.81499,163],[-90.39205,38.81503,164],[-90.39206,38.81506,165],[-90.39205,38.8151,166],[-90.39205,38.81513,167],[-90.39205,38.81516,168],[-90.39204,38.81519,170],[-90.39203,38.81523,171],[-90.39202,38.81526,173],[-90.39202,38.81529,173],[-90.39203,38.81532,173],[-90.39204,38.81535,173],[-90.39205,38.81538,173],[-90.39206,38.81541,172],[-90.39207,38.81544,172],[-90.39207,38.81547,172],[-90.39206,38.8155,172],[-90.39205,38.81553,173],[-90.39204,38.81556,173],[-90.392,38.81558,175],[-90.39199,38.81561,174],[-90.39198,38.81564,174],[-90.39195,38.81566,175],[-90.39191,38.81567,176],[-90.39187,38.81567,177],[-90.39183,38.81568,177],[-90.3918,38.81569,178],[-90.39177,38.81571,178],[-90.39178,38.81574,178],[-90.3918,38.81577,177],[-90.3918,38.8158,176],[-90.3918,38.81583,176],[-90.39181,38.81586,175],[-90.39181,38.81589,174],[-90.39181,38.81592,174],[-90.3918,38.81595,173],[-90.39178,38.81598,173],[-90.39178,38.81601,173],[-90.39178,38.81605,172],[-90.39177,38.81608,171],[-90.39176,38.81612,170],[-90.39176,38.81615,169],[-90.39175,38.81618,169],[-90.39174,38.81621,168],[-90.39173,38.81624,167],[-90.39172,38.81627,166],[-90.39171,38.8163,166],[-90.39169,38.81633,165],[-90.39167,38.81635,165],[-90.39165,38.81638,164],[-90.39162,38.81642,164],[-90.3916,38.81645,163],[-90.39157,38.81648,163],[-90.39155,38.8165,163],[-90.39153,38.81653,163],[-90.3915,38.81656,162],[-90.39147,38.81659,162],[-90.39143,38.8166,163],[-90.39141,38.81662,163],[-90.39138,38.81665,162],[-90.39136,38.81667,162],[-90.39133,38.81669,162],[-90.39131,38.81671,161],[-90.39128,38.81673,161],[-90.39125,38.81675,161],[-90.39122,38.81677,161],[-90.39119,38.81678,161],[-90.39115,38.81679,161],[-90.39112,38.81679,162],[-90.39109,38.81677,163],[-90.39106,38.81675,163],[-90.39103,38.81674,164],[-90.39099,38.81675,164],[-90.39096,38.81674,164],[-90.39093,38.81672,165],[-90.39091,38.81674,165],[-90.39087,38.81675,165],[-90.39084,38.81676,165],[-90.39083,38.81679,164],[-90.39079,38.81681,164],[-90.39076,38.8168,165],[-90.39072,38.81681,165],[-90.39069,38.81683,165],[-90.39065,38.81685,165],[-90.39062,38.81686,165],[-90.39058,38.81688,165],[-90.39055,38.8169,165],[-90.39054,38.81692,165],[-90.39055,38.81695,164],[-90.39056,38.81698,163],[-90.39057,38.81701,162],[-90.39058,38.81704,161],[-90.39058,38.81707,160],[-90.39057,38.8171,159],[-90.39057,38.81713,158],[-90.39056,38.81716,157],[-90.39055,38.81719,157],[-90.39057,38.81717,157],[-90.39059,38.81719,156],[-90.3906,38.81722,155],[-90.39059,38.81725,154],[-90.39058,38.81728,153],[-90.39055,38.8173,153],[-90.39059,38.81732,151],[-90.3906,38.81735,150],[-90.39058,38.81738,149],[-90.39055,38.8174,149],[-90.39054,38.81743,148],[-90.39052,38.81746,147],[-90.3905,38.81744,148],[-90.3905,38.8174,149],[-90.39051,38.81738,150],[-90.39051,38.81735,151],[-90.39047,38.81734,152],[-90.39047,38.81731,153],[-90.39048,38.81728,154],[-90.39047,38.81725,155],[-90.39047,38.81722,156],[-90.39045,38.8172,157],[-90.39044,38.81717,158],[-90.39046,38.81714,159],[-90.39047,38.81711,160],[-90.39048,38.81708,160],[-90.39048,38.81705,161],[-90.39048,38.81703,162],[-90.39046,38.817,163],[-90.39046,38.81697,164],[-90.39045,38.81694,165],[-90.39044,38.81691,166],[-90.39042,38.81689,166],[-90.39044,38.81687,166],[-90.39048,38.81686,166],[-90.39051,38.81685,166],[-90.39054,38.81682,166],[-90.39057,38.8168,166],[-90.39061,38.81678,166],[-90.39065,38.81677,166],[-90.39068,38.81677,166],[-90.39073,38.81677,165],[-90.39076,38.81675,165],[-90.39076,38.81672,166],[-90.3908,38.81672,166],[-90.39083,38.8167,166],[-90.39084,38.81667,166],[-90.39086,38.81664,167],[-90.3909,38.81663,167],[-90.39094,38.81664,167],[-90.39098,38.81665,166],[-90.39102,38.81666,166],[-90.39105,38.81668,165],[-90.39108,38.8167,165],[-90.39111,38.81672,164],[-90.39113,38.81674,163],[-90.39117,38.81673,163],[-90.3912,38.81671,163],[-90.39122,38.8167,163],[-90.39126,38.81668,163],[-90.39128,38.81665,164],[-90.39131,38.81664,163],[-90.39134,38.81661,164],[-90.39136,38.81659,164],[-90.3914,38.81657,164],[-90.39143,38.81655,164],[-90.39145,38.81652,165],[-90.39148,38.8165,165],[-90.3915,38.81647,165],[-90.39152,38.81645,165],[-90.39154,38.81642,166],[-90.39156,38.81639,166],[-90.39159,38.81636,166],[-90.3916,38.81634,167],[-90.39163,38.81631,167],[-90.39165,38.81628,168],[-90.39165,38.81625,169],[-90.39166,38.81622,170],[-90.39167,38.81618,171],[-90.39168,38.81615,172],[-90.39168,38.81612,173],[-90.39169,38.81609,173],[-90.3917,38.81606,174],[-90.39171,38.81603,174],[-90.39171,38.81599,175],[-90.39172,38.81595,175],[-90.39172,38.81592,176],[-90.39173,38.81588,177],[-90.39173,38.81585,177],[-90.39174,38.81582,178],[-90.39173,38.81579,178],[-90.39172,38.81576,179],[-90.39171,38.81573,180],[-90.39171,38.81569,180],[-90.39175,38.81567,179],[-90.39178,38.81566,179],[-90.39183,38.81565,178],[-90.39187,38.81566,177],[-90.39191,38.81567,176],[-90.39192,38.81563,176],[-90.39192,38.8156,177],[-90.39192,38.81557,178],[-90.39194,38.81555,178],[-90.39195,38.81552,177],[-90.39196,38.81549,176],[-90.39196,38.81546,176],[-90.39195,38.81543,176],[-90.39195,38.8154,176],[-90.39194,38.81537,176],[-90.39193,38.81533,176],[-90.39192,38.8153,176],[-90.39192,38.81527,176],[-90.39193,38.81524,174],[-90.39193,38.81521,173],[-90.39194,38.81517,172],[-90.39193,38.81515,171],[-90.39194,38.8151,169],[-90.39195,38.81507,168],[-90.39196,38.81504,167],[-90.39194,38.81501,166],[-90.39193,38.81498,166],[-90.39191,38.81496,166],[-90.39189,38.81493,167],[-90.39188,38.81491,167],[-90.3919,38.81488,166],[-90.39192,38.81485,165],[-90.39192,38.81482,164],[-90.39191,38.81479,164],[-90.3919,38.81475,164],[-90.39189,38.81472,164],[-90.39188,38.81469,164],[-90.39188,38.81466,164],[-90.39187,38.81462,163],[-90.39185,38.8146,163],[-90.39183,38.81456,163],[-90.39181,38.81454,164],[-90.3918,38.8145,163],[-90.39179,38.81447,163],[-90.39179,38.81444,163],[-90.39179,38.81441,162],[-90.3918,38.81438,161],[-90.39179,38.81435,160],[-90.39178,38.81432,160],[-90.39177,38.81429,159],[-90.39176,38.81426,159],[-90.39176,38.81424,158],[-90.39177,38.81421,157],[-90.39177,38.81418,156],[-90.3918,38.81417,155],[-90.39184,38.81415,153],[-90.39187,38.81415,153],[-90.39188,38.81412,151],[-90.39189,38.81409,149],[-90.39192,38.81407,147],[-90.39196,38.81407,147],[-90.392,38.81407,146],[-90.39204,38.81405,145],[-90.39208,38.81404,144],[-90.39213,38.81403,143],[-90.39217,38.81403,142],[-90.39221,38.81402,141],[-90.39221,38.81405,143],[-90.39219,38.81408,145],[-90.39215,38.81408,145],[-90.39211,38.81409,146],[-90.39208,38.8141,147],[-90.39204,38.81411,148],[-90.392,38.81412,149],[-90.39197,38.81412,149],[-90.39193,38.81413,150],[-90.39194,38.81416,151],[-90.39192,38.81419,153],[-90.3919,38.81421,154],[-90.39189,38.81424,155],[-90.39186,38.81426,156],[-90.39186,38.81429,157],[-90.39187,38.81432,157],[-90.39188,38.81435,158],[-90.39189,38.81438,158],[-90.3919,38.81441,159],[-90.3919,38.81445,160],[-90.3919,38.81448,160],[-90.39191,38.81451,161],[-90.39192,38.81454,161],[-90.39195,38.81457,160],[-90.39196,38.8146,161],[-90.39197,38.81463,161],[-90.39197,38.81466,161],[-90.39199,38.81469,161],[-90.39201,38.81472,161],[-90.39202,38.81475,161],[-90.39201,38.81478,162],[-90.392,38.81482,162],[-90.39198,38.81484,163],[-90.39197,38.81488,164],[-90.39199,38.81491,163],[-90.392,38.81494,164],[-90.39202,38.81497,163],[-90.39204,38.81501,164],[-90.39204,38.81505,165],[-90.39204,38.81508,166],[-90.39204,38.81512,167],[-90.39203,38.81516,169],[-90.39202,38.81519,170],[-90.39201,38.81522,171],[-90.39201,38.81525,173],[-90.39201,38.81528,174],[-90.39202,38.81531,173],[-90.39202,38.81535,174],[-90.39204,38.81538,173],[-90.39205,38.81542,173],[-90.39206,38.81545,172],[-90.39206,38.81548,172],[-90.39205,38.81551,173],[-90.39204,38.81554,173],[-90.39202,38.81556,174],[-90.392,38.81559,174],[-90.39198,38.81562,174],[-90.39197,38.81565,174],[-90.39194,38.81567,175],[-90.3919,38.81567,176],[-90.39186,38.81567,177],[-90.39183,38.81568,177],[-90.39178,38.81569,178],[-90.39175,38.8157,179],[-90.3917,38.8157,180],[-90.39166,38.81568,181],[-90.39164,38.81565,182],[-90.3916,38.81563,182],[-90.39156,38.8156,183],[-90.39154,38.81558,183],[-90.3915,38.81555,184],[-90.39148,38.81552,184],[-90.39145,38.8155,184],[-90.39142,38.81548,184],[-90.39139,38.81546,185],[-90.39134,38.81545,185],[-90.3913,38.81544,185],[-90.39126,38.81543,185],[-90.39122,38.81543,186],[-90.39117,38.81543,186],[-90.39113,38.81543,186],[-90.39108,38.81545,186],[-90.39105,38.81546,186],[-90.39101,38.81547,186],[-90.39096,38.81549,185],[-90.39092,38.8155,185],[-90.39087,38.81551,185],[-90.39083,38.81551,185],[-90.39079,38.81551,184],[-90.39074,38.81551,184],[-90.39069,38.81552,183],[-90.39065,38.81553,183],[-90.3906,38.81553,182],[-90.39056,38.81551,182],[-90.39053,38.8155,182],[-90.3905,38.81548,181],[-90.39045,38.81547,181],[-90.39042,38.81545,181],[-90.39038,38.81543,180],[-90.39035,38.81542,180],[-90.3903,38.81541,180],[-90.39026,38.8154,180],[-90.39023,38.81539,180],[-90.3902,38.81537,180],[-90.39016,38.81536,180],[-90.39012,38.81534,181],[-90.39009,38.81533,181],[-90.39004,38.81531,181],[-90.39,38.81529,181],[-90.38997,38.81528,182],[-90.38994,38.81525,182],[-90.3899,38.81524,183],[-90.38987,38.81522,183],[-90.38984,38.8152,184],[-90.38981,38.81518,184],[-90.38978,38.81515,185],[-90.38976,38.81513,186],[-90.38973,38.81511,186],[-90.3897,38.81509,187],[-90.38967,38.81507,187],[-90.38965,38.81504,188],[-90.38962,38.81502,188],[-90.38959,38.815,188],[-90.38957,38.81497,188],[-90.38954,38.81495,188],[-90.38953,38.81491,189],[-90.38951,38.81488,189],[-90.38949,38.81485,189],[-90.38947,38.81482,190],[-90.38945,38.8148,190],[-90.38944,38.81476,190],[-90.38944,38.81472,190],[-90.38944,38.81469,190],[-90.38945,38.81466,190],[-90.38945,38.81462,190],[-90.38946,38.81459,190],[-90.38946,38.81455,190],[-90.38946,38.81452,190],[-90.38946,38.81448,190],[-90.38946,38.81445,189],[-90.38945,38.81442,189],[-90.38943,38.81439,189],[-90.38941,38.81436,189],[-90.38938,38.81434,189],[-90.38934,38.81433,190],[-90.3893,38.81431,190],[-90.38927,38.8143,191],[-90.38923,38.81428,191],[-90.38921,38.81426,191],[-90.38917,38.81424,192],[-90.38913,38.81423,192],[-90.38908,38.81422,192],[-90.38903,38.81422,192],[-90.38899,38.81421,192],[-90.38896,38.81421,192],[-90.38892,38.81421,192],[-90.38889,38.8142,192],[-90.38886,38.81419,193],[-90.38882,38.81417,194],[-90.38878,38.81415,194],[-90.38875,38.81414,194],[-90.38871,38.81413,195],[-90.38867,38.81413,195],[-90.38863,38.81413,196],[-90.3886,38.81411,196],[-90.38856,38.8141,196],[-90.38852,38.81408,197],[-90.38849,38.81406,197],[-90.38845,38.81405,197],[-90.38841,38.81403,197],[-90.38837,38.81401,198],[-90.38833,38.81399,198],[-90.3883,38.81398,198],[-90.38825,38.81397,198],[-90.38822,38.81395,198],[-90.38818,38.81394,198],[-90.38813,38.81394,198],[-90.38809,38.81395,199],[-90.38805,38.81395,199],[-90.38801,38.81396,199],[-90.38796,38.81397,199],[-90.38792,38.81397,199],[-90.38789,38.81399,199],[-90.38784,38.81399,199],[-90.3878,38.81399,199],[-90.38776,38.81399,200],[-90.38772,38.81398,200],[-90.38768,38.81397,200],[-90.38765,38.81394,200],[-90.38763,38.81391,200],[-90.38759,38.81389,199],[-90.38755,38.81387,199],[-90.38753,38.81385,199],[-90.3875,38.81382,198],[-90.38749,38.81379,198],[-90.3875,38.81376,198],[-90.3875,38.81372,197],[-90.38751,38.81369,197],[-90.38752,38.81365,196],[-90.38753,38.81362,196],[-90.38754,38.81359,196],[-90.38754,38.81356,195],[-90.38754,38.81352,195],[-90.38755,38.81349,195],[-90.38756,38.81346,195],[-90.38757,38.81343,195],[-90.38758,38.8134,195],[-90.38758,38.81337,194],[-90.38757,38.81333,194],[-90.38758,38.8133,194],[-90.38762,38.81328,194],[-90.38766,38.81328,194],[-90.3877,38.81327,194],[-90.38773,38.81327,195],[-90.38778,38.81327,195],[-90.38782,38.81326,195],[-90.38785,38.81324,194],[-90.38789,38.81323,194],[-90.3879,38.8132,194],[-90.38792,38.81318,193],[-90.38794,38.81315,193],[-90.38795,38.81312,192],[-90.38797,38.81309,192],[-90.38798,38.81306,191],[-90.388,38.81303,191],[-90.38801,38.813,190],[-90.38801,38.81297,190],[-90.38801,38.81294,190],[-90.38802,38.81291,189],[-90.38803,38.81288,189],[-90.38804,38.81285,188],[-90.38804,38.81281,188],[-90.38804,38.81278,188],[-90.38808,38.81277,187],[-90.38811,38.81276,186],[-90.38815,38.81275,184],[-90.38818,38.81273,183],[-90.38822,38.81272,182],[-90.38825,38.81272,181],[-90.38829,38.81271,179],[-90.38832,38.8127,178],[-90.38836,38.81269,177],[-90.38839,38.81268,176],[-90.38843,38.81268,175],[-90.38845,38.81265,174],[-90.38846,38.81263,173],[-90.3885,38.81261,172],[-90.38853,38.81259,171],[-90.38854,38.81256,170],[-90.38854,38.81253,170],[-90.38855,38.8125,170],[-90.38857,38.81247,169],[-90.38859,38.81245,168],[-90.38859,38.81242,168],[-90.38858,38.8124,167],[-90.38857,38.81236,167],[-90.38857,38.81234,166],[-90.38859,38.81231,165],[-90.3886,38.81228,165],[-90.38863,38.81226,164],[-90.38867,38.81226,164],[-90.3887,38.81224,163],[-90.38871,38.81221,163],[-90.38874,38.81218,162],[-90.38875,38.81215,162],[-90.38875,38.81211,161],[-90.38874,38.81208,161],[-90.38872,38.81205,161],[-90.38869,38.81203,161],[-90.38867,38.81201,161],[-90.38865,38.81198,161],[-90.38862,38.81195,161],[-90.38859,38.81193,162],[-90.38857,38.8119,163],[-90.38856,38.81186,163],[-90.38856,38.81183,163],[-90.38857,38.8118,164],[-90.38858,38.81177,164],[-90.3886,38.81173,164],[-90.38863,38.81171,164],[-90.38866,38.81168,164],[-90.38868,38.81166,163],[-90.38871,38.81164,163],[-90.38874,38.8116,162],[-90.38875,38.81157,162],[-90.38875,38.81154,162],[-90.38879,38.81152,161],[-90.38883,38.81153,160],[-90.38887,38.81153,159],[-90.38891,38.81151,158],[-90.38895,38.81149,157],[-90.38899,38.81148,156],[-90.38903,38.81147,155],[-90.38907,38.81146,154],[-90.38909,38.81144,153],[-90.38912,38.81142,153],[-90.38916,38.8114,152],[-90.38918,38.81137,152],[-90.38921,38.81135,152],[-90.38926,38.81135,152],[-90.3893,38.81135,152],[-90.38935,38.81135,152],[-90.38938,38.81132,152],[-90.38939,38.81129,152],[-90.38941,38.81126,152],[-90.38944,38.81123,152],[-90.38947,38.8112,151],[-90.38948,38.81118,151],[-90.38952,38.81116,151],[-90.38956,38.81115,151],[-90.38961,38.81116,151],[-90.38964,38.81117,151],[-90.38969,38.81118,150],[-90.38974,38.81117,150],[-90.38978,38.81116,149],[-90.38981,38.81114,149],[-90.38985,38.81112,149],[-90.38989,38.81111,148],[-90.38993,38.81111,147],[-90.38998,38.81112,147],[-90.39003,38.81112,146],[-90.39008,38.81113,145],[-90.39012,38.81114,145],[-90.39017,38.81115,144],[-90.39021,38.81115,143],[-90.39025,38.81115,143],[-90.3903,38.81114,142],[-90.39034,38.81115,142],[-90.39038,38.81116,142],[-90.39041,38.81117,142],[-90.39045,38.81119,142],[-90.39049,38.81121,142],[-90.39053,38.81122,142],[-90.39057,38.81122,142],[-90.39061,38.81121,142],[-90.39064,38.8112,142],[-90.39067,38.81118,141],[-90.39071,38.81118,141],[-90.39075,38.81116,141],[-90.39078,38.81114,141],[-90.39079,38.81111,141],[-90.3908,38.81108,140],[-90.39081,38.81105,140],[-90.39081,38.81101,140],[-90.39081,38.81098,139],[-90.39081,38.81095,139],[-90.39081,38.81092,139],[-90.3908,38.81088,138],[-90.39079,38.81085,138]]],
        "bbox": [
          -90.38749,
          38.81746,
          -90.39221,
          38.81075
        ]
      },
      "properties": {
        "name": "9.23.2022"
      }
    }
  ]
}