{
  "type": "FeatureCollection",
  "features": [
    {
      "type": "Feature",
      "geometry": {
        "type": "MultiLineString",
        "coordinates": [[[-90.39504,38.81171,133],[-90.39501,38.81173,133],[-90.39497,38.81175,133],[-90.39493,38.81178,134],[-90.3949,38.81181,134],[-90.39487,38.81184,135],[-90.39484,38.81186,135],[-90.39481,38.81188,135],[-90.39478,38.81191,136],[-90.39475,38.81194,136],[-90.39471,38.81196,137],[-90.39469,38.81199,136],[-90.39466,38.81201,137],[-90.39463,38.81204,137],[-90.39459,38.81206,137],[-90.39456,38.81209,137],[-90.39452,38.81212,137],[-90.3945,38.81215,137],[-90.39447,38.81217,137],[-90.39443,38.8122,138],[-90.3944,38.81223,137],[-90.39437,38.81225,137],[-90.39434,38.81228,137],[-90.3943,38.81231,137],[-90.39427,38.81233,137],[-90.39423,38.81236,137],[-90.3942,38.81238,137],[-90.39416,38.8124,137],[-90.39412,38.81243,137],[-90.3941,38.81246,137],[-90.39406,38.81249,137],[-90.39403,38.81252,136],[-90.394,38.81254,136],[-90.39396,38.81257,136],[-90.39394,38.81259,135],[-90.3939,38.81261,135],[-90.39387,38.81264,135],[-90.39383,38.81267,135],[-90.39381,38.81269,134],[-90.39377,38.81272,134],[-90.39373,38.81274,134],[-90.39369,38.81276,134],[-90.39365,38.81277,134],[-90.39361,38.81278,134],[-90.39356,38.81278,134],[-90.39353,38.81278,134],[-90.39353,38.81282,133],[-90.39352,38.81285,133],[-90.39351,38.81289,133],[-90.3935,38.81292,133],[-90.3935,38.81295,133],[-90.39352,38.81297,132],[-90.39355,38.813,132],[-90.39357,38.81302,132],[-90.39358,38.81306,132],[-90.39359,38.81309,132],[-90.39361,38.81312,132],[-90.39364,38.81314,132],[-90.39367,38.81318,132],[-90.39368,38.81321,132],[-90.3937,38.81324,132],[-90.39373,38.81327,132],[-90.39377,38.81329,132],[-90.3938,38.8133,132],[-90.39383,38.81332,132],[-90.39386,38.81334,132],[-90.3939,38.81336,132],[-90.39393,38.81338,132],[-90.39396,38.8134,132],[-90.39399,38.81343,132],[-90.39403,38.81344,132],[-90.39407,38.81347,132],[-90.3941,38.81348,132],[-90.39413,38.8135,132],[-90.39417,38.81352,133],[-90.39421,38.81354,133],[-90.39424,38.81356,133],[-90.39426,38.81357,133],[-90.3943,38.81359,133],[-90.39432,38.81361,133],[-90.39436,38.81363,133],[-90.3944,38.81364,133],[-90.39445,38.81366,134],[-90.39449,38.81369,134],[-90.39452,38.81371,134],[-90.39456,38.81374,134],[-90.39459,38.81376,134],[-90.39463,38.81376,134],[-90.39468,38.81378,135],[-90.39471,38.81381,135],[-90.39476,38.81383,135],[-90.39479,38.81386,135],[-90.39482,38.81388,135],[-90.39485,38.8139,134],[-90.39488,38.81392,134],[-90.39491,38.81394,134],[-90.39494,38.81396,134],[-90.39496,38.81398,134],[-90.39499,38.81399,134],[-90.39502,38.81401,135],[-90.39506,38.81401,135]],[[-90.3926,38.81363,138],[-90.39258,38.81365,138],[-90.39256,38.81369,138],[-90.39254,38.81372,138],[-90.39253,38.81376,138],[-90.39252,38.81379,138],[-90.3925,38.81382,138],[-90.39248,38.81385,137],[-90.39247,38.81388,137],[-90.39246,38.8139,137],[-90.39242,38.81392,138],[-90.39241,38.81396,140],[-90.3924,38.81399,141],[-90.39238,38.81403,143],[-90.39237,38.81405,144],[-90.39235,38.81407,145],[-90.39232,38.8141,146],[-90.39229,38.81411,147],[-90.39227,38.81415,149],[-90.39227,38.81418,151],[-90.39229,38.81421,151],[-90.39232,38.81424,151],[-90.39235,38.81426,152],[-90.39238,38.81427,152],[-90.39241,38.8143,152],[-90.39245,38.81431,153],[-90.39249,38.81432,153],[-90.39254,38.81434,153],[-90.39257,38.81436,153],[-90.3926,38.81437,153],[-90.39264,38.81438,153],[-90.39268,38.8144,153],[-90.39271,38.81443,153],[-90.39274,38.81445,153],[-90.39277,38.81447,153],[-90.3928,38.8145,152],[-90.39283,38.81451,151],[-90.39286,38.81454,150],[-90.39289,38.81457,150],[-90.39293,38.8146,149],[-90.39296,38.81463,148],[-90.39297,38.81466,148],[-90.39299,38.81469,147],[-90.393,38.81472,147],[-90.39302,38.81475,146],[-90.39302,38.81479,147],[-90.39301,38.81482,147],[-90.39301,38.81485,147],[-90.393,38.81488,147],[-90.39301,38.81491,147],[-90.39303,38.81494,147],[-90.39305,38.81497,147],[-90.39306,38.815,147],[-90.39309,38.81503,147],[-90.3931,38.81506,146],[-90.39312,38.81508,145],[-90.39315,38.81511,145],[-90.39318,38.81514,144],[-90.39319,38.81517,143],[-90.39319,38.8152,143],[-90.39318,38.81523,143],[-90.39316,38.81527,143],[-90.39313,38.8153,143],[-90.3931,38.81532,143],[-90.39307,38.81534,143],[-90.39306,38.81537,142],[-90.39303,38.81539,143],[-90.393,38.81541,143],[-90.39296,38.81543,143],[-90.39291,38.81545,144],[-90.39287,38.81546,145],[-90.39283,38.81548,145],[-90.3928,38.8155,146],[-90.39277,38.81547,147],[-90.39275,38.8155,147],[-90.39274,38.81553,147],[-90.39271,38.81555,147],[-90.39268,38.81557,148],[-90.39266,38.8156,148],[-90.39263,38.81562,149],[-90.39261,38.81565,149],[-90.39259,38.81568,149],[-90.3926,38.81571,148],[-90.39262,38.81574,147],[-90.39263,38.81577,146],[-90.39265,38.81581,144],[-90.39265,38.81584,144],[-90.39265,38.81587,144],[-90.39265,38.8159,144],[-90.39265,38.81593,144],[-90.39265,38.81596,144],[-90.39266,38.816,143],[-90.39265,38.81603,144],[-90.39264,38.81606,144],[-90.39262,38.81609,145],[-90.39261,38.81612,145],[-90.39257,38.81614,146],[-90.39253,38.81617,146],[-90.39249,38.81618,147],[-90.39246,38.81619,148],[-90.39242,38.81621,149],[-90.3924,38.81624,148],[-90.39237,38.81627,148],[-90.39235,38.81629,148],[-90.39233,38.81632,148],[-90.39231,38.81634,148],[-90.3923,38.81637,147],[-90.3923,38.8164,147],[-90.39229,38.81643,147],[-90.39227,38.81646,147],[-90.39225,38.8165,147],[-90.39223,38.81653,147],[-90.39221,38.81656,147],[-90.39218,38.81659,147],[-90.39215,38.81661,148],[-90.39213,38.81664,148],[-90.3921,38.81667,148],[-90.39208,38.81669,148],[-90.39205,38.81671,148],[-90.39202,38.81673,149],[-90.39201,38.81675,149],[-90.392,38.81678,149],[-90.39197,38.81681,149],[-90.39193,38.81684,149],[-90.3919,38.81685,149],[-90.39187,38.81687,149],[-90.39184,38.8169,149],[-90.39182,38.81693,148],[-90.39179,38.81696,147],[-90.39176,38.81697,147],[-90.39172,38.81699,146],[-90.39168,38.81701,145],[-90.39165,38.81703,144],[-90.39162,38.81705,144],[-90.39157,38.81706,145],[-90.39153,38.81707,145],[-90.39149,38.81708,145],[-90.39145,38.8171,145],[-90.39142,38.81712,144],[-90.39139,38.81714,144],[-90.39136,38.81716,144],[-90.39133,38.81718,143],[-90.39129,38.81719,144],[-90.39126,38.8172,144],[-90.3912,38.81721,144],[-90.39117,38.81723,144],[-90.39114,38.81725,144],[-90.39111,38.81727,144],[-90.39108,38.81729,144],[-90.39106,38.81732,144],[-90.39104,38.81735,143],[-90.39101,38.81737,143],[-90.39099,38.8174,143],[-90.39096,38.81742,142],[-90.39095,38.81745,142],[-90.39093,38.81748,141],[-90.3909,38.8175,141],[-90.39086,38.8175,141],[-90.39082,38.81751,141],[-90.39079,38.81752,142],[-90.39076,38.8175,143],[-90.39072,38.81748,144],[-90.39068,38.81748,144],[-90.39063,38.81749,145],[-90.3906,38.81751,145],[-90.39056,38.81754,145],[-90.39054,38.81756,144],[-90.39053,38.8176,144],[-90.39052,38.81763,143],[-90.39048,38.81764,143],[-90.39044,38.81767,143],[-90.39041,38.81769,143],[-90.39037,38.81771,143],[-90.39034,38.81771,143],[-90.3903,38.81772,144],[-90.39026,38.81774,144],[-90.39023,38.81776,144],[-90.39021,38.81779,144],[-90.39019,38.81781,144],[-90.39016,38.81783,144],[-90.39013,38.81785,144],[-90.3901,38.81786,144],[-90.39006,38.81787,145],[-90.39002,38.81788,145],[-90.38998,38.81789,146],[-90.38995,38.8179,146],[-90.38991,38.81791,146],[-90.38988,38.81792,146],[-90.38983,38.81793,147],[-90.3898,38.81794,147],[-90.38975,38.81794,148],[-90.38971,38.81794,148],[-90.38967,38.81796,148],[-90.38964,38.81798,148],[-90.38961,38.818,147],[-90.38957,38.81802,147],[-90.38954,38.81803,147],[-90.38949,38.81804,147],[-90.38944,38.81805,147],[-90.3894,38.81805,147],[-90.38935,38.81804,148],[-90.38931,38.81803,149],[-90.38927,38.81804,149],[-90.38923,38.81804,149],[-90.38918,38.81804,150],[-90.38915,38.81804,150],[-90.38912,38.81805,151],[-90.38909,38.81807,151],[-90.38908,38.81811,150],[-90.38906,38.81814,149],[-90.38902,38.81814,150],[-90.389,38.81812,151],[-90.389,38.81809,152],[-90.38898,38.81806,154],[-90.38894,38.81808,154],[-90.3889,38.8181,154],[-90.38887,38.81812,154],[-90.38883,38.81812,155],[-90.38879,38.81812,156],[-90.38875,38.81812,157],[-90.3887,38.81814,157],[-90.38866,38.81815,157],[-90.38862,38.81815,158],[-90.38858,38.81816,158],[-90.38857,38.8182,156],[-90.38855,38.81823,155],[-90.38853,38.81826,153],[-90.38851,38.81829,152],[-90.38848,38.81832,150],[-90.38845,38.81833,150],[-90.38843,38.81836,148],[-90.38841,38.81839,147],[-90.38841,38.81842,146],[-90.3884,38.81846,144],[-90.3884,38.81848,143],[-90.38839,38.81852,141],[-90.38837,38.81855,140],[-90.38834,38.81858,139],[-90.38831,38.8186,138],[-90.38828,38.81862,138],[-90.38824,38.81864,139],[-90.38821,38.81866,139],[-90.38818,38.81867,139],[-90.38814,38.81868,140],[-90.38811,38.8187,140],[-90.38808,38.81871,140],[-90.38804,38.81873,140],[-90.388,38.81874,141],[-90.38796,38.81876,141],[-90.38792,38.81878,141],[-90.38789,38.81881,141],[-90.38785,38.81883,142],[-90.38782,38.81884,142],[-90.38779,38.81886,142],[-90.38774,38.81887,142],[-90.3877,38.81888,142],[-90.38765,38.8189,141],[-90.38761,38.81891,141],[-90.38758,38.81892,141],[-90.38755,38.81894,140],[-90.38753,38.81897,139],[-90.3875,38.81901,138],[-90.38749,38.81905,136],[-90.38748,38.81907,136],[-90.38745,38.8191,135],[-90.38742,38.81911,134],[-90.38737,38.81912,134],[-90.38733,38.81914,133],[-90.38729,38.81916,132],[-90.38724,38.81918,132],[-90.38721,38.81919,132],[-90.38718,38.81921,132],[-90.38715,38.81923,132],[-90.38712,38.81926,132],[-90.38709,38.81928,132],[-90.38706,38.8193,132],[-90.38701,38.81931,132],[-90.38697,38.81932,132],[-90.38693,38.81934,132],[-90.38689,38.81936,132],[-90.38685,38.81937,132],[-90.38681,38.81939,132],[-90.38679,38.81942,132],[-90.38676,38.81944,132],[-90.38673,38.81946,131],[-90.3867,38.81947,131],[-90.38666,38.81949,131],[-90.38663,38.81951,131],[-90.3866,38.81952,131],[-90.38656,38.81952,131],[-90.38651,38.81954,131],[-90.38648,38.81955,131],[-90.38645,38.81957,131],[-90.38641,38.81959,131],[-90.38637,38.8196,131],[-90.38633,38.8196,131],[-90.38629,38.81961,132],[-90.38625,38.81962,132],[-90.38621,38.81963,132],[-90.38617,38.81965,132],[-90.38613,38.81965,132],[-90.38609,38.81965,133],[-90.38605,38.81965,133],[-90.38601,38.81966,133],[-90.38596,38.81966,133],[-90.38592,38.81966,133],[-90.38592,38.81969,132],[-90.38595,38.81971,131],[-90.38593,38.81969,132],[-90.38588,38.81968,132],[-90.38592,38.81966,133],[-90.38595,38.81965,133],[-90.38599,38.81964,133],[-90.38602,38.81964,133],[-90.38606,38.81962,134],[-90.3861,38.81962,134],[-90.38614,38.81962,133],[-90.38617,38.81961,133],[-90.38621,38.8196,133],[-90.38625,38.81959,132],[-90.38629,38.81959,132],[-90.38632,38.81957,132],[-90.38636,38.81957,131],[-90.3864,38.81956,131],[-90.38645,38.81956,131],[-90.38648,38.81955,131],[-90.38652,38.81953,131],[-90.38656,38.81952,131],[-90.3866,38.81951,131],[-90.38663,38.8195,131],[-90.38667,38.81948,131],[-90.38671,38.81948,131],[-90.38674,38.81947,131],[-90.38677,38.81945,131],[-90.3868,38.81942,132],[-90.38682,38.8194,132],[-90.38684,38.81938,132],[-90.38688,38.81937,132],[-90.38692,38.81935,132],[-90.38695,38.81933,132],[-90.38699,38.8193,132],[-90.38703,38.8193,132],[-90.38707,38.81929,132],[-90.3871,38.81927,132],[-90.38713,38.81926,132],[-90.38716,38.81924,132],[-90.38718,38.81921,132],[-90.38722,38.8192,132],[-90.38726,38.81918,132],[-90.38729,38.81917,132],[-90.38733,38.81915,133],[-90.38738,38.81913,133],[-90.38741,38.81911,134],[-90.38743,38.81907,136],[-90.38745,38.81905,136],[-90.38748,38.81902,137],[-90.3875,38.819,138],[-90.38752,38.81897,139],[-90.38755,38.81894,140],[-90.38759,38.81891,141],[-90.38762,38.8189,141],[-90.38767,38.81889,141],[-90.38772,38.81887,142],[-90.38776,38.81885,142],[-90.3878,38.81884,142],[-90.38784,38.81882,142],[-90.38788,38.8188,142],[-90.38791,38.81878,141],[-90.38794,38.81877,141],[-90.38798,38.81875,141],[-90.38803,38.81873,141],[-90.38806,38.81872,140],[-90.3881,38.8187,140],[-90.38814,38.81867,140],[-90.38817,38.81865,140],[-90.38821,38.81864,139],[-90.38826,38.81862,139],[-90.38829,38.8186,139],[-90.38832,38.81858,139],[-90.38835,38.81856,140],[-90.38836,38.81853,141],[-90.38836,38.8185,142],[-90.38837,38.81847,144],[-90.38838,38.81844,145],[-90.38838,38.81841,146],[-90.38839,38.81837,148],[-90.38841,38.81834,149],[-90.38844,38.81832,150],[-90.38847,38.81829,152],[-90.3885,38.81826,153],[-90.38852,38.81824,154],[-90.38854,38.8182,156],[-90.38855,38.81818,157],[-90.38858,38.81814,159],[-90.38861,38.81813,159],[-90.38865,38.81812,159],[-90.38869,38.81811,158],[-90.38873,38.8181,158],[-90.38877,38.81808,158],[-90.38881,38.81807,158],[-90.38886,38.81808,156],[-90.3889,38.81808,155],[-90.38894,38.81809,154],[-90.38898,38.8181,153],[-90.38901,38.81809,152],[-90.38904,38.81807,152],[-90.38908,38.81807,151],[-90.38912,38.81806,150],[-90.38913,38.81803,151],[-90.38917,38.81801,151],[-90.38921,38.81802,150],[-90.38925,38.81803,149],[-90.38929,38.81803,149],[-90.38933,38.81801,149],[-90.38937,38.81801,148],[-90.3894,38.81801,148],[-90.38945,38.818,148],[-90.38949,38.81799,148],[-90.38953,38.81798,148],[-90.38957,38.81797,148],[-90.38961,38.81796,148],[-90.38964,38.81794,148],[-90.38969,38.81792,149],[-90.38973,38.81792,148],[-90.38977,38.81792,148],[-90.38981,38.81791,148],[-90.38985,38.81791,147],[-90.38989,38.8179,147],[-90.38994,38.81791,146],[-90.38999,38.81791,145],[-90.39003,38.81791,145],[-90.39008,38.81791,144],[-90.39012,38.81791,143],[-90.3901,38.81788,144],[-90.39009,38.81785,145],[-90.39011,38.81782,145],[-90.39015,38.8178,144],[-90.39018,38.81778,144],[-90.39022,38.81776,144],[-90.39026,38.81774,144],[-90.39029,38.81773,143],[-90.39033,38.81771,143],[-90.39036,38.81768,144],[-90.39038,38.81765,144],[-90.3904,38.81763,144],[-90.39041,38.81759,145],[-90.3904,38.81756,146],[-90.3904,38.81753,146],[-90.39037,38.81751,147],[-90.39035,38.81749,148],[-90.39033,38.81746,149],[-90.39031,38.81749,148],[-90.39034,38.8175,148],[-90.39038,38.8175,147],[-90.3904,38.81753,146],[-90.39036,38.81753,147],[-90.39032,38.81752,148],[-90.3903,38.8175,148],[-90.39028,38.81748,149],[-90.39024,38.81747,150],[-90.39022,38.81745,150],[-90.39021,38.81742,151],[-90.3902,38.8174,152],[-90.39016,38.81739,153],[-90.39013,38.81737,153],[-90.3901,38.81735,154],[-90.39008,38.81732,155],[-90.39006,38.8173,156],[-90.39006,38.81726,156],[-90.39006,38.81722,157],[-90.39004,38.81719,158],[-90.39002,38.81716,159],[-90.38999,38.81715,159],[-90.38997,38.81711,161],[-90.38998,38.81708,161],[-90.38999,38.81706,162],[-90.38998,38.81703,162],[-90.38995,38.817,163],[-90.38992,38.81698,164],[-90.38991,38.81695,164],[-90.38991,38.81693,164],[-90.38989,38.8169,165],[-90.38985,38.81688,165],[-90.38983,38.81686,165],[-90.38979,38.81683,165],[-90.38977,38.81681,166],[-90.38974,38.81679,166],[-90.38971,38.81677,166],[-90.38969,38.81675,166],[-90.38968,38.81672,167],[-90.38965,38.81668,167],[-90.38964,38.81665,167],[-90.38963,38.81661,168],[-90.38962,38.81658,168],[-90.3896,38.81655,168],[-90.38958,38.81652,168],[-90.38956,38.81649,168],[-90.38955,38.81645,168],[-90.38953,38.81642,169],[-90.38954,38.81639,169],[-90.38955,38.81636,169],[-90.38957,38.81634,169],[-90.38961,38.81632,170],[-90.38963,38.8163,170],[-90.38964,38.81627,171],[-90.38962,38.81625,171],[-90.38961,38.81622,171],[-90.38959,38.8162,171],[-90.38956,38.81617,171],[-90.38955,38.81614,172],[-90.38952,38.81612,172],[-90.38948,38.81611,172],[-90.38945,38.81609,172],[-90.38944,38.81606,172],[-90.38942,38.81603,172],[-90.38939,38.81602,172],[-90.38936,38.816,172],[-90.38935,38.81597,173],[-90.38934,38.81594,173],[-90.38932,38.81591,174],[-90.3893,38.81587,174],[-90.38929,38.81584,174],[-90.38927,38.81581,175],[-90.38926,38.81579,176],[-90.38924,38.81576,176],[-90.38923,38.81573,177],[-90.38922,38.8157,178],[-90.38921,38.81566,179],[-90.3892,38.81564,180],[-90.38918,38.81561,181],[-90.38917,38.81558,182],[-90.38914,38.81555,183],[-90.3891,38.81554,183],[-90.38907,38.81552,183],[-90.38903,38.81551,183],[-90.38901,38.81549,183],[-90.38898,38.81547,184],[-90.38897,38.81545,184],[-90.38894,38.81541,185],[-90.38892,38.81539,185],[-90.38891,38.81536,185],[-90.38891,38.81533,186],[-90.3889,38.81529,186],[-90.38889,38.81527,187],[-90.38888,38.81524,187],[-90.38891,38.81522,187],[-90.38892,38.81518,187],[-90.38892,38.81514,187],[-90.38891,38.81511,187],[-90.3889,38.81507,187],[-90.3889,38.81504,187],[-90.38889,38.81501,187],[-90.38892,38.81499,188],[-90.38896,38.81498,188],[-90.38898,38.81496,188],[-90.38898,38.81492,188],[-90.38899,38.81488,188],[-90.38896,38.81486,188],[-90.38893,38.81483,188],[-90.38889,38.81485,188],[-90.38885,38.81485,188],[-90.38881,38.81484,188],[-90.38877,38.81481,188],[-90.38875,38.81478,189],[-90.38871,38.81476,189],[-90.38867,38.81475,189],[-90.38864,38.81475,189],[-90.38861,38.81473,189],[-90.38864,38.81473,189],[-90.38867,38.81475,189],[-90.38863,38.81477,189],[-90.38859,38.81479,189],[-90.38856,38.81481,190],[-90.38851,38.81482,190],[-90.38847,38.81481,191],[-90.38843,38.81482,191],[-90.3884,38.81482,191],[-90.38835,38.81484,191],[-90.38831,38.81484,192],[-90.38827,38.81484,192],[-90.38824,38.81483,193],[-90.3882,38.81483,193],[-90.38816,38.81483,193],[-90.38813,38.81484,193],[-90.38809,38.81485,193],[-90.38806,38.81487,193],[-90.38803,38.81488,193],[-90.38799,38.81488,194],[-90.38795,38.81488,194],[-90.38791,38.81486,195],[-90.38787,38.81485,195],[-90.38783,38.81484,196],[-90.38779,38.81484,196],[-90.38776,38.81484,197],[-90.38772,38.81483,197],[-90.38769,38.81481,198],[-90.38765,38.81479,198],[-90.38762,38.81481,198],[-90.38758,38.81481,199],[-90.38755,38.81478,199],[-90.38755,38.81475,200],[-90.38755,38.81472,200],[-90.38751,38.8147,200],[-90.38747,38.8147,201],[-90.38744,38.8147,201],[-90.3874,38.81472,201],[-90.38736,38.81473,201],[-90.38732,38.81473,202],[-90.38728,38.81473,202],[-90.38726,38.81471,202],[-90.38724,38.81468,202],[-90.38721,38.81466,203],[-90.38717,38.81464,203],[-90.38713,38.81464,203],[-90.3871,38.81463,203],[-90.38706,38.81463,203],[-90.38702,38.81465,203],[-90.38698,38.81465,203],[-90.38695,38.81462,203],[-90.38692,38.81459,203],[-90.3869,38.81456,203],[-90.38689,38.81454,203],[-90.38685,38.81452,203],[-90.38682,38.81455,203],[-90.38678,38.81455,203],[-90.38675,38.81453,203],[-90.38671,38.81451,203],[-90.38666,38.8145,203],[-90.38664,38.81448,203],[-90.3866,38.81445,203],[-90.38657,38.81442,202],[-90.38656,38.81439,202],[-90.38654,38.81436,202],[-90.38653,38.81433,201],[-90.38651,38.81429,201],[-90.3865,38.81425,200],[-90.38648,38.81422,200],[-90.38646,38.81419,199],[-90.38647,38.81416,199],[-90.38651,38.81415,199],[-90.38654,38.81414,199],[-90.38659,38.81413,200],[-90.38662,38.81413,200],[-90.38667,38.81413,200],[-90.38672,38.81413,200],[-90.38677,38.81411,200],[-90.38682,38.81411,200],[-90.38686,38.81411,201],[-90.3869,38.8141,201],[-90.38694,38.81409,201],[-90.38699,38.81409,201],[-90.38703,38.81409,201],[-90.38708,38.81408,201],[-90.38712,38.81407,200],[-90.38716,38.81406,200],[-90.38721,38.81405,200],[-90.38725,38.81404,200],[-90.38728,38.81403,200],[-90.38732,38.81403,200],[-90.38737,38.81402,200],[-90.38741,38.81402,200],[-90.38745,38.81402,200],[-90.3875,38.81401,200],[-90.38754,38.81401,200],[-90.38759,38.81401,200],[-90.38763,38.814,200],[-90.38767,38.81399,200],[-90.3877,38.81398,200],[-90.38774,38.81397,200],[-90.38779,38.81397,199],[-90.38784,38.81397,199],[-90.38788,38.81396,199],[-90.38792,38.81396,199],[-90.38796,38.81396,199],[-90.38801,38.81395,199],[-90.38805,38.81395,199],[-90.38809,38.81395,199],[-90.38814,38.81394,198],[-90.38818,38.81394,198],[-90.38821,38.81394,198],[-90.38825,38.81394,198],[-90.38829,38.81394,198],[-90.38832,38.81395,198],[-90.38836,38.81397,198],[-90.3884,38.81399,197],[-90.38844,38.81401,197],[-90.38849,38.81403,197],[-90.38853,38.81405,196],[-90.38858,38.81407,196],[-90.38861,38.81408,196],[-90.38864,38.8141,196],[-90.38867,38.81411,195],[-90.38871,38.81411,195],[-90.38876,38.81412,194],[-90.38879,38.81412,194],[-90.38883,38.81413,193],[-90.38887,38.81413,192],[-90.38891,38.81414,192],[-90.38894,38.81417,192],[-90.38899,38.81417,192],[-90.38903,38.81418,192],[-90.38907,38.81419,192],[-90.3891,38.8142,192],[-90.38915,38.8142,192],[-90.3892,38.81422,192],[-90.38922,38.81423,191],[-90.38924,38.81426,191],[-90.38927,38.81428,191],[-90.3893,38.81429,190],[-90.38934,38.81432,190],[-90.38938,38.81434,189],[-90.38942,38.81436,189],[-90.38945,38.81437,189],[-90.38948,38.81439,189],[-90.38951,38.81441,189],[-90.38954,38.81444,189],[-90.38955,38.81447,189],[-90.38957,38.8145,189],[-90.38957,38.81454,190],[-90.38957,38.81457,190],[-90.38956,38.8146,190],[-90.38955,38.81463,190],[-90.38955,38.81465,190],[-90.38954,38.81469,191],[-90.38952,38.81473,191],[-90.38952,38.81476,190],[-90.38953,38.81479,190],[-90.38954,38.81483,190],[-90.38954,38.81486,189],[-90.38954,38.81489,189],[-90.38957,38.81491,189],[-90.3896,38.81493,189],[-90.3896,38.81496,188],[-90.3896,38.81499,188],[-90.38962,38.81502,188],[-90.38965,38.81504,188],[-90.38968,38.81507,187],[-90.38971,38.81509,187],[-90.38975,38.81511,186],[-90.38979,38.81513,186],[-90.38981,38.81516,185],[-90.38983,38.81518,184],[-90.38987,38.81519,184],[-90.3899,38.81521,184],[-90.38992,38.81523,183],[-90.38996,38.81525,182],[-90.39,38.81526,182],[-90.39003,38.81528,181],[-90.39006,38.8153,181],[-90.39008,38.81532,181],[-90.39011,38.81534,180],[-90.39016,38.81534,181],[-90.39019,38.81536,180],[-90.39021,38.81538,180],[-90.39026,38.8154,180],[-90.39029,38.81541,180],[-90.39033,38.81542,180],[-90.39036,38.81542,180],[-90.3904,38.81542,181],[-90.39045,38.81543,181],[-90.39049,38.81545,181],[-90.39052,38.81547,182],[-90.39055,38.81548,182],[-90.39059,38.81548,182],[-90.39063,38.81549,183],[-90.39068,38.8155,183],[-90.39072,38.81551,184],[-90.39076,38.81552,184],[-90.3908,38.81551,184],[-90.39085,38.81551,185],[-90.39089,38.8155,185],[-90.39093,38.8155,185],[-90.39098,38.81548,185],[-90.39102,38.81546,186],[-90.39107,38.81545,186],[-90.3911,38.81544,186],[-90.39115,38.81542,186],[-90.39119,38.81541,186],[-90.39124,38.81542,186],[-90.39128,38.81543,185],[-90.39132,38.81544,185],[-90.39136,38.81544,185],[-90.3914,38.81545,185],[-90.39144,38.81547,184],[-90.39148,38.81548,184],[-90.39151,38.8155,183],[-90.39154,38.81553,183],[-90.39157,38.81556,183],[-90.39158,38.81559,183],[-90.3916,38.81562,182],[-90.39162,38.81564,182],[-90.39166,38.81567,181],[-90.39169,38.81569,180],[-90.39174,38.81571,179],[-90.39177,38.81571,178],[-90.39182,38.81571,177],[-90.39185,38.81569,177],[-90.3919,38.81569,176],[-90.39194,38.81569,175],[-90.39196,38.81567,174],[-90.39195,38.81565,175],[-90.39196,38.81562,175],[-90.39198,38.81559,175],[-90.39198,38.81556,176],[-90.392,38.81553,175],[-90.39201,38.81549,174],[-90.39201,38.81546,174],[-90.39199,38.81543,175],[-90.39198,38.8154,175],[-90.39195,38.81537,176],[-90.39193,38.81534,176],[-90.39193,38.8153,176],[-90.39195,38.81527,175],[-90.39195,38.81524,174],[-90.39196,38.81521,173],[-90.39197,38.81516,171],[-90.39197,38.81514,170],[-90.39197,38.81511,169],[-90.39195,38.81507,168],[-90.39194,38.81503,167],[-90.39193,38.81501,166],[-90.39193,38.81498,166],[-90.39192,38.81495,166],[-90.39191,38.81492,166],[-90.39191,38.81489,166],[-90.39194,38.81487,164],[-90.39194,38.81484,164],[-90.39192,38.81481,164],[-90.39191,38.81478,164],[-90.39191,38.81474,164],[-90.39189,38.81471,164],[-90.39189,38.81468,163],[-90.39189,38.81465,163],[-90.39186,38.81462,163],[-90.39185,38.81459,163],[-90.39184,38.81455,163],[-90.39182,38.81453,163],[-90.39181,38.8145,163],[-90.39181,38.81446,163],[-90.39181,38.81442,162],[-90.39181,38.81439,161],[-90.3918,38.81436,160],[-90.39179,38.81434,160],[-90.39176,38.81436,161],[-90.39175,38.81438,162],[-90.39178,38.81436,161],[-90.39179,38.81433,160],[-90.39179,38.8143,159],[-90.3918,38.81426,158],[-90.3918,38.81424,157],[-90.39182,38.81421,156],[-90.39186,38.81421,155],[-90.39188,38.81419,154],[-90.39189,38.81417,153],[-90.39193,38.81415,151],[-90.39197,38.81415,151],[-90.39201,38.81416,151],[-90.39205,38.81414,150],[-90.39208,38.81412,148],[-90.39213,38.81411,147],[-90.39217,38.81411,147],[-90.39221,38.8141,146],[-90.39224,38.81408,145],[-90.39228,38.81407,145],[-90.39232,38.81404,143],[-90.39233,38.81401,141],[-90.39234,38.81398,140],[-90.39237,38.81396,139],[-90.39238,38.81393,138],[-90.3924,38.8139,136],[-90.39243,38.81388,136],[-90.39247,38.81388,137],[-90.39249,38.81386,137],[-90.3925,38.81382,138],[-90.39252,38.81379,138],[-90.39253,38.81376,138],[-90.39255,38.81374,138],[-90.39255,38.8137,138],[-90.39255,38.81367,138],[-90.39256,38.81364,138],[-90.39259,38.81361,138],[-90.39261,38.81359,138],[-90.39263,38.81355,137],[-90.39266,38.81352,137],[-90.39266,38.81348,137],[-90.39266,38.81345,136],[-90.39262,38.81343,137],[-90.39259,38.81341,136],[-90.39256,38.8134,137],[-90.39253,38.81338,137],[-90.39249,38.81337,137],[-90.39246,38.81336,137],[-90.39242,38.81334,137],[-90.39239,38.81333,137],[-90.39236,38.8133,137],[-90.39234,38.81328,137],[-90.3923,38.81326,137],[-90.39227,38.81323,137],[-90.39224,38.81321,137],[-90.39221,38.81318,137],[-90.39218,38.81316,138],[-90.39213,38.81315,138],[-90.3921,38.81314,138],[-90.39208,38.81311,138],[-90.39205,38.81308,138],[-90.39202,38.81306,138],[-90.39198,38.81303,138],[-90.39195,38.81301,138],[-90.39193,38.81298,138],[-90.39188,38.81296,138],[-90.39185,38.81295,138],[-90.39181,38.81292,139],[-90.39179,38.81291,139],[-90.39175,38.81289,139],[-90.39171,38.81287,139],[-90.39167,38.81285,140],[-90.39164,38.81284,140],[-90.39159,38.81282,140],[-90.39156,38.81281,141],[-90.39151,38.81281,141],[-90.39148,38.8128,142],[-90.3915,38.81278,141],[-90.39152,38.81275,140],[-90.39152,38.81271,139],[-90.39152,38.81269,139],[-90.39153,38.81265,138],[-90.39155,38.81262,137],[-90.39157,38.8126,137],[-90.39159,38.81257,136],[-90.39161,38.81254,135],[-90.39164,38.8125,135],[-90.39166,38.81247,135],[-90.39169,38.81244,135],[-90.39172,38.81241,135],[-90.39174,38.81238,136],[-90.39176,38.81236,136],[-90.39177,38.81233,136],[-90.39178,38.8123,136],[-90.3918,38.81228,137],[-90.39182,38.81225,137],[-90.39185,38.81222,137],[-90.39187,38.8122,137],[-90.3919,38.81219,137],[-90.39193,38.81217,137],[-90.39198,38.81216,137],[-90.39202,38.81216,137],[-90.39206,38.81217,136],[-90.39209,38.81217,136],[-90.39213,38.81218,136],[-90.39217,38.81219,136],[-90.39221,38.8122,136],[-90.39225,38.8122,135],[-90.39229,38.81221,135],[-90.39233,38.81224,135],[-90.39236,38.81226,135],[-90.3924,38.81229,135],[-90.39242,38.81231,135],[-90.39245,38.81233,135],[-90.39247,38.81235,135],[-90.3925,38.81237,135],[-90.39253,38.81239,135],[-90.39255,38.81241,135],[-90.39258,38.81243,135],[-90.39261,38.81245,135],[-90.39264,38.81248,134],[-90.39267,38.81251,134],[-90.39271,38.81253,134],[-90.39274,38.81255,134],[-90.39277,38.81256,134],[-90.3928,38.81259,134],[-90.39284,38.81262,134],[-90.39286,38.81264,134],[-90.3929,38.81266,134],[-90.39293,38.81267,134],[-90.39296,38.81269,134],[-90.39298,38.81271,134],[-90.39301,38.81274,134],[-90.39303,38.81275,134],[-90.39308,38.81277,134],[-90.39311,38.81278,134],[-90.39315,38.81279,134],[-90.3932,38.81281,134],[-90.39324,38.81282,134],[-90.39327,38.81285,134],[-90.39331,38.81288,134],[-90.39335,38.8129,134],[-90.39338,38.81291,133],[-90.39343,38.81291,133],[-90.39347,38.8129,133],[-90.3935,38.81287,133],[-90.39353,38.81285,133],[-90.39354,38.81281,134],[-90.39354,38.81278,134],[-90.39354,38.81281,134],[-90.39359,38.8128,133],[-90.39362,38.8128,133],[-90.39366,38.81279,133],[-90.3937,38.81276,134],[-90.39372,38.81274,134],[-90.39375,38.81272,134],[-90.39379,38.81269,134],[-90.39382,38.81266,135],[-90.39386,38.81264,135],[-90.39389,38.81261,135],[-90.39393,38.81259,135],[-90.39397,38.81256,136],[-90.394,38.81253,136],[-90.39403,38.8125,137],[-90.39406,38.81247,137],[-90.3941,38.81244,137],[-90.39413,38.81242,137],[-90.39417,38.81239,137],[-90.3942,38.81236,137],[-90.39422,38.81234,137],[-90.39425,38.81231,137],[-90.39428,38.81227,137],[-90.39431,38.81224,137],[-90.39434,38.81221,138],[-90.39438,38.81219,138],[-90.39441,38.81217,138],[-90.39444,38.81215,138],[-90.39447,38.81213,137],[-90.3945,38.8121,137],[-90.39453,38.81208,137],[-90.39455,38.81206,137],[-90.39458,38.81203,137],[-90.39462,38.81201,137],[-90.39465,38.81198,137],[-90.39469,38.81196,137],[-90.39472,38.81194,136],[-90.39474,38.81192,136],[-90.39477,38.81189,136],[-90.39481,38.81186,135],[-90.39483,38.81183,135],[-90.39486,38.81181,134],[-90.39486,38.81178,134],[-90.3949,38.81175,134],[-90.39493,38.81175,133],[-90.39497,38.81175,133],[-90.39502,38.81176,133],[-90.39504,38.81174,133],[-90.39505,38.81171,133],[-90.39504,38.81168,133],[-90.39504,38.81164,132],[-90.39505,38.81161,132],[-90.39509,38.81159,132],[-90.39511,38.81158,132],[-90.3951,38.8116,132]]],
        "bbox": [
          -90.38588,
          38.81971,
          -90.39511,
          38.81158
        ]
      },
      "properties": {
        "name": "12.1.2023"
      }
    }
  ]
}