{
  "type": "FeatureCollection",
  "features": [
    {
      "type": "Feature",
      "geometry": {
        "type": "MultiLineString",
        "coordinates": [[[-90.39504,38.81159,132],[-90.39502,38.81162,132],[-90.39502,38.81164,132],[-90.39501,38.81167,133],[-90.39498,38.81169,133],[-90.39495,38.81171,133],[-90.39493,38.81173,133],[-90.3949,38.81175,134],[-90.39488,38.81177,134],[-90.39485,38.81179,134],[-90.39486,38.81176,134],[-90.39489,38.81173,133],[-90.39491,38.81171,133],[-90.39494,38.81169,133],[-90.39497,38.8117,133],[-90.395,38.81169,133],[-90.39497,38.81171,133],[-90.39494,38.81173,133],[-90.3949,38.81175,134],[-90.39487,38.81176,134],[-90.39484,38.81179,134],[-90.39481,38.81182,135],[-90.39479,38.81184,135],[-90.39476,38.81186,135],[-90.39473,38.81188,136],[-90.39471,38.8119,136],[-90.39468,38.81192,136],[-90.39466,38.81194,137],[-90.39464,38.81196,137],[-90.39461,38.81198,137],[-90.39458,38.812,137],[-90.39456,38.81202,137],[-90.39453,38.81205,137],[-90.39451,38.81207,137],[-90.39448,38.81209,137],[-90.39445,38.81212,137],[-90.39442,38.81214,138],[-90.39439,38.81217,138],[-90.39436,38.81219,138],[-90.39434,38.81221,138],[-90.39432,38.81223,137],[-90.39429,38.81226,137],[-90.39426,38.81228,137],[-90.39424,38.81229,137],[-90.39421,38.81231,137],[-90.39419,38.81234,137],[-90.39416,38.81236,137],[-90.39414,38.81238,137],[-90.39411,38.81241,137],[-90.39409,38.81243,137],[-90.39406,38.81245,137],[-90.39403,38.81247,137],[-90.39401,38.81249,137],[-90.39397,38.81251,136],[-90.39394,38.81254,136],[-90.39391,38.81256,136],[-90.39388,38.81258,136],[-90.39386,38.81259,135],[-90.39383,38.81262,135],[-90.3938,38.81264,135],[-90.39377,38.81266,135],[-90.39374,38.81268,134],[-90.39371,38.81271,134],[-90.39368,38.81273,134],[-90.39365,38.81275,134],[-90.39362,38.81277,134],[-90.39358,38.81279,134],[-90.39355,38.8128,134],[-90.39352,38.81282,134],[-90.39349,38.81284,133],[-90.39345,38.81285,134],[-90.39341,38.81287,134],[-90.39338,38.81289,134],[-90.39335,38.81291,134],[-90.39332,38.81292,133],[-90.39329,38.81295,133],[-90.39327,38.81297,133],[-90.39324,38.81299,133],[-90.39322,38.81301,133],[-90.39318,38.81304,133],[-90.39316,38.81306,132],[-90.39313,38.81309,132],[-90.39311,38.81311,132],[-90.39308,38.81313,132],[-90.39305,38.81315,133],[-90.39303,38.81317,133],[-90.393,38.8132,133],[-90.39297,38.81322,133],[-90.39294,38.81324,133],[-90.39291,38.81327,133],[-90.39288,38.81329,134],[-90.39285,38.81332,134],[-90.39282,38.81334,134],[-90.3928,38.81336,135],[-90.39277,38.81338,135],[-90.39275,38.81341,135],[-90.39273,38.81343,136],[-90.3927,38.81346,136],[-90.39268,38.81349,137],[-90.39266,38.81351,137],[-90.39264,38.81354,137],[-90.39262,38.81357,138],[-90.3926,38.8136,138],[-90.39259,38.81363,138],[-90.39258,38.81366,138],[-90.39256,38.81368,138],[-90.39254,38.81371,138],[-90.39252,38.81374,138],[-90.39251,38.81377,138],[-90.3925,38.81379,138],[-90.39247,38.81382,137],[-90.39244,38.81385,137],[-90.39242,38.81388,136],[-90.39241,38.8139,136],[-90.39239,38.81393,138],[-90.39236,38.81396,139],[-90.39234,38.81398,140],[-90.3923,38.81401,141],[-90.39228,38.81403,142],[-90.39226,38.81405,143],[-90.39226,38.81408,145],[-90.39227,38.81411,147],[-90.39229,38.81413,148],[-90.39231,38.81416,150],[-90.39234,38.81418,150],[-90.39237,38.8142,151],[-90.39241,38.81422,151],[-90.39244,38.81424,151],[-90.39247,38.81426,152],[-90.39251,38.81428,152],[-90.39255,38.81429,152],[-90.39258,38.81431,152],[-90.39261,38.81433,152],[-90.39264,38.81435,152],[-90.39266,38.81437,152],[-90.39268,38.81439,152],[-90.39271,38.81442,153],[-90.39274,38.81444,153],[-90.39277,38.81446,153],[-90.39281,38.81448,152],[-90.39285,38.81451,151],[-90.39287,38.81454,150],[-90.39289,38.81457,150],[-90.39291,38.8146,149],[-90.39293,38.81463,149],[-90.39295,38.81466,148],[-90.39296,38.81469,148],[-90.39297,38.81472,147],[-90.39298,38.81475,147],[-90.39298,38.81478,147],[-90.39299,38.81481,147],[-90.39299,38.81484,147],[-90.39299,38.81487,147],[-90.39301,38.8149,147],[-90.39304,38.81492,147],[-90.39306,38.81495,147],[-90.39308,38.81498,147],[-90.3931,38.81501,147],[-90.39311,38.81503,146],[-90.39313,38.81506,145],[-90.39315,38.81509,145],[-90.39316,38.81512,144],[-90.39316,38.81516,144],[-90.39315,38.81519,144],[-90.39315,38.81522,144],[-90.39313,38.81525,144],[-90.3931,38.81528,144],[-90.39307,38.8153,145],[-90.39303,38.81532,145],[-90.393,38.81533,145],[-90.39297,38.81535,145],[-90.39294,38.81536,146],[-90.3929,38.81537,147],[-90.39286,38.81539,147],[-90.39283,38.81541,147],[-90.3928,38.81544,147],[-90.39278,38.81546,147],[-90.39275,38.81548,148],[-90.39272,38.8155,148],[-90.39269,38.81552,149],[-90.39267,38.81555,149],[-90.39266,38.81558,149],[-90.39265,38.81561,149],[-90.39264,38.81564,148],[-90.39264,38.81567,148],[-90.39265,38.8157,147],[-90.39265,38.81574,146],[-90.39266,38.81578,144],[-90.39266,38.81581,144],[-90.39266,38.81584,143],[-90.39267,38.81587,143],[-90.39267,38.8159,143],[-90.39267,38.81593,143],[-90.39267,38.81596,143],[-90.39268,38.81599,143],[-90.39267,38.81601,143],[-90.39265,38.81604,144],[-90.39262,38.81606,145],[-90.39259,38.81608,145],[-90.39256,38.8161,146],[-90.39252,38.81611,148],[-90.39248,38.81612,149],[-90.39245,38.81614,150],[-90.39243,38.81617,149],[-90.39241,38.81619,149],[-90.39238,38.81621,150],[-90.39237,38.81624,149],[-90.39236,38.81627,149],[-90.39234,38.8163,148],[-90.39233,38.81633,148],[-90.39232,38.81636,147],[-90.3923,38.81638,147],[-90.39229,38.81641,147],[-90.39228,38.81644,147],[-90.39226,38.81646,147],[-90.39224,38.81649,147],[-90.39222,38.81652,147],[-90.39219,38.81654,148],[-90.39218,38.81657,147],[-90.39215,38.8166,148],[-90.39212,38.81662,148],[-90.39209,38.81664,148],[-90.39206,38.81666,149],[-90.39203,38.81668,149],[-90.39201,38.81671,149],[-90.39199,38.81674,149],[-90.39197,38.81677,149],[-90.39194,38.81679,150],[-90.39192,38.81681,150],[-90.3919,38.81684,149],[-90.39187,38.81686,149],[-90.39184,38.81688,149],[-90.39181,38.8169,149],[-90.39178,38.81692,148],[-90.39174,38.81694,148],[-90.39171,38.81695,147],[-90.39167,38.81696,147],[-90.39164,38.81698,147],[-90.39161,38.817,146],[-90.39157,38.81701,147],[-90.39154,38.81702,147],[-90.39152,38.81704,146],[-90.39149,38.81706,146],[-90.39146,38.81708,145],[-90.39142,38.8171,145],[-90.39139,38.81711,145],[-90.39135,38.81713,145],[-90.39132,38.81714,145],[-90.39128,38.81717,145],[-90.39124,38.81718,145],[-90.3912,38.81719,145],[-90.39116,38.81721,145],[-90.39113,38.81723,145],[-90.39111,38.81726,144],[-90.39109,38.81728,144],[-90.39106,38.8173,144],[-90.39103,38.81732,144],[-90.391,38.81733,145],[-90.39096,38.81735,145],[-90.39092,38.81736,145],[-90.39088,38.81737,145],[-90.39084,38.81738,145],[-90.39081,38.81739,145],[-90.39078,38.81741,145],[-90.39073,38.81743,145],[-90.3907,38.81744,145],[-90.39066,38.81745,146],[-90.39062,38.81746,146],[-90.39056,38.81745,147],[-90.39053,38.81744,148],[-90.3905,38.81742,149],[-90.39047,38.81744,148],[-90.39044,38.81745,148],[-90.3904,38.81745,149],[-90.39036,38.81744,149],[-90.39032,38.81745,149],[-90.39027,38.81745,150],[-90.39024,38.81743,151],[-90.39021,38.81741,152],[-90.39018,38.81739,152],[-90.39016,38.81737,153],[-90.39013,38.81735,154],[-90.39011,38.81732,155],[-90.39009,38.8173,155],[-90.39006,38.81728,156],[-90.39003,38.81725,157],[-90.39002,38.81722,158],[-90.39,38.81719,158],[-90.38998,38.81716,159],[-90.38997,38.81714,160],[-90.38996,38.81711,161],[-90.38997,38.81708,161],[-90.38997,38.81705,162],[-90.38995,38.81702,163],[-90.38994,38.81699,163],[-90.38992,38.81696,164],[-90.3899,38.81693,164],[-90.38988,38.8169,165],[-90.38985,38.81687,165],[-90.38984,38.81685,165],[-90.38984,38.81682,166],[-90.38981,38.8168,166],[-90.38977,38.81678,166],[-90.38973,38.81676,166],[-90.38971,38.81673,167],[-90.3897,38.8167,167],[-90.38968,38.81667,167],[-90.38966,38.81665,167],[-90.38965,38.81661,168],[-90.38965,38.81659,168],[-90.38963,38.81656,168],[-90.38961,38.81654,168],[-90.38958,38.81651,168],[-90.38957,38.81648,168],[-90.38955,38.81645,168],[-90.38953,38.81642,169],[-90.38953,38.81638,169],[-90.38954,38.81635,169],[-90.38954,38.81632,170],[-90.38955,38.81629,170],[-90.38958,38.81627,170],[-90.38958,38.81624,171],[-90.38958,38.81621,171],[-90.3896,38.81619,171],[-90.38963,38.81619,171],[-90.38966,38.8162,171],[-90.38969,38.81622,171],[-90.38972,38.81624,171],[-90.38975,38.81627,171],[-90.38977,38.81629,171],[-90.38981,38.81631,171],[-90.38984,38.81632,171],[-90.38988,38.81633,171],[-90.38991,38.81634,171],[-90.38995,38.81634,171],[-90.38999,38.81635,171],[-90.39003,38.81637,171],[-90.39007,38.81639,171],[-90.39009,38.81641,171],[-90.39012,38.81643,171],[-90.39016,38.81645,171],[-90.39018,38.81647,170],[-90.3902,38.8165,170],[-90.3902,38.81653,170],[-90.39021,38.81656,170],[-90.39024,38.81658,169],[-90.39027,38.8166,169],[-90.39029,38.81663,169],[-90.39031,38.81666,168],[-90.39032,38.81669,168],[-90.39034,38.81671,168],[-90.39037,38.81674,168],[-90.39039,38.81677,167],[-90.39042,38.8168,167],[-90.39044,38.81682,166],[-90.39047,38.81684,166],[-90.39051,38.81684,166],[-90.39055,38.81683,166],[-90.39058,38.81682,166],[-90.3906,38.8168,166],[-90.39063,38.81678,166],[-90.39067,38.81676,166],[-90.39071,38.81677,165],[-90.39075,38.81677,165],[-90.39079,38.81679,165],[-90.39083,38.81678,164],[-90.3908,38.81676,165],[-90.39083,38.81675,165],[-90.39085,38.81672,165],[-90.39086,38.8167,166],[-90.39088,38.81667,166],[-90.39092,38.81667,166],[-90.39095,38.81668,166],[-90.39099,38.8167,165],[-90.39102,38.81672,164],[-90.39104,38.81674,164],[-90.39108,38.81676,163],[-90.39111,38.81677,163],[-90.39115,38.81676,162],[-90.39119,38.81675,162],[-90.39122,38.81674,162],[-90.39126,38.81672,162],[-90.39129,38.8167,162],[-90.39131,38.81668,162],[-90.39133,38.81666,163],[-90.39136,38.81663,163],[-90.39139,38.81661,163],[-90.39142,38.8166,163],[-90.39144,38.81658,163],[-90.39146,38.81655,164],[-90.39143,38.81654,165],[-90.39146,38.81653,164],[-90.39149,38.81651,164],[-90.39152,38.81649,164],[-90.39154,38.81646,165],[-90.39156,38.81643,165],[-90.39158,38.8164,165],[-90.39161,38.81638,165],[-90.39164,38.81635,166],[-90.39166,38.81632,166],[-90.39167,38.81629,167],[-90.39168,38.81626,168],[-90.39169,38.81623,168],[-90.3917,38.8162,169],[-90.39171,38.81617,170],[-90.39171,38.81614,171],[-90.39172,38.81611,172],[-90.39173,38.81607,173],[-90.39174,38.81604,173],[-90.39175,38.81601,173],[-90.39176,38.81598,174],[-90.39176,38.81595,174],[-90.39176,38.81592,175],[-90.39177,38.81589,175],[-90.39177,38.81586,176],[-90.39177,38.81583,177],[-90.39176,38.81579,177],[-90.39175,38.81577,178],[-90.39175,38.81574,179],[-90.39173,38.81571,179],[-90.39171,38.81569,180],[-90.39169,38.81566,181],[-90.39166,38.81564,182],[-90.39163,38.81561,182],[-90.39159,38.81559,183],[-90.39157,38.81556,183],[-90.39155,38.81554,183],[-90.39153,38.81551,183],[-90.3915,38.81549,184],[-90.39147,38.81547,184],[-90.39143,38.81545,184],[-90.39141,38.81543,185],[-90.39139,38.8154,185],[-90.39135,38.8154,185],[-90.39131,38.8154,185],[-90.39128,38.8154,185],[-90.39124,38.8154,186],[-90.3912,38.81539,186],[-90.39116,38.81541,186],[-90.39111,38.81542,186],[-90.39108,38.81544,186],[-90.39104,38.81545,186],[-90.39099,38.81547,186],[-90.39094,38.81548,185],[-90.3909,38.81549,185],[-90.39087,38.81549,185],[-90.39083,38.8155,185],[-90.39078,38.81549,184],[-90.39075,38.81548,184],[-90.39069,38.81547,184],[-90.39065,38.81547,183],[-90.3906,38.81547,183],[-90.39057,38.81546,182],[-90.39053,38.81545,182],[-90.39049,38.81544,182],[-90.39046,38.81543,181],[-90.39042,38.81542,181],[-90.39039,38.81541,181],[-90.39036,38.81539,181],[-90.39031,38.81539,180],[-90.39026,38.81538,180],[-90.39023,38.81537,180],[-90.39019,38.81535,180],[-90.39016,38.81534,181],[-90.39012,38.81533,181],[-90.39008,38.81532,181],[-90.39003,38.81531,181],[-90.39,38.81529,181],[-90.38998,38.81526,182],[-90.38995,38.81525,182],[-90.38992,38.81523,183],[-90.38988,38.81521,184],[-90.38985,38.81518,184],[-90.38983,38.81516,185],[-90.3898,38.81514,185],[-90.38977,38.81512,186],[-90.38975,38.8151,186],[-90.38972,38.81507,187],[-90.38969,38.81506,187],[-90.38966,38.81503,188],[-90.38964,38.81501,188],[-90.38962,38.81498,188],[-90.3896,38.81495,189],[-90.38959,38.81492,189],[-90.38956,38.8149,189],[-90.38954,38.81488,189],[-90.38953,38.81485,189],[-90.38952,38.81482,190],[-90.38952,38.81479,190],[-90.38952,38.81476,190],[-90.38951,38.81473,191],[-90.3895,38.8147,191],[-90.3895,38.81467,190],[-90.38951,38.81464,190],[-90.38951,38.81462,190],[-90.38951,38.81458,190],[-90.3895,38.81454,190],[-90.3895,38.81451,190],[-90.38951,38.81448,189],[-90.3895,38.81445,189],[-90.38949,38.81442,189],[-90.38948,38.81439,189],[-90.38945,38.81437,189],[-90.38942,38.81435,189],[-90.38938,38.81433,189],[-90.38934,38.81431,190],[-90.38931,38.81429,190],[-90.38928,38.81428,191],[-90.38924,38.81426,191],[-90.38921,38.81425,192],[-90.38918,38.81423,192],[-90.38914,38.81421,192],[-90.3891,38.81421,192],[-90.38906,38.8142,192],[-90.38903,38.81419,192],[-90.38899,38.81419,192],[-90.38895,38.81419,192],[-90.38891,38.81418,192],[-90.38887,38.81417,193],[-90.38883,38.81416,193],[-90.3888,38.81414,194],[-90.38877,38.81413,194],[-90.38873,38.81412,194],[-90.38869,38.81411,195],[-90.38866,38.8141,195],[-90.38864,38.81408,195],[-90.38861,38.81406,196],[-90.38858,38.81405,196],[-90.38855,38.81405,196],[-90.38852,38.81403,196],[-90.3885,38.814,196],[-90.38846,38.814,197],[-90.38843,38.81401,197],[-90.38839,38.814,197],[-90.38836,38.81398,198],[-90.38832,38.81397,198],[-90.38829,38.81396,198],[-90.38826,38.81394,198],[-90.38823,38.81393,198],[-90.38819,38.81392,198],[-90.38816,38.81391,198],[-90.38811,38.81391,198],[-90.38808,38.81391,199],[-90.38804,38.81391,199],[-90.388,38.81391,199],[-90.38796,38.81391,199],[-90.38792,38.81391,199],[-90.38788,38.81392,199],[-90.38783,38.81392,199],[-90.3878,38.81393,199],[-90.38776,38.81393,200],[-90.38772,38.81394,200],[-90.38769,38.81392,200],[-90.38765,38.81391,200],[-90.38762,38.81389,199],[-90.38758,38.81387,199],[-90.38755,38.81386,199],[-90.38753,38.81383,199],[-90.38752,38.8138,198],[-90.38752,38.81377,198],[-90.38752,38.81374,197],[-90.38752,38.81371,197],[-90.38753,38.81368,197],[-90.38754,38.81365,196],[-90.38754,38.81361,196],[-90.38755,38.81358,196],[-90.38756,38.81355,195],[-90.38756,38.81352,195],[-90.38758,38.81349,195],[-90.38758,38.81347,195],[-90.38759,38.81344,195],[-90.38759,38.81341,195],[-90.38759,38.81338,194],[-90.38759,38.81335,194],[-90.3876,38.81331,194],[-90.38762,38.81329,194],[-90.38766,38.81328,194],[-90.3877,38.81327,194],[-90.38774,38.81327,195],[-90.38777,38.81326,195],[-90.38782,38.81325,195],[-90.38785,38.81324,194],[-90.38789,38.81323,194],[-90.38791,38.81321,194],[-90.38794,38.81319,193],[-90.38796,38.81316,193],[-90.38799,38.81314,192],[-90.388,38.81311,192],[-90.38802,38.81309,191],[-90.38803,38.81306,191],[-90.38803,38.81303,190],[-90.38803,38.813,190],[-90.38804,38.81297,190],[-90.38804,38.81294,189],[-90.38805,38.8129,189],[-90.38806,38.81287,188],[-90.38806,38.81284,188],[-90.38806,38.81281,188],[-90.38807,38.81278,187],[-90.38811,38.81277,186],[-90.38813,38.81275,185],[-90.38815,38.81273,184],[-90.38818,38.81271,182],[-90.3882,38.8127,182],[-90.38825,38.8127,180],[-90.38828,38.81271,180],[-90.38832,38.8127,178],[-90.38836,38.81269,177],[-90.38839,38.81268,176],[-90.38842,38.81266,175],[-90.38845,38.81264,174],[-90.38848,38.81263,173],[-90.38852,38.81262,171],[-90.38854,38.81259,171],[-90.38855,38.81256,170],[-90.38856,38.81253,170],[-90.38859,38.81251,169],[-90.3886,38.81247,168],[-90.3886,38.81244,168],[-90.3886,38.81241,167],[-90.3886,38.81238,167],[-90.38861,38.81235,166],[-90.38861,38.81232,165],[-90.38863,38.81229,165],[-90.38865,38.81227,164],[-90.38869,38.81226,164],[-90.38873,38.81225,163],[-90.38875,38.81222,163],[-90.38877,38.8122,162],[-90.38878,38.81217,162],[-90.38878,38.81214,161],[-90.38877,38.81211,161],[-90.38875,38.81208,161],[-90.38872,38.81206,161],[-90.38869,38.81206,161],[-90.38868,38.81203,161],[-90.38866,38.81201,161],[-90.38864,38.81198,161],[-90.38862,38.81196,161],[-90.3886,38.81193,162],[-90.38858,38.8119,162],[-90.38858,38.81187,163],[-90.38858,38.81183,163],[-90.38859,38.81181,163],[-90.3886,38.81178,163],[-90.38861,38.81175,164],[-90.38863,38.81172,163],[-90.38865,38.81169,164],[-90.38868,38.81167,163],[-90.3887,38.81164,163],[-90.38873,38.81162,162],[-90.38876,38.8116,161],[-90.38877,38.81157,161],[-90.38879,38.81153,161],[-90.38882,38.81152,160],[-90.38885,38.8115,159],[-90.38889,38.81149,158],[-90.38892,38.81148,157],[-90.38896,38.81146,156],[-90.389,38.81146,155],[-90.38904,38.81145,154],[-90.38908,38.81144,154],[-90.38911,38.81142,153],[-90.38914,38.8114,152],[-90.38916,38.81138,152],[-90.38919,38.81136,152],[-90.38923,38.81136,152],[-90.38927,38.81136,152],[-90.38931,38.81136,152],[-90.38935,38.81136,152],[-90.38938,38.81134,152],[-90.38941,38.81131,152],[-90.38942,38.81129,152],[-90.38944,38.81127,152],[-90.38946,38.81124,151],[-90.38948,38.81121,151],[-90.3895,38.81119,151],[-90.38952,38.81116,151],[-90.38956,38.81115,151],[-90.3896,38.81115,151],[-90.38963,38.81115,151],[-90.38968,38.81116,151],[-90.38972,38.81116,150],[-90.38975,38.81115,150],[-90.38979,38.81114,149],[-90.38983,38.81113,149],[-90.38987,38.81112,148],[-90.38991,38.81112,148],[-90.38995,38.81112,147],[-90.38999,38.81112,147],[-90.39003,38.81113,146],[-90.39007,38.81114,145],[-90.39011,38.81114,145],[-90.39015,38.81114,144],[-90.39018,38.81115,144],[-90.39022,38.81114,143],[-90.39026,38.81114,143],[-90.3903,38.81115,142],[-90.39033,38.81116,142],[-90.39037,38.81117,142],[-90.39041,38.81118,142],[-90.39044,38.8112,142],[-90.39047,38.81122,142],[-90.39051,38.81123,142],[-90.39055,38.81123,142],[-90.39058,38.81123,142],[-90.39062,38.81122,142],[-90.39066,38.8112,142],[-90.39069,38.81119,141],[-90.39073,38.81117,141],[-90.39077,38.81116,141],[-90.39079,38.81118,141],[-90.39081,38.8112,141],[-90.39084,38.81122,141],[-90.39087,38.81124,141],[-90.3909,38.81126,141],[-90.39093,38.81129,141],[-90.39095,38.81131,141],[-90.39098,38.81134,141],[-90.391,38.81136,141],[-90.39103,38.81138,141],[-90.39105,38.81141,141],[-90.39107,38.81144,142],[-90.39109,38.81147,142],[-90.3911,38.8115,142],[-90.3911,38.81153,143],[-90.39109,38.81155,143],[-90.39106,38.81158,144],[-90.39103,38.8116,144],[-90.39101,38.81163,145],[-90.39099,38.81166,145],[-90.39098,38.81169,146],[-90.39097,38.81172,146],[-90.39095,38.81175,147],[-90.39094,38.81178,147],[-90.39094,38.81181,148],[-90.39094,38.81184,148],[-90.39094,38.81187,149],[-90.39094,38.8119,149],[-90.39093,38.81194,149],[-90.39093,38.81197,150],[-90.39093,38.812,149],[-90.39092,38.81203,149],[-90.39091,38.81206,149],[-90.39091,38.81209,149],[-90.3909,38.81212,149],[-90.3909,38.81215,149],[-90.39091,38.81218,149],[-90.39092,38.81221,149],[-90.39093,38.81224,149],[-90.39093,38.81227,148],[-90.39094,38.8123,147],[-90.39095,38.81233,146],[-90.39096,38.81235,146],[-90.39097,38.81238,145],[-90.39098,38.81241,144],[-90.39098,38.81244,143],[-90.39099,38.81248,142],[-90.39099,38.81251,142],[-90.39099,38.81254,143],[-90.39099,38.81257,143],[-90.391,38.8126,144],[-90.39102,38.81263,144],[-90.39102,38.81267,145],[-90.39102,38.81269,146],[-90.39102,38.81272,147],[-90.39103,38.81275,147],[-90.39104,38.81278,148],[-90.39105,38.81281,148],[-90.39106,38.81284,149],[-90.39107,38.81287,149],[-90.39109,38.8129,150],[-90.39111,38.81293,150],[-90.39113,38.81295,151],[-90.39115,38.81298,151],[-90.39116,38.813,151],[-90.39118,38.81303,152],[-90.39119,38.81306,152],[-90.39121,38.81309,152],[-90.39123,38.81312,152],[-90.39126,38.81314,152],[-90.39128,38.81317,151],[-90.3913,38.81319,151],[-90.39133,38.81321,151],[-90.39135,38.81324,151],[-90.39138,38.81326,150],[-90.39141,38.81328,150],[-90.39145,38.81329,149],[-90.39148,38.81331,149],[-90.39151,38.81333,149],[-90.39153,38.81335,148],[-90.39156,38.81338,147],[-90.39158,38.8134,147],[-90.39159,38.81343,147],[-90.3916,38.81346,146],[-90.39161,38.81348,146],[-90.39161,38.81351,145],[-90.39162,38.81354,145],[-90.39163,38.81357,144],[-90.39166,38.8136,143],[-90.39167,38.81363,143],[-90.3917,38.81366,143],[-90.39172,38.81369,143],[-90.39174,38.81371,143],[-90.39177,38.81373,143],[-90.3918,38.81376,142],[-90.39183,38.81378,141],[-90.39186,38.8138,141],[-90.39189,38.81382,140],[-90.39192,38.81384,139],[-90.39195,38.81386,138],[-90.39197,38.81388,137],[-90.392,38.8139,137],[-90.39203,38.81392,138],[-90.39206,38.81394,138],[-90.3921,38.81396,139],[-90.39213,38.81398,140],[-90.39216,38.814,140],[-90.3922,38.81402,141],[-90.39223,38.81402,141],[-90.39228,38.81401,141],[-90.3923,38.81398,139],[-90.39232,38.81395,138],[-90.39235,38.81392,136],[-90.39237,38.8139,136],[-90.3924,38.81387,136],[-90.39242,38.81385,136],[-90.39244,38.81382,137],[-90.39247,38.81379,138],[-90.39249,38.81377,138],[-90.3925,38.81374,138],[-90.39251,38.81371,138],[-90.39252,38.81368,138],[-90.39253,38.81366,138],[-90.39255,38.81363,138],[-90.39256,38.81361,138],[-90.39259,38.81358,138],[-90.3926,38.81355,138],[-90.39262,38.81352,137],[-90.39264,38.81349,137],[-90.39265,38.81346,137],[-90.39262,38.81344,137],[-90.39259,38.81342,137],[-90.39256,38.8134,137],[-90.39253,38.81338,137],[-90.3925,38.81336,137],[-90.39246,38.81334,137],[-90.39243,38.81332,137],[-90.39241,38.8133,137],[-90.39238,38.81328,137],[-90.39235,38.81326,137],[-90.39233,38.81324,137],[-90.3923,38.81322,137],[-90.39228,38.8132,137],[-90.39225,38.81318,137],[-90.39221,38.81316,137],[-90.39218,38.81314,137],[-90.39215,38.81312,138],[-90.39211,38.81311,138],[-90.39208,38.81309,138],[-90.39205,38.81306,138],[-90.39202,38.81304,138],[-90.39198,38.81302,138],[-90.39195,38.81301,138],[-90.39192,38.81298,138],[-90.3919,38.81296,138],[-90.39187,38.81293,138],[-90.39184,38.81291,138],[-90.39181,38.81289,138],[-90.39178,38.81288,138],[-90.39174,38.81287,139],[-90.3917,38.81285,139],[-90.39167,38.81284,139],[-90.39164,38.81282,140],[-90.3916,38.8128,140],[-90.39158,38.81278,140],[-90.39155,38.81275,140],[-90.39154,38.81272,139],[-90.39153,38.81269,139],[-90.39153,38.81266,138],[-90.39153,38.81263,138],[-90.39155,38.8126,137],[-90.39156,38.81258,136],[-90.39159,38.81255,136],[-90.39161,38.81252,135],[-90.39163,38.81249,135],[-90.39164,38.81247,135],[-90.39166,38.81244,135],[-90.39168,38.81242,135],[-90.3917,38.81239,136],[-90.39173,38.81236,136],[-90.39175,38.81233,136],[-90.39177,38.8123,136],[-90.39179,38.81228,137],[-90.39181,38.81225,137],[-90.39183,38.81222,137],[-90.39185,38.8122,137],[-90.39187,38.81217,137],[-90.3919,38.81215,137],[-90.39194,38.81213,137],[-90.39198,38.81212,137],[-90.39202,38.81211,137],[-90.39206,38.81211,137],[-90.3921,38.81212,136],[-90.39213,38.81213,136],[-90.39217,38.81214,136],[-90.3922,38.81216,136],[-90.39224,38.81218,135],[-90.39228,38.81219,135],[-90.39231,38.81221,135],[-90.39235,38.81223,135],[-90.39237,38.81225,135],[-90.39241,38.81227,135],[-90.39244,38.81229,135],[-90.39246,38.81231,135],[-90.3925,38.81233,135],[-90.39253,38.81235,135],[-90.39256,38.81237,135],[-90.39259,38.8124,134],[-90.39262,38.81241,134],[-90.39266,38.81243,134],[-90.39269,38.81245,134],[-90.39272,38.81248,134],[-90.39275,38.81249,134],[-90.39279,38.81252,134],[-90.39282,38.81254,134],[-90.39285,38.81255,134],[-90.39287,38.81257,134],[-90.3929,38.81259,134],[-90.39294,38.81261,134],[-90.39297,38.81262,134],[-90.393,38.81264,134],[-90.39303,38.81266,134],[-90.39307,38.81267,134],[-90.3931,38.81269,134],[-90.39313,38.81271,134],[-90.39316,38.81274,134],[-90.3932,38.81276,134],[-90.39324,38.81277,134],[-90.39328,38.81277,134],[-90.39332,38.81277,134],[-90.39336,38.81277,134],[-90.39339,38.81277,134],[-90.39343,38.81277,134],[-90.39347,38.81277,134],[-90.3935,38.81277,134],[-90.39354,38.81276,134],[-90.39358,38.81274,134],[-90.39362,38.81272,134],[-90.39365,38.8127,134],[-90.39369,38.81268,134],[-90.39372,38.81266,135],[-90.39376,38.81264,135],[-90.39379,38.81262,135],[-90.39382,38.81261,135],[-90.39385,38.81259,135],[-90.39388,38.81257,136],[-90.3939,38.81255,136],[-90.39393,38.81252,136],[-90.39395,38.8125,137],[-90.39397,38.81247,137],[-90.39399,38.81245,137],[-90.39402,38.81243,137],[-90.39405,38.81241,137],[-90.39408,38.81238,137],[-90.39411,38.81236,137],[-90.39413,38.81234,137],[-90.39416,38.81232,137],[-90.39418,38.8123,137],[-90.3942,38.81227,137],[-90.39423,38.81225,137],[-90.39426,38.81223,137],[-90.39428,38.81221,138],[-90.39431,38.81219,138],[-90.39434,38.81216,138],[-90.39437,38.81214,138],[-90.39439,38.81212,138],[-90.39441,38.8121,138],[-90.39443,38.81208,138],[-90.39446,38.81206,137],[-90.39448,38.81204,137],[-90.3945,38.81201,137],[-90.39454,38.81199,137],[-90.39456,38.81197,137],[-90.39459,38.81194,137],[-90.39462,38.81192,137],[-90.39465,38.81191,136],[-90.39467,38.81189,136],[-90.3947,38.81187,136],[-90.39472,38.81185,135],[-90.39475,38.81183,135],[-90.39477,38.8118,135],[-90.3948,38.81178,134],[-90.39483,38.81176,134],[-90.39486,38.81174,134],[-90.39489,38.81172,133],[-90.39493,38.8117,133],[-90.39497,38.81169,133],[-90.39499,38.81167,133],[-90.39502,38.81165,132],[-90.39504,38.81162,132],[-90.39502,38.81159,132],[-90.39505,38.81157,132],[-90.39507,38.81157,132]]],
        "bbox": [
          -90.38752,
          38.81746,
          -90.39507,
          38.81112
        ]
      },
      "properties": {
        "name": "9.21.2024"
      }
    }
  ]
}