{
  "type": "FeatureCollection",
  "features": [
    {
      "type": "Feature",
      "geometry": {
        "type": "MultiLineString",
        "coordinates": [[[-90.39498,38.8116,132],[-90.39501,38.81159,132],[-90.39505,38.81161,132],[-90.39507,38.81164,132],[-90.39504,38.81165,132],[-90.39503,38.81168,133],[-90.395,38.8117,133],[-90.39496,38.8117,133],[-90.39492,38.81171,133],[-90.39489,38.81174,134],[-90.39486,38.81176,134],[-90.39483,38.81178,134],[-90.39481,38.8118,134],[-90.39479,38.81182,135],[-90.39476,38.81184,135],[-90.39474,38.81186,135],[-90.39471,38.81189,136],[-90.39469,38.81191,136],[-90.39466,38.81193,137],[-90.39463,38.81195,137],[-90.3946,38.81198,137],[-90.39458,38.812,137],[-90.39456,38.81202,137],[-90.39454,38.81204,137],[-90.39451,38.81207,137],[-90.39449,38.81209,137],[-90.39447,38.81212,137],[-90.39444,38.81214,138],[-90.39442,38.81216,138],[-90.39439,38.81219,138],[-90.39437,38.81221,138],[-90.39434,38.81223,137],[-90.3943,38.81225,137],[-90.39428,38.81227,137],[-90.39424,38.81229,137],[-90.39421,38.81232,137],[-90.39418,38.81235,137],[-90.39415,38.81237,137],[-90.39413,38.8124,137],[-90.39411,38.81242,137],[-90.39408,38.81244,137],[-90.39405,38.81247,137],[-90.39401,38.8125,137],[-90.39399,38.81252,136],[-90.39396,38.81254,136],[-90.39392,38.81256,136],[-90.39389,38.81258,136],[-90.39386,38.8126,135],[-90.39382,38.81263,135],[-90.39379,38.81265,135],[-90.39375,38.81267,134],[-90.39372,38.8127,134],[-90.39368,38.81272,134],[-90.39366,38.81274,134],[-90.39363,38.81276,134],[-90.3936,38.81278,134],[-90.39357,38.8128,133],[-90.39353,38.81282,133],[-90.39348,38.81284,134],[-90.39345,38.81285,134],[-90.39342,38.81287,134],[-90.3934,38.81289,133],[-90.39337,38.81292,133],[-90.39333,38.81294,133],[-90.3933,38.81296,133],[-90.39327,38.81297,133],[-90.39323,38.81299,133],[-90.3932,38.81301,133],[-90.39316,38.81303,133],[-90.39312,38.81305,133],[-90.39309,38.81307,132],[-90.39307,38.81309,132],[-90.39304,38.81312,133],[-90.39302,38.81315,133],[-90.39299,38.81317,133],[-90.39296,38.8132,133],[-90.39293,38.81322,133],[-90.3929,38.81326,133],[-90.39287,38.81329,134],[-90.39284,38.81331,134],[-90.39282,38.81333,134],[-90.39279,38.81335,135],[-90.39276,38.81338,135],[-90.39274,38.8134,135],[-90.39272,38.81343,136],[-90.3927,38.81345,136],[-90.39267,38.81347,137],[-90.39264,38.8135,137],[-90.39262,38.81352,137],[-90.3926,38.81355,138],[-90.39259,38.81358,138],[-90.39258,38.8136,138],[-90.39256,38.81364,138],[-90.39255,38.81367,138],[-90.39254,38.81371,138],[-90.39253,38.81374,138],[-90.39251,38.81377,138],[-90.39249,38.8138,138],[-90.39247,38.81383,137],[-90.39244,38.81385,137],[-90.39242,38.81388,136],[-90.39239,38.81391,137],[-90.39237,38.81393,137],[-90.39234,38.81396,139],[-90.39231,38.81398,139],[-90.39228,38.81401,141],[-90.39225,38.81402,141],[-90.39222,38.81403,142],[-90.39218,38.81405,143],[-90.39214,38.81406,144],[-90.3921,38.81406,145],[-90.39206,38.81407,146],[-90.39203,38.81408,146],[-90.39199,38.81408,147],[-90.39196,38.8141,148],[-90.39192,38.81411,149],[-90.39189,38.81413,151],[-90.39187,38.81415,153],[-90.39186,38.81418,154],[-90.39185,38.8142,155],[-90.39184,38.81423,156],[-90.39182,38.81425,157],[-90.3918,38.81428,158],[-90.39179,38.8143,159],[-90.39179,38.81434,160],[-90.39179,38.81436,161],[-90.3918,38.81439,161],[-90.39181,38.81442,162],[-90.39181,38.81445,163],[-90.39182,38.81448,163],[-90.39183,38.8145,163],[-90.39184,38.81453,163],[-90.39185,38.81456,163],[-90.39186,38.81459,163],[-90.39187,38.81462,163],[-90.39188,38.81465,163],[-90.39189,38.81468,163],[-90.39189,38.8147,164],[-90.39191,38.81473,164],[-90.39192,38.81476,164],[-90.39193,38.81479,164],[-90.39193,38.81482,164],[-90.39192,38.81485,165],[-90.39191,38.81488,165],[-90.39192,38.81492,165],[-90.39192,38.81494,166],[-90.39193,38.81497,166],[-90.39193,38.815,166],[-90.39195,38.81503,166],[-90.39197,38.81505,167],[-90.39198,38.81509,168],[-90.39199,38.81512,169],[-90.39199,38.81516,170],[-90.39198,38.81519,171],[-90.39197,38.81521,172],[-90.39195,38.81524,174],[-90.39195,38.81527,175],[-90.39195,38.81529,175],[-90.39195,38.81532,176],[-90.39196,38.81535,176],[-90.39197,38.81538,175],[-90.39198,38.81541,175],[-90.39199,38.81544,175],[-90.39199,38.81547,175],[-90.39199,38.8155,175],[-90.39195,38.81551,177],[-90.39192,38.81552,178],[-90.3919,38.81554,178],[-90.3919,38.81557,178],[-90.39191,38.8156,177],[-90.39193,38.81563,176],[-90.39196,38.81565,175],[-90.39199,38.81566,173],[-90.39195,38.81565,175],[-90.39191,38.81565,176],[-90.39187,38.81565,177],[-90.39181,38.81566,178],[-90.39176,38.81567,179],[-90.39171,38.81567,180],[-90.39167,38.81566,181],[-90.39164,38.81564,182],[-90.39161,38.81562,182],[-90.39158,38.8156,183],[-90.39155,38.81557,183],[-90.39153,38.81555,183],[-90.39149,38.81551,184],[-90.39147,38.81549,184],[-90.39143,38.81546,184],[-90.3914,38.81544,185],[-90.39137,38.81542,185],[-90.39134,38.81541,185],[-90.3913,38.8154,185],[-90.39126,38.81541,185],[-90.39123,38.81541,186],[-90.39118,38.81542,186],[-90.39113,38.81544,186],[-90.39109,38.81545,186],[-90.39105,38.81546,186],[-90.39101,38.81547,186],[-90.39097,38.81547,185],[-90.39092,38.81548,185],[-90.39087,38.81548,185],[-90.39083,38.81548,185],[-90.39079,38.81548,185],[-90.39075,38.81548,184],[-90.39063,38.81546,183],[-90.39059,38.81545,183],[-90.39054,38.81544,182],[-90.39051,38.81544,182],[-90.39047,38.81544,181],[-90.39043,38.81543,181],[-90.3904,38.81543,181],[-90.39035,38.81542,180],[-90.39032,38.8154,180],[-90.39028,38.81539,180],[-90.39024,38.81538,180],[-90.39021,38.81536,180],[-90.39017,38.81535,180],[-90.39013,38.81533,181],[-90.3901,38.81532,181],[-90.39006,38.8153,181],[-90.39003,38.81529,181],[-90.39,38.81527,182],[-90.38997,38.81525,182],[-90.38993,38.81524,183],[-90.38989,38.81522,183],[-90.38987,38.8152,184],[-90.38984,38.81518,184],[-90.38981,38.81516,185],[-90.38978,38.81514,185],[-90.38976,38.81511,186],[-90.38974,38.81508,187],[-90.38972,38.81506,187],[-90.38969,38.81503,188],[-90.38967,38.81501,188],[-90.38964,38.81499,188],[-90.38961,38.81496,189],[-90.38959,38.81493,189],[-90.38956,38.81491,189],[-90.38954,38.81488,189],[-90.38952,38.81485,189],[-90.38951,38.81482,190],[-90.3895,38.81479,190],[-90.3895,38.81476,190],[-90.38949,38.81473,191],[-90.38949,38.8147,191],[-90.38948,38.81468,190],[-90.38948,38.81464,190],[-90.38948,38.81461,190],[-90.38949,38.81459,190],[-90.38949,38.81456,190],[-90.38949,38.81453,190],[-90.38949,38.81449,190],[-90.38949,38.81446,189],[-90.38949,38.81443,189],[-90.38947,38.81441,189],[-90.38945,38.81438,189],[-90.38943,38.81436,189],[-90.3894,38.81434,189],[-90.38936,38.81432,190],[-90.38933,38.8143,190],[-90.3893,38.81429,190],[-90.38926,38.81427,191],[-90.38923,38.81426,191],[-90.38919,38.81424,192],[-90.38916,38.81422,192],[-90.38912,38.81421,192],[-90.38909,38.8142,192],[-90.38906,38.81419,192],[-90.38902,38.81418,192],[-90.38898,38.81418,192],[-90.38894,38.81417,192],[-90.38891,38.81416,192],[-90.38885,38.81415,193],[-90.3888,38.81414,194],[-90.38877,38.81413,194],[-90.38873,38.81412,194],[-90.3887,38.81411,195],[-90.38866,38.8141,195],[-90.38862,38.81409,196],[-90.38859,38.81408,196],[-90.38855,38.81406,196],[-90.38852,38.81405,196],[-90.38848,38.81403,197],[-90.38845,38.81402,197],[-90.38841,38.81401,197],[-90.38837,38.81399,198],[-90.38833,38.81398,198],[-90.38829,38.81397,198],[-90.38826,38.81396,198],[-90.38821,38.81394,198],[-90.38817,38.81393,198],[-90.38813,38.81393,198],[-90.38809,38.81393,199],[-90.38805,38.81393,199],[-90.38801,38.81393,199],[-90.38796,38.81393,199],[-90.38792,38.81393,199],[-90.38788,38.81394,199],[-90.38784,38.81394,199],[-90.3878,38.81394,199],[-90.38776,38.81394,200],[-90.38772,38.81394,200],[-90.38767,38.81392,200],[-90.38764,38.81391,200],[-90.3876,38.81389,199],[-90.38757,38.81388,199],[-90.38755,38.81386,199],[-90.38753,38.81383,199],[-90.38752,38.8138,198],[-90.38751,38.81377,198],[-90.3875,38.81374,197],[-90.3875,38.81371,197],[-90.38751,38.81368,197],[-90.38752,38.81364,196],[-90.38753,38.81361,196],[-90.38754,38.81358,196],[-90.38755,38.81355,195],[-90.38755,38.81352,195],[-90.38756,38.81349,195],[-90.38756,38.81346,195],[-90.38756,38.81342,195],[-90.38756,38.8134,194],[-90.38757,38.81337,194],[-90.38758,38.81334,194],[-90.3876,38.81331,194],[-90.38764,38.8133,194],[-90.38767,38.8133,194],[-90.38772,38.8133,195],[-90.38776,38.81329,195],[-90.38779,38.81328,195],[-90.38783,38.81328,195],[-90.38786,38.81327,195],[-90.38789,38.81325,194],[-90.38793,38.81323,194],[-90.38795,38.81322,194],[-90.38797,38.81319,193],[-90.38798,38.81316,193],[-90.388,38.81314,192],[-90.38801,38.81311,192],[-90.38803,38.81308,191],[-90.38803,38.81305,191],[-90.38804,38.81302,190],[-90.38804,38.81299,190],[-90.38803,38.81296,190],[-90.38803,38.81293,189],[-90.38804,38.8129,189],[-90.38804,38.81287,189],[-90.38803,38.81284,188],[-90.38803,38.81281,188],[-90.38803,38.81278,188],[-90.38806,38.81276,187],[-90.38809,38.81274,186],[-90.38812,38.81273,184],[-90.38816,38.81272,183],[-90.3882,38.81272,182],[-90.38823,38.81271,181],[-90.38827,38.81271,180],[-90.3883,38.81271,179],[-90.38833,38.8127,178],[-90.38837,38.81269,177],[-90.3884,38.81267,176],[-90.38842,38.81265,175],[-90.38845,38.81263,174],[-90.38849,38.81263,172],[-90.38853,38.81261,171],[-90.38855,38.81259,170],[-90.38855,38.81256,170],[-90.38857,38.81253,170],[-90.38858,38.81251,169],[-90.3886,38.81248,168],[-90.38859,38.81245,168],[-90.38857,38.81243,168],[-90.38856,38.8124,168],[-90.38857,38.81237,167],[-90.38859,38.81235,166],[-90.3886,38.81232,165],[-90.38863,38.8123,165],[-90.38865,38.81228,164],[-90.38868,38.81226,164],[-90.38871,38.81223,163],[-90.38874,38.81221,162],[-90.38876,38.81218,162],[-90.38877,38.81216,162],[-90.38877,38.81213,161],[-90.38876,38.8121,161],[-90.38874,38.81208,161],[-90.38872,38.81206,161],[-90.38869,38.81204,161],[-90.38866,38.81202,161],[-90.38863,38.812,162],[-90.38861,38.81198,162],[-90.38859,38.81195,162],[-90.38858,38.81192,162],[-90.38858,38.81188,163],[-90.38857,38.81185,163],[-90.38858,38.81181,163],[-90.38859,38.81177,164],[-90.38861,38.81175,164],[-90.38863,38.81172,163],[-90.38865,38.8117,163],[-90.38868,38.81168,163],[-90.38871,38.81166,163],[-90.38873,38.81163,162],[-90.38873,38.8116,162],[-90.38874,38.81157,162],[-90.38878,38.81156,161],[-90.38881,38.81155,160],[-90.38883,38.81153,160],[-90.38887,38.81151,159],[-90.38891,38.81151,158],[-90.38894,38.8115,157],[-90.38898,38.8115,156],[-90.38902,38.8115,155],[-90.38906,38.81148,154],[-90.3891,38.81146,153],[-90.38913,38.81144,152],[-90.38916,38.81142,152],[-90.3892,38.81141,152],[-90.38924,38.81141,152],[-90.38928,38.8114,152],[-90.38931,38.81139,152],[-90.38934,38.81138,152],[-90.38937,38.81136,152],[-90.38939,38.81134,152],[-90.38942,38.81131,152],[-90.38944,38.81129,152],[-90.38946,38.81126,151],[-90.38948,38.81123,151],[-90.3895,38.81121,151],[-90.38952,38.81118,151],[-90.38955,38.81117,151],[-90.38959,38.81116,151],[-90.38963,38.81116,151],[-90.38967,38.81116,151],[-90.3897,38.81117,150],[-90.38975,38.81118,150],[-90.38979,38.81118,149],[-90.38983,38.81117,149],[-90.38986,38.81116,148],[-90.38989,38.81114,148],[-90.38993,38.81113,147],[-90.38997,38.81113,147],[-90.39002,38.81114,146],[-90.39005,38.81115,146],[-90.39009,38.81115,145],[-90.39013,38.81116,144],[-90.39018,38.81115,144],[-90.39022,38.81115,143],[-90.39026,38.81115,143],[-90.3903,38.81115,142],[-90.39034,38.81117,142],[-90.39036,38.81118,142],[-90.3904,38.8112,142],[-90.39043,38.81121,142],[-90.39047,38.81122,142],[-90.39052,38.81122,142],[-90.39056,38.81121,142],[-90.3906,38.81121,142],[-90.39065,38.8112,142],[-90.3907,38.81119,141],[-90.39075,38.81118,141],[-90.3908,38.81119,141],[-90.39083,38.81121,141],[-90.39086,38.81124,141],[-90.39088,38.81128,141],[-90.3909,38.81131,141],[-90.39092,38.81134,141],[-90.39095,38.81136,141],[-90.39098,38.81139,141],[-90.39101,38.81141,142],[-90.39104,38.81144,142],[-90.39106,38.81146,142],[-90.39109,38.81149,142],[-90.39111,38.81152,142],[-90.3911,38.81155,143],[-90.39108,38.81157,143],[-90.39105,38.8116,144],[-90.39102,38.81162,144],[-90.39099,38.81165,145],[-90.39097,38.81167,146],[-90.39095,38.8117,146],[-90.39093,38.81173,147],[-90.39093,38.81176,147],[-90.39092,38.8118,148],[-90.39092,38.81183,148],[-90.39092,38.81185,148],[-90.39093,38.81188,149],[-90.39093,38.81192,149],[-90.39093,38.81195,150],[-90.39092,38.81199,149],[-90.3909,38.81203,149],[-90.39089,38.81206,149],[-90.39088,38.81209,149],[-90.39087,38.81212,149],[-90.39087,38.81215,149],[-90.39087,38.81218,149],[-90.39088,38.81221,149],[-90.39089,38.81224,149],[-90.39091,38.81227,148],[-90.39093,38.8123,147],[-90.39094,38.81233,147],[-90.39095,38.81235,146],[-90.39095,38.81238,145],[-90.39096,38.81242,144],[-90.39096,38.81246,143],[-90.39097,38.8125,142],[-90.39098,38.81253,143],[-90.39099,38.81256,143],[-90.39101,38.8126,144],[-90.39103,38.81262,144],[-90.39104,38.81265,145],[-90.39104,38.81269,146],[-90.39105,38.81271,146],[-90.39105,38.81275,147],[-90.39105,38.81278,147],[-90.39106,38.81281,148],[-90.39107,38.81284,149],[-90.39108,38.81286,149],[-90.39109,38.81289,150],[-90.39111,38.81294,151],[-90.39112,38.81296,151],[-90.39114,38.81299,151],[-90.39116,38.81302,152],[-90.39117,38.81305,153],[-90.39119,38.81308,152],[-90.39122,38.8131,152],[-90.39124,38.81313,152],[-90.39125,38.81316,152],[-90.39128,38.81318,151],[-90.39131,38.8132,151],[-90.39134,38.81323,151],[-90.39136,38.81325,151],[-90.3914,38.81327,150],[-90.39143,38.81329,150],[-90.39146,38.81331,149],[-90.39149,38.81333,149],[-90.39152,38.81336,148],[-90.39155,38.81337,148],[-90.39159,38.81339,147],[-90.39161,38.81341,146],[-90.39165,38.81345,145],[-90.39166,38.81348,144],[-90.39167,38.81351,144],[-90.39168,38.81354,143],[-90.3917,38.81356,143],[-90.39172,38.81359,142],[-90.39173,38.81362,142],[-90.39175,38.81365,142],[-90.39177,38.81368,142],[-90.39179,38.8137,142],[-90.39182,38.81373,142],[-90.39184,38.81376,141],[-90.39186,38.81379,141],[-90.39189,38.81381,140],[-90.39191,38.81384,139],[-90.39194,38.81386,138],[-90.39196,38.81388,137],[-90.39199,38.8139,137],[-90.39202,38.81392,138],[-90.39205,38.81394,138],[-90.39209,38.81395,138],[-90.39211,38.81397,139],[-90.39214,38.814,141],[-90.39217,38.81403,142],[-90.39219,38.81405,143],[-90.39221,38.81407,144],[-90.39224,38.81409,146],[-90.39227,38.81412,148],[-90.39231,38.81414,149],[-90.39234,38.81416,150],[-90.39237,38.81418,150],[-90.3924,38.81419,150],[-90.39243,38.81421,151],[-90.39246,38.81423,151],[-90.39249,38.81426,152],[-90.39252,38.81428,152],[-90.39256,38.81429,151],[-90.39259,38.81431,152],[-90.39262,38.81433,152],[-90.39264,38.81436,152],[-90.39265,38.81438,153],[-90.39267,38.81441,153],[-90.39271,38.81444,153],[-90.39274,38.81446,153],[-90.39278,38.81449,152],[-90.39281,38.81451,152],[-90.39283,38.81453,151],[-90.39286,38.81457,150],[-90.39288,38.81459,150],[-90.39291,38.81461,149],[-90.39293,38.81463,149],[-90.39293,38.81466,148],[-90.39293,38.81469,148],[-90.39294,38.81473,148],[-90.39294,38.81476,148],[-90.39295,38.81479,148],[-90.39296,38.81481,148],[-90.39298,38.81484,147],[-90.393,38.81487,147],[-90.39301,38.8149,147],[-90.39303,38.81492,147],[-90.39305,38.81495,147],[-90.39307,38.81498,147],[-90.39308,38.81502,147],[-90.3931,38.81505,146],[-90.39311,38.81507,146],[-90.39311,38.8151,145],[-90.3931,38.81514,146],[-90.39309,38.81518,145],[-90.39308,38.8152,145],[-90.39306,38.81524,146],[-90.39305,38.81527,146],[-90.39302,38.81529,146],[-90.39299,38.81532,146],[-90.39297,38.81534,146],[-90.39294,38.81536,146],[-90.39291,38.81538,146],[-90.39287,38.81539,147],[-90.39284,38.81541,147],[-90.39281,38.81542,148],[-90.39278,38.81544,148],[-90.39275,38.81546,148],[-90.39272,38.81548,149],[-90.3927,38.8155,149],[-90.39267,38.81552,149],[-90.39264,38.81554,150],[-90.39263,38.81557,150],[-90.39263,38.81562,149],[-90.39263,38.81565,148],[-90.39262,38.81568,148],[-90.39262,38.81571,148],[-90.39263,38.81574,146],[-90.39263,38.81577,146],[-90.39264,38.8158,145],[-90.39264,38.81584,144],[-90.39264,38.81588,144],[-90.39264,38.81591,144],[-90.39263,38.81594,144],[-90.39261,38.81598,145],[-90.3926,38.81601,145],[-90.39258,38.81604,146],[-90.39256,38.81607,146],[-90.39251,38.81609,148],[-90.39248,38.81611,149],[-90.39244,38.81613,150],[-90.39242,38.81615,150],[-90.3924,38.81618,150],[-90.39239,38.8162,150],[-90.39235,38.81621,151],[-90.39233,38.81625,150],[-90.3923,38.81627,150],[-90.39228,38.81629,150],[-90.39228,38.81632,149],[-90.39227,38.81635,149],[-90.39226,38.81637,148],[-90.39225,38.8164,148],[-90.39223,38.81643,148],[-90.39222,38.81646,148],[-90.3922,38.81649,148],[-90.39217,38.81652,148],[-90.39214,38.81654,149],[-90.39212,38.81657,149],[-90.3921,38.81659,149],[-90.39207,38.81663,149],[-90.39204,38.81664,149],[-90.392,38.81665,150],[-90.39198,38.81668,150],[-90.39196,38.81671,150],[-90.39193,38.81674,150],[-90.3919,38.81676,150],[-90.39186,38.81678,150],[-90.39183,38.8168,150],[-90.39181,38.81683,150],[-90.39179,38.81686,150],[-90.39175,38.81688,149],[-90.39172,38.8169,149],[-90.39168,38.81692,148],[-90.39164,38.81694,148],[-90.3916,38.81695,148],[-90.39157,38.81697,148],[-90.39152,38.81697,149],[-90.39147,38.81699,149],[-90.39144,38.81702,148],[-90.3914,38.81703,148],[-90.39136,38.81706,148],[-90.39132,38.81708,148],[-90.39129,38.8171,148],[-90.39125,38.81711,148],[-90.39121,38.81712,148],[-90.39117,38.81714,148],[-90.39113,38.81717,147],[-90.39111,38.8172,146],[-90.39108,38.81722,146],[-90.39104,38.81724,146],[-90.391,38.81726,146],[-90.39098,38.81728,146],[-90.39096,38.81731,146],[-90.39094,38.81734,145],[-90.39092,38.81737,144],[-90.3909,38.81741,144],[-90.39087,38.81743,143],[-90.39084,38.81746,143],[-90.39081,38.81748,143],[-90.39079,38.8175,142],[-90.39076,38.81753,142],[-90.39074,38.81755,142],[-90.39074,38.81758,141],[-90.39071,38.8176,141],[-90.39068,38.81762,141],[-90.39064,38.81764,141],[-90.39062,38.81766,141],[-90.39059,38.81768,141],[-90.39055,38.8177,141],[-90.39051,38.81772,141],[-90.39047,38.81773,141],[-90.39044,38.81773,142],[-90.3904,38.81775,142],[-90.39037,38.81776,142],[-90.39033,38.81777,142],[-90.3903,38.81779,142],[-90.39027,38.8178,142],[-90.39023,38.81782,143],[-90.39019,38.81784,143],[-90.39016,38.81785,144],[-90.39012,38.81786,144],[-90.39009,38.81787,144],[-90.39005,38.81789,145],[-90.39001,38.81789,145],[-90.38997,38.81789,146],[-90.38994,38.8179,146],[-90.3899,38.8179,147],[-90.38986,38.81791,147],[-90.38984,38.81793,147],[-90.38981,38.81795,147],[-90.38978,38.81797,147],[-90.38975,38.81798,147],[-90.38971,38.81798,148],[-90.38967,38.81798,148],[-90.38963,38.81798,148],[-90.3896,38.81799,148],[-90.38956,38.818,148],[-90.38952,38.81799,148],[-90.38948,38.81799,148],[-90.38944,38.81798,148],[-90.38939,38.81797,149],[-90.38935,38.81796,150],[-90.38932,38.81796,150],[-90.38928,38.81796,151],[-90.38923,38.81796,152],[-90.38919,38.81796,152],[-90.38915,38.81796,153],[-90.38911,38.81797,154],[-90.38907,38.81797,155],[-90.38903,38.81798,155],[-90.389,38.81799,156],[-90.38896,38.818,156],[-90.38893,38.81802,156],[-90.38892,38.81805,156],[-90.3889,38.81808,155],[-90.38887,38.81809,156],[-90.38884,38.81812,155],[-90.38881,38.81814,155],[-90.38878,38.81816,154],[-90.38875,38.81818,154],[-90.38872,38.8182,154],[-90.38868,38.81821,154],[-90.38864,38.81823,154],[-90.38862,38.81826,153],[-90.3886,38.81828,152],[-90.38857,38.8183,151],[-90.38854,38.81832,150],[-90.3885,38.81833,150],[-90.38847,38.81835,149],[-90.38844,38.81837,148],[-90.38842,38.81839,147],[-90.3884,38.81843,145],[-90.38838,38.81845,144],[-90.38835,38.81848,143],[-90.38833,38.8185,142],[-90.38831,38.81853,141],[-90.38828,38.81855,141],[-90.38826,38.81857,140],[-90.38823,38.81859,140],[-90.38819,38.81861,140],[-90.38815,38.81862,140],[-90.38812,38.81863,140],[-90.38808,38.81864,141],[-90.38805,38.81866,141],[-90.38802,38.81868,141],[-90.38799,38.8187,141],[-90.38796,38.81871,142],[-90.38793,38.81873,142],[-90.38789,38.81874,142],[-90.38786,38.81875,142],[-90.38782,38.81877,143],[-90.38778,38.81878,143],[-90.38774,38.81879,143],[-90.3877,38.8188,143],[-90.38767,38.81881,143],[-90.38762,38.81882,143],[-90.38759,38.81884,143],[-90.38756,38.81887,142],[-90.38753,38.81889,141],[-90.38751,38.81892,140],[-90.38749,38.81895,140],[-90.38748,38.81898,139],[-90.38746,38.819,138],[-90.38743,38.81903,137],[-90.3874,38.81906,136],[-90.38736,38.81907,136],[-90.38733,38.81909,135],[-90.38729,38.81911,134],[-90.38726,38.81913,133],[-90.38722,38.81914,133],[-90.3872,38.81916,132],[-90.38716,38.81916,132],[-90.38713,38.81918,132],[-90.38711,38.8192,132],[-90.38708,38.81922,132],[-90.38705,38.81924,132],[-90.38702,38.81926,132],[-90.38699,38.81929,132],[-90.38695,38.81931,132],[-90.38691,38.81931,132],[-90.38687,38.81933,132],[-90.38684,38.81934,132],[-90.38682,38.81937,132],[-90.38679,38.81938,132],[-90.38675,38.81938,132],[-90.38671,38.81939,132],[-90.38669,38.81941,132],[-90.38665,38.81942,132],[-90.38662,38.81944,131],[-90.38659,38.81945,131],[-90.38656,38.81947,131],[-90.38653,38.81948,131],[-90.3865,38.8195,131],[-90.38646,38.81951,131],[-90.38642,38.81952,131],[-90.38638,38.81954,131],[-90.38633,38.81954,132],[-90.3863,38.81956,132],[-90.38626,38.81957,133],[-90.38623,38.81958,133],[-90.38619,38.81958,133],[-90.38615,38.81959,134],[-90.38611,38.81959,134],[-90.38607,38.8196,134],[-90.38604,38.81959,135],[-90.38599,38.8196,135],[-90.38595,38.81961,134],[-90.38591,38.81962,134],[-90.38587,38.81963,134],[-90.38583,38.81963,134],[-90.3858,38.81963,134],[-90.38576,38.81962,135],[-90.3857,38.81959,136],[-90.38565,38.81957,137],[-90.38562,38.81957,137],[-90.38559,38.81956,137],[-90.38556,38.81954,138],[-90.38552,38.81951,139],[-90.38548,38.8195,139],[-90.38544,38.81949,140],[-90.38541,38.81948,140],[-90.38537,38.81947,141],[-90.38533,38.81946,141],[-90.38529,38.81944,142],[-90.38526,38.81942,142],[-90.38523,38.81941,142],[-90.38524,38.81938,142],[-90.38523,38.81935,142],[-90.38522,38.81932,142],[-90.38521,38.81929,142],[-90.38522,38.81926,143],[-90.38523,38.81923,143],[-90.38525,38.8192,143],[-90.38527,38.81917,143],[-90.38528,38.81915,144],[-90.3853,38.81912,144],[-90.38532,38.81909,145],[-90.38535,38.81907,145],[-90.38536,38.81904,145],[-90.38538,38.81902,146],[-90.3854,38.819,146],[-90.38542,38.81897,146],[-90.38543,38.81895,147],[-90.38545,38.81892,147],[-90.38547,38.81889,147],[-90.38549,38.81887,148],[-90.3855,38.81885,149],[-90.38551,38.81882,150],[-90.3855,38.81879,151],[-90.3855,38.81876,152],[-90.38551,38.81873,153],[-90.38551,38.8187,154],[-90.38551,38.81867,155],[-90.38553,38.81864,155],[-90.38554,38.81861,156],[-90.38555,38.81858,157],[-90.38555,38.81855,157],[-90.38555,38.81852,158],[-90.38555,38.81849,158],[-90.38553,38.81846,159],[-90.38551,38.81844,159],[-90.38548,38.81842,159],[-90.38544,38.8184,160],[-90.38541,38.81839,160],[-90.38537,38.81838,160],[-90.38534,38.81837,160],[-90.3853,38.81836,160],[-90.38526,38.81836,160],[-90.38523,38.81836,161],[-90.38518,38.81835,162],[-90.38514,38.81834,162],[-90.3851,38.81833,163],[-90.38506,38.81832,164],[-90.38503,38.81831,165],[-90.38499,38.8183,165],[-90.38495,38.8183,166],[-90.38491,38.8183,166],[-90.38488,38.8183,166],[-90.38484,38.8183,167],[-90.3848,38.8183,167],[-90.38476,38.8183,167],[-90.38472,38.8183,167],[-90.38469,38.8183,167],[-90.38464,38.8183,167],[-90.3846,38.8183,167],[-90.38455,38.8183,167],[-90.38452,38.81831,167],[-90.38447,38.81831,167],[-90.38443,38.81833,167],[-90.3844,38.81834,166],[-90.38436,38.81836,166],[-90.38433,38.81837,165],[-90.38429,38.81839,165],[-90.38426,38.81841,164],[-90.38422,38.81842,164],[-90.38419,38.81843,164],[-90.38415,38.81844,164],[-90.38412,38.81844,164],[-90.38408,38.81844,164],[-90.38403,38.81843,165],[-90.38398,38.81843,165],[-90.38394,38.81842,166],[-90.38391,38.81842,166],[-90.38386,38.81841,167],[-90.38383,38.8184,167],[-90.3838,38.81839,167],[-90.38377,38.81837,167],[-90.38375,38.81834,168],[-90.38374,38.81831,168],[-90.38374,38.81828,168],[-90.38374,38.81825,168],[-90.38374,38.81822,168],[-90.38373,38.81819,168],[-90.38372,38.81817,168],[-90.38371,38.81814,169],[-90.3837,38.81811,169],[-90.38369,38.81808,169],[-90.38367,38.81806,169],[-90.38365,38.81803,169],[-90.38363,38.81801,169],[-90.38361,38.81798,169],[-90.3836,38.81796,169],[-90.38361,38.81792,169],[-90.38362,38.8179,170],[-90.38364,38.81787,170],[-90.38366,38.81784,170],[-90.38368,38.81781,170],[-90.3837,38.81779,170],[-90.38372,38.81776,171],[-90.38374,38.81773,171],[-90.38375,38.8177,172],[-90.38377,38.81768,172],[-90.38379,38.81766,173],[-90.38382,38.81764,173],[-90.38384,38.81761,173],[-90.38386,38.81758,174],[-90.38387,38.81756,174],[-90.38389,38.81753,175],[-90.3839,38.8175,176],[-90.38392,38.81748,176],[-90.38394,38.81744,177],[-90.38396,38.81742,177],[-90.38398,38.81739,178],[-90.38399,38.81736,178],[-90.38402,38.81733,178],[-90.38403,38.81731,179],[-90.38405,38.81728,179],[-90.38406,38.81725,180],[-90.38406,38.81722,180],[-90.38406,38.81719,180],[-90.38405,38.81716,181],[-90.38403,38.81712,181],[-90.38401,38.81709,182],[-90.384,38.81707,182],[-90.38397,38.81703,182],[-90.38396,38.817,182],[-90.38394,38.81698,182],[-90.38397,38.81697,182],[-90.38401,38.81697,183],[-90.38405,38.81697,183],[-90.38409,38.81698,184],[-90.38414,38.81698,184],[-90.38417,38.81699,185],[-90.38421,38.817,184],[-90.38424,38.81701,184],[-90.38427,38.81703,184],[-90.38432,38.81704,184],[-90.38436,38.81705,184],[-90.38439,38.81707,184],[-90.38443,38.81708,184],[-90.38447,38.81708,184],[-90.3845,38.81709,184],[-90.38454,38.8171,184],[-90.38459,38.81711,185],[-90.38463,38.81713,184],[-90.38466,38.81714,185],[-90.38469,38.81716,184],[-90.38473,38.81718,184],[-90.38476,38.81719,185],[-90.38477,38.81722,184],[-90.38476,38.81726,183],[-90.38475,38.81729,183],[-90.38474,38.81733,182],[-90.38473,38.81735,182],[-90.38472,38.81738,181],[-90.38471,38.81742,181],[-90.3847,38.81744,180],[-90.3847,38.81747,180],[-90.38469,38.8175,179],[-90.38469,38.81753,179],[-90.38468,38.81756,178],[-90.38466,38.81759,178],[-90.38464,38.81761,178],[-90.38461,38.81763,177],[-90.38456,38.81763,177],[-90.38452,38.81763,176],[-90.38448,38.81763,176],[-90.38445,38.81763,176],[-90.3844,38.81763,175],[-90.38436,38.81763,175],[-90.38432,38.81763,175],[-90.38429,38.81764,175],[-90.38426,38.81766,174],[-90.38424,38.81768,174],[-90.38423,38.81771,173],[-90.38422,38.81774,173],[-90.3842,38.81776,172],[-90.38418,38.81779,172],[-90.38415,38.81781,171],[-90.38413,38.81783,171],[-90.38411,38.81786,171],[-90.3841,38.81788,171],[-90.3841,38.81792,170],[-90.3841,38.81795,170],[-90.3841,38.81797,170],[-90.3841,38.818,170],[-90.38409,38.81803,170],[-90.38409,38.81806,169],[-90.3841,38.81809,169],[-90.38411,38.81811,169],[-90.38411,38.81814,169],[-90.38411,38.81817,168],[-90.38411,38.8182,168],[-90.3841,38.81822,168],[-90.38409,38.81825,168],[-90.38407,38.81828,168],[-90.38406,38.81831,167],[-90.38404,38.81833,167],[-90.38406,38.81836,167],[-90.3841,38.81837,166],[-90.38414,38.81838,165],[-90.38418,38.81839,165],[-90.38423,38.81839,165],[-90.38428,38.81838,165],[-90.38432,38.81838,165],[-90.38436,38.81836,166],[-90.3844,38.81835,166],[-90.38444,38.81834,166],[-90.38447,38.81833,167],[-90.38451,38.81832,167],[-90.38455,38.81831,167],[-90.38459,38.81831,167],[-90.38463,38.81832,167],[-90.38467,38.81832,167],[-90.3847,38.81832,167],[-90.38475,38.81832,167],[-90.38479,38.81832,166],[-90.38483,38.81831,166],[-90.38487,38.81831,166],[-90.38491,38.81831,166],[-90.38495,38.81831,165],[-90.38499,38.81831,165],[-90.38503,38.81831,165],[-90.38507,38.81831,164],[-90.38511,38.81831,164],[-90.38515,38.81832,163],[-90.38518,38.81833,162],[-90.38521,38.81835,161],[-90.38525,38.81835,161],[-90.38529,38.81836,160],[-90.38533,38.81837,160],[-90.38536,38.81838,160],[-90.3854,38.81838,160],[-90.38543,38.81839,160],[-90.38547,38.8184,160],[-90.3855,38.81842,159],[-90.38552,38.81844,159],[-90.38553,38.81847,159],[-90.38554,38.8185,158],[-90.38553,38.81853,158],[-90.38553,38.81856,157],[-90.38552,38.8186,157],[-90.38551,38.81864,155],[-90.38551,38.81867,155],[-90.3855,38.8187,154],[-90.38549,38.81872,153],[-90.38547,38.81876,152],[-90.38546,38.81879,150],[-90.38546,38.81882,149],[-90.38546,38.81884,149],[-90.38546,38.81887,148],[-90.38546,38.8189,147],[-90.38545,38.81894,147],[-90.38544,38.81898,146],[-90.38541,38.81899,146],[-90.38539,38.81902,146],[-90.38536,38.81904,145],[-90.38534,38.81907,145],[-90.38532,38.81909,145],[-90.3853,38.81913,144],[-90.38528,38.81915,144],[-90.38525,38.81918,143],[-90.38524,38.81921,143],[-90.38522,38.81924,143],[-90.38523,38.81927,143],[-90.38523,38.81931,142],[-90.38525,38.81934,142],[-90.38526,38.81936,142],[-90.38529,38.81939,142],[-90.38532,38.81941,142],[-90.38535,38.81943,142],[-90.38537,38.81945,141],[-90.38541,38.81947,141],[-90.38544,38.81948,140],[-90.38547,38.8195,139],[-90.3855,38.81952,139],[-90.38553,38.81954,138],[-90.38556,38.81956,137],[-90.3856,38.81958,136],[-90.38563,38.8196,135],[-90.38566,38.81961,135],[-90.3857,38.81961,135],[-90.38574,38.81962,135],[-90.38578,38.81963,134],[-90.38581,38.81964,134],[-90.38586,38.81964,134],[-90.3859,38.81963,134],[-90.38594,38.81962,134],[-90.38597,38.8196,135],[-90.38601,38.8196,135],[-90.38605,38.81959,135],[-90.38608,38.81959,134],[-90.38613,38.81958,134],[-90.38616,38.81958,134],[-90.38621,38.81957,133],[-90.38625,38.81956,133],[-90.38628,38.81955,133],[-90.38631,38.81953,132],[-90.38635,38.81953,131],[-90.38639,38.81953,131],[-90.38643,38.81952,131],[-90.38646,38.81951,131],[-90.38649,38.8195,131],[-90.38653,38.8195,131],[-90.38656,38.8195,131],[-90.3866,38.81949,131],[-90.38663,38.81948,131],[-90.38666,38.81946,131],[-90.38669,38.81944,132],[-90.38672,38.81943,132],[-90.38675,38.81942,132],[-90.38678,38.8194,132],[-90.38681,38.81938,132],[-90.38684,38.81935,132],[-90.38687,38.81933,132],[-90.3869,38.81931,132],[-90.38693,38.8193,132],[-90.38698,38.81929,132],[-90.38702,38.81929,132],[-90.38706,38.81928,132],[-90.38709,38.81926,132],[-90.38713,38.81925,132],[-90.38715,38.81923,132],[-90.38718,38.81921,132],[-90.38721,38.81919,132],[-90.38725,38.81917,132],[-90.38728,38.81914,133],[-90.38731,38.81912,134],[-90.38734,38.81911,134],[-90.38737,38.81907,136],[-90.3874,38.81905,136],[-90.38743,38.81905,136],[-90.38746,38.81902,137],[-90.38748,38.819,138],[-90.38751,38.81898,139],[-90.38754,38.81896,139],[-90.38757,38.81894,140],[-90.3876,38.81892,141],[-90.38764,38.81891,141],[-90.38767,38.81889,141],[-90.3877,38.81887,142],[-90.38773,38.81885,142],[-90.38776,38.81883,142],[-90.38779,38.81881,143],[-90.38783,38.81879,142],[-90.38785,38.81877,142],[-90.38788,38.81874,142],[-90.38791,38.81872,142],[-90.38794,38.8187,142],[-90.38799,38.81869,141],[-90.38803,38.8187,141],[-90.38806,38.81869,141],[-90.3881,38.81869,140],[-90.38813,38.81867,140],[-90.38817,38.81867,140],[-90.38822,38.81866,139],[-90.38825,38.81864,139],[-90.38828,38.81862,138],[-90.3883,38.81859,139],[-90.38833,38.81857,139],[-90.38836,38.81854,141],[-90.3884,38.81853,141],[-90.38844,38.81851,142],[-90.38849,38.81848,143],[-90.38851,38.81846,144],[-90.38853,38.81843,145],[-90.38855,38.8184,147],[-90.38857,38.81838,148],[-90.3886,38.81835,149],[-90.38862,38.81833,150],[-90.38865,38.8183,151],[-90.38868,38.81829,150],[-90.38873,38.81828,150],[-90.38876,38.81826,150],[-90.38879,38.81824,151],[-90.3888,38.81821,152],[-90.38884,38.81818,152],[-90.38887,38.81816,153],[-90.3889,38.81813,153],[-90.38891,38.8181,154],[-90.38891,38.81807,155],[-90.38894,38.81805,155],[-90.38897,38.81804,155],[-90.389,38.81803,154],[-90.38903,38.81801,154],[-90.38908,38.81801,153],[-90.38911,38.818,153],[-90.38915,38.81799,152],[-90.38918,38.81798,152],[-90.38922,38.81798,151],[-90.38925,38.81797,151],[-90.38929,38.81798,150],[-90.38932,38.81799,150],[-90.38937,38.818,149],[-90.38941,38.81801,148],[-90.38945,38.818,148],[-90.38949,38.81799,148],[-90.38952,38.81801,147],[-90.38956,38.81802,147],[-90.3896,38.81802,147],[-90.38964,38.81802,147],[-90.38968,38.81801,147],[-90.38973,38.818,147],[-90.38976,38.81798,147],[-90.3898,38.81796,147],[-90.38984,38.81795,146],[-90.38987,38.81793,146],[-90.38991,38.81793,146],[-90.38995,38.81793,145],[-90.39,38.81792,145],[-90.39003,38.81791,145],[-90.39008,38.81789,144],[-90.39011,38.81788,144],[-90.39015,38.81788,143],[-90.39019,38.81787,143],[-90.39023,38.81786,142],[-90.39027,38.81784,142],[-90.39031,38.81782,142],[-90.39034,38.81781,141],[-90.39036,38.81779,141],[-90.3904,38.81777,141],[-90.39044,38.81777,141],[-90.39048,38.81777,141],[-90.39052,38.81776,140],[-90.39055,38.81773,141],[-90.39058,38.81771,141],[-90.39061,38.81769,141],[-90.39066,38.81768,140],[-90.39069,38.81766,140],[-90.39072,38.81765,140],[-90.39074,38.81763,140],[-90.39076,38.8176,141],[-90.39075,38.81758,141],[-90.39075,38.81754,142],[-90.39077,38.81752,142],[-90.3908,38.81751,142],[-90.39083,38.81748,142],[-90.39086,38.81747,142],[-90.3909,38.81744,143],[-90.39095,38.81741,143],[-90.39098,38.81738,143],[-90.391,38.81735,144],[-90.39101,38.81732,145],[-90.39103,38.8173,145],[-90.39106,38.81728,145],[-90.39109,38.81727,145],[-90.39111,38.81725,145],[-90.39114,38.81721,145],[-90.39116,38.81719,146],[-90.39119,38.81717,146],[-90.39123,38.81715,147],[-90.39126,38.81713,147],[-90.39129,38.81711,147],[-90.39133,38.81709,147],[-90.39136,38.81707,148],[-90.3914,38.81706,147],[-90.39143,38.81704,148],[-90.39147,38.81703,147],[-90.3915,38.81701,148],[-90.39154,38.817,147],[-90.39158,38.81698,148],[-90.39161,38.81697,147],[-90.39165,38.81696,147],[-90.39168,38.81694,148],[-90.39171,38.81693,148],[-90.39174,38.81691,149],[-90.39178,38.81689,149],[-90.39179,38.81686,150],[-90.39182,38.81683,150],[-90.39185,38.81682,150],[-90.39188,38.8168,150],[-90.39192,38.81678,150],[-90.39194,38.81676,150],[-90.39197,38.81673,150],[-90.39198,38.8167,150],[-90.39199,38.81667,150],[-90.39203,38.81666,149],[-90.39206,38.81664,149],[-90.39209,38.81662,149],[-90.39211,38.81659,149],[-90.39215,38.81657,148],[-90.39218,38.81656,148],[-90.3922,38.81653,148],[-90.39222,38.8165,147],[-90.39223,38.81647,148],[-90.39225,38.81645,147],[-90.39227,38.81643,147],[-90.3923,38.81641,147],[-90.39232,38.81638,147],[-90.3923,38.81635,148],[-90.39229,38.81633,149],[-90.3923,38.8163,149],[-90.39231,38.81627,150],[-90.39231,38.81625,151],[-90.39235,38.81624,150],[-90.39238,38.81622,150],[-90.3924,38.81619,150],[-90.39242,38.81616,150],[-90.39245,38.81615,149],[-90.39248,38.81613,149],[-90.39252,38.81611,148],[-90.39256,38.81609,146],[-90.3926,38.81608,145],[-90.39263,38.81606,144],[-90.39265,38.81603,144],[-90.39265,38.816,144],[-90.39265,38.81597,144],[-90.39264,38.81594,144],[-90.39262,38.81591,145],[-90.39259,38.81587,145],[-90.39259,38.81584,145],[-90.39258,38.8158,147],[-90.39258,38.81576,148],[-90.39257,38.81574,148],[-90.39256,38.8157,150],[-90.39254,38.81568,151],[-90.39255,38.81565,151],[-90.39256,38.81561,152],[-90.39258,38.81558,152],[-90.3926,38.81556,151],[-90.39263,38.81553,151],[-90.39266,38.81552,150],[-90.39269,38.8155,149],[-90.39272,38.81548,149],[-90.39275,38.81546,148],[-90.39279,38.81544,147],[-90.39283,38.81541,147],[-90.39286,38.81539,147],[-90.39289,38.81537,147],[-90.39293,38.81535,146],[-90.39296,38.81533,146],[-90.39299,38.81531,146],[-90.39302,38.81529,146],[-90.39305,38.81527,146],[-90.39306,38.81524,146],[-90.39307,38.81522,146],[-90.39308,38.81518,146],[-90.39309,38.81515,146],[-90.39309,38.81512,146],[-90.39308,38.81508,146],[-90.39307,38.81505,147],[-90.39306,38.81502,147],[-90.39306,38.81499,147],[-90.39304,38.81496,147],[-90.39302,38.81493,147],[-90.393,38.8149,147],[-90.393,38.81486,147],[-90.39299,38.81483,147],[-90.39299,38.8148,147],[-90.39298,38.81476,147],[-90.39298,38.81471,147],[-90.39297,38.81468,148],[-90.39296,38.81465,148],[-90.39296,38.81463,148],[-90.39295,38.8146,148],[-90.39293,38.81457,149],[-90.39291,38.81455,149],[-90.39288,38.81453,150],[-90.39285,38.81452,151],[-90.39281,38.8145,152],[-90.39278,38.81448,152],[-90.39275,38.81446,153],[-90.39273,38.81443,153],[-90.3927,38.81441,153],[-90.39266,38.8144,153],[-90.39263,38.81439,153],[-90.3926,38.81437,153],[-90.39256,38.81435,153],[-90.39253,38.81434,153],[-90.3925,38.81432,153],[-90.39246,38.8143,152],[-90.39243,38.81428,152],[-90.3924,38.81425,151],[-90.39237,38.81423,151],[-90.39234,38.81421,151],[-90.39231,38.81418,150],[-90.39229,38.81415,149],[-90.39226,38.81412,148],[-90.39223,38.81411,147],[-90.39224,38.81408,145],[-90.39226,38.81406,144],[-90.39228,38.81403,142],[-90.39231,38.81401,141],[-90.39233,38.81398,140],[-90.39235,38.81395,138],[-90.39237,38.81392,137],[-90.39239,38.81389,135],[-90.3924,38.81387,136],[-90.39242,38.81384,136],[-90.39244,38.81381,137],[-90.39248,38.81377,138],[-90.39247,38.81372,138],[-90.39254,38.8136,138],[-90.39258,38.81355,138],[-90.39261,38.81352,137],[-90.39263,38.81349,137],[-90.39266,38.81346,137],[-90.39267,38.81342,136],[-90.39269,38.81339,136],[-90.39271,38.81336,135],[-90.39275,38.81333,135],[-90.39279,38.81331,134],[-90.39282,38.81329,134],[-90.39286,38.81326,134],[-90.39289,38.81324,133],[-90.39293,38.81322,133],[-90.39299,38.8132,133],[-90.39307,38.81317,132],[-90.39309,38.81311,132],[-90.39312,38.81308,132],[-90.39316,38.81304,133],[-90.39319,38.81301,133],[-90.39323,38.81298,133],[-90.39326,38.81296,133],[-90.39329,38.81293,133],[-90.39332,38.81291,134],[-90.39333,38.81288,134],[-90.39338,38.81287,134],[-90.39342,38.81287,134],[-90.39345,38.81285,134],[-90.39348,38.81282,134],[-90.3935,38.8128,134],[-90.39352,38.81277,134],[-90.39353,38.81274,134],[-90.39355,38.81276,134],[-90.3936,38.81276,134],[-90.39363,38.81274,134],[-90.39366,38.81272,134],[-90.39369,38.8127,134],[-90.39374,38.81268,134],[-90.39379,38.81265,135],[-90.39383,38.81262,135],[-90.39385,38.8126,135],[-90.39388,38.81258,136],[-90.39391,38.81256,136],[-90.39393,38.81253,136],[-90.39396,38.81251,136],[-90.39399,38.81249,137],[-90.39402,38.81246,137],[-90.39405,38.81243,137],[-90.39408,38.81241,137],[-90.39411,38.81239,137],[-90.39413,38.81238,137],[-90.39416,38.81235,137],[-90.39419,38.81233,137],[-90.39422,38.8123,137],[-90.39424,38.81228,137],[-90.39427,38.81225,137],[-90.3943,38.81223,137],[-90.39432,38.81221,138],[-90.39435,38.81219,138],[-90.39438,38.81216,138],[-90.39441,38.81214,138],[-90.39444,38.81212,138],[-90.39446,38.8121,137],[-90.39449,38.81208,137],[-90.39453,38.81205,137],[-90.39455,38.81203,137],[-90.39458,38.81201,137],[-90.3946,38.81198,137],[-90.39463,38.81196,137],[-90.39466,38.81194,137],[-90.39469,38.81192,136],[-90.39471,38.81189,136],[-90.39474,38.81187,136],[-90.39477,38.81185,135],[-90.3948,38.81183,135],[-90.39483,38.81181,134],[-90.39485,38.81178,134],[-90.39488,38.81176,134],[-90.39491,38.81174,133],[-90.39494,38.81172,133],[-90.39497,38.8117,133]]],
        "bbox": [
          -90.3836,
          38.81964,
          -90.39507,
          38.81113
        ]
      },
      "properties": {
        "name": "2.21.2021"
      }
    }
  ]
}