{
  "type": "FeatureCollection",
  "features": [
    {
      "type": "Feature",
      "geometry": {
        "type": "MultiLineString",
        "coordinates": [[[-90.39496,38.81169,133],[-90.39493,38.81172,133],[-90.3949,38.81174,134],[-90.39487,38.81176,134],[-90.39484,38.81178,134],[-90.39481,38.81181,135],[-90.39478,38.81183,135],[-90.39475,38.81185,135],[-90.39473,38.81188,136],[-90.3947,38.81191,136],[-90.39467,38.81194,137],[-90.39464,38.81196,137],[-90.39461,38.81199,137],[-90.39459,38.81201,137],[-90.39455,38.81204,137],[-90.39452,38.81206,137],[-90.3945,38.81208,137],[-90.39445,38.81211,137],[-90.39442,38.81213,138],[-90.39438,38.81216,138],[-90.39435,38.81218,138],[-90.39431,38.81221,138],[-90.39428,38.81223,137],[-90.39425,38.81226,137],[-90.39422,38.81229,137],[-90.3942,38.81231,137],[-90.39417,38.81233,137],[-90.39415,38.81235,137],[-90.39411,38.81237,137],[-90.39408,38.81239,137],[-90.39405,38.81241,137],[-90.39402,38.81243,137],[-90.39399,38.81245,137],[-90.39395,38.81248,137],[-90.39392,38.81251,136],[-90.39389,38.81252,136],[-90.39386,38.81255,136],[-90.39383,38.81257,136],[-90.3938,38.8126,135],[-90.39377,38.81262,135],[-90.39373,38.81265,135],[-90.3937,38.81266,134],[-90.39368,38.81268,134],[-90.39364,38.8127,134],[-90.39361,38.81271,134],[-90.39358,38.81273,134],[-90.39353,38.81276,134],[-90.39349,38.81279,134],[-90.39345,38.81282,134],[-90.39341,38.81284,134],[-90.39336,38.81285,134],[-90.39332,38.81283,134],[-90.39327,38.8128,134],[-90.39323,38.81278,134],[-90.39319,38.81276,134],[-90.39316,38.81274,134],[-90.39312,38.81272,134],[-90.39307,38.8127,134],[-90.39302,38.81268,134],[-90.39298,38.81266,134],[-90.39295,38.81264,134],[-90.39291,38.81261,134],[-90.39288,38.81258,134],[-90.39284,38.81255,134],[-90.39279,38.81253,134],[-90.39274,38.81251,134],[-90.3927,38.81248,134],[-90.39266,38.81245,134],[-90.39262,38.81242,134],[-90.39258,38.81239,135],[-90.39254,38.81237,135],[-90.39249,38.81234,135],[-90.39245,38.81232,135],[-90.39241,38.8123,135],[-90.39237,38.81226,135],[-90.39234,38.81224,135],[-90.3923,38.81222,135],[-90.39225,38.81219,135],[-90.3922,38.81217,136],[-90.39215,38.81215,136],[-90.3921,38.81215,136],[-90.39206,38.81215,136],[-90.392,38.81216,137],[-90.39195,38.81218,137],[-90.39191,38.8122,137],[-90.39187,38.81223,137],[-90.39184,38.81226,137],[-90.39181,38.8123,136],[-90.39178,38.81233,136],[-90.39175,38.81236,136],[-90.39172,38.81239,136],[-90.39169,38.81243,135],[-90.39165,38.81246,135],[-90.39161,38.81249,135],[-90.39158,38.81253,135],[-90.39156,38.81256,136],[-90.39154,38.81261,137],[-90.39153,38.81264,138],[-90.39152,38.81268,139],[-90.39154,38.81272,139],[-90.39157,38.81275,139],[-90.39161,38.81277,139],[-90.39164,38.8128,139],[-90.39168,38.81283,139],[-90.39172,38.81285,139],[-90.39175,38.81288,139],[-90.39179,38.81289,138],[-90.39182,38.81291,138],[-90.39185,38.81293,138],[-90.39187,38.81295,138],[-90.3919,38.81298,138],[-90.39193,38.813,138],[-90.39197,38.81303,138],[-90.392,38.81305,138],[-90.39203,38.81307,138],[-90.39206,38.81308,138],[-90.3921,38.8131,138],[-90.39212,38.81312,138],[-90.39215,38.81314,138],[-90.39218,38.81316,138],[-90.39222,38.81318,137],[-90.39225,38.8132,137],[-90.39229,38.81322,137],[-90.39231,38.81324,137],[-90.39234,38.81327,137],[-90.39239,38.81329,137],[-90.39243,38.81332,137],[-90.39247,38.81334,137],[-90.39252,38.81336,137],[-90.39256,38.81339,136],[-90.39256,38.81343,137],[-90.39254,38.81347,137],[-90.39252,38.81351,138],[-90.3925,38.81354,138],[-90.39249,38.81358,138],[-90.39248,38.81362,138],[-90.39248,38.81366,138],[-90.39247,38.8137,138],[-90.39245,38.81373,138],[-90.39243,38.81377,137],[-90.39241,38.81381,137],[-90.39239,38.81384,136],[-90.39236,38.81387,135],[-90.39234,38.81391,136],[-90.39231,38.81394,137],[-90.39226,38.81396,138],[-90.39221,38.81396,137],[-90.39215,38.81395,137],[-90.39211,38.81394,137],[-90.39205,38.81391,137],[-90.39194,38.81388,138],[-90.39189,38.81386,140],[-90.39184,38.81383,141],[-90.3918,38.81381,142],[-90.39177,38.81378,143],[-90.39173,38.81374,143],[-90.39171,38.81371,144],[-90.39169,38.81368,143],[-90.39166,38.81365,143],[-90.39163,38.81363,144],[-90.39163,38.8136,144],[-90.39163,38.81357,144],[-90.39163,38.81354,144],[-90.39163,38.81351,145],[-90.39164,38.81348,145],[-90.39162,38.81345,146],[-90.39159,38.81343,147],[-90.39157,38.81341,147],[-90.39153,38.81338,148],[-90.39149,38.81336,149],[-90.39145,38.81334,150],[-90.39141,38.81333,150],[-90.39139,38.8133,150],[-90.39137,38.81327,151],[-90.39134,38.81325,151],[-90.3913,38.81321,151],[-90.39129,38.81318,151],[-90.39126,38.81314,152],[-90.39124,38.8131,152],[-90.39122,38.81306,152],[-90.3912,38.81302,151],[-90.39119,38.81298,150],[-90.39118,38.81294,150],[-90.39114,38.8129,149],[-90.39111,38.81287,149],[-90.39109,38.81283,148],[-90.39108,38.81279,147],[-90.39107,38.81275,147],[-90.3911,38.81271,145],[-90.3911,38.81268,145],[-90.39109,38.81264,144],[-90.39107,38.8126,143],[-90.39105,38.81256,143],[-90.39105,38.81252,142],[-90.39102,38.81249,142],[-90.39099,38.81246,143],[-90.39097,38.81242,144],[-90.39094,38.81238,145],[-90.39091,38.81235,146],[-90.3909,38.81231,147],[-90.39091,38.81226,148],[-90.39092,38.81222,149],[-90.39092,38.81218,149],[-90.39093,38.81214,149],[-90.39095,38.81212,149],[-90.39094,38.81208,149],[-90.39091,38.81203,149],[-90.39092,38.81199,149],[-90.39092,38.81195,149],[-90.39092,38.81187,149],[-90.39091,38.81184,148],[-90.39089,38.81181,148],[-90.3909,38.81178,147],[-90.39093,38.81176,147],[-90.39095,38.81173,147],[-90.39098,38.8117,146],[-90.39102,38.81169,146],[-90.39105,38.81167,145],[-90.39107,38.81165,145],[-90.39109,38.81162,144],[-90.3911,38.81159,143],[-90.3911,38.81156,143],[-90.39111,38.81153,143],[-90.3911,38.8115,142],[-90.39109,38.81146,142],[-90.39108,38.81143,141],[-90.39104,38.81139,141],[-90.39084,38.81123,141],[-90.3908,38.81122,141],[-90.39076,38.81122,141],[-90.3907,38.81124,142],[-90.39065,38.81125,142],[-90.3906,38.81126,142],[-90.39054,38.81127,142],[-90.39049,38.81126,142],[-90.39046,38.81123,142],[-90.39043,38.81121,142],[-90.39039,38.8112,142],[-90.39035,38.8112,142],[-90.39032,38.81119,142],[-90.39028,38.81119,142],[-90.39024,38.81118,143],[-90.39019,38.81118,144],[-90.39015,38.81117,144],[-90.39011,38.81116,145],[-90.39008,38.81115,145],[-90.39005,38.81113,146],[-90.39001,38.8111,146],[-90.39,38.81108,146],[-90.38997,38.81106,146],[-90.38994,38.81106,147],[-90.38991,38.81107,147],[-90.38987,38.81108,148],[-90.38983,38.81108,149],[-90.3898,38.81108,149],[-90.38975,38.8111,150],[-90.38964,38.8111,151],[-90.38958,38.81111,151],[-90.38955,38.81116,151],[-90.38952,38.81119,151],[-90.38948,38.81121,151],[-90.38945,38.81124,151],[-90.38942,38.81127,152],[-90.38939,38.81131,152],[-90.38934,38.81132,152],[-90.38928,38.81133,152],[-90.38923,38.81134,152],[-90.38919,38.81137,152],[-90.38915,38.8114,152],[-90.3891,38.81142,153],[-90.38905,38.81142,154],[-90.38901,38.81141,155],[-90.38896,38.81142,156],[-90.38892,38.81144,157],[-90.38888,38.81146,158],[-90.38883,38.81148,159],[-90.3888,38.81151,160],[-90.38877,38.81155,161],[-90.38874,38.81158,162],[-90.3887,38.81161,163],[-90.38867,38.81163,163],[-90.38864,38.81167,164],[-90.38862,38.8117,164],[-90.38858,38.81173,164],[-90.38857,38.81177,164],[-90.38858,38.81181,163],[-90.38858,38.81185,163],[-90.38858,38.8119,162],[-90.38859,38.81194,162],[-90.38861,38.81197,162],[-90.38864,38.812,161],[-90.38868,38.81203,161],[-90.38869,38.81207,161],[-90.3887,38.81212,162],[-90.3887,38.81216,162],[-90.38869,38.8122,163],[-90.38868,38.81223,163],[-90.38866,38.81226,164],[-90.38862,38.81229,165],[-90.38858,38.81232,166],[-90.38857,38.81235,167],[-90.38858,38.81239,167],[-90.38857,38.81242,168],[-90.38857,38.81247,169],[-90.38855,38.81253,170],[-90.38855,38.81257,170],[-90.38853,38.81259,171],[-90.38853,38.81262,171],[-90.3885,38.81265,172],[-90.38845,38.81268,174],[-90.3884,38.81269,176],[-90.38835,38.81271,178],[-90.3883,38.81273,180],[-90.38827,38.81274,181],[-90.38825,38.81272,181],[-90.38813,38.81279,186],[-90.38808,38.81281,187],[-90.38807,38.81285,188],[-90.38804,38.81289,189],[-90.38803,38.81296,190],[-90.38801,38.813,190],[-90.38801,38.81304,191],[-90.388,38.81307,191],[-90.38797,38.81311,192],[-90.38794,38.81314,193],[-90.38793,38.8132,194],[-90.38789,38.81323,194],[-90.38785,38.81321,194],[-90.3878,38.81324,194],[-90.38772,38.81325,194],[-90.38766,38.81329,194],[-90.38765,38.81333,195],[-90.38763,38.81336,195],[-90.38761,38.8134,195],[-90.3876,38.81344,195],[-90.38756,38.81346,195],[-90.38755,38.81351,195],[-90.38754,38.81354,195],[-90.38753,38.81358,195],[-90.38753,38.81363,196],[-90.38752,38.81367,196],[-90.38751,38.81371,197],[-90.3875,38.81375,198],[-90.38751,38.81379,198],[-90.38753,38.81383,199],[-90.38757,38.81385,199],[-90.3876,38.81388,199],[-90.38764,38.81391,200],[-90.38768,38.81393,200],[-90.38774,38.81394,200],[-90.38794,38.81394,199],[-90.38797,38.81396,199],[-90.38801,38.81394,199],[-90.38805,38.81394,199],[-90.38809,38.81394,199],[-90.38812,38.81394,198],[-90.38816,38.81394,198],[-90.3882,38.81395,198],[-90.38823,38.81396,198],[-90.38827,38.81398,198],[-90.38829,38.814,198],[-90.38833,38.81402,198],[-90.38836,38.81403,198],[-90.3884,38.81405,198],[-90.38844,38.81406,197],[-90.38848,38.81407,197],[-90.38852,38.81407,197],[-90.38856,38.81407,196],[-90.3886,38.81409,196],[-90.38864,38.8141,196],[-90.38867,38.81411,195],[-90.38871,38.81412,195],[-90.38874,38.81413,194],[-90.38878,38.81415,194],[-90.38882,38.81415,193],[-90.38885,38.81416,193],[-90.3889,38.81417,192],[-90.38896,38.81418,192],[-90.38901,38.81419,192],[-90.38906,38.81421,192],[-90.38912,38.81422,192],[-90.38916,38.81424,192],[-90.38921,38.81426,191],[-90.38925,38.81428,191],[-90.38929,38.8143,190],[-90.38933,38.81432,190],[-90.38937,38.81435,190],[-90.38941,38.81438,189],[-90.38944,38.81441,189],[-90.38945,38.81445,189],[-90.38946,38.81449,190],[-90.38947,38.81453,190],[-90.38947,38.81457,190],[-90.38948,38.81461,190],[-90.38951,38.81464,190],[-90.38952,38.81468,191],[-90.38952,38.81472,191],[-90.38951,38.81476,190],[-90.3895,38.8148,190],[-90.38952,38.81483,190],[-90.38952,38.81487,189],[-90.38954,38.81491,189],[-90.38956,38.81495,188],[-90.38959,38.81499,188],[-90.38962,38.81502,188],[-90.38966,38.81505,187],[-90.38969,38.81509,187],[-90.38973,38.81512,186],[-90.38976,38.81515,185],[-90.38979,38.81518,184],[-90.38983,38.81521,184],[-90.38988,38.81523,183],[-90.38993,38.81526,182],[-90.38998,38.81528,182],[-90.39002,38.8153,181],[-90.39006,38.81533,181],[-90.3901,38.81534,180],[-90.39015,38.81536,180],[-90.3902,38.81539,180],[-90.39025,38.8154,180],[-90.39031,38.81541,180],[-90.39035,38.81543,180],[-90.39039,38.81544,180],[-90.39044,38.81545,181],[-90.3905,38.81546,182],[-90.39057,38.81548,182],[-90.39063,38.81549,183],[-90.3907,38.8155,183],[-90.39077,38.8155,184],[-90.39082,38.81551,185],[-90.39087,38.8155,185],[-90.39092,38.81549,185],[-90.39097,38.81547,185],[-90.391,38.81544,186],[-90.39105,38.81544,186],[-90.3911,38.81544,186],[-90.39115,38.81544,186],[-90.3912,38.81543,186],[-90.39126,38.81544,185],[-90.39131,38.81545,185],[-90.39135,38.81547,185],[-90.39139,38.81549,185],[-90.39143,38.81552,184],[-90.39147,38.81555,184],[-90.3915,38.81558,183],[-90.39169,38.81568,181],[-90.39171,38.81571,180],[-90.39173,38.81575,179],[-90.39174,38.81579,178],[-90.39175,38.81595,175],[-90.39175,38.81598,174],[-90.39174,38.81601,174],[-90.39174,38.81604,173],[-90.39173,38.81609,172],[-90.39173,38.81615,170],[-90.39166,38.81627,168],[-90.39164,38.8163,167],[-90.39162,38.81633,167],[-90.39161,38.81636,166],[-90.3916,38.81638,165],[-90.39157,38.81641,165],[-90.39156,38.81644,165],[-90.39154,38.81647,164],[-90.39152,38.8165,164],[-90.39151,38.81653,163],[-90.39149,38.81655,163],[-90.39146,38.81657,163],[-90.39142,38.81659,163],[-90.39137,38.81663,163],[-90.39134,38.81667,162],[-90.39131,38.8167,162],[-90.39127,38.81672,162],[-90.39122,38.81674,162],[-90.39118,38.81677,161],[-90.39113,38.81677,162],[-90.3911,38.8168,162],[-90.39105,38.81682,162],[-90.39102,38.81685,161],[-90.39098,38.81684,162],[-90.39097,38.81678,163],[-90.39095,38.81672,165],[-90.39091,38.8167,166],[-90.39085,38.81669,166],[-90.39082,38.81675,165],[-90.39076,38.81676,165],[-90.39072,38.81677,165],[-90.39067,38.81679,165],[-90.39064,38.81681,165],[-90.39059,38.81684,165],[-90.39054,38.81686,165],[-90.3905,38.81688,166],[-90.39046,38.81689,166],[-90.39045,38.81693,165],[-90.39047,38.81697,164],[-90.39048,38.81701,163],[-90.3905,38.81705,161],[-90.39052,38.81708,160],[-90.39051,38.81712,159],[-90.39052,38.81716,158],[-90.39049,38.8172,156],[-90.39047,38.81723,156],[-90.39046,38.81725,155],[-90.39048,38.81724,155],[-90.39045,38.81725,155],[-90.39045,38.81727,154],[-90.39049,38.81726,154],[-90.3906,38.81725,154],[-90.39064,38.8173,151],[-90.39065,38.81735,149],[-90.3906,38.81736,150],[-90.39054,38.81737,150],[-90.39051,38.81739,150],[-90.39049,38.81743,149],[-90.39054,38.81744,148],[-90.39059,38.81744,147],[-90.39064,38.81744,146],[-90.39068,38.81747,145],[-90.39071,38.8175,143],[-90.39072,38.81754,142],[-90.39072,38.81758,142],[-90.39076,38.8176,141],[-90.39073,38.81762,141],[-90.39072,38.81765,140],[-90.39077,38.81767,139],[-90.39074,38.81771,139],[-90.39068,38.81772,139],[-90.39064,38.81773,140],[-90.39068,38.81772,139],[-90.39073,38.81769,139],[-90.39076,38.81766,139],[-90.39075,38.81763,140],[-90.39078,38.81759,141],[-90.3908,38.81756,141],[-90.39081,38.81753,141],[-90.39085,38.8175,141],[-90.39088,38.81748,142],[-90.39092,38.81745,142],[-90.39096,38.81743,142],[-90.39097,38.81739,143],[-90.391,38.81736,144],[-90.39103,38.81734,144],[-90.39106,38.81731,144],[-90.39108,38.81728,145],[-90.39111,38.81726,144],[-90.39113,38.81723,145],[-90.39115,38.81721,145],[-90.39118,38.81718,146],[-90.39121,38.81716,146],[-90.39125,38.81712,147],[-90.39127,38.81709,148],[-90.39127,38.81706,150],[-90.3913,38.81703,150],[-90.39132,38.81701,151],[-90.39135,38.81699,151],[-90.39137,38.81696,152],[-90.39139,38.81693,153],[-90.39141,38.81691,153],[-90.39144,38.81689,153],[-90.39148,38.8169,152],[-90.39152,38.81689,152],[-90.39156,38.81689,151],[-90.3916,38.81689,150],[-90.39165,38.81688,150],[-90.39167,38.81686,150],[-90.39172,38.81685,150],[-90.39176,38.81688,149],[-90.39181,38.81689,149],[-90.39186,38.81687,149],[-90.39188,38.81684,150],[-90.3919,38.8168,150],[-90.39193,38.81676,150],[-90.39195,38.81672,150],[-90.39194,38.81668,151],[-90.39197,38.81665,150],[-90.39201,38.81664,150],[-90.39206,38.81663,149],[-90.39209,38.8166,149],[-90.39213,38.81656,149],[-90.39217,38.81654,148],[-90.39222,38.81652,147],[-90.39223,38.81648,147],[-90.39226,38.81645,147],[-90.39231,38.81643,146],[-90.39235,38.81641,146],[-90.39234,38.81637,146],[-90.39233,38.81633,148],[-90.39232,38.8163,149],[-90.39233,38.81626,150],[-90.39244,38.81616,149],[-90.3925,38.8161,148],[-90.39255,38.81609,147],[-90.3926,38.81608,145],[-90.39264,38.81606,144],[-90.39268,38.81603,143],[-90.39271,38.816,142],[-90.39274,38.81596,141],[-90.39273,38.81592,141],[-90.39268,38.81593,143],[-90.39263,38.81569,147],[-90.39265,38.81565,148],[-90.39268,38.81562,147],[-90.39271,38.81559,147],[-90.39273,38.81556,146],[-90.39275,38.81552,146],[-90.39279,38.8155,146],[-90.39282,38.81546,146],[-90.39285,38.81543,146],[-90.3929,38.81541,145],[-90.39295,38.8154,144],[-90.393,38.81538,144],[-90.39305,38.81535,143],[-90.39308,38.81533,143],[-90.39311,38.81529,144],[-90.39312,38.81526,144],[-90.39312,38.81522,144],[-90.3931,38.81518,145],[-90.3931,38.81514,146],[-90.39309,38.81509,146],[-90.39307,38.81506,147],[-90.39305,38.81501,147],[-90.393,38.81495,148],[-90.39297,38.81492,148],[-90.39298,38.81488,148],[-90.39298,38.81485,148],[-90.39291,38.81461,149],[-90.39288,38.81458,150],[-90.39284,38.81457,151],[-90.39281,38.81454,152],[-90.39276,38.8145,152],[-90.39278,38.81446,152],[-90.39272,38.81445,153],[-90.39264,38.81445,154],[-90.39262,38.81441,154],[-90.39261,38.81439,153],[-90.39263,38.81435,152],[-90.39259,38.81436,153],[-90.39255,38.81435,153],[-90.39251,38.81433,153],[-90.39249,38.81431,153],[-90.39246,38.81429,152],[-90.39242,38.81426,152],[-90.3924,38.81423,151],[-90.3924,38.81421,151],[-90.39238,38.81418,150],[-90.39237,38.81416,150],[-90.39235,38.81412,148],[-90.39233,38.8141,146],[-90.3923,38.81408,145],[-90.39226,38.81409,146],[-90.39229,38.81404,143],[-90.39232,38.81401,141],[-90.39235,38.81398,140],[-90.39238,38.81395,139],[-90.3924,38.81392,137],[-90.39244,38.81389,136],[-90.39245,38.81385,137],[-90.39251,38.81366,138],[-90.39252,38.81364,138]]],
        "bbox": [
          -90.3875,
          38.81773,
          -90.39496,
          38.81106
        ]
      },
      "properties": {
        "name": "4.22.2020"
      }
    }
  ]
}