{
  "type": "FeatureCollection",
  "features": [
    {
      "type": "Feature",
      "geometry": {
        "type": "MultiLineString",
        "coordinates": [[[-90.39077,38.81103,140],[-90.39079,38.81113,141],[-90.39081,38.81122,141],[-90.39088,38.81132,142],[-90.39096,38.81139,142],[-90.39105,38.81146,142],[-90.39111,38.81155,143],[-90.39107,38.81165,145],[-90.39099,38.81171,146],[-90.39092,38.81179,147],[-90.39091,38.81188,149],[-90.39092,38.81198,149],[-90.39091,38.81209,149],[-90.39089,38.81218,149],[-90.39087,38.81228,148],[-90.39096,38.81236,146],[-90.39104,38.81243,143],[-90.39104,38.81253,142],[-90.39103,38.81263,144],[-90.39107,38.81271,146],[-90.39109,38.8128,147],[-90.39113,38.81289,149],[-90.39116,38.81298,151],[-90.39119,38.81308,152],[-90.39124,38.81317,152],[-90.39132,38.81325,151],[-90.39142,38.81331,150],[-90.39153,38.81334,148],[-90.39158,38.81344,147],[-90.39161,38.81354,145],[-90.39166,38.81363,143],[-90.39174,38.81371,143],[-90.39184,38.81378,141],[-90.39191,38.81386,139],[-90.392,38.81394,139],[-90.39212,38.81399,140],[-90.39221,38.81405,143],[-90.39229,38.81412,148],[-90.39234,38.81421,151],[-90.39243,38.81428,152],[-90.39252,38.81434,153],[-90.39262,38.81439,153],[-90.3927,38.81447,153],[-90.3928,38.81454,152],[-90.39289,38.81462,149],[-90.39295,38.81469,148],[-90.39296,38.8148,148],[-90.39299,38.81489,148],[-90.39305,38.81497,147],[-90.39313,38.81505,146],[-90.3932,38.81513,143],[-90.39323,38.81522,142],[-90.39319,38.81531,141],[-90.39309,38.81538,141],[-90.39297,38.81541,144],[-90.39286,38.81545,145],[-90.39275,38.81548,148],[-90.39268,38.81558,148],[-90.39264,38.81567,148],[-90.39262,38.81576,146],[-90.39263,38.81585,144],[-90.39265,38.81594,144],[-90.39263,38.81605,144],[-90.39255,38.81611,147],[-90.39249,38.81619,147],[-90.39237,38.81621,150],[-90.39232,38.81612,154],[-90.39229,38.81607,155],[-90.39241,38.81609,151],[-90.39236,38.81618,151],[-90.39226,38.81624,152],[-90.39221,38.81633,151],[-90.39219,38.81644,149],[-90.39213,38.81652,149],[-90.39203,38.8166,150],[-90.39191,38.81661,152],[-90.39179,38.81664,154],[-90.39169,38.81671,154],[-90.39163,38.8168,152],[-90.39152,38.81686,153],[-90.39142,38.81692,153],[-90.39135,38.81699,151],[-90.39125,38.81706,150],[-90.39114,38.81709,151],[-90.39106,38.81718,148],[-90.391,38.81726,146],[-90.39097,38.81736,144],[-90.39091,38.81744,143],[-90.39083,38.81752,141],[-90.39077,38.81761,140],[-90.39067,38.81767,140],[-90.39055,38.81769,141],[-90.39046,38.81774,141],[-90.39037,38.81781,141],[-90.39029,38.81789,141],[-90.39018,38.81793,142],[-90.39005,38.81794,144],[-90.38994,38.81798,145],[-90.38982,38.81801,146],[-90.3897,38.81803,147],[-90.38959,38.81806,146],[-90.38948,38.81802,147],[-90.38936,38.818,149],[-90.38923,38.81798,151],[-90.38909,38.81797,154],[-90.38912,38.81806,150],[-90.38899,38.81808,153],[-90.38889,38.81812,154],[-90.38882,38.81821,152],[-90.38872,38.81827,151],[-90.38861,38.81829,151],[-90.38852,38.81836,148],[-90.38841,38.81842,146],[-90.38837,38.81851,142],[-90.38829,38.81858,139],[-90.38819,38.81864,139],[-90.38808,38.81868,141],[-90.38797,38.8187,142],[-90.38789,38.81877,142],[-90.38777,38.81881,143],[-90.38767,38.81885,142],[-90.38755,38.81888,142],[-90.38748,38.81895,140],[-90.38743,38.81905,136],[-90.38733,38.8191,135],[-90.38725,38.81916,132],[-90.3872,38.8192,132],[-90.38711,38.81925,132],[-90.387,38.8193,132],[-90.38691,38.81936,132],[-90.38681,38.81942,132],[-90.38673,38.81949,131],[-90.38682,38.81946,131],[-90.38677,38.8194,132],[-90.38668,38.81946,131],[-90.38664,38.81955,131],[-90.38652,38.81959,131],[-90.38641,38.81963,131],[-90.38631,38.81968,131],[-90.38619,38.8197,131],[-90.38607,38.81969,131],[-90.38595,38.8197,131],[-90.38583,38.8197,131],[-90.38575,38.81972,131],[-90.38571,38.81963,134],[-90.38563,38.81956,137],[-90.38553,38.81949,140],[-90.38541,38.81948,140],[-90.38529,38.81945,141],[-90.38527,38.81936,142],[-90.38527,38.81926,143],[-90.38531,38.81917,144],[-90.38537,38.81908,145],[-90.38543,38.81899,146],[-90.38547,38.81889,147],[-90.38549,38.81879,151],[-90.38551,38.81869,154],[-90.38555,38.81859,157],[-90.38558,38.8185,158],[-90.38553,38.81841,159],[-90.38543,38.81836,160],[-90.38532,38.81834,160],[-90.3852,38.8183,163],[-90.38508,38.81827,165],[-90.38497,38.81824,167],[-90.38485,38.81823,168],[-90.38474,38.81826,168],[-90.38463,38.8183,167],[-90.38452,38.81832,167],[-90.38442,38.81837,165],[-90.38429,38.81839,165],[-90.38417,38.81843,164],[-90.38405,38.81846,164],[-90.38392,38.81845,166],[-90.38379,38.81844,166],[-90.38373,38.81835,168],[-90.38373,38.81825,168],[-90.38369,38.81816,168],[-90.38367,38.81807,169],[-90.38361,38.81798,169],[-90.38361,38.81787,170],[-90.38367,38.81779,170],[-90.38373,38.81771,172],[-90.38382,38.81764,173],[-90.38387,38.81754,175],[-90.38392,38.81746,176],[-90.38396,38.81736,178],[-90.384,38.81728,179],[-90.38405,38.81719,180],[-90.38404,38.81709,182],[-90.38396,38.817,182],[-90.3839,38.81692,182],[-90.38384,38.81683,184],[-90.38378,38.81675,186],[-90.3837,38.81669,188],[-90.38358,38.81667,188],[-90.38344,38.81669,188],[-90.38332,38.81668,188],[-90.38319,38.81668,189],[-90.38307,38.81666,190],[-90.38295,38.81664,191],[-90.38282,38.81664,190],[-90.38268,38.81665,190],[-90.38254,38.81667,191],[-90.38242,38.81668,191],[-90.38229,38.81666,192],[-90.38218,38.81664,191],[-90.38205,38.81662,191],[-90.38194,38.81657,191],[-90.38183,38.81653,191],[-90.38171,38.8165,191],[-90.38159,38.81652,191],[-90.38146,38.81653,192],[-90.38134,38.81656,193],[-90.38123,38.81659,193],[-90.38111,38.81661,194],[-90.38099,38.81661,195],[-90.38086,38.81664,196],[-90.38073,38.81663,197],[-90.3806,38.81664,198],[-90.38049,38.81667,199],[-90.38036,38.81669,199],[-90.38023,38.8167,199],[-90.38011,38.81669,198],[-90.37999,38.81671,196],[-90.37989,38.81666,196],[-90.37981,38.8166,195],[-90.3797,38.81655,195],[-90.37958,38.81651,195],[-90.37949,38.81646,195],[-90.3794,38.81639,195],[-90.3793,38.81633,195],[-90.37921,38.81627,195],[-90.37912,38.81621,195],[-90.37901,38.81614,196],[-90.3789,38.81609,197],[-90.3788,38.81604,198],[-90.3787,38.81598,199],[-90.37864,38.8159,199],[-90.37858,38.8158,198],[-90.37851,38.81572,197],[-90.37845,38.81563,195],[-90.37844,38.81554,194],[-90.37841,38.81545,194],[-90.37839,38.81536,193],[-90.37834,38.81526,193],[-90.3783,38.81517,192],[-90.37821,38.8151,192],[-90.3781,38.81505,192],[-90.37801,38.81499,192],[-90.37794,38.81492,192],[-90.37793,38.81482,191],[-90.37795,38.81473,191],[-90.37799,38.81462,190],[-90.37805,38.81454,189],[-90.37813,38.81447,189],[-90.3782,38.81438,189],[-90.37827,38.8143,189],[-90.37834,38.81422,189],[-90.37841,38.81415,189],[-90.37844,38.81405,190],[-90.37838,38.81397,189],[-90.37845,38.81389,190],[-90.37852,38.81381,191],[-90.37857,38.81373,191],[-90.37864,38.81364,192],[-90.37872,38.81356,193],[-90.37877,38.81347,193],[-90.37881,38.81338,192],[-90.37886,38.81329,192],[-90.37891,38.81321,192],[-90.37892,38.81311,191],[-90.37894,38.81302,191],[-90.37898,38.81292,192],[-90.37901,38.81282,193],[-90.37904,38.81272,194],[-90.37905,38.81262,195],[-90.37908,38.81252,195],[-90.37908,38.81241,195],[-90.3791,38.81231,196],[-90.37911,38.81222,196],[-90.37912,38.81213,196],[-90.37914,38.81203,196],[-90.37916,38.81193,197],[-90.37918,38.81183,196],[-90.37919,38.81174,196],[-90.37921,38.81165,196],[-90.37922,38.81154,193],[-90.37925,38.81144,191],[-90.37928,38.81135,190],[-90.37929,38.81126,189],[-90.37931,38.81116,188],[-90.37933,38.81107,187],[-90.37936,38.81099,187],[-90.37937,38.81089,186],[-90.3794,38.8108,186],[-90.37943,38.81071,186],[-90.37947,38.81062,185],[-90.37949,38.81052,185],[-90.3795,38.81042,184],[-90.37951,38.81033,184],[-90.37953,38.81023,183],[-90.37956,38.81015,184],[-90.37958,38.81004,184],[-90.3796,38.80995,184],[-90.37964,38.80985,184],[-90.37968,38.80977,184],[-90.37972,38.80968,185],[-90.37978,38.8096,185],[-90.37984,38.80952,185],[-90.3799,38.80944,186],[-90.37996,38.80935,186],[-90.38003,38.80928,187],[-90.38011,38.80921,187],[-90.38019,38.80914,187],[-90.38026,38.80907,187],[-90.38035,38.809,186],[-90.38044,38.80894,186],[-90.38052,38.80887,184],[-90.38062,38.80883,183],[-90.38073,38.80878,182],[-90.38084,38.80874,180],[-90.38094,38.80869,180],[-90.38104,38.80865,179],[-90.38112,38.80856,178],[-90.38118,38.80848,178],[-90.38129,38.80844,178],[-90.38141,38.80844,178],[-90.38154,38.80843,179],[-90.38166,38.80841,180],[-90.38178,38.80841,180],[-90.38192,38.80842,180],[-90.38205,38.80842,179],[-90.38217,38.80841,178],[-90.38229,38.80841,177],[-90.38244,38.80843,176],[-90.38256,38.80846,175],[-90.38268,38.80848,174],[-90.3828,38.80849,173],[-90.38292,38.80852,172],[-90.38303,38.80857,171],[-90.38314,38.80861,170],[-90.38326,38.80866,168],[-90.38336,38.80871,167],[-90.38346,38.80876,167],[-90.38357,38.80881,166],[-90.38368,38.80887,166],[-90.38377,38.80894,166],[-90.38384,38.80902,167],[-90.38394,38.80907,168],[-90.38405,38.80914,169],[-90.38416,38.80919,170],[-90.38423,38.80926,170],[-90.38432,38.80933,170],[-90.38442,38.80939,170],[-90.38452,38.80946,169],[-90.38463,38.8095,168],[-90.38473,38.80956,168],[-90.38481,38.80963,167],[-90.3849,38.80969,167],[-90.38503,38.80973,167],[-90.38511,38.80981,169],[-90.38519,38.80987,170],[-90.38529,38.80994,171],[-90.38539,38.80999,172],[-90.3855,38.81003,173],[-90.3856,38.81009,173],[-90.38571,38.81013,173],[-90.3858,38.8102,173],[-90.38588,38.81027,173],[-90.38598,38.81034,173],[-90.38607,38.81041,172],[-90.38616,38.81048,172],[-90.38625,38.81054,171],[-90.38637,38.8106,170],[-90.38649,38.81062,170],[-90.38661,38.81066,170],[-90.38672,38.81071,170],[-90.38684,38.81074,169],[-90.38696,38.81076,168],[-90.38708,38.81078,166],[-90.38719,38.8108,164],[-90.38732,38.81081,162],[-90.38744,38.81082,161],[-90.38756,38.81082,161],[-90.38769,38.81082,161],[-90.38782,38.81083,162],[-90.38794,38.81083,163],[-90.38806,38.81083,164],[-90.38817,38.81085,165],[-90.3883,38.81087,166],[-90.38842,38.81087,164],[-90.38855,38.81086,161],[-90.38867,38.81087,159],[-90.38879,38.81089,157],[-90.3889,38.81091,155],[-90.38904,38.8109,153],[-90.38916,38.81089,151],[-90.38928,38.8109,151],[-90.38942,38.81091,150],[-90.38953,38.81093,149],[-90.38966,38.81094,148],[-90.38978,38.81094,147],[-90.3899,38.81094,146],[-90.39004,38.81096,144],[-90.39016,38.81096,143],[-90.39028,38.81098,142],[-90.3904,38.81098,141],[-90.39051,38.81098,141],[-90.39066,38.81099,140],[-90.39076,38.81105,140],[-90.39081,38.81113,141],[-90.39078,38.81123,141],[-90.39069,38.81129,142],[-90.39057,38.8113,142],[-90.39045,38.81126,142],[-90.39035,38.81121,142],[-90.39023,38.81119,143],[-90.39011,38.81117,145],[-90.38999,38.81115,146],[-90.38988,38.81112,148],[-90.38978,38.81117,149],[-90.38966,38.81118,151],[-90.38954,38.81116,151],[-90.38946,38.81123,151],[-90.3894,38.81132,152],[-90.3893,38.81137,152],[-90.38918,38.81138,152],[-90.3891,38.81145,153],[-90.389,38.8115,156],[-90.38889,38.81153,158],[-90.38879,38.81158,161],[-90.38872,38.81166,163],[-90.38864,38.81174,163],[-90.38859,38.81183,163],[-90.38863,38.81193,161],[-90.38871,38.81202,161],[-90.3888,38.81208,160],[-90.3888,38.81217,161],[-90.38876,38.81225,163],[-90.38869,38.81234,165],[-90.38859,38.81238,167],[-90.38861,38.81247,168],[-90.38863,38.81256,168],[-90.38859,38.81265,170],[-90.3885,38.81271,173],[-90.38838,38.81272,177],[-90.38826,38.81272,180],[-90.38817,38.81278,184],[-90.38806,38.81282,188],[-90.38808,38.81291,188],[-90.38805,38.813,190],[-90.38803,38.81309,191],[-90.38797,38.81317,193],[-90.3879,38.81326,194],[-90.3878,38.8133,195],[-90.38769,38.81326,194],[-90.3876,38.81333,194],[-90.3876,38.81343,195],[-90.38757,38.81352,195],[-90.38755,38.81361,196],[-90.38752,38.81371,197],[-90.38752,38.8138,198],[-90.3876,38.81388,199],[-90.38768,38.81394,200],[-90.38782,38.81395,199],[-90.38794,38.81395,199],[-90.38806,38.81394,199],[-90.38819,38.81393,198],[-90.38831,38.81395,198],[-90.38841,38.81399,197],[-90.38829,38.81402,198],[-90.38817,38.814,198],[-90.38805,38.81395,199],[-90.38793,38.81394,199],[-90.38782,38.81395,199],[-90.38769,38.81394,200],[-90.38758,38.81397,200],[-90.38746,38.81399,200],[-90.38734,38.81401,200],[-90.38722,38.81403,200],[-90.3871,38.81404,200],[-90.38698,38.81407,200],[-90.38686,38.81408,200],[-90.38674,38.8141,200],[-90.38662,38.81411,200],[-90.38651,38.81413,199],[-90.38649,38.81422,200],[-90.38654,38.81431,201],[-90.38661,38.81438,202],[-90.38671,38.81444,202],[-90.38682,38.81448,203],[-90.38692,38.81453,203],[-90.38697,38.81461,203],[-90.38688,38.81456,203],[-90.38676,38.81459,203],[-90.38667,38.81466,203],[-90.38657,38.81471,203],[-90.38648,38.81478,204],[-90.38649,38.81487,204],[-90.38639,38.81484,204],[-90.38647,38.81477,204],[-90.38657,38.81469,203],[-90.38665,38.81461,203],[-90.38667,38.81451,203],[-90.38662,38.81442,202],[-90.38657,38.81433,201],[-90.38653,38.81424,200],[-90.38647,38.81416,199],[-90.38658,38.81411,199],[-90.38669,38.81408,200],[-90.38681,38.81407,200],[-90.38694,38.81406,200],[-90.38706,38.81404,200],[-90.38717,38.81401,200],[-90.38731,38.81399,200],[-90.38743,38.81396,200],[-90.38756,38.81395,200],[-90.38768,38.81392,200],[-90.38782,38.81393,199],[-90.38793,38.81395,199],[-90.38806,38.81392,199],[-90.38819,38.81391,198],[-90.3883,38.81392,198],[-90.38841,38.81398,197],[-90.38852,38.81402,196],[-90.38863,38.81406,195],[-90.38875,38.81411,194],[-90.38886,38.81415,193],[-90.38898,38.81418,192],[-90.38912,38.81419,192],[-90.38923,38.81423,191],[-90.38933,38.8143,190],[-90.38945,38.81436,189],[-90.38953,38.81442,189],[-90.38953,38.81453,190],[-90.38952,38.81463,190],[-90.38949,38.81472,191],[-90.38949,38.81482,190],[-90.38955,38.8149,189],[-90.38963,38.81498,188],[-90.38973,38.81504,188],[-90.38983,38.81511,186],[-90.3899,38.81519,184],[-90.39,38.81525,182],[-90.39009,38.81531,181],[-90.3902,38.81536,180],[-90.39031,38.81537,181],[-90.39042,38.81542,181],[-90.39054,38.81545,182],[-90.39065,38.81549,183],[-90.39079,38.81548,185],[-90.39091,38.81547,185],[-90.39102,38.81542,186],[-90.39114,38.81538,186],[-90.39126,38.81539,186],[-90.39138,38.81542,185],[-90.39147,38.81548,184],[-90.39154,38.81556,183],[-90.39161,38.81563,182],[-90.39169,38.81571,180],[-90.39159,38.81566,182],[-90.3917,38.8157,180],[-90.39182,38.81567,178],[-90.39194,38.81568,175],[-90.392,38.81576,171],[-90.39194,38.81568,175],[-90.39199,38.8156,174],[-90.39198,38.81549,175],[-90.39196,38.81541,176],[-90.39193,38.81531,176],[-90.39195,38.81521,173],[-90.39199,38.81512,169],[-90.39198,38.81503,166],[-90.39193,38.81494,165],[-90.39193,38.81485,164],[-90.39192,38.81474,163],[-90.39191,38.81464,162],[-90.39188,38.81453,162],[-90.39179,38.81447,163],[-90.39178,38.81437,161],[-90.39179,38.81427,158],[-90.39177,38.81418,156],[-90.39187,38.81412,151],[-90.39199,38.81411,148],[-90.3921,38.81408,146],[-90.39222,38.81406,144],[-90.39233,38.81401,141],[-90.3924,38.81393,138],[-90.39245,38.81385,137],[-90.39249,38.81376,138],[-90.39253,38.81367,138],[-90.39257,38.81357,138],[-90.39262,38.81348,137],[-90.3926,38.81339,136],[-90.3925,38.81333,136],[-90.3924,38.81327,137],[-90.39232,38.8132,137],[-90.39223,38.81312,137],[-90.39213,38.81307,137],[-90.39202,38.813,137],[-90.39194,38.81293,137],[-90.39183,38.81289,138],[-90.39171,38.81285,139],[-90.39161,38.8128,140],[-90.39155,38.81272,139],[-90.39155,38.81262,137],[-90.39161,38.81253,135],[-90.39168,38.81244,135],[-90.39173,38.81235,136],[-90.39179,38.81226,137],[-90.39186,38.81219,137],[-90.39188,38.8121,138],[-90.39188,38.812,139],[-90.39189,38.81191,139],[-90.39186,38.81181,139],[-90.39177,38.81172,139],[-90.39173,38.81163,138],[-90.39174,38.81154,137],[-90.39178,38.81143,136],[-90.39181,38.81133,135],[-90.39185,38.81124,135],[-90.39178,38.81116,135],[-90.39166,38.81119,135],[-90.39155,38.81118,135],[-90.39142,38.81117,136],[-90.39129,38.81116,137],[-90.39118,38.81115,137],[-90.39105,38.81113,138],[-90.39092,38.81112,140],[-90.39082,38.81106,140]]],
        "bbox": [
          -90.37793,
          38.81972,
          -90.39323,
          38.80841
        ]
      },
      "properties": {
        "name": "10.17.2017"
      }
    }
  ]
}