{
  "type": "FeatureCollection",
  "features": [
    {
      "type": "Feature",
      "geometry": {
        "type": "MultiLineString",
        "coordinates": [[[-90.39239,38.81394,138],[-90.39237,38.81397,139],[-90.39234,38.81399,140],[-90.39232,38.81401,141],[-90.39229,38.81403,142],[-90.39225,38.81403,142],[-90.39222,38.81403,142],[-90.39218,38.81401,141],[-90.39215,38.81399,140],[-90.39212,38.81398,140],[-90.39208,38.81398,140],[-90.39205,38.81398,141],[-90.39202,38.81396,140],[-90.39199,38.81394,139],[-90.39196,38.81392,139],[-90.39193,38.8139,139],[-90.39189,38.81389,139],[-90.39186,38.81388,141],[-90.39184,38.81385,141],[-90.39182,38.81383,142],[-90.39179,38.81381,143],[-90.39176,38.81379,143],[-90.39174,38.81377,144],[-90.39172,38.81374,144],[-90.3917,38.81372,144],[-90.39168,38.81369,144],[-90.39166,38.81367,144],[-90.39164,38.81364,144],[-90.39163,38.81361,143],[-90.39162,38.81358,144],[-90.39162,38.81356,144],[-90.39162,38.81353,145],[-90.39161,38.8135,145],[-90.39159,38.81347,146],[-90.39158,38.81344,147],[-90.39156,38.81341,147],[-90.39154,38.81339,148],[-90.39151,38.81337,148],[-90.39148,38.81336,149],[-90.39144,38.81334,150],[-90.39141,38.81333,150],[-90.39138,38.81332,151],[-90.39135,38.81329,151],[-90.39133,38.81327,151],[-90.3913,38.81325,152],[-90.39128,38.81323,152],[-90.39125,38.8132,152],[-90.39123,38.81318,152],[-90.39122,38.81315,152],[-90.39121,38.81312,152],[-90.39119,38.81309,152],[-90.39117,38.81307,153],[-90.39115,38.81304,153],[-90.39113,38.81302,152],[-90.3911,38.813,152],[-90.39108,38.81298,152],[-90.39108,38.81295,151],[-90.39107,38.81292,151],[-90.39105,38.81289,150],[-90.39103,38.81286,150],[-90.39101,38.81284,149],[-90.39101,38.81281,149],[-90.39101,38.81278,148],[-90.391,38.81275,148],[-90.39099,38.81273,147],[-90.39098,38.8127,146],[-90.39097,38.81267,146],[-90.39096,38.81264,145],[-90.39096,38.81261,145],[-90.39095,38.81258,144],[-90.39095,38.81255,143],[-90.39095,38.81252,143],[-90.39094,38.8125,142],[-90.39092,38.81247,143],[-90.39091,38.81244,144],[-90.3909,38.81241,145],[-90.39089,38.81238,146],[-90.39089,38.81235,146],[-90.39089,38.81232,147],[-90.39089,38.81229,148],[-90.39089,38.81226,148],[-90.3909,38.81223,149],[-90.39091,38.8122,149],[-90.39091,38.81217,149],[-90.39091,38.81214,149],[-90.3909,38.81211,149],[-90.39089,38.81208,149],[-90.39088,38.81205,149],[-90.39088,38.81202,149],[-90.39088,38.812,149],[-90.39088,38.81196,149],[-90.39089,38.81194,149],[-90.3909,38.81191,149],[-90.39091,38.81188,149],[-90.39092,38.81186,148],[-90.39093,38.81183,148],[-90.39094,38.8118,148],[-90.39096,38.81177,147],[-90.39096,38.81174,147],[-90.39097,38.81171,146],[-90.39097,38.81168,146],[-90.39096,38.81165,145],[-90.39095,38.81162,145],[-90.39094,38.81159,145],[-90.39093,38.81157,144],[-90.39091,38.81154,144],[-90.3909,38.81151,144],[-90.39089,38.81148,143],[-90.39089,38.81145,143],[-90.39088,38.81143,143],[-90.39088,38.8114,142],[-90.39087,38.81137,142],[-90.39086,38.81135,142],[-90.39083,38.81133,142],[-90.39079,38.81133,142],[-90.39075,38.81133,142],[-90.39071,38.81134,142],[-90.39067,38.81134,142],[-90.39064,38.81133,142],[-90.3906,38.81133,142],[-90.39057,38.81131,142],[-90.39054,38.81129,142],[-90.39052,38.81127,142],[-90.39049,38.81125,142],[-90.39045,38.81124,142],[-90.39041,38.81123,142],[-90.39038,38.81122,142],[-90.39034,38.81123,142],[-90.39031,38.81124,142],[-90.39027,38.81124,143],[-90.39023,38.81123,143],[-90.3902,38.81122,143],[-90.39016,38.81121,144],[-90.39013,38.8112,144],[-90.39009,38.81119,145],[-90.39005,38.81119,145],[-90.39002,38.81118,146],[-90.38998,38.81116,146],[-90.38995,38.81116,147],[-90.38991,38.81117,147],[-90.38988,38.81118,148],[-90.38984,38.81119,148],[-90.3898,38.81119,149],[-90.38977,38.81119,149],[-90.38973,38.81118,150],[-90.38969,38.81117,150],[-90.38965,38.81117,151],[-90.38962,38.81118,151],[-90.38959,38.8112,151],[-90.38956,38.81122,151],[-90.38954,38.81124,151],[-90.38951,38.81126,151],[-90.38948,38.81128,151],[-90.38946,38.8113,151],[-90.38944,38.81132,152],[-90.38941,38.81134,152],[-90.38937,38.81135,152],[-90.38933,38.81135,152],[-90.38929,38.81135,152],[-90.38926,38.81137,152],[-90.38923,38.81139,152],[-90.38921,38.81141,152],[-90.38918,38.81144,152],[-90.38914,38.81145,152],[-90.38911,38.81147,153],[-90.38908,38.81148,154],[-90.38904,38.81149,155],[-90.38901,38.81151,155],[-90.38898,38.81152,156],[-90.38894,38.81154,157],[-90.38891,38.81154,158],[-90.38887,38.81154,159],[-90.38883,38.81154,160],[-90.38881,38.81156,160],[-90.3888,38.81159,161],[-90.38878,38.81162,161],[-90.38875,38.81164,162],[-90.38872,38.81165,163],[-90.38869,38.81168,163],[-90.38867,38.8117,163],[-90.38865,38.81172,163],[-90.38864,38.81175,163],[-90.38863,38.81178,163],[-90.38862,38.81181,163],[-90.38861,38.81184,163],[-90.3886,38.81186,163],[-90.38863,38.81189,162],[-90.38864,38.81191,161],[-90.38865,38.81194,161],[-90.38867,38.81197,161],[-90.3887,38.81199,160],[-90.38873,38.81201,160],[-90.38874,38.81203,160],[-90.38875,38.81206,160],[-90.38876,38.81209,161],[-90.38875,38.81213,161],[-90.38874,38.81215,162],[-90.38872,38.81218,162],[-90.3887,38.8122,163],[-90.38868,38.81222,163],[-90.38865,38.81224,164],[-90.38863,38.81226,164],[-90.38863,38.8123,165],[-90.38862,38.81232,165],[-90.3886,38.81235,166],[-90.38859,38.81238,167],[-90.38861,38.81241,167],[-90.38862,38.81244,167],[-90.38861,38.81247,168],[-90.38859,38.81249,169],[-90.38858,38.81252,169],[-90.38856,38.81255,170],[-90.38856,38.81258,170],[-90.38855,38.8126,170],[-90.38853,38.81263,171],[-90.3885,38.81265,172],[-90.38847,38.81267,173],[-90.38845,38.81269,174],[-90.38842,38.8127,175],[-90.38838,38.81271,177],[-90.38834,38.81272,178],[-90.3883,38.81272,179],[-90.38826,38.81272,180],[-90.38822,38.81273,182],[-90.38818,38.81275,183],[-90.38815,38.81277,185],[-90.38812,38.81278,186],[-90.38808,38.81278,187],[-90.38808,38.81281,187],[-90.38807,38.81284,188],[-90.38807,38.81287,188],[-90.38805,38.8129,189],[-90.38803,38.81292,189],[-90.38803,38.81296,190],[-90.38804,38.81299,190],[-90.38804,38.81302,190],[-90.38803,38.81305,191],[-90.38801,38.81308,191],[-90.388,38.8131,192],[-90.38798,38.81313,192],[-90.38797,38.81316,193],[-90.38796,38.81318,193],[-90.38793,38.8132,194],[-90.38791,38.81322,194],[-90.3879,38.81325,194],[-90.38787,38.81327,195],[-90.38784,38.81329,195],[-90.38781,38.81329,195],[-90.38777,38.81329,195],[-90.38773,38.81329,195],[-90.38769,38.8133,195],[-90.38766,38.8133,194],[-90.38763,38.81332,194],[-90.38762,38.81335,194],[-90.38762,38.81338,195],[-90.38762,38.81341,195],[-90.38761,38.81343,195],[-90.38759,38.81346,195],[-90.38758,38.81349,195],[-90.38757,38.81351,195],[-90.38757,38.81354,196],[-90.38756,38.81357,196],[-90.38756,38.8136,196],[-90.38755,38.81363,196],[-90.38755,38.81366,196],[-90.38754,38.81369,197],[-90.38754,38.81372,197],[-90.38753,38.81375,198],[-90.38753,38.81378,198],[-90.38754,38.81381,198],[-90.38757,38.81383,199],[-90.3876,38.81385,199],[-90.38763,38.81387,199],[-90.38764,38.81389,199],[-90.38767,38.81392,200],[-90.3877,38.81392,200],[-90.38773,38.81393,200],[-90.38777,38.81394,200],[-90.38781,38.81394,199],[-90.38784,38.81395,199],[-90.38788,38.81395,199],[-90.38792,38.81395,199],[-90.38796,38.81394,199],[-90.388,38.81393,199],[-90.38804,38.81393,199],[-90.38808,38.81393,199],[-90.38811,38.81393,198],[-90.38815,38.81394,198],[-90.38818,38.81396,198],[-90.38822,38.81397,198],[-90.38825,38.81398,198],[-90.38829,38.814,198],[-90.38833,38.814,198],[-90.38837,38.81401,198],[-90.3884,38.81402,197],[-90.38844,38.81404,197],[-90.38848,38.81405,197],[-90.38851,38.81406,197],[-90.38854,38.81408,196],[-90.38856,38.81411,197],[-90.38859,38.81413,196],[-90.38861,38.81415,196],[-90.38864,38.81417,196],[-90.38867,38.81419,196],[-90.3887,38.81421,195],[-90.38873,38.81423,195],[-90.38877,38.81424,194],[-90.3888,38.81425,194],[-90.38883,38.81426,193],[-90.38887,38.81426,193],[-90.3889,38.81426,192],[-90.38894,38.81426,192],[-90.38898,38.81426,192],[-90.38902,38.81426,192],[-90.38906,38.81426,192],[-90.38909,38.81427,192],[-90.38913,38.81429,192],[-90.38916,38.8143,192],[-90.3892,38.81431,192],[-90.38923,38.81433,191],[-90.38927,38.81435,191],[-90.3893,38.81436,190],[-90.38933,38.81438,190],[-90.38937,38.81439,190],[-90.3894,38.8144,190],[-90.38943,38.81442,189],[-90.38945,38.81445,189],[-90.38948,38.81447,189],[-90.38949,38.8145,190],[-90.3895,38.81453,190],[-90.38951,38.81456,190],[-90.38951,38.81458,190],[-90.38952,38.81461,190],[-90.38953,38.81464,190],[-90.38953,38.81467,190],[-90.38953,38.8147,191],[-90.38953,38.81473,191],[-90.38953,38.81476,190],[-90.38953,38.81478,190],[-90.38953,38.81481,190],[-90.38953,38.81484,190],[-90.38954,38.81487,189],[-90.38955,38.8149,189],[-90.38957,38.81492,189],[-90.38958,38.81495,189],[-90.38961,38.81497,188],[-90.38964,38.81499,188],[-90.38967,38.81501,188],[-90.3897,38.81502,188],[-90.38974,38.81503,188],[-90.38977,38.81505,187],[-90.3898,38.81506,187],[-90.38983,38.81508,187],[-90.38985,38.81511,186],[-90.38987,38.81513,185],[-90.3899,38.81515,185],[-90.38992,38.81517,184],[-90.38996,38.81519,184],[-90.38999,38.8152,183],[-90.39002,38.81522,183],[-90.39006,38.81524,182],[-90.39009,38.81525,182],[-90.39013,38.81526,182],[-90.39016,38.81528,181],[-90.3902,38.81529,181],[-90.39023,38.81529,181],[-90.39027,38.8153,181],[-90.39031,38.8153,181],[-90.39035,38.8153,182],[-90.39038,38.81531,182],[-90.39041,38.81533,182],[-90.39044,38.81535,182],[-90.39047,38.81536,182],[-90.39051,38.81537,182],[-90.39054,38.81538,183],[-90.39058,38.8154,183],[-90.39061,38.81541,183],[-90.39065,38.81543,183],[-90.39069,38.81544,184],[-90.39072,38.81545,184],[-90.39076,38.81546,184],[-90.3908,38.81547,185],[-90.39084,38.81548,185],[-90.39087,38.81549,185],[-90.39091,38.81549,185],[-90.39095,38.81549,185],[-90.39099,38.81548,185],[-90.39102,38.81547,186],[-90.39106,38.81546,186],[-90.3911,38.81544,186],[-90.39113,38.81543,186],[-90.39117,38.81543,186],[-90.39121,38.81544,186],[-90.39124,38.81544,185],[-90.39128,38.81545,185],[-90.39132,38.81546,185],[-90.39136,38.81546,185],[-90.3914,38.81546,185],[-90.39143,38.81548,184],[-90.39147,38.81549,184],[-90.3915,38.81551,184],[-90.39153,38.81553,183],[-90.39156,38.81555,183],[-90.39158,38.81557,183],[-90.39161,38.81559,183],[-90.39163,38.81561,182],[-90.39166,38.81564,182],[-90.39169,38.81566,181],[-90.39172,38.81567,180],[-90.39174,38.8157,179],[-90.39175,38.81573,179],[-90.39175,38.81576,178],[-90.39176,38.81579,177],[-90.39176,38.81582,177],[-90.39175,38.81585,177],[-90.39175,38.81588,176],[-90.39175,38.81591,176],[-90.39175,38.81594,175],[-90.39174,38.81597,174],[-90.39174,38.816,174],[-90.39173,38.81603,173],[-90.39172,38.81606,173],[-90.39172,38.81609,172],[-90.39171,38.81611,172],[-90.39171,38.81614,171],[-90.3917,38.81617,170],[-90.39169,38.8162,170],[-90.39167,38.81622,170],[-90.39166,38.81626,168],[-90.39165,38.81629,167],[-90.39164,38.81631,167],[-90.39161,38.81633,167],[-90.39159,38.81636,166],[-90.39157,38.81638,166],[-90.39155,38.81641,166],[-90.39154,38.81644,165],[-90.39152,38.81647,165],[-90.3915,38.81649,165],[-90.39148,38.81652,164],[-90.39146,38.81655,164],[-90.39145,38.81657,163],[-90.39141,38.81659,164],[-90.39139,38.81662,163],[-90.39137,38.81664,163],[-90.39134,38.81666,162],[-90.39133,38.81668,162],[-90.3913,38.81671,161],[-90.39128,38.81673,161],[-90.39126,38.81676,160],[-90.39124,38.81678,160],[-90.3912,38.81679,161],[-90.39116,38.81679,161],[-90.39113,38.8168,161],[-90.3911,38.81682,161],[-90.39108,38.81685,161],[-90.39104,38.81685,161],[-90.39099,38.81687,161],[-90.39099,38.81691,160],[-90.39102,38.81694,159],[-90.39098,38.81694,159],[-90.39095,38.81693,160],[-90.39093,38.8169,161],[-90.39092,38.81687,162],[-90.39092,38.81683,163],[-90.39094,38.81681,163],[-90.39093,38.81678,164],[-90.3909,38.81676,164],[-90.39087,38.81674,165],[-90.39085,38.81672,165],[-90.39081,38.81672,166],[-90.3908,38.81674,165],[-90.39077,38.81677,165],[-90.39074,38.81679,165],[-90.39072,38.81681,165],[-90.39069,38.8168,165],[-90.39066,38.81679,165],[-90.39061,38.81679,166],[-90.39058,38.8168,166],[-90.39055,38.81682,166],[-90.39052,38.81683,166],[-90.39052,38.81686,166],[-90.39048,38.81685,166],[-90.39045,38.81683,166],[-90.39041,38.81681,167],[-90.39039,38.81678,167],[-90.39038,38.81676,167],[-90.39035,38.81674,168],[-90.39039,38.81679,167],[-90.39041,38.81682,167],[-90.39043,38.81684,166],[-90.39047,38.81685,166],[-90.39048,38.81689,166],[-90.39048,38.81692,165],[-90.39049,38.81695,165],[-90.3905,38.81699,163],[-90.39051,38.81702,162],[-90.39051,38.81705,161],[-90.39051,38.81708,160],[-90.39051,38.81711,159],[-90.3905,38.81714,158],[-90.39049,38.81717,158],[-90.39049,38.8172,156],[-90.3905,38.81723,155],[-90.3905,38.81726,154],[-90.39048,38.81729,153],[-90.39047,38.81732,152],[-90.39048,38.81735,151],[-90.39049,38.81737,151],[-90.3905,38.8174,149],[-90.39051,38.81743,148],[-90.39053,38.81745,147],[-90.39052,38.81748,147],[-90.39048,38.81748,147],[-90.39044,38.81748,147],[-90.3904,38.81748,148],[-90.39036,38.81747,149],[-90.39033,38.81746,149],[-90.3903,38.81745,150],[-90.39026,38.81743,151],[-90.39023,38.81743,151],[-90.3902,38.81744,151],[-90.39016,38.81744,151],[-90.39013,38.81742,152],[-90.39012,38.8174,153],[-90.3901,38.81737,154],[-90.39008,38.81735,154],[-90.39006,38.81732,155],[-90.39006,38.8173,156],[-90.39005,38.81727,156],[-90.39004,38.81724,157],[-90.39003,38.81721,158],[-90.39001,38.81718,159],[-90.39,38.81715,159],[-90.38998,38.81712,160],[-90.38997,38.8171,161],[-90.38996,38.81707,161],[-90.38996,38.81704,162],[-90.38995,38.81701,163],[-90.38993,38.81698,164],[-90.38991,38.81696,164],[-90.3899,38.81693,164],[-90.38988,38.8169,165],[-90.38986,38.81687,165],[-90.38984,38.81685,165],[-90.38981,38.81683,165],[-90.38979,38.81681,166],[-90.38976,38.81679,166],[-90.38973,38.81677,166],[-90.3897,38.81675,166],[-90.38968,38.81672,167],[-90.38966,38.81669,167],[-90.38965,38.81666,167],[-90.38963,38.81663,167],[-90.38961,38.8166,168],[-90.3896,38.81657,168],[-90.38959,38.81655,168],[-90.38957,38.81652,168],[-90.38955,38.8165,168],[-90.38953,38.81647,168],[-90.38951,38.81645,168],[-90.38949,38.81642,168],[-90.38949,38.81639,169],[-90.38949,38.81636,169],[-90.38949,38.81633,169],[-90.38951,38.81631,170],[-90.38954,38.81629,170],[-90.38958,38.81628,170],[-90.38961,38.81626,170],[-90.3896,38.81623,171],[-90.38955,38.81621,171],[-90.38952,38.81619,171],[-90.38952,38.81616,171],[-90.38954,38.81614,172],[-90.38953,38.81611,172],[-90.3895,38.81609,172],[-90.38948,38.81607,172],[-90.38945,38.81605,172],[-90.38942,38.81603,172],[-90.38939,38.81602,172],[-90.38937,38.816,173],[-90.38934,38.81597,173],[-90.38932,38.81595,173],[-90.3893,38.81592,173],[-90.38928,38.81589,174],[-90.38927,38.81586,174],[-90.38926,38.81584,174],[-90.38924,38.81581,175],[-90.38922,38.81579,176],[-90.38921,38.81576,176],[-90.3892,38.81573,177],[-90.38919,38.8157,178],[-90.38918,38.81568,179],[-90.38918,38.81565,180],[-90.38917,38.81562,181],[-90.38915,38.81559,182],[-90.38913,38.81557,182],[-90.38911,38.81555,183],[-90.38908,38.81553,183],[-90.38906,38.81551,183],[-90.38903,38.81548,184],[-90.38901,38.81546,184],[-90.38899,38.81544,184],[-90.38897,38.81541,185],[-90.38895,38.81539,185],[-90.38894,38.81536,185],[-90.38892,38.81534,186],[-90.38891,38.81531,186],[-90.38889,38.81528,186],[-90.38889,38.81525,187],[-90.38888,38.81522,187],[-90.38889,38.81519,187],[-90.38889,38.81516,187],[-90.38888,38.81513,187],[-90.38887,38.8151,187],[-90.38887,38.81507,187],[-90.38887,38.81504,187],[-90.38888,38.81501,187],[-90.38891,38.81499,188],[-90.38892,38.81496,188],[-90.38892,38.81494,188],[-90.38892,38.81491,188],[-90.3889,38.81488,188],[-90.38887,38.81486,188],[-90.38884,38.81484,188],[-90.38882,38.81482,188],[-90.38878,38.8148,189],[-90.38875,38.81478,189],[-90.38872,38.81476,189],[-90.3887,38.81474,189],[-90.38867,38.81474,189],[-90.38863,38.81474,189],[-90.38859,38.81475,190],[-90.38856,38.81476,190],[-90.38851,38.81476,191],[-90.38848,38.81477,191],[-90.38844,38.81478,191],[-90.38841,38.81479,192],[-90.38837,38.8148,192],[-90.38833,38.8148,193],[-90.3883,38.8148,193],[-90.38826,38.8148,193],[-90.38821,38.81479,194],[-90.38818,38.81479,194],[-90.38814,38.81479,194],[-90.3881,38.81479,195],[-90.38806,38.81479,195],[-90.38802,38.8148,195],[-90.38798,38.8148,195],[-90.38794,38.81479,196],[-90.3879,38.81479,196],[-90.38787,38.81479,197],[-90.38783,38.81478,197],[-90.38779,38.81478,197],[-90.38776,38.81478,198],[-90.38772,38.81477,198],[-90.38769,38.81477,198],[-90.38765,38.81476,199],[-90.38762,38.81474,199],[-90.38759,38.81472,200],[-90.38757,38.81469,200],[-90.38755,38.81467,200],[-90.38752,38.81466,200],[-90.38748,38.81466,201],[-90.38744,38.81466,201],[-90.3874,38.81466,201],[-90.38737,38.81466,201],[-90.38733,38.81466,202],[-90.3873,38.81465,202],[-90.38727,38.81463,202],[-90.38723,38.81462,202],[-90.3872,38.81461,203],[-90.38716,38.81459,203],[-90.38713,38.81458,203],[-90.38709,38.81458,203],[-90.38706,38.81458,203],[-90.38702,38.81458,203],[-90.38698,38.81457,203],[-90.38695,38.81456,203],[-90.38692,38.81454,203],[-90.38689,38.81452,203],[-90.38686,38.8145,203],[-90.38683,38.81448,203],[-90.3868,38.81446,203],[-90.38677,38.81445,203],[-90.38674,38.81443,202],[-90.38671,38.81441,202],[-90.38667,38.8144,202],[-90.38664,38.81438,202],[-90.38661,38.81436,202],[-90.38659,38.81434,202],[-90.38657,38.81431,201],[-90.38654,38.81428,201],[-90.38653,38.81426,200],[-90.38651,38.81423,200],[-90.3865,38.8142,200],[-90.3865,38.81417,199],[-90.38651,38.81414,199],[-90.38653,38.81412,199],[-90.38657,38.8141,199],[-90.3866,38.8141,199],[-90.38664,38.81409,200],[-90.38667,38.81408,200],[-90.38671,38.81408,200],[-90.38675,38.81408,200],[-90.38678,38.81409,200],[-90.38682,38.81409,200],[-90.38685,38.8141,200],[-90.38689,38.81411,201],[-90.38693,38.81412,201],[-90.38697,38.81412,201],[-90.38701,38.81412,201],[-90.38704,38.81412,201],[-90.38708,38.81411,201],[-90.38711,38.8141,201],[-90.38715,38.81409,201],[-90.38719,38.81408,201],[-90.38723,38.81407,200],[-90.38726,38.81407,200],[-90.3873,38.81407,200],[-90.38734,38.81406,200],[-90.38738,38.81406,200],[-90.38742,38.81406,200],[-90.38746,38.81405,200],[-90.3875,38.81404,200],[-90.38753,38.81403,200],[-90.38757,38.81403,200],[-90.38761,38.81402,200],[-90.38765,38.81402,200],[-90.38769,38.81402,200],[-90.38772,38.81401,200],[-90.38776,38.81401,200],[-90.3878,38.81401,199],[-90.38783,38.814,199],[-90.38787,38.814,199],[-90.38791,38.814,199],[-90.38794,38.81399,199],[-90.38798,38.81399,199],[-90.38802,38.81399,199],[-90.38805,38.81399,199],[-90.38809,38.814,199],[-90.38812,38.81401,199],[-90.38816,38.81402,199],[-90.38819,38.81403,199],[-90.38822,38.81404,198],[-90.38826,38.81405,198],[-90.3883,38.81406,198],[-90.38833,38.81408,198],[-90.38837,38.81409,198],[-90.3884,38.8141,198],[-90.38843,38.81411,198],[-90.38847,38.81411,197],[-90.38851,38.81412,197],[-90.38854,38.81413,197],[-90.38858,38.81414,197],[-90.38861,38.81415,196],[-90.38865,38.81416,196],[-90.38869,38.81417,195],[-90.38872,38.81418,195],[-90.38876,38.81419,194],[-90.3888,38.81419,194],[-90.38884,38.8142,193],[-90.38888,38.8142,193],[-90.38892,38.81421,192],[-90.38895,38.81421,192],[-90.38899,38.81422,192],[-90.38903,38.81423,192],[-90.38906,38.81425,192],[-90.3891,38.81426,192],[-90.38913,38.81428,192],[-90.38916,38.8143,192],[-90.3892,38.81431,192],[-90.38923,38.81433,191],[-90.38927,38.81434,191],[-90.3893,38.81436,190],[-90.38933,38.81438,190],[-90.38936,38.8144,190],[-90.38939,38.81442,190],[-90.38941,38.81444,190],[-90.38944,38.81446,190],[-90.38946,38.81449,190],[-90.38947,38.81451,190],[-90.38948,38.81454,190],[-90.3895,38.81457,190],[-90.3895,38.8146,190],[-90.3895,38.81463,190],[-90.3895,38.81465,190],[-90.3895,38.81468,190],[-90.3895,38.81471,191],[-90.38949,38.81474,190],[-90.38949,38.81477,190],[-90.3895,38.8148,190],[-90.38951,38.81483,190],[-90.38952,38.81486,189],[-90.38953,38.81488,189],[-90.38955,38.81491,189],[-90.38957,38.81494,189],[-90.38959,38.81496,188],[-90.38962,38.81499,188],[-90.38964,38.81501,188],[-90.38967,38.81503,188],[-90.3897,38.81505,187],[-90.38973,38.81507,187],[-90.38976,38.81509,187],[-90.38978,38.81512,186],[-90.38981,38.81514,185],[-90.38984,38.81515,185],[-90.38987,38.81517,184],[-90.3899,38.81519,184],[-90.38993,38.81521,183],[-90.38996,38.81523,183],[-90.38999,38.81524,183],[-90.39003,38.81525,182],[-90.39006,38.81526,182],[-90.3901,38.81528,181],[-90.39014,38.81529,181],[-90.39017,38.8153,181],[-90.39021,38.81532,181],[-90.39024,38.81533,181],[-90.39027,38.81534,181],[-90.3903,38.81536,180],[-90.39033,38.81538,181],[-90.39036,38.8154,181],[-90.39039,38.81541,181],[-90.39043,38.81542,181],[-90.39047,38.81543,181],[-90.3905,38.81544,182],[-90.39054,38.81545,182],[-90.39058,38.81546,182],[-90.39061,38.81546,183],[-90.39065,38.81547,183],[-90.39069,38.81547,184],[-90.39073,38.81547,184],[-90.39077,38.81547,184],[-90.39081,38.81547,185],[-90.39084,38.81546,185],[-90.39088,38.81546,185],[-90.39091,38.81545,185],[-90.39095,38.81544,186],[-90.39099,38.81543,186],[-90.39103,38.81542,186],[-90.39107,38.81542,186],[-90.39111,38.81542,186],[-90.39115,38.81542,186],[-90.39118,38.81543,186],[-90.39122,38.81544,186],[-90.39125,38.81544,185],[-90.39129,38.81545,185],[-90.39132,38.81546,185],[-90.39136,38.81548,185],[-90.3914,38.8155,185],[-90.39143,38.81551,184],[-90.39146,38.81553,184],[-90.39149,38.81555,184],[-90.39152,38.81557,183],[-90.39155,38.81559,183],[-90.39158,38.81561,182],[-90.39161,38.81563,182],[-90.39164,38.81565,182],[-90.39167,38.81567,181],[-90.39171,38.81567,180],[-90.39175,38.81567,179],[-90.39179,38.81567,178],[-90.39183,38.81567,178],[-90.39187,38.81567,177],[-90.39191,38.81566,176],[-90.39194,38.81564,176],[-90.39197,38.81562,175],[-90.39199,38.81559,175],[-90.39201,38.81557,174],[-90.392,38.81553,175],[-90.39197,38.81552,176],[-90.39193,38.8155,177],[-90.39191,38.81547,178],[-90.39192,38.81544,177],[-90.39194,38.81541,177],[-90.39196,38.81539,176],[-90.39198,38.81536,175],[-90.39198,38.81533,175],[-90.39197,38.81531,175],[-90.39195,38.81528,175],[-90.39193,38.81525,175],[-90.39192,38.81522,174],[-90.39192,38.8152,173],[-90.39193,38.81517,172],[-90.39195,38.81514,170],[-90.39197,38.81512,169],[-90.39199,38.81509,168],[-90.392,38.81506,166],[-90.39201,38.81503,165],[-90.392,38.81501,164],[-90.39197,38.81498,165],[-90.39195,38.81496,165],[-90.39192,38.81494,166],[-90.3919,38.81491,166],[-90.39191,38.81488,165],[-90.39192,38.81485,165],[-90.39192,38.81482,164],[-90.39191,38.8148,165],[-90.3919,38.81477,164],[-90.39188,38.81474,165],[-90.39187,38.81471,164],[-90.39187,38.81468,164],[-90.39186,38.81465,164],[-90.39185,38.81462,164],[-90.39183,38.8146,164],[-90.39181,38.81458,164],[-90.3918,38.81455,164],[-90.39178,38.81452,164],[-90.39178,38.81449,164],[-90.39177,38.81446,164],[-90.39177,38.81443,163],[-90.39178,38.8144,162],[-90.39178,38.81437,161],[-90.39177,38.81434,161],[-90.39177,38.81431,160],[-90.39179,38.81429,159],[-90.39182,38.81427,157],[-90.39186,38.81426,156],[-90.39186,38.81423,155],[-90.39185,38.8142,155],[-90.39186,38.81417,154],[-90.39183,38.81414,153],[-90.39185,38.81412,152],[-90.39189,38.81412,151],[-90.39193,38.81412,150],[-90.39197,38.81413,149],[-90.39201,38.81412,149],[-90.39202,38.8141,148],[-90.39202,38.81407,146],[-90.39205,38.81404,144],[-90.39208,38.81404,144],[-90.39212,38.81404,143],[-90.39215,38.81405,144],[-90.39219,38.81406,144],[-90.39223,38.81405,143],[-90.39226,38.81405,143],[-90.3923,38.81405,143],[-90.39229,38.81408,145],[-90.39232,38.8141,146],[-90.39234,38.81412,148],[-90.39235,38.81415,149],[-90.39235,38.81418,150],[-90.39231,38.81418,150],[-90.3923,38.81415,149],[-90.39228,38.81412,148],[-90.39225,38.81411,147],[-90.39223,38.81412,148],[-90.39222,38.81415,150],[-90.39212,38.81417,151],[-90.39206,38.81416,151],[-90.39202,38.81415,150],[-90.39198,38.81415,151],[-90.39194,38.81415,151],[-90.3919,38.81415,152],[-90.39187,38.81416,153],[-90.39185,38.81419,154],[-90.39184,38.81422,156],[-90.39182,38.81424,157],[-90.39179,38.81426,158],[-90.39177,38.81428,159],[-90.39176,38.81431,160],[-90.39177,38.81434,161],[-90.39177,38.81437,161],[-90.39179,38.81439,161],[-90.3918,38.81442,162],[-90.39181,38.81445,163],[-90.39182,38.81448,163],[-90.39183,38.8145,163],[-90.39183,38.81453,163],[-90.39183,38.81456,163],[-90.39185,38.81458,163],[-90.39187,38.81461,163],[-90.3919,38.81463,162],[-90.39191,38.81466,163],[-90.39191,38.81469,163],[-90.39191,38.81472,164],[-90.39191,38.81475,164],[-90.39192,38.81478,164],[-90.39192,38.8148,164],[-90.39193,38.81483,164],[-90.39193,38.81486,164],[-90.39192,38.8149,165],[-90.39191,38.81492,166],[-90.39191,38.81495,166],[-90.39192,38.81498,166],[-90.39193,38.815,166],[-90.39195,38.81503,166],[-90.39196,38.81506,167],[-90.39197,38.81509,168],[-90.39197,38.81512,169],[-90.39197,38.81514,170],[-90.39196,38.81518,172],[-90.39196,38.81521,173],[-90.39195,38.81524,174],[-90.39194,38.81527,175],[-90.39193,38.8153,176],[-90.39194,38.81532,176],[-90.39194,38.81535,176],[-90.39196,38.81538,176],[-90.39197,38.81541,176],[-90.39198,38.81544,175],[-90.39198,38.81547,175],[-90.39198,38.8155,176],[-90.39197,38.81553,176],[-90.39196,38.81555,177],[-90.39196,38.81558,176],[-90.39194,38.81561,176],[-90.39193,38.81563,176],[-90.39191,38.81566,176],[-90.39188,38.81568,176],[-90.39186,38.8157,176],[-90.39182,38.81571,177],[-90.39178,38.81571,178],[-90.39174,38.81572,179],[-90.39172,38.81575,179],[-90.39171,38.81578,179],[-90.39171,38.8158,179],[-90.39172,38.81584,178],[-90.39173,38.81587,177],[-90.39175,38.81589,176],[-90.39176,38.81592,175],[-90.39176,38.81595,174],[-90.39175,38.81598,174],[-90.39175,38.81601,173],[-90.39174,38.81604,173],[-90.39172,38.81607,173],[-90.39171,38.8161,173],[-90.39171,38.81613,172],[-90.3917,38.81616,171],[-90.39169,38.81619,170],[-90.39168,38.81622,169],[-90.39168,38.81625,168],[-90.39166,38.81627,168],[-90.39164,38.8163,167],[-90.39162,38.81632,167],[-90.3916,38.81635,166],[-90.39158,38.81637,166],[-90.39156,38.8164,166],[-90.39155,38.81642,165],[-90.39153,38.81645,165],[-90.39151,38.81648,165],[-90.3915,38.81651,164],[-90.39148,38.81653,164],[-90.39151,38.81655,162],[-90.39154,38.81656,162],[-90.39158,38.81657,160],[-90.39162,38.81657,159],[-90.39165,38.81657,159],[-90.39168,38.81655,159],[-90.39171,38.81654,158],[-90.39175,38.81653,158],[-90.39179,38.81653,157],[-90.39181,38.81656,155],[-90.39185,38.81657,154],[-90.39189,38.81657,153],[-90.39194,38.81656,153],[-90.39198,38.81659,151],[-90.39198,38.81663,150],[-90.39197,38.81666,150],[-90.392,38.81668,149],[-90.39204,38.81671,149],[-90.392,38.81671,149],[-90.39196,38.8167,150],[-90.39193,38.8167,150],[-90.39189,38.81672,151],[-90.39185,38.81673,151],[-90.39181,38.81675,151],[-90.39177,38.81676,152],[-90.39174,38.81679,151],[-90.39171,38.81681,151],[-90.39168,38.81683,151],[-90.39164,38.81684,151],[-90.39161,38.81686,151],[-90.39157,38.81687,151],[-90.39154,38.81685,153],[-90.3915,38.81685,153],[-90.39146,38.81685,154],[-90.39143,38.81687,154],[-90.39141,38.81688,154],[-90.39141,38.81692,153],[-90.39138,38.81693,153],[-90.39108,38.81685,161],[-90.39104,38.81683,162],[-90.391,38.81682,162],[-90.39096,38.8168,163],[-90.39093,38.81679,163],[-90.39089,38.81679,164],[-90.39085,38.81679,164],[-90.39081,38.81681,164],[-90.39078,38.81682,164],[-90.39074,38.81684,164],[-90.3907,38.81685,164],[-90.39066,38.81686,164],[-90.39063,38.81687,165],[-90.39059,38.81686,165],[-90.39056,38.81684,166],[-90.39053,38.81682,166],[-90.39048,38.81681,166],[-90.39045,38.81679,167],[-90.39043,38.81676,167],[-90.39041,38.81674,167],[-90.39038,38.81672,168],[-90.39035,38.81671,168],[-90.39032,38.81669,168],[-90.39028,38.81668,168],[-90.39026,38.81666,169],[-90.39025,38.81663,169],[-90.39023,38.81661,169],[-90.3902,38.81659,169],[-90.39017,38.81657,169],[-90.39014,38.81655,170],[-90.39014,38.81652,170],[-90.39015,38.81649,170],[-90.39013,38.81647,170],[-90.39011,38.81645,170],[-90.39008,38.81642,171],[-90.39007,38.8164,171],[-90.39003,38.8164,171],[-90.38999,38.8164,170],[-90.38996,38.81641,170],[-90.38992,38.81641,170],[-90.38988,38.81639,170],[-90.38986,38.81637,170],[-90.38983,38.81635,170],[-90.3898,38.81633,170],[-90.38977,38.81631,170],[-90.38975,38.81629,171],[-90.38973,38.81627,171],[-90.3897,38.81625,171],[-90.38966,38.81624,171],[-90.38963,38.81624,171],[-90.38959,38.81626,170],[-90.38959,38.81628,170],[-90.38958,38.81631,170],[-90.38956,38.81633,170],[-90.38955,38.81636,169],[-90.38955,38.81639,169],[-90.38956,38.81642,169],[-90.38957,38.81645,169],[-90.38958,38.81647,168],[-90.3896,38.81649,168],[-90.38962,38.81652,168],[-90.38964,38.81654,168],[-90.38965,38.81657,168],[-90.38965,38.8166,168],[-90.38965,38.81663,167],[-90.38966,38.81666,167],[-90.38967,38.81669,167],[-90.38967,38.81672,167],[-90.38969,38.81674,166],[-90.38971,38.81676,166],[-90.38973,38.81678,166],[-90.38976,38.81676,166],[-90.38976,38.81673,167],[-90.38979,38.81671,167],[-90.38982,38.8167,167],[-90.38985,38.8167,167],[-90.38989,38.81671,167],[-90.38992,38.81673,167],[-90.38995,38.81674,167],[-90.38998,38.81676,167],[-90.39,38.81679,167],[-90.39002,38.81681,167],[-90.39004,38.81684,166],[-90.39004,38.81687,166],[-90.39004,38.8169,165],[-90.39003,38.81694,165],[-90.39001,38.81696,164],[-90.38999,38.81699,163],[-90.38996,38.817,163],[-90.38996,38.81703,162],[-90.38997,38.81706,162],[-90.38997,38.8171,161],[-90.38999,38.81712,160],[-90.39001,38.81715,159],[-90.39003,38.81718,158],[-90.39005,38.81721,158],[-90.39006,38.81723,157],[-90.39008,38.81726,156],[-90.3901,38.81729,155],[-90.39011,38.81732,155],[-90.39013,38.81734,154],[-90.39015,38.81737,153],[-90.39017,38.81739,153],[-90.39018,38.81742,152],[-90.39017,38.81745,151],[-90.3902,38.81747,150],[-90.39023,38.81748,150],[-90.39026,38.81747,150],[-90.3903,38.81747,149],[-90.39032,38.81744,150],[-90.39035,38.81745,149],[-90.39038,38.81747,148],[-90.39039,38.8175,147],[-90.39038,38.81753,147],[-90.39042,38.81755,146],[-90.39044,38.81753,146],[-90.39046,38.8175,147],[-90.39048,38.81748,147],[-90.39051,38.81746,147],[-90.39054,38.81746,147],[-90.39058,38.81745,147],[-90.39062,38.81744,147],[-90.39065,38.81743,147],[-90.39069,38.81742,146],[-90.39071,38.8174,147],[-90.39073,38.81738,147],[-90.39076,38.81736,147],[-90.3908,38.81735,147],[-90.39083,38.81735,146],[-90.39085,38.81732,147],[-90.39087,38.8173,147],[-90.39091,38.81728,147],[-90.39094,38.81726,147],[-90.39097,38.81725,147],[-90.39101,38.81724,147],[-90.39105,38.81724,146],[-90.39108,38.81724,146],[-90.39111,38.81721,146],[-90.39115,38.81721,145],[-90.39117,38.81719,146],[-90.3912,38.81716,147],[-90.39123,38.81715,147],[-90.39127,38.81713,147],[-90.39131,38.81712,146],[-90.39136,38.81711,146],[-90.39139,38.81709,146],[-90.39142,38.81707,147],[-90.39144,38.81705,147],[-90.39147,38.81703,147],[-90.3915,38.81702,147],[-90.39154,38.81701,147],[-90.39157,38.817,147],[-90.39161,38.81699,147],[-90.39164,38.81698,147],[-90.39168,38.81698,146],[-90.39171,38.81696,147],[-90.39174,38.81694,148],[-90.39177,38.81692,148],[-90.3918,38.8169,149],[-90.39182,38.81688,149],[-90.39184,38.81685,150],[-90.39187,38.81683,150],[-90.3919,38.81681,150],[-90.39193,38.81679,150],[-90.39195,38.81677,150],[-90.39198,38.81675,149],[-90.392,38.81672,149],[-90.392,38.81669,149],[-90.39202,38.81667,149],[-90.39205,38.81666,149],[-90.39209,38.81663,148],[-90.3921,38.81661,149],[-90.39212,38.81658,148],[-90.39216,38.81656,148],[-90.39219,38.81655,147],[-90.39222,38.81652,147],[-90.39223,38.8165,147],[-90.39224,38.81647,147],[-90.39225,38.81644,147],[-90.39226,38.81641,148],[-90.39228,38.81639,147],[-90.3923,38.81636,148],[-90.39231,38.81633,148],[-90.3923,38.8163,149],[-90.39231,38.81627,150],[-90.39234,38.81626,149],[-90.39234,38.81623,150],[-90.39237,38.81621,150],[-90.3924,38.81619,150],[-90.39242,38.81617,150],[-90.39244,38.81614,150],[-90.39247,38.81613,149],[-90.39251,38.81612,148],[-90.39255,38.81612,147],[-90.39258,38.8161,146],[-90.39261,38.81608,145],[-90.39262,38.81605,145],[-90.39263,38.81602,144],[-90.39262,38.81599,145],[-90.39262,38.81596,145],[-90.39262,38.81593,145],[-90.39262,38.8159,145],[-90.39261,38.81587,145],[-90.39261,38.81584,145],[-90.39261,38.81581,145],[-90.3926,38.81578,146],[-90.3926,38.81575,147],[-90.3926,38.81572,148],[-90.39259,38.81569,149],[-90.39259,38.81566,149],[-90.39259,38.81563,150],[-90.39261,38.8156,150],[-90.39263,38.81558,150],[-90.39266,38.81556,149],[-90.39268,38.81553,149],[-90.39269,38.8155,149],[-90.39271,38.81548,149],[-90.39274,38.81547,148],[-90.39278,38.81546,147],[-90.39281,38.81544,147],[-90.39285,38.81543,146],[-90.39289,38.81541,146],[-90.39292,38.8154,145],[-90.39295,38.81539,145],[-90.39298,38.81537,144],[-90.39302,38.81536,144],[-90.39305,38.81534,144],[-90.39308,38.81531,144],[-90.39309,38.81529,144],[-90.39311,38.81526,144],[-90.39313,38.81523,144],[-90.39314,38.81521,144],[-90.39315,38.81518,144],[-90.39314,38.81515,144],[-90.39312,38.81512,145],[-90.39311,38.8151,145],[-90.39309,38.81507,146],[-90.39307,38.81504,147],[-90.39304,38.81501,148],[-90.39302,38.81499,148],[-90.393,38.81495,148],[-90.39299,38.81493,148],[-90.39298,38.8149,148],[-90.39297,38.81487,148],[-90.39297,38.81484,148],[-90.39296,38.81481,148],[-90.39296,38.81479,148],[-90.39295,38.81476,148],[-90.39296,38.81473,148],[-90.39295,38.8147,148],[-90.39293,38.81468,148],[-90.39291,38.81465,149],[-90.39289,38.81462,149],[-90.39288,38.81459,150],[-90.39285,38.81456,150],[-90.39283,38.81454,151],[-90.39281,38.81452,152],[-90.39278,38.8145,152],[-90.39275,38.81448,153],[-90.39273,38.81445,153],[-90.3927,38.81443,153],[-90.39266,38.81443,153],[-90.39263,38.81443,154],[-90.39259,38.81443,154],[-90.39256,38.8144,154],[-90.39253,38.81438,154],[-90.3925,38.81437,154],[-90.39246,38.81435,153],[-90.39243,38.81434,153],[-90.3924,38.81432,153],[-90.39237,38.8143,152],[-90.39234,38.81428,152],[-90.39232,38.81426,152],[-90.39231,38.81423,151],[-90.3923,38.81421,151],[-90.39227,38.81418,151],[-90.39226,38.81416,150],[-90.39224,38.81413,148],[-90.39224,38.81411,147],[-90.39227,38.81408,145],[-90.39229,38.81406,144],[-90.39232,38.81403,142],[-90.39234,38.81401,141],[-90.39236,38.81398,140],[-90.39238,38.81395,139],[-90.3924,38.81393,138],[-90.39242,38.8139,137],[-90.39244,38.81387,137],[-90.39246,38.81385,137],[-90.39248,38.81382,137],[-90.39249,38.81379,138],[-90.39251,38.81376,138],[-90.39252,38.81374,138],[-90.39255,38.81372,138],[-90.39256,38.81369,138],[-90.39256,38.81365,138],[-90.39256,38.81362,138],[-90.39258,38.8136,138],[-90.3926,38.81357,138],[-90.39262,38.81355,138],[-90.39264,38.81352,137],[-90.39267,38.8135,137],[-90.39269,38.81348,137],[-90.39271,38.81345,136],[-90.39273,38.81342,136],[-90.39276,38.8134,135],[-90.39278,38.81338,135],[-90.39281,38.81336,135],[-90.39284,38.81334,134],[-90.39286,38.81332,134],[-90.39289,38.81329,134],[-90.39291,38.81327,133],[-90.39294,38.81325,133],[-90.39297,38.81323,133],[-90.39299,38.8132,133],[-90.39302,38.81318,133],[-90.39304,38.81315,133],[-90.39306,38.81312,132],[-90.39309,38.8131,132],[-90.39311,38.81308,132],[-90.39314,38.81306,132],[-90.39317,38.81304,133],[-90.3932,38.81302,133],[-90.39323,38.813,133],[-90.39326,38.81299,133],[-90.39329,38.81297,133],[-90.39332,38.81294,133],[-90.39333,38.81291,134],[-90.39335,38.81289,134],[-90.3934,38.81289,133],[-90.39344,38.81288,133],[-90.39346,38.81286,133],[-90.39347,38.81283,134],[-90.39351,38.81281,134],[-90.39354,38.81279,134],[-90.39354,38.81276,134],[-90.39352,38.81279,134],[-90.39354,38.81276,134],[-90.39358,38.81276,134],[-90.39363,38.81276,134],[-90.39366,38.81275,134],[-90.39369,38.81273,134],[-90.39372,38.81271,134],[-90.39375,38.81269,134],[-90.39377,38.81267,134],[-90.3938,38.81265,135],[-90.39383,38.81263,135],[-90.39386,38.81261,135],[-90.39389,38.81259,136],[-90.39392,38.81257,136],[-90.39396,38.81255,136],[-90.39398,38.81253,136],[-90.394,38.8125,137],[-90.39402,38.81248,137],[-90.39404,38.81246,137],[-90.39407,38.81243,137],[-90.39409,38.81242,137],[-90.39412,38.8124,137],[-90.39416,38.81237,137],[-90.39418,38.81235,137],[-90.39421,38.81233,137],[-90.39424,38.81231,137],[-90.39427,38.81229,137],[-90.3943,38.81227,137],[-90.39434,38.81225,137],[-90.39437,38.81223,137],[-90.3944,38.81221,138],[-90.39443,38.8122,138],[-90.39446,38.81217,137],[-90.39447,38.81215,137],[-90.39449,38.81212,137],[-90.39451,38.81208,137],[-90.39453,38.81206,137],[-90.39456,38.81204,137],[-90.3946,38.81203,137],[-90.39463,38.81201,137],[-90.39466,38.81199,137],[-90.39469,38.81197,137],[-90.39472,38.81195,136],[-90.39475,38.81193,136],[-90.39479,38.8119,136],[-90.39481,38.81188,135],[-90.39482,38.81185,135],[-90.39482,38.81182,135],[-90.39485,38.8118,134],[-90.39488,38.81178,134],[-90.39491,38.81177,134],[-90.39494,38.81175,133],[-90.39497,38.81173,133],[-90.39499,38.8117,133],[-90.39502,38.81169,133],[-90.39498,38.81168,133],[-90.39496,38.8117,133],[-90.39497,38.81174,133],[-90.39497,38.81177,133],[-90.39494,38.81178,134],[-90.39493,38.81175,133]]],
        "bbox": [
          -90.3865,
          38.81755,
          -90.39502,
          38.81116
        ]
      },
      "properties": {
        "name": "2.6.2024B"
      }
    }
  ]
}