{
  "type": "FeatureCollection",
  "features": [
    {
      "type": "Feature",
      "geometry": {
        "type": "MultiLineString",
        "coordinates": [[[-90.39483,38.81181,134],[-90.39479,38.81184,135],[-90.39477,38.81186,135],[-90.39473,38.81189,136],[-90.39469,38.81193,136],[-90.39466,38.81196,137],[-90.39461,38.81199,137],[-90.39454,38.81204,137],[-90.39447,38.81209,137],[-90.39441,38.81215,138],[-90.39434,38.8122,138],[-90.39427,38.81226,137],[-90.39422,38.81231,137],[-90.39415,38.81237,137],[-90.39409,38.8124,137],[-90.39403,38.81246,137],[-90.39399,38.81251,136],[-90.39393,38.81255,136],[-90.39387,38.81259,135],[-90.3938,38.81263,135],[-90.39374,38.81267,134],[-90.39367,38.81271,134],[-90.39361,38.81275,134],[-90.39354,38.81278,134],[-90.39351,38.81281,134],[-90.39347,38.81284,134],[-90.39345,38.81285,134],[-90.39341,38.81287,134],[-90.39337,38.81288,134],[-90.39333,38.81289,134],[-90.3933,38.8129,134],[-90.39327,38.81293,133],[-90.39324,38.81295,133],[-90.3932,38.81297,133],[-90.39318,38.813,133],[-90.39314,38.81301,133],[-90.39311,38.81303,133],[-90.39307,38.81308,132],[-90.39302,38.81314,133],[-90.39297,38.81319,133],[-90.39293,38.81322,133],[-90.3929,38.81325,133],[-90.39287,38.81327,134],[-90.39283,38.8133,134],[-90.3928,38.81333,134],[-90.39277,38.81336,135],[-90.39275,38.81338,135],[-90.39271,38.8134,136],[-90.39268,38.81343,136],[-90.39266,38.81345,136],[-90.39263,38.81347,137],[-90.39261,38.8135,137],[-90.39258,38.81352,137],[-90.39256,38.81355,138],[-90.39254,38.81359,138],[-90.39252,38.81361,138],[-90.39251,38.81364,138],[-90.39249,38.81368,138],[-90.39247,38.81373,138],[-90.39245,38.81378,137],[-90.39244,38.81382,137],[-90.39243,38.81387,136],[-90.39242,38.8139,137],[-90.3924,38.81394,138],[-90.39238,38.81396,139],[-90.39236,38.814,141],[-90.39234,38.81403,142],[-90.3923,38.81405,143],[-90.39227,38.81407,145],[-90.39224,38.81409,146],[-90.39224,38.81412,148],[-90.39225,38.81415,149],[-90.39228,38.81419,151],[-90.39231,38.81421,151],[-90.39233,38.81424,151],[-90.39236,38.81427,152],[-90.39241,38.81429,152],[-90.39244,38.8143,152],[-90.39253,38.8143,152],[-90.39257,38.81429,151],[-90.39263,38.81432,151],[-90.39267,38.81435,152],[-90.3927,38.81437,152],[-90.39273,38.81441,152],[-90.39273,38.81443,153],[-90.3927,38.81446,153],[-90.39267,38.81447,154],[-90.39273,38.81449,153],[-90.39276,38.8145,152],[-90.3928,38.81453,152],[-90.39283,38.81455,151],[-90.39285,38.81457,150],[-90.39287,38.81459,150],[-90.3929,38.81462,149],[-90.39292,38.81465,149],[-90.39294,38.81468,148],[-90.39294,38.81471,148],[-90.39294,38.81475,148],[-90.39294,38.81479,148],[-90.39294,38.81482,148],[-90.39295,38.81485,148],[-90.39298,38.8149,148],[-90.39301,38.81493,147],[-90.39303,38.81495,147],[-90.39305,38.81499,147],[-90.39307,38.81501,147],[-90.3931,38.81505,146],[-90.39312,38.81508,145],[-90.39314,38.81511,145],[-90.39315,38.81514,144],[-90.39313,38.81518,144],[-90.39311,38.81522,145],[-90.39309,38.81525,145],[-90.39307,38.81528,145],[-90.39304,38.81531,145],[-90.39301,38.81533,145],[-90.39297,38.81536,145],[-90.39294,38.81538,145],[-90.39291,38.81539,146],[-90.39287,38.81541,146],[-90.39283,38.81542,147],[-90.3928,38.81544,147],[-90.39277,38.81546,148],[-90.39273,38.81549,148],[-90.39271,38.81551,148],[-90.39261,38.81559,150],[-90.39257,38.81563,151],[-90.39256,38.81567,150],[-90.39255,38.8157,150],[-90.39257,38.81573,149],[-90.3926,38.81576,147],[-90.39262,38.81579,146],[-90.39264,38.81583,144],[-90.39265,38.81586,144],[-90.39266,38.81589,143],[-90.39265,38.81593,144],[-90.39265,38.81596,144],[-90.39265,38.81598,144],[-90.39265,38.81601,144],[-90.39264,38.81604,144],[-90.39261,38.81608,145],[-90.39258,38.8161,146],[-90.39254,38.81613,147],[-90.3925,38.81615,148],[-90.39246,38.81617,148],[-90.39243,38.81619,149],[-90.3924,38.81621,149],[-90.3924,38.81624,148],[-90.39239,38.81628,148],[-90.39237,38.8163,148],[-90.39234,38.81632,148],[-90.39233,38.81636,147],[-90.3923,38.81638,147],[-90.39231,38.81641,146],[-90.39232,38.81643,146],[-90.39232,38.81647,146],[-90.3923,38.8165,146],[-90.39226,38.81652,146],[-90.39224,38.81654,146],[-90.39222,38.81657,147],[-90.3922,38.81659,147],[-90.39217,38.81661,147],[-90.39213,38.81663,148],[-90.39211,38.81666,148],[-90.39209,38.81668,148],[-90.39206,38.8167,148],[-90.39202,38.81671,149],[-90.39201,38.81674,149],[-90.39201,38.81677,149],[-90.39198,38.8168,149],[-90.39195,38.81682,149],[-90.39192,38.81684,149],[-90.39189,38.81687,149],[-90.39186,38.8169,149],[-90.39183,38.81693,148],[-90.3918,38.81695,148],[-90.39176,38.81696,147],[-90.39172,38.81697,147],[-90.39168,38.81699,146],[-90.39164,38.81701,145],[-90.39159,38.81703,145],[-90.39156,38.81703,146],[-90.39152,38.81703,147],[-90.39148,38.81703,147],[-90.39144,38.81705,147],[-90.39141,38.81707,147],[-90.39137,38.81709,147],[-90.39134,38.81711,146],[-90.3913,38.81713,146],[-90.39128,38.81716,145],[-90.39124,38.81718,145],[-90.39119,38.81721,145],[-90.39116,38.81722,145],[-90.39111,38.81724,145],[-90.39105,38.81726,146],[-90.39101,38.81729,145],[-90.39099,38.81735,144],[-90.39098,38.81739,143],[-90.39095,38.81741,143],[-90.39092,38.81744,142],[-90.39088,38.81747,142],[-90.39085,38.81749,142],[-90.39081,38.81752,141],[-90.39079,38.81754,141],[-90.39076,38.81756,141],[-90.39074,38.81758,141],[-90.39071,38.81761,141],[-90.39069,38.81763,141],[-90.39066,38.81765,141],[-90.39065,38.81768,140],[-90.39063,38.81771,140],[-90.3906,38.81773,140],[-90.39057,38.81775,140],[-90.39054,38.81777,140],[-90.39051,38.81779,140],[-90.39047,38.8178,140],[-90.39044,38.81781,140],[-90.3904,38.81782,141],[-90.39036,38.81781,141],[-90.39032,38.81781,142],[-90.39028,38.81782,142],[-90.39025,38.81784,142],[-90.39022,38.81786,143],[-90.39018,38.81788,143],[-90.39013,38.8179,143],[-90.39009,38.8179,144],[-90.39005,38.81791,144],[-90.39,38.81792,145],[-90.38996,38.81793,145],[-90.38992,38.81794,146],[-90.38989,38.81795,146],[-90.38985,38.81796,146],[-90.38981,38.81797,147],[-90.38977,38.818,147],[-90.38974,38.81802,147],[-90.3897,38.81805,147],[-90.38965,38.81806,146],[-90.38961,38.81807,146],[-90.38957,38.81807,146],[-90.38953,38.81806,146],[-90.3895,38.81805,147],[-90.38946,38.81803,147],[-90.38943,38.81801,148],[-90.3894,38.818,148],[-90.38936,38.818,149],[-90.38932,38.818,149],[-90.38928,38.81799,150],[-90.38924,38.81798,151],[-90.38919,38.81799,151],[-90.38915,38.818,152],[-90.38911,38.81801,153],[-90.38907,38.81802,153],[-90.38903,38.81804,153],[-90.389,38.81806,153],[-90.38898,38.81808,153],[-90.38895,38.81809,154],[-90.38891,38.81809,155],[-90.38887,38.81809,156],[-90.38884,38.8181,156],[-90.38882,38.81813,155],[-90.38881,38.81816,154],[-90.3888,38.8182,152],[-90.38878,38.81822,152],[-90.38876,38.81825,151],[-90.38873,38.81827,150],[-90.38869,38.81829,150],[-90.38865,38.8183,151],[-90.38862,38.81832,150],[-90.38859,38.81834,149],[-90.38856,38.81836,148],[-90.38852,38.81839,147],[-90.38848,38.8184,147],[-90.38845,38.8184,147],[-90.38841,38.81842,146],[-90.38837,38.81844,145],[-90.38835,38.81846,144],[-90.38832,38.81849,143],[-90.3883,38.81851,142],[-90.38828,38.81854,141],[-90.38825,38.81857,140],[-90.38822,38.8186,140],[-90.38818,38.81862,140],[-90.38815,38.81863,140],[-90.38811,38.81865,140],[-90.38808,38.81866,141],[-90.38803,38.81867,141],[-90.38799,38.81868,142],[-90.38795,38.81869,142],[-90.38791,38.8187,142],[-90.38787,38.81873,143],[-90.38784,38.81875,143],[-90.38781,38.81877,143],[-90.38777,38.81879,143],[-90.38773,38.8188,143],[-90.38769,38.81882,143],[-90.38764,38.81883,143],[-90.38761,38.81884,143],[-90.38756,38.81886,142],[-90.38753,38.81888,142],[-90.3875,38.8189,141],[-90.38748,38.81893,140],[-90.38745,38.81896,139],[-90.38744,38.81899,138],[-90.38743,38.81902,137],[-90.3874,38.81906,136],[-90.38737,38.81908,135],[-90.38734,38.8191,135],[-90.3873,38.81911,134],[-90.38726,38.81913,133],[-90.38722,38.81915,132],[-90.38718,38.81916,132],[-90.38714,38.81918,132],[-90.38711,38.8192,132],[-90.38708,38.81921,132],[-90.38706,38.81924,132],[-90.38703,38.81926,132],[-90.387,38.81928,132],[-90.38696,38.81929,132],[-90.38693,38.8193,132],[-90.38692,38.81927,132],[-90.38689,38.81928,133],[-90.38685,38.8193,133],[-90.38682,38.81932,133],[-90.38679,38.81934,133],[-90.38677,38.81937,132],[-90.38675,38.8194,132],[-90.38672,38.81942,132],[-90.38668,38.81943,132],[-90.38664,38.81943,132],[-90.38667,38.81945,131],[-90.3867,38.81943,132],[-90.38673,38.81941,132],[-90.38676,38.81939,132],[-90.38678,38.81936,133],[-90.38679,38.81933,133],[-90.38681,38.8193,133],[-90.38684,38.81929,133],[-90.38688,38.81927,133],[-90.38692,38.81926,132],[-90.38695,38.81924,132],[-90.38699,38.81923,132],[-90.38702,38.81922,132],[-90.38706,38.81921,132],[-90.38709,38.81919,132],[-90.38712,38.81917,132],[-90.38715,38.81916,132],[-90.38719,38.81914,133],[-90.38723,38.81913,133],[-90.38727,38.81911,134],[-90.38731,38.8191,134],[-90.38735,38.81909,135],[-90.38738,38.81908,135],[-90.38742,38.81906,136],[-90.38745,38.81904,137],[-90.38747,38.81901,138],[-90.38749,38.81898,139],[-90.38751,38.81895,140],[-90.38752,38.81893,140],[-90.38755,38.81889,141],[-90.38759,38.81887,142],[-90.38762,38.81886,142],[-90.38766,38.81884,142],[-90.38769,38.81883,143],[-90.38773,38.81882,143],[-90.38777,38.81881,143],[-90.38781,38.81879,143],[-90.38784,38.81877,142],[-90.38787,38.81876,142],[-90.38789,38.81874,142],[-90.38792,38.81871,142],[-90.38795,38.81869,142],[-90.388,38.81867,142],[-90.38804,38.81865,141],[-90.38808,38.81864,141],[-90.38813,38.81863,140],[-90.38816,38.81862,140],[-90.3882,38.81861,139],[-90.38824,38.81859,140],[-90.38827,38.81856,140],[-90.38829,38.81853,141],[-90.3883,38.8185,143],[-90.38832,38.81847,144],[-90.38834,38.81845,144],[-90.38835,38.81842,146],[-90.38836,38.81839,147],[-90.38839,38.81837,148],[-90.38843,38.81835,149],[-90.38847,38.81834,149],[-90.3885,38.81833,150],[-90.38854,38.81831,151],[-90.38858,38.81828,152],[-90.38861,38.81825,153],[-90.38864,38.81823,154],[-90.38867,38.81821,154],[-90.38871,38.81821,154],[-90.38875,38.8182,153],[-90.38879,38.81818,153],[-90.38882,38.81815,154],[-90.38884,38.81813,154],[-90.38886,38.8181,155],[-90.38888,38.81808,156],[-90.38889,38.81804,157],[-90.3889,38.81802,157],[-90.38898,38.818,156],[-90.38902,38.81801,155],[-90.38906,38.81801,154],[-90.38909,38.81799,153],[-90.38913,38.81797,153],[-90.38917,38.81795,153],[-90.38922,38.81794,152],[-90.38927,38.81795,151],[-90.3893,38.81794,151],[-90.38933,38.81792,151],[-90.38937,38.81791,151],[-90.38941,38.81792,150],[-90.38944,38.81791,150],[-90.38949,38.81792,149],[-90.38952,38.81793,149],[-90.38955,38.81794,149],[-90.38958,38.81795,148],[-90.38963,38.81796,148],[-90.38967,38.81796,148],[-90.38971,38.81796,148],[-90.38974,38.81795,148],[-90.38978,38.81794,147],[-90.38982,38.81792,147],[-90.38986,38.8179,147],[-90.3899,38.81789,147],[-90.38994,38.81788,146],[-90.38997,38.81787,146],[-90.39001,38.81785,146],[-90.39004,38.81784,146],[-90.39008,38.81783,145],[-90.39011,38.81782,145],[-90.39017,38.81781,144],[-90.3902,38.81779,144],[-90.39023,38.81777,144],[-90.39026,38.81776,143],[-90.39029,38.81774,143],[-90.39033,38.81772,143],[-90.39037,38.81772,143],[-90.39042,38.81771,142],[-90.39045,38.81771,142],[-90.39049,38.8177,142],[-90.39053,38.81769,142],[-90.39056,38.81767,142],[-90.39057,38.81764,142],[-90.39057,38.81761,143],[-90.39056,38.81759,144],[-90.39052,38.81757,144],[-90.39051,38.81754,145],[-90.39049,38.8175,146],[-90.39048,38.81747,147],[-90.39046,38.81745,148],[-90.39043,38.81743,149],[-90.39039,38.81741,150],[-90.39036,38.81739,151],[-90.39032,38.81739,151],[-90.39028,38.81741,151],[-90.39027,38.81744,150],[-90.39027,38.81747,149],[-90.39023,38.81747,150],[-90.39019,38.81746,151],[-90.39017,38.81744,151],[-90.39014,38.81742,152],[-90.39014,38.81739,153],[-90.39017,38.81737,153],[-90.39018,38.8174,152],[-90.39021,38.81743,151],[-90.39024,38.81744,151],[-90.39028,38.81744,150],[-90.39032,38.81744,150],[-90.39036,38.81743,150],[-90.39039,38.81742,150],[-90.39043,38.81741,150],[-90.39043,38.81738,151],[-90.39047,38.81737,151],[-90.3905,38.81737,151],[-90.39054,38.81737,150],[-90.39058,38.81736,150],[-90.39056,38.81734,151],[-90.39053,38.81733,152],[-90.39053,38.8173,153],[-90.3905,38.81732,152],[-90.39047,38.81733,152],[-90.39043,38.81735,152],[-90.39042,38.81737,151],[-90.39044,38.8174,150],[-90.39048,38.8174,150],[-90.39051,38.8174,149],[-90.39054,38.81739,150],[-90.39057,38.81737,150],[-90.39057,38.81734,151],[-90.39057,38.81731,152],[-90.39057,38.81727,154],[-90.39056,38.81725,155],[-90.39056,38.81721,156],[-90.39054,38.81719,157],[-90.39054,38.81717,157],[-90.39052,38.81714,158],[-90.39053,38.8171,160],[-90.39052,38.81707,161],[-90.39052,38.81704,162],[-90.39052,38.81702,162],[-90.39051,38.81699,163],[-90.39051,38.81696,164],[-90.39051,38.81693,165],[-90.39053,38.81691,165],[-90.39056,38.81688,165],[-90.3906,38.81685,165],[-90.39063,38.81683,165],[-90.39066,38.81681,165],[-90.39069,38.81679,165],[-90.39072,38.8168,165],[-90.39076,38.81679,165],[-90.39079,38.8168,164],[-90.39081,38.81678,165],[-90.39085,38.81678,164],[-90.39087,38.81676,165],[-90.39089,38.81673,165],[-90.39093,38.81671,165],[-90.39097,38.81673,165],[-90.39101,38.81676,164],[-90.39103,38.81678,163],[-90.39107,38.81678,163],[-90.3911,38.81681,161],[-90.39112,38.81684,160],[-90.39115,38.81685,160],[-90.39118,38.81685,159],[-90.39118,38.81682,160],[-90.39119,38.81679,161],[-90.3912,38.81676,161],[-90.39123,38.81673,162],[-90.39125,38.8167,162],[-90.39124,38.81667,164],[-90.39127,38.81665,164],[-90.39131,38.81664,163],[-90.39134,38.81662,164],[-90.39138,38.8166,164],[-90.39141,38.81658,164],[-90.39144,38.81657,163],[-90.39146,38.81654,164]],[[-90.39144,38.81653,165],[-90.39149,38.81652,164],[-90.39152,38.81651,164],[-90.39155,38.81649,163],[-90.39157,38.81647,163],[-90.39159,38.81644,164],[-90.39162,38.81642,164],[-90.39164,38.81639,164],[-90.39166,38.81637,164],[-90.39167,38.81633,166],[-90.39168,38.8163,166],[-90.39171,38.81628,166],[-90.39172,38.81624,167],[-90.39171,38.81622,168],[-90.39172,38.81617,170],[-90.39173,38.81614,171],[-90.39175,38.8161,171],[-90.39177,38.81607,171],[-90.39177,38.81604,172],[-90.39178,38.816,173],[-90.39179,38.81597,173],[-90.39179,38.81594,174],[-90.39179,38.81591,174],[-90.39178,38.81588,175],[-90.39178,38.81585,176],[-90.39178,38.81582,177],[-90.39177,38.8158,177],[-90.39176,38.81576,178],[-90.39174,38.81573,179],[-90.39172,38.81569,180],[-90.39175,38.81568,179],[-90.39181,38.81568,178],[-90.39185,38.81568,177],[-90.39189,38.81569,176],[-90.39188,38.81566,177],[-90.39185,38.81566,177],[-90.3918,38.81566,178],[-90.39176,38.81567,179],[-90.39171,38.81567,180],[-90.39168,38.81564,181],[-90.39166,38.81561,182],[-90.39162,38.81558,183],[-90.39155,38.81553,183],[-90.39151,38.81549,183],[-90.39148,38.81545,184],[-90.39145,38.81543,184],[-90.39142,38.81542,185],[-90.39139,38.8154,185],[-90.39133,38.81539,185],[-90.39128,38.8154,185],[-90.39124,38.8154,186],[-90.3912,38.81541,186],[-90.39116,38.81541,186],[-90.39111,38.81541,186],[-90.39106,38.81541,186],[-90.39103,38.81543,186],[-90.391,38.81544,186],[-90.39096,38.81546,185],[-90.39092,38.81547,185],[-90.39089,38.81548,185],[-90.39085,38.81549,185],[-90.3908,38.8155,185],[-90.39076,38.8155,184],[-90.39071,38.8155,184],[-90.39066,38.8155,183],[-90.3906,38.81549,182],[-90.39056,38.81549,182],[-90.39052,38.81548,182],[-90.39048,38.81547,181],[-90.39044,38.81545,181],[-90.39039,38.81544,180],[-90.39035,38.81542,180],[-90.39031,38.81543,180],[-90.39027,38.81544,179],[-90.39024,38.81542,179],[-90.3902,38.81541,179],[-90.39016,38.81539,180],[-90.39012,38.81537,180],[-90.39009,38.81536,180],[-90.39005,38.81533,181],[-90.39002,38.81531,181],[-90.38998,38.81529,181],[-90.38994,38.81527,182],[-90.38991,38.81525,182],[-90.38987,38.81524,183],[-90.38983,38.81523,183],[-90.38982,38.81519,184],[-90.38982,38.81514,185],[-90.3898,38.81512,186],[-90.38977,38.81509,186],[-90.38975,38.81507,187],[-90.38973,38.81505,187],[-90.38969,38.81503,188],[-90.38965,38.81501,188],[-90.38962,38.81499,188],[-90.38961,38.81496,189],[-90.38958,38.81494,189],[-90.38956,38.81492,189],[-90.38954,38.81489,189],[-90.38952,38.81486,189],[-90.38952,38.81483,190],[-90.38952,38.81479,190],[-90.38952,38.81476,190],[-90.38952,38.81473,191],[-90.38952,38.81469,191],[-90.38952,38.81466,190],[-90.38952,38.81463,190],[-90.38951,38.8146,190],[-90.38951,38.81456,190],[-90.38951,38.81452,190],[-90.38951,38.81449,190],[-90.38951,38.81446,189],[-90.38951,38.81443,189],[-90.38949,38.8144,189],[-90.38947,38.81437,189],[-90.38944,38.81435,189],[-90.3894,38.81432,189],[-90.38936,38.8143,190],[-90.38933,38.81428,190],[-90.38929,38.81426,190],[-90.38926,38.81424,191],[-90.38921,38.81423,192],[-90.38918,38.81421,192],[-90.38915,38.8142,192],[-90.38912,38.81418,192],[-90.38907,38.81417,192],[-90.38903,38.81417,192],[-90.38899,38.81417,192],[-90.38895,38.81417,192],[-90.3889,38.81417,192],[-90.38886,38.81417,193],[-90.38882,38.81415,193],[-90.38878,38.81415,194],[-90.38874,38.81413,194],[-90.38871,38.81411,195],[-90.38866,38.8141,195],[-90.38863,38.8141,196],[-90.38858,38.81409,196],[-90.38855,38.81409,196],[-90.3885,38.81409,197],[-90.38846,38.81408,197],[-90.38842,38.81406,197],[-90.3884,38.81403,197],[-90.38837,38.81401,198],[-90.38834,38.81398,198],[-90.38831,38.81396,198],[-90.38828,38.81394,198],[-90.38824,38.81392,198],[-90.3882,38.8139,198],[-90.38816,38.81388,198],[-90.38813,38.81387,198],[-90.38804,38.81388,199],[-90.38796,38.81388,199],[-90.38791,38.8139,199],[-90.38786,38.81391,199],[-90.38782,38.81392,199],[-90.38777,38.81393,200],[-90.38769,38.81395,200],[-90.38762,38.81395,200],[-90.38759,38.81393,200],[-90.38756,38.8139,200],[-90.38754,38.81388,199],[-90.38751,38.81385,199],[-90.38749,38.81382,198],[-90.38749,38.81379,198],[-90.38751,38.81374,197],[-90.38748,38.81371,197],[-90.38748,38.81367,196],[-90.38749,38.81365,196],[-90.38751,38.81362,196],[-90.38753,38.81359,196],[-90.38754,38.81356,195],[-90.38756,38.81353,195],[-90.38757,38.81348,195],[-90.38757,38.81345,195],[-90.38758,38.81342,195],[-90.3876,38.81339,195],[-90.38759,38.81336,194],[-90.38759,38.81333,194],[-90.38761,38.81331,194],[-90.38765,38.81332,194],[-90.38769,38.81331,195],[-90.38773,38.8133,195],[-90.38777,38.8133,195],[-90.38783,38.81329,195],[-90.38786,38.81327,195],[-90.38789,38.81325,194],[-90.38793,38.81324,194],[-90.38794,38.8132,194],[-90.38794,38.81317,193],[-90.38796,38.81315,193],[-90.38796,38.81311,192],[-90.38798,38.81308,191],[-90.38799,38.81306,191],[-90.38799,38.81302,191],[-90.38799,38.81299,190],[-90.388,38.81296,190],[-90.38801,38.81294,190],[-90.38802,38.81291,189],[-90.38803,38.81288,189],[-90.38805,38.81285,188],[-90.38806,38.81282,188],[-90.38806,38.81279,187],[-90.3881,38.81279,186],[-90.38814,38.81279,185],[-90.38818,38.81276,183],[-90.3882,38.81274,183],[-90.38823,38.81273,181],[-90.38828,38.81272,180],[-90.38832,38.81273,179],[-90.38835,38.81273,178],[-90.38839,38.81272,177],[-90.38842,38.8127,175],[-90.38846,38.81269,174],[-90.38851,38.81269,172],[-90.38853,38.81266,172],[-90.38855,38.81264,171],[-90.38857,38.81262,170],[-90.38859,38.81258,169],[-90.38862,38.81256,169],[-90.38864,38.81253,168],[-90.38864,38.81251,168],[-90.38864,38.81248,168],[-90.38864,38.81245,167],[-90.38866,38.81243,167],[-90.38866,38.81239,166],[-90.38864,38.81237,166],[-90.38862,38.81233,165],[-90.38863,38.81231,165],[-90.38864,38.81228,164],[-90.38867,38.81226,164],[-90.38871,38.81225,163],[-90.38875,38.81224,163],[-90.38877,38.81222,162],[-90.38879,38.81219,162],[-90.3888,38.81216,161],[-90.38881,38.81213,161],[-90.38878,38.81211,161],[-90.38875,38.81209,161],[-90.38872,38.81207,161],[-90.38868,38.81205,161],[-90.38865,38.81203,162],[-90.38863,38.81201,162],[-90.38861,38.81198,162],[-90.3886,38.81195,162],[-90.38858,38.81192,162],[-90.38857,38.81189,163],[-90.38856,38.81186,163],[-90.38856,38.81183,163],[-90.38857,38.8118,164],[-90.38858,38.81178,164],[-90.3886,38.81175,164],[-90.38863,38.81172,163],[-90.38867,38.81169,163],[-90.3887,38.81168,163],[-90.38873,38.81166,162],[-90.38876,38.81164,162],[-90.38879,38.81162,161],[-90.38882,38.81159,160],[-90.38885,38.81157,160],[-90.38887,38.81154,159],[-90.38889,38.81152,158],[-90.38892,38.81154,158],[-90.38896,38.81155,157],[-90.389,38.81153,156],[-90.38904,38.81153,155],[-90.38907,38.81151,154],[-90.38911,38.81151,153],[-90.38915,38.8115,152],[-90.38919,38.81147,152],[-90.38922,38.81146,152],[-90.38925,38.81144,152],[-90.38928,38.81142,152],[-90.38931,38.8114,152],[-90.38934,38.81139,152],[-90.38937,38.81141,152],[-90.38941,38.81141,152],[-90.38946,38.81142,152],[-90.38949,38.8114,151],[-90.3895,38.81136,151],[-90.38952,38.81133,151],[-90.38953,38.8113,151],[-90.38953,38.81127,151],[-90.38954,38.81123,151],[-90.38956,38.8112,151],[-90.38958,38.81117,151],[-90.38961,38.81115,151],[-90.38965,38.81115,151],[-90.38969,38.81115,151],[-90.38973,38.81117,150],[-90.38976,38.81118,150],[-90.38979,38.81119,149],[-90.38983,38.8112,148],[-90.38986,38.8112,148],[-90.38991,38.81118,147],[-90.38995,38.81116,147],[-90.38998,38.81115,147],[-90.39003,38.81115,146],[-90.39007,38.81114,145],[-90.3901,38.81113,145],[-90.39014,38.81113,144],[-90.39018,38.81115,144],[-90.3902,38.81117,144],[-90.39024,38.81118,143],[-90.39028,38.81119,142],[-90.39032,38.81118,142],[-90.39036,38.81118,142],[-90.3904,38.81119,142],[-90.39043,38.8112,142],[-90.39046,38.81122,142],[-90.39049,38.81124,142],[-90.39052,38.81126,142],[-90.39056,38.81126,142],[-90.3906,38.81126,142],[-90.39064,38.81125,142],[-90.39067,38.81123,142],[-90.3907,38.81121,142],[-90.39074,38.8112,141],[-90.39078,38.81119,141],[-90.39082,38.81117,141],[-90.39084,38.81115,141],[-90.39086,38.81117,141],[-90.39089,38.8112,141],[-90.39093,38.81123,140],[-90.39096,38.81126,140],[-90.39099,38.81129,140],[-90.391,38.81133,141],[-90.391,38.81137,141],[-90.39104,38.81143,142],[-90.39107,38.81147,142],[-90.39109,38.8115,142],[-90.3911,38.81153,143],[-90.3911,38.81157,143],[-90.39109,38.8116,144],[-90.39107,38.81162,144],[-90.39104,38.81165,145],[-90.391,38.81167,145],[-90.39096,38.8117,146],[-90.39093,38.81173,147],[-90.39091,38.81175,147],[-90.3909,38.81178,147],[-90.39089,38.81182,148],[-90.3909,38.81186,148],[-90.39092,38.8119,149],[-90.39092,38.81194,149],[-90.39093,38.81197,150],[-90.39093,38.812,149],[-90.39092,38.81203,149],[-90.3909,38.81206,149],[-90.39088,38.81209,149],[-90.39087,38.81212,149],[-90.39086,38.81215,149],[-90.39084,38.81218,149],[-90.39082,38.81221,149],[-90.3908,38.81224,149],[-90.39078,38.81227,148],[-90.39079,38.81231,147],[-90.39081,38.81233,147],[-90.39084,38.81235,147],[-90.39088,38.81237,146],[-90.39094,38.8124,145],[-90.39096,38.81241,144],[-90.39099,38.81244,143],[-90.391,38.81247,143],[-90.391,38.8125,142],[-90.391,38.81253,142],[-90.391,38.81256,143],[-90.391,38.81259,144],[-90.391,38.81262,144],[-90.39101,38.81266,145],[-90.39102,38.81269,146],[-90.39103,38.81273,147],[-90.39103,38.81276,147],[-90.39103,38.8128,148],[-90.39104,38.81283,149],[-90.39105,38.81286,149],[-90.39107,38.81288,150],[-90.39109,38.81291,150],[-90.39111,38.81294,151],[-90.39112,38.81297,151],[-90.39114,38.813,152],[-90.39115,38.81303,152],[-90.39118,38.81306,152],[-90.39119,38.81309,152],[-90.39121,38.81312,152],[-90.39123,38.81314,152],[-90.39126,38.81317,152],[-90.3913,38.81319,151],[-90.39134,38.81321,151],[-90.39137,38.81324,150],[-90.39138,38.81327,150],[-90.39139,38.8133,150],[-90.39142,38.81332,150],[-90.39145,38.81334,150],[-90.39149,38.81336,149],[-90.39152,38.81338,148],[-90.39156,38.8134,147],[-90.39158,38.81343,147],[-90.3916,38.81346,146],[-90.39161,38.81348,146],[-90.39161,38.81352,145],[-90.39161,38.81355,145],[-90.3916,38.81358,145],[-90.3916,38.81362,144],[-90.3916,38.81365,145],[-90.39162,38.81369,145],[-90.39163,38.81371,145],[-90.39166,38.81375,145],[-90.39169,38.81377,145],[-90.39171,38.81379,145],[-90.39177,38.81382,143],[-90.39182,38.81384,142],[-90.39186,38.81385,141],[-90.39188,38.81387,140],[-90.39192,38.81389,138],[-90.39195,38.81392,139],[-90.39198,38.81394,139],[-90.39201,38.81396,140],[-90.39204,38.81398,141],[-90.39206,38.814,142],[-90.39209,38.81402,142],[-90.39213,38.81405,144],[-90.39217,38.81407,145],[-90.3922,38.81409,146],[-90.39223,38.8141,146],[-90.39227,38.8141,146],[-90.3923,38.81409,146],[-90.39233,38.81406,144],[-90.39235,38.81404,143],[-90.39239,38.81401,142],[-90.3924,38.81399,141],[-90.39242,38.81396,140],[-90.39244,38.81393,138],[-90.39247,38.81389,137],[-90.39249,38.81385,137],[-90.3925,38.81382,138],[-90.39251,38.8138,138],[-90.39252,38.81377,138],[-90.39254,38.81374,138],[-90.39256,38.81366,138],[-90.39258,38.81359,138],[-90.39262,38.81356,138],[-90.39265,38.81352,137],[-90.39269,38.81348,137],[-90.39273,38.81342,136],[-90.39277,38.81338,135],[-90.39281,38.81334,134],[-90.39284,38.81331,134],[-90.39286,38.81329,134],[-90.39289,38.81327,134],[-90.39292,38.81325,133],[-90.39294,38.81322,133],[-90.39297,38.8132,133],[-90.39301,38.81317,133],[-90.39305,38.81315,133],[-90.39308,38.81312,132],[-90.39313,38.81307,132],[-90.39319,38.81303,133],[-90.39326,38.813,133],[-90.39329,38.81297,133],[-90.39332,38.81295,133],[-90.39335,38.81293,133],[-90.39339,38.81291,133],[-90.39343,38.81289,133],[-90.3935,38.81286,133],[-90.39357,38.81282,133],[-90.39363,38.81278,133],[-90.3937,38.81274,134],[-90.39377,38.81271,134],[-90.39384,38.81272,134],[-90.39389,38.81268,135],[-90.39394,38.81263,135],[-90.394,38.81258,135],[-90.39406,38.81252,136],[-90.39412,38.81248,137],[-90.39417,38.81242,137],[-90.39423,38.81238,137],[-90.39428,38.81234,137],[-90.39431,38.81231,137],[-90.39434,38.81229,137],[-90.39436,38.81226,137],[-90.39438,38.81223,137],[-90.39439,38.8122,138],[-90.3944,38.81218,138],[-90.39443,38.81215,138],[-90.39446,38.81212,137],[-90.3945,38.81209,137],[-90.39452,38.81207,137],[-90.39455,38.81205,137],[-90.39458,38.81202,137],[-90.39462,38.81198,137],[-90.39467,38.81194,137],[-90.39469,38.81192,136],[-90.39473,38.81189,136],[-90.39479,38.81184,135],[-90.39485,38.81179,134],[-90.3949,38.81175,134],[-90.39493,38.81171,133],[-90.39496,38.81168,133],[-90.395,38.81166,132],[-90.39504,38.81164,132],[-90.39507,38.81163,132],[-90.3951,38.81161,132],[-90.39516,38.81159,132],[-90.3952,38.81156,132],[-90.39525,38.81153,132],[-90.39528,38.81151,133],[-90.39524,38.81152,132],[-90.39521,38.81152,132],[-90.39517,38.81153,132]]],
        "bbox": [
          -90.38664,
          38.81945,
          -90.39528,
          38.81113
        ]
      },
      "properties": {
        "name": "11.4.2020A"
      }
    }
  ]
}