{
  "type": "FeatureCollection",
  "features": [
    {
      "type": "Feature",
      "geometry": {
        "type": "MultiLineString",
        "coordinates": [[[-90.39494,38.81166,133],[-90.39491,38.81169,133],[-90.3949,38.81172,133],[-90.39487,38.81174,134],[-90.39485,38.81176,134],[-90.39482,38.81179,134],[-90.39479,38.81181,135],[-90.39476,38.81183,135],[-90.39473,38.81186,136],[-90.39469,38.81189,136],[-90.39466,38.81192,136],[-90.39463,38.81195,137],[-90.3946,38.81197,137],[-90.39457,38.812,137],[-90.39454,38.81202,137],[-90.39451,38.81205,137],[-90.39448,38.81207,137],[-90.39445,38.81209,137],[-90.39443,38.81211,138],[-90.3944,38.81213,138],[-90.39437,38.81216,138],[-90.39434,38.8122,138],[-90.3943,38.81223,137],[-90.39425,38.81225,137],[-90.3942,38.81228,137],[-90.39416,38.81231,137],[-90.39413,38.81234,137],[-90.39409,38.81237,137],[-90.39405,38.81239,137],[-90.39401,38.81241,137],[-90.39397,38.81244,137],[-90.39394,38.81247,137],[-90.3939,38.81251,136],[-90.39387,38.81255,136],[-90.39383,38.81259,135],[-90.3938,38.81262,135],[-90.39376,38.81265,135],[-90.39372,38.81268,134],[-90.39369,38.81272,134],[-90.39365,38.81274,134],[-90.39361,38.81277,134],[-90.39357,38.81276,134],[-90.39352,38.81277,134],[-90.39351,38.81281,134],[-90.39349,38.81284,133],[-90.39345,38.81287,133],[-90.39341,38.81289,133],[-90.39337,38.81292,133],[-90.39332,38.81291,134],[-90.39328,38.81288,134],[-90.39325,38.81285,134],[-90.39324,38.81281,134],[-90.39322,38.81278,134],[-90.39319,38.81274,134],[-90.39315,38.81272,134],[-90.3931,38.8127,134],[-90.39305,38.81268,134],[-90.393,38.81267,134],[-90.39296,38.81266,134],[-90.3929,38.81264,134],[-90.39285,38.81262,134],[-90.39281,38.81259,134],[-90.39277,38.81256,134],[-90.39272,38.81254,134],[-90.39267,38.81252,134],[-90.39263,38.81249,135],[-90.39259,38.81246,135],[-90.39256,38.81242,135],[-90.39252,38.81239,135],[-90.39249,38.81236,135],[-90.39245,38.81232,135],[-90.39241,38.8123,135],[-90.39237,38.81228,135],[-90.39233,38.81225,135],[-90.3923,38.81222,135],[-90.39225,38.8122,135],[-90.39221,38.81219,136],[-90.39215,38.81219,136],[-90.3921,38.81217,136],[-90.39204,38.81215,137],[-90.39199,38.81215,137],[-90.39194,38.81216,137],[-90.3919,38.81218,137],[-90.39186,38.81221,137],[-90.39185,38.81225,137],[-90.39182,38.81229,136],[-90.39179,38.81231,136],[-90.39175,38.81235,136],[-90.39172,38.81237,136],[-90.39168,38.81239,136],[-90.39166,38.81243,135],[-90.39163,38.81247,135],[-90.3916,38.8125,135],[-90.39157,38.81253,135],[-90.39155,38.81258,136],[-90.39153,38.81261,137],[-90.39151,38.81265,138],[-90.39151,38.81269,139],[-90.39152,38.81272,140],[-90.39155,38.81275,140],[-90.39159,38.81278,140],[-90.39162,38.81281,140],[-90.39167,38.81284,139],[-90.3917,38.81288,140],[-90.39175,38.81289,139],[-90.39179,38.81292,139],[-90.39183,38.81295,139],[-90.39187,38.81299,139],[-90.39191,38.81301,138],[-90.39195,38.81303,138],[-90.39199,38.81307,138],[-90.39202,38.8131,138],[-90.39207,38.81312,138],[-90.39212,38.81314,138],[-90.39216,38.81317,138],[-90.3922,38.81319,138],[-90.39224,38.8132,137],[-90.3923,38.81322,137],[-90.39234,38.81324,137],[-90.39237,38.81328,137],[-90.3924,38.81331,137],[-90.39244,38.81334,137],[-90.39248,38.81337,137],[-90.39252,38.8134,137],[-90.39255,38.81344,137],[-90.39256,38.81348,137],[-90.39256,38.81352,138],[-90.39253,38.81355,138],[-90.39251,38.81359,138],[-90.39249,38.81363,138],[-90.39248,38.81367,138],[-90.39248,38.81371,138],[-90.39247,38.81374,138],[-90.39247,38.81379,138],[-90.39247,38.81383,137],[-90.39244,38.81387,137],[-90.3924,38.81391,137],[-90.39237,38.81393,137],[-90.39232,38.81396,138],[-90.39229,38.81399,140],[-90.39224,38.81401,141],[-90.39221,38.81404,142],[-90.39218,38.81407,145],[-90.39214,38.8141,147],[-90.39209,38.81411,148],[-90.39206,38.81414,150],[-90.39201,38.81415,150],[-90.39199,38.81419,152],[-90.39197,38.81422,153],[-90.39196,38.81426,154],[-90.39195,38.8143,155],[-90.39193,38.81434,156],[-90.39193,38.81438,157],[-90.39194,38.81441,158],[-90.39195,38.81445,158],[-90.39193,38.8145,160],[-90.39191,38.81454,161],[-90.39193,38.81458,161],[-90.39194,38.81462,161],[-90.39197,38.81465,161],[-90.39199,38.8147,161],[-90.39198,38.81474,162],[-90.39197,38.81478,163],[-90.39195,38.81482,163],[-90.39193,38.81485,164],[-90.39192,38.81489,165],[-90.39189,38.81493,167],[-90.39187,38.81498,168],[-90.39187,38.81502,169],[-90.39192,38.81502,167],[-90.39196,38.81505,167],[-90.39199,38.81507,167],[-90.39202,38.81511,167],[-90.39202,38.81515,169],[-90.392,38.81519,171],[-90.39197,38.81522,173],[-90.39193,38.81524,174],[-90.39191,38.81527,176],[-90.39191,38.81531,176],[-90.39191,38.81535,177],[-90.39193,38.81538,176],[-90.39197,38.8154,176],[-90.39203,38.81541,173],[-90.39207,38.81544,172],[-90.39208,38.81548,172],[-90.39205,38.81552,173],[-90.39203,38.81556,174],[-90.39201,38.8156,173],[-90.39199,38.81562,174],[-90.39197,38.81565,174]],[[-90.39177,38.81581,177],[-90.39178,38.81585,176],[-90.39178,38.81589,175],[-90.39177,38.81593,174],[-90.39174,38.81595,175],[-90.39172,38.81599,174],[-90.39172,38.81603,174],[-90.39173,38.81607,173],[-90.39173,38.81611,172],[-90.39172,38.81614,171],[-90.3917,38.81618,170],[-90.3917,38.81621,169],[-90.39168,38.81625,168],[-90.39167,38.81629,167],[-90.39167,38.81633,166],[-90.39166,38.81637,164],[-90.39163,38.8164,164],[-90.3916,38.81643,164],[-90.39157,38.81646,164],[-90.39156,38.8165,163],[-90.39152,38.81653,163],[-90.39147,38.81653,164],[-90.39144,38.81655,164],[-90.39145,38.8166,162],[-90.39147,38.81663,161],[-90.39142,38.81664,162],[-90.39137,38.81665,162],[-90.39133,38.81666,163],[-90.3913,38.81669,162],[-90.39126,38.81671,162],[-90.39122,38.81675,161],[-90.39117,38.81676,162],[-90.39112,38.81674,163],[-90.39108,38.81672,164],[-90.39103,38.81672,164],[-90.39098,38.81671,165],[-90.39094,38.81674,165],[-90.39091,38.81677,164],[-90.39086,38.81678,164],[-90.39082,38.8168,164],[-90.39081,38.81684,164],[-90.39076,38.81683,164],[-90.39072,38.81681,165],[-90.39068,38.81682,165],[-90.39063,38.81684,165],[-90.39059,38.81686,165],[-90.39055,38.81688,165],[-90.39053,38.81691,165],[-90.3905,38.81695,165],[-90.39051,38.81699,163],[-90.39051,38.81703,162],[-90.39054,38.81706,161],[-90.39053,38.8171,160],[-90.39052,38.81714,158],[-90.39051,38.81718,157],[-90.39052,38.81722,156],[-90.39055,38.81726,154],[-90.39057,38.8173,152],[-90.39058,38.81733,151],[-90.39059,38.81738,149],[-90.39057,38.81742,148],[-90.39059,38.81745,147],[-90.39064,38.81745,146],[-90.39069,38.81742,146],[-90.39074,38.81742,146],[-90.39079,38.81741,145],[-90.39084,38.8174,145],[-90.3908,38.8174,145],[-90.39075,38.81742,145],[-90.3907,38.81744,145],[-90.39066,38.81747,145],[-90.39063,38.81751,144],[-90.3906,38.81754,144],[-90.39056,38.81755,144],[-90.39052,38.81752,145],[-90.39048,38.8175,146],[-90.39043,38.81751,147],[-90.39038,38.81752,147],[-90.39033,38.81753,147],[-90.39028,38.81752,148],[-90.39026,38.81749,149],[-90.39023,38.81752,149],[-90.39023,38.81756,148],[-90.39018,38.81755,149],[-90.39015,38.81758,148],[-90.39012,38.81762,148],[-90.39011,38.81765,148],[-90.39006,38.81765,148],[-90.39002,38.81767,149],[-90.39001,38.81771,148],[-90.39001,38.81775,148],[-90.39003,38.81779,147],[-90.38998,38.8178,147],[-90.38993,38.81782,148],[-90.38988,38.81783,148],[-90.38984,38.81785,148],[-90.38979,38.81786,148],[-90.38974,38.81787,149],[-90.38969,38.81787,149],[-90.38974,38.81787,149],[-90.3897,38.8179,149],[-90.38966,38.81792,149],[-90.38962,38.81794,148],[-90.38957,38.81795,148],[-90.38952,38.81796,148],[-90.38946,38.81796,149],[-90.3894,38.81796,149],[-90.38935,38.81795,150],[-90.3893,38.81796,151],[-90.38925,38.81797,151],[-90.3892,38.81798,151],[-90.38917,38.81801,151],[-90.38913,38.81803,151],[-90.38916,38.818,151],[-90.38921,38.818,151],[-90.38926,38.818,150],[-90.38931,38.81799,150],[-90.38937,38.818,149],[-90.38943,38.818,148],[-90.38948,38.818,148],[-90.38953,38.81801,147],[-90.38959,38.818,147],[-90.38962,38.81798,148],[-90.38967,38.81795,148],[-90.38972,38.81795,148],[-90.38977,38.81793,148],[-90.3898,38.81791,148],[-90.38983,38.81786,148],[-90.38986,38.81782,148],[-90.38988,38.81779,149],[-90.38992,38.81776,149],[-90.38996,38.81774,148],[-90.39001,38.81774,148],[-90.39007,38.81774,147],[-90.39012,38.81774,146],[-90.39015,38.81772,146],[-90.39019,38.81769,146],[-90.39021,38.81766,146],[-90.39024,38.81762,146],[-90.39028,38.8176,146],[-90.39033,38.81759,146],[-90.39038,38.81759,145],[-90.39042,38.81756,146],[-90.39043,38.81752,146],[-90.39047,38.81751,146],[-90.39049,38.81746,148],[-90.39052,38.81743,148],[-90.39057,38.81744,147],[-90.39061,38.81746,146],[-90.39057,38.81743,148],[-90.39053,38.8174,149],[-90.39051,38.81737,150],[-90.39048,38.81734,152],[-90.39049,38.8173,153],[-90.3905,38.81726,154],[-90.3905,38.81722,156],[-90.3905,38.81718,157],[-90.39048,38.81714,159],[-90.39048,38.81711,160],[-90.39048,38.81707,161],[-90.39048,38.81703,162],[-90.39046,38.81698,164],[-90.39047,38.81693,165],[-90.3905,38.81689,165],[-90.39055,38.81686,165],[-90.39059,38.81684,165],[-90.39063,38.81681,165],[-90.39068,38.8168,165],[-90.39073,38.8168,165],[-90.39078,38.81681,164],[-90.3908,38.81677,165],[-90.3908,38.81672,166],[-90.39079,38.81675,165],[-90.39077,38.81679,165],[-90.39082,38.81678,165],[-90.39084,38.81675,165],[-90.39084,38.81671,166],[-90.39088,38.81671,165],[-90.39094,38.81673,165],[-90.391,38.81675,164],[-90.39106,38.81677,163],[-90.39111,38.81677,163],[-90.39115,38.81677,162],[-90.39121,38.81678,161],[-90.39126,38.81679,160],[-90.39129,38.81676,160],[-90.39131,38.81673,161],[-90.39135,38.81669,161],[-90.39138,38.81666,162],[-90.39141,38.81662,163],[-90.39146,38.81661,162],[-90.39149,38.81658,162],[-90.3915,38.81656,162],[-90.39153,38.81654,162],[-90.39155,38.81651,163],[-90.39157,38.81649,163],[-90.39159,38.81646,163],[-90.3916,38.81644,164],[-90.39162,38.81641,164],[-90.39163,38.81637,165],[-90.39165,38.81634,166],[-90.39165,38.81631,167],[-90.39165,38.81628,168],[-90.39165,38.81625,169],[-90.39167,38.81622,170],[-90.39168,38.81619,170],[-90.39169,38.81616,171],[-90.3917,38.81612,172],[-90.39171,38.81607,173],[-90.39171,38.81602,174],[-90.39172,38.81598,175],[-90.39172,38.81595,175],[-90.39173,38.81591,176],[-90.39173,38.81587,177],[-90.39172,38.81582,178],[-90.39171,38.81578,179],[-90.39169,38.81574,180],[-90.39166,38.81571,181],[-90.39163,38.81568,181],[-90.39159,38.81565,182],[-90.39155,38.81563,182],[-90.39152,38.81559,183],[-90.39147,38.81556,184],[-90.39144,38.81553,184],[-90.39139,38.8155,185],[-90.39134,38.81548,185],[-90.3913,38.81547,185],[-90.39125,38.81547,185],[-90.3912,38.81547,185],[-90.39115,38.81549,186],[-90.3911,38.8155,186],[-90.39104,38.8155,185],[-90.39099,38.81551,185],[-90.39093,38.81551,185],[-90.39088,38.81551,185],[-90.39083,38.81552,185],[-90.39077,38.81552,184],[-90.39072,38.81551,184],[-90.39067,38.8155,183],[-90.39062,38.81549,183],[-90.39058,38.81548,182],[-90.39054,38.81547,182],[-90.39049,38.81545,181],[-90.39045,38.81542,181],[-90.39041,38.81539,181],[-90.39037,38.81536,181],[-90.39032,38.81534,181],[-90.39026,38.81532,181],[-90.39022,38.81529,181],[-90.39018,38.81526,182],[-90.39015,38.81523,183],[-90.39012,38.8152,183],[-90.39007,38.81518,184],[-90.39002,38.81517,184],[-90.38997,38.81516,185],[-90.38994,38.81513,185],[-90.3899,38.8151,186],[-90.38986,38.81508,187],[-90.38981,38.81506,187],[-90.38975,38.81504,188],[-90.38971,38.81502,188],[-90.38966,38.815,188],[-90.38963,38.81497,189],[-90.38962,38.81493,189],[-90.3896,38.8149,189],[-90.38957,38.81486,189],[-90.38956,38.81482,190],[-90.38956,38.81478,190],[-90.38956,38.81474,191],[-90.38956,38.81469,191],[-90.38955,38.81466,190],[-90.38955,38.81462,190],[-90.38954,38.81458,190],[-90.38954,38.81453,190],[-90.38953,38.8145,190],[-90.38949,38.81446,189]],[[-90.38938,38.81433,189],[-90.38934,38.81431,190],[-90.3893,38.8143,190],[-90.38925,38.81431,191],[-90.38919,38.81429,192],[-90.38914,38.81427,192],[-90.38909,38.81425,192],[-90.38904,38.81424,192],[-90.38899,38.81424,192],[-90.38894,38.81424,192],[-90.38889,38.81424,192],[-90.38885,38.81422,193],[-90.3888,38.8142,194],[-90.38876,38.81418,194],[-90.38871,38.81417,195],[-90.38866,38.81416,196],[-90.38862,38.81414,196],[-90.38857,38.81411,196],[-90.38851,38.81409,197],[-90.38848,38.81407,197],[-90.38843,38.81404,197],[-90.38839,38.81401,197],[-90.38835,38.81399,198],[-90.38829,38.81397,198],[-90.38824,38.81396,198],[-90.38819,38.81395,198],[-90.38813,38.81396,198],[-90.38808,38.81396,199],[-90.38802,38.81396,199],[-90.38797,38.81397,199],[-90.38792,38.81397,199],[-90.38787,38.81397,199],[-90.38783,38.81396,199],[-90.38777,38.81396,200],[-90.38771,38.81397,200],[-90.38767,38.81396,200],[-90.38763,38.81394,200],[-90.38758,38.81391,200],[-90.38756,38.81389,199],[-90.3876,38.81389,199],[-90.38763,38.8139,200],[-90.38767,38.81392,200],[-90.38769,38.81393,200],[-90.38773,38.81395,200],[-90.38777,38.81396,200],[-90.38781,38.81396,199],[-90.38786,38.81396,199],[-90.3879,38.81396,199],[-90.38794,38.81395,199],[-90.38798,38.81394,199],[-90.38803,38.81393,199],[-90.38807,38.81393,199],[-90.38812,38.81394,198],[-90.38817,38.81395,198],[-90.38823,38.81397,198],[-90.38828,38.81398,198],[-90.38833,38.81399,198],[-90.38839,38.814,197],[-90.38845,38.81401,197],[-90.3885,38.81403,197],[-90.38855,38.81405,196],[-90.38859,38.81406,196],[-90.38863,38.81409,196],[-90.38867,38.81412,195],[-90.38871,38.81415,195],[-90.38876,38.81416,194],[-90.38882,38.81418,194],[-90.38887,38.81419,193],[-90.38892,38.81419,192],[-90.38897,38.81419,192],[-90.38902,38.81419,192],[-90.38907,38.8142,192],[-90.38911,38.81423,192],[-90.38915,38.81424,192],[-90.38919,38.81426,192],[-90.38924,38.81428,191],[-90.38929,38.8143,190],[-90.38934,38.81432,190],[-90.38939,38.81435,189],[-90.38943,38.81438,189],[-90.38946,38.81441,189],[-90.38948,38.81445,189],[-90.38949,38.81448,190],[-90.38951,38.81452,190],[-90.38951,38.81456,190],[-90.38951,38.8146,190],[-90.3895,38.81465,190],[-90.38953,38.81468,191],[-90.38954,38.81473,191],[-90.38952,38.81477,190],[-90.38951,38.81481,190],[-90.38952,38.81486,189],[-90.38954,38.81489,189],[-90.38956,38.81494,189],[-90.38958,38.81498,188],[-90.3896,38.81502,188],[-90.38963,38.81505,187],[-90.38967,38.81508,187],[-90.3897,38.81512,186],[-90.38973,38.81515,185],[-90.38977,38.81519,184],[-90.38981,38.81522,184],[-90.38986,38.81524,183],[-90.38991,38.81526,182],[-90.38996,38.81529,181],[-90.39,38.8153,181],[-90.39005,38.81532,181],[-90.39009,38.81535,180],[-90.39015,38.81537,180],[-90.3902,38.81538,180],[-90.39025,38.8154,180],[-90.3903,38.81543,180],[-90.39034,38.81545,180],[-90.39039,38.81545,180],[-90.39043,38.81547,181],[-90.3905,38.81548,181],[-90.39055,38.81549,182],[-90.39059,38.81551,182],[-90.39064,38.81552,183],[-90.39069,38.81552,183],[-90.39074,38.81551,184],[-90.3908,38.8155,185],[-90.39084,38.8155,185],[-90.39089,38.81548,185],[-90.39094,38.81547,185],[-90.39099,38.81548,185],[-90.39105,38.8155,186],[-90.3911,38.8155,186],[-90.39115,38.8155,186],[-90.3912,38.81549,185],[-90.39125,38.81548,185],[-90.39131,38.81548,185],[-90.39136,38.8155,185],[-90.39141,38.81552,184],[-90.39146,38.81554,184],[-90.39151,38.81555,184],[-90.39155,38.81556,183],[-90.39162,38.81557,183],[-90.39167,38.81557,182],[-90.39172,38.81557,181],[-90.39178,38.81558,180],[-90.39183,38.8156,179]],[[-90.39195,38.81504,167],[-90.39198,38.81502,165],[-90.392,38.815,164],[-90.39199,38.81497,164],[-90.39199,38.81494,164],[-90.39199,38.8149,163],[-90.39198,38.81486,163],[-90.39197,38.81483,163],[-90.39196,38.81479,163],[-90.39195,38.81476,163],[-90.39195,38.81472,162],[-90.39195,38.8147,162],[-90.39194,38.81466,162],[-90.39192,38.81463,162],[-90.3919,38.8146,162],[-90.3919,38.81457,162],[-90.3919,38.81454,161],[-90.39189,38.8145,161],[-90.39189,38.81446,160],[-90.39188,38.81443,160],[-90.39187,38.8144,160],[-90.39186,38.81436,159],[-90.39184,38.81432,158],[-90.39187,38.81428,156],[-90.3919,38.81425,155],[-90.39192,38.81421,153],[-90.39197,38.81418,152],[-90.39203,38.81416,151],[-90.39208,38.81415,150],[-90.39213,38.81414,149],[-90.39218,38.81413,148],[-90.39224,38.81412,148],[-90.39228,38.8141,146],[-90.3923,38.81407,145],[-90.39234,38.81403,142],[-90.39236,38.814,141],[-90.39237,38.81396,139],[-90.3924,38.81392,137],[-90.39244,38.8139,137],[-90.39244,38.81386,137],[-90.39245,38.81383,137],[-90.39248,38.8138,138],[-90.3925,38.81376,138],[-90.39254,38.81372,138],[-90.39257,38.81369,138],[-90.3926,38.81365,138],[-90.39263,38.81361,138],[-90.39264,38.81358,138],[-90.39267,38.81354,137],[-90.3927,38.81351,137],[-90.39267,38.81347,137],[-90.39263,38.81345,137],[-90.3926,38.81342,137],[-90.39257,38.81339,136],[-90.39254,38.81336,136],[-90.39249,38.81334,137],[-90.39243,38.81333,137],[-90.39239,38.81331,137],[-90.39237,38.81327,137],[-90.39234,38.81322,137],[-90.3923,38.81319,137],[-90.39227,38.81316,137],[-90.39223,38.81314,137],[-90.39218,38.81313,137],[-90.39214,38.8131,137],[-90.39211,38.81308,137],[-90.39205,38.81305,138],[-90.39201,38.81303,138],[-90.39198,38.81301,138],[-90.39195,38.81297,137],[-90.39192,38.81294,137],[-90.39189,38.81291,137],[-90.39185,38.81288,137],[-90.3918,38.81285,138],[-90.39175,38.81283,138],[-90.39171,38.81281,138],[-90.39166,38.81278,139],[-90.39164,38.81275,138],[-90.39163,38.81271,138],[-90.39162,38.81267,137],[-90.39161,38.81263,137],[-90.39162,38.81259,136],[-90.39165,38.81255,135],[-90.39169,38.81252,135],[-90.39172,38.81249,135],[-90.39175,38.81245,135],[-90.39178,38.81241,135],[-90.39181,38.81238,136],[-90.39184,38.81234,136],[-90.39186,38.8123,136],[-90.3919,38.81226,136],[-90.39194,38.81224,136],[-90.39198,38.81222,136],[-90.39203,38.81221,136],[-90.39208,38.81219,136],[-90.39213,38.81217,136],[-90.39217,38.81216,136],[-90.39222,38.81216,136],[-90.39227,38.81218,135],[-90.39231,38.8122,135],[-90.39235,38.81222,135],[-90.39239,38.81225,135],[-90.39243,38.81227,135],[-90.39247,38.81229,135],[-90.39251,38.81232,135],[-90.39255,38.81234,135],[-90.39258,38.81237,134],[-90.39263,38.81239,134],[-90.39267,38.81242,134],[-90.39271,38.81245,134],[-90.39275,38.81247,134],[-90.39279,38.8125,134],[-90.39282,38.81253,134],[-90.39287,38.81254,134],[-90.39292,38.81256,134],[-90.39296,38.81258,134],[-90.39302,38.81261,134],[-90.39306,38.81264,134],[-90.39311,38.81266,134],[-90.39315,38.81269,134],[-90.39319,38.81273,134],[-90.39323,38.81275,134],[-90.39328,38.81278,134],[-90.39332,38.8128,134],[-90.39338,38.81281,134],[-90.39343,38.8128,134],[-90.39349,38.8128,134],[-90.39354,38.81279,134],[-90.39359,38.81278,134],[-90.39364,38.81278,133],[-90.3937,38.81275,134],[-90.39374,38.81272,134],[-90.39378,38.81269,134],[-90.39385,38.81266,135],[-90.39389,38.81264,135],[-90.39392,38.81261,135],[-90.39396,38.81259,135],[-90.394,38.81257,136],[-90.39404,38.81255,136],[-90.39411,38.8125,137],[-90.39417,38.81246,137],[-90.39421,38.81243,137],[-90.39424,38.81241,136],[-90.39427,38.81238,136],[-90.39429,38.81234,137],[-90.39432,38.81231,137],[-90.39436,38.81228,137],[-90.3944,38.81225,137],[-90.39443,38.81222,138],[-90.39447,38.81218,137],[-90.3945,38.81214,137],[-90.39454,38.8121,137],[-90.39457,38.81207,137],[-90.39461,38.81204,137],[-90.39464,38.81201,137],[-90.39467,38.81198,137],[-90.3947,38.81195,137],[-90.39474,38.81192,136],[-90.39478,38.81189,136],[-90.39481,38.81186,135],[-90.39484,38.81182,135],[-90.39487,38.8118,134],[-90.3949,38.81177,134],[-90.39492,38.81174,133],[-90.39495,38.81171,133],[-90.39498,38.8117,133],[-90.39502,38.8117,133],[-90.39505,38.81169,133],[-90.39508,38.81167,133],[-90.39509,38.8117,133],[-90.39512,38.81168,133],[-90.39516,38.81169,133]]],
        "bbox": [
          -90.38756,
          38.81803,
          -90.39516,
          38.81166
        ]
      },
      "properties": {
        "name": "8.1.2021"
      }
    }
  ]
}