{
  "type": "FeatureCollection",
  "features": [
    {
      "type": "Feature",
      "geometry": {
        "type": "MultiLineString",
        "coordinates": [[[-90.39481,38.81172,134],[-90.39486,38.81177,134],[-90.39489,38.81182,134],[-90.3949,38.81185,134],[-90.3949,38.81188,135],[-90.39486,38.81193,135],[-90.39482,38.81195,136],[-90.39478,38.81197,136],[-90.39475,38.81201,136],[-90.39473,38.81205,136],[-90.39468,38.81208,136],[-90.39464,38.8121,136],[-90.39458,38.81212,137],[-90.39452,38.81212,137],[-90.39447,38.81213,137],[-90.39443,38.81214,138],[-90.39439,38.81215,138],[-90.39435,38.81216,138],[-90.39431,38.81218,138],[-90.39427,38.81221,138],[-90.39423,38.81224,137],[-90.3942,38.81227,137],[-90.39416,38.8123,137],[-90.39413,38.81233,137],[-90.39411,38.81236,137],[-90.3941,38.81241,137],[-90.39409,38.81244,137],[-90.39407,38.81247,137],[-90.39404,38.8125,137],[-90.39402,38.81253,136],[-90.39399,38.81256,136],[-90.39394,38.81258,136],[-90.39389,38.81259,136],[-90.39384,38.81261,135],[-90.39379,38.81263,135],[-90.39373,38.81266,135],[-90.39368,38.8127,134],[-90.39364,38.81274,134],[-90.39359,38.81277,134],[-90.39354,38.81278,134],[-90.39354,38.81275,134],[-90.39356,38.81272,134],[-90.39353,38.81274,134],[-90.39349,38.8128,134],[-90.39345,38.81282,134],[-90.39342,38.81283,134],[-90.39337,38.81286,134],[-90.39334,38.81289,134],[-90.39331,38.81294,133],[-90.39329,38.81298,133],[-90.39326,38.81302,133],[-90.39322,38.81305,133],[-90.39318,38.81309,132],[-90.39315,38.81313,132],[-90.39312,38.81316,132],[-90.39302,38.81325,133],[-90.39298,38.81331,133],[-90.39297,38.81334,133],[-90.39299,38.81337,133],[-90.39301,38.81341,133],[-90.39302,38.81345,134],[-90.39299,38.8135,134],[-90.39295,38.81355,135],[-90.39291,38.81358,136],[-90.39288,38.8136,136],[-90.39285,38.81362,137],[-90.39281,38.81365,137],[-90.39277,38.81367,138],[-90.39273,38.81369,138],[-90.39268,38.8137,138],[-90.39264,38.81371,138],[-90.39258,38.81372,138],[-90.39253,38.81372,138],[-90.39248,38.81373,138],[-90.39244,38.81373,138],[-90.39239,38.81374,137],[-90.39232,38.81377,136],[-90.39227,38.8138,135],[-90.39224,38.81388,133],[-90.39225,38.81395,137],[-90.39226,38.814,140],[-90.39225,38.81405,143],[-90.39223,38.8141,146],[-90.39219,38.81414,149],[-90.39212,38.81417,151],[-90.39204,38.81419,152],[-90.39196,38.81419,152],[-90.39189,38.81416,152],[-90.39183,38.81414,153],[-90.39182,38.81418,155],[-90.3918,38.81423,157],[-90.39178,38.81427,159],[-90.3918,38.81432,159],[-90.3918,38.81437,161],[-90.39181,38.81442,162],[-90.39182,38.81447,162],[-90.39183,38.81451,163],[-90.39185,38.81456,163],[-90.3919,38.81459,162],[-90.39192,38.81463,162],[-90.39193,38.81469,162],[-90.39194,38.81475,163],[-90.39191,38.81482,165],[-90.39196,38.81491,164],[-90.39208,38.81488,161],[-90.39206,38.81492,162],[-90.39202,38.81495,163],[-90.39198,38.81499,164],[-90.39194,38.81503,167],[-90.39193,38.81507,169],[-90.39193,38.81513,171],[-90.39195,38.81519,172],[-90.39197,38.81526,174],[-90.39198,38.81534,175],[-90.39198,38.8154,175],[-90.39197,38.81546,176],[-90.39197,38.81552,176],[-90.39199,38.81557,175],[-90.39201,38.81562,173],[-90.39202,38.81566,172],[-90.39197,38.8157,173],[-90.39202,38.81567,172],[-90.39207,38.81557,172],[-90.39188,38.81553,179],[-90.39174,38.8155,181],[-90.39168,38.8155,182],[-90.39163,38.8155,182],[-90.39157,38.8155,183],[-90.39152,38.8155,183],[-90.39147,38.81551,184],[-90.3914,38.81552,184],[-90.39135,38.81553,185],[-90.3913,38.81555,185],[-90.39124,38.81555,185],[-90.39117,38.81555,185],[-90.39109,38.81555,185],[-90.39101,38.81556,185],[-90.39093,38.81557,185],[-90.39085,38.81558,184],[-90.39078,38.81558,184],[-90.39069,38.81557,183],[-90.39055,38.81556,181],[-90.39045,38.81559,180],[-90.39038,38.81558,179],[-90.39039,38.81553,179],[-90.39043,38.81549,180],[-90.39014,38.8154,180],[-90.39002,38.8154,179],[-90.38995,38.81538,180],[-90.38987,38.81536,181],[-90.38979,38.81531,182],[-90.38974,38.81524,183],[-90.38972,38.81516,185],[-90.38969,38.8151,186],[-90.38967,38.81504,188],[-90.38965,38.81498,188],[-90.38962,38.81492,189],[-90.3896,38.81486,190],[-90.38953,38.81483,190],[-90.38944,38.81478,190],[-90.38946,38.81469,190],[-90.38955,38.8146,190],[-90.3896,38.81454,190],[-90.38965,38.81448,189],[-90.38968,38.81444,189],[-90.38968,38.8144,188],[-90.38967,38.81437,187],[-90.38964,38.81434,187],[-90.38961,38.81432,187],[-90.38956,38.81432,187],[-90.38952,38.81431,188],[-90.38949,38.81429,188],[-90.38946,38.81428,188],[-90.38942,38.81427,189],[-90.38938,38.81427,189],[-90.38935,38.81427,190],[-90.38931,38.81426,190],[-90.38927,38.81426,191],[-90.38923,38.81425,191],[-90.38919,38.81425,192],[-90.38916,38.81425,192],[-90.38911,38.81426,192],[-90.38907,38.81426,192],[-90.38902,38.81426,192],[-90.38897,38.81424,192],[-90.38893,38.81421,192],[-90.3889,38.81419,192],[-90.38886,38.81416,193],[-90.38881,38.81412,193],[-90.38878,38.81408,193],[-90.38873,38.81405,194],[-90.38869,38.81403,194],[-90.38863,38.81401,195],[-90.38858,38.81399,196],[-90.38852,38.81398,196],[-90.38847,38.81398,196],[-90.38841,38.81398,197],[-90.38836,38.81398,198],[-90.38831,38.81397,198],[-90.38827,38.81397,198],[-90.38822,38.81396,198],[-90.38818,38.81396,198],[-90.38813,38.81395,198],[-90.38808,38.81394,199],[-90.38803,38.81394,199],[-90.38798,38.81394,199],[-90.38793,38.81394,199],[-90.38788,38.81394,199],[-90.38783,38.81394,199],[-90.38778,38.81393,199],[-90.38774,38.81393,200],[-90.38768,38.81394,200],[-90.38763,38.81394,200],[-90.38759,38.81391,200],[-90.38754,38.81388,199],[-90.38756,38.81384,199],[-90.38758,38.8138,198],[-90.38758,38.81376,198],[-90.38756,38.81373,197],[-90.38754,38.81368,197],[-90.38753,38.81362,196],[-90.38753,38.81359,196],[-90.38752,38.81355,195],[-90.38753,38.81351,195],[-90.38756,38.81349,195],[-90.38756,38.81345,195],[-90.38755,38.81342,194],[-90.38755,38.81338,194],[-90.38756,38.81334,194],[-90.38762,38.81333,194],[-90.38767,38.81333,195],[-90.38773,38.81331,195],[-90.38781,38.8133,195],[-90.38791,38.81325,194],[-90.38798,38.81312,192],[-90.38783,38.81313,193],[-90.38778,38.81314,193],[-90.38776,38.81312,193],[-90.38777,38.81308,193],[-90.3878,38.81303,192],[-90.38786,38.81299,191],[-90.3879,38.81295,190],[-90.38794,38.81291,190],[-90.38796,38.81288,189],[-90.38798,38.81284,189],[-90.38803,38.81284,188],[-90.38809,38.81284,187],[-90.38814,38.81283,186],[-90.38819,38.81281,184],[-90.38824,38.81279,182],[-90.38828,38.81276,181],[-90.38832,38.81275,179],[-90.38836,38.81274,178],[-90.38841,38.81272,176],[-90.38844,38.81269,174],[-90.38847,38.81266,173],[-90.38849,38.81261,172],[-90.3885,38.81256,172],[-90.3885,38.81251,171],[-90.38852,38.81248,170],[-90.38856,38.81244,168],[-90.3886,38.81241,167],[-90.38864,38.81239,166],[-90.38869,38.81237,165],[-90.38875,38.81232,164],[-90.38874,38.81226,163],[-90.38873,38.81222,163],[-90.38871,38.81217,162],[-90.38869,38.81214,162],[-90.38866,38.81211,162],[-90.38866,38.81207,162],[-90.38867,38.81202,161],[-90.38864,38.81196,161],[-90.38859,38.81192,162],[-90.38855,38.81188,163],[-90.3885,38.81186,164],[-90.38847,38.81183,165],[-90.38845,38.81179,165],[-90.38848,38.81176,165],[-90.38853,38.81174,165],[-90.38859,38.81177,164],[-90.38859,38.81173,164],[-90.38859,38.81169,164],[-90.38861,38.81165,165],[-90.38865,38.81162,164],[-90.38871,38.81159,163],[-90.38876,38.81157,161],[-90.38883,38.81155,160],[-90.38889,38.81154,158],[-90.38894,38.81153,157],[-90.389,38.81153,156],[-90.38905,38.81152,154],[-90.38908,38.81149,154],[-90.3891,38.81146,153],[-90.38913,38.81142,152],[-90.38918,38.8114,152],[-90.38922,38.81138,152],[-90.38928,38.81135,152],[-90.38933,38.81133,152],[-90.38938,38.81131,152],[-90.38944,38.8113,152],[-90.3895,38.81129,151],[-90.38956,38.81132,151],[-90.38962,38.81134,150],[-90.38967,38.81131,150],[-90.38972,38.81128,150],[-90.38977,38.81125,149],[-90.38982,38.81123,149],[-90.38987,38.81122,148],[-90.38993,38.81121,147],[-90.38998,38.81119,146],[-90.39004,38.81119,145],[-90.3901,38.81118,145],[-90.39015,38.81118,144],[-90.3902,38.81118,144],[-90.39026,38.81117,143],[-90.39032,38.81119,142],[-90.39038,38.8112,142],[-90.39042,38.81124,142],[-90.39048,38.81124,142],[-90.39058,38.81121,142],[-90.39063,38.81121,142],[-90.39067,38.81119,141],[-90.39072,38.81117,141],[-90.39074,38.81114,141],[-90.39076,38.8111,141],[-90.39079,38.81091,139],[-90.39064,38.81077,139],[-90.39056,38.81073,139],[-90.39051,38.81071,139],[-90.39046,38.81069,139],[-90.39042,38.81068,139],[-90.39036,38.81068,140],[-90.39031,38.81069,140],[-90.39026,38.81071,140],[-90.3902,38.81072,141],[-90.39014,38.81074,141],[-90.39009,38.81076,142],[-90.39003,38.81077,142],[-90.38998,38.81077,143],[-90.38994,38.81079,144],[-90.38988,38.81078,144],[-90.38987,38.81072,143],[-90.38987,38.81068,142],[-90.38983,38.81067,143],[-90.38979,38.81067,143],[-90.38963,38.81066,144],[-90.38956,38.81063,144],[-90.38951,38.81061,143],[-90.38947,38.81059,143],[-90.38943,38.81058,143],[-90.3894,38.8106,144],[-90.38936,38.81058,144],[-90.38935,38.81056,143],[-90.38932,38.81053,143],[-90.3893,38.8105,143],[-90.38921,38.81036,143],[-90.38918,38.81027,142],[-90.38917,38.81023,143],[-90.38915,38.8102,143],[-90.38912,38.81016,144],[-90.3891,38.81011,145],[-90.3891,38.81006,145],[-90.3891,38.81002,145],[-90.3891,38.80998,145],[-90.3891,38.80993,145],[-90.38903,38.80989,146],[-90.38903,38.80979,145],[-90.389,38.80975,145],[-90.38896,38.80971,146],[-90.38892,38.80968,146],[-90.38887,38.80965,146],[-90.38884,38.8096,146],[-90.38882,38.80956,146],[-90.38884,38.80953,145],[-90.38882,38.80948,145],[-90.38881,38.80943,144],[-90.38879,38.80938,144],[-90.38877,38.80933,143],[-90.38874,38.80929,143],[-90.38871,38.80925,142],[-90.38869,38.80921,142],[-90.38868,38.80916,141],[-90.38868,38.80913,141],[-90.38868,38.80908,141],[-90.38868,38.80904,141],[-90.38869,38.809,140],[-90.3887,38.80895,140],[-90.3887,38.80891,140],[-90.3887,38.80887,140],[-90.3887,38.80883,140],[-90.38868,38.80877,140],[-90.38866,38.80872,140],[-90.38863,38.80868,140],[-90.38862,38.80863,140],[-90.38862,38.80857,140],[-90.38862,38.80853,140],[-90.38862,38.80847,140],[-90.38858,38.80836,140],[-90.38857,38.80831,140],[-90.38856,38.80827,140],[-90.38853,38.80824,141],[-90.38848,38.8082,141],[-90.38846,38.80816,141],[-90.38845,38.80812,141],[-90.38844,38.80808,141],[-90.38843,38.80804,141],[-90.38842,38.80801,141],[-90.3884,38.80797,142],[-90.38839,38.80792,142],[-90.3884,38.80788,142],[-90.3884,38.80784,142],[-90.38839,38.8078,143],[-90.38837,38.80769,142],[-90.38836,38.80763,142],[-90.38836,38.80759,142],[-90.38834,38.80755,142],[-90.38832,38.80752,142],[-90.38831,38.80748,142],[-90.3883,38.80745,142],[-90.38829,38.80741,142],[-90.38821,38.80732,143],[-90.3882,38.80727,143],[-90.3882,38.80724,143],[-90.38819,38.80721,143],[-90.38818,38.80717,143],[-90.38817,38.80713,142],[-90.38817,38.80709,142],[-90.38817,38.80705,141],[-90.38817,38.80701,141],[-90.38816,38.80698,141],[-90.38816,38.80693,140],[-90.38815,38.80688,140],[-90.38815,38.80685,140],[-90.38816,38.80673,138],[-90.38816,38.80666,138],[-90.38814,38.80662,139],[-90.38814,38.80657,139],[-90.38811,38.80641,141],[-90.38809,38.80634,141],[-90.38808,38.8063,141],[-90.38807,38.80627,141],[-90.38806,38.80623,141],[-90.38804,38.8062,142],[-90.38802,38.80616,142],[-90.388,38.80613,143],[-90.38798,38.80609,144],[-90.38796,38.80604,144],[-90.38796,38.806,144],[-90.38793,38.80589,145],[-90.38794,38.80583,144],[-90.38794,38.80574,143],[-90.38789,38.80574,144],[-90.38785,38.80571,144],[-90.38785,38.80559,142],[-90.38786,38.80553,141],[-90.38787,38.80549,141],[-90.38785,38.80546,142],[-90.38788,38.80543,142],[-90.38791,38.8054,141],[-90.38792,38.80536,142],[-90.3879,38.80533,142],[-90.38788,38.80529,142],[-90.38786,38.80526,143],[-90.38784,38.80523,143],[-90.3878,38.8052,144],[-90.38776,38.80518,144],[-90.38773,38.80514,144],[-90.38772,38.80511,145],[-90.38771,38.80507,145],[-90.38771,38.80503,145],[-90.38771,38.80499,145],[-90.3877,38.80494,145],[-90.38771,38.8049,145],[-90.38773,38.80486,144],[-90.38775,38.80482,144],[-90.38775,38.80477,143],[-90.38773,38.80474,143],[-90.38771,38.8047,143],[-90.38769,38.80467,144],[-90.38767,38.80463,144],[-90.38765,38.80459,144],[-90.38761,38.80456,144],[-90.38756,38.80454,145],[-90.3875,38.80452,146],[-90.38747,38.80448,146],[-90.38747,38.80442,146],[-90.38748,38.80438,146],[-90.3875,38.80434,146],[-90.38753,38.8043,146],[-90.38756,38.80426,145],[-90.38756,38.80421,146],[-90.38753,38.80417,146],[-90.3875,38.80413,147],[-90.38748,38.80409,147],[-90.38748,38.80405,147],[-90.38747,38.80401,148],[-90.38744,38.80398,148],[-90.3874,38.80394,149],[-90.38738,38.8039,150],[-90.38734,38.80387,151],[-90.38731,38.80384,152],[-90.3873,38.8038,153],[-90.3873,38.80376,154],[-90.38729,38.80372,156],[-90.38728,38.80368,157],[-90.38723,38.80364,158],[-90.3872,38.80359,159],[-90.38716,38.80353,159],[-90.38724,38.80355,159],[-90.38721,38.80352,159],[-90.38717,38.80348,159],[-90.38713,38.80345,159],[-90.3871,38.80341,159],[-90.38706,38.80338,159],[-90.38701,38.80335,159],[-90.38697,38.80331,159],[-90.38694,38.80328,159],[-90.38692,38.80323,158],[-90.38691,38.80319,157],[-90.38691,38.80315,156],[-90.3869,38.80312,156],[-90.38688,38.80308,155],[-90.38686,38.80304,155],[-90.38682,38.80301,155],[-90.38678,38.80298,155],[-90.38677,38.80295,155],[-90.38675,38.80292,155],[-90.38672,38.80289,156],[-90.38668,38.80286,156],[-90.38665,38.80283,157],[-90.38661,38.80281,158],[-90.38655,38.80279,159],[-90.38652,38.80276,160],[-90.38647,38.80274,161],[-90.38642,38.80273,162],[-90.38636,38.80272,163],[-90.38632,38.80272,164],[-90.38628,38.8027,165],[-90.38623,38.8027,166],[-90.38619,38.8027,166],[-90.38613,38.80272,167],[-90.38607,38.80271,168],[-90.38604,38.80268,167],[-90.386,38.80264,167],[-90.38595,38.80262,167],[-90.3859,38.8026,167],[-90.38586,38.80263,167],[-90.38579,38.80265,168],[-90.38574,38.80266,168],[-90.38569,38.80266,168],[-90.38563,38.80268,168],[-90.38559,38.80269,168],[-90.38554,38.80273,168],[-90.3855,38.80275,169],[-90.38545,38.80278,169],[-90.3854,38.80279,170],[-90.38535,38.80279,170],[-90.38529,38.80277,171],[-90.38523,38.80276,172],[-90.38517,38.80273,172],[-90.38517,38.8027,173],[-90.38512,38.8027,173],[-90.38508,38.8027,173],[-90.38503,38.8027,174],[-90.38499,38.80272,174],[-90.38493,38.80272,174],[-90.38487,38.80271,174],[-90.38482,38.80269,174],[-90.38477,38.80267,174],[-90.38472,38.80265,174],[-90.38468,38.80264,174],[-90.38465,38.80261,174],[-90.3846,38.80261,174],[-90.38454,38.8026,174],[-90.38452,38.80264,174],[-90.38448,38.80266,174],[-90.38442,38.80267,174],[-90.38437,38.80269,174],[-90.38432,38.8027,174],[-90.38428,38.80273,174],[-90.38425,38.80276,174],[-90.38422,38.80279,173],[-90.38419,38.80282,173],[-90.38416,38.80285,173],[-90.38412,38.80287,173],[-90.38408,38.8029,173],[-90.38407,38.80293,173],[-90.38406,38.80297,172],[-90.38404,38.803,172],[-90.38401,38.80303,172],[-90.38397,38.80305,172],[-90.38392,38.80308,172],[-90.38385,38.80311,172],[-90.38379,38.80313,172],[-90.3836,38.80319,173],[-90.38349,38.80321,173],[-90.38343,38.80322,173],[-90.38339,38.80323,173],[-90.38334,38.80324,173],[-90.38329,38.80325,173],[-90.38324,38.80325,174],[-90.38319,38.80325,174],[-90.38314,38.80326,175],[-90.38308,38.80326,175],[-90.38303,38.80325,176],[-90.38298,38.80324,176],[-90.38293,38.80324,176],[-90.38288,38.80323,176],[-90.38284,38.8032,176],[-90.38279,38.80318,176],[-90.38273,38.80316,176],[-90.38268,38.80314,176],[-90.38262,38.80312,175],[-90.38257,38.80309,175],[-90.38252,38.80306,175],[-90.38249,38.80303,175],[-90.38246,38.80299,175],[-90.38244,38.80294,174],[-90.3824,38.80291,174],[-90.38235,38.8029,173],[-90.38229,38.80289,173],[-90.38225,38.80288,173],[-90.3822,38.80286,173],[-90.38215,38.80285,172],[-90.38211,38.80282,172],[-90.38207,38.8028,172],[-90.38201,38.80277,172],[-90.38195,38.80273,171],[-90.38191,38.80269,171],[-90.38189,38.80266,170],[-90.38188,38.80262,170],[-90.38185,38.80259,170],[-90.38182,38.80257,170],[-90.3818,38.80252,170],[-90.38184,38.80248,170],[-90.38185,38.80243,170],[-90.38187,38.80239,170],[-90.38191,38.80235,170],[-90.38196,38.80232,169],[-90.38201,38.80231,169],[-90.38206,38.8023,169],[-90.38209,38.80227,169],[-90.3821,38.80222,168],[-90.3821,38.80218,169],[-90.38209,38.80214,169],[-90.38209,38.80209,169],[-90.38211,38.80204,169],[-90.38216,38.80201,169],[-90.38221,38.80198,169],[-90.38225,38.80192,170],[-90.38223,38.80186,170],[-90.38221,38.80182,170],[-90.38221,38.80178,170],[-90.38219,38.80174,170],[-90.38218,38.8017,170],[-90.38218,38.80166,170],[-90.38218,38.80163,170],[-90.38218,38.80159,170],[-90.38217,38.80156,169],[-90.38213,38.80153,169],[-90.38209,38.80151,168],[-90.38204,38.80149,168],[-90.38201,38.80149,168],[-90.38197,38.80149,167],[-90.38193,38.8015,167],[-90.38189,38.80151,167],[-90.38181,38.80151,166],[-90.38165,38.80145,164],[-90.38159,38.80138,163],[-90.38155,38.80131,162],[-90.38152,38.80127,162],[-90.3815,38.80123,161],[-90.3815,38.80118,161],[-90.38148,38.80115,160],[-90.38145,38.80111,160],[-90.3814,38.80107,159],[-90.38142,38.80102,158],[-90.38148,38.80099,158],[-90.38142,38.80096,157],[-90.38139,38.80093,156],[-90.38135,38.80091,156],[-90.3813,38.80088,155],[-90.38127,38.80085,154],[-90.38124,38.80083,154],[-90.38118,38.8008,154],[-90.38112,38.80078,154],[-90.38106,38.80082,153],[-90.38101,38.80088,154],[-90.38107,38.80091,154],[-90.38106,38.80096,155],[-90.38102,38.80098,155],[-90.38097,38.80101,155],[-90.38092,38.80102,155],[-90.38087,38.80104,155],[-90.38082,38.80106,155],[-90.38078,38.80109,155],[-90.38078,38.80113,156],[-90.38082,38.80111,155],[-90.38073,38.80102,154],[-90.3808,38.80099,154],[-90.38086,38.80095,154],[-90.38092,38.80091,154],[-90.38096,38.80088,154],[-90.381,38.80085,153],[-90.38105,38.80083,153],[-90.3811,38.80082,153],[-90.38115,38.80081,154],[-90.38122,38.8008,154],[-90.3812,38.80084,154],[-90.3812,38.80087,154],[-90.38124,38.80089,155],[-90.38127,38.80092,155],[-90.38125,38.80096,156],[-90.38122,38.801,156],[-90.3812,38.80103,157],[-90.38121,38.80107,158],[-90.38125,38.80109,158],[-90.38129,38.80111,159],[-90.38132,38.80114,159],[-90.38136,38.80117,160],[-90.38138,38.80121,160],[-90.3814,38.80125,161],[-90.38143,38.80129,161],[-90.38148,38.80128,161],[-90.38152,38.80129,162],[-90.38156,38.80131,162],[-90.38159,38.80134,163],[-90.38162,38.80137,163],[-90.38166,38.80139,163],[-90.38171,38.80141,164],[-90.38175,38.80144,165],[-90.38181,38.80145,165],[-90.38186,38.80147,166],[-90.38189,38.8015,167],[-90.38192,38.80153,167],[-90.38196,38.80157,168],[-90.38199,38.8016,168],[-90.38201,38.80164,169],[-90.38203,38.80167,169],[-90.38205,38.80171,169],[-90.38203,38.80176,169],[-90.38201,38.8018,169],[-90.382,38.80184,169],[-90.38199,38.80189,169],[-90.38198,38.80194,169],[-90.38198,38.80199,169],[-90.38205,38.80203,169],[-90.3821,38.80205,169],[-90.38213,38.80209,169],[-90.38215,38.80213,169],[-90.38216,38.80217,168],[-90.38215,38.80222,168],[-90.38212,38.80226,169],[-90.38207,38.80228,169],[-90.38202,38.80229,169],[-90.38199,38.80231,169],[-90.38197,38.80234,169],[-90.38195,38.80237,169],[-90.38192,38.8024,170],[-90.38189,38.80243,170],[-90.38186,38.80246,170],[-90.38183,38.80249,170],[-90.38181,38.80253,170],[-90.3818,38.80257,170],[-90.38179,38.80261,170],[-90.38181,38.80264,170],[-90.38185,38.80267,170],[-90.38191,38.80268,171],[-90.38196,38.8027,171],[-90.38201,38.80273,171],[-90.38209,38.80272,172],[-90.38211,38.80276,172],[-90.38215,38.8028,172],[-90.3822,38.80283,173],[-90.38225,38.80286,173],[-90.3823,38.80289,173],[-90.38235,38.8029,173],[-90.38239,38.80292,174],[-90.38242,38.80296,174],[-90.38246,38.803,175],[-90.38248,38.80303,175],[-90.3825,38.80307,175],[-90.38252,38.80311,175],[-90.38256,38.80314,175],[-90.3826,38.80316,175],[-90.38264,38.80318,175],[-90.38267,38.80321,176],[-90.38271,38.80324,176],[-90.38274,38.80327,176],[-90.38279,38.80329,176],[-90.38284,38.80331,176],[-90.38289,38.80333,176],[-90.38293,38.80335,176],[-90.38298,38.80336,176],[-90.38303,38.80338,176],[-90.38309,38.80339,175],[-90.38314,38.80338,175],[-90.38318,38.80336,174],[-90.38322,38.80334,174],[-90.38326,38.80331,173],[-90.38329,38.80328,173],[-90.38334,38.80325,173],[-90.3834,38.80323,173],[-90.38345,38.80321,173],[-90.38351,38.8032,173],[-90.38365,38.80319,172],[-90.3837,38.80319,172],[-90.38374,38.80316,172],[-90.38374,38.80313,173],[-90.38372,38.80309,173],[-90.38375,38.80306,173],[-90.38381,38.80304,173],[-90.38388,38.80303,173],[-90.38395,38.80301,173],[-90.38402,38.80301,172],[-90.38408,38.80298,172],[-90.38413,38.80293,173],[-90.38419,38.8029,173],[-90.38425,38.80287,173],[-90.3843,38.80285,173],[-90.38435,38.80284,173],[-90.3844,38.80284,173],[-90.38445,38.80282,173],[-90.38451,38.80279,174],[-90.38457,38.80277,174],[-90.38463,38.80275,174],[-90.3847,38.80274,174],[-90.38476,38.80274,174],[-90.38482,38.80274,174],[-90.38488,38.80274,174],[-90.38493,38.80275,174],[-90.38498,38.80277,174],[-90.38502,38.8028,173],[-90.38507,38.80281,173],[-90.38514,38.80282,172],[-90.38519,38.80282,172],[-90.38524,38.80283,171],[-90.3853,38.80283,171],[-90.38535,38.80281,170],[-90.38541,38.80282,169],[-90.38547,38.80284,168],[-90.38551,38.80281,168],[-90.38554,38.80277,168],[-90.38559,38.80275,168],[-90.38565,38.80273,168],[-90.38568,38.80277,168],[-90.38567,38.80281,167],[-90.38574,38.8028,167],[-90.3858,38.80278,167],[-90.38585,38.80277,168],[-90.3859,38.80275,168],[-90.38597,38.80272,168],[-90.38603,38.8027,168],[-90.3861,38.80269,168],[-90.38615,38.80269,167],[-90.3862,38.8027,166],[-90.38626,38.8027,165],[-90.38632,38.8027,164],[-90.38637,38.8027,163],[-90.38643,38.80268,162],[-90.38647,38.80267,161],[-90.38653,38.80267,160],[-90.38658,38.80266,159],[-90.38664,38.80266,158],[-90.3867,38.80266,157],[-90.38676,38.80268,156],[-90.38676,38.80274,156],[-90.38677,38.80279,155],[-90.38677,38.80285,155],[-90.38678,38.8029,155],[-90.38679,38.80295,155],[-90.3868,38.803,155],[-90.38683,38.80304,155],[-90.3868,38.8031,156],[-90.38676,38.80315,156],[-90.38683,38.80322,157],[-90.38692,38.8032,157],[-90.38699,38.80318,157],[-90.38694,38.80321,157],[-90.38696,38.80325,158],[-90.38698,38.80328,159],[-90.387,38.80331,159],[-90.38703,38.80334,159],[-90.38703,38.80338,159],[-90.38703,38.80342,159],[-90.38704,38.80347,159],[-90.38707,38.80351,159],[-90.3871,38.80354,159],[-90.38712,38.80359,159],[-90.38713,38.80364,158],[-90.38712,38.80368,157],[-90.38711,38.80373,156],[-90.38709,38.80377,155],[-90.38707,38.80382,154],[-90.38704,38.80389,153],[-90.38703,38.80396,154],[-90.38703,38.80401,154],[-90.38703,38.80406,154],[-90.38704,38.8041,154],[-90.38706,38.80415,154],[-90.38707,38.8042,154],[-90.3871,38.80424,153],[-90.38714,38.80427,152],[-90.38718,38.8043,151],[-90.38722,38.80433,150],[-90.38728,38.80435,149],[-90.38735,38.80437,148],[-90.38742,38.80438,147],[-90.38757,38.80437,145],[-90.38764,38.80437,144],[-90.38769,38.80439,143],[-90.38773,38.80442,142],[-90.38775,38.80445,142],[-90.38778,38.80451,142],[-90.3878,38.80456,142],[-90.38781,38.80461,142],[-90.38781,38.80466,142],[-90.38781,38.80471,142],[-90.38778,38.80476,143],[-90.38776,38.80481,143],[-90.38776,38.80485,144],[-90.38774,38.80489,144],[-90.38774,38.80493,144],[-90.38776,38.80497,145],[-90.38777,38.805,145],[-90.38778,38.80504,144],[-90.38779,38.80508,144],[-90.38782,38.80512,144],[-90.38782,38.80517,144],[-90.38785,38.80523,143],[-90.38788,38.80532,142],[-90.38782,38.80539,143],[-90.38781,38.80544,143],[-90.38781,38.80548,142],[-90.38781,38.80553,142],[-90.38781,38.80557,142],[-90.38782,38.80561,143],[-90.38788,38.80576,145],[-90.3879,38.80581,145],[-90.38791,38.80585,145],[-90.38792,38.80589,145],[-90.38793,38.80593,145],[-90.38794,38.80597,145],[-90.38795,38.80602,144],[-90.38796,38.80612,144],[-90.38798,38.80615,144],[-90.388,38.80619,143],[-90.38801,38.80623,143],[-90.38803,38.8063,142],[-90.38807,38.80638,141],[-90.38808,38.80641,141],[-90.38809,38.80644,141],[-90.3881,38.80649,140],[-90.3881,38.80653,140],[-90.3881,38.80657,140],[-90.3881,38.8066,140],[-90.38811,38.80665,139],[-90.38811,38.80668,139],[-90.38811,38.80673,140],[-90.38811,38.80678,140],[-90.38812,38.80683,140],[-90.38812,38.80688,141],[-90.38813,38.80691,141],[-90.38813,38.80696,141],[-90.38814,38.807,141],[-90.38814,38.80704,142],[-90.38814,38.80708,142],[-90.38814,38.80712,143],[-90.38814,38.80716,143],[-90.38814,38.80721,144],[-90.38814,38.80725,144],[-90.38817,38.80729,144],[-90.3882,38.80733,144],[-90.38823,38.80737,143],[-90.38824,38.80741,143],[-90.38825,38.80745,143],[-90.38826,38.8075,143],[-90.38826,38.80754,143],[-90.38827,38.80758,143],[-90.38828,38.80762,143],[-90.38829,38.80765,143],[-90.3883,38.80771,144],[-90.3883,38.80774,144],[-90.38832,38.80779,144],[-90.38835,38.80786,143],[-90.38837,38.80798,142],[-90.38838,38.80803,142],[-90.38838,38.80807,142],[-90.38838,38.80811,142],[-90.38838,38.80815,143],[-90.3884,38.80819,143],[-90.38841,38.80822,143],[-90.38844,38.80826,143],[-90.38846,38.8083,143],[-90.38842,38.8084,144],[-90.38841,38.80845,144],[-90.3884,38.80849,145],[-90.38841,38.80853,144],[-90.38844,38.80856,144],[-90.38847,38.80862,143],[-90.38847,38.80867,143],[-90.38846,38.80871,144],[-90.38845,38.80877,144],[-90.38845,38.80881,144],[-90.38845,38.80885,143],[-90.38845,38.80889,143],[-90.3885,38.80897,143],[-90.38851,38.80901,143],[-90.38853,38.80904,143],[-90.38854,38.80907,142],[-90.38856,38.80912,142],[-90.38857,38.80915,142],[-90.38857,38.80919,143],[-90.38858,38.80922,143],[-90.38857,38.80927,144],[-90.38857,38.80931,145],[-90.38858,38.80935,145],[-90.38859,38.80939,146],[-90.38859,38.80943,147],[-90.3886,38.80947,147],[-90.38862,38.80951,148],[-90.38865,38.80956,148],[-90.38868,38.80959,149],[-90.38871,38.80962,149],[-90.38874,38.80966,149],[-90.38877,38.80969,149],[-90.3888,38.80972,148],[-90.38884,38.80976,148],[-90.38888,38.80978,147],[-90.38893,38.8098,147],[-90.38896,38.80984,147],[-90.38899,38.80987,146],[-90.38901,38.80991,146],[-90.38902,38.80995,146],[-90.38903,38.80999,146],[-90.38905,38.81004,146],[-90.38907,38.81009,145],[-90.3891,38.81013,145],[-90.38912,38.81017,144],[-90.38915,38.81022,143],[-90.38918,38.81026,143],[-90.38913,38.81025,144],[-90.38912,38.81036,144],[-90.38913,38.8104,144],[-90.38916,38.81043,144],[-90.3892,38.81045,144],[-90.38922,38.81049,144],[-90.38926,38.81053,144],[-90.38931,38.81055,143],[-90.38935,38.81057,143],[-90.3894,38.8106,144],[-90.38945,38.81062,144],[-90.38951,38.81062,144],[-90.38957,38.81064,144],[-90.38963,38.81065,144],[-90.38968,38.81067,144],[-90.38973,38.81068,144],[-90.38978,38.8107,144],[-90.38984,38.81071,143],[-90.3899,38.81072,143],[-90.38996,38.81071,142],[-90.39001,38.81071,142],[-90.39007,38.8107,141],[-90.39012,38.81071,141],[-90.39018,38.81072,141],[-90.39024,38.81073,141],[-90.39028,38.81074,140],[-90.39034,38.81076,140],[-90.3904,38.81077,140],[-90.39045,38.81077,140],[-90.3905,38.81079,140],[-90.39055,38.81081,139],[-90.39059,38.81083,139],[-90.39065,38.81085,139],[-90.3907,38.81085,139],[-90.39076,38.81084,138],[-90.39082,38.81088,138],[-90.39086,38.81093,138],[-90.39087,38.81099,139],[-90.39088,38.81103,139],[-90.39088,38.81107,140],[-90.39088,38.81112,140],[-90.39088,38.81116,140],[-90.39087,38.8112,141],[-90.39086,38.81124,141],[-90.39086,38.81128,141],[-90.39087,38.81131,142],[-90.39088,38.81136,142],[-90.3909,38.8114,142],[-90.39093,38.81143,142],[-90.39097,38.81146,143],[-90.39101,38.81149,143],[-90.39104,38.81153,143],[-90.39106,38.81157,143],[-90.39107,38.81161,144],[-90.39106,38.81165,145],[-90.39106,38.81168,145],[-90.39103,38.81173,146],[-90.39098,38.81176,147],[-90.39092,38.81178,147],[-90.39092,38.81185,148],[-90.39093,38.81196,150],[-90.39089,38.81202,149],[-90.39087,38.81206,149],[-90.39084,38.81211,149],[-90.39083,38.81214,149],[-90.39082,38.81219,149],[-90.39081,38.81224,149],[-90.39081,38.81229,148],[-90.39082,38.81233,147],[-90.39083,38.81237,146],[-90.39084,38.81241,145],[-90.39086,38.81245,144],[-90.39089,38.81249,143],[-90.39092,38.81252,143],[-90.39095,38.81255,143],[-90.39097,38.81258,144],[-90.39099,38.81263,145],[-90.39101,38.81268,146],[-90.39102,38.81273,147],[-90.39102,38.81277,148],[-90.39102,38.81282,149],[-90.39104,38.81286,149],[-90.39103,38.8129,151],[-90.39107,38.81294,151],[-90.39112,38.81297,151],[-90.39117,38.81301,152],[-90.39119,38.81304,152],[-90.39124,38.81308,152],[-90.39127,38.81311,151],[-90.39131,38.81314,151],[-90.39134,38.81318,151],[-90.39134,38.81323,151],[-90.39131,38.81328,151],[-90.39131,38.81332,152],[-90.39132,38.81337,151],[-90.39136,38.8134,151],[-90.39141,38.81343,150],[-90.39146,38.81346,149],[-90.39149,38.81349,148],[-90.39153,38.81353,147],[-90.39156,38.81356,146],[-90.39159,38.8136,145],[-90.39162,38.81363,144],[-90.39164,38.81368,144],[-90.39166,38.81372,145],[-90.39168,38.81375,145],[-90.39172,38.81378,144],[-90.39177,38.81381,143],[-90.39181,38.81383,142],[-90.39186,38.81384,141],[-90.3919,38.81385,139],[-90.39195,38.81386,138],[-90.39198,38.8139,137],[-90.39202,38.81394,139],[-90.39207,38.81398,140],[-90.39209,38.81402,142],[-90.39215,38.81404,143],[-90.39221,38.81403,142],[-90.39227,38.81401,141],[-90.39233,38.81397,139],[-90.39238,38.81394,138],[-90.39242,38.81391,137],[-90.39246,38.81388,137],[-90.39249,38.81384,137],[-90.39252,38.81381,138],[-90.39254,38.81378,138],[-90.39257,38.81374,138],[-90.3926,38.81369,138],[-90.39263,38.81366,138],[-90.39266,38.81362,138],[-90.39269,38.81358,138],[-90.39271,38.81354,137],[-90.39273,38.81349,136],[-90.39276,38.81345,136],[-90.39279,38.81342,135],[-90.3928,38.81337,135],[-90.39282,38.81333,134],[-90.39285,38.81329,134],[-90.39288,38.81325,134],[-90.39291,38.81322,133],[-90.39296,38.81318,133],[-90.393,38.81315,133],[-90.39305,38.81313,133],[-90.39311,38.81311,132],[-90.39317,38.81309,132],[-90.39321,38.81306,132],[-90.39326,38.81304,133],[-90.3933,38.81302,133],[-90.39335,38.81298,133],[-90.39339,38.81294,133],[-90.39344,38.8129,133],[-90.39349,38.81287,133],[-90.39354,38.81284,133],[-90.3936,38.81281,133],[-90.39364,38.81278,133],[-90.39369,38.81274,134],[-90.39375,38.8127,134],[-90.3938,38.81266,135],[-90.39384,38.81262,135],[-90.39389,38.81258,136],[-90.39395,38.81253,136],[-90.39401,38.8125,137],[-90.39407,38.81247,137],[-90.39411,38.81243,137],[-90.39416,38.8124,137],[-90.3942,38.81237,137],[-90.39424,38.81234,137],[-90.39429,38.81231,137],[-90.39432,38.81227,137],[-90.39435,38.81223,137],[-90.39438,38.8122,138],[-90.39441,38.81216,138],[-90.39444,38.81212,138],[-90.3945,38.8121,137],[-90.39456,38.81208,137],[-90.39462,38.81206,137],[-90.39468,38.81204,136],[-90.39474,38.812,136],[-90.39478,38.81196,136],[-90.3948,38.81191,136],[-90.39482,38.81186,135],[-90.39486,38.81181,134],[-90.39489,38.81175,134],[-90.39495,38.81172,133],[-90.395,38.8117,133],[-90.39504,38.81167,133],[-90.39504,38.81163,132]]],
        "bbox": [
          -90.38073,
          38.8157,
          -90.39504,
          38.80078
        ]
      },
      "properties": {
        "name": "1.17.2021A"
      }
    }
  ]
}