{
  "type": "FeatureCollection",
  "features": [
    {
      "type": "Feature",
      "geometry": {
        "type": "MultiLineString",
        "coordinates": [[[-90.39079,38.81087,138],[-90.39078,38.8109,139],[-90.39079,38.81093,139],[-90.39084,38.81096,139],[-90.39087,38.81098,139],[-90.39088,38.81101,139],[-90.39087,38.81103,139],[-90.39087,38.81106,140],[-90.39087,38.8111,140],[-90.39087,38.81113,140],[-90.39086,38.81116,141],[-90.39085,38.81119,141],[-90.39082,38.81121,141],[-90.39078,38.81123,141],[-90.39074,38.81124,142],[-90.39072,38.81126,142],[-90.39068,38.81128,142],[-90.39065,38.8113,142],[-90.39061,38.81131,142],[-90.39057,38.81131,142],[-90.39054,38.8113,142],[-90.3905,38.81129,142],[-90.39047,38.81128,142],[-90.39043,38.81127,142],[-90.39039,38.81127,142],[-90.39035,38.81125,142],[-90.39032,38.81124,142],[-90.39027,38.81124,143],[-90.39023,38.81124,143],[-90.39019,38.81124,143],[-90.39015,38.81124,144],[-90.39011,38.81123,144],[-90.39007,38.81123,145],[-90.39004,38.81122,145],[-90.39,38.81121,146],[-90.38996,38.8112,146],[-90.38992,38.8112,147],[-90.38987,38.81121,148],[-90.38983,38.81122,148],[-90.38979,38.81124,149],[-90.38976,38.81125,149],[-90.38972,38.81126,150],[-90.38968,38.81125,150],[-90.38964,38.81124,150],[-90.3896,38.81124,151],[-90.38956,38.81125,151],[-90.38953,38.81126,151],[-90.3895,38.81129,151],[-90.38947,38.81131,151],[-90.38945,38.81133,151],[-90.38943,38.81136,152],[-90.38941,38.81138,152],[-90.38939,38.81141,152],[-90.38935,38.81142,152],[-90.38932,38.81143,152],[-90.38928,38.81143,152],[-90.38924,38.81146,152],[-90.38922,38.81148,152],[-90.38918,38.8115,152],[-90.38915,38.81152,152],[-90.38912,38.81153,153],[-90.38909,38.81155,153],[-90.38905,38.81157,154],[-90.38902,38.81158,155],[-90.38898,38.81158,157],[-90.38895,38.81159,157],[-90.38892,38.81161,158],[-90.38889,38.81164,159],[-90.38885,38.81165,160],[-90.38884,38.81169,160],[-90.3888,38.8117,161],[-90.38877,38.81172,161],[-90.38874,38.81174,161],[-90.38872,38.81176,162],[-90.38869,38.81178,162],[-90.38867,38.81181,162],[-90.38865,38.81184,162],[-90.38864,38.81187,162],[-90.38865,38.8119,161],[-90.38866,38.81193,161],[-90.38868,38.81196,160],[-90.38871,38.81198,160],[-90.38873,38.812,160],[-90.38875,38.81202,160],[-90.38877,38.81205,160],[-90.38881,38.81207,160],[-90.38883,38.8121,160],[-90.38884,38.81212,160],[-90.38885,38.81215,161],[-90.38885,38.81218,161],[-90.38882,38.81221,162],[-90.3888,38.81224,162],[-90.38878,38.81227,163],[-90.38876,38.8123,163],[-90.38873,38.81232,164],[-90.38871,38.81234,164],[-90.38869,38.81237,165],[-90.38868,38.8124,166],[-90.38866,38.81242,166],[-90.38865,38.81245,167],[-90.38868,38.81247,167],[-90.38869,38.8125,167],[-90.38868,38.81253,167],[-90.38866,38.81256,168],[-90.38865,38.81259,168],[-90.38864,38.81262,168],[-90.38862,38.81265,169],[-90.38859,38.81267,170],[-90.38856,38.81269,171],[-90.38853,38.81271,172],[-90.3885,38.81273,173],[-90.38847,38.81275,174],[-90.38844,38.81276,175],[-90.38841,38.81278,177],[-90.38838,38.81279,178],[-90.38834,38.8128,180],[-90.3883,38.81281,181],[-90.38826,38.81281,182],[-90.38822,38.81282,183],[-90.38819,38.81284,184],[-90.38815,38.81286,186],[-90.38811,38.81286,187],[-90.38812,38.81289,187],[-90.38812,38.81292,187],[-90.38811,38.81295,188],[-90.38811,38.81298,188],[-90.38812,38.81301,188],[-90.38812,38.81303,189],[-90.3881,38.81306,190],[-90.38809,38.81309,190],[-90.38808,38.81312,191],[-90.38805,38.81314,192],[-90.38803,38.81317,193],[-90.38801,38.81319,193],[-90.38799,38.81321,193],[-90.38797,38.81324,194],[-90.38795,38.81326,194],[-90.38791,38.81329,195],[-90.38788,38.8133,195],[-90.38784,38.81332,195],[-90.38781,38.81333,195],[-90.38777,38.81334,195],[-90.38773,38.81335,195],[-90.3877,38.81336,195],[-90.38765,38.81336,195],[-90.38762,38.81338,195],[-90.38762,38.81341,195],[-90.38764,38.81344,195],[-90.38763,38.81347,195],[-90.38762,38.8135,196],[-90.3876,38.81354,196],[-90.38759,38.81356,196],[-90.38759,38.81359,196],[-90.38758,38.81363,196],[-90.38757,38.81366,197],[-90.38756,38.81368,197],[-90.38755,38.81371,197],[-90.38754,38.81374,198],[-90.38754,38.81376,198],[-90.38753,38.8138,198],[-90.38753,38.81383,199],[-90.38755,38.81385,199],[-90.38758,38.81387,199],[-90.38762,38.81389,199],[-90.38765,38.81392,200],[-90.38768,38.81394,200],[-90.38772,38.81395,200],[-90.38775,38.81396,200],[-90.3878,38.81396,199],[-90.38784,38.81395,199],[-90.38787,38.81395,199],[-90.38792,38.81394,199],[-90.38795,38.81393,199],[-90.38799,38.81393,199],[-90.38804,38.81393,199],[-90.38808,38.81393,199],[-90.38812,38.81393,198],[-90.38817,38.81393,198],[-90.38821,38.81394,198],[-90.38824,38.81396,198],[-90.38828,38.81398,198],[-90.38833,38.814,198],[-90.38838,38.81401,197],[-90.38842,38.81402,197],[-90.38846,38.81403,197],[-90.38849,38.81405,197],[-90.38853,38.81406,196],[-90.38857,38.81407,196],[-90.38861,38.81409,196],[-90.38866,38.8141,195],[-90.3887,38.81411,195],[-90.38874,38.81412,194],[-90.38877,38.81413,194],[-90.38881,38.81415,194],[-90.38884,38.81416,193],[-90.38888,38.81418,193],[-90.38891,38.8142,192],[-90.38895,38.81421,192],[-90.389,38.81421,192],[-90.38904,38.81421,192],[-90.38909,38.81422,192],[-90.38913,38.81422,192],[-90.38917,38.81423,192],[-90.38921,38.81424,192],[-90.38924,38.81425,191],[-90.38928,38.81427,191],[-90.38932,38.8143,190],[-90.38936,38.81432,190],[-90.3894,38.81433,189],[-90.38944,38.81435,189],[-90.38947,38.81437,189],[-90.3895,38.8144,189],[-90.38952,38.81442,189],[-90.38954,38.81445,189],[-90.38954,38.81449,189],[-90.38953,38.81452,190],[-90.38952,38.81455,190],[-90.38952,38.81458,190],[-90.38953,38.81461,190],[-90.38953,38.81464,190],[-90.38952,38.81468,191],[-90.38952,38.81471,191],[-90.38953,38.81474,191],[-90.38954,38.81477,190],[-90.38955,38.8148,190],[-90.38956,38.81484,190],[-90.38958,38.81487,189],[-90.3896,38.81491,189],[-90.38961,38.81493,189],[-90.38963,38.81496,189],[-90.38966,38.81499,188],[-90.38969,38.81502,188],[-90.38972,38.81505,187],[-90.38974,38.81508,187],[-90.38978,38.8151,186],[-90.3898,38.81513,186],[-90.38983,38.81515,185],[-90.38986,38.81516,185],[-90.38989,38.81519,184],[-90.38992,38.81521,183],[-90.38995,38.81523,183],[-90.38999,38.81525,182],[-90.39003,38.81527,182],[-90.39004,38.8153,181],[-90.39007,38.81532,181],[-90.3901,38.81534,180],[-90.39014,38.81535,180],[-90.39018,38.81537,180],[-90.39022,38.81538,180],[-90.39026,38.81539,180],[-90.39029,38.81541,180],[-90.39032,38.81542,180],[-90.39036,38.81543,180],[-90.39039,38.81545,180],[-90.39043,38.81546,181],[-90.39047,38.81546,181],[-90.39051,38.81546,182],[-90.39055,38.81547,182],[-90.39058,38.81548,182],[-90.39063,38.81549,183],[-90.39067,38.81549,183],[-90.39072,38.8155,184],[-90.39076,38.81551,184],[-90.39081,38.81551,185],[-90.39085,38.8155,185],[-90.39088,38.81549,185],[-90.39092,38.81548,185],[-90.39095,38.81546,185],[-90.39098,38.81544,186],[-90.39102,38.81543,186],[-90.39107,38.81542,186],[-90.3911,38.81542,186],[-90.39115,38.81542,186],[-90.39119,38.81543,186],[-90.39123,38.81543,186],[-90.39127,38.81544,185],[-90.39132,38.81545,185],[-90.39135,38.81546,185],[-90.39139,38.81547,185],[-90.39143,38.81549,184],[-90.39147,38.8155,184],[-90.39151,38.81552,184],[-90.39153,38.81554,183],[-90.39156,38.81556,183],[-90.39159,38.81558,183],[-90.39163,38.8156,182],[-90.39166,38.81562,182],[-90.39168,38.81564,181],[-90.39171,38.81566,180],[-90.39175,38.81568,179],[-90.39179,38.81567,178],[-90.39183,38.81567,178],[-90.39187,38.81568,177],[-90.3919,38.81569,176],[-90.39193,38.81567,175],[-90.39193,38.81564,176],[-90.39193,38.81561,177],[-90.39194,38.81559,177],[-90.39195,38.81555,177],[-90.39195,38.81552,177],[-90.39195,38.81548,177],[-90.39194,38.81546,177],[-90.39193,38.81543,177],[-90.39192,38.8154,177],[-90.39191,38.81537,177],[-90.3919,38.81533,177],[-90.39191,38.8153,176],[-90.39191,38.81526,176],[-90.39191,38.81523,175],[-90.39191,38.81519,173],[-90.39192,38.81517,172],[-90.39192,38.81513,171],[-90.39193,38.8151,170],[-90.39192,38.81507,169],[-90.39191,38.81504,168],[-90.39189,38.81501,168],[-90.39188,38.81498,168],[-90.39188,38.81495,167],[-90.39189,38.81492,166],[-90.39189,38.81489,166],[-90.39189,38.81487,166],[-90.39189,38.81483,165],[-90.39188,38.81481,166],[-90.39187,38.81478,165],[-90.39186,38.81475,165],[-90.39187,38.81471,164],[-90.39186,38.81468,164],[-90.39185,38.81465,164],[-90.39182,38.81463,165],[-90.3918,38.8146,165],[-90.39179,38.81457,165],[-90.39179,38.81454,164],[-90.39177,38.81451,164],[-90.39176,38.81448,164],[-90.39177,38.81444,163],[-90.39178,38.81442,163],[-90.39178,38.81439,162],[-90.39177,38.81436,161],[-90.39177,38.81433,160],[-90.39177,38.8143,160],[-90.39177,38.81427,159],[-90.39177,38.81425,158],[-90.39178,38.81422,157],[-90.39181,38.8142,156],[-90.39185,38.8142,155],[-90.39184,38.81417,154],[-90.39185,38.81414,153],[-90.39188,38.81413,151],[-90.39192,38.81412,150],[-90.39196,38.8141,148],[-90.39199,38.8141,148],[-90.39203,38.8141,147],[-90.39207,38.81409,147],[-90.39211,38.81408,146],[-90.39214,38.81407,145],[-90.39218,38.81406,144],[-90.39217,38.81409,146],[-90.39214,38.81411,147],[-90.39211,38.81413,149],[-90.39208,38.81415,150],[-90.39205,38.81416,151],[-90.39201,38.81417,151],[-90.39197,38.81418,152],[-90.39194,38.81419,152],[-90.39192,38.81422,153],[-90.39189,38.81423,155],[-90.39186,38.81425,156],[-90.39186,38.81428,157],[-90.39186,38.81431,157],[-90.39188,38.81433,158],[-90.39189,38.81436,158],[-90.39189,38.8144,159],[-90.39188,38.81443,160],[-90.39188,38.81446,161],[-90.3919,38.81449,160],[-90.39191,38.81452,161],[-90.39193,38.81455,160],[-90.39195,38.81457,160],[-90.39196,38.8146,161],[-90.39198,38.81463,161],[-90.39199,38.81466,161],[-90.392,38.81469,161],[-90.392,38.81473,162],[-90.39201,38.81476,162],[-90.39201,38.81479,162],[-90.39201,38.81483,162],[-90.39201,38.81487,163],[-90.39199,38.81489,163],[-90.39198,38.81492,164],[-90.39199,38.81496,164],[-90.39201,38.81499,164],[-90.39203,38.81501,164],[-90.39205,38.81504,164],[-90.39206,38.81507,165],[-90.39206,38.8151,166],[-90.39205,38.81513,167],[-90.39205,38.81516,168],[-90.39204,38.81519,170],[-90.39203,38.81522,171],[-90.39202,38.81525,172],[-90.39202,38.81528,173],[-90.39202,38.81532,173],[-90.39204,38.81535,173],[-90.39205,38.81538,173],[-90.39206,38.81542,172],[-90.39205,38.81545,173],[-90.39204,38.81548,173],[-90.39204,38.81552,173],[-90.39203,38.81555,174],[-90.39203,38.81558,173],[-90.392,38.81561,174],[-90.392,38.81564,173],[-90.39199,38.81567,173],[-90.39197,38.8157,173],[-90.39193,38.81571,175],[-90.39189,38.81572,175],[-90.39186,38.81573,176],[-90.39182,38.81574,177],[-90.39178,38.81575,178],[-90.39176,38.81578,178],[-90.39179,38.81581,176],[-90.3918,38.81583,176],[-90.3918,38.81586,175],[-90.39181,38.8159,174],[-90.39181,38.81593,173],[-90.3918,38.81596,173],[-90.39179,38.816,172],[-90.39179,38.81603,172],[-90.39178,38.81606,171],[-90.39177,38.81609,171],[-90.39175,38.81612,171],[-90.39174,38.81615,170],[-90.39173,38.81619,169],[-90.39173,38.81622,168],[-90.39172,38.81625,167],[-90.3917,38.81628,166],[-90.39169,38.8163,166],[-90.39169,38.81634,164],[-90.39167,38.81637,164],[-90.39164,38.81639,164],[-90.39162,38.81642,164],[-90.3916,38.81645,163],[-90.39159,38.81647,163],[-90.39157,38.8165,163],[-90.39155,38.81652,162],[-90.39153,38.81655,162],[-90.39151,38.81658,162],[-90.3915,38.81661,161],[-90.39148,38.81663,161],[-90.39145,38.81665,161],[-90.39141,38.81666,161],[-90.39139,38.81668,161],[-90.39136,38.81671,161],[-90.39134,38.81674,160],[-90.39132,38.81676,160],[-90.3913,38.81679,159],[-90.39127,38.81681,159],[-90.39124,38.81683,159],[-90.39121,38.81685,159],[-90.39118,38.81686,159],[-90.39115,38.81687,159],[-90.39111,38.81687,160],[-90.39108,38.81686,160],[-90.39105,38.81684,161],[-90.39101,38.81684,162],[-90.39098,38.81683,162],[-90.39095,38.81682,163],[-90.39092,38.8168,163],[-90.39088,38.8168,164],[-90.39087,38.81682,163],[-90.39085,38.81684,163],[-90.39082,38.81686,163],[-90.39078,38.81687,163],[-90.39075,38.81689,163],[-90.39072,38.8169,163],[-90.39069,38.81688,164],[-90.39065,38.81688,164],[-90.39062,38.8169,164],[-90.39058,38.81692,165],[-90.39054,38.81693,165],[-90.39051,38.81694,165],[-90.39052,38.81697,164],[-90.39054,38.817,163],[-90.39056,38.81703,162],[-90.39058,38.81705,161],[-90.39058,38.81709,159],[-90.39058,38.81711,159],[-90.39056,38.81714,158],[-90.39053,38.81716,158],[-90.39055,38.81719,157],[-90.39057,38.81721,156],[-90.39059,38.81724,154],[-90.39059,38.81727,153],[-90.39056,38.81728,153],[-90.39053,38.8173,153],[-90.39057,38.81731,152],[-90.3906,38.81733,151],[-90.39062,38.81735,150],[-90.39063,38.81738,149],[-90.39066,38.81741,147],[-90.39068,38.81743,146],[-90.39071,38.81745,145],[-90.39071,38.81748,144],[-90.39068,38.8175,144],[-90.39064,38.81751,144],[-90.3906,38.81751,145],[-90.39057,38.8175,145],[-90.39055,38.81747,147],[-90.39052,38.81745,148],[-90.39051,38.81742,149],[-90.3905,38.81739,150],[-90.39048,38.81736,151],[-90.39047,38.81734,152],[-90.39046,38.8173,153],[-90.39046,38.81727,154],[-90.39045,38.81724,155],[-90.39045,38.81721,156],[-90.39044,38.81718,157],[-90.39044,38.81715,158],[-90.39046,38.81712,159],[-90.39047,38.81709,160],[-90.39046,38.81706,161],[-90.39045,38.81702,163],[-90.39044,38.81699,164],[-90.39045,38.81696,165],[-90.39049,38.81694,165],[-90.39051,38.81691,165],[-90.39053,38.81689,165],[-90.39056,38.81687,165],[-90.3906,38.81685,165],[-90.39062,38.81682,165],[-90.39066,38.81681,165],[-90.39069,38.81682,165],[-90.39073,38.81681,165],[-90.39076,38.8168,165],[-90.39078,38.81678,165],[-90.3908,38.81675,165],[-90.39081,38.81672,166],[-90.39084,38.8167,166],[-90.39089,38.8167,166],[-90.39093,38.81672,165],[-90.39097,38.81672,165],[-90.39101,38.81673,164],[-90.39105,38.81673,164],[-90.39107,38.81675,163],[-90.3911,38.81677,163],[-90.39113,38.8168,161],[-90.39117,38.8168,161],[-90.3912,38.81678,161],[-90.39123,38.81677,161],[-90.39124,38.81674,161],[-90.39127,38.81672,162],[-90.39129,38.81669,162],[-90.39131,38.81667,163],[-90.39134,38.81665,163],[-90.39138,38.81664,163],[-90.39142,38.81662,162],[-90.39143,38.81659,163],[-90.39145,38.81656,164],[-90.39147,38.81654,164],[-90.39149,38.81652,164],[-90.39151,38.81649,164],[-90.39153,38.81646,165],[-90.39156,38.81643,165],[-90.39158,38.8164,165],[-90.39161,38.81637,166],[-90.39163,38.81634,166],[-90.39164,38.8163,167],[-90.39164,38.81627,168],[-90.39165,38.81623,169],[-90.39166,38.8162,170],[-90.39166,38.81617,171],[-90.39167,38.81614,172],[-90.39168,38.81611,173],[-90.39169,38.81608,173],[-90.39169,38.81605,174],[-90.39169,38.81602,175],[-90.3917,38.81599,175],[-90.3917,38.81595,176],[-90.3917,38.81592,177],[-90.39171,38.81589,177],[-90.39171,38.81585,178],[-90.3917,38.81582,179],[-90.3917,38.81579,179],[-90.39169,38.81576,180],[-90.39171,38.81574,179],[-90.39174,38.81571,179],[-90.39178,38.81569,178],[-90.39182,38.81569,177],[-90.39186,38.81569,177],[-90.39189,38.81569,176],[-90.39191,38.81566,176],[-90.39191,38.81563,177],[-90.39192,38.8156,177],[-90.39193,38.81558,177],[-90.39194,38.81554,178],[-90.39195,38.81551,177],[-90.39194,38.81548,177],[-90.39194,38.81546,177],[-90.39193,38.81543,177],[-90.39193,38.8154,177],[-90.39192,38.81537,177],[-90.39191,38.81534,177],[-90.39191,38.81531,176],[-90.39192,38.81527,176],[-90.39192,38.81524,174],[-90.39193,38.8152,173],[-90.39193,38.81516,172],[-90.39194,38.81513,170],[-90.39194,38.81511,170],[-90.39194,38.81508,169],[-90.39192,38.81505,168],[-90.39191,38.81502,168],[-90.39189,38.81499,167],[-90.39188,38.81496,167],[-90.39188,38.81493,167],[-90.39188,38.81489,167],[-90.39189,38.81486,166],[-90.39188,38.81483,166],[-90.39187,38.8148,166],[-90.39186,38.81477,166],[-90.39186,38.81474,165],[-90.39186,38.81471,165],[-90.39186,38.81468,164],[-90.39185,38.81465,164],[-90.39183,38.81462,164],[-90.39181,38.81459,165],[-90.39179,38.81456,165],[-90.39178,38.81452,164],[-90.39177,38.81449,164],[-90.39176,38.81446,164],[-90.39176,38.81443,163],[-90.39176,38.8144,163],[-90.39176,38.81437,162],[-90.39175,38.81435,162],[-90.39175,38.81432,161],[-90.39175,38.81429,160],[-90.39175,38.81426,159],[-90.39176,38.81423,158],[-90.39179,38.81422,157],[-90.39182,38.8142,155],[-90.39185,38.81418,154],[-90.39185,38.81415,153],[-90.39186,38.81412,151],[-90.3919,38.81411,150],[-90.39193,38.8141,148],[-90.39197,38.81409,147],[-90.392,38.81409,147],[-90.39204,38.81409,147],[-90.39208,38.81408,146],[-90.39211,38.81408,146],[-90.39215,38.81407,145],[-90.39215,38.81404,143],[-90.39212,38.81403,143],[-90.39208,38.81402,142],[-90.39204,38.81402,143],[-90.392,38.814,142],[-90.39197,38.81397,141],[-90.39195,38.81395,140],[-90.39191,38.81393,141],[-90.39188,38.81392,141],[-90.39185,38.8139,141],[-90.39182,38.81387,142],[-90.39179,38.81385,143],[-90.39176,38.81384,144],[-90.39173,38.81382,144],[-90.3917,38.81379,145],[-90.39168,38.81377,145],[-90.39166,38.81374,145],[-90.39164,38.81372,145],[-90.39161,38.81369,145],[-90.3916,38.81366,145],[-90.39158,38.81363,145],[-90.39157,38.81359,145],[-90.39156,38.81356,146],[-90.39155,38.81353,146],[-90.39155,38.8135,147],[-90.39154,38.81347,147],[-90.39152,38.81344,148],[-90.3915,38.81342,148],[-90.39146,38.8134,149],[-90.39143,38.81339,150],[-90.39139,38.81338,150],[-90.39136,38.81336,151],[-90.39134,38.81333,151],[-90.39132,38.81329,151],[-90.3913,38.81326,152],[-90.39127,38.81324,152],[-90.39123,38.81323,152],[-90.3912,38.8132,153],[-90.39118,38.81317,153],[-90.39117,38.81314,153],[-90.39116,38.81312,153],[-90.39114,38.81308,153],[-90.39112,38.81306,153],[-90.39111,38.81303,153],[-90.39109,38.813,152],[-90.39107,38.81298,152],[-90.39105,38.81296,152],[-90.39104,38.81293,151],[-90.39103,38.8129,151],[-90.39101,38.81287,150],[-90.391,38.81284,149],[-90.39098,38.81282,149],[-90.39098,38.81278,148],[-90.39097,38.81275,148],[-90.39096,38.81272,147],[-90.39097,38.8127,147],[-90.39096,38.81266,146],[-90.39095,38.81263,145],[-90.39093,38.8126,145],[-90.39093,38.81256,144],[-90.39092,38.81253,143],[-90.39092,38.8125,143],[-90.39092,38.81247,143],[-90.39091,38.81244,144],[-90.3909,38.81241,145],[-90.39088,38.81239,146],[-90.39087,38.81236,146],[-90.39086,38.81233,147],[-90.39083,38.8123,148],[-90.39081,38.81227,148],[-90.39081,38.81224,149],[-90.39081,38.81221,149],[-90.39082,38.81217,149],[-90.39082,38.81214,149],[-90.39082,38.8121,149],[-90.39083,38.81207,149],[-90.39084,38.81204,149],[-90.39085,38.812,149],[-90.39085,38.81197,149],[-90.39085,38.81194,149],[-90.39085,38.81191,148],[-90.39085,38.81187,148],[-90.39085,38.81183,148],[-90.39086,38.8118,147],[-90.39086,38.81176,147],[-90.39088,38.81173,147],[-90.39089,38.8117,146],[-90.39091,38.81168,146],[-90.39094,38.81166,146],[-90.39098,38.81164,145],[-90.391,38.81161,145],[-90.39102,38.81158,144],[-90.39104,38.81155,143],[-90.39104,38.81152,143],[-90.39102,38.8115,143],[-90.39099,38.81147,143],[-90.39097,38.81144,142],[-90.39094,38.81142,142],[-90.39091,38.81139,142],[-90.39089,38.81137,142],[-90.39086,38.81134,142],[-90.39083,38.81132,142],[-90.39081,38.81129,142],[-90.3908,38.81126,142],[-90.39079,38.81123,141],[-90.39078,38.81119,141],[-90.39078,38.81116,141],[-90.39078,38.81114,141],[-90.39078,38.81111,141],[-90.39078,38.81108,140],[-90.39079,38.81105,140],[-90.3908,38.81102,140],[-90.3908,38.81099,139],[-90.39079,38.81095,139],[-90.39078,38.81092,139],[-90.39077,38.81089,139],[-90.39079,38.81086,138]]],
        "bbox": [
          -90.38753,
          38.81751,
          -90.39218,
          38.81086
        ]
      },
      "properties": {
        "name": "5.20.2022"
      }
    }
  ]
}