{
  "type": "FeatureCollection",
  "features": [
    {
      "type": "Feature",
      "geometry": {
        "type": "Point",
        "coordinates": [-90.39194,38.81567]
      },
      "properties": {
        "name": "7.16.2020B",
        "ele": "175.0"
      }
    },
    {
      "type": "Feature",
      "geometry": {
        "type": "Point",
        "coordinates": [-90.38985,38.81506]
      },
      "properties": {
        "name": "7.16.2020B",
        "ele": "187.0"
      }
    },
    {
      "type": "Feature",
      "geometry": {
        "type": "MultiLineString",
        "coordinates": [[[-90.39495,38.81164,133],[-90.39493,38.81167,133],[-90.39491,38.8117,133],[-90.39487,38.81172,133],[-90.3948,38.81173,134],[-90.39476,38.81173,134],[-90.39473,38.81176,134],[-90.3947,38.81179,135],[-90.39469,38.81182,135],[-90.39468,38.81185,136],[-90.39466,38.81188,136],[-90.39464,38.81191,136],[-90.39462,38.81194,137],[-90.39459,38.81197,137],[-90.39457,38.812,137],[-90.39454,38.81203,137],[-90.39452,38.81205,137],[-90.39448,38.81207,137],[-90.39446,38.81209,137],[-90.39443,38.81211,138],[-90.39439,38.81214,138],[-90.39436,38.81216,138],[-90.39434,38.81219,138],[-90.39434,38.81222,138],[-90.39431,38.81225,137],[-90.39428,38.81227,137],[-90.39425,38.81229,137],[-90.39423,38.81232,137],[-90.39419,38.81234,137],[-90.39416,38.81236,137],[-90.39412,38.81239,137],[-90.3941,38.81241,137],[-90.39407,38.81243,137],[-90.39404,38.81245,137],[-90.39401,38.81247,137],[-90.39398,38.8125,137],[-90.39395,38.81252,136],[-90.39392,38.81254,136],[-90.39389,38.81256,136],[-90.39385,38.81258,136],[-90.39382,38.8126,135],[-90.39378,38.81262,135],[-90.39375,38.81263,135],[-90.39372,38.81265,135],[-90.39369,38.81268,134],[-90.39365,38.8127,134],[-90.39362,38.81271,134],[-90.39358,38.81271,134],[-90.39353,38.81269,134],[-90.3935,38.81271,134],[-90.39348,38.81274,134],[-90.39345,38.81275,134],[-90.39342,38.81278,134],[-90.39342,38.81281,134],[-90.39343,38.81285,134],[-90.3934,38.81287,134],[-90.39336,38.81288,134],[-90.39333,38.8129,134],[-90.3933,38.81292,133],[-90.39327,38.81294,133],[-90.39323,38.81296,133],[-90.39319,38.81297,133],[-90.39316,38.81299,133],[-90.39313,38.81302,133],[-90.39311,38.81305,133],[-90.39309,38.81309,132],[-90.39306,38.81312,132],[-90.39301,38.81314,133],[-90.39298,38.81318,133],[-90.39293,38.81322,133],[-90.39289,38.81327,134],[-90.39285,38.8133,134],[-90.39278,38.81332,134],[-90.39272,38.81333,135],[-90.39266,38.81332,135],[-90.39259,38.81332,136],[-90.39254,38.81334,136],[-90.3925,38.81336,137],[-90.39247,38.8134,137],[-90.39244,38.81343,137],[-90.39242,38.81346,138],[-90.39242,38.8135,138],[-90.39243,38.81354,138],[-90.39244,38.81358,138],[-90.39245,38.81362,138],[-90.39246,38.81366,138],[-90.39246,38.81369,138],[-90.39244,38.81373,138],[-90.39245,38.81377,137],[-90.39247,38.81381,137],[-90.39245,38.81385,137],[-90.39241,38.8139,136],[-90.39234,38.81391,136],[-90.39228,38.81393,136],[-90.39224,38.81394,136],[-90.3922,38.81396,138],[-90.39221,38.81399,139],[-90.39223,38.81402,141],[-90.39224,38.81406,144],[-90.39224,38.81409,146],[-90.39229,38.81411,147],[-90.39231,38.81414,149],[-90.39233,38.81416,150],[-90.39233,38.81413,148],[-90.39236,38.81417,150],[-90.39242,38.81414,148],[-90.39248,38.81413,148],[-90.39254,38.81416,149],[-90.39255,38.8142,150],[-90.39258,38.81425,150],[-90.39262,38.81429,151],[-90.39265,38.81433,151],[-90.39269,38.81438,152],[-90.39274,38.81443,153],[-90.39277,38.81448,152],[-90.39282,38.81454,151],[-90.39287,38.81453,150],[-90.39289,38.81456,150],[-90.39291,38.81459,149],[-90.39294,38.81462,148],[-90.39292,38.81467,149],[-90.3929,38.81471,149],[-90.39289,38.81475,149],[-90.3929,38.81479,149],[-90.39293,38.81483,148],[-90.39299,38.81482,147],[-90.393,38.81478,147],[-90.39303,38.8148,147],[-90.39304,38.81485,147],[-90.39305,38.8149,147],[-90.39306,38.81495,147],[-90.3931,38.81499,147],[-90.39311,38.81505,146],[-90.39311,38.8151,145],[-90.39308,38.81515,146],[-90.39307,38.81521,146],[-90.39305,38.81526,146],[-90.393,38.81527,147],[-90.39296,38.8153,147],[-90.39291,38.81532,148],[-90.39287,38.81533,149],[-90.39283,38.81536,149],[-90.39281,38.8154,148],[-90.39277,38.81543,148],[-90.39273,38.81549,148],[-90.39271,38.81553,148],[-90.39266,38.81555,149],[-90.39261,38.81554,151],[-90.39254,38.81552,154],[-90.39248,38.8155,157],[-90.39244,38.81548,158],[-90.39238,38.81545,161],[-90.39239,38.81549,160],[-90.39243,38.81553,158],[-90.39247,38.81558,156],[-90.3925,38.8156,154],[-90.39252,38.81563,153],[-90.39255,38.81566,151],[-90.39258,38.81571,149],[-90.39257,38.81575,148],[-90.39253,38.81579,149],[-90.39254,38.81584,147],[-90.39257,38.81589,146],[-90.39257,38.81593,146],[-90.39255,38.81596,147],[-90.39256,38.81599,146],[-90.39254,38.81606,147],[-90.39247,38.81607,149],[-90.39241,38.81605,151],[-90.39234,38.81601,154],[-90.39229,38.81599,156],[-90.39223,38.81596,158],[-90.39219,38.81593,160],[-90.39215,38.8159,161],[-90.3921,38.81591,163],[-90.39207,38.81594,164],[-90.39209,38.81602,162],[-90.3921,38.81607,162],[-90.39213,38.81612,160],[-90.39214,38.81617,158],[-90.39215,38.81623,156],[-90.39215,38.81628,154],[-90.39216,38.81632,152],[-90.39217,38.81636,151],[-90.39217,38.8164,150],[-90.39216,38.81645,149],[-90.39215,38.8165,149],[-90.39212,38.81654,149],[-90.39209,38.81657,149],[-90.39204,38.81658,150],[-90.392,38.81661,150],[-90.39195,38.81664,151],[-90.39191,38.81667,151],[-90.39186,38.81669,152],[-90.39184,38.81672,152],[-90.39183,38.81676,151],[-90.39183,38.8168,150],[-90.39182,38.81683,150],[-90.3918,38.81687,149],[-90.39175,38.81689,149],[-90.39169,38.81688,149],[-90.39162,38.81686,151],[-90.39158,38.81684,152],[-90.39153,38.81682,154],[-90.39148,38.81681,155],[-90.39144,38.81682,156],[-90.39141,38.81685,155],[-90.39137,38.81686,156],[-90.39134,38.81683,157],[-90.39129,38.81683,158],[-90.39126,38.81687,157],[-90.39127,38.81691,156],[-90.39127,38.81697,153],[-90.39128,38.81702,151],[-90.39129,38.81708,148],[-90.39126,38.81712,147],[-90.39122,38.81717,146],[-90.39116,38.8172,146],[-90.39108,38.81724,146],[-90.391,38.81727,146],[-90.39096,38.81733,145],[-90.39094,38.81738,144],[-90.39089,38.81743,143],[-90.39085,38.81745,143],[-90.39079,38.81744,144],[-90.39074,38.81742,146],[-90.39068,38.81743,146],[-90.39062,38.81742,147],[-90.39055,38.81738,150],[-90.3905,38.81735,151],[-90.39043,38.81733,152],[-90.39041,38.8174,150],[-90.39042,38.81745,149],[-90.39043,38.81749,147],[-90.39042,38.81755,146],[-90.39038,38.81759,145],[-90.39031,38.81759,146],[-90.39026,38.81756,147],[-90.3902,38.81756,148],[-90.39018,38.81761,147],[-90.39016,38.81765,147],[-90.39012,38.81768,147],[-90.39006,38.8177,148],[-90.39,38.81772,148],[-90.38995,38.81773,149],[-90.3899,38.81769,150],[-90.38984,38.81768,151],[-90.38981,38.81764,152],[-90.38976,38.81759,154],[-90.3897,38.81758,155],[-90.38965,38.81759,156],[-90.38966,38.81764,154],[-90.38971,38.81768,153],[-90.38974,38.81773,151],[-90.38975,38.81779,150],[-90.38974,38.81784,149],[-90.38972,38.81788,149],[-90.38966,38.8179,149],[-90.38964,38.81794,148],[-90.3896,38.81797,148],[-90.38955,38.81798,148],[-90.38949,38.818,148],[-90.38942,38.81801,148],[-90.38935,38.81798,149],[-90.38931,38.81794,151],[-90.38926,38.81797,151],[-90.38922,38.81801,150],[-90.38915,38.81802,151],[-90.38908,38.81799,154],[-90.389,38.81797,156],[-90.38892,38.81796,158],[-90.38889,38.81792,160],[-90.38889,38.81787,162],[-90.38891,38.81791,160],[-90.38889,38.81796,159],[-90.38887,38.81801,158],[-90.38884,38.81807,157],[-90.38883,38.81811,155],[-90.38879,38.81814,155],[-90.38877,38.81819,153],[-90.38873,38.81822,153],[-90.38868,38.81824,153],[-90.38863,38.81828,152],[-90.38856,38.81829,152],[-90.38855,38.81835,149],[-90.3885,38.81836,148],[-90.38845,38.81835,149],[-90.3884,38.81837,148],[-90.38837,38.81841,146],[-90.38834,38.81846,144],[-90.3883,38.81851,142],[-90.3882,38.81849,144],[-90.38813,38.81846,145],[-90.38808,38.81846,146],[-90.38803,38.81847,146],[-90.38798,38.81845,147],[-90.38795,38.81841,149],[-90.38789,38.8184,150],[-90.38783,38.81839,151],[-90.38778,38.8184,152],[-90.38776,38.81846,150],[-90.38775,38.81854,148],[-90.38775,38.81859,146],[-90.38773,38.81864,145],[-90.3877,38.81869,145],[-90.38769,38.81873,144],[-90.38767,38.81876,144],[-90.38763,38.81877,144],[-90.38757,38.8188,143],[-90.38754,38.81882,143],[-90.38752,38.81886,142],[-90.38751,38.8189,141],[-90.38748,38.81893,140],[-90.38744,38.81896,140],[-90.38741,38.81899,139],[-90.38741,38.81904,137],[-90.3874,38.81908,135],[-90.38737,38.81912,134],[-90.38734,38.81914,133],[-90.38728,38.81915,132],[-90.38724,38.81917,132],[-90.38721,38.81919,132],[-90.38715,38.81917,132],[-90.38712,38.81914,133],[-90.38716,38.81913,133],[-90.38714,38.81909,135],[-90.38711,38.81905,137],[-90.38707,38.81901,139],[-90.38709,38.81905,137],[-90.3871,38.81908,136],[-90.38711,38.81912,134],[-90.38713,38.81916,132],[-90.38715,38.8192,132],[-90.38714,38.81924,132],[-90.3871,38.81927,132],[-90.38706,38.81929,132],[-90.38701,38.81929,132],[-90.38697,38.8193,132],[-90.38692,38.81932,132],[-90.38689,38.81932,132],[-90.38685,38.81934,132],[-90.38682,38.81936,132],[-90.38679,38.81938,132],[-90.38674,38.81941,132],[-90.38671,38.81942,132],[-90.38668,38.81944,132],[-90.38665,38.81946,131],[-90.38664,38.81948,131],[-90.38663,38.81951,131],[-90.38661,38.81954,131],[-90.38658,38.81955,131],[-90.38662,38.81955,131],[-90.38666,38.81954,131],[-90.3867,38.81953,131],[-90.38673,38.81953,131],[-90.3867,38.81954,131],[-90.38668,38.81957,131],[-90.38667,38.8196,131],[-90.38666,38.81957,131],[-90.38663,38.81956,131],[-90.38663,38.81959,131],[-90.3866,38.8196,131],[-90.38662,38.81962,131],[-90.38661,38.8196,131],[-90.3866,38.81957,131],[-90.38658,38.81955,131],[-90.38654,38.81958,131],[-90.38649,38.81952,131],[-90.38642,38.81951,131],[-90.3864,38.81954,131],[-90.38636,38.81956,131],[-90.38633,38.81958,131],[-90.38634,38.81955,131],[-90.38636,38.81953,131],[-90.3864,38.81952,131],[-90.38643,38.81954,131],[-90.38646,38.81953,131],[-90.38649,38.81952,131],[-90.38653,38.81951,131],[-90.38658,38.81951,131],[-90.38661,38.81951,131],[-90.38664,38.81952,131],[-90.38667,38.8195,131],[-90.38669,38.81948,131],[-90.38672,38.81946,131],[-90.38675,38.81945,131],[-90.38677,38.81942,132],[-90.3868,38.8194,132],[-90.38683,38.81938,132],[-90.38686,38.81937,132],[-90.3869,38.81936,132],[-90.38694,38.81934,132],[-90.38697,38.81932,132],[-90.38701,38.81934,132],[-90.38705,38.81933,132],[-90.38709,38.8193,132],[-90.38714,38.81927,132],[-90.38721,38.81927,132],[-90.38726,38.81926,132],[-90.3873,38.81923,132],[-90.38734,38.81921,132],[-90.38739,38.8192,132],[-90.38742,38.81916,132],[-90.38745,38.81912,134],[-90.38749,38.81908,135],[-90.38755,38.81904,137],[-90.38759,38.819,138],[-90.38763,38.81897,139],[-90.38768,38.81893,140],[-90.38773,38.81891,141],[-90.38776,38.81888,142],[-90.38781,38.81886,142],[-90.38784,38.81884,141],[-90.38788,38.8188,142],[-90.38791,38.81878,141],[-90.38795,38.81876,141],[-90.38799,38.81874,141],[-90.38803,38.81872,141],[-90.38806,38.81871,140],[-90.38811,38.8187,140],[-90.38815,38.81868,140],[-90.38818,38.81866,139],[-90.38822,38.81863,139],[-90.38826,38.8186,139],[-90.38828,38.81856,140],[-90.38828,38.81852,142],[-90.38832,38.8185,142],[-90.38837,38.81849,143],[-90.38841,38.81847,144],[-90.38844,38.81844,145],[-90.38848,38.81842,146],[-90.38852,38.8184,147],[-90.38855,38.81836,148],[-90.38858,38.81833,150],[-90.38862,38.8183,151],[-90.38866,38.81828,151],[-90.3887,38.81827,151],[-90.38875,38.81826,151],[-90.3888,38.81825,150],[-90.38883,38.81823,151],[-90.38887,38.8182,151],[-90.38889,38.81817,152],[-90.38892,38.81814,152],[-90.38894,38.8181,153],[-90.38895,38.81807,154],[-90.389,38.81807,153],[-90.38906,38.81807,152],[-90.38911,38.81808,150],[-90.38914,38.81805,150],[-90.3892,38.81807,149],[-90.38924,38.81804,149],[-90.3893,38.81804,149],[-90.38934,38.81806,147],[-90.3894,38.81806,147],[-90.38944,38.81805,147],[-90.38948,38.81803,147],[-90.38951,38.81801,147],[-90.38956,38.81798,148],[-90.3896,38.81797,148],[-90.38964,38.81795,148],[-90.38968,38.81791,149],[-90.38972,38.81791,149],[-90.38977,38.8179,148],[-90.38982,38.81787,148],[-90.38984,38.81784,148],[-90.38989,38.81785,147],[-90.38994,38.81786,147],[-90.38997,38.81785,147],[-90.38997,38.81782,147],[-90.38997,38.81779,148],[-90.39001,38.81778,147],[-90.39004,38.81779,147],[-90.39008,38.81781,145],[-90.39011,38.81778,146],[-90.39013,38.81775,146],[-90.39012,38.81771,146],[-90.39013,38.81768,147],[-90.39017,38.81765,147],[-90.39012,38.81764,148],[-90.39017,38.81766,147],[-90.39022,38.81767,146],[-90.39025,38.81765,146],[-90.39026,38.81761,146],[-90.39026,38.81758,147],[-90.39022,38.81758,147],[-90.39018,38.81757,148],[-90.39016,38.81753,149],[-90.39021,38.81751,149],[-90.39023,38.81749,149],[-90.39027,38.81748,149],[-90.39027,38.81744,150],[-90.39023,38.81741,152],[-90.39021,38.81738,152],[-90.39016,38.81737,153],[-90.39011,38.81735,154],[-90.39008,38.81732,155],[-90.39007,38.81728,156],[-90.39004,38.81724,157],[-90.39001,38.81721,158],[-90.38997,38.81719,159],[-90.38993,38.81721,158],[-90.38989,38.81722,159],[-90.38997,38.8172,158],[-90.39005,38.81719,158],[-90.39006,38.81724,157],[-90.39005,38.8173,156],[-90.39008,38.81736,154],[-90.39014,38.8174,152],[-90.39015,38.81744,151],[-90.39019,38.81746,151],[-90.39019,38.81749,150],[-90.39014,38.81748,151],[-90.39009,38.81745,152],[-90.39002,38.81746,152],[-90.38994,38.81746,153],[-90.38989,38.81744,155],[-90.38984,38.81744,155],[-90.38979,38.81746,156],[-90.38973,38.81747,157],[-90.38965,38.81749,158],[-90.38974,38.81752,156],[-90.3898,38.81751,155],[-90.38987,38.81752,153],[-90.38991,38.81756,152],[-90.38995,38.81753,152],[-90.39001,38.81752,151],[-90.39006,38.81755,150],[-90.39009,38.81758,149],[-90.39014,38.81756,149],[-90.39019,38.81755,148],[-90.39022,38.81757,148],[-90.39028,38.81757,147],[-90.39034,38.81757,146],[-90.3904,38.81755,146],[-90.39046,38.81754,146],[-90.39052,38.81751,146],[-90.39057,38.81749,146],[-90.39059,38.81744,147],[-90.3906,38.81738,149],[-90.39055,38.81733,152],[-90.3906,38.81726,153],[-90.39052,38.81725,155],[-90.39044,38.81728,154],[-90.39049,38.81724,155],[-90.39052,38.81719,157],[-90.39054,38.81715,158],[-90.39054,38.8171,160],[-90.39054,38.81706,161],[-90.39054,38.81702,162],[-90.39055,38.81699,163],[-90.39055,38.81695,164],[-90.39052,38.81693,165],[-90.39056,38.8169,165],[-90.39059,38.81688,165],[-90.39062,38.81684,165],[-90.39065,38.81682,165],[-90.39068,38.81681,165],[-90.39072,38.81678,165],[-90.39075,38.81676,165],[-90.39078,38.81678,165],[-90.39083,38.81678,164],[-90.39089,38.81678,164],[-90.39091,38.81675,165],[-90.39093,38.81671,165],[-90.39101,38.81676,164],[-90.39101,38.81685,161],[-90.39111,38.81685,160],[-90.3912,38.81683,159],[-90.39123,38.81677,161],[-90.39128,38.81673,161],[-90.39134,38.81671,161],[-90.39137,38.81666,162],[-90.39142,38.81663,162],[-90.39147,38.81661,162],[-90.39149,38.81658,162],[-90.3915,38.81654,163],[-90.39146,38.81652,165],[-90.39141,38.81653,165],[-90.39142,38.81657,164],[-90.39146,38.81658,163],[-90.3915,38.81657,162],[-90.39148,38.81655,163],[-90.39146,38.81652,165],[-90.39148,38.81655,163],[-90.39145,38.81653,165],[-90.39145,38.81656,164],[-90.39149,38.81655,163],[-90.39152,38.81653,163],[-90.39153,38.8165,163],[-90.39154,38.81648,164],[-90.39157,38.81646,164],[-90.39159,38.81644,164],[-90.39162,38.81642,164],[-90.39165,38.8164,164],[-90.39162,38.81636,166],[-90.39166,38.81634,165],[-90.39169,38.81632,165],[-90.39172,38.81629,165],[-90.39175,38.81627,166],[-90.39172,38.81624,167],[-90.39168,38.81623,169],[-90.3917,38.8162,169],[-90.39172,38.81618,169],[-90.39174,38.81615,170],[-90.39176,38.81613,170],[-90.39178,38.81609,171],[-90.39178,38.81606,171],[-90.39177,38.81603,172],[-90.39175,38.816,174],[-90.39178,38.81597,173],[-90.39177,38.81594,174],[-90.39174,38.81592,176],[-90.39176,38.8159,175],[-90.39176,38.81586,176],[-90.39177,38.81583,177],[-90.39178,38.8158,177],[-90.39177,38.81577,177],[-90.39177,38.81574,178],[-90.39176,38.81571,179],[-90.39175,38.81568,179],[-90.39172,38.81567,180],[-90.39172,38.81564,180],[-90.39176,38.81566,179],[-90.39179,38.81566,179],[-90.39184,38.81566,178],[-90.39188,38.81567,177],[-90.39192,38.81567,176],[-90.39195,38.81565,175],[-90.39191,38.81565,176],[-90.39186,38.81565,177],[-90.39182,38.81567,178],[-90.39177,38.81568,179],[-90.39173,38.81567,180],[-90.3917,38.81565,181],[-90.39166,38.81563,182],[-90.39162,38.81562,182],[-90.39159,38.81558,183],[-90.39155,38.81555,183],[-90.39152,38.81552,183],[-90.39149,38.81549,184],[-90.39146,38.81545,184],[-90.39144,38.81541,184]],[[-90.39065,38.8155,183],[-90.39058,38.81549,182],[-90.3905,38.81548,181],[-90.39043,38.81545,181],[-90.39038,38.81543,180],[-90.39033,38.8154,180],[-90.39026,38.8154,180],[-90.3902,38.81537,180],[-90.39015,38.81533,181],[-90.39009,38.81532,181],[-90.39002,38.8153,181],[-90.38999,38.81524,183],[-90.38996,38.8152,184]],[[-90.38983,38.81505,187],[-90.38978,38.81503,188],[-90.38976,38.81498,189],[-90.38973,38.81495,189]],[[-90.38933,38.81432,190],[-90.3893,38.8143,190],[-90.38927,38.81428,191],[-90.38924,38.81426,191],[-90.38919,38.81425,192],[-90.38915,38.81423,192],[-90.38912,38.8142,192],[-90.38908,38.81419,192],[-90.38904,38.81418,192],[-90.389,38.81418,192],[-90.38896,38.81417,192],[-90.38893,38.81415,192],[-90.38887,38.81415,193],[-90.38883,38.81412,193],[-90.38877,38.81411,194],[-90.38873,38.81409,194],[-90.38867,38.81407,195],[-90.38861,38.81406,196],[-90.38856,38.81405,196],[-90.38849,38.81405,197],[-90.38844,38.81402,197],[-90.38841,38.81399,197],[-90.38839,38.81396,197],[-90.38837,38.81393,197],[-90.38833,38.81392,198],[-90.38829,38.81391,198],[-90.38824,38.8139,198],[-90.3882,38.81388,198],[-90.38816,38.81388,198],[-90.38812,38.81388,198],[-90.38807,38.81389,198],[-90.38802,38.8139,199],[-90.38798,38.81391,199],[-90.38793,38.81391,199],[-90.38788,38.81391,199],[-90.38783,38.81391,199],[-90.38779,38.81391,199],[-90.38775,38.8139,200],[-90.38772,38.81389,199],[-90.38767,38.81388,199],[-90.38763,38.81387,199],[-90.3876,38.81387,199],[-90.38756,38.81384,199],[-90.38754,38.81382,199],[-90.38753,38.81378,198],[-90.38753,38.81375,198],[-90.38753,38.81372,197],[-90.38753,38.8137,197],[-90.38754,38.81366,196],[-90.38754,38.81363,196],[-90.38756,38.8136,196],[-90.38756,38.81357,196],[-90.38756,38.81354,195],[-90.38756,38.8135,195],[-90.38758,38.81347,195],[-90.3876,38.81345,195],[-90.38761,38.81342,195],[-90.38761,38.81338,195],[-90.38762,38.81335,194],[-90.38763,38.81331,194],[-90.38764,38.81329,194],[-90.38767,38.8133,194],[-90.38771,38.81329,195],[-90.38774,38.81327,195],[-90.38778,38.81327,195],[-90.38782,38.81327,195],[-90.38786,38.81327,195],[-90.3879,38.81325,194],[-90.38791,38.81322,194],[-90.38794,38.8132,194],[-90.38797,38.81319,193],[-90.388,38.81316,193],[-90.38802,38.81314,192],[-90.38804,38.81311,192],[-90.38806,38.81307,191],[-90.38807,38.81305,190],[-90.38808,38.81302,190],[-90.3881,38.81299,189],[-90.3881,38.81296,188],[-90.3881,38.81293,188],[-90.38811,38.81291,188],[-90.38812,38.81287,187],[-90.38812,38.81283,186],[-90.3881,38.8128,187],[-90.38813,38.81277,185],[-90.38817,38.81276,184],[-90.38821,38.81276,183],[-90.38825,38.81278,182],[-90.38828,38.81277,181],[-90.38832,38.81275,179],[-90.38835,38.81274,178],[-90.38838,38.81272,177],[-90.38842,38.8127,175],[-90.38845,38.81268,174],[-90.38849,38.81268,173],[-90.38853,38.81268,172],[-90.38857,38.81266,170],[-90.3886,38.81265,169],[-90.38861,38.81261,169],[-90.38862,38.81259,169],[-90.38865,38.81256,168],[-90.38867,38.81254,168],[-90.38868,38.81251,167],[-90.38868,38.81247,167],[-90.38868,38.81244,166],[-90.38866,38.81241,166],[-90.38865,38.81237,166],[-90.38865,38.81234,165],[-90.38867,38.81231,164],[-90.38868,38.81228,164],[-90.38872,38.81227,163],[-90.38875,38.81225,163],[-90.38878,38.81223,162],[-90.38879,38.8122,162],[-90.38881,38.81217,161],[-90.38882,38.81214,161],[-90.38882,38.81211,160],[-90.38882,38.81207,160],[-90.38882,38.81202,159],[-90.3888,38.812,159],[-90.38875,38.81201,160],[-90.38873,38.81197,160],[-90.3887,38.81195,160],[-90.38867,38.81192,161],[-90.38866,38.81188,161],[-90.38868,38.81184,161],[-90.38869,38.8118,162],[-90.38871,38.81177,162],[-90.38873,38.81174,162],[-90.38876,38.81171,161],[-90.38878,38.81169,161],[-90.38881,38.81167,161],[-90.38883,38.81164,160],[-90.38883,38.8116,160],[-90.38885,38.81158,160],[-90.38889,38.81156,159],[-90.38891,38.81154,158],[-90.38895,38.81153,157],[-90.38899,38.81152,156],[-90.38903,38.81151,155],[-90.38907,38.81151,154],[-90.38911,38.81149,153],[-90.38914,38.81147,152],[-90.38917,38.81145,152],[-90.38922,38.81143,152],[-90.38926,38.81142,152],[-90.3893,38.81142,152],[-90.38934,38.81142,152],[-90.38939,38.81141,152],[-90.38941,38.81137,152],[-90.38942,38.81134,152],[-90.38944,38.81131,152],[-90.38945,38.81127,151],[-90.38947,38.81122,151],[-90.3895,38.81119,151],[-90.38955,38.81119,151],[-90.38962,38.81119,151],[-90.38967,38.81119,150],[-90.38972,38.81119,150],[-90.38976,38.81119,150],[-90.38981,38.81118,149],[-90.38985,38.81117,148],[-90.38989,38.81116,148],[-90.38994,38.81116,147],[-90.38999,38.81117,146],[-90.39003,38.81117,146],[-90.39008,38.81117,145],[-90.39013,38.81117,144],[-90.39018,38.81117,144],[-90.39022,38.81116,143],[-90.39026,38.81115,143],[-90.39029,38.81114,142],[-90.39033,38.81114,142],[-90.39036,38.81115,142],[-90.3904,38.81115,142],[-90.39043,38.81117,142],[-90.39048,38.81119,142],[-90.39052,38.8112,142],[-90.39057,38.81121,142],[-90.39063,38.81121,142],[-90.39067,38.8112,142],[-90.39072,38.81118,141],[-90.39077,38.81118,141],[-90.39081,38.81118,141],[-90.39084,38.81116,141],[-90.39086,38.81113,140],[-90.39087,38.8111,140],[-90.39088,38.81107,140],[-90.39089,38.81102,139],[-90.39088,38.81099,139],[-90.39087,38.81094,138],[-90.39086,38.81091,138],[-90.39083,38.81088,138],[-90.39081,38.81086,138],[-90.39077,38.81084,138],[-90.39074,38.81082,138],[-90.3907,38.81081,138],[-90.39068,38.81079,139],[-90.39064,38.81077,139],[-90.3906,38.81077,139],[-90.39054,38.81076,139],[-90.39051,38.81076,139],[-90.39047,38.81076,140],[-90.39043,38.81077,140],[-90.39039,38.81077,140],[-90.39034,38.81076,140],[-90.39031,38.81076,141],[-90.39027,38.81076,141],[-90.39023,38.81076,141],[-90.3902,38.81075,141],[-90.39017,38.81074,141],[-90.39013,38.81073,141],[-90.39009,38.81073,141],[-90.39004,38.81073,142],[-90.39,38.81073,142],[-90.38996,38.81072,142],[-90.38992,38.81072,143],[-90.38989,38.8107,143],[-90.38985,38.81068,143],[-90.38981,38.81066,143],[-90.38977,38.81064,143],[-90.38971,38.81063,143],[-90.38965,38.81063,143],[-90.38958,38.81064,144],[-90.38952,38.81063,144],[-90.38947,38.8106,143],[-90.38942,38.81057,143],[-90.38938,38.81054,143],[-90.38935,38.8105,143],[-90.3893,38.81046,143],[-90.38926,38.81043,143],[-90.38926,38.81036,143],[-90.38929,38.8103,142],[-90.38927,38.81026,142],[-90.38923,38.81023,142],[-90.3892,38.81019,143],[-90.3892,38.81015,143],[-90.3892,38.81011,143],[-90.38919,38.81007,143],[-90.38915,38.81003,144],[-90.38913,38.80999,144],[-90.38912,38.80995,144],[-90.38913,38.80991,144],[-90.38913,38.80987,144],[-90.38909,38.80985,145],[-90.38905,38.80983,145],[-90.38901,38.80981,146],[-90.38904,38.8098,145],[-90.38903,38.80977,145],[-90.38901,38.80974,145],[-90.389,38.8097,145],[-90.38898,38.80966,145],[-90.38895,38.80962,145],[-90.38893,38.80959,145],[-90.38888,38.80957,145],[-90.38884,38.80954,145],[-90.38882,38.80951,145],[-90.38882,38.80947,145],[-90.38881,38.80944,144],[-90.38881,38.80941,144],[-90.3888,38.80937,143],[-90.38879,38.80934,143],[-90.38878,38.80931,143],[-90.38877,38.80927,142],[-90.38874,38.80923,142],[-90.38872,38.80918,141],[-90.38872,38.80913,141],[-90.38873,38.80908,141],[-90.38872,38.80903,140],[-90.38872,38.80899,140],[-90.38867,38.80894,140],[-90.38861,38.8089,141],[-90.3886,38.80884,141],[-90.3886,38.80879,141],[-90.3886,38.80875,141],[-90.38859,38.8087,141],[-90.38859,38.80865,141],[-90.38859,38.8086,141],[-90.38858,38.80856,141],[-90.38854,38.80852,142],[-90.38852,38.80846,142],[-90.38853,38.80841,142],[-90.38854,38.80837,141],[-90.38854,38.80832,141],[-90.38853,38.80828,141],[-90.38853,38.80824,141],[-90.38852,38.8082,141],[-90.38851,38.80817,141],[-90.3885,38.80813,141],[-90.38849,38.80809,140],[-90.38848,38.80806,140],[-90.38844,38.80804,141],[-90.38841,38.80801,142],[-90.38841,38.80795,142],[-90.38841,38.8079,142],[-90.38841,38.80785,142],[-90.38841,38.80781,142],[-90.3884,38.80776,142],[-90.38839,38.80772,142],[-90.38838,38.80769,142],[-90.38837,38.80765,142],[-90.38837,38.80761,142],[-90.38836,38.80757,142],[-90.38836,38.80752,141],[-90.38836,38.80749,141],[-90.38835,38.80744,141],[-90.38834,38.8074,141],[-90.38833,38.80735,141],[-90.38831,38.80731,141],[-90.38829,38.80727,141],[-90.38827,38.80722,142],[-90.38827,38.80718,141],[-90.3883,38.80713,140],[-90.38826,38.8071,140],[-90.38825,38.80706,140],[-90.38824,38.80702,140],[-90.38825,38.80698,139],[-90.38824,38.80694,139],[-90.38822,38.80691,139],[-90.38821,38.80687,139],[-90.38819,38.80684,139],[-90.38819,38.80681,138],[-90.38818,38.80677,138],[-90.38815,38.80674,139],[-90.38814,38.8067,139],[-90.38812,38.80666,139],[-90.38811,38.80663,139],[-90.38811,38.80659,140],[-90.38813,38.80655,139],[-90.38811,38.80651,140],[-90.3881,38.80647,140],[-90.38809,38.80642,141],[-90.38807,38.80639,141],[-90.38807,38.80634,141],[-90.38805,38.8063,142],[-90.38805,38.80624,142],[-90.38805,38.80619,142],[-90.38804,38.80614,142],[-90.38804,38.8061,142],[-90.38806,38.80606,141],[-90.38806,38.80603,141],[-90.38804,38.80599,142],[-90.38803,38.80594,142],[-90.38802,38.80591,142],[-90.38801,38.80586,143],[-90.38801,38.80582,143],[-90.38802,38.80579,142],[-90.388,38.80574,142],[-90.38799,38.8057,141],[-90.38795,38.80567,142],[-90.38793,38.80562,141],[-90.38792,38.80557,141],[-90.38793,38.80552,140],[-90.38791,38.80546,141],[-90.3879,38.80541,141],[-90.38786,38.80537,142],[-90.38785,38.80533,143],[-90.38785,38.80528,143],[-90.38784,38.80524,143],[-90.38784,38.80519,143],[-90.38783,38.80514,143],[-90.38783,38.8051,144],[-90.38782,38.80505,144],[-90.38778,38.80501,144],[-90.38777,38.80496,144],[-90.38778,38.8049,144],[-90.3878,38.80485,143],[-90.3878,38.8048,143],[-90.38781,38.80474,142],[-90.38785,38.8047,141],[-90.38784,38.80465,141],[-90.38785,38.8046,141],[-90.38784,38.80455,141],[-90.38781,38.8045,141],[-90.38784,38.80445,141],[-90.38778,38.80443,142],[-90.38773,38.80443,142],[-90.3877,38.8044,143],[-90.38771,38.80437,143],[-90.38774,38.80436,143],[-90.3877,38.80437,143],[-90.38766,38.80438,144],[-90.38762,38.80437,144],[-90.38757,38.80437,145],[-90.38753,38.80435,145],[-90.38748,38.80434,146],[-90.38743,38.80433,147],[-90.38738,38.80433,148],[-90.38734,38.80431,149],[-90.38731,38.80434,149],[-90.38729,38.80438,149],[-90.38728,38.80441,149],[-90.38727,38.80438,150],[-90.38728,38.80441,149],[-90.38729,38.80444,149],[-90.38729,38.80448,149],[-90.38729,38.80451,149],[-90.3873,38.80455,149],[-90.38729,38.8046,149],[-90.38731,38.80465,149],[-90.38731,38.8047,149],[-90.38728,38.80474,150],[-90.38726,38.80471,150],[-90.38721,38.8047,151],[-90.38717,38.80469,151],[-90.38714,38.80466,152],[-90.38712,38.80464,152],[-90.38708,38.80465,153],[-90.38704,38.80465,153],[-90.38708,38.80468,153],[-90.38701,38.80466,154],[-90.38696,38.80466,154],[-90.38692,38.80463,155],[-90.38691,38.80459,156],[-90.38693,38.80462,155],[-90.38696,38.80463,155],[-90.38692,38.80461,155],[-90.38688,38.80461,156],[-90.38684,38.8046,157],[-90.3868,38.8046,157],[-90.38676,38.80459,158],[-90.38673,38.80459,159],[-90.38669,38.80457,159],[-90.38666,38.80455,160],[-90.38661,38.80454,160],[-90.38656,38.80454,160],[-90.38652,38.80455,161],[-90.38648,38.80455,161],[-90.38643,38.80452,161],[-90.38639,38.80447,162],[-90.38636,38.80444,162],[-90.38634,38.80441,162],[-90.38631,38.80438,162],[-90.38631,38.80435,162],[-90.38628,38.80432,162],[-90.38626,38.80428,162],[-90.38619,38.80427,163],[-90.38615,38.80426,164],[-90.3861,38.80425,165],[-90.38605,38.80425,167],[-90.38602,38.80424,168],[-90.38599,38.80422,169],[-90.38597,38.8042,169],[-90.38596,38.80416,170],[-90.38598,38.80412,170],[-90.38604,38.80409,168],[-90.38597,38.80413,170],[-90.38595,38.80419,170],[-90.386,38.80421,168],[-90.38604,38.80423,167],[-90.38608,38.80425,166],[-90.38614,38.80427,164],[-90.38617,38.80429,164],[-90.38623,38.80434,163],[-90.38629,38.80437,162],[-90.38635,38.80437,161],[-90.38641,38.8044,161],[-90.38648,38.80441,160],[-90.38652,38.80443,160],[-90.38659,38.80446,160],[-90.38664,38.80448,160],[-90.38664,38.80453,160],[-90.38667,38.80457,159],[-90.38671,38.80459,159],[-90.38676,38.80462,158],[-90.3868,38.80464,157],[-90.38683,38.80467,157],[-90.38686,38.80471,156],[-90.38689,38.80475,156],[-90.38694,38.80476,155],[-90.387,38.80474,154],[-90.38704,38.80473,153],[-90.3871,38.80471,152],[-90.38715,38.8047,152],[-90.38721,38.80469,151],[-90.38727,38.80467,150],[-90.38729,38.80464,149],[-90.38729,38.8046,149],[-90.38731,38.80455,149],[-90.3873,38.8045,149],[-90.38728,38.80445,149],[-90.3873,38.80441,149],[-90.38734,38.80438,149],[-90.38739,38.80438,148],[-90.38744,38.8044,147],[-90.38749,38.80443,146],[-90.38757,38.80443,145],[-90.38762,38.80443,144],[-90.38768,38.80446,143],[-90.38771,38.8045,143],[-90.38771,38.80454,143],[-90.38768,38.80458,143],[-90.38767,38.80462,144],[-90.38765,38.80466,144],[-90.38768,38.8047,144],[-90.3877,38.80474,144],[-90.38771,38.80478,144],[-90.38771,38.80483,144],[-90.38772,38.80486,144],[-90.38774,38.8049,144],[-90.38774,38.80493,144],[-90.38775,38.80497,145],[-90.38776,38.80501,145],[-90.38777,38.80504,144],[-90.38776,38.80507,144],[-90.38775,38.80511,144],[-90.38775,38.80515,144],[-90.38775,38.80519,144],[-90.38776,38.80522,144],[-90.38777,38.80525,144],[-90.38777,38.80529,144],[-90.38778,38.80533,143],[-90.38779,38.80536,143],[-90.3878,38.80539,143],[-90.38781,38.80543,143],[-90.38781,38.80546,142],[-90.38781,38.8055,142],[-90.38783,38.80552,142],[-90.38785,38.80556,142],[-90.38787,38.80559,142],[-90.38787,38.80563,142],[-90.38787,38.80566,143],[-90.38787,38.80569,144],[-90.38787,38.80573,144],[-90.38787,38.80576,145],[-90.38787,38.80581,146],[-90.38788,38.80585,146],[-90.38789,38.80589,146],[-90.38792,38.80593,145],[-90.38793,38.80598,145],[-90.38796,38.80601,144],[-90.38796,38.80605,144],[-90.38798,38.80609,144],[-90.38798,38.80613,144],[-90.38798,38.80618,144],[-90.38798,38.80622,144],[-90.38797,38.80627,144],[-90.38797,38.80632,144],[-90.38797,38.80635,144],[-90.38797,38.80639,144],[-90.38797,38.80643,144],[-90.38798,38.80647,144],[-90.38797,38.8065,144],[-90.38797,38.80654,144],[-90.38797,38.80658,143],[-90.38799,38.80661,143],[-90.388,38.80664,142],[-90.38801,38.80667,142],[-90.38802,38.8067,142],[-90.38803,38.80674,142],[-90.38804,38.80677,142],[-90.38805,38.8068,142],[-90.38806,38.80684,142],[-90.38807,38.80687,142],[-90.38808,38.8069,142],[-90.38809,38.80695,142],[-90.38809,38.80699,142],[-90.3881,38.80703,143],[-90.38813,38.80706,142],[-90.38817,38.80711,142],[-90.38818,38.80714,142],[-90.3882,38.80717,142],[-90.38821,38.80722,143],[-90.38818,38.80726,143],[-90.38817,38.80731,144],[-90.38821,38.80735,143],[-90.38822,38.8074,143],[-90.38822,38.80744,144],[-90.38822,38.80748,144],[-90.38821,38.80752,144],[-90.38822,38.80755,144],[-90.38823,38.80758,144],[-90.38823,38.80762,144],[-90.38823,38.80765,144],[-90.38825,38.80769,144],[-90.38826,38.80771,144],[-90.38827,38.80775,144],[-90.38828,38.80778,144],[-90.3883,38.8078,144],[-90.38831,38.80783,144],[-90.38831,38.80787,143],[-90.38832,38.80791,143],[-90.38833,38.80794,143],[-90.38834,38.80797,143],[-90.38835,38.80801,142],[-90.38836,38.80804,142],[-90.38836,38.80807,142],[-90.38836,38.8081,143],[-90.38837,38.80813,143],[-90.38837,38.80817,143],[-90.38838,38.8082,143],[-90.38839,38.80823,143],[-90.38839,38.80827,144],[-90.38839,38.8083,144],[-90.38839,38.80834,144],[-90.38839,38.80837,144],[-90.38839,38.8084,145],[-90.3884,38.80843,144],[-90.38842,38.80846,144],[-90.38843,38.80849,144],[-90.38844,38.80852,144],[-90.38844,38.80855,144],[-90.38845,38.80859,144],[-90.38846,38.80863,144],[-90.38848,38.80867,143],[-90.3885,38.80869,143],[-90.3885,38.80873,143],[-90.38851,38.80877,142],[-90.38853,38.80881,142],[-90.38853,38.80885,142],[-90.38853,38.80888,142],[-90.38853,38.80893,142],[-90.38855,38.80897,142],[-90.38858,38.809,141],[-90.38861,38.80904,141],[-90.38862,38.80907,141],[-90.38863,38.8091,141],[-90.38864,38.80915,141],[-90.38864,38.80919,142],[-90.38867,38.80924,142],[-90.38868,38.80927,143],[-90.38869,38.80931,144],[-90.38872,38.80935,144],[-90.38874,38.80938,144],[-90.38875,38.80942,145],[-90.38876,38.80946,145],[-90.38877,38.80951,146],[-90.3888,38.80954,146],[-90.38883,38.80958,146],[-90.38885,38.80961,146],[-90.38886,38.80964,146],[-90.38888,38.80966,146],[-90.3889,38.8097,146],[-90.38892,38.80972,146],[-90.38894,38.80976,146],[-90.38896,38.8098,146],[-90.38898,38.80984,146],[-90.38898,38.80987,147],[-90.38899,38.80991,147],[-90.389,38.80994,147],[-90.38902,38.80996,146],[-90.38904,38.80999,146],[-90.38905,38.81002,146],[-90.38906,38.81005,146],[-90.38906,38.81008,146],[-90.38907,38.81011,145],[-90.38908,38.81015,145],[-90.38909,38.81018,145],[-90.38911,38.81021,144],[-90.38913,38.81024,144],[-90.38914,38.81026,143],[-90.38916,38.81029,143],[-90.38917,38.81033,143],[-90.38917,38.81036,143],[-90.38919,38.81041,143],[-90.3892,38.81046,144],[-90.38922,38.8105,144],[-90.38927,38.81052,144],[-90.3893,38.81055,144],[-90.38936,38.81058,144],[-90.38941,38.81061,144],[-90.38946,38.81063,144],[-90.38951,38.81065,144],[-90.38956,38.81067,144],[-90.38961,38.81068,144],[-90.38966,38.81069,144],[-90.38972,38.81071,144],[-90.38977,38.81072,144],[-90.38983,38.81072,143],[-90.38988,38.81074,143],[-90.38993,38.81074,143],[-90.38998,38.81075,143],[-90.39003,38.81075,142],[-90.39009,38.81075,142],[-90.39012,38.81076,142],[-90.39016,38.81078,142],[-90.3902,38.81079,142],[-90.39024,38.81079,141],[-90.39028,38.81079,141],[-90.39034,38.81079,141],[-90.39039,38.81079,140],[-90.39043,38.81079,140],[-90.39047,38.81079,140],[-90.39051,38.8108,140],[-90.39055,38.81082,140],[-90.3906,38.81083,139],[-90.39063,38.81085,139],[-90.39068,38.81086,139],[-90.39071,38.81088,139],[-90.39074,38.81091,139],[-90.39076,38.81093,139],[-90.39076,38.81096,139],[-90.39075,38.81099,140],[-90.39073,38.81102,140],[-90.39073,38.81106,140],[-90.39072,38.8111,141],[-90.39073,38.81114,141],[-90.39076,38.81117,141],[-90.39079,38.8112,141],[-90.39082,38.81123,141],[-90.39085,38.81126,141],[-90.39089,38.8113,141],[-90.39093,38.81134,141],[-90.39096,38.81137,141],[-90.39097,38.81142,142],[-90.39098,38.81147,143],[-90.39099,38.81151,143],[-90.39101,38.81154,143],[-90.39098,38.81157,144],[-90.39096,38.8116,145],[-90.39093,38.81164,145],[-90.3909,38.81166,146],[-90.39089,38.8117,146],[-90.39089,38.81175,147],[-90.39091,38.81179,147],[-90.39092,38.81184,148],[-90.39093,38.81188,149],[-90.39088,38.81191,149],[-90.39088,38.81195,149],[-90.39088,38.81199,149],[-90.39087,38.81204,149],[-90.39085,38.81208,149],[-90.39081,38.81211,149],[-90.39085,38.81216,149],[-90.39086,38.8122,149],[-90.39085,38.81224,149],[-90.39084,38.81229,148],[-90.39084,38.81233,147],[-90.39085,38.81238,146],[-90.39087,38.81241,145],[-90.39088,38.81245,144],[-90.39088,38.81249,143],[-90.39087,38.81253,144],[-90.39086,38.81257,145],[-90.39088,38.81261,146],[-90.39092,38.81263,146],[-90.39096,38.81267,146],[-90.39098,38.81272,147],[-90.39098,38.81277,148],[-90.39098,38.81282,149],[-90.391,38.81286,150],[-90.39104,38.8129,150],[-90.39106,38.81295,151],[-90.39104,38.81299,152],[-90.39103,38.81305,154],[-90.39104,38.81309,154],[-90.39107,38.81313,154],[-90.39112,38.81317,154],[-90.39117,38.81317,153],[-90.39122,38.81317,152],[-90.39126,38.81319,152],[-90.39131,38.81323,151],[-90.39134,38.81321,151],[-90.39134,38.81324,151],[-90.39138,38.81327,150],[-90.3914,38.81331,150],[-90.39142,38.81335,150],[-90.39147,38.81337,149],[-90.39151,38.81341,148],[-90.39152,38.81346,148],[-90.39152,38.81351,147],[-90.3915,38.81358,147],[-90.39152,38.81363,147],[-90.39157,38.81367,146],[-90.39161,38.8137,146],[-90.39165,38.81374,145],[-90.3917,38.81378,145],[-90.39175,38.81381,144],[-90.39177,38.81384,143],[-90.3918,38.81388,143],[-90.39184,38.8139,142],[-90.3919,38.81394,142],[-90.39194,38.81398,142],[-90.39198,38.81402,144],[-90.39203,38.81405,145],[-90.39208,38.81407,146],[-90.39211,38.8141,147],[-90.39217,38.81411,147],[-90.39224,38.81408,145],[-90.39229,38.81405,143],[-90.39236,38.81402,142],[-90.39241,38.81399,141],[-90.39245,38.81394,139],[-90.39248,38.8139,138],[-90.39251,38.81386,138],[-90.39254,38.81384,138],[-90.3925,38.81387,138],[-90.39245,38.81388,137],[-90.39248,38.81384,137],[-90.39251,38.81381,138],[-90.39255,38.81378,138],[-90.39256,38.81373,138],[-90.39258,38.81369,138],[-90.3926,38.81364,138],[-90.39262,38.81361,138],[-90.39264,38.81357,138],[-90.39269,38.81354,137],[-90.39272,38.8135,137],[-90.39275,38.81347,136],[-90.39276,38.81343,136],[-90.39277,38.81339,135],[-90.3928,38.81336,135],[-90.39285,38.81333,134],[-90.3929,38.81331,134],[-90.39294,38.81328,133],[-90.39298,38.81325,133],[-90.39301,38.81322,133],[-90.39304,38.81319,133],[-90.39308,38.81316,132],[-90.3931,38.81313,132],[-90.39312,38.81307,132],[-90.39313,38.81304,133],[-90.39316,38.81301,133],[-90.39319,38.81299,133],[-90.39322,38.81297,133],[-90.39326,38.81295,133],[-90.39331,38.81294,133],[-90.39335,38.81293,133],[-90.3934,38.81291,133],[-90.39344,38.81288,133],[-90.39347,38.81286,133],[-90.3935,38.81285,133],[-90.39353,38.81283,133],[-90.39356,38.81281,133],[-90.39359,38.81279,133],[-90.39361,38.81277,134],[-90.39364,38.81274,134],[-90.39366,38.81272,134],[-90.39369,38.8127,134],[-90.39372,38.81268,134],[-90.39376,38.81266,135],[-90.39379,38.81263,135],[-90.39382,38.81261,135],[-90.39385,38.81258,136],[-90.39388,38.81257,136],[-90.39391,38.81254,136],[-90.39394,38.81251,136],[-90.39397,38.81249,137],[-90.394,38.81246,137],[-90.39404,38.81244,137],[-90.39406,38.81242,137],[-90.39408,38.81239,137],[-90.3941,38.81237,137],[-90.39413,38.81234,137],[-90.39416,38.81233,137],[-90.39419,38.81231,137],[-90.39422,38.81228,137],[-90.39425,38.81225,137],[-90.39428,38.81223,137],[-90.39431,38.8122,138],[-90.39434,38.81217,138],[-90.39437,38.81215,138],[-90.39439,38.81213,138],[-90.39443,38.8121,138],[-90.39447,38.81207,137],[-90.3945,38.81205,137],[-90.39454,38.81203,137],[-90.39457,38.81201,137],[-90.3946,38.81198,137],[-90.39463,38.81196,137],[-90.39466,38.81194,137],[-90.39469,38.81192,136],[-90.39472,38.8119,136],[-90.39476,38.81188,136],[-90.39479,38.81185,135],[-90.39482,38.81182,135],[-90.39484,38.81179,134],[-90.39487,38.81177,134],[-90.3949,38.81175,134]]],
        "bbox": [
          -90.38595,
          38.81962,
          -90.39495,
          38.80409
        ]
      },
      "properties": {
        "name": "7.16.2020B"
      }
    }
  ]
}