{
  "type": "FeatureCollection",
  "features": [
    {
      "type": "Feature",
      "geometry": {
        "type": "MultiLineString",
        "coordinates": [[[-90.39512,38.81166,132],[-90.39508,38.81167,133],[-90.39506,38.81169,133],[-90.39504,38.81171,133],[-90.39501,38.81173,133],[-90.39496,38.81174,133],[-90.39493,38.81174,133],[-90.39489,38.81176,134],[-90.39485,38.81177,134],[-90.39485,38.81181,134],[-90.39482,38.81184,135],[-90.39478,38.81187,135],[-90.39475,38.81188,136],[-90.39472,38.81191,136],[-90.39469,38.81193,136],[-90.39466,38.81195,137],[-90.39462,38.81198,137],[-90.39459,38.81201,137],[-90.39456,38.81204,137],[-90.39453,38.81207,137],[-90.3945,38.81209,137],[-90.39447,38.81212,137],[-90.39445,38.81215,137],[-90.39442,38.81217,138],[-90.39438,38.8122,138],[-90.39436,38.81222,138],[-90.39433,38.81224,137],[-90.39429,38.81227,137],[-90.39425,38.81229,137],[-90.39421,38.81232,137],[-90.39417,38.81234,137],[-90.39414,38.81237,137],[-90.39411,38.8124,137],[-90.39408,38.81243,137],[-90.39405,38.81246,137],[-90.39402,38.81248,137],[-90.39399,38.81251,136],[-90.39396,38.81252,136],[-90.39391,38.81254,136],[-90.39388,38.81256,136],[-90.39385,38.81259,135],[-90.39381,38.81261,135],[-90.39378,38.81264,135],[-90.39375,38.81266,135],[-90.39372,38.8127,134],[-90.39371,38.81272,134],[-90.39368,38.81274,134],[-90.39365,38.81275,134],[-90.39362,38.81276,134],[-90.39358,38.81278,134],[-90.39355,38.8128,134],[-90.39351,38.81281,134],[-90.39347,38.81282,134],[-90.39344,38.81284,134],[-90.39341,38.81287,134],[-90.39338,38.81289,134],[-90.39335,38.81291,134],[-90.39331,38.81291,134],[-90.39333,38.81288,134],[-90.39331,38.81286,134],[-90.39326,38.81286,134],[-90.39324,38.81284,134],[-90.39321,38.81282,134],[-90.39319,38.81279,134],[-90.39316,38.81276,134],[-90.39312,38.81275,134],[-90.39308,38.81273,134],[-90.39306,38.81272,134],[-90.39302,38.81269,134],[-90.393,38.81267,134],[-90.39297,38.81264,134],[-90.39295,38.81262,134],[-90.39292,38.8126,134],[-90.39287,38.81259,134],[-90.39283,38.81258,134],[-90.39279,38.81256,134],[-90.39277,38.81254,134],[-90.39274,38.81251,134],[-90.39272,38.81247,134],[-90.3927,38.81244,134],[-90.39267,38.81241,134],[-90.39265,38.81238,134],[-90.39263,38.81235,134],[-90.39259,38.81232,134],[-90.39256,38.8123,134],[-90.39253,38.81229,135],[-90.39249,38.81227,135],[-90.39245,38.81225,135],[-90.39242,38.81224,135],[-90.39237,38.81223,135],[-90.39232,38.81222,135],[-90.39227,38.81221,135],[-90.39224,38.81219,135],[-90.39219,38.81216,136],[-90.39214,38.81214,136],[-90.39209,38.81215,136],[-90.39204,38.81214,137],[-90.392,38.81211,137],[-90.39195,38.81213,137],[-90.39189,38.81215,137],[-90.39186,38.81218,137],[-90.39183,38.81221,137],[-90.39181,38.81225,137],[-90.39179,38.81229,136],[-90.39176,38.81233,136],[-90.39174,38.81238,136],[-90.39171,38.81241,135],[-90.39165,38.81245,135],[-90.39161,38.81249,135],[-90.39157,38.81252,135],[-90.39154,38.81255,136],[-90.39153,38.81258,137],[-90.39152,38.81263,138],[-90.39151,38.81267,139],[-90.39153,38.81271,139],[-90.39159,38.81274,139],[-90.39163,38.81276,139],[-90.39167,38.81278,138],[-90.3917,38.81281,138],[-90.39174,38.81283,138],[-90.39178,38.81287,138],[-90.39181,38.81291,138],[-90.39184,38.81294,138],[-90.39189,38.81296,138],[-90.39192,38.81298,138],[-90.39195,38.81301,138],[-90.39199,38.81304,138],[-90.39203,38.81308,138],[-90.39207,38.81312,138],[-90.39212,38.81314,138],[-90.39217,38.81315,138],[-90.39222,38.81318,137],[-90.39227,38.8132,137],[-90.39231,38.81323,137],[-90.39237,38.81324,137],[-90.39241,38.81325,137],[-90.39245,38.81328,137],[-90.39248,38.81331,137],[-90.39252,38.81334,136],[-90.39256,38.81337,136],[-90.39259,38.8134,136],[-90.39262,38.81343,137],[-90.39265,38.81346,137],[-90.39268,38.81349,137],[-90.39269,38.81352,137],[-90.39266,38.81354,137],[-90.39262,38.81356,138],[-90.39259,38.81359,138],[-90.39258,38.81362,138],[-90.39257,38.81365,138],[-90.39255,38.81368,138],[-90.39253,38.8137,138],[-90.39252,38.81374,138],[-90.39251,38.81377,138],[-90.3925,38.8138,138],[-90.39247,38.81383,137],[-90.39245,38.81386,137],[-90.39244,38.81388,136],[-90.39242,38.81391,137],[-90.39239,38.81394,138],[-90.39237,38.81397,139],[-90.39235,38.814,141],[-90.39233,38.81402,142],[-90.3923,38.81405,143],[-90.39228,38.81407,145],[-90.39224,38.81408,145],[-90.39226,38.81405,143],[-90.39223,38.81403,142],[-90.39221,38.81401,141],[-90.39226,38.81402,141],[-90.39228,38.81406,144],[-90.3923,38.81409,146],[-90.39234,38.81412,148],[-90.39238,38.81416,150],[-90.39241,38.81419,150],[-90.39245,38.81422,151],[-90.3925,38.81425,151],[-90.39255,38.81429,152],[-90.39258,38.81431,152],[-90.39263,38.81432,151],[-90.39268,38.81433,151],[-90.39272,38.81436,151],[-90.39275,38.81439,152],[-90.39277,38.81443,152],[-90.39281,38.81445,152],[-90.39285,38.81448,151],[-90.39289,38.8145,150],[-90.39292,38.81454,149],[-90.39295,38.81458,148],[-90.39297,38.8146,148],[-90.39299,38.81463,147],[-90.393,38.81466,147],[-90.39301,38.81468,147],[-90.39302,38.81472,146],[-90.39304,38.81475,146],[-90.39306,38.81478,146],[-90.39305,38.81482,146],[-90.39306,38.81485,146],[-90.39306,38.81488,147],[-90.39308,38.8149,146],[-90.39311,38.81492,146],[-90.39314,38.81494,145],[-90.39315,38.81497,145],[-90.39315,38.81501,145],[-90.39316,38.81505,145],[-90.39318,38.81508,144],[-90.39321,38.81511,143],[-90.39322,38.81513,143],[-90.39321,38.81516,143],[-90.3932,38.8152,142],[-90.39319,38.81523,143],[-90.39316,38.81527,143],[-90.39313,38.81529,143],[-90.39311,38.81531,143],[-90.39308,38.81533,143],[-90.39304,38.81535,143],[-90.393,38.81535,145],[-90.39296,38.81537,145],[-90.39292,38.81538,146],[-90.39288,38.8154,146],[-90.39284,38.81541,147],[-90.3928,38.81543,148],[-90.39277,38.81546,148],[-90.39274,38.81548,148],[-90.39271,38.8155,149],[-90.39268,38.81552,149],[-90.39265,38.81554,150],[-90.39263,38.81557,150],[-90.39261,38.8156,150],[-90.3926,38.81563,150],[-90.3926,38.81566,149],[-90.39261,38.8157,148],[-90.39263,38.81573,146],[-90.39264,38.81576,146],[-90.39266,38.81579,144],[-90.39268,38.81582,143],[-90.3927,38.81585,142],[-90.39271,38.81589,142],[-90.39272,38.81592,141],[-90.39271,38.81595,142],[-90.3927,38.81598,142],[-90.39269,38.81601,142],[-90.39266,38.81603,143],[-90.39262,38.81604,145],[-90.39259,38.81606,145],[-90.39255,38.81607,147],[-90.3925,38.8161,148],[-90.39246,38.81613,149],[-90.39244,38.81616,149],[-90.39241,38.81618,150],[-90.39239,38.81621,150],[-90.39237,38.81624,149],[-90.39238,38.81627,148],[-90.39238,38.81629,148],[-90.39237,38.81632,147],[-90.39234,38.81631,148],[-90.39233,38.81628,149],[-90.39233,38.81624,151],[-90.39228,38.81623,152],[-90.39229,38.81627,151],[-90.39232,38.8163,149],[-90.3923,38.81636,148],[-90.3923,38.81639,147],[-90.39229,38.81635,148],[-90.39232,38.81632,148],[-90.39236,38.81629,148],[-90.39239,38.81625,149],[-90.3924,38.81621,149],[-90.39235,38.81621,151],[-90.39238,38.81618,151],[-90.39239,38.81613,152],[-90.3924,38.81609,152],[-90.39243,38.81606,151],[-90.39248,38.81605,149],[-90.39253,38.81604,147],[-90.39257,38.81602,146],[-90.3926,38.81598,145],[-90.39263,38.81595,144],[-90.39265,38.81591,144],[-90.39266,38.81587,143],[-90.39265,38.81583,144],[-90.39264,38.81578,145],[-90.39262,38.81574,147],[-90.39261,38.81569,148],[-90.39261,38.81565,149],[-90.39262,38.81561,150],[-90.39263,38.81557,150],[-90.39263,38.81553,151],[-90.39263,38.81549,151],[-90.39263,38.81545,152],[-90.39264,38.81541,153],[-90.39267,38.81538,152],[-90.39272,38.81537,151],[-90.39277,38.81537,150],[-90.39282,38.81538,148],[-90.39288,38.81537,147],[-90.39295,38.81536,146],[-90.39299,38.81535,145],[-90.39301,38.81531,146],[-90.39305,38.81528,146],[-90.39307,38.81524,146],[-90.39309,38.8152,145],[-90.39311,38.81517,145],[-90.39313,38.81514,145],[-90.39317,38.81511,144],[-90.39318,38.81508,144],[-90.39313,38.81505,146],[-90.39309,38.81501,147],[-90.39306,38.81498,147],[-90.39303,38.81494,147],[-90.39301,38.8149,147],[-90.39299,38.81485,147],[-90.39296,38.81482,148],[-90.39295,38.81478,148],[-90.39296,38.81474,148],[-90.39299,38.81471,147],[-90.39298,38.81466,147],[-90.39294,38.81462,148],[-90.39293,38.81459,149],[-90.39293,38.81455,149],[-90.39292,38.81451,149],[-90.39289,38.81449,150],[-90.39286,38.81445,151],[-90.39283,38.81441,151],[-90.39279,38.81438,151],[-90.39275,38.81436,151],[-90.39271,38.81434,151],[-90.39268,38.81431,151],[-90.39265,38.81428,150],[-90.39261,38.81425,150],[-90.39257,38.81423,150],[-90.39252,38.81423,151],[-90.39246,38.81423,151],[-90.3924,38.81423,151],[-90.39234,38.81422,151],[-90.39232,38.81418,150],[-90.3923,38.81414,149],[-90.39227,38.8141,146],[-90.39226,38.81406,144],[-90.39226,38.81402,141]],[[-90.38946,38.81453,190],[-90.38951,38.81455,190],[-90.3895,38.8146,190],[-90.38948,38.81464,190],[-90.38949,38.81468,190],[-90.3895,38.81473,191],[-90.38951,38.81478,190],[-90.38952,38.81482,190],[-90.38954,38.81486,189],[-90.38957,38.81489,189],[-90.38959,38.81492,189],[-90.38961,38.81495,189],[-90.38964,38.81499,188],[-90.38969,38.81501,188],[-90.38973,38.81504,188],[-90.38978,38.81506,187],[-90.38982,38.81508,187],[-90.38984,38.81512,186],[-90.38986,38.81515,185],[-90.3899,38.81516,185],[-90.38995,38.81518,184],[-90.38998,38.81521,183],[-90.39002,38.81524,182],[-90.39006,38.81527,182],[-90.39012,38.8153,181],[-90.39016,38.81532,181],[-90.39021,38.81533,181],[-90.39025,38.81532,181],[-90.3903,38.81531,181],[-90.39036,38.8153,182],[-90.39042,38.8153,182],[-90.39048,38.81532,183],[-90.39053,38.81534,183],[-90.39056,38.81537,183],[-90.39056,38.81541,183],[-90.3906,38.81544,183],[-90.39065,38.81544,183],[-90.3907,38.81544,184],[-90.39075,38.81543,184],[-90.39081,38.81544,185],[-90.39086,38.81544,185],[-90.39091,38.81544,185],[-90.39097,38.81544,186],[-90.39103,38.81543,186],[-90.39108,38.81542,186],[-90.39113,38.81539,186],[-90.39118,38.81538,186],[-90.39124,38.81537,186],[-90.39129,38.81537,186],[-90.39134,38.81539,185],[-90.3913,38.81538,185],[-90.39132,38.81541,185],[-90.39137,38.81543,185],[-90.39142,38.81544,185],[-90.39147,38.81544,184],[-90.39153,38.81543,183],[-90.39158,38.81544,182],[-90.39159,38.81547,183],[-90.39158,38.81552,183],[-90.39163,38.81554,183],[-90.39167,38.81556,182],[-90.39172,38.81558,181],[-90.39175,38.8156,180],[-90.39178,38.81563,179],[-90.39181,38.81567,178],[-90.3918,38.8157,178],[-90.39178,38.81574,178],[-90.39175,38.81577,178],[-90.39174,38.81581,178],[-90.39174,38.81586,177],[-90.39174,38.81591,176],[-90.39175,38.81595,175],[-90.39175,38.81598,174],[-90.39176,38.81602,173],[-90.39176,38.81605,172],[-90.39176,38.81608,171],[-90.39174,38.81612,171],[-90.39173,38.81614,171],[-90.39173,38.81618,169],[-90.39173,38.81622,168],[-90.39172,38.81626,166],[-90.39172,38.81629,165],[-90.3917,38.81632,165],[-90.39167,38.81634,165],[-90.39164,38.81636,165],[-90.39161,38.81637,166],[-90.39159,38.81635,167],[-90.39155,38.81635,168],[-90.39157,38.81637,167],[-90.39159,38.81641,165],[-90.39157,38.81643,165],[-90.39154,38.81645,165],[-90.39152,38.81648,164],[-90.39148,38.81648,165],[-90.39147,38.81651,165],[-90.39144,38.81654,164],[-90.39143,38.81656,164],[-90.39139,38.81657,165],[-90.39136,38.81654,166],[-90.39132,38.81655,166],[-90.39129,38.81657,166],[-90.39128,38.81661,165],[-90.39128,38.81664,164],[-90.39124,38.81666,164],[-90.39124,38.81669,163],[-90.39121,38.81673,162],[-90.3912,38.81676,161],[-90.39115,38.81678,162],[-90.3911,38.81677,163],[-90.39109,38.81674,164],[-90.39104,38.81674,164],[-90.39099,38.81673,164],[-90.39097,38.81669,166],[-90.39096,38.81666,166],[-90.39091,38.81665,167],[-90.39088,38.81668,166],[-90.39086,38.81671,166],[-90.39082,38.81673,165],[-90.39086,38.81671,166],[-90.39091,38.8167,166],[-90.39086,38.81671,166],[-90.39081,38.81672,166],[-90.39075,38.81672,166],[-90.39071,38.81674,166],[-90.39069,38.81678,165],[-90.39064,38.81679,166],[-90.3906,38.81682,166],[-90.39055,38.81684,166],[-90.39054,38.81688,165],[-90.39056,38.81691,165],[-90.39058,38.81695,164],[-90.39059,38.81698,163],[-90.39056,38.81702,162],[-90.39052,38.81705,161],[-90.39048,38.81706,161],[-90.39053,38.81706,161],[-90.39053,38.8171,160],[-90.39055,38.81714,158],[-90.39059,38.81716,157],[-90.39056,38.8172,156],[-90.39056,38.81716,157],[-90.39051,38.8172,156],[-90.39049,38.81725,155],[-90.39048,38.81729,153],[-90.39052,38.8173,153],[-90.39054,38.81727,154],[-90.39056,38.81723,155],[-90.39061,38.81723,154],[-90.39067,38.81724,153],[-90.39061,38.81725,154],[-90.3906,38.81729,152],[-90.39057,38.81732,152],[-90.39056,38.81736,151],[-90.39051,38.81736,151],[-90.39049,38.81739,150],[-90.39047,38.81743,149],[-90.39046,38.81747,148],[-90.39047,38.81751,146],[-90.39049,38.81754,145],[-90.39053,38.81756,144],[-90.39051,38.8176,144],[-90.39053,38.81764,143],[-90.39055,38.81767,142],[-90.39057,38.8177,141],[-90.39057,38.81773,140],[-90.39054,38.81775,140],[-90.39051,38.81774,141],[-90.39049,38.81771,142],[-90.39047,38.81769,142],[-90.39043,38.8177,143],[-90.3904,38.81768,143],[-90.39037,38.81766,144],[-90.39035,38.81764,145],[-90.39032,38.81762,145],[-90.39028,38.81762,146],[-90.39024,38.81764,146],[-90.39021,38.81767,146],[-90.39018,38.8177,146],[-90.39016,38.81772,146],[-90.39013,38.81774,146],[-90.39009,38.81776,146],[-90.39007,38.81779,146],[-90.39003,38.81781,146],[-90.39,38.81783,147],[-90.38997,38.81785,147],[-90.38994,38.81783,147],[-90.3899,38.81784,148],[-90.38986,38.81786,148],[-90.38982,38.81788,148],[-90.38979,38.8179,148],[-90.38975,38.81791,148],[-90.38971,38.81791,149],[-90.38966,38.81789,149],[-90.38961,38.81787,150],[-90.38956,38.81786,150],[-90.38951,38.81786,150],[-90.38945,38.81786,151],[-90.3894,38.81785,152],[-90.38936,38.81783,153],[-90.38932,38.81786,153],[-90.38929,38.8179,152],[-90.38926,38.81794,152],[-90.38921,38.81795,152],[-90.38917,38.81798,152],[-90.38913,38.81801,152],[-90.38909,38.81799,153],[-90.38904,38.81799,155],[-90.38898,38.81799,156],[-90.38894,38.81799,157],[-90.38891,38.81803,157],[-90.38891,38.81799,158],[-90.38889,38.81795,159],[-90.38887,38.81799,159],[-90.38887,38.81803,158],[-90.38888,38.81806,156],[-90.38889,38.8181,155],[-90.38883,38.81812,155],[-90.38885,38.81808,156],[-90.3889,38.81809,155],[-90.38895,38.81808,154],[-90.38898,38.81804,155],[-90.38896,38.81799,157],[-90.38896,38.81796,158],[-90.38902,38.81796,156],[-90.38906,38.81798,154],[-90.38911,38.81796,154],[-90.38914,38.81793,154],[-90.38919,38.81793,153],[-90.38924,38.81794,152],[-90.38928,38.81796,151],[-90.38933,38.81797,150],[-90.38938,38.81796,150],[-90.3894,38.81792,150],[-90.38944,38.81788,150],[-90.38947,38.81791,150],[-90.38953,38.81794,149],[-90.38957,38.81796,148],[-90.38961,38.81797,148],[-90.38966,38.81795,148],[-90.38971,38.81793,148],[-90.38973,38.81789,149],[-90.38974,38.81785,149],[-90.38977,38.81781,149],[-90.3898,38.81778,150],[-90.38985,38.81777,149],[-90.3899,38.81777,149],[-90.38996,38.81778,148],[-90.39001,38.81777,148],[-90.39005,38.81776,147],[-90.3901,38.81776,146],[-90.39012,38.81772,146],[-90.39014,38.81775,146],[-90.39016,38.81772,146],[-90.39018,38.81768,146],[-90.3902,38.81766,146],[-90.39021,38.81763,147],[-90.39023,38.8176,147],[-90.39027,38.81759,147],[-90.3903,38.81762,146],[-90.39033,38.8176,146],[-90.39036,38.81758,146],[-90.39039,38.81757,146],[-90.39044,38.81758,145],[-90.39048,38.8176,144],[-90.39051,38.81761,144],[-90.39056,38.81763,143],[-90.39059,38.81765,142],[-90.39062,38.81764,142],[-90.39065,38.81762,142],[-90.39069,38.81761,141],[-90.39074,38.81761,141],[-90.39078,38.81761,140],[-90.39079,38.81759,140],[-90.3908,38.81756,141],[-90.39077,38.81755,141],[-90.39075,38.81757,141],[-90.39079,38.81756,141],[-90.39082,38.81757,140],[-90.39084,38.81754,141],[-90.39085,38.8175,141],[-90.39085,38.81747,142],[-90.39085,38.81751,141],[-90.39087,38.81753,141],[-90.39091,38.81756,140],[-90.39093,38.81759,139],[-90.3909,38.8176,139],[-90.39087,38.81759,139],[-90.39083,38.81759,140],[-90.39081,38.81762,140],[-90.39078,38.81764,140],[-90.39077,38.81768,139],[-90.39077,38.81763,140],[-90.3908,38.81759,140],[-90.39085,38.81758,140],[-90.39083,38.81753,141],[-90.39077,38.81744,144],[-90.3907,38.81742,146],[-90.39075,38.81744,145],[-90.3908,38.81746,143],[-90.39081,38.81749,142],[-90.3908,38.81753,141],[-90.39081,38.81757,141],[-90.39077,38.81759,141],[-90.39081,38.81761,140],[-90.39083,38.81765,139],[-90.39078,38.81766,139],[-90.39076,38.81762,140],[-90.39074,38.81759,141],[-90.39072,38.81756,142],[-90.39068,38.8175,144],[-90.39066,38.81747,145],[-90.39066,38.8175,144],[-90.39065,38.81755,143],[-90.39064,38.81759,142],[-90.39063,38.81755,143],[-90.39065,38.81759,142],[-90.39062,38.81762,142],[-90.39058,38.81764,142],[-90.39053,38.81766,142],[-90.39053,38.81762,143],[-90.39053,38.81758,144],[-90.39052,38.81753,145],[-90.3905,38.8175,146],[-90.39047,38.81746,148],[-90.39045,38.81742,149],[-90.39041,38.81739,151],[-90.39037,38.81737,151],[-90.39046,38.81739,150],[-90.39051,38.8174,149],[-90.39055,38.81742,148],[-90.39059,38.81744,147],[-90.39059,38.81739,149],[-90.39057,38.81733,151],[-90.39058,38.81729,153],[-90.39061,38.81732,151],[-90.39066,38.81732,150],[-90.39069,38.81728,151],[-90.3907,38.81724,152],[-90.39069,38.8172,154],[-90.39072,38.81717,155],[-90.39068,38.81719,154],[-90.39063,38.81719,155],[-90.39057,38.81718,157],[-90.39052,38.81718,157],[-90.39056,38.81716,157],[-90.39059,38.81718,156],[-90.39059,38.81714,158],[-90.39056,38.8171,159],[-90.39054,38.81706,161],[-90.39054,38.81702,162],[-90.39053,38.81698,164],[-90.3905,38.81695,165],[-90.39048,38.81692,165],[-90.39043,38.8169,166],[-90.39038,38.81687,166],[-90.39037,38.81684,167],[-90.39038,38.8168,167],[-90.39037,38.81676,167],[-90.39036,38.81671,168],[-90.39033,38.81668,168],[-90.39029,38.81666,169],[-90.39025,38.81664,169],[-90.39028,38.81666,169],[-90.39033,38.81667,168],[-90.39035,38.81671,168],[-90.39038,38.81675,167],[-90.39037,38.81678,167],[-90.39037,38.81683,167],[-90.39041,38.81686,166],[-90.39045,38.81688,166],[-90.3905,38.81689,165],[-90.39054,38.81688,165],[-90.39059,38.81686,165],[-90.39064,38.81687,165],[-90.39069,38.81686,164],[-90.39072,38.81683,164],[-90.39074,38.8168,165],[-90.39076,38.81675,165],[-90.39076,38.81672,166],[-90.39081,38.81671,166],[-90.39079,38.81667,167],[-90.39079,38.81663,167],[-90.39084,38.81662,168],[-90.39089,38.81664,167],[-90.39094,38.81667,166],[-90.39097,38.8167,165],[-90.391,38.81673,164],[-90.39103,38.81676,163],[-90.39107,38.81679,162],[-90.39112,38.81681,161],[-90.39117,38.81679,161],[-90.39121,38.81677,161],[-90.39125,38.81675,161],[-90.39129,38.81673,161],[-90.39134,38.8167,161],[-90.39138,38.81667,162],[-90.39134,38.81666,162],[-90.39136,38.81663,163],[-90.39139,38.8166,164],[-90.39142,38.81659,163],[-90.39146,38.8166,162],[-90.39149,38.81658,162],[-90.39149,38.81655,163],[-90.39148,38.81652,164],[-90.39152,38.81649,164],[-90.39156,38.81646,164],[-90.39155,38.81643,165],[-90.39151,38.8164,167],[-90.39148,38.81642,167],[-90.39148,38.81646,166],[-90.39146,38.81649,166],[-90.39148,38.81652,164],[-90.39146,38.81649,166],[-90.39142,38.81649,167],[-90.3914,38.81646,168],[-90.39139,38.81644,169],[-90.39137,38.81646,168],[-90.39135,38.81649,168],[-90.39137,38.81652,166],[-90.39139,38.81654,166],[-90.39143,38.81655,164],[-90.39147,38.81655,163],[-90.39149,38.81653,164],[-90.39151,38.8165,164],[-90.39152,38.81647,165],[-90.39154,38.81643,165],[-90.39155,38.8164,166],[-90.39155,38.81637,167],[-90.39153,38.81635,168],[-90.39154,38.81632,169],[-90.39158,38.8163,168],[-90.39161,38.81629,168],[-90.39163,38.81626,169],[-90.39166,38.81624,169],[-90.39168,38.81622,169],[-90.3917,38.81619,170],[-90.39171,38.81616,171],[-90.39172,38.81613,171],[-90.39174,38.81611,171],[-90.39175,38.81608,172],[-90.39177,38.81605,172],[-90.39178,38.81602,172],[-90.39178,38.81599,173],[-90.39178,38.81596,174],[-90.39176,38.81592,175],[-90.39175,38.81588,176],[-90.39176,38.81584,177],[-90.39176,38.8158,177],[-90.39175,38.81576,178],[-90.39176,38.81572,178],[-90.39175,38.81569,179],[-90.3917,38.8157,180],[-90.39164,38.81569,181],[-90.39161,38.81568,181],[-90.39157,38.81566,182],[-90.39155,38.81563,182],[-90.39153,38.8156,183],[-90.39151,38.81557,183],[-90.39148,38.81556,184],[-90.39144,38.81556,184],[-90.39141,38.81555,184],[-90.39138,38.81553,185],[-90.39136,38.8155,185],[-90.39132,38.8155,185],[-90.39129,38.81548,185],[-90.39125,38.81547,185],[-90.39121,38.81545,186],[-90.39117,38.81545,186],[-90.39113,38.81547,186],[-90.3911,38.81549,186],[-90.39108,38.81552,186],[-90.39107,38.81554,185],[-90.39103,38.81555,185],[-90.39098,38.81555,185],[-90.39092,38.81554,185],[-90.39087,38.81555,185],[-90.39082,38.81553,185],[-90.39077,38.8155,184],[-90.39073,38.81549,184],[-90.39068,38.81548,183],[-90.39063,38.81548,183],[-90.39058,38.81547,182],[-90.39053,38.81545,182],[-90.39048,38.81543,182],[-90.39044,38.8154,181],[-90.39039,38.81538,181],[-90.39034,38.81538,181],[-90.39028,38.81538,180],[-90.39023,38.81536,180],[-90.39019,38.81534,181],[-90.39015,38.81533,181],[-90.3901,38.81532,181],[-90.39005,38.81532,181],[-90.39,38.81533,181],[-90.38997,38.81529,181],[-90.38995,38.81526,182],[-90.38994,38.81522,183],[-90.38992,38.81519,184],[-90.38987,38.81516,185],[-90.38983,38.81514,185],[-90.38978,38.81513,186],[-90.38974,38.81512,186],[-90.38969,38.8151,186],[-90.38968,38.81506,187],[-90.38964,38.81503,188],[-90.38961,38.81499,188],[-90.38959,38.81495,189],[-90.38958,38.81491,189],[-90.38958,38.81487,189],[-90.38963,38.81487,190],[-90.3896,38.81484,190],[-90.38958,38.8148,190],[-90.38956,38.81477,190],[-90.38955,38.81473,191],[-90.38954,38.81469,191],[-90.38952,38.81466,190],[-90.38951,38.81462,190],[-90.38953,38.81458,190],[-90.38952,38.81454,190],[-90.3895,38.81449,190],[-90.38948,38.81446,189],[-90.38946,38.81442,189],[-90.38944,38.81438,189],[-90.3894,38.81435,189],[-90.38936,38.81433,190],[-90.38932,38.8143,190],[-90.38927,38.81429,191],[-90.38922,38.81427,191],[-90.38918,38.81424,192],[-90.38913,38.81423,192],[-90.38909,38.81421,192],[-90.38905,38.81419,192],[-90.389,38.81417,192],[-90.38895,38.81417,192],[-90.38891,38.81417,192],[-90.38887,38.81418,193],[-90.38883,38.81418,193],[-90.38879,38.81418,194],[-90.38875,38.81417,195],[-90.38871,38.81415,195],[-90.38868,38.81414,195],[-90.38865,38.81412,196],[-90.3886,38.81411,196],[-90.38856,38.8141,196],[-90.38853,38.81409,197],[-90.38849,38.81406,197],[-90.38846,38.81404,197],[-90.38841,38.81403,197],[-90.38837,38.81402,198],[-90.38834,38.81401,198],[-90.3883,38.814,198],[-90.38826,38.81399,198],[-90.38821,38.81397,198],[-90.38818,38.81393,198],[-90.38813,38.81392,198],[-90.38807,38.81393,199],[-90.38802,38.81393,199],[-90.38797,38.81394,199],[-90.38792,38.81395,199],[-90.38787,38.81395,199],[-90.38782,38.81393,199],[-90.38778,38.81396,199],[-90.38774,38.81397,200],[-90.38769,38.81398,200],[-90.38764,38.81395,200],[-90.38763,38.81399,200],[-90.38759,38.81396,200],[-90.38756,38.81393,200],[-90.38753,38.81389,199],[-90.38752,38.81386,199],[-90.38752,38.81381,198],[-90.38753,38.81377,198],[-90.38753,38.81373,197],[-90.38753,38.81369,197],[-90.38753,38.81365,196],[-90.38755,38.8136,196],[-90.38755,38.81357,196],[-90.38755,38.81354,195],[-90.38757,38.81351,195],[-90.38759,38.81348,195],[-90.38759,38.81345,195],[-90.3876,38.81342,195],[-90.3876,38.81339,195],[-90.3876,38.81336,194],[-90.38759,38.81333,194],[-90.38759,38.8133,194],[-90.38762,38.81328,194],[-90.38765,38.81326,194],[-90.38768,38.81327,194],[-90.38772,38.81328,195],[-90.38775,38.81329,195],[-90.38779,38.81329,195],[-90.38782,38.81329,195],[-90.38786,38.81327,195],[-90.3879,38.81326,194],[-90.38793,38.81326,194],[-90.38795,38.81323,194],[-90.38796,38.8132,193],[-90.38796,38.81317,193],[-90.38797,38.81314,192],[-90.38798,38.81312,192],[-90.38799,38.81309,192],[-90.38802,38.81307,191],[-90.38803,38.81305,191],[-90.38804,38.81302,190],[-90.38803,38.81298,190],[-90.38802,38.81294,189],[-90.38803,38.8129,189],[-90.38806,38.81286,188],[-90.38805,38.81282,188],[-90.38806,38.81278,187],[-90.38811,38.81276,186],[-90.38816,38.81274,184],[-90.38821,38.81274,182],[-90.38824,38.81271,181],[-90.38827,38.81268,179],[-90.38833,38.81269,178],[-90.38836,38.81266,177],[-90.38841,38.81264,175],[-90.38845,38.81263,174],[-90.38849,38.81261,172],[-90.38854,38.81261,171],[-90.38858,38.81258,170],[-90.38857,38.81254,170],[-90.38855,38.81251,170],[-90.38856,38.81247,169],[-90.38858,38.81243,168],[-90.3886,38.81239,167],[-90.38858,38.81234,166],[-90.38862,38.81231,165],[-90.38867,38.8123,164],[-90.38869,38.81226,164],[-90.38872,38.81224,163],[-90.38872,38.8122,162],[-90.38872,38.81216,162],[-90.38873,38.81212,161],[-90.38876,38.81209,161],[-90.38879,38.81206,160],[-90.38877,38.81202,160],[-90.38872,38.81202,160],[-90.38867,38.81201,161],[-90.38863,38.81198,161],[-90.38861,38.81194,162],[-90.38858,38.81191,162],[-90.38855,38.81187,163],[-90.38855,38.81183,164],[-90.38857,38.81179,164],[-90.38858,38.81175,164],[-90.3886,38.81171,164],[-90.38863,38.81167,164],[-90.38866,38.81164,164],[-90.38868,38.81161,163],[-90.38872,38.81158,162],[-90.38873,38.81154,162],[-90.38874,38.81151,162],[-90.38879,38.81149,161],[-90.38884,38.8115,159],[-90.38888,38.81152,159],[-90.38894,38.81153,157],[-90.38897,38.81151,156],[-90.38901,38.81149,155],[-90.38905,38.81146,154],[-90.38908,38.81143,154],[-90.3891,38.8114,153],[-90.38915,38.81138,152],[-90.38919,38.81135,152],[-90.38925,38.81135,152],[-90.38929,38.81137,152],[-90.38933,38.8114,152],[-90.38938,38.8114,152],[-90.3894,38.81137,152],[-90.38941,38.81132,152],[-90.38943,38.81129,152],[-90.38945,38.81125,151],[-90.38946,38.81121,151],[-90.38947,38.81116,151],[-90.38949,38.81113,151],[-90.38954,38.81113,151],[-90.38958,38.81111,151],[-90.38965,38.81111,151],[-90.38969,38.81114,151],[-90.38973,38.81117,150],[-90.38977,38.81119,149],[-90.38981,38.81116,149],[-90.38983,38.81113,149],[-90.38985,38.81109,148],[-90.3899,38.81111,148],[-90.38993,38.81114,147],[-90.38998,38.81115,147],[-90.39003,38.81115,146],[-90.39009,38.81116,145],[-90.39015,38.81118,144],[-90.39019,38.8112,144],[-90.39023,38.81118,143],[-90.39028,38.81116,142],[-90.39034,38.81117,142],[-90.39039,38.81118,142],[-90.39044,38.8112,142],[-90.39047,38.81122,142],[-90.39049,38.81119,142],[-90.39053,38.81117,142],[-90.39058,38.81116,142],[-90.39063,38.81115,141],[-90.39068,38.81114,141],[-90.39072,38.81112,141],[-90.39077,38.81113,141],[-90.39077,38.81117,141],[-90.39075,38.8112,141],[-90.39073,38.81117,141],[-90.39074,38.81121,141],[-90.39078,38.81122,141],[-90.39083,38.8112,141],[-90.39086,38.81123,141],[-90.39089,38.81128,141],[-90.39092,38.81131,141],[-90.39095,38.81134,141],[-90.39098,38.81137,141],[-90.391,38.8114,141],[-90.39104,38.81143,142],[-90.39108,38.81146,142],[-90.39112,38.81149,142],[-90.39113,38.81152,142],[-90.39113,38.81155,143],[-90.3911,38.81158,143],[-90.39107,38.81159,144],[-90.39104,38.81161,144],[-90.391,38.81163,145],[-90.39096,38.81165,145],[-90.39092,38.81166,146],[-90.39089,38.81168,146],[-90.39086,38.81169,147],[-90.39084,38.81172,147],[-90.39083,38.81175,147],[-90.39084,38.81177,147],[-90.39086,38.81181,148],[-90.39087,38.81184,148],[-90.3909,38.81188,148],[-90.3909,38.81191,149],[-90.39089,38.81194,149],[-90.39088,38.81197,149],[-90.39089,38.81201,149],[-90.3909,38.81204,149],[-90.39092,38.81207,149],[-90.39092,38.81211,149],[-90.3909,38.81214,149],[-90.39089,38.81218,149],[-90.39089,38.81222,149],[-90.39089,38.81225,149],[-90.39088,38.81229,148],[-90.39086,38.81231,147],[-90.39086,38.81234,147],[-90.39089,38.81238,146],[-90.39092,38.8124,145],[-90.39093,38.81243,144],[-90.39094,38.81246,143],[-90.39094,38.81249,143],[-90.39093,38.81252,143],[-90.39094,38.81255,144],[-90.39094,38.81259,145],[-90.39096,38.81262,145],[-90.39098,38.81265,145],[-90.39101,38.81266,145],[-90.39104,38.81268,145],[-90.39105,38.81271,146],[-90.39105,38.81274,147],[-90.39104,38.81277,147],[-90.39104,38.81282,149],[-90.39106,38.81285,149],[-90.39108,38.81289,150],[-90.39109,38.81292,150],[-90.3911,38.81294,151],[-90.39111,38.81297,151],[-90.39113,38.81301,152],[-90.39114,38.81305,153],[-90.39114,38.8131,153],[-90.39115,38.81314,153],[-90.39118,38.81317,153],[-90.39122,38.81321,152],[-90.39125,38.81325,152],[-90.39129,38.81327,152],[-90.39133,38.8133,151],[-90.39136,38.81333,151],[-90.3914,38.81336,150],[-90.39145,38.81338,149],[-90.3915,38.8134,148],[-90.39153,38.81342,148],[-90.39158,38.81345,146],[-90.39162,38.81347,146],[-90.39165,38.81351,144],[-90.39166,38.81355,143],[-90.39165,38.81359,143],[-90.39166,38.81363,143],[-90.39166,38.81367,144],[-90.39167,38.81371,144],[-90.39169,38.81375,144],[-90.39172,38.81377,144],[-90.39176,38.8138,143],[-90.3918,38.81382,142],[-90.39185,38.81384,141],[-90.39189,38.81387,140],[-90.39193,38.8139,139],[-90.39197,38.81393,139],[-90.39201,38.81396,140],[-90.39204,38.81399,142],[-90.39209,38.814,141],[-90.39215,38.81402,142],[-90.39219,38.81406,144],[-90.39223,38.81408,145],[-90.39228,38.81407,145],[-90.39229,38.81403,142],[-90.39233,38.814,141],[-90.39236,38.81396,139],[-90.39239,38.81393,138],[-90.39242,38.8139,137],[-90.39246,38.81389,137],[-90.39246,38.81385,137],[-90.39249,38.81381,138],[-90.39253,38.81379,138],[-90.39256,38.81376,138],[-90.39259,38.81372,138],[-90.3926,38.81368,138],[-90.3926,38.81364,138],[-90.39262,38.8136,138],[-90.39265,38.81356,138],[-90.39267,38.81352,137],[-90.39271,38.81349,137],[-90.39275,38.81347,136],[-90.39278,38.81344,136],[-90.39282,38.81342,135],[-90.39285,38.81339,135],[-90.39286,38.81334,134],[-90.39288,38.81329,134],[-90.39289,38.81324,133],[-90.39291,38.8132,133],[-90.39296,38.81318,133],[-90.39301,38.81316,133],[-90.39306,38.81315,132],[-90.39311,38.81314,132],[-90.39316,38.81313,132],[-90.3932,38.8131,132],[-90.39323,38.81306,132],[-90.39324,38.813,133],[-90.39324,38.81295,133],[-90.39324,38.81291,134],[-90.39328,38.81287,134],[-90.39332,38.81287,134],[-90.39337,38.81285,134],[-90.3934,38.81284,134],[-90.39344,38.81282,134],[-90.39348,38.81281,134],[-90.39352,38.8128,134],[-90.39355,38.81278,134],[-90.39353,38.81276,134],[-90.39355,38.81278,134],[-90.39359,38.81279,133],[-90.39362,38.8128,133],[-90.39366,38.81278,133],[-90.39369,38.81276,134],[-90.39371,38.81273,134],[-90.39373,38.8127,134],[-90.39376,38.81268,134],[-90.39379,38.81266,135],[-90.39381,38.81263,135],[-90.39384,38.81261,135],[-90.39387,38.81259,135],[-90.3939,38.81257,136],[-90.39393,38.81256,136],[-90.39396,38.81254,136],[-90.39399,38.81251,136],[-90.39403,38.81251,136],[-90.39408,38.81249,137],[-90.3941,38.81247,137],[-90.39413,38.81244,137],[-90.39415,38.81241,137],[-90.39418,38.8124,137],[-90.39418,38.81242,137],[-90.39416,38.81245,137],[-90.39413,38.81245,137],[-90.3941,38.81247,137],[-90.39406,38.81249,137],[-90.39403,38.81251,136],[-90.39399,38.81252,136],[-90.39396,38.81254,136],[-90.39394,38.81257,136],[-90.39392,38.8126,135],[-90.39389,38.81263,135],[-90.39386,38.81265,135],[-90.39383,38.81266,135],[-90.39378,38.81268,134],[-90.39375,38.81269,134],[-90.39372,38.81271,134],[-90.39369,38.81273,134],[-90.39366,38.81276,134],[-90.39363,38.81279,133],[-90.3936,38.81282,133],[-90.39357,38.81284,133],[-90.39356,38.81287,133],[-90.39357,38.8129,133],[-90.39357,38.81293,133],[-90.39357,38.81296,132],[-90.39357,38.81299,132],[-90.39357,38.81303,132],[-90.39357,38.81306,132],[-90.39357,38.81309,132],[-90.39358,38.81313,132],[-90.39361,38.81315,132],[-90.39363,38.81318,132],[-90.39365,38.81321,132],[-90.39366,38.81325,132],[-90.39369,38.81328,132],[-90.39373,38.81328,132],[-90.39377,38.81328,132],[-90.39381,38.81329,132],[-90.39383,38.81331,132],[-90.39385,38.81334,132],[-90.39388,38.81337,132],[-90.39391,38.8134,132],[-90.39393,38.81342,132],[-90.39395,38.81345,132],[-90.39397,38.81347,132],[-90.39402,38.81348,132],[-90.39407,38.8135,132],[-90.39409,38.81352,132],[-90.39412,38.81355,132],[-90.39417,38.81356,133],[-90.39421,38.81356,133],[-90.39426,38.81357,133],[-90.39429,38.81359,133],[-90.39432,38.81361,133],[-90.39436,38.81362,133],[-90.3944,38.81364,133],[-90.39443,38.81366,133],[-90.39447,38.81368,134],[-90.3945,38.81369,134],[-90.39454,38.81371,134],[-90.39458,38.81373,134],[-90.39461,38.81375,134],[-90.39464,38.81377,134],[-90.39467,38.81379,135],[-90.39471,38.8138,135],[-90.39475,38.81381,135],[-90.3948,38.81382,135],[-90.39484,38.81383,135],[-90.39488,38.81386,135],[-90.39491,38.81388,135],[-90.39495,38.81391,134],[-90.39497,38.81394,134],[-90.39502,38.81395,135],[-90.39504,38.81398,135],[-90.39501,38.814,135],[-90.39501,38.81402,135],[-90.39504,38.81404,135],[-90.39505,38.81401,135],[-90.39502,38.81399,135],[-90.39499,38.81398,134],[-90.39495,38.81396,134],[-90.39492,38.81394,134],[-90.39489,38.81392,134],[-90.39485,38.8139,134],[-90.39482,38.81388,135],[-90.39479,38.81386,135],[-90.39476,38.81383,135],[-90.39472,38.81381,135],[-90.39467,38.81379,135],[-90.39463,38.81377,134],[-90.39459,38.81376,134],[-90.39455,38.81375,134],[-90.39451,38.81375,134],[-90.39447,38.81372,134],[-90.39445,38.81371,134],[-90.39441,38.81368,133],[-90.39438,38.81366,133],[-90.39434,38.81364,133],[-90.3943,38.81362,133],[-90.39427,38.8136,133],[-90.39424,38.81358,133],[-90.3942,38.81356,133],[-90.39417,38.81353,133],[-90.39413,38.81351,132],[-90.3941,38.81348,132],[-90.39406,38.81346,132],[-90.39402,38.81344,132],[-90.39399,38.81342,132],[-90.39395,38.8134,132],[-90.39392,38.81338,132],[-90.39388,38.81336,132],[-90.39385,38.81334,132],[-90.39381,38.81332,132],[-90.39378,38.8133,132],[-90.39375,38.81327,132],[-90.39372,38.81324,132],[-90.39369,38.81322,132],[-90.39366,38.81319,132],[-90.39364,38.81316,132],[-90.39361,38.81313,132],[-90.39359,38.81311,132],[-90.39357,38.81309,132],[-90.39356,38.81306,132],[-90.39354,38.81303,132],[-90.39354,38.81299,132],[-90.39358,38.81296,132],[-90.39359,38.81292,133],[-90.39359,38.81287,133],[-90.39362,38.81283,133],[-90.39366,38.81279,133],[-90.3937,38.81276,134],[-90.39374,38.81273,134],[-90.39377,38.8127,134],[-90.39381,38.81268,134],[-90.39384,38.81264,135],[-90.39387,38.8126,135],[-90.39391,38.81257,136],[-90.39394,38.81254,136],[-90.39398,38.81251,136],[-90.39402,38.81249,137],[-90.39406,38.81246,137],[-90.3941,38.81243,137],[-90.39413,38.81241,137],[-90.39417,38.81237,137],[-90.39421,38.81234,137],[-90.39425,38.81232,137],[-90.39429,38.81228,137],[-90.39433,38.81225,137],[-90.39437,38.81222,138],[-90.3944,38.8122,138],[-90.39443,38.81217,138],[-90.39446,38.81215,137],[-90.39449,38.81212,137],[-90.39452,38.81209,137],[-90.39456,38.81207,137],[-90.39459,38.81204,137],[-90.39462,38.81201,137],[-90.39465,38.81198,137],[-90.39468,38.81196,137],[-90.3947,38.81194,137],[-90.39472,38.81192,136],[-90.39475,38.8119,136],[-90.39477,38.81187,135],[-90.3948,38.81185,135],[-90.39484,38.81183,135],[-90.39487,38.81181,134],[-90.39489,38.81179,134],[-90.39492,38.81177,134],[-90.39495,38.81175,133],[-90.39498,38.81173,133],[-90.39498,38.81169,133],[-90.39498,38.81167,133],[-90.39499,38.81164,132],[-90.39503,38.81163,132],[-90.39507,38.81164,132],[-90.39509,38.81161,132],[-90.39509,38.81164,132],[-90.39513,38.81162,132],[-90.39514,38.81165,132],[-90.39512,38.81163,132],[-90.39515,38.8116,132],[-90.39512,38.81162,132],[-90.3951,38.81159,132],[-90.39507,38.81159,132],[-90.39511,38.81161,132],[-90.39516,38.81161,132],[-90.39521,38.8116,132],[-90.39526,38.81158,132],[-90.39529,38.81155,133],[-90.39532,38.81151,133],[-90.39536,38.81148,133],[-90.39541,38.81145,133],[-90.39545,38.81141,133],[-90.39549,38.81137,133],[-90.39554,38.81133,133],[-90.39558,38.81129,133],[-90.39562,38.81126,133],[-90.39566,38.81123,134],[-90.39571,38.81122,134],[-90.39571,38.81118,134],[-90.39566,38.81114,134],[-90.39561,38.81114,134],[-90.39554,38.81114,134],[-90.39541,38.81116,133],[-90.39535,38.81117,133],[-90.39518,38.81122,132],[-90.39503,38.81126,132],[-90.39488,38.81127,131],[-90.39475,38.81128,131],[-90.39462,38.81128,132],[-90.39448,38.81128,133],[-90.39429,38.81128,133],[-90.39414,38.81127,133],[-90.39402,38.81127,133],[-90.39385,38.81126,133],[-90.3937,38.81125,133],[-90.39352,38.81123,133],[-90.39335,38.81123,134],[-90.39318,38.81121,135],[-90.39302,38.81119,136],[-90.39281,38.81118,138],[-90.39263,38.81117,139],[-90.39243,38.81116,139],[-90.39226,38.81114,138],[-90.39207,38.81113,136],[-90.39189,38.81112,135],[-90.39169,38.8111,135],[-90.3915,38.81108,135],[-90.39129,38.81106,136],[-90.39107,38.81105,137],[-90.39085,38.81103,140],[-90.39062,38.81101,140],[-90.39039,38.811,142],[-90.39017,38.81098,143],[-90.38991,38.81096,146],[-90.38966,38.81094,148],[-90.38943,38.81093,150],[-90.38922,38.81091,151],[-90.389,38.81089,153],[-90.38877,38.81088,157],[-90.38861,38.81087,160],[-90.38842,38.81085,164],[-90.38821,38.81084,165],[-90.38805,38.81083,163],[-90.38788,38.81081,162],[-90.38768,38.8108,161],[-90.38746,38.81079,161],[-90.38733,38.81078,162],[-90.38708,38.81077,166],[-90.38688,38.81075,169],[-90.38675,38.8107,170],[-90.38655,38.81067,171],[-90.3864,38.81061,170],[-90.38627,38.81055,171],[-90.3861,38.81045,172],[-90.38593,38.81034,173],[-90.38579,38.81026,173],[-90.38565,38.81017,173],[-90.3855,38.81008,173],[-90.38534,38.80998,172],[-90.38519,38.80988,170],[-90.38503,38.80978,167],[-90.38487,38.80968,167],[-90.38471,38.80958,168],[-90.38455,38.80948,169],[-90.3844,38.80938,170],[-90.38423,38.80927,170],[-90.38406,38.80914,169],[-90.38388,38.80906,167],[-90.38372,38.80895,166],[-90.38354,38.80885,166],[-90.38333,38.80876,168],[-90.38316,38.80866,169],[-90.38296,38.80858,172],[-90.38275,38.80853,174],[-90.38254,38.80849,176],[-90.38234,38.80846,177],[-90.38215,38.80845,179],[-90.38196,38.80845,180],[-90.38177,38.80845,180],[-90.38157,38.80846,180],[-90.38141,38.80848,179],[-90.38124,38.80851,178],[-90.38103,38.80856,178],[-90.3809,38.80862,179],[-90.38084,38.80864,180],[-90.38071,38.80868,181],[-90.38065,38.80871,181],[-90.38057,38.80874,182],[-90.38049,38.80873,182],[-90.38048,38.80864,181],[-90.38043,38.80862,181],[-90.38032,38.80865,181],[-90.38027,38.8086,180],[-90.38022,38.80855,180],[-90.38017,38.80846,178],[-90.38019,38.80833,177],[-90.38014,38.80826,177],[-90.38009,38.80818,178],[-90.38002,38.80811,179],[-90.37994,38.80801,180],[-90.37986,38.80792,181],[-90.37979,38.80783,181],[-90.37973,38.80777,181],[-90.37968,38.80769,180],[-90.37963,38.80762,180],[-90.37959,38.8075,179],[-90.37955,38.80741,178],[-90.37953,38.80734,177],[-90.37951,38.80727,176],[-90.37947,38.80716,175],[-90.37941,38.80704,174],[-90.37937,38.80691,172],[-90.37931,38.80683,172],[-90.37924,38.80673,172],[-90.37916,38.80665,171],[-90.37908,38.80653,171],[-90.37901,38.80642,171],[-90.37891,38.80634,171],[-90.37885,38.80626,170],[-90.37877,38.80617,169],[-90.37868,38.8061,168],[-90.37861,38.80605,168],[-90.37852,38.80598,167],[-90.3784,38.80588,166],[-90.37828,38.80581,166],[-90.37816,38.80574,166],[-90.37806,38.80569,166],[-90.37795,38.80564,167],[-90.37785,38.80559,167],[-90.37773,38.80554,167],[-90.37758,38.80549,167],[-90.37745,38.80544,166],[-90.37732,38.80539,165],[-90.37717,38.80534,163],[-90.37705,38.8053,162],[-90.37693,38.80526,161],[-90.37678,38.80521,159],[-90.37663,38.80516,157],[-90.3765,38.80511,157],[-90.37636,38.80506,157],[-90.37617,38.805,158],[-90.37601,38.80495,159],[-90.37585,38.80489,160],[-90.37568,38.80483,161],[-90.37553,38.80478,160],[-90.37539,38.80474,160],[-90.37529,38.8047,159],[-90.37517,38.80466,159],[-90.37501,38.8046,161],[-90.37486,38.80456,162],[-90.3747,38.80454,164],[-90.37454,38.80453,164],[-90.37441,38.80453,164],[-90.37428,38.80453,164],[-90.37417,38.80454,164],[-90.37405,38.80457,165],[-90.3739,38.80461,165],[-90.37382,38.80464,166],[-90.37374,38.8047,167],[-90.37364,38.80474,167],[-90.37354,38.80478,169],[-90.37344,38.80483,170],[-90.37332,38.80488,171],[-90.37321,38.80493,172],[-90.3731,38.80498,173],[-90.37301,38.80503,174],[-90.37293,38.80507,174],[-90.37282,38.80512,175],[-90.37271,38.80516,176],[-90.37259,38.8052,177],[-90.37248,38.80522,178],[-90.37234,38.80524,178],[-90.37223,38.80524,178],[-90.3721,38.80524,178],[-90.37199,38.80524,178],[-90.37191,38.80523,177],[-90.37181,38.80522,177],[-90.37172,38.80521,176],[-90.37167,38.8052,176],[-90.37161,38.80519,176],[-90.37154,38.80516,176],[-90.37149,38.80514,175],[-90.37143,38.80512,175],[-90.37136,38.80508,175],[-90.37128,38.80503,175],[-90.37116,38.80496,175],[-90.37106,38.8049,176],[-90.37092,38.80482,176],[-90.37084,38.80477,176],[-90.37072,38.8047,176],[-90.37062,38.80463,177],[-90.37051,38.80457,178],[-90.37041,38.8045,178],[-90.3703,38.80444,178],[-90.3702,38.80437,180],[-90.37008,38.8043,181],[-90.37,38.80425,181],[-90.36991,38.8042,181],[-90.36983,38.80414,182],[-90.36975,38.80409,182],[-90.36965,38.80403,181],[-90.36956,38.80398,181],[-90.36945,38.80391,181],[-90.36935,38.80385,181],[-90.36924,38.80378,180],[-90.36914,38.80372,180],[-90.36906,38.80365,180],[-90.36897,38.80358,179],[-90.36888,38.80351,179],[-90.3688,38.80344,179],[-90.36869,38.80335,180],[-90.36862,38.80328,181],[-90.36853,38.80318,181],[-90.36842,38.80309,183],[-90.36829,38.80299,183],[-90.36818,38.80292,183],[-90.36805,38.80284,183],[-90.36795,38.8028,183],[-90.36786,38.80273,184],[-90.36777,38.80267,184],[-90.36766,38.80261,185],[-90.36756,38.80254,185],[-90.36746,38.80248,185],[-90.36738,38.80243,184],[-90.36728,38.80237,183],[-90.36718,38.80231,183],[-90.36709,38.80225,183],[-90.367,38.8022,184],[-90.36692,38.80215,184],[-90.36682,38.80209,184],[-90.36673,38.80203,184],[-90.36667,38.802,184],[-90.3666,38.80195,185],[-90.36653,38.80191,186],[-90.36649,38.80189,186],[-90.36642,38.80185,187],[-90.36638,38.80182,187],[-90.36635,38.80179,187],[-90.36632,38.80176,187],[-90.36639,38.80164,188],[-90.3665,38.80159,186],[-90.36653,38.80154,186],[-90.36658,38.80144,185],[-90.36666,38.80131,184],[-90.36672,38.80121,182],[-90.36675,38.80111,181],[-90.36683,38.80102,180],[-90.36689,38.80089,179],[-90.3669,38.80073,179],[-90.36692,38.8006,179],[-90.36695,38.8005,179],[-90.36703,38.80038,179],[-90.36706,38.80025,180],[-90.3671,38.80009,182],[-90.36712,38.79996,184],[-90.36715,38.79983,188],[-90.3672,38.79968,191],[-90.36725,38.79956,192],[-90.36731,38.79941,192],[-90.36738,38.79928,189],[-90.36747,38.79915,186],[-90.36757,38.79902,184],[-90.36768,38.79887,182],[-90.36777,38.79877,182],[-90.36789,38.79863,182],[-90.36799,38.79851,181],[-90.36813,38.79833,179],[-90.36825,38.79819,175],[-90.36833,38.7981,172],[-90.36845,38.79795,174],[-90.36861,38.79775,176],[-90.36876,38.79757,180],[-90.36891,38.79741,182],[-90.36899,38.7973,183],[-90.36911,38.79715,183],[-90.36922,38.79703,183],[-90.36935,38.79688,182],[-90.36947,38.79677,181],[-90.3696,38.79664,180],[-90.36971,38.79649,180],[-90.36984,38.79637,179],[-90.36998,38.79623,179],[-90.37012,38.79612,180],[-90.37026,38.79598,179],[-90.37039,38.79585,178],[-90.37053,38.7957,177],[-90.37064,38.79555,177],[-90.37077,38.79542,177],[-90.3709,38.79527,178],[-90.37103,38.79515,179],[-90.37116,38.795,179],[-90.37128,38.79489,179],[-90.37142,38.79476,180],[-90.37156,38.79463,181],[-90.37168,38.79449,183],[-90.3718,38.79433,184],[-90.37193,38.79421,184],[-90.37203,38.79406,183],[-90.37215,38.79393,181],[-90.37225,38.79379,180],[-90.37234,38.79365,180],[-90.37244,38.79354,179],[-90.37253,38.79342,179],[-90.37262,38.79331,179],[-90.3727,38.7932,178],[-90.37279,38.79308,178],[-90.37288,38.79297,178],[-90.37297,38.79284,178],[-90.37306,38.79273,178],[-90.37315,38.79263,178],[-90.37326,38.79252,178],[-90.37335,38.79241,177],[-90.37343,38.79231,177],[-90.37351,38.7922,177],[-90.3736,38.79208,177],[-90.37369,38.79198,176],[-90.37377,38.79184,176],[-90.37386,38.79173,176],[-90.37396,38.79164,176],[-90.37403,38.79151,177],[-90.37412,38.7914,177],[-90.37422,38.79129,177],[-90.3743,38.79121,177],[-90.37437,38.79112,177],[-90.37444,38.79102,178],[-90.37448,38.79092,180],[-90.37453,38.7908,181],[-90.37458,38.7907,183],[-90.37463,38.79056,184],[-90.37467,38.79044,184],[-90.37473,38.79031,184],[-90.37476,38.7902,183],[-90.3748,38.79008,182],[-90.37486,38.78998,180],[-90.37491,38.78984,180],[-90.37494,38.78971,180],[-90.37497,38.78962,179],[-90.37499,38.78949,177],[-90.37501,38.78933,176],[-90.37502,38.78919,175],[-90.37504,38.78903,174],[-90.37505,38.78889,173],[-90.37507,38.78876,174],[-90.37511,38.78859,175],[-90.37514,38.78844,176],[-90.37517,38.7883,176],[-90.37524,38.78816,176],[-90.37531,38.78802,175],[-90.37539,38.7879,175],[-90.37544,38.78778,175],[-90.37553,38.78763,176],[-90.37562,38.78753,176],[-90.37576,38.78741,177],[-90.37589,38.7873,177],[-90.37603,38.78717,177],[-90.37616,38.78705,177],[-90.37629,38.78691,180],[-90.37641,38.78677,183],[-90.37654,38.78664,185],[-90.3767,38.78652,184],[-90.37682,38.78638,181],[-90.37696,38.78625,180],[-90.37712,38.78609,180],[-90.37724,38.78595,181],[-90.37736,38.78581,182],[-90.37749,38.78569,183],[-90.37764,38.78554,183],[-90.37772,38.78542,183],[-90.37782,38.78528,182],[-90.37792,38.78516,185],[-90.37805,38.78505,187],[-90.37816,38.78494,189],[-90.37828,38.7848,190],[-90.37843,38.78469,190],[-90.37852,38.78453,189],[-90.37863,38.78443,188],[-90.37876,38.78432,185],[-90.37887,38.78422,182],[-90.37899,38.78413,180],[-90.37909,38.78402,180],[-90.37918,38.78392,181],[-90.37931,38.7838,181],[-90.37942,38.78368,182],[-90.37956,38.78356,183],[-90.37968,38.78345,183],[-90.37983,38.78336,182],[-90.37997,38.78327,182],[-90.38014,38.7832,182],[-90.38032,38.78314,182],[-90.3805,38.78308,182],[-90.38067,38.78301,183],[-90.38086,38.78295,184],[-90.38104,38.7829,183],[-90.38122,38.78287,183],[-90.38143,38.78283,182],[-90.38165,38.7828,182],[-90.38184,38.78277,180],[-90.38205,38.78275,177],[-90.38224,38.78274,173],[-90.38239,38.78272,173],[-90.38256,38.7827,173],[-90.38273,38.78268,173],[-90.38289,38.78266,174],[-90.383,38.78265,174],[-90.38311,38.78262,173],[-90.38323,38.78261,172],[-90.38334,38.7826,171],[-90.3834,38.78258,171],[-90.38345,38.78257,171],[-90.38351,38.78256,171],[-90.38358,38.78255,171],[-90.38367,38.78254,171],[-90.38375,38.78253,171],[-90.38385,38.78251,171],[-90.38397,38.7825,172],[-90.38409,38.78248,172],[-90.38423,38.78246,173],[-90.38436,38.78244,172],[-90.3845,38.78243,171],[-90.38465,38.7824,170],[-90.38481,38.78238,169],[-90.38497,38.78235,168],[-90.38515,38.78233,168],[-90.38532,38.78231,169],[-90.38549,38.78229,170],[-90.38568,38.78226,171],[-90.38588,38.78224,172],[-90.38607,38.7822,172],[-90.38626,38.78218,172],[-90.38648,38.78216,172],[-90.38669,38.78213,171],[-90.38688,38.78211,170],[-90.38708,38.78209,170],[-90.38728,38.78207,170],[-90.38746,38.78203,170],[-90.38768,38.78201,169],[-90.38789,38.78198,169],[-90.38807,38.78195,169],[-90.38826,38.78189,167],[-90.38844,38.78183,167],[-90.38862,38.78177,166],[-90.38878,38.78172,166],[-90.38894,38.78164,165],[-90.38907,38.78156,165],[-90.38928,38.7814,163],[-90.3894,38.78127,162],[-90.38952,38.78116,162],[-90.38967,38.78104,161],[-90.38977,38.7809,159],[-90.38987,38.78075,158],[-90.38997,38.78061,156],[-90.39006,38.78044,157],[-90.39013,38.78031,160],[-90.39016,38.7802,161],[-90.39016,38.78005,161],[-90.39017,38.77988,161],[-90.39017,38.77974,162],[-90.39016,38.77959,163],[-90.39015,38.77946,165],[-90.39014,38.77931,164],[-90.39012,38.77917,163],[-90.3901,38.77904,163],[-90.39008,38.77891,163],[-90.39005,38.77881,163],[-90.39002,38.77872,164],[-90.38999,38.77864,164],[-90.38997,38.77858,165],[-90.38994,38.77852,165],[-90.38992,38.77849,165],[-90.38989,38.77843,165],[-90.38985,38.77836,165],[-90.3898,38.77828,165],[-90.38973,38.7782,164],[-90.38968,38.77812,163],[-90.38961,38.77804,163],[-90.38955,38.77795,163],[-90.38949,38.77787,162],[-90.38941,38.77778,162],[-90.38937,38.77773,162],[-90.38933,38.77768,163],[-90.38926,38.77757,163],[-90.38921,38.7775,164],[-90.38917,38.77745,164],[-90.38914,38.77742,164],[-90.38887,38.77742,166],[-90.38882,38.77743,166],[-90.38875,38.77744,167],[-90.38868,38.77747,167],[-90.38858,38.77753,168],[-90.38845,38.77762,168],[-90.38831,38.77769,168],[-90.38818,38.77778,167],[-90.38803,38.77787,166],[-90.38787,38.77796,165],[-90.38767,38.77808,163],[-90.38744,38.77822,162],[-90.38722,38.77836,161],[-90.38704,38.77846,162],[-90.38679,38.77861,163],[-90.38661,38.77874,168],[-90.38644,38.77885,173],[-90.3862,38.77898,175],[-90.38597,38.77911,174],[-90.38572,38.77922,169],[-90.38551,38.77934,166],[-90.38527,38.77944,162],[-90.38502,38.77955,164],[-90.38478,38.77964,166],[-90.38454,38.77976,168],[-90.38429,38.77988,173],[-90.38404,38.78,178],[-90.38381,38.78012,181],[-90.3836,38.78021,185],[-90.38337,38.78033,185],[-90.38313,38.78045,183],[-90.38289,38.78057,177],[-90.38265,38.78067,170],[-90.38242,38.78075,167],[-90.38217,38.78085,166],[-90.38191,38.78096,168],[-90.38167,38.78105,170],[-90.38141,38.78115,173],[-90.38114,38.78124,175],[-90.38086,38.78134,177],[-90.3806,38.78137,181],[-90.37671,38.78185,166],[-90.37275,38.78139,173],[-90.36879,38.78038,162],[-90.36505,38.77926,152],[-90.36477,38.7792,151],[-90.36421,38.77905,153],[-90.36394,38.77898,154]]],
        "bbox": [
          -90.36394,
          38.81812,
          -90.39571,
          38.77742
        ]
      },
      "properties": {
        "name": "8.14.2022"
      }
    }
  ]
}