{
  "type": "FeatureCollection",
  "features": [
    {
      "type": "Feature",
      "geometry": {
        "type": "MultiLineString",
        "coordinates": [[[-90.39516,38.81174,133],[-90.39513,38.81168,133],[-90.39507,38.81167,133],[-90.39506,38.81166,132],[-90.39506,38.81168,133],[-90.39502,38.81174,133],[-90.39496,38.81178,134],[-90.39487,38.81181,134],[-90.39482,38.81186,135],[-90.39477,38.81191,136],[-90.39472,38.81196,136],[-90.39466,38.812,137],[-90.39459,38.81205,137],[-90.39451,38.81208,137],[-90.39445,38.81213,137],[-90.3944,38.81218,138],[-90.39437,38.81225,137],[-90.39432,38.8123,137],[-90.39425,38.81234,137],[-90.39418,38.81238,137],[-90.39412,38.81242,137],[-90.39406,38.81247,137],[-90.39401,38.81252,136],[-90.39399,38.81258,135],[-90.39396,38.81264,135],[-90.39389,38.81269,134],[-90.39381,38.81271,134],[-90.39372,38.81273,134],[-90.39365,38.81276,134],[-90.39359,38.8128,133],[-90.39351,38.81284,133],[-90.39344,38.81287,133],[-90.39337,38.81291,133],[-90.39332,38.81295,133],[-90.39326,38.813,133],[-90.39319,38.81304,133],[-90.39313,38.81309,132],[-90.39307,38.81314,132],[-90.39301,38.81318,133],[-90.39295,38.81323,133],[-90.3929,38.81329,134],[-90.39282,38.81333,134],[-90.39274,38.81335,135],[-90.39266,38.81339,136],[-90.39264,38.81345,137],[-90.39261,38.8135,137],[-90.39257,38.81357,138],[-90.39253,38.81362,138],[-90.3925,38.81368,138],[-90.39246,38.81374,138],[-90.39243,38.8138,137],[-90.39241,38.81385,136],[-90.39243,38.81385,137],[-90.39238,38.8139,136],[-90.39227,38.81401,141],[-90.39221,38.81406,144],[-90.39224,38.81409,146],[-90.39226,38.81408,145],[-90.39225,38.81408,145],[-90.39218,38.81404,143],[-90.3921,38.81399,141],[-90.39204,38.81395,139],[-90.39198,38.81393,139],[-90.39193,38.81388,138],[-90.39189,38.81382,140],[-90.39185,38.81381,141],[-90.3918,38.8138,142],[-90.39174,38.81375,143],[-90.39171,38.81369,143],[-90.39168,38.81363,143],[-90.39162,38.81359,144],[-90.39162,38.81353,145],[-90.39163,38.81347,145],[-90.3916,38.81341,147],[-90.39155,38.81336,148],[-90.39154,38.81337,148],[-90.39151,38.81331,149],[-90.39153,38.81326,148],[-90.39146,38.81326,149],[-90.39139,38.8133,150],[-90.39136,38.81328,151],[-90.39134,38.81323,151],[-90.39134,38.81321,151],[-90.39132,38.81314,151],[-90.39131,38.81307,151],[-90.39127,38.813,150],[-90.39122,38.81294,149],[-90.39119,38.81288,148],[-90.39116,38.81281,147],[-90.39112,38.81275,146],[-90.39111,38.81268,144],[-90.39109,38.81262,143],[-90.39106,38.81256,142],[-90.39105,38.8125,141],[-90.39106,38.81244,143],[-90.39104,38.81238,144],[-90.39097,38.81234,146],[-90.39089,38.81233,147],[-90.39085,38.81231,148],[-90.39087,38.81225,149],[-90.39089,38.81218,149],[-90.39091,38.81212,149],[-90.39092,38.81205,149],[-90.39094,38.81199,150],[-90.39093,38.81193,149],[-90.39092,38.81187,149],[-90.39092,38.8118,148],[-90.39094,38.81174,147],[-90.39097,38.81168,146],[-90.39102,38.81163,145],[-90.39108,38.81159,144],[-90.39107,38.81153,143],[-90.3911,38.81152,142],[-90.39107,38.81146,142],[-90.39101,38.81141,142],[-90.39094,38.81137,142],[-90.3909,38.81132,141],[-90.39088,38.81126,141],[-90.39087,38.81125,141],[-90.39084,38.81126,142],[-90.3908,38.81123,141],[-90.39075,38.81124,142],[-90.39066,38.81125,142],[-90.39059,38.81124,142],[-90.39049,38.81124,142],[-90.39041,38.81123,142],[-90.39033,38.81122,142],[-90.39023,38.81121,143],[-90.39015,38.8112,144],[-90.39007,38.81119,145],[-90.38998,38.81118,146],[-90.3899,38.81121,147],[-90.38981,38.81121,149],[-90.38972,38.8112,150],[-90.38966,38.81117,151],[-90.38958,38.81113,151],[-90.38959,38.81117,151],[-90.38967,38.81119,150],[-90.38968,38.81126,150],[-90.38974,38.81131,149],[-90.38967,38.81123,150],[-90.3896,38.81114,151],[-90.38961,38.81116,151],[-90.38961,38.81115,151],[-90.38957,38.8112,151],[-90.38951,38.81124,151],[-90.38945,38.81128,151],[-90.38938,38.81132,152],[-90.38932,38.81136,152],[-90.38924,38.81136,152],[-90.38916,38.81136,152],[-90.38908,38.81141,154],[-90.38902,38.81147,155],[-90.38896,38.81151,157],[-90.38886,38.81153,159],[-90.38878,38.81157,161],[-90.3888,38.81156,161],[-90.38878,38.81162,161],[-90.38871,38.81166,163],[-90.38864,38.81169,164],[-90.38862,38.81173,164],[-90.38859,38.81176,164],[-90.38861,38.81188,162],[-90.38866,38.81196,161],[-90.38869,38.81202,161],[-90.38872,38.81209,161],[-90.38877,38.81214,161],[-90.38876,38.81221,162],[-90.38873,38.81226,163],[-90.38869,38.81229,164],[-90.38868,38.8123,164],[-90.38866,38.81232,165],[-90.38865,38.81233,165],[-90.38862,38.81238,166],[-90.38858,38.81243,168],[-90.38858,38.81249,169],[-90.38857,38.81256,170],[-90.38856,38.81258,170],[-90.38856,38.81259,170],[-90.38855,38.81259,170],[-90.3886,38.81261,169],[-90.38854,38.81265,171],[-90.38846,38.81268,174],[-90.38838,38.81271,177],[-90.38838,38.81275,177],[-90.38836,38.81271,177],[-90.38835,38.81271,178],[-90.38826,38.81273,181],[-90.38821,38.81277,183],[-90.38813,38.81279,186],[-90.38807,38.81284,188],[-90.38803,38.8129,189],[-90.388,38.81296,190],[-90.38801,38.81302,190],[-90.388,38.81309,191],[-90.38797,38.81315,193],[-90.38792,38.81321,194],[-90.38786,38.81326,195],[-90.38779,38.81329,195],[-90.38769,38.81331,195],[-90.38761,38.81331,194],[-90.38759,38.81329,194],[-90.38764,38.81328,194],[-90.38757,38.81332,194],[-90.38755,38.81338,194],[-90.38756,38.81345,195],[-90.38755,38.81346,195],[-90.38757,38.81345,195],[-90.3876,38.81345,195],[-90.3876,38.81347,195],[-90.38759,38.81347,195],[-90.38756,38.81347,195],[-90.38756,38.8135,195],[-90.38757,38.81356,196],[-90.38755,38.81359,196],[-90.38754,38.81362,196],[-90.38753,38.81367,197],[-90.38752,38.81368,197],[-90.38752,38.81372,197],[-90.38749,38.81377,198],[-90.38749,38.81382,198],[-90.38748,38.81383,199],[-90.38757,38.81389,199],[-90.38761,38.81396,200],[-90.38761,38.81402,200],[-90.3876,38.81399,200],[-90.38757,38.81398,200],[-90.38752,38.81398,200],[-90.38743,38.81399,200],[-90.38736,38.81401,200],[-90.38734,38.81402,200],[-90.38726,38.81404,200],[-90.38719,38.81406,200],[-90.38711,38.81407,200],[-90.38702,38.81407,200],[-90.38693,38.81408,201],[-90.38684,38.81409,200],[-90.38675,38.81409,200],[-90.38666,38.81409,200],[-90.38658,38.81411,199],[-90.38651,38.8141,199],[-90.3865,38.81411,199],[-90.3865,38.81412,199],[-90.38652,38.81418,200],[-90.38655,38.81424,200],[-90.3866,38.8143,201],[-90.38665,38.81435,202],[-90.38672,38.81438,202],[-90.38677,38.81444,202],[-90.38674,38.8145,203],[-90.38668,38.81455,203],[-90.38662,38.81461,203],[-90.38658,38.81466,203],[-90.38652,38.81471,203],[-90.38646,38.81476,204],[-90.38642,38.81482,204],[-90.38643,38.81482,204],[-90.38649,38.81477,204],[-90.38655,38.81473,204],[-90.38661,38.8147,203],[-90.38668,38.81467,203],[-90.38674,38.81462,203],[-90.38674,38.81455,203],[-90.38672,38.81449,203],[-90.38669,38.81442,202],[-90.38665,38.81436,202],[-90.38659,38.81431,201],[-90.38653,38.81426,200],[-90.38649,38.81419,200],[-90.38646,38.81414,199],[-90.38652,38.8141,199],[-90.3866,38.81408,199],[-90.38668,38.81406,199],[-90.38677,38.81407,200],[-90.38686,38.81409,200],[-90.38694,38.81409,201],[-90.38702,38.81408,201],[-90.3871,38.81406,200],[-90.38719,38.81405,200],[-90.38728,38.81405,200],[-90.38737,38.81403,200],[-90.38745,38.81401,200],[-90.38754,38.81399,200],[-90.38761,38.81397,200],[-90.38769,38.81396,200],[-90.38779,38.81397,199],[-90.38787,38.81396,199],[-90.38795,38.81394,199],[-90.38803,38.81392,199],[-90.38812,38.81392,198],[-90.38821,38.81392,198],[-90.38828,38.81394,198],[-90.38836,38.81398,198],[-90.38843,38.81402,197],[-90.38844,38.81401,197],[-90.38845,38.81402,197],[-90.38852,38.81405,196],[-90.3886,38.81408,196],[-90.38868,38.81411,195],[-90.38877,38.81413,194],[-90.38884,38.81416,193],[-90.38893,38.81418,192],[-90.38898,38.81422,192],[-90.38897,38.81421,192],[-90.38902,38.81419,192],[-90.3891,38.81422,192],[-90.38933,38.81426,190],[-90.3894,38.81428,189],[-90.38948,38.81429,188],[-90.38944,38.81434,189],[-90.38939,38.81436,189],[-90.38944,38.81438,189],[-90.38949,38.81444,189],[-90.38951,38.8145,190],[-90.3895,38.81456,190],[-90.3895,38.81463,190],[-90.38952,38.8147,191],[-90.38952,38.81478,190],[-90.38952,38.81484,190],[-90.38952,38.81491,189],[-90.38957,38.81494,189],[-90.38963,38.81499,188],[-90.38969,38.81503,188],[-90.38974,38.81509,187],[-90.3898,38.81517,185],[-90.38984,38.81522,183],[-90.3899,38.81527,182],[-90.38995,38.81533,181],[-90.39002,38.81534,180],[-90.39011,38.81533,181],[-90.39021,38.81533,181],[-90.39029,38.81535,181],[-90.3904,38.81541,181],[-90.39048,38.81546,181],[-90.39045,38.81548,181],[-90.39044,38.81549,181],[-90.39054,38.81547,182],[-90.39062,38.81546,183],[-90.39072,38.81545,184],[-90.3908,38.81544,185],[-90.39089,38.81545,185],[-90.39098,38.81545,186],[-90.39106,38.81543,186],[-90.39115,38.81542,186],[-90.39122,38.8154,186],[-90.39131,38.81542,185],[-90.39139,38.81544,185],[-90.39145,38.81548,184],[-90.39152,38.81551,183],[-90.39159,38.81554,183],[-90.39164,38.8156,182],[-90.39167,38.81566,181],[-90.39173,38.8157,179],[-90.39181,38.81569,178],[-90.39189,38.81568,176],[-90.39195,38.81569,174],[-90.39196,38.81567,174],[-90.39197,38.81568,174],[-90.39197,38.81569,174],[-90.39198,38.81568,173],[-90.39197,38.81564,175],[-90.39198,38.81561,175],[-90.39199,38.8156,174],[-90.392,38.81557,175],[-90.39198,38.81556,176],[-90.39202,38.8155,174],[-90.39205,38.81544,173],[-90.39202,38.81538,174],[-90.39198,38.81533,175],[-90.392,38.81526,173],[-90.39204,38.81519,170],[-90.39207,38.81513,167],[-90.392,38.81509,167],[-90.39195,38.81504,167],[-90.39192,38.81497,166],[-90.39192,38.8149,165],[-90.39192,38.81483,164],[-90.39189,38.81478,165],[-90.39188,38.81471,164],[-90.39186,38.81465,164],[-90.39183,38.81459,164],[-90.39181,38.81452,164],[-90.39178,38.81446,164],[-90.39176,38.8144,163],[-90.39181,38.81438,161],[-90.3918,38.81438,161],[-90.39175,38.81437,162],[-90.39177,38.8143,160],[-90.39179,38.81425,158],[-90.39183,38.81423,156],[-90.39186,38.81421,155],[-90.39186,38.81418,154],[-90.39187,38.81418,154],[-90.39191,38.81415,152],[-90.392,38.81414,150],[-90.39208,38.81411,148],[-90.39215,38.81412,148],[-90.39223,38.81411,147],[-90.39231,38.81415,149],[-90.39236,38.8142,151],[-90.39241,38.81425,151],[-90.39247,38.8143,152],[-90.39254,38.81434,153],[-90.39261,38.81431,151],[-90.39264,38.81428,150],[-90.39265,38.81432,151],[-90.39263,38.81435,152],[-90.39264,38.81441,153],[-90.39268,38.81446,154],[-90.39274,38.8145,153],[-90.39282,38.81455,151],[-90.39288,38.8146,150],[-90.39292,38.81465,149],[-90.39294,38.81472,148],[-90.39295,38.81479,148],[-90.39295,38.81486,148],[-90.39298,38.81492,148],[-90.39305,38.81495,147],[-90.39306,38.81498,147],[-90.3931,38.81502,146],[-90.39314,38.81506,145],[-90.3932,38.81518,143],[-90.39325,38.81523,141],[-90.39333,38.81526,139],[-90.39337,38.81526,138],[-90.39336,38.81527,138],[-90.39336,38.81526,138],[-90.39333,38.81526,139],[-90.39324,38.81525,141],[-90.39316,38.81526,143],[-90.3931,38.81531,143],[-90.39304,38.81535,143],[-90.39298,38.8154,144],[-90.39298,38.81541,143],[-90.39301,38.81542,142],[-90.39301,38.81541,142],[-90.39301,38.81543,142],[-90.39275,38.8155,147],[-90.39269,38.81556,148],[-90.39276,38.81561,144],[-90.39276,38.81559,145],[-90.3927,38.8156,147],[-90.39269,38.81561,147],[-90.39268,38.81562,147],[-90.3927,38.8156,147],[-90.39274,38.8156,145],[-90.3927,38.81566,146],[-90.39266,38.81572,146],[-90.39262,38.81578,146],[-90.39261,38.81585,145],[-90.39261,38.81592,145],[-90.39261,38.81598,145],[-90.39253,38.81607,147],[-90.39248,38.81612,149],[-90.39242,38.81617,150],[-90.39241,38.81614,151],[-90.39242,38.81614,150],[-90.39241,38.81615,150],[-90.39239,38.81618,150],[-90.39238,38.81624,149],[-90.39237,38.8163,148],[-90.39234,38.81636,147],[-90.39229,38.8164,147],[-90.39225,38.81645,147],[-90.39218,38.81652,148],[-90.39211,38.81659,149],[-90.39204,38.81662,150],[-90.39202,38.81663,150],[-90.39201,38.81663,150],[-90.39197,38.81663,151],[-90.39191,38.81668,151],[-90.39188,38.8167,151],[-90.39183,38.81675,151],[-90.39178,38.8168,151],[-90.39174,38.81686,150],[-90.39171,38.81693,148],[-90.39167,38.81699,146],[-90.39161,38.81704,145],[-90.39153,38.81706,145],[-90.39145,38.81707,146],[-90.39137,38.8171,146],[-90.39131,38.81714,145],[-90.39124,38.81718,145],[-90.39116,38.8172,146],[-90.3911,38.81723,146],[-90.39103,38.81729,145],[-90.39098,38.81734,144],[-90.39093,38.81738,144],[-90.39089,38.8174,144],[-90.39091,38.81742,143],[-90.39091,38.81743,143],[-90.39087,38.81749,141],[-90.39079,38.8175,142],[-90.39079,38.81751,142],[-90.39084,38.81749,142],[-90.39089,38.81744,143],[-90.39094,38.81738,144],[-90.39099,38.81732,145],[-90.39105,38.81728,145],[-90.3911,38.81723,146],[-90.39113,38.81719,147],[-90.3912,38.81715,147],[-90.39126,38.81711,148],[-90.39131,38.81706,149],[-90.3914,38.81703,148],[-90.39149,38.817,148],[-90.39157,38.817,147],[-90.39165,38.81699,146],[-90.39174,38.81692,148],[-90.3918,38.81687,149],[-90.39183,38.81683,150],[-90.39181,38.81682,150],[-90.39184,38.8168,150],[-90.39189,38.81675,151],[-90.39193,38.81676,150],[-90.39198,38.81672,149],[-90.39204,38.81668,149],[-90.3921,38.81663,148],[-90.3921,38.81661,149],[-90.39213,38.81658,148],[-90.39219,38.81654,148],[-90.39224,38.81647,147],[-90.39229,38.81642,147],[-90.39237,38.8164,145],[-90.39238,38.81633,147],[-90.39238,38.81627,148],[-90.3924,38.8162,149],[-90.39247,38.81616,148],[-90.39254,38.81613,147],[-90.39261,38.8161,145],[-90.39269,38.81605,142],[-90.39272,38.81599,141],[-90.39274,38.81592,141],[-90.39272,38.81586,141],[-90.3927,38.81579,143],[-90.39264,38.81574,146],[-90.39262,38.81568,148],[-90.39266,38.81562,148],[-90.39269,38.81557,148],[-90.39273,38.81551,148],[-90.39278,38.81547,147],[-90.39284,38.81543,147],[-90.39292,38.81539,145],[-90.393,38.81536,144],[-90.39308,38.81532,144],[-90.39313,38.81526,144],[-90.39318,38.8152,143],[-90.39321,38.81514,143],[-90.39321,38.81508,143],[-90.39317,38.81503,145],[-90.39312,38.81496,146],[-90.39308,38.81491,146],[-90.39302,38.81486,147],[-90.393,38.81479,147],[-90.39298,38.81473,147],[-90.39297,38.81466,148],[-90.39293,38.8146,149],[-90.39288,38.81455,150],[-90.3928,38.81453,152],[-90.39274,38.81448,153],[-90.39268,38.81444,154],[-90.3926,38.8144,153],[-90.39252,38.81437,154],[-90.39244,38.81433,153],[-90.39236,38.8143,152],[-90.3923,38.81426,152],[-90.39226,38.81421,151],[-90.39222,38.81414,149],[-90.39225,38.81408,145],[-90.39231,38.81403,142],[-90.39238,38.81399,141],[-90.39242,38.81393,138],[-90.39249,38.81375,138],[-90.39254,38.81368,138],[-90.3926,38.81361,138],[-90.39266,38.81356,137],[-90.39272,38.8135,137],[-90.39276,38.81345,136],[-90.39278,38.81338,135],[-90.39283,38.81333,134],[-90.39288,38.81329,134],[-90.39294,38.81324,133],[-90.39299,38.81319,133],[-90.39305,38.81314,133],[-90.39312,38.8131,132],[-90.3932,38.81306,132],[-90.39327,38.81301,133],[-90.3934,38.81293,133],[-90.39346,38.81288,133],[-90.39348,38.81282,134],[-90.39355,38.81279,134],[-90.39362,38.81275,134],[-90.39367,38.81271,134]]],
        "bbox": [
          -90.38642,
          38.81751,
          -90.39516,
          38.81113
        ]
      },
      "properties": {
        "name": "6.13.2018"
      }
    }
  ]
}