{
  "type": "FeatureCollection",
  "features": [
    {
      "type": "Feature",
      "geometry": {
        "type": "MultiLineString",
        "coordinates": [[[-90.39364,38.81278,133],[-90.3936,38.81277,134],[-90.39357,38.81276,134],[-90.39353,38.81276,134],[-90.3935,38.81278,134],[-90.39347,38.81281,134],[-90.39344,38.81284,134],[-90.39343,38.81287,133],[-90.3934,38.81289,133],[-90.39335,38.81291,134],[-90.39331,38.81292,133],[-90.39327,38.81295,133],[-90.39324,38.81296,133],[-90.39321,38.81298,133],[-90.39318,38.813,133],[-90.39315,38.81302,133],[-90.39312,38.81305,133],[-90.3931,38.81307,132],[-90.39308,38.81309,132],[-90.39304,38.81312,133],[-90.39302,38.81314,133],[-90.39299,38.81316,133],[-90.39295,38.81319,133],[-90.39293,38.81321,133],[-90.3929,38.81324,133],[-90.39287,38.81327,134],[-90.39284,38.8133,134],[-90.39281,38.81333,134],[-90.39279,38.81335,135],[-90.39276,38.81337,135],[-90.39273,38.81339,135],[-90.39271,38.81342,136],[-90.39268,38.81345,136],[-90.39266,38.81347,137],[-90.39263,38.8135,137],[-90.39261,38.81353,137],[-90.39259,38.81356,138],[-90.39257,38.81359,138],[-90.39255,38.81362,138],[-90.39254,38.81365,138],[-90.39253,38.81368,138],[-90.39251,38.81371,138],[-90.39249,38.81373,138],[-90.39247,38.81376,138],[-90.39247,38.81379,138],[-90.39247,38.81381,137],[-90.39246,38.81384,137],[-90.39243,38.81386,137],[-90.39243,38.81389,136],[-90.3924,38.81391,137],[-90.39238,38.81394,138],[-90.39237,38.81397,139],[-90.39234,38.81399,140],[-90.39232,38.81401,141],[-90.39229,38.81404,143],[-90.39225,38.81405,143],[-90.39221,38.81407,144],[-90.39217,38.81407,145],[-90.39213,38.81407,145],[-90.3921,38.81407,145],[-90.39207,38.81409,147],[-90.39203,38.8141,147],[-90.39199,38.8141,148],[-90.39196,38.81411,149],[-90.39191,38.81411,150],[-90.39189,38.81414,152],[-90.39188,38.81417,153],[-90.39185,38.81418,154],[-90.39186,38.81421,155],[-90.39183,38.81423,156],[-90.39182,38.81425,157],[-90.39181,38.81428,158],[-90.39182,38.81431,158],[-90.39183,38.81434,159],[-90.39184,38.81437,160],[-90.39185,38.8144,160],[-90.39185,38.81443,161],[-90.39186,38.81446,161],[-90.39187,38.81449,161],[-90.39187,38.81452,162],[-90.39189,38.81455,162],[-90.39191,38.81458,162],[-90.39193,38.8146,161],[-90.39193,38.81463,162],[-90.39193,38.81466,162],[-90.39193,38.81469,162],[-90.39194,38.81472,163],[-90.39195,38.81475,163],[-90.39196,38.81478,163],[-90.39196,38.81481,163],[-90.39195,38.81484,164],[-90.39193,38.81487,165],[-90.39193,38.8149,165],[-90.39193,38.81493,165],[-90.39195,38.81495,165],[-90.39194,38.81499,166],[-90.39197,38.81503,166],[-90.39199,38.81507,167],[-90.392,38.81511,168],[-90.392,38.81514,169],[-90.39199,38.81518,171],[-90.39198,38.81521,172],[-90.39197,38.81524,173],[-90.39196,38.81527,175],[-90.39196,38.8153,175],[-90.39197,38.81534,175],[-90.39198,38.81537,175],[-90.39199,38.8154,175],[-90.39198,38.81543,175],[-90.39198,38.81546,175],[-90.39199,38.81549,175],[-90.39199,38.81552,175],[-90.39199,38.81554,175],[-90.39199,38.81558,175],[-90.39197,38.8156,175],[-90.39196,38.81563,175],[-90.39195,38.81566,175],[-90.39193,38.8157,175],[-90.39187,38.8157,176],[-90.39189,38.81567,176],[-90.39186,38.81565,177],[-90.39181,38.81565,178],[-90.39177,38.81566,179],[-90.39173,38.81568,180],[-90.39171,38.81571,180],[-90.3917,38.81574,180],[-90.39168,38.81577,180],[-90.39169,38.8158,179],[-90.39172,38.81581,178],[-90.39173,38.81583,178],[-90.39173,38.81587,177],[-90.39172,38.8159,176],[-90.39171,38.81593,176],[-90.39169,38.81596,176],[-90.39168,38.81599,176],[-90.39167,38.81602,175],[-90.39167,38.81605,175],[-90.39166,38.81608,174],[-90.39165,38.81611,174],[-90.39165,38.81614,173],[-90.39165,38.81617,172],[-90.39164,38.8162,171],[-90.39164,38.81623,170],[-90.39166,38.81626,168],[-90.39164,38.81628,168],[-90.39162,38.81631,167],[-90.3916,38.81633,167],[-90.39158,38.81636,167],[-90.39156,38.81638,166],[-90.39153,38.8164,167],[-90.39151,38.81643,166],[-90.39149,38.81645,166],[-90.39147,38.81648,166],[-90.39145,38.81651,165],[-90.39146,38.81653,164],[-90.39143,38.81655,164],[-90.39139,38.81659,164],[-90.39132,38.8166,165],[-90.39129,38.81664,164],[-90.39126,38.81667,163],[-90.39123,38.8167,163],[-90.39124,38.81673,162],[-90.39121,38.81676,161],[-90.39117,38.81677,162],[-90.39112,38.81674,163],[-90.3911,38.81671,164],[-90.39106,38.81667,166],[-90.39102,38.81665,166],[-90.39096,38.81663,167],[-90.3909,38.81665,167],[-90.39086,38.81667,166],[-90.39082,38.81669,166],[-90.39086,38.8167,166],[-90.3909,38.81674,165],[-90.39089,38.81678,164],[-90.39086,38.81682,164],[-90.39078,38.81686,163],[-90.39078,38.81679,165],[-90.39081,38.81672,166],[-90.39089,38.81671,165],[-90.39095,38.81669,166],[-90.391,38.81672,165],[-90.39104,38.81676,163],[-90.39108,38.81678,162],[-90.3911,38.81681,161],[-90.39114,38.81682,161],[-90.39118,38.81681,160],[-90.39121,38.81679,160],[-90.39124,38.81678,160],[-90.39127,38.81676,160],[-90.39131,38.81674,160],[-90.39134,38.81673,160],[-90.39136,38.8167,161],[-90.39138,38.81668,161],[-90.39141,38.81665,162],[-90.39144,38.81664,161],[-90.39144,38.81661,162],[-90.39144,38.81664,161],[-90.39142,38.81669,160],[-90.39146,38.81666,160],[-90.39146,38.81662,162],[-90.39147,38.81659,162],[-90.39149,38.81656,163],[-90.39149,38.81653,164],[-90.39147,38.81651,165],[-90.39143,38.81652,165],[-90.39143,38.81655,164],[-90.39147,38.81656,163],[-90.3915,38.81654,163],[-90.39149,38.81651,164],[-90.39153,38.81649,164],[-90.39155,38.81646,164],[-90.39159,38.81643,164],[-90.39161,38.8164,165],[-90.39164,38.81637,165],[-90.39166,38.81635,165],[-90.39168,38.81633,165],[-90.39169,38.8163,166],[-90.3917,38.81627,167],[-90.39171,38.81624,168],[-90.39173,38.81621,168],[-90.39173,38.81618,169],[-90.39174,38.81615,170],[-90.39175,38.81612,171],[-90.39176,38.81609,171],[-90.39177,38.81606,172],[-90.39178,38.81603,172],[-90.39179,38.816,172],[-90.39179,38.81597,173],[-90.3918,38.81594,173],[-90.3918,38.81591,174],[-90.3918,38.81588,175],[-90.3918,38.81585,175],[-90.3918,38.81582,176],[-90.3918,38.81578,177],[-90.3918,38.81575,177],[-90.39179,38.81572,178],[-90.39178,38.81569,178],[-90.39175,38.81567,179],[-90.39171,38.81568,180],[-90.39168,38.81566,181],[-90.39164,38.81565,182],[-90.39162,38.81562,182],[-90.39159,38.81559,183],[-90.39157,38.81556,183],[-90.39155,38.81554,183],[-90.39152,38.81553,183],[-90.39149,38.81551,184],[-90.39145,38.8155,184],[-90.39141,38.81548,185],[-90.39137,38.81547,185],[-90.39132,38.81547,185],[-90.39128,38.81547,185],[-90.39125,38.81547,185],[-90.39121,38.81546,185],[-90.39117,38.81546,186],[-90.39113,38.81546,186],[-90.39109,38.81547,186],[-90.39105,38.81549,186],[-90.39102,38.8155,185],[-90.39098,38.81552,185],[-90.39094,38.81553,185],[-90.3909,38.81554,185],[-90.39086,38.81554,185],[-90.39082,38.81555,184],[-90.39079,38.81554,184],[-90.39075,38.81554,184],[-90.39071,38.81554,183],[-90.39067,38.81553,183],[-90.39064,38.81552,183],[-90.39059,38.81551,182],[-90.39055,38.81551,182],[-90.39051,38.81551,181],[-90.39047,38.8155,181],[-90.39042,38.81548,180],[-90.39039,38.81546,180],[-90.39036,38.81545,180],[-90.39032,38.81544,180],[-90.39028,38.81543,179],[-90.39024,38.81543,179],[-90.3902,38.81544,179],[-90.39016,38.81543,179],[-90.39012,38.81542,179],[-90.3901,38.81539,180],[-90.39006,38.81538,180],[-90.39003,38.81537,180],[-90.39,38.81536,180],[-90.38996,38.81535,180],[-90.38991,38.81533,181],[-90.38988,38.81532,181],[-90.38984,38.8153,182],[-90.38981,38.81528,182],[-90.38978,38.81526,183],[-90.38975,38.81525,183],[-90.38972,38.81523,184],[-90.3897,38.8152,184],[-90.38969,38.81517,185],[-90.38967,38.81514,186],[-90.38965,38.81512,186],[-90.38963,38.81509,187],[-90.3896,38.81507,187],[-90.38958,38.81506,187],[-90.38955,38.81503,188],[-90.38951,38.81502,188],[-90.38948,38.815,188],[-90.38945,38.81498,188],[-90.38943,38.81495,188],[-90.38941,38.81492,188],[-90.3894,38.81487,189],[-90.38941,38.81484,189],[-90.38942,38.8148,190],[-90.38944,38.81478,190],[-90.38945,38.81475,190],[-90.38945,38.81472,191],[-90.38943,38.81468,190],[-90.38943,38.81466,190],[-90.38942,38.81462,190],[-90.38942,38.81459,190],[-90.38943,38.81456,190],[-90.38944,38.81452,190],[-90.38945,38.81449,190],[-90.38945,38.81445,189],[-90.38945,38.81443,189],[-90.38943,38.8144,189],[-90.3894,38.81438,190],[-90.38937,38.81437,190],[-90.38934,38.81435,190],[-90.3893,38.81434,190],[-90.38927,38.81432,191],[-90.38923,38.81431,191],[-90.38919,38.81429,192],[-90.38916,38.81427,192],[-90.38912,38.81425,192],[-90.38908,38.81425,192],[-90.38904,38.81424,192],[-90.38899,38.81422,192],[-90.38896,38.81421,192],[-90.38892,38.81421,192],[-90.38888,38.8142,193],[-90.38885,38.8142,193],[-90.38881,38.81418,194],[-90.38877,38.81417,194],[-90.38874,38.81416,195],[-90.3887,38.81414,195],[-90.38867,38.81413,195],[-90.38863,38.81413,196],[-90.38859,38.81412,196],[-90.38856,38.8141,196],[-90.38852,38.81409,197],[-90.38849,38.81408,197],[-90.38844,38.81406,197],[-90.3884,38.81404,197],[-90.38836,38.81402,198],[-90.38834,38.814,198],[-90.38831,38.81399,198],[-90.38827,38.81397,198],[-90.38821,38.81395,198],[-90.38818,38.81394,198],[-90.38814,38.81394,198],[-90.38809,38.81394,199],[-90.38805,38.81394,199],[-90.38801,38.81395,199],[-90.38797,38.81395,199],[-90.38793,38.81395,199],[-90.3879,38.81396,199],[-90.38785,38.81397,199],[-90.38781,38.81398,199],[-90.38778,38.81398,199],[-90.38773,38.81398,200],[-90.38768,38.81397,200],[-90.38766,38.81395,200],[-90.38763,38.81393,200],[-90.3876,38.81391,200],[-90.38757,38.8139,200],[-90.38753,38.81388,199],[-90.38749,38.81385,199],[-90.38748,38.81382,198],[-90.38748,38.81379,198],[-90.38749,38.81377,198],[-90.38749,38.81374,197],[-90.3875,38.81371,197],[-90.3875,38.81368,196],[-90.38751,38.81364,196],[-90.38751,38.81361,196],[-90.38751,38.81358,195],[-90.38752,38.81354,195],[-90.38753,38.81351,195],[-90.38753,38.81348,195],[-90.38754,38.81345,195],[-90.38755,38.81342,194],[-90.38755,38.81339,194],[-90.38755,38.81336,194],[-90.38755,38.81333,194],[-90.38756,38.8133,194],[-90.38758,38.81328,194],[-90.38761,38.81326,194],[-90.38764,38.81327,194],[-90.38767,38.81329,194],[-90.38771,38.81328,195],[-90.38776,38.81327,195],[-90.38781,38.81326,195],[-90.38785,38.81326,195],[-90.38788,38.81327,195],[-90.38791,38.81325,194],[-90.38793,38.81322,194],[-90.38795,38.8132,194],[-90.38796,38.81317,193],[-90.38798,38.81315,193],[-90.388,38.81311,192],[-90.38802,38.81308,191],[-90.38803,38.81305,191],[-90.38803,38.81302,190],[-90.38803,38.813,190],[-90.38804,38.81296,190],[-90.38803,38.81293,189],[-90.38802,38.8129,189],[-90.38802,38.81287,189],[-90.38802,38.81284,188],[-90.38802,38.8128,188],[-90.38803,38.81277,187],[-90.38806,38.81276,187],[-90.3881,38.81276,186],[-90.38813,38.81278,185],[-90.38816,38.81276,184],[-90.38818,38.81273,183],[-90.3882,38.81271,182],[-90.38824,38.81271,181],[-90.38827,38.8127,180],[-90.38831,38.81271,179],[-90.38834,38.81272,178],[-90.38838,38.81272,177],[-90.38842,38.81272,176],[-90.38846,38.81272,174],[-90.38849,38.81271,173],[-90.38852,38.81269,172],[-90.38856,38.81267,171],[-90.38857,38.81264,170],[-90.38857,38.81262,170],[-90.38856,38.81258,170],[-90.38857,38.81255,170],[-90.38859,38.81252,169],[-90.38862,38.81251,168],[-90.38865,38.81249,168],[-90.38865,38.81246,167],[-90.38864,38.81244,167],[-90.38861,38.81241,167],[-90.3886,38.81238,167],[-90.38863,38.81236,166],[-90.38861,38.81233,165],[-90.38862,38.8123,165],[-90.38866,38.81228,164],[-90.38871,38.81227,163],[-90.38874,38.81226,163],[-90.38877,38.81224,163],[-90.38878,38.81221,162],[-90.38878,38.81218,162],[-90.38881,38.81216,161],[-90.38881,38.81213,161],[-90.38878,38.8121,161],[-90.38877,38.81207,160],[-90.38876,38.81204,160],[-90.38873,38.81203,160],[-90.38869,38.81203,161],[-90.38867,38.812,161],[-90.38867,38.81197,161],[-90.38866,38.81194,161],[-90.38863,38.81193,161],[-90.38859,38.81193,162],[-90.38857,38.8119,163],[-90.38856,38.81187,163],[-90.38855,38.81184,163],[-90.38854,38.81181,164],[-90.38856,38.81177,164],[-90.38857,38.81174,164],[-90.38858,38.81172,164],[-90.3886,38.81168,164],[-90.38863,38.81166,164],[-90.38866,38.81164,164],[-90.38868,38.81161,163],[-90.38871,38.81159,163],[-90.38873,38.81157,162],[-90.38874,38.81154,162],[-90.38876,38.81151,161],[-90.38881,38.8115,160],[-90.38885,38.81151,159],[-90.38888,38.81153,159],[-90.38891,38.81156,158],[-90.38893,38.81154,157],[-90.38895,38.81151,157],[-90.38898,38.8115,156],[-90.38902,38.8115,155],[-90.38905,38.81148,154],[-90.38907,38.81145,154],[-90.3891,38.81142,153],[-90.38915,38.8114,152],[-90.38918,38.81141,152],[-90.38921,38.81138,152],[-90.38922,38.81135,152],[-90.38925,38.81133,152],[-90.3893,38.81134,152],[-90.38934,38.81134,152],[-90.38936,38.81132,152],[-90.38937,38.81129,152],[-90.38938,38.81126,152],[-90.3894,38.81123,152],[-90.38943,38.81121,152],[-90.38945,38.81118,151],[-90.38947,38.81116,151],[-90.3895,38.81114,151],[-90.38953,38.81112,151],[-90.38957,38.81112,151],[-90.38961,38.81112,151],[-90.38965,38.81113,151],[-90.38969,38.81114,151],[-90.38973,38.81115,150],[-90.38977,38.81115,150],[-90.38981,38.81115,149],[-90.38984,38.81113,149],[-90.38987,38.81111,148],[-90.38991,38.8111,148],[-90.38995,38.81111,147],[-90.39,38.81111,147],[-90.39004,38.81111,146],[-90.39009,38.81111,145],[-90.39013,38.81112,145],[-90.39017,38.81113,144],[-90.39021,38.81114,143],[-90.39025,38.81114,143],[-90.39028,38.81114,142],[-90.39031,38.81114,142],[-90.39035,38.81114,142],[-90.39038,38.81115,142],[-90.39042,38.81117,142],[-90.39046,38.81118,142],[-90.39047,38.81121,142],[-90.3905,38.81122,142],[-90.39054,38.81124,142],[-90.39058,38.81125,142],[-90.3906,38.81123,142],[-90.39063,38.81121,142],[-90.39067,38.81121,142],[-90.39069,38.81124,142],[-90.39072,38.81121,141],[-90.39075,38.81119,141],[-90.39078,38.81116,141],[-90.39082,38.81116,141],[-90.39083,38.81119,141],[-90.39085,38.81122,141],[-90.39087,38.81124,141],[-90.3909,38.81126,141],[-90.39093,38.81128,141],[-90.39096,38.8113,141],[-90.39099,38.81133,141],[-90.39102,38.81135,141],[-90.39105,38.81137,141],[-90.39107,38.8114,141],[-90.39109,38.81142,141],[-90.39111,38.81145,141],[-90.39112,38.81148,142],[-90.39111,38.81151,142],[-90.39111,38.81154,143],[-90.3911,38.81157,143],[-90.39108,38.81159,144],[-90.39105,38.81162,144],[-90.39102,38.81164,145],[-90.391,38.81167,145],[-90.39098,38.81169,146],[-90.39097,38.81172,146],[-90.39095,38.81174,147],[-90.39095,38.81177,147],[-90.39095,38.8118,148],[-90.39096,38.81184,148],[-90.39096,38.81187,149],[-90.39097,38.81191,149],[-90.39097,38.81194,150],[-90.39097,38.81197,150],[-90.39095,38.812,150],[-90.39095,38.81203,150],[-90.39094,38.81206,149],[-90.39091,38.81207,149],[-90.3909,38.8121,149],[-90.39089,38.81214,149],[-90.39091,38.81218,149],[-90.39092,38.81222,149],[-90.39094,38.81226,148],[-90.39095,38.81229,147],[-90.39097,38.81232,147],[-90.39098,38.81235,146],[-90.391,38.81238,145],[-90.39101,38.81241,144],[-90.39102,38.81244,143],[-90.39103,38.81247,142],[-90.39102,38.8125,141],[-90.39102,38.81253,142],[-90.39102,38.81256,143],[-90.39099,38.81257,143],[-90.39103,38.81261,144],[-90.39105,38.81265,144],[-90.39106,38.8127,145],[-90.39105,38.81273,146],[-90.39107,38.81276,147],[-90.39109,38.81279,147],[-90.39111,38.81281,147],[-90.39113,38.81284,148],[-90.39114,38.81287,148],[-90.39116,38.8129,149],[-90.39118,38.81293,149],[-90.39119,38.81295,150],[-90.39121,38.81298,150],[-90.3912,38.81301,151],[-90.39122,38.81304,152],[-90.39124,38.81307,152],[-90.39127,38.81309,151],[-90.39128,38.81312,151],[-90.39131,38.81315,151],[-90.39133,38.81318,151],[-90.39135,38.81321,151],[-90.39139,38.81324,150],[-90.39143,38.81326,149],[-90.39147,38.81327,149],[-90.3915,38.81329,149],[-90.39154,38.8133,148],[-90.39157,38.81332,148],[-90.39161,38.81334,147],[-90.39164,38.81337,146],[-90.39166,38.8134,146],[-90.39167,38.81343,145],[-90.39168,38.81346,145],[-90.39169,38.81349,144],[-90.3917,38.81351,144],[-90.3917,38.81354,143],[-90.39172,38.81358,142],[-90.39174,38.81361,142],[-90.39177,38.81364,142],[-90.39178,38.81367,142],[-90.3918,38.8137,142],[-90.39183,38.81373,141],[-90.39187,38.81375,141],[-90.3919,38.81377,140],[-90.39194,38.81377,139],[-90.39196,38.8138,138],[-90.39198,38.81383,138],[-90.39201,38.81385,137],[-90.39204,38.81388,136],[-90.39206,38.8139,136],[-90.3921,38.81392,137],[-90.39214,38.81394,137],[-90.39217,38.81395,137],[-90.3922,38.81397,138],[-90.39223,38.814,140],[-90.39226,38.81401,141],[-90.3923,38.81402,142],[-90.39233,38.81401,141],[-90.39235,38.81398,140],[-90.39235,38.81394,137],[-90.39236,38.81391,136],[-90.39238,38.81388,135],[-90.3924,38.81385,136],[-90.39243,38.81385,137],[-90.39247,38.81385,137],[-90.39248,38.81381,138],[-90.39249,38.81377,138],[-90.39249,38.81373,138],[-90.39249,38.8137,138],[-90.39249,38.81367,138],[-90.3925,38.81364,138],[-90.39251,38.8136,138],[-90.39253,38.81357,138],[-90.39254,38.81353,138],[-90.39256,38.8135,137],[-90.39258,38.81347,137],[-90.39261,38.81344,137],[-90.39263,38.81342,136],[-90.39265,38.81338,136],[-90.39268,38.81335,135],[-90.39271,38.81332,135],[-90.39274,38.8133,135],[-90.39277,38.81327,134],[-90.39279,38.81324,134],[-90.3928,38.81321,134],[-90.39282,38.81319,134],[-90.39284,38.81317,134],[-90.39287,38.81315,133],[-90.3929,38.81312,133],[-90.39293,38.8131,133],[-90.39296,38.81308,133],[-90.39299,38.81306,133],[-90.39302,38.81304,133],[-90.39306,38.81302,133],[-90.3931,38.813,133],[-90.39314,38.81298,133],[-90.39318,38.81295,133],[-90.39321,38.81293,133],[-90.39325,38.81291,134],[-90.39328,38.81289,134],[-90.39331,38.81287,134],[-90.39334,38.81286,134],[-90.39337,38.81284,134],[-90.3934,38.81282,134],[-90.39342,38.8128,134],[-90.39345,38.81278,134],[-90.39349,38.81277,134],[-90.39352,38.81275,134],[-90.39356,38.81274,134],[-90.3936,38.81272,134],[-90.39364,38.8127,134],[-90.39366,38.81268,134],[-90.39369,38.81265,135],[-90.39372,38.81262,135],[-90.39375,38.8126,135],[-90.39379,38.81258,135],[-90.39382,38.81256,136],[-90.39385,38.81254,136],[-90.39388,38.81252,136],[-90.39391,38.8125,137],[-90.39395,38.81248,137],[-90.39397,38.81246,137],[-90.394,38.81243,137],[-90.39403,38.81241,137],[-90.39405,38.81238,137],[-90.39409,38.81236,137],[-90.39411,38.81234,137],[-90.39415,38.81231,137],[-90.39418,38.81229,137],[-90.3942,38.81226,137],[-90.39423,38.81223,137],[-90.39427,38.81221,138],[-90.3943,38.81219,138],[-90.39432,38.81216,138],[-90.39434,38.81214,138],[-90.39437,38.81211,138],[-90.3944,38.81209,138],[-90.39444,38.81206,138],[-90.39448,38.81203,137],[-90.39451,38.812,137],[-90.39454,38.81198,137],[-90.39457,38.81197,137],[-90.39459,38.81194,137],[-90.39462,38.81192,137],[-90.39466,38.8119,136],[-90.39469,38.81187,136],[-90.39471,38.81184,135],[-90.39474,38.81181,135],[-90.39478,38.81179,135],[-90.39481,38.81177,134],[-90.39484,38.81175,134],[-90.39487,38.81173,134],[-90.39491,38.81171,133],[-90.39495,38.81169,133],[-90.39497,38.81167,133],[-90.395,38.81165,132],[-90.39504,38.81163,132],[-90.39507,38.81161,132],[-90.39511,38.81159,132],[-90.39514,38.81157,132],[-90.39513,38.81154,132],[-90.39514,38.81151,132],[-90.39518,38.8115,132],[-90.39515,38.81152,132],[-90.39514,38.81149,132],[-90.3952,38.81149,132],[-90.39521,38.81153,132],[-90.39517,38.81153,132],[-90.39516,38.8115,132],[-90.3952,38.81151,132],[-90.39519,38.81156,132],[-90.39518,38.81157,132]]],
        "bbox": [
          -90.38748,
          38.81686,
          -90.39521,
          38.8111
        ]
      },
      "properties": {
        "name": "2.2.2025"
      }
    }
  ]
}