{
  "type": "FeatureCollection",
  "features": [
    {
      "type": "Feature",
      "geometry": {
        "type": "MultiLineString",
        "coordinates": [[[-90.39422,38.8123,137],[-90.39419,38.81233,137],[-90.39416,38.81235,137],[-90.39413,38.81237,137],[-90.39412,38.8124,137],[-90.39408,38.8124,137],[-90.39405,38.81241,137],[-90.39402,38.81243,137],[-90.394,38.81245,137],[-90.39398,38.81248,137],[-90.39395,38.8125,137],[-90.39393,38.81252,136],[-90.3939,38.81254,136],[-90.39387,38.81256,136],[-90.39385,38.81257,136],[-90.39382,38.81259,135],[-90.39379,38.81261,135],[-90.39376,38.81262,135],[-90.39373,38.81264,135],[-90.3937,38.81266,134],[-90.39368,38.81268,134],[-90.39365,38.8127,134],[-90.39362,38.81271,134],[-90.39359,38.81274,134],[-90.39357,38.81275,134],[-90.39353,38.81277,134],[-90.39351,38.81279,134],[-90.39347,38.81281,134],[-90.39344,38.81282,134],[-90.39341,38.81284,134],[-90.39338,38.81286,134],[-90.39335,38.81288,134],[-90.39333,38.8129,134],[-90.3933,38.81292,133],[-90.39327,38.81294,133],[-90.39325,38.81296,133],[-90.39322,38.81298,133],[-90.39319,38.813,133],[-90.39317,38.81302,133],[-90.39315,38.81304,133],[-90.39312,38.81306,132],[-90.39309,38.81309,132],[-90.39307,38.81311,132],[-90.39305,38.81313,133],[-90.39302,38.81315,133],[-90.393,38.81318,133],[-90.39297,38.8132,133],[-90.39294,38.81322,133],[-90.39292,38.81324,133],[-90.39289,38.81326,134],[-90.39286,38.81328,134],[-90.39283,38.8133,134],[-90.39281,38.81331,134],[-90.39278,38.81333,135],[-90.39275,38.81335,135],[-90.39272,38.81337,135],[-90.3927,38.8134,136],[-90.39269,38.81342,136],[-90.39268,38.81345,136],[-90.39267,38.81348,137],[-90.39265,38.81351,137],[-90.39263,38.81353,137],[-90.39261,38.81356,138],[-90.3926,38.81358,138],[-90.39258,38.81362,138],[-90.39256,38.81364,138],[-90.39255,38.81367,138],[-90.39255,38.8137,138],[-90.39254,38.81373,138],[-90.39253,38.81376,138],[-90.39252,38.81378,138],[-90.3925,38.81381,138],[-90.39248,38.81383,137],[-90.39246,38.81386,137],[-90.39244,38.81388,136],[-90.39242,38.81391,137],[-90.3924,38.81393,138],[-90.39239,38.81396,139],[-90.39237,38.81399,141],[-90.39235,38.81401,141],[-90.39233,38.81404,143],[-90.3923,38.81405,143],[-90.39227,38.81407,145],[-90.39224,38.81409,146],[-90.3922,38.81409,146],[-90.39217,38.8141,146],[-90.39213,38.81411,147],[-90.3921,38.81412,148],[-90.39207,38.81413,149],[-90.39203,38.81413,149],[-90.392,38.81415,151],[-90.39196,38.81415,151],[-90.39192,38.81415,151],[-90.39189,38.81416,152],[-90.39185,38.81417,154],[-90.39186,38.8142,155],[-90.39184,38.81422,156],[-90.3918,38.81423,157],[-90.39178,38.81425,158],[-90.3918,38.81427,158],[-90.39182,38.8143,158],[-90.39182,38.81432,159],[-90.39182,38.81435,159],[-90.39183,38.81438,160],[-90.39182,38.81441,161],[-90.39181,38.81443,162],[-90.39183,38.81446,162],[-90.39183,38.81449,162],[-90.39184,38.81452,163],[-90.39186,38.81454,162],[-90.39189,38.81456,162],[-90.39191,38.81458,162],[-90.39192,38.81461,162],[-90.39193,38.81464,162],[-90.39193,38.81467,162],[-90.39192,38.8147,163],[-90.39193,38.81472,163],[-90.39194,38.81475,163],[-90.39195,38.81477,163],[-90.39196,38.8148,163],[-90.39197,38.81483,163],[-90.39196,38.81486,164],[-90.39194,38.81488,164],[-90.39192,38.81491,165],[-90.39192,38.81494,166],[-90.39194,38.81496,165],[-90.39196,38.81498,165],[-90.39198,38.81501,165],[-90.392,38.81503,165],[-90.39202,38.81506,166],[-90.39203,38.81508,166],[-90.39203,38.81511,167],[-90.39201,38.81514,169],[-90.39201,38.81517,170],[-90.392,38.81519,171],[-90.39199,38.81522,172],[-90.39198,38.81525,173],[-90.39197,38.81527,175],[-90.39198,38.8153,175],[-90.39197,38.81533,175],[-90.39198,38.81536,175],[-90.39199,38.81539,175],[-90.392,38.81542,175],[-90.39201,38.81544,174],[-90.39201,38.81547,174],[-90.39201,38.8155,174],[-90.392,38.81553,175],[-90.392,38.81556,175],[-90.39198,38.81558,175],[-90.39196,38.8156,176],[-90.39195,38.81563,175],[-90.39195,38.81566,175],[-90.39193,38.81568,175],[-90.39189,38.81568,176],[-90.39186,38.81567,177],[-90.39182,38.81568,178],[-90.39179,38.81568,178],[-90.39175,38.81569,179],[-90.39172,38.8157,180],[-90.39168,38.81571,181],[-90.39165,38.81569,181],[-90.39162,38.81568,181],[-90.3916,38.81565,182],[-90.39157,38.81562,182],[-90.39155,38.8156,183],[-90.39153,38.81558,183],[-90.3915,38.81555,184],[-90.39148,38.81553,184],[-90.39145,38.81551,184],[-90.39143,38.81549,184],[-90.3914,38.81546,185],[-90.39137,38.81545,185],[-90.39134,38.81544,185],[-90.3913,38.81543,185],[-90.39126,38.81542,185],[-90.39122,38.81542,186],[-90.39119,38.81542,186],[-90.39115,38.81542,186],[-90.39111,38.81542,186],[-90.39107,38.81543,186],[-90.39103,38.81544,186],[-90.391,38.81546,186],[-90.39096,38.81548,185],[-90.39092,38.81549,185],[-90.39089,38.8155,185],[-90.39085,38.81551,185],[-90.39081,38.81551,185],[-90.39077,38.81551,184],[-90.39073,38.81551,184],[-90.39069,38.81551,183],[-90.39065,38.81551,183],[-90.39061,38.81551,182],[-90.39057,38.8155,182],[-90.39054,38.81549,182],[-90.3905,38.81549,181],[-90.39046,38.81549,181],[-90.39043,38.81548,180],[-90.39039,38.81547,180],[-90.39036,38.81545,180],[-90.39033,38.81544,180],[-90.3903,38.81542,180],[-90.39026,38.81541,180],[-90.39023,38.81539,180],[-90.39019,38.81538,180],[-90.39016,38.81537,180],[-90.39012,38.81536,180],[-90.39009,38.81535,180],[-90.39005,38.81533,181],[-90.39002,38.81532,181],[-90.38998,38.81531,181],[-90.38995,38.81529,181],[-90.38992,38.81527,182],[-90.3899,38.81525,183],[-90.38987,38.81523,183],[-90.38984,38.81521,184],[-90.38982,38.81519,184],[-90.38979,38.81517,185],[-90.38976,38.81515,185],[-90.38974,38.81513,186],[-90.38972,38.81511,186],[-90.38969,38.81508,187],[-90.38967,38.81506,187],[-90.38964,38.81504,188],[-90.38961,38.81502,188],[-90.38958,38.815,188],[-90.38956,38.81497,188],[-90.38954,38.81495,188],[-90.38952,38.81493,189],[-90.38951,38.8149,189],[-90.3895,38.81487,189],[-90.38949,38.81484,189],[-90.38948,38.81481,190],[-90.38948,38.81478,190],[-90.38948,38.81475,190],[-90.38948,38.81472,191],[-90.38948,38.81469,190],[-90.38949,38.81466,190],[-90.38949,38.81463,190],[-90.3895,38.8146,190],[-90.3895,38.81457,190],[-90.38951,38.81454,190],[-90.38951,38.81451,190],[-90.38951,38.81448,189],[-90.38952,38.81445,189],[-90.38952,38.81442,189],[-90.38951,38.81439,189],[-90.38949,38.81437,189],[-90.38946,38.81435,189],[-90.38944,38.81433,189],[-90.3894,38.81431,189],[-90.38937,38.81429,189],[-90.38934,38.81427,190],[-90.38931,38.81426,190],[-90.38927,38.81425,191],[-90.38924,38.81425,191],[-90.3892,38.81424,192],[-90.38916,38.81423,192],[-90.38913,38.81422,192],[-90.38909,38.8142,192],[-90.38906,38.81419,192],[-90.38903,38.81418,192],[-90.38899,38.81418,192],[-90.38895,38.81417,192],[-90.38891,38.81417,192],[-90.38887,38.81417,193],[-90.38883,38.81417,193],[-90.3888,38.81416,194],[-90.38876,38.81415,194],[-90.38873,38.81414,195],[-90.38869,38.81413,195],[-90.38865,38.81412,196],[-90.38862,38.81411,196],[-90.38858,38.8141,196],[-90.38854,38.81409,197],[-90.38851,38.81407,197],[-90.38848,38.81406,197],[-90.38845,38.81404,197],[-90.38841,38.81403,197],[-90.38838,38.81401,197],[-90.38835,38.814,198],[-90.38831,38.81399,198],[-90.38828,38.81397,198],[-90.38825,38.81395,198],[-90.38822,38.81393,198],[-90.38818,38.81393,198],[-90.38815,38.81393,198],[-90.38811,38.81393,198],[-90.38807,38.81393,199],[-90.38803,38.81394,199],[-90.388,38.81394,199],[-90.38796,38.81395,199],[-90.38792,38.81395,199],[-90.38789,38.81396,199],[-90.38785,38.81397,199],[-90.38781,38.81397,199],[-90.38778,38.81398,199],[-90.38774,38.81398,200],[-90.3877,38.81398,200],[-90.38766,38.81398,200],[-90.38762,38.81398,200],[-90.38759,38.81399,200],[-90.38755,38.81401,200],[-90.38751,38.81401,200],[-90.38747,38.81402,200],[-90.38744,38.81402,200],[-90.3874,38.81402,200],[-90.38736,38.81402,200],[-90.38732,38.81403,200],[-90.38728,38.81403,200],[-90.38724,38.81404,200],[-90.38721,38.81405,200],[-90.38717,38.81406,200],[-90.38713,38.81406,200],[-90.3871,38.81406,200],[-90.38706,38.81406,200],[-90.38703,38.81407,200],[-90.38699,38.81408,201],[-90.38695,38.81408,201],[-90.38692,38.81409,201],[-90.38689,38.8141,201],[-90.38685,38.8141,200],[-90.38681,38.81411,200],[-90.38678,38.81412,200],[-90.38674,38.81412,200],[-90.3867,38.81412,200],[-90.38666,38.81412,200],[-90.38662,38.81412,200],[-90.38659,38.81412,199],[-90.38655,38.81413,199],[-90.38651,38.81413,199],[-90.38648,38.81413,199],[-90.38644,38.81414,199],[-90.38642,38.81417,199],[-90.38644,38.81419,199],[-90.38648,38.8142,200],[-90.38647,38.81417,199],[-90.38647,38.81414,199],[-90.3865,38.81412,199],[-90.38653,38.81411,199],[-90.38658,38.8141,199],[-90.38661,38.81409,199],[-90.38665,38.81409,200],[-90.38669,38.81409,200],[-90.38674,38.81408,200],[-90.38677,38.81408,200],[-90.38682,38.81408,200],[-90.38686,38.81408,200],[-90.3869,38.81409,201],[-90.38694,38.8141,201],[-90.38697,38.8141,201],[-90.38702,38.81409,201],[-90.38706,38.81408,201],[-90.3871,38.81407,200],[-90.38715,38.81407,200],[-90.38719,38.81406,200],[-90.38723,38.81405,200],[-90.38727,38.81404,200],[-90.38731,38.81404,200],[-90.38735,38.81403,200],[-90.3874,38.81403,200],[-90.38744,38.81403,200],[-90.38748,38.81402,200],[-90.38752,38.81402,200],[-90.38756,38.81401,200],[-90.3876,38.81401,200],[-90.38764,38.814,200],[-90.38768,38.814,200],[-90.38772,38.81399,200],[-90.38777,38.81398,200],[-90.38781,38.81398,199],[-90.38784,38.81398,199],[-90.38788,38.81398,199],[-90.38791,38.81398,199],[-90.38795,38.81397,199],[-90.38799,38.81396,199],[-90.38803,38.81396,199],[-90.38807,38.81396,199],[-90.38811,38.81396,199],[-90.38815,38.81396,198],[-90.38819,38.81397,198],[-90.38822,38.81397,198],[-90.38826,38.81398,198],[-90.3883,38.814,198],[-90.38833,38.81401,198],[-90.38838,38.81403,198],[-90.38841,38.81404,197],[-90.38845,38.81406,197],[-90.38849,38.81407,197],[-90.38852,38.81408,197],[-90.38856,38.81409,196],[-90.3886,38.81411,196],[-90.38863,38.81412,196],[-90.38867,38.81413,195],[-90.3887,38.81415,195],[-90.38874,38.81416,195],[-90.38878,38.81417,194],[-90.38882,38.81419,194],[-90.38885,38.8142,193],[-90.38889,38.81421,192],[-90.38893,38.81421,192],[-90.38896,38.81422,192],[-90.389,38.81422,192],[-90.38904,38.81423,192],[-90.38907,38.81423,192],[-90.38911,38.81424,192],[-90.38914,38.81426,192],[-90.38918,38.81428,192],[-90.38922,38.8143,191],[-90.38925,38.81431,191],[-90.38928,38.81433,191],[-90.38932,38.81434,190],[-90.38935,38.81436,190],[-90.38938,38.81437,190],[-90.38942,38.81439,189],[-90.38944,38.81441,189],[-90.38947,38.81443,189],[-90.38948,38.81446,189],[-90.38949,38.8145,190],[-90.38949,38.81453,190],[-90.38949,38.81455,190],[-90.3895,38.81458,190],[-90.3895,38.81461,190],[-90.3895,38.81464,190],[-90.3895,38.81467,190],[-90.3895,38.8147,191],[-90.3895,38.81473,191],[-90.3895,38.81476,190],[-90.3895,38.81478,190],[-90.3895,38.81481,190],[-90.38951,38.81484,189],[-90.38952,38.81487,189],[-90.38953,38.8149,189],[-90.38955,38.81493,189],[-90.38957,38.81495,189],[-90.3896,38.81498,188],[-90.38963,38.815,188],[-90.38965,38.81502,188],[-90.38967,38.81504,188],[-90.38969,38.81506,187],[-90.38971,38.81509,187],[-90.38973,38.81511,186],[-90.38976,38.81514,185],[-90.38978,38.81517,185],[-90.38981,38.81519,184],[-90.38985,38.81521,184],[-90.38988,38.81523,183],[-90.38991,38.81525,182],[-90.38994,38.81527,182],[-90.38997,38.81529,181],[-90.39001,38.81531,181],[-90.39003,38.81533,181],[-90.39006,38.81534,180],[-90.3901,38.81536,180],[-90.39014,38.81537,180],[-90.39017,38.81538,180],[-90.3902,38.81539,180],[-90.39024,38.81541,180],[-90.39027,38.81542,179],[-90.3903,38.81543,180],[-90.39034,38.81544,180],[-90.39037,38.81545,180],[-90.3904,38.81547,180],[-90.39043,38.81548,180],[-90.39047,38.81549,181],[-90.3905,38.81549,181],[-90.39055,38.8155,182],[-90.39059,38.81551,182],[-90.39063,38.81551,183],[-90.39067,38.81552,183],[-90.39071,38.81552,183],[-90.39075,38.81552,184],[-90.39078,38.81553,184],[-90.39082,38.81553,185],[-90.39086,38.81553,185],[-90.3909,38.81552,185],[-90.39093,38.81551,185],[-90.39097,38.81549,185],[-90.391,38.81548,185],[-90.39104,38.81548,186],[-90.39108,38.81547,186],[-90.39113,38.81547,186],[-90.39116,38.81547,186],[-90.3912,38.81547,185],[-90.39123,38.81548,185],[-90.39127,38.81548,185],[-90.39131,38.81549,185],[-90.39136,38.8155,185],[-90.39139,38.81552,185],[-90.39143,38.81553,184],[-90.39146,38.81555,184],[-90.39148,38.81557,184],[-90.3915,38.8156,183],[-90.39153,38.81562,183],[-90.39156,38.81564,182],[-90.3916,38.81566,182],[-90.39164,38.81568,181],[-90.39168,38.81569,181],[-90.39171,38.81572,180],[-90.39172,38.81574,179],[-90.39172,38.81578,179],[-90.39172,38.81581,178],[-90.39172,38.81584,178],[-90.39172,38.81587,177],[-90.39172,38.8159,176],[-90.39171,38.81593,176],[-90.39171,38.81597,175],[-90.39171,38.81599,175],[-90.3917,38.81602,174],[-90.3917,38.81605,174],[-90.39169,38.81608,173],[-90.39169,38.81611,173],[-90.39168,38.81615,172],[-90.39167,38.81617,171],[-90.39166,38.81621,170],[-90.39166,38.81623,169],[-90.39165,38.81627,168],[-90.39165,38.8163,167],[-90.39164,38.81633,166],[-90.39162,38.81636,166],[-90.39159,38.81639,165],[-90.39157,38.81642,165],[-90.39155,38.81645,165],[-90.39152,38.81647,165],[-90.3915,38.8165,164],[-90.39148,38.81653,164],[-90.39147,38.81656,163],[-90.39144,38.81658,163],[-90.39141,38.81659,164],[-90.39138,38.81661,163],[-90.39135,38.81663,163],[-90.39133,38.81666,163],[-90.39131,38.81668,162],[-90.39129,38.81671,162],[-90.39127,38.81673,161],[-90.39124,38.81675,161],[-90.39121,38.81676,161],[-90.39118,38.81677,161],[-90.39115,38.81679,161],[-90.39112,38.81678,162],[-90.3911,38.81675,163],[-90.39106,38.81674,164],[-90.39103,38.81672,164],[-90.391,38.8167,165],[-90.39097,38.81668,166],[-90.39092,38.81669,166],[-90.39089,38.81672,165],[-90.39084,38.81674,165],[-90.39081,38.81676,165],[-90.39077,38.81677,165],[-90.39074,38.81677,165],[-90.3907,38.81678,165],[-90.39066,38.81679,165],[-90.39062,38.81681,165],[-90.3906,38.81684,165],[-90.3906,38.81686,165],[-90.39057,38.81689,165],[-90.39054,38.81687,165],[-90.39051,38.81689,165],[-90.39048,38.81691,165],[-90.3905,38.81694,165],[-90.3905,38.81697,164],[-90.39052,38.817,163],[-90.39053,38.81702,162],[-90.39055,38.81705,161],[-90.39056,38.81707,160],[-90.39056,38.8171,159],[-90.39054,38.81713,159],[-90.39054,38.81716,158],[-90.39051,38.81716,158],[-90.3905,38.81719,157],[-90.39049,38.81722,156],[-90.39048,38.81724,155],[-90.39048,38.81728,154],[-90.39049,38.8173,153],[-90.39051,38.81732,152],[-90.39052,38.81735,151],[-90.39054,38.81738,150],[-90.39055,38.8174,149],[-90.39057,38.81743,148],[-90.39056,38.81746,147],[-90.39055,38.81749,146],[-90.39052,38.81751,146],[-90.3905,38.81753,145],[-90.39048,38.81755,145],[-90.39046,38.81758,145],[-90.39043,38.8176,145],[-90.39041,38.81763,144],[-90.39037,38.81765,144],[-90.39034,38.81766,144],[-90.39031,38.81768,144],[-90.39028,38.81769,144],[-90.39024,38.8177,145],[-90.39021,38.81772,145],[-90.39019,38.81774,145],[-90.39016,38.81776,145],[-90.39013,38.81777,145],[-90.3901,38.81779,146],[-90.39006,38.81779,146],[-90.39002,38.8178,147],[-90.38999,38.81781,147],[-90.38995,38.81781,147],[-90.38991,38.81782,148],[-90.38987,38.81783,148],[-90.38984,38.81784,148],[-90.3898,38.81784,149],[-90.38976,38.81784,149],[-90.38973,38.81785,149],[-90.38969,38.81786,150],[-90.38966,38.81788,149],[-90.38963,38.81789,149],[-90.38959,38.81791,149],[-90.38956,38.81792,149],[-90.38952,38.81793,149],[-90.38949,38.81795,149],[-90.38945,38.81796,149],[-90.38942,38.81796,149],[-90.38938,38.81797,149],[-90.38935,38.81797,150],[-90.38931,38.81798,150],[-90.38928,38.81798,150],[-90.38924,38.81798,151],[-90.3892,38.81798,151],[-90.38917,38.81798,152],[-90.38913,38.81799,153],[-90.38911,38.81801,153],[-90.38908,38.81803,153],[-90.38905,38.81804,153],[-90.38901,38.81805,154],[-90.38898,38.81806,154],[-90.389,38.81808,153],[-90.38897,38.81806,154],[-90.38894,38.81805,155],[-90.38891,38.81803,157],[-90.38887,38.81802,158],[-90.38884,38.81802,159],[-90.3888,38.81802,159],[-90.38877,38.81803,160],[-90.38873,38.81804,160],[-90.3887,38.81805,161],[-90.38866,38.81806,161],[-90.38862,38.81807,162],[-90.38859,38.81808,161],[-90.38856,38.8181,161],[-90.38854,38.81813,159],[-90.38853,38.81815,159],[-90.38851,38.81818,157],[-90.3885,38.8182,156],[-90.38848,38.81823,155],[-90.38846,38.81825,154],[-90.38844,38.81827,153],[-90.38842,38.8183,151],[-90.38841,38.81832,150],[-90.3884,38.81835,149],[-90.38839,38.81838,148],[-90.38839,38.81841,146],[-90.38838,38.81844,145],[-90.38838,38.81847,144],[-90.38837,38.8185,142],[-90.38836,38.81853,141],[-90.38833,38.81855,140],[-90.38831,38.81857,140],[-90.38828,38.81859,139],[-90.38825,38.8186,139],[-90.38822,38.81862,139],[-90.38818,38.81863,140],[-90.38815,38.81865,140],[-90.38812,38.81866,140],[-90.38809,38.81867,140],[-90.38805,38.81869,141],[-90.38802,38.8187,141],[-90.38798,38.81871,141],[-90.38795,38.81873,142],[-90.38791,38.81875,142],[-90.38788,38.81877,142],[-90.38784,38.81879,142],[-90.38782,38.8188,142],[-90.38779,38.81882,142],[-90.38775,38.81884,142],[-90.38773,38.81886,142],[-90.38772,38.81889,141],[-90.38771,38.81891,141],[-90.3877,38.81894,140],[-90.3877,38.81891,141],[-90.38768,38.81889,141],[-90.38764,38.81887,142],[-90.38761,38.81888,142],[-90.38758,38.81889,141],[-90.38755,38.81891,141],[-90.38753,38.81894,140],[-90.38751,38.81896,139],[-90.38749,38.81898,139],[-90.38747,38.81901,138],[-90.38744,38.81903,137],[-90.38741,38.81905,136],[-90.38738,38.81906,136],[-90.38735,38.81908,135],[-90.38733,38.8191,135],[-90.3873,38.81912,134],[-90.38727,38.81913,133],[-90.38724,38.81915,132],[-90.38721,38.81917,132],[-90.38718,38.81919,132],[-90.38716,38.81921,132],[-90.38714,38.81924,132],[-90.3871,38.81925,132],[-90.38707,38.81926,132],[-90.38703,38.81926,132],[-90.387,38.81928,132],[-90.38697,38.8193,132],[-90.38693,38.81931,132],[-90.3869,38.81932,132],[-90.38687,38.81934,132],[-90.38685,38.81936,132],[-90.38682,38.81938,132],[-90.38679,38.8194,132],[-90.38676,38.81942,132],[-90.38672,38.81943,132],[-90.3867,38.81945,131],[-90.38667,38.81946,131],[-90.38664,38.81947,131],[-90.3866,38.81948,131],[-90.38657,38.8195,131],[-90.38654,38.8195,131],[-90.3865,38.81951,131],[-90.38648,38.81953,131],[-90.38644,38.81953,131],[-90.38641,38.81954,131],[-90.38637,38.81954,131],[-90.38633,38.81956,131],[-90.3863,38.81957,132],[-90.38626,38.81957,133],[-90.38623,38.81958,133],[-90.38619,38.81959,133],[-90.38616,38.8196,133],[-90.38613,38.8196,134],[-90.38609,38.8196,134],[-90.38605,38.81961,134],[-90.38602,38.8196,134],[-90.38598,38.8196,135],[-90.38595,38.81962,134],[-90.38592,38.81963,134],[-90.38588,38.81963,134],[-90.38585,38.81964,134],[-90.38581,38.81964,134],[-90.38578,38.81963,134],[-90.38575,38.81961,135],[-90.38573,38.81964,134],[-90.3857,38.81964,134],[-90.38566,38.81963,134],[-90.38563,38.81962,135],[-90.38559,38.8196,135],[-90.38557,38.81958,136],[-90.38554,38.81956,137],[-90.38551,38.81954,138],[-90.38549,38.81951,139],[-90.38546,38.8195,139],[-90.38543,38.81949,140],[-90.38539,38.81949,140],[-90.38535,38.81949,140],[-90.38531,38.81948,140],[-90.38528,38.81947,141],[-90.38524,38.81946,141],[-90.38521,38.81946,141],[-90.38517,38.81946,140],[-90.38513,38.81946,140],[-90.38509,38.81945,141],[-90.38506,38.81945,141],[-90.38502,38.81945,140],[-90.38498,38.81944,141],[-90.38494,38.81943,141],[-90.3849,38.81942,141],[-90.38487,38.81941,141],[-90.38483,38.81941,141],[-90.38479,38.8194,142],[-90.38476,38.81939,142],[-90.38472,38.81939,142],[-90.38468,38.81938,142],[-90.38465,38.81937,143],[-90.38461,38.81936,143],[-90.38457,38.81935,143],[-90.38452,38.81935,143],[-90.38449,38.81935,144],[-90.38445,38.81935,144],[-90.38441,38.81934,144],[-90.38437,38.81934,145],[-90.38434,38.81933,145],[-90.3843,38.81933,145],[-90.38426,38.81932,146],[-90.38422,38.81933,146],[-90.38422,38.81936,146],[-90.38422,38.81939,145],[-90.38422,38.81942,145],[-90.38421,38.81944,144],[-90.3842,38.81947,143],[-90.38419,38.8195,142],[-90.38419,38.81953,140],[-90.38418,38.81956,139],[-90.38417,38.81958,138],[-90.38416,38.81961,136],[-90.38414,38.81963,135],[-90.38411,38.81965,134],[-90.38408,38.81967,133],[-90.38409,38.81964,135],[-90.38412,38.81962,136],[-90.38414,38.8196,137],[-90.38415,38.81958,138],[-90.38417,38.81955,139],[-90.38417,38.81952,141],[-90.38417,38.81949,142],[-90.38416,38.81946,144],[-90.38415,38.81943,145],[-90.38416,38.81941,145],[-90.38416,38.81938,146],[-90.38417,38.81935,146],[-90.3842,38.81933,146],[-90.38422,38.81931,146],[-90.38426,38.8193,146],[-90.38429,38.8193,146],[-90.38434,38.81931,145],[-90.38437,38.81932,145],[-90.3844,38.81933,145],[-90.38444,38.81934,144],[-90.38447,38.81935,144],[-90.38451,38.81936,143],[-90.38454,38.81936,143],[-90.38458,38.81937,143],[-90.38462,38.81937,143],[-90.38465,38.81937,143],[-90.38469,38.81937,142],[-90.38473,38.81938,142],[-90.38477,38.81939,142],[-90.3848,38.8194,142],[-90.38484,38.81941,141],[-90.38488,38.81942,141],[-90.38491,38.81943,141],[-90.38495,38.81943,141],[-90.38499,38.81943,141],[-90.38502,38.81943,141],[-90.38506,38.81944,141],[-90.3851,38.81944,141],[-90.38514,38.81944,141],[-90.38518,38.81945,141],[-90.38521,38.81946,141],[-90.38524,38.81947,140],[-90.38528,38.81948,140],[-90.38532,38.81948,140],[-90.38535,38.81948,140],[-90.38539,38.81949,140],[-90.38542,38.8195,139],[-90.38545,38.81952,139],[-90.38548,38.81954,138],[-90.38551,38.81956,137],[-90.38554,38.81957,137],[-90.38557,38.81959,136],[-90.38561,38.8196,135],[-90.38564,38.81961,135],[-90.38567,38.81963,134],[-90.3857,38.81962,135],[-90.38573,38.8196,135],[-90.38577,38.81958,136],[-90.3858,38.81957,137],[-90.38583,38.81955,137],[-90.38586,38.81953,138],[-90.38582,38.81955,137],[-90.38579,38.81956,137],[-90.38576,38.81958,136],[-90.38573,38.81959,136],[-90.38574,38.81961,135],[-90.38578,38.81962,135],[-90.38581,38.81963,134],[-90.38585,38.81963,134],[-90.38588,38.81962,134],[-90.38591,38.81962,134],[-90.38595,38.81963,134],[-90.38598,38.81962,134],[-90.38602,38.81961,134],[-90.38606,38.81962,134],[-90.38609,38.81962,134],[-90.38613,38.81961,133],[-90.38617,38.81961,133],[-90.3862,38.81961,133],[-90.38624,38.81961,132],[-90.38627,38.81959,132],[-90.38631,38.81959,132],[-90.38635,38.81958,131],[-90.38639,38.81957,131],[-90.38642,38.81957,131],[-90.38645,38.81955,131],[-90.38649,38.81955,131],[-90.38652,38.81954,131],[-90.38655,38.81953,131],[-90.38658,38.81951,131],[-90.3866,38.81949,131],[-90.38663,38.81947,131],[-90.38667,38.81946,131],[-90.3867,38.81944,132],[-90.38673,38.81943,132],[-90.38676,38.81941,132],[-90.38678,38.81939,132],[-90.38682,38.81938,132],[-90.38686,38.81937,132],[-90.38689,38.81936,132],[-90.38692,38.81935,132],[-90.38694,38.81933,132],[-90.38697,38.81931,132],[-90.38701,38.8193,132],[-90.38705,38.81929,132],[-90.38708,38.81928,132],[-90.38711,38.81926,132],[-90.38715,38.81925,132],[-90.38718,38.81925,132],[-90.38719,38.81922,132],[-90.38722,38.8192,132],[-90.38724,38.81917,132],[-90.38727,38.81915,132],[-90.3873,38.81914,133],[-90.38734,38.81912,134],[-90.38737,38.81911,134],[-90.38741,38.8191,135],[-90.38744,38.81908,135],[-90.38745,38.81905,136],[-90.38746,38.81902,137],[-90.38748,38.819,138],[-90.38751,38.81898,139],[-90.38754,38.81896,139],[-90.38756,38.81894,140],[-90.38759,38.81892,141],[-90.38763,38.81891,141],[-90.38766,38.8189,141],[-90.3877,38.81889,141],[-90.38774,38.81888,142],[-90.38777,38.81887,142],[-90.38781,38.81885,142],[-90.38784,38.81883,142],[-90.38787,38.81882,141],[-90.3879,38.81879,141],[-90.38792,38.81877,141],[-90.38795,38.81876,141],[-90.38799,38.81875,141],[-90.38802,38.81874,141],[-90.38806,38.81873,140],[-90.38809,38.81872,140],[-90.38812,38.81871,140],[-90.38815,38.81869,140],[-90.38817,38.81867,140],[-90.38821,38.81865,139],[-90.38823,38.81863,139],[-90.38826,38.81861,139],[-90.38829,38.81859,139],[-90.38832,38.81858,139],[-90.38835,38.81855,140],[-90.38836,38.81853,141],[-90.38836,38.8185,142],[-90.38839,38.81847,144],[-90.3884,38.81844,145],[-90.3884,38.81841,146],[-90.38842,38.81839,147],[-90.38843,38.81836,148],[-90.38846,38.81834,149],[-90.38849,38.81832,150],[-90.38851,38.8183,151],[-90.38853,38.81827,153],[-90.38854,38.81824,154],[-90.38856,38.81822,155],[-90.38857,38.81819,156],[-90.38858,38.81816,158],[-90.38861,38.81814,159],[-90.38864,38.81814,158],[-90.38868,38.81814,157],[-90.38871,38.81813,157],[-90.38873,38.81811,157],[-90.38877,38.8181,157],[-90.3888,38.8181,157],[-90.38884,38.8181,156],[-90.38888,38.81809,155],[-90.38891,38.81809,155],[-90.38895,38.8181,153],[-90.38898,38.8181,153],[-90.38901,38.81809,152],[-90.38905,38.81807,152],[-90.38906,38.81804,153],[-90.3891,38.81803,152],[-90.38913,38.81802,152],[-90.38917,38.81801,151],[-90.3892,38.81803,150],[-90.38924,38.81803,149],[-90.38927,38.81802,149],[-90.38931,38.81801,149],[-90.38934,38.81801,149],[-90.38938,38.818,148],[-90.38941,38.81799,148],[-90.38945,38.81798,148],[-90.38949,38.81797,148],[-90.38952,38.81796,148],[-90.38956,38.81796,148],[-90.38959,38.81795,148],[-90.38963,38.81793,149],[-90.38967,38.81792,149],[-90.3897,38.81792,149],[-90.38974,38.81791,148],[-90.38978,38.8179,148],[-90.38981,38.81788,148],[-90.38984,38.81786,148],[-90.38988,38.81786,147],[-90.38992,38.81786,147],[-90.38996,38.81786,146],[-90.38999,38.81786,146],[-90.39003,38.81786,146],[-90.39007,38.81784,145],[-90.3901,38.81783,145],[-90.39013,38.81781,145],[-90.39015,38.81779,145],[-90.39018,38.81777,144],[-90.3902,38.81775,145],[-90.39024,38.81773,144],[-90.39027,38.81772,144],[-90.39031,38.8177,144],[-90.39034,38.81769,144],[-90.39036,38.81767,144],[-90.39039,38.81765,144],[-90.39042,38.81764,144],[-90.39045,38.81762,144],[-90.39048,38.81761,144],[-90.39052,38.8176,144],[-90.39054,38.81757,144],[-90.39056,38.81755,144],[-90.39059,38.81753,144],[-90.39062,38.81751,144],[-90.39065,38.81749,145],[-90.39068,38.81748,144],[-90.39072,38.81747,144],[-90.39075,38.81745,144],[-90.39077,38.81742,145],[-90.39081,38.81741,145],[-90.39084,38.81741,144],[-90.39088,38.81742,144],[-90.39092,38.81741,143],[-90.39094,38.81739,144],[-90.39097,38.81737,144],[-90.39099,38.81735,144],[-90.39102,38.81733,144],[-90.39105,38.81731,144],[-90.39108,38.8173,144],[-90.39111,38.81728,144],[-90.39114,38.81727,144],[-90.39118,38.81726,143],[-90.39122,38.81725,143],[-90.39126,38.81724,142],[-90.39129,38.81723,142],[-90.39132,38.81722,142],[-90.39136,38.81721,142],[-90.39137,38.81718,143],[-90.3914,38.81715,143],[-90.39142,38.81713,144],[-90.39145,38.81711,144],[-90.39149,38.81711,144],[-90.39153,38.8171,143],[-90.39157,38.8171,143],[-90.3916,38.81709,143],[-90.39163,38.81708,143],[-90.39166,38.81706,143],[-90.39169,38.81704,144],[-90.39172,38.81702,145],[-90.39175,38.817,146],[-90.39178,38.81698,147],[-90.3918,38.81696,147],[-90.39182,38.81693,148],[-90.39185,38.81691,149],[-90.39187,38.81689,149],[-90.3919,38.81687,149],[-90.39193,38.81685,149],[-90.39196,38.81683,149],[-90.39199,38.81681,149],[-90.39201,38.81679,149],[-90.39202,38.81677,149],[-90.39204,38.81674,148],[-90.39207,38.81673,148],[-90.3921,38.81671,148],[-90.39212,38.81668,147],[-90.39214,38.81665,147],[-90.39217,38.81663,147],[-90.3922,38.81661,147],[-90.39221,38.81659,147],[-90.39222,38.81656,147],[-90.39223,38.81653,147],[-90.39224,38.81651,147],[-90.39225,38.81648,147],[-90.39227,38.81645,147],[-90.3923,38.81643,146],[-90.3923,38.8164,147],[-90.3923,38.81637,147],[-90.39231,38.81635,148],[-90.39232,38.81632,148],[-90.39235,38.8163,148],[-90.39237,38.81628,148],[-90.39238,38.81625,149],[-90.39241,38.81623,148],[-90.39242,38.8162,149],[-90.39245,38.81618,149],[-90.39248,38.81617,148],[-90.39252,38.81618,146],[-90.39255,38.81616,146],[-90.39257,38.81614,146],[-90.3926,38.81612,145],[-90.39263,38.8161,144],[-90.39265,38.81608,144],[-90.39266,38.81605,143],[-90.39267,38.81602,143],[-90.39267,38.81599,143],[-90.39267,38.81596,143],[-90.39267,38.81593,143],[-90.39267,38.8159,143],[-90.39267,38.81588,143],[-90.39267,38.81585,143],[-90.39267,38.81582,143],[-90.39267,38.81579,144],[-90.39265,38.81576,145],[-90.39264,38.81574,146],[-90.39264,38.81571,147],[-90.39264,38.81568,147],[-90.39265,38.81565,148],[-90.39267,38.81562,147],[-90.39269,38.8156,147],[-90.39272,38.81559,146],[-90.39274,38.81557,146],[-90.39277,38.81555,145],[-90.39281,38.81553,144],[-90.39284,38.81553,144],[-90.39287,38.81552,143],[-90.3929,38.8155,143],[-90.39293,38.81548,142],[-90.39295,38.81546,142],[-90.39298,38.81543,143],[-90.39301,38.81541,142],[-90.39304,38.8154,142],[-90.39307,38.81538,142],[-90.39309,38.81535,142],[-90.39312,38.81533,142],[-90.39314,38.81531,142],[-90.39316,38.81529,143],[-90.39318,38.81526,142],[-90.39319,38.81523,143],[-90.39319,38.8152,143],[-90.39319,38.81517,143],[-90.39318,38.81514,144],[-90.39316,38.81512,144],[-90.39315,38.81509,145],[-90.39314,38.81506,145],[-90.39313,38.81503,146],[-90.39313,38.815,146],[-90.39311,38.81497,146],[-90.3931,38.81495,146],[-90.39308,38.81491,146],[-90.39307,38.81489,146],[-90.39306,38.81486,146],[-90.39306,38.81483,146],[-90.39306,38.81479,146],[-90.39306,38.81477,146],[-90.39306,38.81474,146],[-90.39306,38.81471,145],[-90.39305,38.81468,146],[-90.39303,38.81465,146],[-90.39301,38.81463,147],[-90.39299,38.8146,147],[-90.39296,38.81458,148],[-90.39294,38.81456,149],[-90.3929,38.81454,150],[-90.39287,38.81452,150],[-90.39285,38.8145,151],[-90.39282,38.81449,151],[-90.39279,38.81446,152],[-90.39277,38.81444,153],[-90.39274,38.81442,152],[-90.39272,38.8144,152],[-90.39269,38.81438,152],[-90.39266,38.81436,152],[-90.39262,38.81435,152],[-90.39259,38.81434,152],[-90.39256,38.81433,152],[-90.39251,38.81432,153],[-90.39248,38.8143,152],[-90.39245,38.81429,152],[-90.39243,38.81427,152],[-90.39241,38.81425,151],[-90.39239,38.81422,151],[-90.39238,38.81419,150],[-90.39237,38.81416,150],[-90.39236,38.81414,149],[-90.39235,38.81411,147],[-90.39236,38.81408,145],[-90.39238,38.81407,145],[-90.3924,38.81404,143],[-90.39241,38.81401,142],[-90.39242,38.81398,141],[-90.39242,38.81396,140],[-90.39242,38.81393,138],[-90.39243,38.8139,137],[-90.39245,38.81387,137],[-90.39246,38.81385,137],[-90.39249,38.81383,138],[-90.39251,38.8138,138],[-90.39254,38.81378,138],[-90.39256,38.81376,138],[-90.39258,38.81373,138],[-90.39259,38.81371,138],[-90.39261,38.81368,138],[-90.39262,38.81365,138],[-90.39264,38.81363,138],[-90.39266,38.8136,138],[-90.39266,38.81358,138],[-90.39268,38.81355,137],[-90.39269,38.81352,137],[-90.39272,38.8135,137],[-90.39274,38.81348,136],[-90.39276,38.81345,136],[-90.39277,38.81342,135],[-90.39279,38.81339,135],[-90.39281,38.81337,135],[-90.39283,38.81335,134],[-90.39285,38.81333,134],[-90.39287,38.8133,134],[-90.3929,38.81328,134],[-90.39293,38.81326,133],[-90.39296,38.81325,133],[-90.39299,38.81323,133],[-90.39302,38.81321,133],[-90.39304,38.81318,133],[-90.39306,38.81316,132],[-90.39309,38.81313,132],[-90.3931,38.81311,132],[-90.39313,38.81308,132],[-90.39315,38.81306,132],[-90.39317,38.81303,133],[-90.39319,38.81301,133],[-90.39322,38.81298,133],[-90.39324,38.81297,133],[-90.39327,38.81294,133],[-90.39329,38.81292,133],[-90.39333,38.81291,134],[-90.39336,38.81289,134],[-90.39339,38.81287,134],[-90.39341,38.81285,134],[-90.39344,38.81283,134],[-90.39347,38.81281,134],[-90.39351,38.8128,134],[-90.39354,38.81279,134],[-90.39357,38.81277,134],[-90.39361,38.81275,134],[-90.39364,38.81274,134],[-90.39367,38.81271,134],[-90.39369,38.81269,134],[-90.39371,38.81267,134],[-90.39374,38.81265,135],[-90.39377,38.81263,135],[-90.3938,38.81261,135],[-90.39383,38.81259,135],[-90.39386,38.81257,136],[-90.39389,38.81256,136],[-90.39391,38.81254,136],[-90.39393,38.81251,136],[-90.39396,38.8125,137],[-90.39399,38.81248,137],[-90.39403,38.81246,137],[-90.39405,38.81244,137],[-90.39408,38.81242,137],[-90.39411,38.8124,137],[-90.39413,38.81238,137],[-90.39416,38.81236,137],[-90.39419,38.81234,137],[-90.39421,38.81232,137],[-90.39424,38.81229,137],[-90.39426,38.81227,137],[-90.39428,38.81225,137],[-90.39431,38.81222,138],[-90.39433,38.8122,138],[-90.39435,38.81218,138],[-90.39438,38.81216,138],[-90.39441,38.81214,138],[-90.39444,38.81211,138],[-90.39446,38.8121,137],[-90.39449,38.81207,137],[-90.39451,38.81205,137],[-90.39454,38.81203,137],[-90.39457,38.81201,137],[-90.39459,38.81199,137],[-90.39462,38.81197,137],[-90.39465,38.81195,137],[-90.39467,38.81193,137],[-90.3947,38.81191,136],[-90.39472,38.81188,136],[-90.39475,38.81186,135],[-90.39478,38.81184,135],[-90.3948,38.81182,135],[-90.39482,38.8118,134],[-90.39485,38.81178,134],[-90.39487,38.81176,134],[-90.39489,38.81173,133],[-90.3949,38.8117,133],[-90.39491,38.81167,133],[-90.39493,38.81165,133],[-90.39497,38.81164,132],[-90.39501,38.81164,132],[-90.39505,38.81163,132],[-90.39508,38.81161,132],[-90.39505,38.8116,132]]],
        "bbox": [
          -90.38408,
          38.81967,
          -90.39508,
          38.8116
        ]
      },
      "properties": {
        "name": "2.14.2024"
      }
    }
  ]
}