{
  "type": "FeatureCollection",
  "features": [
    {
      "type": "Feature",
      "geometry": {
        "type": "MultiLineString",
        "coordinates": [[[-90.3908,38.81084,138],[-90.3908,38.81087,138],[-90.3908,38.81091,139],[-90.39081,38.81094,139],[-90.39083,38.81096,139],[-90.39084,38.81099,139],[-90.39084,38.81102,139],[-90.39084,38.81105,140],[-90.39084,38.81108,140],[-90.39085,38.81111,140],[-90.39085,38.81114,141],[-90.39085,38.81117,141],[-90.39082,38.8112,141],[-90.39079,38.81122,141],[-90.39075,38.81123,142],[-90.39072,38.81125,142],[-90.39069,38.81127,142],[-90.39066,38.81129,142],[-90.39062,38.8113,142],[-90.39057,38.8113,142],[-90.39054,38.81129,142],[-90.3905,38.81127,142],[-90.39046,38.81125,142],[-90.39043,38.81124,142],[-90.39039,38.81123,142],[-90.39034,38.81122,142],[-90.3903,38.81122,142],[-90.39026,38.81122,143],[-90.39022,38.81121,143],[-90.39017,38.8112,144],[-90.39013,38.8112,144],[-90.3901,38.81119,145],[-90.39006,38.81118,145],[-90.39002,38.81118,146],[-90.38998,38.81117,146],[-90.38994,38.81117,147],[-90.38991,38.81119,147],[-90.38988,38.81121,148],[-90.38986,38.81122,148],[-90.38982,38.81123,149],[-90.38978,38.81123,149],[-90.38973,38.81122,150],[-90.38969,38.81121,150],[-90.38965,38.81121,151],[-90.38962,38.81121,151],[-90.38958,38.81123,151],[-90.38956,38.81125,151],[-90.38954,38.81128,151],[-90.38952,38.8113,151],[-90.38951,38.81134,151],[-90.38949,38.81137,151],[-90.38947,38.81139,151],[-90.38944,38.81141,152],[-90.38941,38.81142,152],[-90.38937,38.81142,152],[-90.38933,38.81142,152],[-90.3893,38.81143,152],[-90.38927,38.81146,152],[-90.38924,38.81147,152],[-90.38921,38.81149,152],[-90.38918,38.81151,152],[-90.38915,38.81153,152],[-90.38912,38.81155,153],[-90.38908,38.81156,154],[-90.38904,38.81157,155],[-90.38901,38.81158,156],[-90.38898,38.8116,157],[-90.38895,38.81161,158],[-90.3889,38.81162,159],[-90.38887,38.81163,160],[-90.38886,38.81166,160],[-90.38883,38.81168,160],[-90.3888,38.8117,161],[-90.38878,38.81172,161],[-90.38875,38.81174,161],[-90.38872,38.81176,162],[-90.38871,38.81179,161],[-90.38869,38.81181,162],[-90.38868,38.81184,161],[-90.38867,38.81188,161],[-90.38867,38.81191,161],[-90.38869,38.81193,160],[-90.38872,38.81195,160],[-90.38874,38.81197,159],[-90.38876,38.812,159],[-90.38878,38.81203,160],[-90.38882,38.81203,159],[-90.38885,38.81205,159],[-90.38887,38.81207,159],[-90.38888,38.81211,160],[-90.38888,38.81214,160],[-90.38886,38.81218,161],[-90.38885,38.81221,162],[-90.38883,38.81224,162],[-90.38881,38.81226,162],[-90.38879,38.81229,163],[-90.38877,38.81232,164],[-90.38874,38.81234,164],[-90.38872,38.81237,165],[-90.3887,38.8124,165],[-90.38867,38.81242,166],[-90.38869,38.81244,166],[-90.3887,38.81247,166],[-90.3887,38.8125,167],[-90.3887,38.81253,167],[-90.38869,38.81257,167],[-90.38868,38.81259,168],[-90.38866,38.81262,168],[-90.38865,38.81264,168],[-90.38862,38.81267,169],[-90.38859,38.81268,170],[-90.38856,38.81271,171],[-90.38853,38.81273,172],[-90.3885,38.81275,173],[-90.38847,38.81276,174],[-90.38843,38.81278,176],[-90.3884,38.81279,177],[-90.38837,38.81281,179],[-90.38834,38.81282,180],[-90.3883,38.81283,181],[-90.38826,38.81284,183],[-90.38823,38.81285,184],[-90.38819,38.81286,185],[-90.38815,38.81286,186],[-90.38814,38.81289,187],[-90.38813,38.81292,187],[-90.38812,38.81295,188],[-90.38812,38.81298,188],[-90.38811,38.81301,189],[-90.3881,38.81304,189],[-90.38809,38.81307,190],[-90.38809,38.8131,191],[-90.38807,38.81313,192],[-90.38805,38.81316,192],[-90.38803,38.81318,193],[-90.38801,38.8132,193],[-90.38799,38.81323,194],[-90.38797,38.81326,194],[-90.38795,38.81328,195],[-90.38792,38.81331,195],[-90.38789,38.81333,195],[-90.38784,38.81334,196],[-90.38781,38.81335,196],[-90.38777,38.81336,196],[-90.38773,38.81336,195],[-90.38769,38.81335,195],[-90.38766,38.81337,195],[-90.38765,38.81339,195],[-90.38765,38.81342,195],[-90.38765,38.81346,195],[-90.38765,38.81348,196],[-90.38764,38.81351,196],[-90.38762,38.81354,196],[-90.38761,38.81357,196],[-90.3876,38.8136,196],[-90.38759,38.81364,196],[-90.38758,38.81367,197],[-90.38758,38.81369,197],[-90.38757,38.81373,197],[-90.38756,38.81376,198],[-90.38755,38.81379,198],[-90.38755,38.81382,199],[-90.38756,38.81385,199],[-90.38759,38.81387,199],[-90.38762,38.81389,199],[-90.38765,38.8139,200],[-90.38769,38.81392,200],[-90.38771,38.81394,200],[-90.38775,38.81394,200],[-90.38779,38.81394,199],[-90.38783,38.81393,199],[-90.38787,38.81393,199],[-90.38791,38.81393,199],[-90.38794,38.81392,199],[-90.38798,38.81392,199],[-90.38803,38.81392,199],[-90.38808,38.81392,199],[-90.38813,38.81392,198],[-90.38818,38.81392,198],[-90.38822,38.81393,198],[-90.38827,38.81394,198],[-90.3883,38.81395,198],[-90.38834,38.81396,198],[-90.38838,38.81398,197],[-90.38842,38.81399,197],[-90.38846,38.81401,197],[-90.3885,38.81402,196],[-90.38854,38.81403,196],[-90.38858,38.81405,196],[-90.38862,38.81406,196],[-90.38865,38.81407,195],[-90.38868,38.81409,195],[-90.38872,38.81411,195],[-90.38876,38.81412,194],[-90.3888,38.81413,193],[-90.38884,38.81415,193],[-90.38887,38.81417,193],[-90.38891,38.81418,192],[-90.38896,38.81419,192],[-90.38901,38.81419,192],[-90.38905,38.8142,192],[-90.38909,38.8142,192],[-90.38913,38.8142,192],[-90.38917,38.81421,192],[-90.38921,38.81422,192],[-90.38924,38.81424,191],[-90.38927,38.81426,191],[-90.38931,38.81427,190],[-90.38934,38.81429,190],[-90.38938,38.81431,189],[-90.38941,38.81433,189],[-90.38945,38.81434,189],[-90.38949,38.81434,188],[-90.3895,38.81432,188],[-90.38951,38.81429,187],[-90.38951,38.81432,188],[-90.3895,38.81435,188],[-90.38952,38.81438,188],[-90.38954,38.81441,189],[-90.38956,38.81444,189],[-90.38956,38.81447,189],[-90.38955,38.8145,189],[-90.38955,38.81454,190],[-90.38955,38.81456,190],[-90.38955,38.8146,190],[-90.38955,38.81463,190],[-90.38955,38.81466,190],[-90.38954,38.8147,191],[-90.38955,38.81474,191],[-90.38956,38.81477,190],[-90.38957,38.8148,190],[-90.38958,38.81483,190],[-90.38959,38.81486,190],[-90.3896,38.8149,189],[-90.38961,38.81493,189],[-90.38963,38.81496,189],[-90.38966,38.81498,189],[-90.38968,38.815,188],[-90.38971,38.81502,188],[-90.38974,38.81504,188],[-90.38977,38.81506,187],[-90.3898,38.81508,187],[-90.38983,38.8151,186],[-90.38987,38.81512,186],[-90.38989,38.81514,185],[-90.38991,38.81517,184],[-90.38994,38.81519,184],[-90.38997,38.81522,183],[-90.39,38.81524,182],[-90.39003,38.81526,182],[-90.39007,38.81529,181],[-90.3901,38.81531,181],[-90.39014,38.81532,181],[-90.39017,38.81533,181],[-90.39021,38.81535,180],[-90.39025,38.81536,180],[-90.39028,38.81536,180],[-90.39032,38.81538,180],[-90.39035,38.81539,181],[-90.39039,38.8154,181],[-90.39042,38.81541,181],[-90.39047,38.81543,181],[-90.39052,38.81544,182],[-90.39055,38.81545,182],[-90.39059,38.81545,183],[-90.39063,38.81546,183],[-90.39067,38.81547,183],[-90.39071,38.81548,184],[-90.39075,38.81548,184],[-90.39079,38.81548,185],[-90.39083,38.81548,185],[-90.39086,38.81549,185],[-90.39091,38.81549,185],[-90.39095,38.81548,185],[-90.39099,38.81546,186],[-90.39102,38.81545,186],[-90.39106,38.81544,186],[-90.39108,38.81542,186],[-90.39113,38.81541,186],[-90.39117,38.8154,186],[-90.39122,38.8154,186],[-90.39127,38.8154,185],[-90.39132,38.8154,185],[-90.39135,38.81541,185],[-90.39141,38.81542,185],[-90.39145,38.81544,184],[-90.39149,38.81545,184],[-90.39152,38.81547,183],[-90.39155,38.8155,183],[-90.39157,38.81553,183],[-90.3916,38.81556,183],[-90.39163,38.81558,182],[-90.39166,38.81561,182],[-90.39169,38.81562,181],[-90.39172,38.81564,180],[-90.39175,38.81566,180],[-90.39179,38.81567,178],[-90.39182,38.81566,178],[-90.39186,38.81565,177],[-90.39189,38.81565,177],[-90.39193,38.81567,175],[-90.39195,38.81564,175],[-90.39195,38.81561,176],[-90.39195,38.81557,177],[-90.39196,38.81555,177],[-90.39194,38.81552,177],[-90.39195,38.81549,177],[-90.39197,38.81546,176],[-90.39196,38.81543,176],[-90.39195,38.81539,176],[-90.39194,38.81537,176],[-90.39192,38.81534,176],[-90.39191,38.81531,176],[-90.39191,38.81528,176],[-90.39192,38.81525,175],[-90.39193,38.81521,173],[-90.39195,38.81518,172],[-90.39196,38.81515,171],[-90.39196,38.81512,169],[-90.39197,38.81509,168],[-90.39197,38.81506,167],[-90.39195,38.81503,166],[-90.39193,38.81501,166],[-90.39192,38.81498,166],[-90.39189,38.81495,167],[-90.39188,38.81492,167],[-90.39189,38.81489,166],[-90.39191,38.81486,165],[-90.39192,38.81483,164],[-90.3919,38.8148,165],[-90.39189,38.81477,165],[-90.39187,38.81474,165],[-90.39186,38.81471,165],[-90.39186,38.81467,164],[-90.39186,38.81464,164],[-90.39185,38.81461,164],[-90.39184,38.81457,163],[-90.39182,38.81455,164],[-90.39181,38.81452,164],[-90.39181,38.81448,163],[-90.3918,38.81445,163],[-90.39179,38.81441,162],[-90.39179,38.81438,161],[-90.39178,38.81436,161],[-90.39178,38.81433,160],[-90.39177,38.8143,160],[-90.39179,38.81427,158],[-90.39182,38.81425,157],[-90.39178,38.81425,158],[-90.39176,38.81422,158],[-90.39179,38.81421,156],[-90.39183,38.8142,155],[-90.39186,38.81418,154],[-90.39189,38.81417,153],[-90.39188,38.81414,152],[-90.39187,38.81411,151],[-90.39191,38.8141,149],[-90.39195,38.81409,148],[-90.39198,38.81408,147],[-90.39202,38.81408,146],[-90.39206,38.81408,146],[-90.39209,38.81407,145],[-90.39213,38.81406,144],[-90.39217,38.81405,143],[-90.39221,38.81405,143],[-90.39225,38.81404,143],[-90.39228,38.81403,142],[-90.39231,38.81402,142],[-90.39234,38.814,141],[-90.39236,38.81397,139],[-90.39237,38.81394,138],[-90.39238,38.81392,137],[-90.39239,38.81388,136],[-90.39241,38.81385,136],[-90.39243,38.81383,137],[-90.39245,38.81381,137],[-90.39247,38.81378,138],[-90.39249,38.81375,138],[-90.3925,38.81372,138],[-90.39251,38.81369,138],[-90.39251,38.81366,138],[-90.39252,38.81363,138],[-90.39254,38.8136,138],[-90.39256,38.81357,138],[-90.39257,38.81354,138],[-90.3926,38.81351,137],[-90.39262,38.81348,137],[-90.39264,38.81344,136],[-90.39266,38.81341,136],[-90.39268,38.81338,136],[-90.39272,38.81336,135],[-90.39275,38.81334,135],[-90.39278,38.81331,134],[-90.39281,38.81328,134],[-90.39283,38.81325,134],[-90.39287,38.81323,134],[-90.3929,38.81321,133],[-90.39294,38.81318,133],[-90.39297,38.81316,133],[-90.393,38.81313,133],[-90.39303,38.8131,133],[-90.39306,38.81308,132],[-90.3931,38.81305,133],[-90.39314,38.81303,133],[-90.39317,38.813,133],[-90.3932,38.81297,133],[-90.39324,38.81295,133],[-90.39326,38.81293,133],[-90.3933,38.81291,134],[-90.39334,38.81291,134],[-90.39338,38.81292,133],[-90.39341,38.81293,133],[-90.39346,38.81295,133],[-90.3935,38.81298,132],[-90.39353,38.813,132],[-90.39356,38.81303,132],[-90.3936,38.81306,132],[-90.39362,38.81309,132],[-90.39365,38.81311,132],[-90.39368,38.81314,132],[-90.39371,38.81317,132],[-90.39374,38.81319,132],[-90.39377,38.81322,132],[-90.3938,38.81324,132],[-90.39384,38.81326,132],[-90.39387,38.81328,132],[-90.3939,38.81331,132],[-90.39393,38.81333,132],[-90.39396,38.81335,132],[-90.394,38.81337,132],[-90.39403,38.81339,132],[-90.39407,38.81341,132],[-90.3941,38.81343,132],[-90.39413,38.81345,132],[-90.39417,38.81347,133],[-90.3942,38.81349,133],[-90.39423,38.81351,133],[-90.39426,38.81352,133],[-90.3943,38.81354,133],[-90.39433,38.81356,133],[-90.39437,38.81358,133],[-90.3944,38.81359,133],[-90.39443,38.81361,133],[-90.39446,38.81364,134],[-90.3945,38.81365,134],[-90.39453,38.81367,134],[-90.39456,38.81369,134],[-90.39459,38.81371,134],[-90.39463,38.81373,135],[-90.39466,38.81374,135],[-90.39469,38.81375,135],[-90.39473,38.81377,135],[-90.39476,38.81379,135],[-90.3948,38.81381,135],[-90.39483,38.81383,135],[-90.39486,38.81386,135]],[[-90.39477,38.81388,135],[-90.39475,38.81386,135],[-90.39471,38.81385,135],[-90.39468,38.81384,134],[-90.39464,38.81381,134],[-90.3946,38.81379,134],[-90.39456,38.81378,134],[-90.39451,38.81377,134],[-90.39446,38.81377,134],[-90.39442,38.81377,133],[-90.39438,38.81375,133],[-90.39437,38.81372,133],[-90.39435,38.81368,133],[-90.39433,38.81366,133],[-90.3943,38.81364,133],[-90.39427,38.81361,133],[-90.39424,38.81358,133],[-90.39421,38.81356,133],[-90.39418,38.81354,133],[-90.39414,38.81352,132],[-90.39411,38.8135,132],[-90.39408,38.81347,132],[-90.39404,38.81345,132],[-90.39401,38.81343,132],[-90.39398,38.81341,132],[-90.39394,38.81339,132],[-90.3939,38.81337,132],[-90.39387,38.81335,132],[-90.39383,38.81333,132],[-90.3938,38.81332,132],[-90.39376,38.81329,132],[-90.39373,38.81327,132],[-90.3937,38.81324,132],[-90.39366,38.81321,132],[-90.39364,38.81319,132],[-90.39361,38.81316,132],[-90.39357,38.81313,132],[-90.39356,38.8131,132],[-90.39354,38.81307,132],[-90.39351,38.81305,132],[-90.39348,38.81302,132],[-90.39345,38.813,132],[-90.39342,38.81298,133],[-90.39338,38.81296,133],[-90.39334,38.81296,133],[-90.39331,38.81298,133],[-90.39328,38.813,133],[-90.39326,38.81302,133],[-90.39323,38.81305,133],[-90.39321,38.81308,132],[-90.39319,38.8131,132],[-90.39316,38.81314,132],[-90.39313,38.81317,132],[-90.39311,38.81319,132],[-90.39308,38.81321,132],[-90.39305,38.81323,133],[-90.39303,38.81326,133],[-90.393,38.81329,133],[-90.39297,38.81331,133],[-90.39294,38.81334,133],[-90.39291,38.81336,134],[-90.39289,38.81339,134],[-90.39286,38.81341,135],[-90.39283,38.81343,135],[-90.3928,38.81346,136],[-90.39277,38.81347,136],[-90.39274,38.8135,136],[-90.39272,38.81353,137],[-90.3927,38.81355,137],[-90.39268,38.81358,138],[-90.39266,38.81361,138],[-90.39264,38.81364,138],[-90.39262,38.81366,138],[-90.3926,38.81369,138],[-90.39258,38.81371,138],[-90.39257,38.81375,138],[-90.39256,38.81378,138],[-90.39254,38.8138,138],[-90.39252,38.81384,138],[-90.3925,38.81386,138],[-90.39249,38.81389,137],[-90.39247,38.81391,138],[-90.39245,38.81394,139],[-90.39243,38.81396,140],[-90.39241,38.81399,141],[-90.39239,38.81402,142],[-90.39236,38.81406,144],[-90.39234,38.81409,146],[-90.39231,38.81411,147],[-90.39229,38.81413,148],[-90.39225,38.81415,149],[-90.39222,38.81416,150],[-90.39217,38.81416,150],[-90.39213,38.81416,150],[-90.3921,38.81417,151],[-90.39206,38.81418,151],[-90.39202,38.81418,151],[-90.39198,38.81418,152],[-90.39195,38.81419,152],[-90.39192,38.81422,153],[-90.3919,38.81425,155],[-90.39188,38.81427,156],[-90.39187,38.81424,155],[-90.39186,38.81422,155],[-90.39187,38.81419,154],[-90.39188,38.81416,153],[-90.39188,38.81413,151],[-90.39189,38.81411,150],[-90.39193,38.8141,148],[-90.39197,38.81409,147],[-90.39201,38.81409,147],[-90.39205,38.81409,147],[-90.39208,38.81408,146],[-90.39212,38.81407,145],[-90.39216,38.81406,144],[-90.39219,38.81406,144],[-90.39224,38.81406,144],[-90.39228,38.81408,145],[-90.39231,38.81411,147],[-90.39233,38.81414,149],[-90.39235,38.81416,150],[-90.39238,38.81419,150],[-90.39241,38.8142,150],[-90.39244,38.81423,151],[-90.39248,38.81425,151],[-90.39251,38.81427,152],[-90.39252,38.8143,152],[-90.39256,38.81431,152],[-90.39259,38.81432,152],[-90.39263,38.81433,152],[-90.39267,38.81435,152],[-90.3927,38.81437,152],[-90.39274,38.81439,152],[-90.39276,38.81442,152],[-90.39278,38.81445,152],[-90.39281,38.81447,152],[-90.39285,38.81449,151],[-90.39288,38.81451,150],[-90.3929,38.81453,150],[-90.39293,38.81455,149],[-90.39296,38.81458,148],[-90.39298,38.81462,147],[-90.393,38.81465,147],[-90.39301,38.81467,147],[-90.39302,38.81471,146],[-90.39302,38.81474,146],[-90.39303,38.81478,146],[-90.39303,38.81481,147],[-90.39304,38.81485,147],[-90.39305,38.81488,147],[-90.39307,38.81492,147],[-90.39308,38.81495,147],[-90.39311,38.81497,146],[-90.39314,38.815,146],[-90.39315,38.81502,145],[-90.39313,38.81505,146],[-90.39309,38.81503,147],[-90.39305,38.81501,147],[-90.39301,38.815,148],[-90.393,38.81498,148],[-90.39299,38.81494,148],[-90.39297,38.81491,148],[-90.39295,38.81488,148],[-90.39292,38.81486,148],[-90.39289,38.81484,149],[-90.39286,38.8148,149],[-90.39286,38.81477,150],[-90.39285,38.81474,150],[-90.39284,38.81471,150],[-90.39284,38.81468,150],[-90.39284,38.81465,150],[-90.39283,38.81462,151],[-90.3928,38.81459,152],[-90.39278,38.81457,152],[-90.39274,38.81455,153],[-90.39271,38.81454,153],[-90.39268,38.81452,153],[-90.39265,38.81449,154],[-90.39262,38.81446,154],[-90.3926,38.81444,154],[-90.39257,38.81442,154],[-90.39254,38.8144,154],[-90.3925,38.81438,154],[-90.39246,38.81437,154],[-90.39242,38.81436,154],[-90.39239,38.81435,153],[-90.39235,38.81433,153],[-90.39232,38.81431,153],[-90.39229,38.8143,152],[-90.39226,38.81427,152],[-90.39224,38.81424,152],[-90.39223,38.81421,151],[-90.39221,38.81418,151],[-90.39219,38.81416,150],[-90.39217,38.81413,148],[-90.39222,38.81413,148],[-90.3922,38.81415,150],[-90.39216,38.81417,151],[-90.39214,38.81414,149],[-90.3921,38.81415,150],[-90.39207,38.81417,151],[-90.39203,38.81418,151],[-90.39199,38.81419,152],[-90.39197,38.81421,152],[-90.39195,38.81423,153],[-90.39193,38.81426,154],[-90.39191,38.81428,155],[-90.3919,38.81431,156],[-90.39189,38.81428,156],[-90.39186,38.8143,157],[-90.39183,38.81432,158],[-90.39185,38.81427,157],[-90.39186,38.81429,157],[-90.39187,38.81433,158],[-90.39187,38.81435,158],[-90.39187,38.81439,159],[-90.39187,38.81441,160],[-90.39188,38.81445,161],[-90.39189,38.81448,161],[-90.39191,38.81451,161],[-90.39193,38.81453,160],[-90.39196,38.81455,160],[-90.39198,38.81457,160],[-90.39198,38.81461,160],[-90.39197,38.81464,161],[-90.39198,38.81468,161],[-90.39198,38.81471,162],[-90.392,38.81474,162],[-90.39201,38.81476,162],[-90.39201,38.8148,162],[-90.39199,38.81483,163],[-90.39197,38.81486,163],[-90.39196,38.81489,164],[-90.39196,38.81492,164],[-90.39199,38.81494,164],[-90.39201,38.81497,163],[-90.39203,38.815,163],[-90.39205,38.81503,164],[-90.39205,38.81506,165],[-90.39205,38.8151,166],[-90.39204,38.81513,168],[-90.39203,38.81516,169],[-90.39202,38.81519,170],[-90.39201,38.81522,171],[-90.392,38.81525,173],[-90.39201,38.81528,174],[-90.39203,38.81531,173],[-90.39204,38.81534,173],[-90.39206,38.81537,172],[-90.39206,38.8154,172],[-90.39206,38.81543,172],[-90.39205,38.81546,173],[-90.39203,38.81548,174],[-90.39202,38.81551,174],[-90.392,38.81554,175],[-90.392,38.81557,175],[-90.39197,38.81559,176],[-90.39197,38.81562,175],[-90.39197,38.81565,174],[-90.39195,38.81568,174],[-90.39192,38.81569,175],[-90.39188,38.81569,176],[-90.39184,38.81571,177],[-90.3918,38.81572,177],[-90.39177,38.81574,178],[-90.39178,38.81577,177],[-90.3918,38.8158,176],[-90.39181,38.81583,175],[-90.39181,38.81586,175],[-90.39182,38.81589,174],[-90.39182,38.81592,173],[-90.39181,38.81594,173],[-90.39181,38.81598,172],[-90.3918,38.81602,172],[-90.39179,38.81605,171],[-90.39178,38.81609,171],[-90.39177,38.81611,171],[-90.39176,38.81614,170],[-90.39175,38.81617,169],[-90.39175,38.8162,168],[-90.39174,38.81623,167],[-90.39173,38.81626,166],[-90.39171,38.81629,166],[-90.3917,38.81633,165],[-90.39169,38.81636,164],[-90.39167,38.81638,164],[-90.39165,38.8164,164],[-90.39163,38.81644,163],[-90.39161,38.81648,162],[-90.39159,38.81651,162],[-90.39157,38.81653,162],[-90.39155,38.81655,162],[-90.39152,38.81658,161],[-90.39151,38.81661,161],[-90.39148,38.81664,160],[-90.39146,38.81666,160],[-90.39143,38.81668,160],[-90.39139,38.81668,161],[-90.39136,38.8167,161],[-90.39133,38.81672,161],[-90.39132,38.81675,160],[-90.3913,38.81677,160],[-90.39127,38.81679,159],[-90.39123,38.81681,159],[-90.39121,38.81682,159],[-90.39117,38.81682,160],[-90.39113,38.81681,161],[-90.39108,38.81679,162],[-90.39105,38.81677,163],[-90.39102,38.81677,163],[-90.39098,38.81676,164],[-90.39095,38.81675,164],[-90.39091,38.81674,165],[-90.39091,38.81677,164],[-90.39092,38.81679,163],[-90.3909,38.81682,163],[-90.39087,38.81684,163],[-90.39084,38.81685,163],[-90.39081,38.81687,163],[-90.39076,38.81687,163],[-90.39072,38.81687,164],[-90.39069,38.81689,164],[-90.39066,38.8169,164],[-90.39063,38.81691,164],[-90.3906,38.81692,164],[-90.39056,38.81693,165],[-90.39055,38.81696,164],[-90.39056,38.817,163],[-90.39057,38.81703,161],[-90.39059,38.81706,160],[-90.39059,38.81709,159],[-90.39058,38.81712,158],[-90.39056,38.81715,158],[-90.39056,38.81718,157],[-90.39057,38.8172,156],[-90.39058,38.81723,155],[-90.39061,38.81725,154],[-90.39062,38.81728,152],[-90.39061,38.81731,151],[-90.39061,38.81734,150],[-90.39062,38.81737,149],[-90.39063,38.81739,148],[-90.39066,38.81741,147],[-90.39067,38.81743,146],[-90.39065,38.81745,146],[-90.39065,38.81748,145],[-90.39063,38.81751,144],[-90.3906,38.81754,144],[-90.39056,38.81755,144],[-90.39053,38.81757,144],[-90.39052,38.81759,144],[-90.39051,38.81762,143],[-90.39049,38.81764,143],[-90.39045,38.81767,143],[-90.39041,38.81769,143],[-90.39038,38.8177,143],[-90.39034,38.81772,143],[-90.39031,38.81774,143],[-90.39028,38.81776,143],[-90.39027,38.81773,144],[-90.39028,38.8177,144],[-90.39029,38.81767,145],[-90.39031,38.81764,145],[-90.39035,38.81762,145],[-90.39039,38.8176,145],[-90.39042,38.81759,145],[-90.39045,38.81757,145],[-90.39047,38.81754,146],[-90.39045,38.81751,146],[-90.39049,38.8175,146],[-90.39052,38.81749,146],[-90.39056,38.81748,146],[-90.39058,38.81746,147],[-90.39057,38.81743,148],[-90.39054,38.81741,149],[-90.39052,38.81738,150],[-90.3905,38.81735,151],[-90.39051,38.81732,152],[-90.3905,38.81729,153],[-90.3905,38.81727,154],[-90.39048,38.81725,155],[-90.39047,38.81722,156],[-90.39047,38.81719,157],[-90.39048,38.81716,158],[-90.39048,38.81713,159],[-90.39048,38.81709,160],[-90.39049,38.81706,161],[-90.39048,38.81703,162],[-90.39047,38.817,163],[-90.39046,38.81697,164],[-90.39045,38.81694,165],[-90.39045,38.81692,165],[-90.39043,38.81689,166],[-90.39047,38.8169,166],[-90.3905,38.8169,165],[-90.39053,38.81687,165],[-90.39056,38.81685,166],[-90.39059,38.81682,166],[-90.39062,38.8168,166],[-90.39065,38.81679,166],[-90.39069,38.81678,165],[-90.39072,38.81678,165],[-90.39076,38.81679,165],[-90.39079,38.8168,164],[-90.39082,38.81679,164],[-90.39085,38.81677,165],[-90.39088,38.81675,165],[-90.39087,38.81673,165],[-90.39089,38.8167,166],[-90.39091,38.81667,166],[-90.39096,38.81667,166],[-90.391,38.81669,165],[-90.39105,38.8167,165],[-90.39108,38.81671,164],[-90.3911,38.81673,164],[-90.39112,38.81677,162],[-90.39114,38.81678,162],[-90.39116,38.81676,162],[-90.39119,38.81674,162],[-90.39122,38.81672,162],[-90.39126,38.81671,162],[-90.39127,38.81668,163],[-90.3913,38.81666,163],[-90.39133,38.81664,163],[-90.39136,38.81661,164],[-90.39139,38.81659,164],[-90.39142,38.81658,164],[-90.39145,38.81655,164],[-90.39147,38.81652,164],[-90.39149,38.8165,165],[-90.39152,38.81647,165],[-90.39154,38.81645,165],[-90.39156,38.81641,165],[-90.39157,38.81638,166],[-90.39159,38.81636,166],[-90.39161,38.81633,167],[-90.39163,38.8163,167],[-90.39164,38.81627,168],[-90.39165,38.81624,169],[-90.39167,38.81621,170],[-90.39167,38.81618,171],[-90.39168,38.81616,171],[-90.39169,38.81613,172],[-90.3917,38.8161,173],[-90.3917,38.81606,174],[-90.39171,38.81603,174],[-90.39172,38.816,174],[-90.39173,38.81595,175],[-90.39173,38.81592,176],[-90.39172,38.81589,177],[-90.39172,38.81586,177],[-90.39172,38.81582,178],[-90.39171,38.81579,179],[-90.3917,38.81576,179],[-90.39169,38.81572,180],[-90.39166,38.8157,181],[-90.39163,38.81569,181],[-90.3916,38.81566,182],[-90.39157,38.81564,182],[-90.39154,38.81562,183],[-90.39151,38.8156,183],[-90.39148,38.81558,184],[-90.39145,38.81556,184],[-90.39142,38.81554,184],[-90.39138,38.81553,185],[-90.39135,38.81552,185],[-90.39131,38.81551,185],[-90.39127,38.81551,185],[-90.39123,38.8155,185],[-90.39119,38.8155,185],[-90.39115,38.81549,186],[-90.39111,38.8155,186],[-90.39108,38.81551,186],[-90.39105,38.81553,185],[-90.39101,38.81554,185],[-90.39097,38.81554,185],[-90.39092,38.81555,185],[-90.39088,38.81556,185],[-90.39084,38.81556,184],[-90.39079,38.81556,184],[-90.39075,38.81555,184],[-90.39071,38.81555,183],[-90.39067,38.81554,183],[-90.39063,38.81553,183],[-90.39059,38.81552,182],[-90.39055,38.81552,182],[-90.39052,38.81552,181],[-90.39048,38.81551,181],[-90.39044,38.8155,180],[-90.3904,38.81549,180],[-90.39036,38.81547,180],[-90.39032,38.81546,179],[-90.39028,38.81545,179],[-90.39024,38.81545,179],[-90.3902,38.81544,179],[-90.39016,38.81542,179],[-90.39013,38.81541,179],[-90.39008,38.81539,180],[-90.39004,38.81538,180],[-90.39001,38.81537,180],[-90.38997,38.81535,180],[-90.38994,38.81532,181],[-90.38991,38.81531,181],[-90.38988,38.81528,182],[-90.38985,38.81527,182],[-90.38982,38.81525,183],[-90.38979,38.81523,183],[-90.38976,38.8152,184],[-90.38973,38.81518,185],[-90.3897,38.81516,185],[-90.38967,38.81514,186],[-90.38965,38.81511,186],[-90.38962,38.81509,187],[-90.38958,38.81506,187],[-90.38955,38.81504,187],[-90.38953,38.81502,188],[-90.38951,38.81498,188],[-90.38949,38.81495,188],[-90.38948,38.81492,189],[-90.38947,38.81489,189],[-90.38946,38.81486,189],[-90.38946,38.81483,189],[-90.38945,38.81479,190],[-90.38945,38.81476,190],[-90.38944,38.81472,190],[-90.38944,38.81469,190],[-90.38944,38.81465,190],[-90.38945,38.81462,190],[-90.38945,38.81459,190],[-90.38945,38.81456,190],[-90.38947,38.81453,190],[-90.38947,38.81449,190],[-90.38947,38.81446,189],[-90.38946,38.81443,189],[-90.38944,38.8144,189],[-90.38943,38.81438,189],[-90.38939,38.81436,189],[-90.38935,38.81435,190],[-90.38931,38.81433,190],[-90.38927,38.81432,191],[-90.38922,38.81431,191],[-90.38918,38.81429,192],[-90.38915,38.81428,192],[-90.38912,38.81425,192],[-90.38909,38.81424,192],[-90.38905,38.81424,192],[-90.38901,38.81424,192],[-90.38897,38.81423,192],[-90.38893,38.81423,192],[-90.38889,38.81422,192],[-90.38884,38.81421,193],[-90.3888,38.8142,194],[-90.38876,38.81418,194],[-90.38873,38.81417,195],[-90.38869,38.81416,195],[-90.38865,38.81415,196],[-90.38862,38.81414,196],[-90.38858,38.81413,196],[-90.38854,38.81411,197],[-90.3885,38.8141,197],[-90.38846,38.81409,197],[-90.38842,38.81407,197],[-90.38838,38.81405,198],[-90.38835,38.81403,198],[-90.38831,38.81401,198],[-90.38827,38.814,198],[-90.38823,38.81398,198],[-90.38819,38.81397,198],[-90.38815,38.81397,198],[-90.3881,38.81398,199],[-90.38806,38.81399,199],[-90.38802,38.81399,199],[-90.38798,38.814,199],[-90.38794,38.814,199],[-90.3879,38.81401,199],[-90.38785,38.81401,199],[-90.3878,38.81401,199],[-90.38776,38.81401,200],[-90.38771,38.81401,200],[-90.38767,38.814,200],[-90.38765,38.81398,200],[-90.38762,38.81396,200],[-90.38759,38.81394,200],[-90.38756,38.81391,200],[-90.38753,38.81389,199],[-90.38751,38.81386,199],[-90.3875,38.81383,199],[-90.3875,38.81379,198],[-90.38751,38.81375,198],[-90.38751,38.81372,197],[-90.38751,38.81368,197],[-90.38752,38.81365,196],[-90.38753,38.81362,196],[-90.38753,38.81359,196],[-90.38753,38.81356,195],[-90.38753,38.81352,195],[-90.38754,38.81349,195],[-90.38755,38.81346,195],[-90.38755,38.81342,194],[-90.38755,38.81339,194],[-90.38755,38.81336,194],[-90.38755,38.81332,194],[-90.38758,38.8133,194],[-90.38762,38.8133,194],[-90.38766,38.8133,194],[-90.38771,38.8133,195],[-90.38774,38.8133,195],[-90.38778,38.8133,195],[-90.38782,38.81329,195],[-90.38785,38.81327,195],[-90.38788,38.81326,195],[-90.3879,38.81323,194],[-90.38791,38.81321,194],[-90.38794,38.81319,193],[-90.38796,38.81316,193],[-90.38797,38.81313,192],[-90.38799,38.8131,192],[-90.388,38.81307,191],[-90.38801,38.81304,191],[-90.38802,38.81302,190],[-90.38801,38.81298,190],[-90.388,38.81295,190],[-90.38801,38.81292,189],[-90.38802,38.81289,189],[-90.38803,38.81287,189],[-90.38803,38.81283,188],[-90.38802,38.8128,188],[-90.38805,38.81278,188],[-90.38809,38.81278,186],[-90.38813,38.81276,185],[-90.38816,38.81275,184],[-90.38819,38.81274,183],[-90.38822,38.81273,182],[-90.38826,38.81274,181],[-90.3883,38.81274,180],[-90.38833,38.81273,179],[-90.38837,38.81271,177],[-90.3884,38.81271,176],[-90.38843,38.81269,175],[-90.38844,38.81267,174],[-90.38848,38.81265,173],[-90.38851,38.81263,172],[-90.38852,38.8126,171],[-90.38852,38.81256,171],[-90.38853,38.81254,171],[-90.38855,38.81251,170],[-90.38857,38.81248,169],[-90.38857,38.81245,168],[-90.38856,38.81242,168],[-90.38855,38.81239,168],[-90.38856,38.81236,167],[-90.38858,38.81233,166],[-90.3886,38.81231,165],[-90.38864,38.8123,165],[-90.38868,38.81229,164],[-90.38871,38.81228,164],[-90.38872,38.81225,163],[-90.38875,38.81221,162],[-90.38876,38.81218,162],[-90.38877,38.81215,161],[-90.38876,38.81212,161],[-90.38875,38.8121,161],[-90.38871,38.81208,161],[-90.38868,38.81208,162],[-90.38864,38.81205,162],[-90.38861,38.81204,162],[-90.3886,38.81201,162],[-90.38857,38.81198,162],[-90.38856,38.81195,163],[-90.38855,38.81192,163],[-90.38855,38.81188,163],[-90.38855,38.81185,163],[-90.38855,38.81181,164],[-90.38857,38.81178,164],[-90.38859,38.81176,164],[-90.3886,38.81173,164],[-90.38863,38.8117,164],[-90.38866,38.81168,164],[-90.38868,38.81165,163],[-90.38871,38.81163,163],[-90.38874,38.81161,162],[-90.38876,38.81159,161],[-90.38877,38.81156,161],[-90.38881,38.81155,160],[-90.38885,38.81156,160],[-90.38888,38.81154,159],[-90.38891,38.81153,158],[-90.38895,38.81151,157],[-90.38898,38.81151,156],[-90.38902,38.8115,155],[-90.38905,38.81149,154],[-90.38909,38.81147,153],[-90.3891,38.81144,153],[-90.38913,38.81142,152],[-90.38916,38.8114,152],[-90.38918,38.81138,152],[-90.38922,38.81136,152],[-90.38926,38.81135,152],[-90.3893,38.81136,152],[-90.38935,38.81137,152],[-90.38939,38.81136,152],[-90.3894,38.81133,152],[-90.38941,38.8113,152],[-90.38942,38.81127,152],[-90.38944,38.81124,152],[-90.38945,38.81121,151],[-90.38946,38.81118,151],[-90.38947,38.81115,151],[-90.3895,38.81113,151],[-90.38955,38.81112,151],[-90.38958,38.81113,151],[-90.38962,38.81114,151],[-90.38965,38.81115,151],[-90.3897,38.81117,150],[-90.38974,38.81117,150],[-90.38977,38.81118,150],[-90.38981,38.81118,149],[-90.38985,38.81117,148],[-90.38988,38.81116,148],[-90.38993,38.81115,147],[-90.38996,38.81115,147],[-90.39,38.81115,146],[-90.39003,38.81116,146],[-90.39007,38.81116,145],[-90.39011,38.81117,145],[-90.39015,38.81118,144],[-90.39019,38.81118,144],[-90.39024,38.81118,143],[-90.39029,38.81117,142],[-90.39033,38.81117,142],[-90.39037,38.81118,142],[-90.39041,38.81119,142],[-90.39045,38.8112,142],[-90.39048,38.81122,142],[-90.39052,38.81123,142],[-90.39055,38.81125,142],[-90.39059,38.81126,142],[-90.39064,38.81125,142],[-90.39066,38.81123,142],[-90.39069,38.81121,142],[-90.39072,38.81119,141],[-90.39077,38.81118,141],[-90.3908,38.81117,141],[-90.3908,38.81113,141],[-90.3908,38.8111,141],[-90.39081,38.81107,140],[-90.39082,38.81104,140],[-90.39082,38.81101,139],[-90.39082,38.81098,139],[-90.39082,38.81095,139],[-90.39081,38.81092,139],[-90.3908,38.81089,138],[-90.39079,38.81087,138],[-90.39079,38.81083,138],[-90.3908,38.8108,138],[-90.39082,38.81078,138],[-90.39084,38.81081,138],[-90.39081,38.8108,138],[-90.39078,38.81082,138],[-90.39079,38.81079,138],[-90.39082,38.81079,138],[-90.39084,38.81081,138],[-90.39085,38.81084,137]]],
        "bbox": [
          -90.3875,
          38.81776,
          -90.39486,
          38.81078
        ]
      },
      "properties": {
        "name": "5.6.2022"
      }
    }
  ]
}