{
  "type": "FeatureCollection",
  "features": [
    {
      "type": "Feature",
      "geometry": {
        "type": "MultiLineString",
        "coordinates": [[[-90.39084,38.81126,142],[-90.39103,38.8115,143]],[[-90.39101,38.81166,145],[-90.39096,38.81177,147],[-90.39093,38.81196,150],[-90.39084,38.81216,149],[-90.39079,38.81234,147],[-90.39098,38.81246,143],[-90.39103,38.81277,148],[-90.39111,38.81297,151],[-90.39119,38.81314,153],[-90.39134,38.81329,151],[-90.39151,38.81343,148],[-90.39159,38.81359,145],[-90.39176,38.81376,143],[-90.39193,38.81388,138],[-90.39211,38.814,141],[-90.39225,38.81413,148],[-90.39245,38.81429,152],[-90.39259,38.81443,154],[-90.39281,38.81454,152],[-90.39289,38.81471,149],[-90.39296,38.81489,148],[-90.39307,38.81506,147],[-90.39311,38.81523,144],[-90.39296,38.81538,145],[-90.39274,38.81544,149],[-90.39261,38.81559,150],[-90.39266,38.81579,144],[-90.3926,38.81596,145],[-90.39241,38.81611,151],[-90.39223,38.81622,154],[-90.39227,38.81643,147],[-90.39235,38.81629,148],[-90.39254,38.81613,147],[-90.39268,38.81599,143],[-90.39261,38.8158,146],[-90.39272,38.81562,145],[-90.39289,38.8155,143],[-90.3931,38.81541,140],[-90.39319,38.81521,143],[-90.39323,38.81503,144],[-90.39312,38.81486,145],[-90.39302,38.81469,146],[-90.39287,38.81454,150],[-90.39271,38.81439,152],[-90.39254,38.81424,151],[-90.39232,38.81416,150],[-90.39214,38.81406,144],[-90.3919,38.81411,150],[-90.39181,38.81429,158],[-90.39174,38.81446,165],[-90.39183,38.81458,164],[-90.39186,38.81478,166],[-90.39184,38.81497,169],[-90.39189,38.81517,173],[-90.39187,38.81536,177],[-90.39183,38.81554,179],[-90.39186,38.81572,176],[-90.39161,38.81565,182],[-90.39146,38.81551,184],[-90.39116,38.81532,186],[-90.39093,38.81544,186],[-90.39071,38.81546,184],[-90.39048,38.81541,182],[-90.39025,38.81532,181],[-90.39001,38.81527,182],[-90.38981,38.81517,185],[-90.38969,38.81501,188],[-90.38957,38.81487,189],[-90.3896,38.8147,191],[-90.38963,38.81453,190],[-90.38948,38.81436,189],[-90.38927,38.81429,191],[-90.38907,38.81416,192],[-90.38885,38.81412,193],[-90.38861,38.81414,196],[-90.38836,38.81395,197],[-90.3882,38.81385,198],[-90.38797,38.81389,199],[-90.38772,38.81388,199],[-90.38761,38.81374,198],[-90.38751,38.81356,195],[-90.38766,38.81341,195],[-90.38782,38.81331,195],[-90.38794,38.81317,193],[-90.38801,38.81298,190],[-90.38813,38.81282,186],[-90.38835,38.81278,179],[-90.38859,38.81258,169],[-90.38865,38.81241,166],[-90.3888,38.81226,163],[-90.38878,38.81207,160],[-90.38866,38.81191,161],[-90.38869,38.81174,162],[-90.38888,38.81162,159],[-90.38907,38.81151,154],[-90.38924,38.81137,152],[-90.38945,38.8113,151],[-90.3897,38.81129,150],[-90.38994,38.81127,146],[-90.3902,38.81124,143],[-90.39045,38.81128,142],[-90.39066,38.81124,142]]],
        "bbox": [
          -90.38751,
          38.81643,
          -90.39323,
          38.81124
        ]
      },
      "properties": {
        "name": "11.26.2016"
      }
    }
  ]
}