{
  "type": "FeatureCollection",
  "features": [
    {
      "type": "Feature",
      "geometry": {
        "type": "MultiLineString",
        "coordinates": [[[-90.39493,38.8139,134],[-90.39496,38.81394,134],[-90.395,38.81395,134],[-90.39501,38.81399,135],[-90.39502,38.81404,135],[-90.39507,38.81405,135],[-90.39511,38.81407,135],[-90.39515,38.81409,135],[-90.3952,38.81412,135],[-90.39525,38.81414,135],[-90.39529,38.81416,135],[-90.39533,38.81417,135],[-90.39537,38.81419,135],[-90.3954,38.8142,135],[-90.39544,38.81422,135],[-90.39547,38.81424,135],[-90.39551,38.81426,135],[-90.39555,38.81428,135],[-90.39558,38.81429,135],[-90.39562,38.81431,135],[-90.39566,38.81433,135],[-90.3957,38.81434,135],[-90.39574,38.81436,135],[-90.39578,38.81438,135],[-90.39582,38.8144,135],[-90.39586,38.81441,135],[-90.3959,38.81443,135],[-90.39593,38.81445,136],[-90.39597,38.81447,135],[-90.39601,38.81449,135],[-90.39605,38.81451,135],[-90.39609,38.81452,135],[-90.39613,38.81454,135],[-90.39617,38.81456,134],[-90.39621,38.81458,134],[-90.39624,38.8146,133],[-90.39628,38.81462,133],[-90.39632,38.81464,132],[-90.39636,38.81466,132],[-90.3964,38.81468,131],[-90.39644,38.8147,131],[-90.39648,38.81472,130],[-90.39652,38.81474,130],[-90.39656,38.81476,130],[-90.3966,38.81478,129],[-90.39664,38.8148,129],[-90.39668,38.81482,129],[-90.39672,38.81484,129],[-90.39676,38.81486,129],[-90.39679,38.81488,129],[-90.39683,38.8149,129],[-90.39679,38.81492,129],[-90.39673,38.81493,128],[-90.39675,38.81496,128],[-90.39678,38.81498,128],[-90.39682,38.815,129],[-90.39685,38.81503,129],[-90.39687,38.81505,129],[-90.39689,38.81509,129],[-90.39691,38.81512,128],[-90.39693,38.81514,128],[-90.39697,38.81516,129],[-90.397,38.81519,129],[-90.39704,38.81522,129],[-90.39707,38.81524,129],[-90.39711,38.81527,129],[-90.39714,38.8153,130],[-90.39717,38.81533,130],[-90.39721,38.81535,130],[-90.39724,38.81535,131],[-90.39728,38.81533,131],[-90.3973,38.81535,131],[-90.39733,38.81537,131],[-90.39736,38.8154,131],[-90.39739,38.81543,131],[-90.39742,38.81546,131],[-90.39745,38.81549,131],[-90.39748,38.81551,131],[-90.39752,38.81554,132],[-90.39755,38.81556,132],[-90.39759,38.81558,132],[-90.39762,38.8156,132],[-90.39767,38.81562,132],[-90.39772,38.81563,132],[-90.39776,38.81565,132],[-90.3978,38.81567,131],[-90.39783,38.81569,131],[-90.39786,38.81571,131],[-90.39789,38.81573,131],[-90.39791,38.81576,131],[-90.39795,38.81578,131],[-90.39798,38.8158,131],[-90.39801,38.81582,131],[-90.39805,38.81584,130],[-90.39808,38.81586,130],[-90.39811,38.81588,130],[-90.39815,38.8159,130],[-90.39818,38.81592,129],[-90.39822,38.81594,129],[-90.39825,38.81596,129],[-90.39828,38.81598,129],[-90.39831,38.816,129],[-90.39834,38.81602,129],[-90.39837,38.81604,129],[-90.3984,38.81606,129],[-90.39843,38.81608,129],[-90.39846,38.8161,129],[-90.39849,38.81612,130],[-90.39852,38.81615,130],[-90.39855,38.81616,130],[-90.39858,38.81619,131],[-90.39861,38.81621,131],[-90.39864,38.81623,131],[-90.39867,38.81624,131],[-90.3987,38.81626,132],[-90.39873,38.81628,132],[-90.39876,38.8163,132],[-90.39879,38.81631,132],[-90.39882,38.81633,133],[-90.39885,38.81635,133],[-90.39888,38.81637,133],[-90.39891,38.81639,134],[-90.39894,38.81641,134],[-90.39897,38.81643,134],[-90.399,38.81645,134],[-90.39903,38.81647,134],[-90.39906,38.81649,134],[-90.39909,38.81651,135],[-90.39912,38.81653,135],[-90.39915,38.81655,135],[-90.39918,38.81657,135],[-90.39922,38.81659,135],[-90.39925,38.81661,135],[-90.39928,38.81663,135],[-90.39931,38.81665,135],[-90.39935,38.81667,135],[-90.39938,38.81669,135],[-90.39941,38.81671,134],[-90.39945,38.81673,134],[-90.39948,38.81675,134],[-90.39952,38.81677,134],[-90.39955,38.81679,134],[-90.39959,38.81681,134],[-90.39963,38.81683,134],[-90.39967,38.81684,133],[-90.39971,38.81685,133],[-90.39975,38.81687,133],[-90.39979,38.81689,133],[-90.39983,38.81691,133],[-90.39986,38.81693,133],[-90.3999,38.81695,133],[-90.39994,38.81697,133],[-90.39998,38.81699,133],[-90.40002,38.81701,133],[-90.40006,38.81702,133],[-90.4001,38.81704,133],[-90.40013,38.81706,133],[-90.40017,38.81708,133],[-90.4002,38.8171,133],[-90.40024,38.81712,133],[-90.40027,38.81714,133],[-90.40031,38.81716,134],[-90.40034,38.81718,134],[-90.40038,38.8172,134],[-90.40041,38.81722,134],[-90.40045,38.81724,134],[-90.40049,38.81726,134],[-90.40052,38.81728,134],[-90.40056,38.8173,134],[-90.40059,38.81732,134],[-90.40063,38.81735,134],[-90.40067,38.81738,134],[-90.40071,38.81741,133],[-90.40075,38.81743,133],[-90.40078,38.81745,133],[-90.40082,38.81747,133],[-90.40085,38.81749,133],[-90.40088,38.81751,133],[-90.40091,38.81753,133],[-90.40095,38.81756,133],[-90.40099,38.81759,133],[-90.40105,38.81764,133],[-90.40112,38.81758,133],[-90.40113,38.81749,133],[-90.40115,38.81742,133],[-90.40119,38.81737,133],[-90.40124,38.81736,133],[-90.40131,38.81735,132],[-90.40136,38.81735,132],[-90.40141,38.81734,132],[-90.40147,38.81732,132],[-90.40152,38.81731,131],[-90.40158,38.81729,131],[-90.40163,38.81728,131],[-90.40169,38.81727,131],[-90.40174,38.81726,131],[-90.4018,38.81726,131],[-90.40186,38.81726,131],[-90.40191,38.81726,131],[-90.40197,38.81726,131],[-90.40203,38.81725,132],[-90.40208,38.81724,132],[-90.40213,38.81723,132],[-90.40218,38.81722,132],[-90.40224,38.81721,133],[-90.40229,38.81721,133],[-90.40234,38.8172,133],[-90.4024,38.81719,133],[-90.40245,38.81719,133],[-90.4025,38.81718,133],[-90.40255,38.81718,133],[-90.4026,38.81717,133],[-90.40265,38.81716,133],[-90.4027,38.81714,133],[-90.40276,38.81713,133],[-90.40281,38.81712,133],[-90.40286,38.8171,133],[-90.40291,38.81709,133],[-90.40296,38.81707,132],[-90.403,38.81706,132],[-90.40305,38.81706,132],[-90.40309,38.81705,132],[-90.40314,38.81707,132],[-90.40317,38.81711,132],[-90.4032,38.81715,132],[-90.40326,38.81716,132],[-90.4033,38.81715,131],[-90.40335,38.81714,131],[-90.40339,38.81714,131],[-90.40344,38.81713,131],[-90.40349,38.81711,131],[-90.40354,38.8171,131],[-90.4036,38.81708,131],[-90.40365,38.81707,131],[-90.4037,38.81706,131],[-90.40375,38.81705,131],[-90.4038,38.81704,132],[-90.40385,38.81703,132],[-90.40391,38.81703,132],[-90.40396,38.81702,132],[-90.40401,38.81702,132],[-90.40405,38.81703,132],[-90.404,38.81703,132],[-90.40394,38.81704,132],[-90.40389,38.81705,132],[-90.40387,38.8171,132],[-90.40386,38.81714,132],[-90.40387,38.81717,132],[-90.40382,38.8172,132],[-90.40377,38.81721,132],[-90.40371,38.81722,131],[-90.40367,38.81723,131],[-90.40361,38.81724,131],[-90.40357,38.81726,131],[-90.40354,38.81729,131],[-90.40352,38.81733,131],[-90.40351,38.81737,132],[-90.40349,38.81741,132],[-90.40347,38.81745,132],[-90.40346,38.81748,132],[-90.40343,38.81752,133],[-90.40341,38.81755,133],[-90.40339,38.81759,133],[-90.40336,38.81763,133],[-90.40334,38.81766,134],[-90.40331,38.81769,134],[-90.40329,38.81773,134],[-90.40326,38.81776,134],[-90.40324,38.8178,134],[-90.40322,38.81785,134],[-90.4032,38.81789,134],[-90.40319,38.81793,134],[-90.40316,38.81796,134],[-90.40314,38.81799,134],[-90.40318,38.81802,134],[-90.40321,38.81804,134],[-90.40326,38.81807,133],[-90.40326,38.81811,133],[-90.40322,38.81814,133],[-90.40317,38.81812,133],[-90.40313,38.8181,133],[-90.40308,38.81809,133],[-90.40304,38.8181,133],[-90.40299,38.81811,133],[-90.40295,38.81813,133],[-90.40292,38.81817,133],[-90.4029,38.81821,133],[-90.40288,38.81825,133],[-90.40284,38.81828,134],[-90.4028,38.8183,134],[-90.40274,38.8183,134],[-90.4027,38.81833,135],[-90.40267,38.81836,135],[-90.40266,38.81842,136],[-90.40265,38.81847,136],[-90.40264,38.81852,137],[-90.40262,38.81855,137],[-90.40259,38.81858,138],[-90.40255,38.81856,138],[-90.40271,38.8185,136],[-90.40289,38.81851,134],[-90.40301,38.81852,134],[-90.40309,38.81856,133],[-90.40312,38.81862,134],[-90.40314,38.81868,134],[-90.40316,38.81874,134],[-90.40321,38.81878,134],[-90.40324,38.81882,135],[-90.40329,38.81885,135],[-90.40328,38.81889,135],[-90.40323,38.81891,135],[-90.40319,38.81894,135],[-90.4032,38.81898,135],[-90.40324,38.819,135],[-90.40329,38.81903,135],[-90.40332,38.81906,135],[-90.40336,38.81909,135],[-90.40341,38.81913,135],[-90.40346,38.81917,134],[-90.4035,38.8192,133],[-90.40355,38.81924,132],[-90.40359,38.81927,132],[-90.40363,38.8193,131],[-90.40367,38.81933,131],[-90.40372,38.81934,130],[-90.40378,38.81935,130],[-90.40383,38.81936,130],[-90.40388,38.81938,130],[-90.40393,38.81939,130],[-90.40398,38.81938,130],[-90.40402,38.81938,131],[-90.40406,38.81938,131],[-90.4041,38.81939,131],[-90.40415,38.8194,131],[-90.40421,38.81941,132],[-90.40425,38.81942,132],[-90.4043,38.81942,132],[-90.40435,38.81941,132],[-90.4044,38.8194,132],[-90.40445,38.81939,131],[-90.4045,38.81938,131],[-90.40455,38.81938,131],[-90.4046,38.81938,131],[-90.40465,38.81937,131],[-90.4047,38.81937,131],[-90.40475,38.81937,131],[-90.4048,38.81937,131],[-90.40485,38.81937,131],[-90.4049,38.81938,131],[-90.40495,38.81938,132],[-90.405,38.81939,132],[-90.40505,38.8194,133],[-90.4051,38.8194,133],[-90.40504,38.81941,133],[-90.40511,38.81947,134],[-90.40519,38.81948,135],[-90.40528,38.81948,136],[-90.40537,38.81948,136],[-90.40545,38.81948,136],[-90.40551,38.81948,136],[-90.40557,38.81948,136],[-90.40562,38.81949,136],[-90.40567,38.8195,136],[-90.40569,38.81954,136],[-90.40571,38.81959,137],[-90.40576,38.8196,137],[-90.4058,38.81962,137],[-90.40585,38.81964,137],[-90.40589,38.81967,137],[-90.40593,38.8197,137],[-90.40597,38.81972,137],[-90.40601,38.81974,136],[-90.40606,38.81976,136],[-90.40611,38.81977,135],[-90.40616,38.81979,134],[-90.40621,38.8198,134],[-90.40626,38.81982,134],[-90.40631,38.81983,133],[-90.40636,38.81985,133],[-90.40641,38.81986,132],[-90.40647,38.81987,132],[-90.40652,38.81988,132],[-90.40658,38.81989,132],[-90.4066,38.81993,132],[-90.40662,38.81999,132],[-90.40665,38.82003,131],[-90.40667,38.82007,132],[-90.40667,38.82011,132],[-90.40667,38.82017,132],[-90.40662,38.82022,131],[-90.40654,38.82025,131],[-90.40644,38.82025,131],[-90.40637,38.82026,131],[-90.40631,38.82027,131],[-90.40624,38.82028,131],[-90.40618,38.82029,131],[-90.40612,38.8203,131],[-90.4061,38.82027,131],[-90.40611,38.8203,132],[-90.40609,38.82039,136],[-90.40609,38.82046,139],[-90.40612,38.82051,140],[-90.40621,38.82053,139],[-90.40627,38.82055,138],[-90.40632,38.82057,137],[-90.40635,38.82061,136],[-90.40638,38.82065,136],[-90.4064,38.82069,136],[-90.40642,38.82073,137],[-90.40643,38.82078,137],[-90.40643,38.82081,138],[-90.40642,38.82076,137],[-90.40637,38.82074,138],[-90.40642,38.82072,137],[-90.40642,38.82067,136],[-90.40643,38.82064,135],[-90.40648,38.82061,134],[-90.40644,38.82063,135],[-90.40638,38.82067,136],[-90.40635,38.82072,138],[-90.40632,38.82076,139],[-90.40637,38.82074,138],[-90.40642,38.82073,137],[-90.40647,38.82071,136],[-90.40649,38.82068,135],[-90.40653,38.82066,134],[-90.40657,38.82064,134],[-90.40661,38.82062,133],[-90.40663,38.82059,132],[-90.4066,38.82055,132],[-90.40658,38.82052,132],[-90.40657,38.82048,132],[-90.40655,38.82045,132],[-90.40652,38.82042,132],[-90.4065,38.82039,132],[-90.40649,38.82035,132],[-90.40648,38.82031,131],[-90.40647,38.82028,131],[-90.4065,38.82025,131],[-90.40653,38.82022,131],[-90.40656,38.8202,131],[-90.40659,38.82017,131],[-90.40662,38.82014,131],[-90.40664,38.82011,131],[-90.40667,38.82009,132],[-90.40669,38.82006,132],[-90.4067,38.82003,132],[-90.40669,38.82,132],[-90.40666,38.81998,132],[-90.40664,38.81995,132],[-90.40662,38.81992,132],[-90.40662,38.81988,132],[-90.40662,38.81984,132],[-90.4066,38.8198,132],[-90.40656,38.81977,133],[-90.40653,38.81975,133],[-90.40648,38.81973,133],[-90.40643,38.81974,133],[-90.40637,38.81975,133],[-90.40632,38.81974,134],[-90.40626,38.81972,134],[-90.40622,38.81971,135],[-90.40616,38.81969,135],[-90.40611,38.81968,135],[-90.40607,38.81967,135],[-90.40601,38.81966,136],[-90.40597,38.81964,136],[-90.40591,38.81963,136],[-90.40586,38.81961,137],[-90.40582,38.81958,136],[-90.40577,38.81956,136],[-90.40573,38.81953,136],[-90.40568,38.81951,136],[-90.40563,38.81949,136],[-90.40558,38.81947,136],[-90.40553,38.81944,135],[-90.40549,38.81941,135],[-90.40544,38.81938,135],[-90.40538,38.81935,134],[-90.40532,38.81936,134],[-90.40529,38.8194,135],[-90.40524,38.81943,135],[-90.40518,38.81943,134],[-90.40513,38.81941,134],[-90.40508,38.8194,133],[-90.40503,38.81938,132],[-90.40498,38.81936,132],[-90.40492,38.81933,131],[-90.40485,38.81931,131],[-90.40478,38.81929,131],[-90.40471,38.81928,131],[-90.40464,38.81927,131],[-90.40457,38.81926,131],[-90.4045,38.81926,131],[-90.40443,38.81926,132],[-90.40437,38.81925,132],[-90.40431,38.81926,132],[-90.40428,38.81929,132],[-90.40425,38.81933,132],[-90.4042,38.81936,132],[-90.40414,38.81935,131],[-90.40409,38.81934,131],[-90.40404,38.81933,131],[-90.40398,38.81932,131],[-90.40392,38.81932,131],[-90.40387,38.81931,131],[-90.40382,38.81929,131],[-90.40376,38.81927,131],[-90.40371,38.81925,131],[-90.40366,38.81923,132],[-90.40361,38.81922,132],[-90.40357,38.81919,133],[-90.40353,38.81917,133],[-90.40356,38.81913,133],[-90.40355,38.81909,134],[-90.40353,38.81903,134],[-90.40351,38.81899,135],[-90.40348,38.81895,135],[-90.40344,38.81893,135],[-90.40339,38.8189,135],[-90.40334,38.81889,135],[-90.40329,38.81888,135],[-90.40324,38.81886,135],[-90.4032,38.81882,135],[-90.40316,38.8188,134],[-90.40313,38.81877,134],[-90.40309,38.81873,134],[-90.40306,38.81869,134],[-90.40303,38.81863,134],[-90.403,38.81857,134],[-90.40297,38.81851,134],[-90.4029,38.81847,134],[-90.40281,38.81844,135],[-90.40274,38.81841,135],[-90.40267,38.81838,135],[-90.40261,38.81836,135],[-90.40255,38.81833,135],[-90.40248,38.81831,135],[-90.40241,38.81827,135],[-90.40235,38.81824,134],[-90.40228,38.8182,133],[-90.40222,38.81817,133],[-90.40214,38.81814,132],[-90.40207,38.81812,132],[-90.402,38.81809,132],[-90.40193,38.81806,132],[-90.40187,38.81803,132],[-90.40181,38.81801,132],[-90.40176,38.81798,132],[-90.4017,38.81795,132],[-90.40165,38.81792,132],[-90.40159,38.81788,133],[-90.40154,38.81786,133],[-90.4015,38.81783,134],[-90.40145,38.81781,134],[-90.4014,38.81778,134],[-90.40135,38.81776,134],[-90.4013,38.81773,134],[-90.40125,38.8177,134],[-90.4012,38.81768,134],[-90.40114,38.81765,134],[-90.40108,38.81762,133],[-90.40102,38.81758,133],[-90.40096,38.81755,133],[-90.40091,38.81752,133],[-90.40085,38.81749,133],[-90.4008,38.81746,133],[-90.40076,38.81744,133],[-90.4007,38.81741,133],[-90.40065,38.81738,134],[-90.4006,38.81736,134],[-90.40056,38.81733,134],[-90.40051,38.8173,134],[-90.40048,38.81726,134],[-90.40046,38.81721,134],[-90.40042,38.81716,134],[-90.40038,38.81713,134],[-90.40032,38.81711,134],[-90.40027,38.81709,133],[-90.40022,38.81706,133],[-90.40018,38.81703,133],[-90.40013,38.817,133],[-90.40008,38.81698,133],[-90.40004,38.81695,133],[-90.39999,38.81692,134],[-90.39994,38.8169,133],[-90.39989,38.81687,133],[-90.39985,38.81685,133],[-90.3998,38.81682,134],[-90.39975,38.8168,134],[-90.3997,38.81677,134],[-90.39965,38.81674,134],[-90.39961,38.81672,134],[-90.39957,38.8167,134],[-90.39952,38.81669,134],[-90.39947,38.81668,134],[-90.39943,38.81666,135],[-90.39938,38.81664,135],[-90.39935,38.81662,135],[-90.39931,38.8166,135],[-90.39927,38.81658,135],[-90.39923,38.81655,135],[-90.39919,38.81653,135],[-90.39916,38.81651,135],[-90.39912,38.81649,135],[-90.39908,38.81647,134],[-90.39905,38.81645,134],[-90.39901,38.81643,134],[-90.39897,38.81641,134],[-90.39893,38.81638,134],[-90.3989,38.81636,133],[-90.39886,38.81634,133],[-90.39882,38.81632,133],[-90.39878,38.81629,132],[-90.39874,38.81627,132],[-90.39871,38.81625,132],[-90.39867,38.81622,131],[-90.39863,38.8162,131],[-90.39859,38.81617,131],[-90.39856,38.81615,130],[-90.39852,38.81613,130],[-90.39848,38.81611,130],[-90.39845,38.81608,129],[-90.39841,38.81606,129],[-90.39837,38.81604,129],[-90.39833,38.81601,129],[-90.3983,38.81599,129],[-90.39826,38.81597,129],[-90.39822,38.81594,129],[-90.39818,38.81592,129],[-90.39814,38.8159,130],[-90.39811,38.81587,130],[-90.39807,38.81585,130],[-90.39804,38.81583,131],[-90.39801,38.81581,131],[-90.39797,38.81578,131],[-90.39794,38.81576,131],[-90.39791,38.81574,131],[-90.39787,38.81571,131],[-90.39793,38.81571,131],[-90.398,38.81574,131],[-90.39804,38.81576,131],[-90.39808,38.81577,131],[-90.39814,38.8158,130],[-90.39808,38.8158,130],[-90.39802,38.81579,131],[-90.39798,38.81577,131],[-90.39794,38.81573,131],[-90.39791,38.8157,131],[-90.39787,38.81567,131],[-90.39783,38.81564,131],[-90.39779,38.81561,131],[-90.39775,38.81559,132],[-90.39771,38.81557,132],[-90.39768,38.81555,132],[-90.39764,38.81552,132],[-90.3976,38.8155,132],[-90.39756,38.81548,132],[-90.39752,38.81546,132],[-90.39748,38.81543,131],[-90.39744,38.81541,131],[-90.3974,38.81539,131],[-90.39736,38.81537,131],[-90.39733,38.81535,131],[-90.39729,38.81533,131],[-90.39725,38.81531,131],[-90.39721,38.81529,130],[-90.39718,38.81527,130],[-90.39714,38.81524,130],[-90.3971,38.81522,130],[-90.39707,38.8152,129],[-90.39704,38.81517,129],[-90.397,38.81515,129],[-90.39697,38.81513,129],[-90.39693,38.8151,129],[-90.3969,38.81508,129],[-90.39686,38.81505,129],[-90.39683,38.81502,129],[-90.39679,38.815,128],[-90.39676,38.81497,128],[-90.39673,38.81494,128],[-90.3967,38.81491,128],[-90.39667,38.81488,128],[-90.39663,38.81485,129],[-90.3966,38.81483,129],[-90.39657,38.8148,129],[-90.39654,38.81477,129],[-90.3965,38.81474,130],[-90.39647,38.81472,130],[-90.39644,38.81469,131],[-90.3964,38.81466,131],[-90.39637,38.81464,132],[-90.39634,38.81461,132],[-90.3963,38.81459,133],[-90.39627,38.81456,133],[-90.39623,38.81454,134],[-90.3962,38.81452,134],[-90.39616,38.81449,135],[-90.39613,38.81447,135],[-90.39608,38.81444,135],[-90.39604,38.81442,135],[-90.39599,38.81439,135],[-90.39594,38.81436,135],[-90.39589,38.81434,135],[-90.39585,38.81436,135],[-90.3958,38.81435,135],[-90.39576,38.81433,135],[-90.39572,38.81431,135],[-90.39568,38.81429,135],[-90.39564,38.81427,135],[-90.39561,38.81425,135],[-90.39557,38.81422,135],[-90.39553,38.8142,135],[-90.39549,38.81418,135],[-90.39545,38.81416,135],[-90.39541,38.81413,135],[-90.39537,38.81411,135],[-90.39533,38.81409,135],[-90.39529,38.81407,135],[-90.39526,38.81405,135],[-90.39522,38.81403,135],[-90.39518,38.81401,135],[-90.39514,38.81399,135],[-90.3951,38.81398,135],[-90.39507,38.81396,135],[-90.39503,38.81394,135],[-90.39498,38.81392,134],[-90.39494,38.8139,134],[-90.39492,38.81387,135],[-90.39487,38.81384,135],[-90.39482,38.81382,135],[-90.39477,38.81379,135],[-90.39473,38.81377,135],[-90.39468,38.81375,135],[-90.39464,38.81374,135],[-90.3946,38.81372,134],[-90.39456,38.8137,134],[-90.39452,38.81368,134],[-90.39448,38.81366,134],[-90.39444,38.81364,133],[-90.3944,38.81362,133],[-90.39436,38.8136,133],[-90.39432,38.81358,133],[-90.39428,38.81356,133],[-90.39424,38.81353,133],[-90.3942,38.81351,133],[-90.39416,38.81349,132],[-90.39412,38.81347,132],[-90.39408,38.81345,132],[-90.39404,38.81343,132],[-90.394,38.81341,132],[-90.39396,38.81339,132],[-90.39392,38.81337,132],[-90.39388,38.81335,132],[-90.39384,38.81333,132],[-90.3938,38.8133,132],[-90.39377,38.81327,132],[-90.39375,38.81323,132],[-90.39372,38.8132,132],[-90.39369,38.81317,132],[-90.39365,38.81313,132],[-90.39361,38.81311,132],[-90.39357,38.81308,132],[-90.39354,38.81305,132],[-90.3935,38.81302,132],[-90.39347,38.81298,133],[-90.39344,38.81295,133],[-90.3934,38.81292,133],[-90.39337,38.81289,134],[-90.39333,38.81287,134],[-90.39328,38.8129,134],[-90.39324,38.81295,133],[-90.39321,38.81298,133],[-90.39317,38.81302,133],[-90.39313,38.81305,133],[-90.39309,38.81308,132],[-90.39304,38.81312,133],[-90.393,38.81315,133],[-90.39297,38.81318,133],[-90.39293,38.81321,133],[-90.3929,38.81324,133],[-90.39286,38.81328,134],[-90.39282,38.81332,134],[-90.39278,38.81335,135],[-90.39273,38.81339,135],[-90.39269,38.81342,136],[-90.39264,38.81346,137],[-90.39259,38.8135,137],[-90.39255,38.81354,138],[-90.39252,38.81357,138],[-90.39253,38.81361,138],[-90.39256,38.81366,138],[-90.39256,38.8137,138],[-90.39253,38.81375,138],[-90.3925,38.81379,138],[-90.39247,38.81383,137],[-90.39244,38.81387,137],[-90.39241,38.8139,136],[-90.39239,38.81394,138],[-90.39236,38.81397,139],[-90.39233,38.81401,141],[-90.39231,38.81405,143],[-90.39228,38.81408,145],[-90.39224,38.81412,148],[-90.39223,38.81416,150],[-90.39223,38.81421,151],[-90.39224,38.81426,152],[-90.39232,38.81429,152],[-90.39239,38.8143,152],[-90.39245,38.81432,153],[-90.3925,38.81434,153],[-90.39256,38.81435,153],[-90.39261,38.81431,151],[-90.39267,38.8143,151],[-90.39272,38.81433,151],[-90.39277,38.81436,151],[-90.39281,38.8144,151],[-90.39285,38.81445,151],[-90.39289,38.81448,150],[-90.39294,38.81452,149],[-90.39298,38.81455,148],[-90.39302,38.81458,147],[-90.39304,38.81462,146],[-90.39301,38.81465,147],[-90.39299,38.81469,147],[-90.39299,38.81474,147],[-90.39299,38.81479,147],[-90.39299,38.81484,147],[-90.39301,38.8149,147],[-90.39303,38.81495,147],[-90.39307,38.81499,147],[-90.3931,38.81503,146],[-90.39312,38.81508,145],[-90.39316,38.81512,144],[-90.39319,38.81508,144],[-90.3932,38.81502,144],[-90.39323,38.81496,144],[-90.39323,38.81498,144],[-90.39322,38.81508,143],[-90.3932,38.81516,143],[-90.39317,38.81523,143],[-90.39314,38.8153,143],[-90.39305,38.81534,144],[-90.39295,38.81535,146],[-90.39286,38.81536,148],[-90.39279,38.81538,149],[-90.39272,38.8154,151],[-90.39264,38.81542,152],[-90.39261,38.81546,153],[-90.39259,38.81552,152],[-90.39256,38.81558,152],[-90.39253,38.81564,152],[-90.3925,38.81569,152],[-90.39246,38.81575,152],[-90.3924,38.81578,153],[-90.39252,38.81574,150],[-90.39265,38.81574,146],[-90.39274,38.81575,142],[-90.39276,38.81585,140],[-90.39278,38.81593,140],[-90.39277,38.816,140],[-90.3927,38.81605,142],[-90.3926,38.81607,145],[-90.39249,38.81608,149],[-90.3924,38.8161,152],[-90.39247,38.81614,149],[-90.39245,38.81608,150],[-90.39245,38.81602,150],[-90.39243,38.8161,151],[-90.39238,38.81615,151],[-90.39235,38.8162,151],[-90.39234,38.81625,150],[-90.39233,38.81634,148],[-90.39232,38.8164,146],[-90.3923,38.81645,146],[-90.39227,38.8165,146],[-90.39223,38.81654,147],[-90.39215,38.81657,148],[-90.39209,38.81659,149],[-90.39204,38.81663,149],[-90.39201,38.81666,149],[-90.39198,38.8167,150],[-90.39194,38.81673,150],[-90.3919,38.81677,150],[-90.39186,38.8168,150],[-90.39182,38.81683,150],[-90.39178,38.81687,149],[-90.39174,38.81691,149],[-90.39169,38.81694,148],[-90.39164,38.81697,147],[-90.3917,38.81696,147],[-90.39173,38.81692,148],[-90.39171,38.81687,150],[-90.39164,38.81688,150],[-90.39159,38.81691,150],[-90.39154,38.81694,150],[-90.39149,38.81697,150],[-90.39143,38.817,149],[-90.39137,38.81702,150],[-90.39132,38.81705,149],[-90.39125,38.81708,149],[-90.39119,38.81711,149],[-90.39113,38.81714,149],[-90.39107,38.81717,149],[-90.39102,38.81721,148],[-90.39096,38.81724,148],[-90.39091,38.81728,147],[-90.39085,38.81731,147],[-90.39079,38.81734,147],[-90.39073,38.81737,147],[-90.39066,38.8174,147],[-90.3906,38.81742,148],[-90.39052,38.81745,148],[-90.39062,38.81746,146],[-90.39072,38.81746,145],[-90.3906,38.81747,146],[-90.39048,38.81744,148],[-90.39046,38.81736,151],[-90.39046,38.81727,154],[-90.39046,38.8172,157],[-90.39046,38.81714,159],[-90.39047,38.81708,161],[-90.39048,38.81703,162],[-90.39048,38.81698,164],[-90.39048,38.81692,165],[-90.39047,38.81687,166],[-90.39046,38.81681,166],[-90.39054,38.81678,166],[-90.39062,38.81678,166],[-90.39069,38.81677,166],[-90.39076,38.81676,165],[-90.3908,38.81681,164],[-90.39084,38.81686,163],[-90.39089,38.81683,163],[-90.39094,38.81679,163],[-90.39097,38.81675,164],[-90.39103,38.81672,164],[-90.39109,38.81674,164],[-90.39114,38.81677,162],[-90.3912,38.8168,160],[-90.39126,38.8168,159],[-90.39132,38.81679,159],[-90.39138,38.81677,158],[-90.39141,38.81672,159],[-90.39142,38.81668,160],[-90.39144,38.81663,161],[-90.39148,38.81659,162],[-90.39152,38.81658,161],[-90.39147,38.81657,163],[-90.39151,38.81647,165],[-90.39159,38.8164,165],[-90.39164,38.81632,167],[-90.39165,38.81624,169],[-90.39166,38.81613,173],[-90.39168,38.81606,174],[-90.3917,38.816,175],[-90.39173,38.81594,175],[-90.39175,38.81588,176],[-90.39177,38.81582,177],[-90.39178,38.81577,177],[-90.3918,38.81572,177],[-90.39181,38.81567,178],[-90.39182,38.81562,179],[-90.39177,38.81559,180],[-90.3917,38.81557,182],[-90.39164,38.81555,183],[-90.39159,38.81552,183],[-90.39156,38.81548,183],[-90.39151,38.81544,183],[-90.39147,38.8154,184],[-90.39143,38.81537,184],[-90.39137,38.81533,185],[-90.39131,38.8153,186],[-90.39125,38.81527,186],[-90.39118,38.81529,186],[-90.39114,38.81535,186],[-90.39108,38.81538,186],[-90.39101,38.81542,186],[-90.39095,38.81544,186],[-90.39089,38.81547,185],[-90.39081,38.81549,185],[-90.39073,38.81549,184],[-90.39066,38.81549,183],[-90.39058,38.81548,182],[-90.39067,38.81548,183],[-90.39058,38.81544,183],[-90.39048,38.81542,182],[-90.39039,38.81541,181],[-90.39029,38.81541,180],[-90.3902,38.8154,180],[-90.39012,38.81538,180],[-90.39005,38.81536,180],[-90.38999,38.81534,180],[-90.38995,38.81526,182],[-90.38993,38.8152,184],[-90.38989,38.81515,185],[-90.38982,38.81512,186],[-90.38977,38.81508,187],[-90.38973,38.81505,187],[-90.38968,38.81501,188],[-90.38963,38.81497,189],[-90.38958,38.81493,189],[-90.38955,38.81489,189],[-90.3895,38.81484,189],[-90.38934,38.81477,189],[-90.38937,38.8147,190],[-90.38937,38.81464,190],[-90.38938,38.81456,190],[-90.38938,38.8145,190],[-90.38946,38.81446,190],[-90.38952,38.81443,189],[-90.38955,38.81439,188],[-90.38952,38.81435,188],[-90.38947,38.81432,188],[-90.38942,38.81434,189],[-90.38936,38.81432,190],[-90.38931,38.81428,190],[-90.38925,38.81425,191],[-90.38919,38.81423,192],[-90.3891,38.8142,192],[-90.38903,38.81418,192],[-90.38896,38.81416,192],[-90.38888,38.81415,193],[-90.3888,38.81415,194],[-90.38871,38.81414,195],[-90.38865,38.81413,196],[-90.38858,38.81411,196],[-90.38852,38.81409,197],[-90.38846,38.81406,197],[-90.38842,38.81401,197],[-90.38838,38.81397,197],[-90.38831,38.81395,198],[-90.38824,38.81395,198],[-90.38831,38.81396,198],[-90.38824,38.81394,198],[-90.38818,38.81393,198],[-90.38811,38.81393,198],[-90.38805,38.81392,199],[-90.38799,38.81392,199],[-90.38793,38.81392,199],[-90.38787,38.81392,199],[-90.38781,38.81392,199],[-90.38775,38.81392,200],[-90.38769,38.81392,200],[-90.38763,38.81392,200],[-90.38755,38.81389,199],[-90.38752,38.81382,199],[-90.38751,38.81376,198],[-90.3875,38.81371,197],[-90.3875,38.81366,196],[-90.38749,38.8136,195],[-90.3875,38.81356,195],[-90.3875,38.81351,195],[-90.38752,38.81346,195],[-90.38752,38.8134,194],[-90.38753,38.81334,194],[-90.38753,38.81329,194],[-90.38754,38.81324,193],[-90.38762,38.81324,194],[-90.3877,38.81324,194],[-90.38777,38.81324,194],[-90.38783,38.81324,194],[-90.38789,38.81325,194],[-90.38794,38.81324,194],[-90.388,38.81323,194],[-90.38804,38.81321,193],[-90.38807,38.81317,192],[-90.38809,38.81313,191],[-90.38811,38.8131,190],[-90.38813,38.81305,189],[-90.38815,38.81302,188],[-90.38816,38.81298,187],[-90.38817,38.81294,186],[-90.38816,38.81289,186],[-90.38813,38.81286,186],[-90.38813,38.81281,186],[-90.38812,38.81277,185],[-90.38815,38.8128,185],[-90.3882,38.81279,184],[-90.38826,38.81276,181],[-90.38831,38.81275,180],[-90.38836,38.81274,178],[-90.38842,38.81273,176],[-90.38847,38.81272,174],[-90.38852,38.8127,172],[-90.38856,38.81266,171],[-90.38858,38.81262,170],[-90.38859,38.81258,169],[-90.38861,38.81253,169],[-90.38864,38.81248,168],[-90.38867,38.81245,167],[-90.38863,38.81242,167],[-90.38866,38.81238,166],[-90.38868,38.81234,165],[-90.3887,38.8123,164],[-90.38873,38.81227,163],[-90.38876,38.81224,163],[-90.3888,38.8122,162],[-90.38883,38.81216,161],[-90.38884,38.81212,160],[-90.38883,38.81205,159],[-90.38881,38.81201,159],[-90.38876,38.81198,159],[-90.38872,38.81195,160],[-90.38868,38.81191,161],[-90.38865,38.81186,162],[-90.38861,38.81183,163],[-90.38861,38.81178,163],[-90.38867,38.81175,163],[-90.38871,38.81173,162],[-90.38875,38.8117,162],[-90.38878,38.81166,161],[-90.38881,38.81163,161],[-90.38884,38.8116,160],[-90.38887,38.81157,159],[-90.3889,38.81153,158],[-90.38894,38.81155,157],[-90.38899,38.81155,156],[-90.38903,38.81153,155],[-90.38908,38.81151,154],[-90.38913,38.81149,152],[-90.38919,38.81148,152],[-90.38925,38.81146,152],[-90.3893,38.81144,152],[-90.38934,38.81141,152],[-90.38938,38.81139,152],[-90.38943,38.81137,152],[-90.38948,38.81135,151],[-90.38955,38.8113,151],[-90.38959,38.81124,151],[-90.38963,38.8112,151],[-90.38967,38.81116,151],[-90.38973,38.81115,150],[-90.38979,38.81113,149],[-90.38986,38.81112,148],[-90.38993,38.81111,147],[-90.38999,38.81111,147],[-90.39004,38.81112,146],[-90.39009,38.81116,145],[-90.39015,38.81118,144],[-90.3902,38.81119,143],[-90.39024,38.8112,143],[-90.3903,38.81121,142],[-90.39036,38.81122,142],[-90.39042,38.81123,142],[-90.39047,38.81125,142],[-90.39052,38.81127,142],[-90.39058,38.81129,142],[-90.39063,38.81129,142],[-90.39068,38.8113,142],[-90.39073,38.81129,142],[-90.39077,38.81127,142],[-90.3908,38.81122,141],[-90.39085,38.8112,141],[-90.39087,38.81123,141],[-90.39088,38.81128,141],[-90.3909,38.81132,141],[-90.39093,38.81135,141],[-90.39096,38.81138,141],[-90.39098,38.81141,142],[-90.39101,38.81145,142],[-90.39104,38.81148,142],[-90.39106,38.81152,143],[-90.39106,38.81156,143],[-90.39103,38.81159,144],[-90.39099,38.81161,145],[-90.39096,38.81165,145],[-90.39092,38.81168,146],[-90.39091,38.81171,146],[-90.39088,38.81175,147],[-90.39086,38.81179,147],[-90.39084,38.81183,148],[-90.39083,38.81187,148],[-90.39083,38.81191,148],[-90.39083,38.81195,149],[-90.39082,38.812,149],[-90.39081,38.81204,149],[-90.39083,38.81208,149],[-90.39088,38.8121,149],[-90.39093,38.81213,149],[-90.39097,38.81209,149],[-90.39089,38.81214,149],[-90.3908,38.81224,149],[-90.39082,38.81232,147],[-90.39085,38.81238,146],[-90.39095,38.81241,144],[-90.39103,38.81242,144],[-90.39104,38.81247,142],[-90.39098,38.8125,142],[-90.39094,38.81253,143],[-90.39093,38.81258,144],[-90.39092,38.81263,146],[-90.39093,38.81267,147],[-90.39093,38.81272,148],[-90.39093,38.81277,149],[-90.39096,38.81281,149],[-90.391,38.81283,149],[-90.39104,38.81286,149],[-90.39107,38.8129,150],[-90.39109,38.81295,151],[-90.39112,38.813,152],[-90.39114,38.81304,153],[-90.39116,38.81308,153],[-90.39117,38.81312,153],[-90.3912,38.81316,153],[-90.39122,38.81321,152],[-90.39125,38.81325,152],[-90.39128,38.81328,152],[-90.39131,38.81331,152],[-90.39135,38.81334,151],[-90.3914,38.81336,150],[-90.39146,38.81338,149],[-90.3915,38.8134,148],[-90.39155,38.81342,147],[-90.39159,38.81345,146],[-90.39162,38.81349,145],[-90.39162,38.81353,145],[-90.39161,38.81357,144],[-90.3916,38.81362,144],[-90.39161,38.81366,145],[-90.39165,38.81369,144],[-90.39169,38.81373,144],[-90.39173,38.81377,144],[-90.39176,38.8138,143],[-90.3918,38.81383,142],[-90.39184,38.81386,141],[-90.39189,38.81389,139],[-90.39193,38.81392,140],[-90.39197,38.81395,140],[-90.392,38.81398,141],[-90.39205,38.81401,142],[-90.39211,38.81402,142],[-90.39216,38.814,140],[-90.39221,38.81404,142],[-90.39226,38.81407,144],[-90.39232,38.81407,145],[-90.39236,38.81403,143],[-90.39239,38.814,141],[-90.39242,38.81395,139],[-90.39246,38.81391,138],[-90.39249,38.81387,137],[-90.39253,38.81384,138],[-90.39257,38.8138,138],[-90.39259,38.81376,138],[-90.39262,38.81373,138],[-90.3926,38.81369,138],[-90.39259,38.81364,138],[-90.39261,38.81361,138],[-90.39263,38.81358,138],[-90.39266,38.81354,137],[-90.39268,38.81351,137],[-90.39271,38.81348,136],[-90.39273,38.81345,136],[-90.39275,38.81341,135],[-90.39272,38.81338,135],[-90.39267,38.81336,136],[-90.39263,38.81334,136],[-90.39259,38.81332,136],[-90.39253,38.81329,136],[-90.39249,38.81326,136],[-90.39246,38.81323,136],[-90.39241,38.8132,137],[-90.39237,38.81316,137],[-90.39232,38.81313,137],[-90.39226,38.81313,137],[-90.3922,38.81313,137],[-90.39216,38.81311,137],[-90.39211,38.81309,138],[-90.39207,38.81307,138],[-90.39202,38.81306,138],[-90.39197,38.81304,138],[-90.39192,38.81301,138],[-90.39188,38.81299,139],[-90.39184,38.81296,139],[-90.39181,38.81294,139],[-90.39177,38.81292,139],[-90.39172,38.81289,139],[-90.39168,38.81287,140],[-90.39163,38.81284,140],[-90.39159,38.81281,140],[-90.39154,38.81279,141],[-90.3915,38.81276,140],[-90.39146,38.81273,140],[-90.39141,38.81271,141],[-90.39146,38.81268,139],[-90.39151,38.81271,139],[-90.39152,38.81267,139],[-90.39153,38.81263,138],[-90.39153,38.81259,137],[-90.39154,38.81255,136],[-90.39156,38.81251,135],[-90.39157,38.81247,135],[-90.39159,38.81244,136],[-90.39162,38.81241,136],[-90.39164,38.81237,136],[-90.39167,38.81234,136],[-90.39169,38.81231,136],[-90.39174,38.81232,136],[-90.39177,38.81229,136],[-90.39179,38.81225,137],[-90.39181,38.81221,137],[-90.39183,38.81218,137],[-90.39185,38.81214,138],[-90.39188,38.81212,138],[-90.39192,38.81209,138],[-90.392,38.81209,137],[-90.39205,38.81207,137],[-90.3921,38.81209,136],[-90.39214,38.81211,136],[-90.3922,38.81214,136],[-90.39224,38.81217,135],[-90.39227,38.81221,135],[-90.39231,38.81223,135],[-90.39236,38.81224,135],[-90.39241,38.81226,135],[-90.39245,38.81229,135],[-90.39249,38.81231,135],[-90.39253,38.81234,135],[-90.39257,38.81238,135],[-90.39261,38.8124,134],[-90.39264,38.81243,134],[-90.39268,38.81246,134],[-90.39272,38.81248,134],[-90.39276,38.81251,134],[-90.39281,38.81253,134],[-90.39285,38.81255,134],[-90.39289,38.81258,134],[-90.39293,38.81261,134],[-90.39297,38.81263,134],[-90.39301,38.81266,134],[-90.39305,38.81268,134],[-90.39309,38.8127,134],[-90.39313,38.81273,134],[-90.39318,38.81276,134],[-90.39322,38.81278,134],[-90.39326,38.81281,134],[-90.39331,38.81283,134],[-90.39335,38.81286,134],[-90.39339,38.81288,134],[-90.39344,38.81288,133],[-90.3935,38.81284,133],[-90.39355,38.81279,134],[-90.39359,38.81276,134],[-90.39363,38.81272,134],[-90.39367,38.81269,134],[-90.3937,38.81266,134],[-90.39374,38.81264,135],[-90.39378,38.8126,135],[-90.39383,38.81258,135],[-90.39387,38.81258,136],[-90.39392,38.81256,136],[-90.39396,38.81254,136],[-90.39401,38.81253,136],[-90.39404,38.8125,137],[-90.39408,38.81247,137],[-90.39411,38.81244,137],[-90.39415,38.81241,137],[-90.39412,38.81238,137]]],
        "bbox": [
          -90.38749,
          38.82081,
          -90.4067,
          38.81111
        ]
      },
      "properties": {
        "name": "1.7.2026A"
      }
    }
  ]
}