{
  "type": "FeatureCollection",
  "features": [
    {
      "type": "Feature",
      "geometry": {
        "type": "MultiLineString",
        "coordinates": [[[-90.39521,38.8115,132],[-90.39522,38.81152,132],[-90.39521,38.81156,132],[-90.39519,38.81159,132],[-90.39516,38.81161,132],[-90.39513,38.81163,132],[-90.39511,38.81165,132],[-90.39515,38.81164,132],[-90.39519,38.81161,132],[-90.39521,38.81158,132],[-90.39522,38.81154,132],[-90.39522,38.81151,132],[-90.39521,38.81154,132],[-90.3952,38.81157,132],[-90.39519,38.8116,132],[-90.39515,38.81162,132],[-90.39512,38.81164,132],[-90.39509,38.81166,132],[-90.39505,38.81168,133],[-90.39501,38.81169,133],[-90.39498,38.81167,133],[-90.39497,38.81164,132],[-90.39498,38.81167,133],[-90.39496,38.8117,133],[-90.39493,38.81172,133],[-90.39489,38.81175,134],[-90.39486,38.81178,134],[-90.39484,38.8118,134],[-90.3948,38.81183,135],[-90.39477,38.81185,135],[-90.39473,38.81187,136],[-90.3947,38.81189,136],[-90.39467,38.81192,136],[-90.39464,38.81194,137],[-90.39461,38.81197,137],[-90.39458,38.81199,137],[-90.39456,38.81202,137],[-90.39454,38.81205,137],[-90.39452,38.81208,137],[-90.39451,38.8121,137],[-90.39448,38.81213,137],[-90.39446,38.81215,137],[-90.39444,38.81218,138],[-90.39441,38.8122,138],[-90.39439,38.81224,137],[-90.39434,38.81226,137],[-90.3943,38.81227,137],[-90.39427,38.81229,137],[-90.39425,38.81231,137],[-90.39421,38.81234,137],[-90.39418,38.81237,137],[-90.39415,38.81239,137],[-90.39412,38.81242,137],[-90.39409,38.81245,137],[-90.39407,38.81247,137],[-90.39405,38.8125,137],[-90.39402,38.81253,136],[-90.39399,38.81255,136],[-90.39396,38.81257,136],[-90.39393,38.81259,135],[-90.3939,38.81261,135],[-90.39387,38.81263,135],[-90.39383,38.81265,135],[-90.39381,38.81267,135],[-90.39379,38.8127,134],[-90.39376,38.81273,134],[-90.39372,38.81275,134],[-90.39369,38.81277,134],[-90.39365,38.81278,133],[-90.3936,38.81279,133],[-90.39356,38.81278,134],[-90.39355,38.81281,134],[-90.39353,38.81283,133],[-90.39349,38.81285,133],[-90.39352,38.81282,134],[-90.39358,38.81279,134],[-90.39361,38.81277,134],[-90.39366,38.81275,134],[-90.3937,38.81272,134],[-90.39375,38.8127,134],[-90.39378,38.81268,134],[-90.3938,38.81266,135],[-90.39383,38.81264,135],[-90.39386,38.81262,135],[-90.39389,38.8126,135],[-90.39394,38.81257,136],[-90.39398,38.81254,136],[-90.39403,38.81251,136],[-90.39407,38.81247,137],[-90.3941,38.81243,137],[-90.39413,38.81239,137],[-90.39417,38.81236,137],[-90.39422,38.81232,137],[-90.39427,38.81229,137],[-90.39431,38.81225,137],[-90.39435,38.81222,138],[-90.39439,38.81219,138],[-90.39443,38.81215,138],[-90.39447,38.81212,137],[-90.39451,38.81209,137],[-90.39456,38.81205,137],[-90.39459,38.81202,137],[-90.39463,38.81199,137],[-90.39467,38.81195,137],[-90.39471,38.81192,136],[-90.39475,38.81189,136],[-90.39479,38.81186,135],[-90.39483,38.81183,135],[-90.39487,38.8118,134],[-90.39491,38.81177,134],[-90.39496,38.81174,133],[-90.39499,38.81172,133],[-90.39502,38.8117,133],[-90.39505,38.81167,133],[-90.39509,38.81165,132],[-90.39511,38.81162,132],[-90.39514,38.81159,132],[-90.39516,38.81156,132],[-90.39518,38.81153,132],[-90.3952,38.8115,132],[-90.39521,38.81147,132],[-90.39519,38.8115,132],[-90.39518,38.81153,132],[-90.39518,38.81156,132],[-90.39515,38.81158,132],[-90.39511,38.8116,132],[-90.39508,38.81163,132],[-90.39505,38.81166,132],[-90.39502,38.81168,133],[-90.39499,38.8117,133],[-90.39495,38.81172,133],[-90.39492,38.81173,133],[-90.39488,38.81176,134],[-90.39485,38.81178,134],[-90.39482,38.8118,134],[-90.3948,38.81182,135],[-90.39477,38.81184,135],[-90.39474,38.81187,136],[-90.39471,38.8119,136],[-90.39468,38.81193,137],[-90.39465,38.81195,137],[-90.39463,38.81197,137],[-90.3946,38.812,137],[-90.39456,38.81203,137],[-90.39454,38.81205,137],[-90.39451,38.81208,137],[-90.39449,38.8121,137],[-90.39446,38.81212,137],[-90.39443,38.81214,138],[-90.3944,38.81216,138],[-90.39437,38.81217,138],[-90.39434,38.8122,138],[-90.39432,38.81223,137],[-90.3943,38.81226,137],[-90.39428,38.81228,137],[-90.39426,38.81231,137],[-90.39422,38.81234,137],[-90.3942,38.81235,137],[-90.39417,38.81237,137],[-90.39413,38.8124,137],[-90.39409,38.81243,137],[-90.39407,38.81245,137],[-90.39405,38.81248,137],[-90.39401,38.8125,137],[-90.39398,38.81252,136],[-90.39395,38.81254,136],[-90.39392,38.81256,136],[-90.39389,38.81259,136],[-90.39386,38.81261,135],[-90.39384,38.81263,135],[-90.39381,38.81265,135],[-90.39377,38.81268,134],[-90.39374,38.8127,134],[-90.3937,38.81273,134],[-90.39367,38.81275,134],[-90.39363,38.81276,134],[-90.3936,38.81276,134],[-90.39356,38.81276,134],[-90.39353,38.81276,134],[-90.3935,38.81278,134],[-90.39347,38.8128,134],[-90.39343,38.81282,134],[-90.39339,38.81283,134],[-90.39335,38.81284,134],[-90.39331,38.81284,134],[-90.39326,38.81282,134],[-90.39323,38.8128,134],[-90.3932,38.81278,134],[-90.39318,38.81275,134],[-90.39315,38.81274,134],[-90.39311,38.81273,134],[-90.39307,38.81272,134],[-90.39303,38.81271,134],[-90.393,38.81269,134],[-90.39297,38.81267,134],[-90.39294,38.81265,134],[-90.3929,38.81263,134],[-90.39285,38.81261,134],[-90.39282,38.8126,134],[-90.39279,38.81257,134],[-90.39275,38.81255,134],[-90.39272,38.81253,134],[-90.39269,38.81252,134],[-90.39265,38.81249,134],[-90.39261,38.81248,135],[-90.39258,38.81246,135],[-90.39255,38.81244,135],[-90.39251,38.81241,135],[-90.39248,38.81238,135],[-90.39244,38.81235,135],[-90.3924,38.81232,135],[-90.39235,38.81229,135],[-90.39231,38.81226,135],[-90.39228,38.81222,135],[-90.39225,38.81219,135],[-90.39222,38.81217,136],[-90.39219,38.81215,136],[-90.39216,38.81215,136],[-90.39212,38.81215,136],[-90.39207,38.81215,136],[-90.39202,38.81215,137],[-90.39198,38.81216,137],[-90.39194,38.81217,137],[-90.39189,38.81219,137],[-90.39186,38.81221,137],[-90.39184,38.81224,137],[-90.39182,38.81226,137],[-90.3918,38.81229,136],[-90.39177,38.81231,136],[-90.39175,38.81234,136],[-90.39172,38.81236,136],[-90.39169,38.81238,136],[-90.39165,38.8124,136],[-90.39161,38.81243,136],[-90.39159,38.81246,135],[-90.39157,38.81248,135],[-90.39155,38.81251,135],[-90.39154,38.81254,136],[-90.39151,38.81257,136],[-90.39149,38.8126,137],[-90.39147,38.81263,138],[-90.39145,38.81267,139],[-90.39144,38.8127,140],[-90.39145,38.81274,141],[-90.39149,38.81276,141],[-90.39153,38.81278,140],[-90.39157,38.8128,140],[-90.39161,38.81282,140],[-90.39165,38.81283,140],[-90.39168,38.81285,139],[-90.39172,38.81288,139],[-90.39175,38.81291,139],[-90.39179,38.81293,139],[-90.39182,38.81296,139],[-90.39185,38.81297,139],[-90.39188,38.81298,138],[-90.39191,38.813,138],[-90.39195,38.81303,138],[-90.39198,38.81306,138],[-90.39201,38.81307,138],[-90.39205,38.81309,138],[-90.39208,38.8131,138],[-90.39211,38.81312,138],[-90.39215,38.81314,138],[-90.39218,38.81316,138],[-90.39222,38.81319,137],[-90.39225,38.81321,137],[-90.39227,38.81323,137],[-90.3923,38.81325,137],[-90.39234,38.81327,137],[-90.39237,38.81328,137],[-90.3924,38.81329,137],[-90.39244,38.81332,137],[-90.39247,38.81334,137],[-90.3925,38.81336,137],[-90.39253,38.81338,137],[-90.39257,38.8134,137],[-90.3926,38.81342,137],[-90.39263,38.81345,137],[-90.39262,38.81349,137],[-90.3926,38.81352,137],[-90.39258,38.81356,138],[-90.39257,38.81359,138],[-90.39254,38.81362,138],[-90.39252,38.81365,138],[-90.39251,38.81368,138],[-90.39251,38.81371,138],[-90.3925,38.81374,138],[-90.39249,38.81377,138],[-90.39247,38.8138,137],[-90.39245,38.81384,137],[-90.39243,38.81386,137],[-90.3924,38.81388,136],[-90.39238,38.8139,136],[-90.39236,38.81393,137],[-90.39233,38.81396,138],[-90.39231,38.81399,140],[-90.39229,38.81401,141],[-90.39226,38.81402,141],[-90.39223,38.81403,142],[-90.39219,38.81404,143],[-90.39217,38.81402,141],[-90.39215,38.81398,139],[-90.39212,38.81396,139],[-90.39209,38.81395,138],[-90.39206,38.81392,137],[-90.39204,38.8139,136],[-90.39201,38.81388,136],[-90.39197,38.81386,137],[-90.39195,38.81384,138],[-90.39191,38.81381,139],[-90.39188,38.81379,140],[-90.39186,38.81377,141],[-90.39183,38.81374,141],[-90.39181,38.81372,142],[-90.39177,38.81371,142],[-90.39173,38.81369,143],[-90.3917,38.81368,143],[-90.39167,38.81366,143],[-90.39164,38.81364,144],[-90.39161,38.81362,144],[-90.39158,38.8136,145],[-90.39157,38.81357,145],[-90.39157,38.81354,146],[-90.39157,38.8135,146],[-90.39156,38.81347,147],[-90.39155,38.81344,147],[-90.39151,38.81342,148],[-90.39148,38.81339,149],[-90.39145,38.81336,149],[-90.39143,38.81333,150],[-90.39142,38.81331,150],[-90.39139,38.81327,150],[-90.39137,38.81322,150],[-90.39136,38.81318,150],[-90.39136,38.81315,150],[-90.39131,38.81313,151],[-90.39125,38.81313,152],[-90.3912,38.81311,152],[-90.39118,38.81306,152],[-90.39117,38.81302,152],[-90.39115,38.81299,151],[-90.39112,38.81296,151],[-90.39111,38.81292,150],[-90.39111,38.81288,149],[-90.3911,38.81284,148],[-90.39106,38.81281,148],[-90.39103,38.81278,148],[-90.39103,38.81274,147],[-90.39105,38.8127,146],[-90.39105,38.81266,145],[-90.39103,38.81262,144],[-90.39103,38.81258,143],[-90.39102,38.81255,143],[-90.391,38.81251,142],[-90.39098,38.81249,142],[-90.39098,38.81246,143],[-90.39098,38.81242,144],[-90.39096,38.81239,145],[-90.39094,38.81236,146],[-90.39091,38.81235,146],[-90.39087,38.81233,147],[-90.39084,38.8123,148],[-90.39083,38.81228,148],[-90.39084,38.81223,149],[-90.39086,38.81219,149],[-90.3909,38.81215,149],[-90.39092,38.81211,149],[-90.39093,38.81208,149],[-90.39095,38.81204,150],[-90.39095,38.81201,150],[-90.39097,38.81197,150],[-90.39098,38.81193,150],[-90.39098,38.81188,149],[-90.39097,38.81184,148],[-90.39096,38.8118,148],[-90.39096,38.81176,147],[-90.39097,38.81172,146],[-90.39099,38.81168,146],[-90.39103,38.81165,145],[-90.39106,38.81162,144],[-90.39109,38.81159,144],[-90.39112,38.81157,143],[-90.39115,38.81154,142],[-90.39117,38.81151,141],[-90.39117,38.81148,141],[-90.39115,38.81144,141],[-90.39112,38.81141,141],[-90.39109,38.81138,141],[-90.39106,38.81134,140],[-90.39103,38.81132,140],[-90.391,38.8113,140],[-90.39096,38.81127,141],[-90.39092,38.81124,141],[-90.3909,38.81121,141],[-90.39088,38.81118,141],[-90.39085,38.81116,141],[-90.39082,38.81115,141],[-90.39077,38.81116,141],[-90.39074,38.81118,141],[-90.39071,38.81121,142],[-90.39069,38.81123,142],[-90.39066,38.81125,142],[-90.39061,38.81125,142],[-90.39057,38.81125,142],[-90.39053,38.81124,142],[-90.3905,38.81122,142],[-90.39048,38.8112,142],[-90.39046,38.81117,142],[-90.39043,38.81114,142],[-90.3904,38.81113,142],[-90.39035,38.81113,142],[-90.39031,38.81113,142],[-90.39027,38.81115,143],[-90.39022,38.81115,143],[-90.39018,38.81115,144],[-90.39013,38.81115,144],[-90.39008,38.81115,145],[-90.39005,38.81114,146],[-90.39,38.81114,146],[-90.38995,38.81113,147],[-90.38991,38.81112,148],[-90.38986,38.81112,148],[-90.38982,38.81114,149],[-90.3898,38.81117,149],[-90.38976,38.81118,150],[-90.38972,38.81118,150],[-90.38968,38.81117,150],[-90.38964,38.81117,151],[-90.38959,38.81118,151],[-90.38955,38.81118,151],[-90.38951,38.81119,151],[-90.38948,38.81122,151],[-90.38946,38.81125,151],[-90.38947,38.81128,151],[-90.38945,38.81131,151],[-90.38941,38.81133,152],[-90.38936,38.81135,152],[-90.38931,38.81136,152],[-90.38928,38.81136,152],[-90.38924,38.81135,152],[-90.3892,38.81136,152],[-90.38918,38.81139,152],[-90.38916,38.81141,152],[-90.38913,38.81144,152],[-90.38911,38.81146,153],[-90.38908,38.81148,154],[-90.38903,38.8115,155],[-90.38899,38.81149,156],[-90.38896,38.81149,156],[-90.38891,38.81151,158],[-90.38888,38.81153,159],[-90.38884,38.81153,160],[-90.38881,38.81154,160],[-90.38878,38.81156,161],[-90.38877,38.8116,161],[-90.38878,38.81163,161],[-90.38876,38.81166,162],[-90.38872,38.81167,163],[-90.38868,38.81168,163],[-90.38864,38.8117,164],[-90.38861,38.81174,164],[-90.38858,38.81176,164],[-90.38856,38.81179,164],[-90.38855,38.81182,164],[-90.38854,38.81186,163],[-90.38854,38.81188,163],[-90.38856,38.81192,163],[-90.38859,38.81195,162],[-90.38863,38.81197,161],[-90.38865,38.81201,161],[-90.38867,38.81205,161],[-90.38871,38.81206,161],[-90.38875,38.81207,161],[-90.38879,38.81208,160],[-90.38881,38.81211,160],[-90.38882,38.81215,161],[-90.38881,38.81218,161],[-90.38879,38.81221,162],[-90.38876,38.81223,162],[-90.38873,38.81225,163],[-90.38869,38.81227,164],[-90.38864,38.81228,164],[-90.38861,38.81229,165],[-90.38859,38.81232,166],[-90.38857,38.81235,167],[-90.38856,38.81238,167],[-90.38857,38.81241,168],[-90.38859,38.81243,168],[-90.3886,38.81246,168],[-90.3886,38.81249,168],[-90.38858,38.81252,169],[-90.38857,38.81255,170],[-90.38855,38.81258,170],[-90.38852,38.81261,171],[-90.3885,38.81264,172],[-90.38846,38.81266,174],[-90.38842,38.81267,175],[-90.38839,38.81269,176],[-90.38836,38.81271,177],[-90.38833,38.81274,179],[-90.38829,38.81274,180],[-90.38825,38.81274,181],[-90.3882,38.81274,183],[-90.38816,38.81275,184],[-90.38813,38.81276,185],[-90.38809,38.81277,186],[-90.38807,38.8128,187],[-90.38806,38.81283,188],[-90.38805,38.81287,189],[-90.38803,38.8129,189],[-90.38804,38.81293,189],[-90.38805,38.81296,190],[-90.38805,38.81299,190],[-90.38803,38.81302,190],[-90.388,38.81305,191],[-90.388,38.81308,191],[-90.38803,38.81309,191],[-90.38803,38.81313,192],[-90.38799,38.81315,192],[-90.38796,38.81318,193],[-90.38792,38.8132,194],[-90.3879,38.81322,194],[-90.38786,38.81324,194],[-90.38782,38.81325,195],[-90.38779,38.81327,195],[-90.38775,38.81328,195],[-90.38772,38.81328,195],[-90.38768,38.81329,194],[-90.38765,38.81331,194],[-90.38762,38.81331,194],[-90.3876,38.81334,194],[-90.38761,38.81337,195],[-90.38761,38.81339,195],[-90.38759,38.81343,195],[-90.38758,38.81346,195],[-90.38758,38.81349,195],[-90.38757,38.81353,195],[-90.38755,38.81357,196],[-90.38755,38.8136,196],[-90.38757,38.81362,196],[-90.38756,38.81367,197],[-90.38755,38.81371,197],[-90.38754,38.81374,198],[-90.38754,38.81377,198],[-90.38754,38.81381,198],[-90.38755,38.81383,199],[-90.38756,38.81387,199],[-90.3876,38.81389,199],[-90.38763,38.8139,200],[-90.38766,38.81392,200],[-90.38769,38.81395,200],[-90.38772,38.81396,200],[-90.38776,38.81396,200],[-90.38779,38.81396,199],[-90.38785,38.81395,199],[-90.38788,38.81395,199],[-90.38793,38.81394,199],[-90.38797,38.81394,199],[-90.38802,38.81393,199],[-90.38806,38.81393,199],[-90.3881,38.81393,198],[-90.38814,38.81393,198],[-90.38819,38.81393,198],[-90.38824,38.81394,198],[-90.38827,38.81396,198],[-90.38831,38.81397,198],[-90.38833,38.81399,198],[-90.38836,38.81401,198],[-90.38839,38.81403,198],[-90.38842,38.81404,197],[-90.38846,38.81406,197],[-90.3885,38.81408,197],[-90.38854,38.81409,197],[-90.38859,38.8141,196],[-90.38864,38.8141,196],[-90.38868,38.81411,195],[-90.38872,38.81412,195],[-90.38876,38.81413,194],[-90.38879,38.81415,194],[-90.38884,38.81416,193],[-90.38887,38.81416,193],[-90.38891,38.81417,192],[-90.38894,38.81417,192],[-90.38898,38.81419,192],[-90.38901,38.8142,192],[-90.38905,38.81421,192],[-90.38909,38.81422,192],[-90.38913,38.81424,192],[-90.38918,38.81426,192],[-90.38923,38.81428,191],[-90.38927,38.8143,191],[-90.38931,38.81431,190],[-90.38935,38.81433,190],[-90.3894,38.81434,189],[-90.38943,38.81435,189],[-90.38947,38.81437,189],[-90.38949,38.81439,189],[-90.38951,38.81442,189],[-90.38951,38.81445,189],[-90.38951,38.81448,189],[-90.38951,38.81451,190],[-90.38951,38.81455,190],[-90.38951,38.81458,190],[-90.38951,38.8146,190],[-90.38951,38.81463,190],[-90.3895,38.81467,190],[-90.38949,38.8147,191],[-90.38949,38.81472,191],[-90.3895,38.81475,190],[-90.3895,38.81479,190],[-90.3895,38.81482,190],[-90.3895,38.81485,189],[-90.3895,38.81489,189],[-90.38951,38.81492,189],[-90.38952,38.81495,188],[-90.38955,38.81497,188],[-90.38959,38.81499,188],[-90.38961,38.81501,188],[-90.38964,38.81504,188],[-90.38966,38.81507,187],[-90.38969,38.8151,186],[-90.38971,38.81513,186],[-90.38973,38.81515,185],[-90.38976,38.81518,184],[-90.38979,38.81521,184],[-90.38982,38.81522,183],[-90.38986,38.81524,183],[-90.3899,38.81527,182],[-90.38993,38.81529,182],[-90.38996,38.81531,181],[-90.39,38.81533,181],[-90.39004,38.81533,181],[-90.39008,38.81533,181],[-90.39013,38.81534,181],[-90.39017,38.81536,180],[-90.39021,38.81537,180],[-90.39025,38.81537,180],[-90.39029,38.81538,180],[-90.39034,38.8154,180],[-90.39038,38.81542,181],[-90.39042,38.81545,181],[-90.39046,38.81547,181],[-90.39049,38.81548,181],[-90.39054,38.81549,182],[-90.39059,38.8155,182],[-90.39064,38.81551,183],[-90.39068,38.81551,183],[-90.39072,38.81551,184],[-90.39076,38.81551,184],[-90.3908,38.81552,184],[-90.39085,38.81551,185],[-90.3909,38.8155,185],[-90.39095,38.81549,185],[-90.39099,38.81548,185],[-90.39103,38.81547,186],[-90.39107,38.81545,186],[-90.39111,38.81544,186],[-90.39115,38.81544,186],[-90.39119,38.81544,186],[-90.39123,38.81544,185],[-90.39127,38.81544,185],[-90.39131,38.81545,185],[-90.39134,38.81545,185],[-90.39138,38.81546,185],[-90.39142,38.81547,184],[-90.39145,38.81549,184],[-90.39148,38.81551,184],[-90.39149,38.81554,184],[-90.39151,38.81556,184],[-90.39154,38.81559,183],[-90.39158,38.8156,183],[-90.39162,38.81562,182],[-90.39166,38.81564,182],[-90.39169,38.81566,181],[-90.39172,38.81568,180],[-90.39174,38.81571,179],[-90.39174,38.81574,179],[-90.39174,38.81578,178],[-90.39174,38.81581,178],[-90.39175,38.81585,177],[-90.39174,38.81587,177],[-90.39174,38.81591,176],[-90.39174,38.81594,175],[-90.39173,38.81597,175],[-90.39171,38.816,175],[-90.39171,38.81603,174],[-90.39171,38.81606,173],[-90.3917,38.8161,173],[-90.39169,38.81614,172],[-90.39169,38.81616,171],[-90.3917,38.8162,169],[-90.39172,38.81622,168],[-90.39169,38.81624,168],[-90.39167,38.81628,167],[-90.39165,38.81631,167],[-90.39163,38.81634,166],[-90.39161,38.81636,166],[-90.39159,38.81639,165],[-90.39157,38.81642,165],[-90.39154,38.81644,165],[-90.39153,38.81647,164],[-90.3915,38.8165,164],[-90.39148,38.81653,164],[-90.39145,38.81656,164],[-90.39142,38.81657,164],[-90.39142,38.8166,163],[-90.3914,38.81662,163],[-90.39136,38.81664,163],[-90.39133,38.81665,163],[-90.39131,38.81668,162],[-90.39129,38.8167,162],[-90.39126,38.81673,161],[-90.39124,38.81675,161],[-90.3912,38.81677,161],[-90.39117,38.81678,161],[-90.39114,38.81679,161],[-90.39112,38.81682,161],[-90.39108,38.81682,161],[-90.39105,38.8168,162],[-90.39103,38.81677,163],[-90.39101,38.81674,164],[-90.39098,38.81672,165],[-90.39096,38.81669,166],[-90.39094,38.81667,166],[-90.3909,38.81665,167],[-90.39086,38.81667,166],[-90.39085,38.81669,166],[-90.39082,38.81672,166],[-90.39079,38.81674,165],[-90.39076,38.81676,165],[-90.39072,38.81678,165],[-90.39068,38.81678,165],[-90.39066,38.81676,166],[-90.39062,38.81676,166],[-90.39059,38.81678,166],[-90.39057,38.81681,166],[-90.39053,38.81682,166],[-90.39049,38.81683,166],[-90.39046,38.81681,166],[-90.39042,38.81681,167],[-90.39039,38.8168,167],[-90.39037,38.81676,167],[-90.39036,38.81673,168],[-90.39033,38.81671,168],[-90.39032,38.81668,168],[-90.3903,38.81666,168],[-90.39026,38.81664,169],[-90.39024,38.81666,169],[-90.39023,38.81669,168],[-90.39024,38.81666,169],[-90.39025,38.81663,169],[-90.39023,38.81661,169],[-90.3902,38.81663,169],[-90.3902,38.81666,169],[-90.3902,38.81669,168],[-90.39024,38.81669,168],[-90.39028,38.81669,168],[-90.39032,38.8167,168],[-90.39034,38.81673,168],[-90.39036,38.81676,167],[-90.39039,38.81678,167],[-90.39042,38.81681,167],[-90.39045,38.81682,166],[-90.39048,38.81684,166],[-90.39048,38.81688,166],[-90.39048,38.81691,165],[-90.39049,38.81694,165],[-90.3905,38.81697,164],[-90.39051,38.81699,163],[-90.3905,38.81702,162],[-90.39049,38.81705,161],[-90.39048,38.81709,160],[-90.39047,38.81712,159],[-90.39046,38.81715,158],[-90.39048,38.81717,158],[-90.3905,38.8172,156],[-90.3905,38.81722,156],[-90.39053,38.81723,155],[-90.39054,38.81726,154],[-90.39053,38.81729,153],[-90.3905,38.81731,153],[-90.39051,38.81734,152],[-90.39051,38.81736,151],[-90.39048,38.81738,150],[-90.39046,38.81736,151],[-90.39046,38.81739,150],[-90.39045,38.81741,150],[-90.39046,38.81744,149],[-90.39049,38.81747,147],[-90.39053,38.81748,147],[-90.39056,38.81745,147],[-90.39058,38.81743,148],[-90.39062,38.81742,147],[-90.39066,38.81742,147],[-90.39063,38.8174,148],[-90.3906,38.81739,149],[-90.39058,38.81737,150],[-90.39058,38.8174,149],[-90.39061,38.81741,148],[-90.39065,38.81741,147],[-90.39068,38.81739,148],[-90.39071,38.81737,148],[-90.39075,38.81737,147],[-90.39079,38.81737,146],[-90.39083,38.81737,146],[-90.39085,38.81735,146],[-90.39087,38.81732,147],[-90.39091,38.81732,146],[-90.39095,38.81732,145],[-90.39098,38.8173,146],[-90.39096,38.81727,147],[-90.39094,38.81724,148],[-90.39095,38.81722,148],[-90.39095,38.81719,150],[-90.39096,38.81716,151],[-90.39092,38.81714,152],[-90.39089,38.81713,153],[-90.39085,38.81711,155],[-90.39082,38.8171,155],[-90.3908,38.81708,157],[-90.39079,38.81705,158],[-90.39077,38.81701,160],[-90.39077,38.81698,161],[-90.39075,38.81696,162],[-90.39072,38.81693,163],[-90.3907,38.8169,164],[-90.39068,38.81686,164],[-90.39068,38.81683,165],[-90.39067,38.8168,165],[-90.39071,38.81679,165],[-90.39075,38.8168,165],[-90.3908,38.81679,164],[-90.39081,38.81676,165],[-90.39083,38.81674,165],[-90.39082,38.81671,166],[-90.39084,38.81668,166],[-90.39088,38.81667,166],[-90.39093,38.81668,166],[-90.39096,38.8167,165],[-90.39099,38.81671,165],[-90.39103,38.81672,164],[-90.39106,38.81675,163],[-90.39109,38.81677,163],[-90.39112,38.81678,162],[-90.39116,38.8168,161],[-90.3912,38.81681,160],[-90.39122,38.81678,161],[-90.39125,38.81676,161],[-90.39128,38.81673,161],[-90.39129,38.8167,162],[-90.39131,38.81667,163],[-90.39134,38.81664,163],[-90.39137,38.81662,163],[-90.3914,38.8166,163],[-90.39143,38.81658,163],[-90.39146,38.81655,164],[-90.39149,38.81652,164],[-90.39151,38.8165,164],[-90.39154,38.81647,164],[-90.39156,38.81644,165],[-90.39159,38.8164,165],[-90.3916,38.81637,166],[-90.39161,38.81634,166],[-90.39163,38.81632,167],[-90.39165,38.81629,167],[-90.39166,38.81626,168],[-90.39168,38.81623,169],[-90.39169,38.8162,170],[-90.3917,38.81617,170],[-90.3917,38.81614,172],[-90.39171,38.81609,173],[-90.39172,38.81606,173],[-90.39173,38.81604,173],[-90.39173,38.816,174],[-90.39174,38.81597,174],[-90.39176,38.81594,174],[-90.39176,38.81591,175],[-90.39176,38.81588,176],[-90.39175,38.81585,177],[-90.39175,38.81582,177],[-90.39174,38.81578,178],[-90.39174,38.81575,179],[-90.39174,38.81572,179],[-90.39176,38.81568,179],[-90.39179,38.81566,179],[-90.39183,38.81565,178],[-90.39187,38.81565,177],[-90.3919,38.81566,176],[-90.39193,38.81567,175],[-90.39197,38.81568,174],[-90.392,38.8157,172],[-90.39198,38.81572,172],[-90.39197,38.81569,174],[-90.39194,38.81566,175],[-90.39193,38.81564,176],[-90.39194,38.81561,176],[-90.39196,38.81558,176],[-90.39198,38.81555,176],[-90.392,38.81552,175],[-90.39203,38.81549,174],[-90.39204,38.81546,173],[-90.39203,38.81542,173],[-90.39202,38.8154,174],[-90.39201,38.81536,174],[-90.392,38.81533,174],[-90.39198,38.8153,175],[-90.39198,38.81526,174],[-90.39198,38.81523,173],[-90.392,38.8152,171],[-90.39201,38.81517,170],[-90.39202,38.81513,168],[-90.39202,38.8151,167],[-90.392,38.81506,166],[-90.39198,38.81504,166],[-90.39196,38.81501,165],[-90.39192,38.81499,166],[-90.3919,38.81496,167],[-90.39188,38.81493,167],[-90.39189,38.81489,166],[-90.3919,38.81486,165],[-90.39191,38.81483,165],[-90.39192,38.8148,164],[-90.39192,38.81477,164],[-90.3919,38.81475,164],[-90.39189,38.81471,164],[-90.39189,38.81468,163],[-90.3919,38.81465,163],[-90.3919,38.8146,162],[-90.3919,38.81457,162],[-90.39189,38.81454,161],[-90.39187,38.81451,162],[-90.39184,38.81448,162],[-90.39182,38.81445,162],[-90.39182,38.81442,161],[-90.39183,38.81439,160],[-90.39185,38.81436,159],[-90.39186,38.81433,158],[-90.39187,38.8143,157],[-90.39187,38.81427,156],[-90.39184,38.81426,157],[-90.39182,38.81423,156],[-90.39182,38.81421,156],[-90.39186,38.81419,154],[-90.39189,38.81418,153],[-90.39191,38.81415,152],[-90.39191,38.81412,150],[-90.39194,38.8141,148],[-90.39198,38.81409,147],[-90.39202,38.81409,147],[-90.39205,38.81408,146],[-90.39209,38.81407,145],[-90.39213,38.81406,144],[-90.39217,38.81407,145],[-90.39221,38.81407,144],[-90.39224,38.81406,144],[-90.39229,38.81406,144],[-90.39233,38.81406,144],[-90.39237,38.81404,143],[-90.39239,38.81401,142],[-90.39241,38.81398,140],[-90.39242,38.81395,139],[-90.39243,38.81392,138],[-90.39243,38.81389,136],[-90.39245,38.81385,137],[-90.39247,38.81383,137],[-90.39248,38.8138,138],[-90.3925,38.81377,138],[-90.39252,38.81374,138],[-90.39254,38.81371,138],[-90.39256,38.81368,138],[-90.39257,38.81365,138],[-90.39259,38.81362,138],[-90.3926,38.81359,138],[-90.39262,38.81356,138],[-90.39264,38.81353,137],[-90.39266,38.81349,137],[-90.39268,38.81347,137],[-90.3927,38.81344,136],[-90.39272,38.81342,136],[-90.39275,38.8134,135],[-90.39278,38.81338,135],[-90.39281,38.81335,134],[-90.39284,38.81332,134],[-90.39287,38.8133,134],[-90.3929,38.81327,134],[-90.39292,38.81325,133],[-90.39294,38.81322,133],[-90.39297,38.81319,133],[-90.393,38.81316,133],[-90.39304,38.81314,133],[-90.39306,38.81312,132],[-90.39308,38.81309,132],[-90.39312,38.81306,132],[-90.39316,38.81304,133],[-90.3932,38.81301,133],[-90.39323,38.81298,133],[-90.39326,38.81295,133],[-90.3933,38.81292,133],[-90.39334,38.81291,134],[-90.39337,38.81289,134],[-90.39341,38.81287,134],[-90.39345,38.81285,134],[-90.39349,38.81283,134],[-90.39353,38.81281,134],[-90.39357,38.81278,134],[-90.39361,38.81276,134],[-90.39364,38.81273,134],[-90.39367,38.81271,134],[-90.3937,38.81268,134],[-90.39373,38.81265,135],[-90.39376,38.81263,135],[-90.39381,38.81261,135],[-90.39385,38.81259,135],[-90.39388,38.81257,136],[-90.39391,38.81255,136],[-90.39395,38.81252,136],[-90.39398,38.8125,137],[-90.39402,38.81247,137],[-90.39404,38.81245,137],[-90.39407,38.81243,137],[-90.3941,38.8124,137],[-90.39413,38.81238,137],[-90.39416,38.81235,137],[-90.3942,38.81232,137],[-90.39423,38.8123,137],[-90.39427,38.81228,137],[-90.39431,38.81226,137],[-90.39434,38.81224,137],[-90.39438,38.81221,138],[-90.39441,38.81218,138],[-90.39445,38.81216,137],[-90.39448,38.81213,137],[-90.3945,38.81209,137],[-90.39453,38.81206,137],[-90.39455,38.81203,137],[-90.39458,38.81201,137],[-90.3946,38.81199,137],[-90.39463,38.81196,137],[-90.39466,38.81194,137],[-90.3947,38.81192,136],[-90.39472,38.81189,136],[-90.39476,38.81187,135],[-90.39478,38.81184,135],[-90.39481,38.81182,135],[-90.39483,38.81179,134],[-90.39485,38.81177,134],[-90.39488,38.81175,134],[-90.39491,38.81174,133],[-90.39495,38.81172,133],[-90.39498,38.81171,133],[-90.39502,38.81168,133],[-90.39505,38.81165,132],[-90.39508,38.81163,132],[-90.39511,38.81161,132],[-90.39514,38.8116,132],[-90.39518,38.81157,132],[-90.39521,38.81154,132]]],
        "bbox": [
          -90.38754,
          38.81748,
          -90.39522,
          38.81112
        ]
      },
      "properties": {
        "name": "4.28.2019"
      }
    }
  ]
}