{
  "type": "FeatureCollection",
  "features": [
    {
      "type": "Feature",
      "geometry": {
        "type": "MultiLineString",
        "coordinates": [[[-90.39074,38.81083,138],[-90.39076,38.81086,138],[-90.39077,38.81089,139],[-90.39078,38.81093,139],[-90.3908,38.81095,139],[-90.39081,38.81098,139],[-90.39082,38.81101,139],[-90.39083,38.81104,140],[-90.39083,38.81108,140],[-90.39083,38.81111,141],[-90.39082,38.81114,141],[-90.39081,38.81117,141],[-90.39079,38.8112,141],[-90.39075,38.81121,141],[-90.39072,38.81122,142],[-90.39068,38.81124,142],[-90.39065,38.81126,142],[-90.39061,38.81128,142],[-90.39057,38.81128,142],[-90.39052,38.81128,142],[-90.39049,38.81126,142],[-90.39045,38.81125,142],[-90.39041,38.81123,142],[-90.39038,38.81121,142],[-90.39034,38.8112,142],[-90.3903,38.81118,142],[-90.39026,38.81118,143],[-90.39022,38.81118,143],[-90.39018,38.81119,144],[-90.39014,38.81119,144],[-90.39011,38.81118,145],[-90.39007,38.81118,145],[-90.39003,38.81117,146],[-90.39,38.81117,146],[-90.38996,38.81117,147],[-90.38992,38.81117,147],[-90.38989,38.81116,148],[-90.38984,38.81118,148],[-90.38981,38.81119,149],[-90.38977,38.8112,149],[-90.38974,38.8112,150],[-90.38969,38.81121,150],[-90.38965,38.8112,151],[-90.38962,38.81119,151],[-90.38958,38.81119,151],[-90.38955,38.8112,151],[-90.38952,38.81121,151],[-90.38951,38.81124,151],[-90.38949,38.81127,151],[-90.38947,38.8113,151],[-90.38944,38.81132,152],[-90.38942,38.81135,152],[-90.38939,38.81137,152],[-90.38937,38.8114,152],[-90.38933,38.81141,152],[-90.38929,38.8114,152],[-90.38925,38.81141,152],[-90.38923,38.81143,152],[-90.38921,38.81146,152],[-90.38917,38.81146,152],[-90.38914,38.81149,152],[-90.38911,38.81151,153],[-90.38908,38.81152,154],[-90.38904,38.81154,155],[-90.389,38.81154,156],[-90.38897,38.81156,157],[-90.38894,38.81157,157],[-90.3889,38.81159,159],[-90.38886,38.81159,159],[-90.38882,38.81159,160],[-90.3888,38.81161,161],[-90.38879,38.81164,161],[-90.38877,38.81166,162],[-90.38874,38.81168,162],[-90.38871,38.81171,162],[-90.38868,38.81173,163],[-90.38865,38.81176,163],[-90.38862,38.81179,163],[-90.3886,38.81181,163],[-90.3886,38.81184,163],[-90.38861,38.81187,162],[-90.38862,38.8119,162],[-90.38865,38.81192,161],[-90.38868,38.81194,160],[-90.3887,38.81197,160],[-90.38872,38.81199,160],[-90.38875,38.812,160],[-90.38879,38.81202,159],[-90.38881,38.81204,159],[-90.38882,38.81208,160],[-90.38883,38.81211,160],[-90.38882,38.81214,161],[-90.38881,38.81217,161],[-90.3888,38.8122,162],[-90.38877,38.81224,163],[-90.38875,38.81227,163],[-90.38873,38.8123,164],[-90.3887,38.81232,164],[-90.38868,38.81234,165],[-90.38867,38.81237,165],[-90.38864,38.81239,166],[-90.38863,38.81242,167],[-90.38865,38.81246,167],[-90.38865,38.81249,168],[-90.38863,38.81252,168],[-90.38863,38.81255,168],[-90.3886,38.81258,169],[-90.3886,38.81261,169],[-90.38857,38.81263,170],[-90.38854,38.81265,171],[-90.38851,38.81267,172],[-90.38848,38.81269,173],[-90.38845,38.81272,175],[-90.38842,38.81274,176],[-90.38838,38.81276,177],[-90.38834,38.81277,179],[-90.38831,38.81277,180],[-90.38827,38.81277,181],[-90.38823,38.81277,182],[-90.38821,38.81278,183],[-90.38818,38.81281,184],[-90.38815,38.81282,185],[-90.38811,38.81283,187],[-90.38807,38.81283,188],[-90.38808,38.81287,188],[-90.38808,38.8129,188],[-90.38807,38.81293,189],[-90.38806,38.81296,189],[-90.38806,38.81299,190],[-90.38806,38.81302,190],[-90.38806,38.81305,190],[-90.38805,38.81308,191],[-90.38805,38.81312,192],[-90.38802,38.81314,192],[-90.388,38.81317,193],[-90.38798,38.81319,193],[-90.38796,38.81321,194],[-90.38794,38.81324,194],[-90.38791,38.81326,194],[-90.38788,38.81328,195],[-90.38784,38.8133,195],[-90.3878,38.81331,195],[-90.38776,38.81331,195],[-90.38772,38.81331,195],[-90.38767,38.81331,195],[-90.38764,38.81331,194],[-90.3876,38.81331,194],[-90.38759,38.81334,194],[-90.38759,38.81337,194],[-90.3876,38.81341,195],[-90.3876,38.81344,195],[-90.38759,38.81348,195],[-90.38758,38.81351,195],[-90.38757,38.81354,196],[-90.38757,38.81357,196],[-90.38756,38.8136,196],[-90.38755,38.81363,196],[-90.38755,38.81367,197],[-90.38754,38.81369,197],[-90.38753,38.81372,197],[-90.38752,38.81375,198],[-90.38752,38.81378,198],[-90.38752,38.81381,198],[-90.38755,38.81384,199],[-90.38758,38.81385,199],[-90.38761,38.81386,199],[-90.38765,38.81388,199],[-90.38768,38.8139,200],[-90.38771,38.81391,200],[-90.38775,38.81391,200],[-90.3878,38.81391,199],[-90.38785,38.8139,199],[-90.38789,38.8139,199],[-90.38793,38.81389,199],[-90.38798,38.81389,199],[-90.38803,38.81388,199],[-90.38807,38.81388,198],[-90.38812,38.81389,198],[-90.38816,38.81389,198],[-90.3882,38.8139,198],[-90.38823,38.81392,198],[-90.38826,38.81393,198],[-90.3883,38.81394,198],[-90.38833,38.81395,198],[-90.38837,38.81396,197],[-90.38841,38.81398,197],[-90.38844,38.81399,197],[-90.38848,38.814,197],[-90.38852,38.81401,196],[-90.38856,38.81403,196],[-90.38859,38.81404,196],[-90.38864,38.81405,195],[-90.38867,38.81406,195],[-90.38871,38.81407,194],[-90.38874,38.81408,194],[-90.38878,38.81411,194],[-90.38882,38.81412,193],[-90.38887,38.81414,193],[-90.38891,38.81415,192],[-90.38895,38.81416,192],[-90.38899,38.81416,192],[-90.38903,38.81416,192],[-90.38908,38.81416,192],[-90.38912,38.81416,192],[-90.38915,38.81418,192],[-90.38919,38.8142,192],[-90.38923,38.81422,191],[-90.38928,38.81424,190],[-90.38931,38.81425,190],[-90.38935,38.81428,190],[-90.38938,38.81429,189],[-90.38942,38.81431,189],[-90.38945,38.81432,189],[-90.38949,38.81435,188],[-90.38952,38.81437,188],[-90.38954,38.8144,189],[-90.38954,38.81444,189],[-90.38954,38.81448,189],[-90.38953,38.81451,190],[-90.38953,38.81455,190],[-90.38953,38.81458,190],[-90.38953,38.81461,190],[-90.38952,38.81465,190],[-90.38951,38.81468,191],[-90.3895,38.81472,191],[-90.38951,38.81475,190],[-90.38951,38.81478,190],[-90.38952,38.81481,190],[-90.38954,38.81483,190],[-90.38955,38.81487,189],[-90.38956,38.8149,189],[-90.38958,38.81493,189],[-90.3896,38.81496,188],[-90.38963,38.81498,188],[-90.38966,38.81499,188],[-90.38971,38.81502,188],[-90.38973,38.81504,188],[-90.38976,38.81506,187],[-90.38979,38.81508,187],[-90.38982,38.81512,186],[-90.38985,38.81513,186],[-90.38987,38.81515,185],[-90.38991,38.81517,184],[-90.38993,38.81519,184],[-90.38997,38.81522,183],[-90.39,38.81524,182],[-90.39003,38.81526,182],[-90.39006,38.81528,181],[-90.39009,38.8153,181],[-90.39012,38.81532,181],[-90.39016,38.81535,180],[-90.39019,38.81536,180],[-90.39023,38.81537,180],[-90.39026,38.81538,180],[-90.3903,38.81538,180],[-90.39035,38.81539,181],[-90.39038,38.81541,181],[-90.39041,38.81543,181],[-90.39045,38.81545,181],[-90.39049,38.81546,181],[-90.39053,38.81545,182],[-90.39057,38.81544,182],[-90.3906,38.81543,183],[-90.39064,38.81543,183],[-90.39069,38.81543,184],[-90.39074,38.81544,184],[-90.39077,38.81545,185],[-90.39081,38.81545,185],[-90.39086,38.81545,185],[-90.39089,38.81544,185],[-90.39093,38.81543,186],[-90.39097,38.81541,186],[-90.391,38.81539,186],[-90.39104,38.81537,186],[-90.39107,38.81537,186],[-90.39111,38.81537,186],[-90.39115,38.81537,186],[-90.39119,38.81538,186],[-90.39123,38.81538,186],[-90.39127,38.81539,186],[-90.39131,38.81539,185],[-90.39135,38.8154,185],[-90.3914,38.81541,185],[-90.39144,38.81543,184],[-90.39147,38.81544,184],[-90.39149,38.81546,184],[-90.39152,38.81549,183],[-90.39154,38.81551,183],[-90.39157,38.81554,183],[-90.3916,38.81556,183],[-90.39163,38.81558,182],[-90.39166,38.81559,182],[-90.39169,38.81562,181],[-90.39173,38.81564,180],[-90.39177,38.81565,179],[-90.39181,38.81563,179],[-90.39185,38.81563,178],[-90.39188,38.81565,177],[-90.39191,38.81563,177],[-90.39191,38.8156,177],[-90.39191,38.81557,178],[-90.39192,38.81554,178],[-90.39192,38.81551,178],[-90.39193,38.81548,177],[-90.39194,38.81546,177],[-90.39194,38.81542,177],[-90.39193,38.81539,177],[-90.39192,38.81535,176],[-90.3919,38.81532,176],[-90.39189,38.81529,176],[-90.39188,38.81523,175],[-90.39189,38.81519,173],[-90.39191,38.81515,172],[-90.39192,38.81512,170],[-90.39193,38.81508,169],[-90.39193,38.81505,168],[-90.39193,38.81502,167],[-90.39191,38.81499,167],[-90.3919,38.81496,167],[-90.39187,38.81494,167],[-90.39186,38.8149,167],[-90.39187,38.81487,167],[-90.39188,38.81483,166],[-90.39189,38.81479,165],[-90.39187,38.81477,165],[-90.39187,38.81474,165],[-90.39186,38.81471,165],[-90.39186,38.81468,164],[-90.39186,38.81465,164],[-90.39186,38.81461,163],[-90.39182,38.81458,164],[-90.3918,38.81455,164],[-90.39178,38.81453,165],[-90.39177,38.8145,164],[-90.39177,38.81446,164],[-90.39177,38.81443,163],[-90.39177,38.8144,162],[-90.39176,38.81437,162],[-90.39176,38.81434,161],[-90.39176,38.81431,160],[-90.39176,38.81428,159],[-90.39177,38.81425,158],[-90.39177,38.81423,158],[-90.3918,38.81421,156],[-90.39181,38.81418,155],[-90.39181,38.81415,154],[-90.39183,38.81412,152],[-90.39185,38.81409,150],[-90.39187,38.81406,148],[-90.39191,38.81407,148],[-90.39196,38.81406,146],[-90.392,38.81406,146],[-90.39204,38.81405,145],[-90.39207,38.81403,143],[-90.39211,38.81402,142],[-90.39215,38.81402,142],[-90.39219,38.814,140],[-90.39217,38.81403,142],[-90.39214,38.81405,144],[-90.39209,38.81406,145],[-90.39206,38.81408,146],[-90.39203,38.8141,147],[-90.39199,38.81411,148],[-90.39195,38.81412,149],[-90.39193,38.81413,150],[-90.39191,38.81415,152],[-90.39189,38.81418,153],[-90.39188,38.81421,154],[-90.39187,38.81424,155],[-90.39184,38.81426,157],[-90.39182,38.81428,158],[-90.39184,38.81431,158],[-90.39187,38.81434,158],[-90.39188,38.81437,159],[-90.39189,38.8144,159],[-90.3919,38.81443,159],[-90.3919,38.81446,160],[-90.39191,38.81449,160],[-90.39192,38.81452,160],[-90.39194,38.81454,160],[-90.39195,38.81457,160],[-90.39195,38.8146,161],[-90.39196,38.81464,161],[-90.39197,38.81466,161],[-90.39198,38.8147,162],[-90.39199,38.81473,162],[-90.392,38.81476,162],[-90.392,38.8148,162],[-90.39198,38.81483,163],[-90.39196,38.81486,164],[-90.39195,38.81489,164],[-90.39197,38.81492,164],[-90.39199,38.81494,164],[-90.39201,38.81497,163],[-90.39203,38.815,163],[-90.39203,38.81503,164],[-90.39203,38.81507,166],[-90.39203,38.81511,167],[-90.39202,38.81514,168],[-90.39201,38.81517,170],[-90.392,38.8152,171],[-90.39199,38.81523,173],[-90.392,38.81527,174],[-90.39201,38.8153,174],[-90.39201,38.81533,174],[-90.39201,38.81537,174],[-90.39201,38.81541,174],[-90.39201,38.81544,174],[-90.392,38.81547,175],[-90.39199,38.8155,175],[-90.392,38.81553,175],[-90.39198,38.81556,176],[-90.39197,38.81559,176],[-90.39196,38.81562,175],[-90.39195,38.81564,175],[-90.39192,38.81566,176],[-90.39188,38.81567,177],[-90.39184,38.81568,177],[-90.3918,38.81569,178],[-90.39176,38.8157,179],[-90.39174,38.81572,179],[-90.39174,38.81576,178],[-90.39177,38.81577,177],[-90.39177,38.81581,177],[-90.39177,38.81583,177],[-90.39177,38.81587,176],[-90.39177,38.8159,175],[-90.39176,38.81593,175],[-90.39176,38.81596,174],[-90.39175,38.816,174],[-90.39175,38.81604,173],[-90.39175,38.81607,172],[-90.39174,38.81611,171],[-90.39173,38.81615,170],[-90.39172,38.81617,170],[-90.39171,38.8162,169],[-90.3917,38.81623,168],[-90.39168,38.81627,167],[-90.39167,38.8163,167],[-90.39166,38.81634,165],[-90.39164,38.81636,165],[-90.39162,38.81639,165],[-90.3916,38.81642,164],[-90.39157,38.81645,164],[-90.39156,38.81649,163],[-90.39154,38.81651,163],[-90.39152,38.81654,163],[-90.39149,38.81657,162],[-90.39147,38.8166,162],[-90.39143,38.81662,162],[-90.39139,38.81664,162],[-90.39137,38.81666,162],[-90.39134,38.81668,162],[-90.39132,38.8167,161],[-90.3913,38.81673,161],[-90.39128,38.81676,160],[-90.39125,38.81677,160],[-90.39122,38.8168,160],[-90.39119,38.81681,160],[-90.39116,38.81684,160],[-90.39112,38.81684,160],[-90.39109,38.81682,161],[-90.39105,38.8168,162],[-90.39102,38.81678,163],[-90.39099,38.81679,163],[-90.39095,38.81677,164],[-90.39092,38.81677,164],[-90.39088,38.81677,164],[-90.39087,38.8168,164],[-90.39085,38.81683,163],[-90.39081,38.81684,164],[-90.39079,38.81686,163],[-90.39075,38.81687,164],[-90.39072,38.81688,164],[-90.39068,38.81688,164],[-90.39065,38.81688,164],[-90.3906,38.81689,165],[-90.39057,38.81691,165],[-90.39054,38.81693,165],[-90.39052,38.81695,165],[-90.39054,38.81698,163],[-90.39055,38.81701,162],[-90.39057,38.81703,161],[-90.39058,38.81706,160],[-90.39056,38.81708,160],[-90.39054,38.81711,159],[-90.39053,38.81714,158],[-90.39052,38.81717,157],[-90.39052,38.81719,157],[-90.39052,38.81723,155],[-90.39052,38.81726,154],[-90.39052,38.8173,153],[-90.39054,38.81727,154],[-90.39057,38.8173,152],[-90.39059,38.81732,151],[-90.39059,38.81735,150],[-90.39059,38.81739,149],[-90.39056,38.81742,148],[-90.39054,38.81744,148],[-90.39051,38.81746,147],[-90.39052,38.81744,148],[-90.39052,38.81741,149],[-90.39053,38.81738,150],[-90.39052,38.81735,151],[-90.39048,38.81734,152],[-90.39047,38.81731,153],[-90.39046,38.81728,154],[-90.39044,38.81726,155],[-90.39043,38.81722,156],[-90.39043,38.81719,157],[-90.39043,38.81716,158],[-90.39044,38.81713,159],[-90.39045,38.8171,160],[-90.39046,38.81707,161],[-90.39047,38.81704,162],[-90.39046,38.81702,163],[-90.39045,38.81699,164],[-90.39042,38.81696,165],[-90.39042,38.81693,166],[-90.39045,38.8169,166],[-90.39049,38.81688,166],[-90.39052,38.81686,166],[-90.39055,38.81684,166],[-90.39057,38.81681,166],[-90.3906,38.81679,166],[-90.39064,38.81678,166],[-90.39067,38.81677,166],[-90.39071,38.81678,165],[-90.39075,38.81679,165],[-90.39077,38.81677,165],[-90.39079,38.81674,165],[-90.39083,38.81674,165],[-90.39085,38.81671,166],[-90.39086,38.81669,166],[-90.39092,38.81668,166],[-90.39096,38.81669,166],[-90.391,38.8167,165],[-90.39103,38.81672,164],[-90.39107,38.81673,164],[-90.39109,38.81676,163],[-90.39112,38.81678,162],[-90.39115,38.81678,162],[-90.39118,38.81675,162],[-90.3912,38.81673,162],[-90.39124,38.81672,162],[-90.39126,38.81669,163],[-90.39128,38.81667,163],[-90.39131,38.81664,163],[-90.39134,38.81662,164],[-90.39136,38.81659,164],[-90.39139,38.81657,165],[-90.39142,38.81655,165],[-90.39144,38.81652,165],[-90.39146,38.81649,166],[-90.39148,38.81647,166],[-90.39151,38.81645,166],[-90.39153,38.81641,166],[-90.39155,38.81638,167],[-90.39157,38.81635,167],[-90.39159,38.81632,168],[-90.39162,38.81629,168],[-90.39163,38.81626,169],[-90.39164,38.81623,170],[-90.39165,38.8162,171],[-90.39167,38.81617,171],[-90.39167,38.81613,173],[-90.39168,38.8161,173],[-90.39169,38.81606,174],[-90.3917,38.81603,174],[-90.3917,38.816,175],[-90.3917,38.81597,176],[-90.39171,38.81594,176],[-90.39172,38.8159,176],[-90.39172,38.81587,177],[-90.39171,38.81584,178],[-90.39171,38.81581,179],[-90.39171,38.81577,179],[-90.39169,38.81575,180],[-90.39168,38.81571,181],[-90.39169,38.81568,181],[-90.39173,38.81566,180],[-90.39176,38.81565,179],[-90.3918,38.81565,179],[-90.39185,38.81565,177],[-90.39189,38.81566,176],[-90.39192,38.81564,176],[-90.39192,38.81561,177],[-90.39192,38.81558,177],[-90.39193,38.81554,178],[-90.39194,38.81551,177],[-90.39195,38.81548,177],[-90.39195,38.81545,176],[-90.39195,38.81541,176],[-90.39193,38.81538,176],[-90.39192,38.81535,176],[-90.3919,38.81532,176],[-90.39189,38.81528,176],[-90.39191,38.81525,175],[-90.39192,38.81521,173],[-90.39193,38.81517,172],[-90.39193,38.81514,171],[-90.39194,38.81511,170],[-90.39195,38.81507,168],[-90.39195,38.81504,167],[-90.39195,38.81501,166],[-90.39194,38.81498,166],[-90.39192,38.81495,166],[-90.3919,38.81491,166],[-90.39188,38.81488,166],[-90.39189,38.81485,166],[-90.3919,38.81482,165],[-90.39191,38.81479,164],[-90.3919,38.81476,164],[-90.39188,38.81473,165],[-90.39187,38.8147,164],[-90.39186,38.81467,164],[-90.39185,38.81463,164],[-90.39184,38.8146,164],[-90.39182,38.81456,164],[-90.3918,38.81453,164],[-90.39178,38.81451,164],[-90.39177,38.81447,164],[-90.39177,38.81444,163],[-90.39178,38.81441,162],[-90.39177,38.81438,162],[-90.39177,38.81434,161],[-90.39177,38.81431,160],[-90.39177,38.81428,159],[-90.39177,38.81425,158],[-90.39178,38.81422,157],[-90.3918,38.8142,156],[-90.3918,38.81417,155],[-90.39183,38.81414,153],[-90.39186,38.81412,151],[-90.39187,38.81409,150],[-90.39191,38.81407,148],[-90.39195,38.81406,146],[-90.39199,38.81406,146],[-90.39204,38.81406,145],[-90.39208,38.81404,144],[-90.39213,38.81404,143],[-90.39217,38.81402,141],[-90.39216,38.81405,143],[-90.39213,38.81407,145],[-90.39209,38.81408,146],[-90.39205,38.81411,148],[-90.39202,38.81412,149],[-90.39198,38.81413,149],[-90.39194,38.81413,150],[-90.39193,38.81416,152],[-90.39191,38.81418,153],[-90.39189,38.81421,154],[-90.39186,38.81423,155],[-90.39185,38.81426,156],[-90.39185,38.81429,157],[-90.39187,38.81431,157],[-90.39188,38.81434,158],[-90.39188,38.81437,159],[-90.39188,38.8144,159],[-90.39189,38.81443,160],[-90.3919,38.81447,160],[-90.39191,38.8145,160],[-90.39193,38.81453,160],[-90.39194,38.81456,160],[-90.39196,38.81459,160],[-90.39197,38.81462,161],[-90.39197,38.81466,161],[-90.39198,38.81469,161],[-90.39199,38.81472,162],[-90.392,38.81474,162],[-90.39199,38.81477,162],[-90.39199,38.81481,163],[-90.39199,38.81484,163],[-90.39197,38.81487,164],[-90.39197,38.8149,164],[-90.39198,38.81494,164],[-90.392,38.81496,164],[-90.39202,38.81499,163],[-90.39205,38.81503,164],[-90.39206,38.81506,165],[-90.39205,38.8151,166],[-90.39204,38.81513,168],[-90.39203,38.81517,169],[-90.39202,38.81519,170],[-90.39201,38.81522,171],[-90.39201,38.81525,173],[-90.39201,38.81528,174],[-90.39203,38.81532,173],[-90.39203,38.81535,173],[-90.39203,38.81538,173],[-90.39204,38.81541,173],[-90.39205,38.81544,173],[-90.39205,38.81547,173],[-90.39204,38.8155,173],[-90.39203,38.81553,174],[-90.39201,38.81556,174],[-90.39199,38.81558,175],[-90.39199,38.81561,174],[-90.39198,38.81564,174],[-90.39195,38.81566,175],[-90.39191,38.81567,176],[-90.39186,38.81567,177],[-90.39183,38.81567,178],[-90.39178,38.81569,178],[-90.39174,38.8157,179],[-90.39169,38.8157,180],[-90.39165,38.81569,181],[-90.39161,38.81566,182],[-90.39158,38.81564,182],[-90.39156,38.81562,182],[-90.39153,38.8156,183],[-90.39149,38.81557,184],[-90.39146,38.81554,184],[-90.39142,38.81552,184],[-90.39138,38.81551,185],[-90.39135,38.81549,185],[-90.39131,38.81548,185],[-90.39127,38.81547,185],[-90.39123,38.81548,185],[-90.39119,38.81548,185],[-90.39114,38.81548,186],[-90.3911,38.81549,186],[-90.39107,38.8155,186],[-90.39103,38.81551,185],[-90.39099,38.81552,185],[-90.39094,38.81552,185],[-90.3909,38.81552,185],[-90.39086,38.81553,185],[-90.39082,38.81554,185],[-90.39077,38.81554,184],[-90.39073,38.81553,184],[-90.39068,38.81553,183],[-90.39064,38.81552,183],[-90.3906,38.81552,182],[-90.39057,38.81551,182],[-90.39052,38.81551,181],[-90.39048,38.81551,181],[-90.39044,38.81549,181],[-90.3904,38.81547,180],[-90.39036,38.81546,180],[-90.39032,38.81546,179],[-90.39028,38.81545,179],[-90.39025,38.81543,179],[-90.39019,38.81542,179],[-90.39015,38.81541,179],[-90.3901,38.8154,179],[-90.39006,38.81539,180],[-90.39003,38.81537,180],[-90.39001,38.81535,180],[-90.38997,38.81533,181],[-90.38994,38.81532,181],[-90.3899,38.81531,181],[-90.38986,38.8153,182],[-90.38983,38.81528,182],[-90.3898,38.81525,183],[-90.38978,38.81523,183],[-90.38975,38.81521,184],[-90.38972,38.81519,184],[-90.38968,38.81517,185],[-90.38965,38.81514,186],[-90.38962,38.81511,186],[-90.3896,38.81508,187],[-90.38957,38.81506,187],[-90.38955,38.81503,188],[-90.38952,38.815,188],[-90.3895,38.81496,188],[-90.38949,38.81493,188],[-90.38947,38.81489,189],[-90.38946,38.81484,189],[-90.38945,38.8148,190],[-90.38945,38.81477,190],[-90.38945,38.81474,190],[-90.38945,38.81471,190],[-90.38945,38.81468,190],[-90.38945,38.81465,190],[-90.38945,38.81461,190],[-90.38944,38.81458,190],[-90.38945,38.81455,190],[-90.38945,38.81452,190],[-90.38946,38.81449,190],[-90.38947,38.81445,189],[-90.38946,38.81442,189],[-90.38944,38.8144,189],[-90.38941,38.81437,189],[-90.38937,38.81435,190],[-90.38934,38.81433,190],[-90.3893,38.81431,190],[-90.38927,38.81429,191],[-90.38923,38.81428,191],[-90.38918,38.81427,192],[-90.38914,38.81427,192],[-90.38911,38.81425,192],[-90.38908,38.81423,192],[-90.38905,38.81421,192],[-90.38901,38.81422,192],[-90.38897,38.81422,192],[-90.38893,38.81422,192],[-90.38889,38.81421,192],[-90.38886,38.81421,193],[-90.38882,38.81419,194],[-90.38878,38.81418,194],[-90.38875,38.81417,195],[-90.3887,38.81417,195],[-90.38866,38.81416,196],[-90.38863,38.81414,196],[-90.38859,38.81413,196],[-90.38856,38.81413,197],[-90.38851,38.81411,197],[-90.38847,38.8141,197],[-90.38843,38.81409,197],[-90.3884,38.81407,198],[-90.38837,38.81405,198],[-90.38832,38.81403,198],[-90.38828,38.81401,198],[-90.38824,38.81399,198],[-90.38822,38.81397,198],[-90.38818,38.81396,198],[-90.38815,38.81395,198],[-90.3881,38.81394,199],[-90.38806,38.81395,199],[-90.38802,38.81395,199],[-90.38798,38.81396,199],[-90.38793,38.81396,199],[-90.38789,38.81397,199],[-90.38785,38.81398,199],[-90.38781,38.81398,199],[-90.38777,38.81398,200],[-90.38771,38.81399,200],[-90.38767,38.81399,200],[-90.38763,38.81397,200],[-90.38759,38.81394,200],[-90.38756,38.81392,200],[-90.38753,38.8139,200],[-90.38751,38.81388,199],[-90.38749,38.81386,199],[-90.38748,38.81382,198],[-90.38749,38.81378,198],[-90.3875,38.81375,198],[-90.38751,38.81372,197],[-90.38751,38.81369,197],[-90.38752,38.81365,196],[-90.38753,38.81362,196],[-90.38754,38.81358,196],[-90.38754,38.81355,195],[-90.38754,38.81351,195],[-90.38755,38.81347,195],[-90.38755,38.81345,195],[-90.38755,38.81342,194],[-90.38756,38.81339,194],[-90.38756,38.81336,194],[-90.38756,38.81333,194],[-90.38756,38.8133,194],[-90.38756,38.81327,194],[-90.3876,38.81325,194],[-90.38765,38.81325,194],[-90.3877,38.81326,194],[-90.38775,38.81325,194],[-90.38779,38.81326,195],[-90.38783,38.81326,195],[-90.38786,38.81324,194],[-90.38788,38.81321,194],[-90.38789,38.81318,193],[-90.38792,38.81315,193],[-90.38794,38.81312,192],[-90.38796,38.8131,192],[-90.38797,38.81307,191],[-90.38798,38.81303,191],[-90.38799,38.813,190],[-90.38799,38.81298,190],[-90.38799,38.81294,190],[-90.38799,38.8129,189],[-90.388,38.81288,189],[-90.38801,38.81285,189],[-90.38802,38.81281,188],[-90.38802,38.81279,188],[-90.38802,38.81276,187],[-90.38804,38.81273,186],[-90.38808,38.81272,185],[-90.38813,38.81271,184],[-90.38816,38.81269,183],[-90.38819,38.81267,181],[-90.38823,38.81265,180],[-90.38825,38.81267,180],[-90.38822,38.81269,181],[-90.38823,38.81271,181],[-90.38827,38.81272,180],[-90.3883,38.8127,179],[-90.38833,38.81268,178],[-90.38838,38.81267,176],[-90.38842,38.81266,175],[-90.38844,38.81264,174],[-90.38848,38.81262,173],[-90.3885,38.8126,172],[-90.38851,38.81257,171],[-90.38852,38.81254,171],[-90.38853,38.81251,170],[-90.38855,38.81249,170],[-90.38856,38.81246,169],[-90.38856,38.81243,168],[-90.38855,38.8124,168],[-90.38855,38.81237,167],[-90.38857,38.81234,166],[-90.38858,38.8123,165],[-90.38859,38.81228,165],[-90.38862,38.81225,164],[-90.38866,38.81225,164],[-90.38871,38.81224,163],[-90.38872,38.81221,163],[-90.38873,38.81218,162],[-90.38875,38.81215,162],[-90.38876,38.81212,161],[-90.38876,38.81208,161],[-90.38875,38.81205,160],[-90.38872,38.81202,160],[-90.38869,38.81201,161],[-90.38865,38.812,161],[-90.38862,38.81198,162],[-90.38861,38.81195,162],[-90.38858,38.81193,162],[-90.38855,38.81191,163],[-90.38854,38.81187,163],[-90.38854,38.81183,164],[-90.38855,38.8118,164],[-90.38856,38.81177,164],[-90.38858,38.81174,164],[-90.3886,38.81171,164],[-90.38863,38.81167,164],[-90.38866,38.81165,164],[-90.38868,38.81163,163],[-90.38872,38.8116,162],[-90.38875,38.81157,162],[-90.38876,38.81154,161],[-90.38879,38.81152,161],[-90.38883,38.81152,160],[-90.38887,38.81152,159],[-90.38891,38.81151,158],[-90.38894,38.81149,157],[-90.38898,38.81148,156],[-90.38902,38.81148,155],[-90.38906,38.81146,154],[-90.38909,38.81144,153],[-90.38914,38.8114,152],[-90.38917,38.81137,152],[-90.38919,38.81135,152],[-90.38924,38.81134,152],[-90.38929,38.81135,152],[-90.38933,38.81136,152],[-90.38937,38.81136,152],[-90.38939,38.81133,152],[-90.38941,38.81131,152],[-90.38943,38.81128,152],[-90.38944,38.81125,152],[-90.38946,38.81122,151],[-90.38949,38.81119,151],[-90.38951,38.81117,151],[-90.38955,38.81115,151],[-90.38959,38.81115,151],[-90.38963,38.81115,151],[-90.38968,38.81116,151],[-90.38973,38.81117,150],[-90.38978,38.81117,149],[-90.38981,38.81115,149],[-90.38985,38.81112,149],[-90.38989,38.8111,148],[-90.38993,38.8111,147],[-90.38997,38.81112,147],[-90.39001,38.81112,146],[-90.39006,38.81112,146],[-90.3901,38.81112,145],[-90.39013,38.81113,145],[-90.39017,38.81114,144],[-90.39022,38.81115,143],[-90.39026,38.81115,143],[-90.3903,38.81114,142],[-90.39035,38.81114,142],[-90.39039,38.81116,142],[-90.39043,38.81118,142],[-90.39047,38.81121,142],[-90.39051,38.81122,142],[-90.39055,38.81124,142],[-90.39059,38.81125,142],[-90.39063,38.81123,142],[-90.39066,38.8112,142],[-90.3907,38.81118,141],[-90.39074,38.81117,141],[-90.39077,38.81115,141],[-90.39078,38.81112,141],[-90.39078,38.81108,140],[-90.39078,38.81105,140],[-90.39079,38.81102,140],[-90.3908,38.81098,139],[-90.3908,38.81095,139],[-90.3908,38.81092,139],[-90.39079,38.81089,138],[-90.39078,38.81086,138],[-90.39078,38.81082,138]]],
        "bbox": [
          -90.38748,
          38.81746,
          -90.39219,
          38.81082
        ]
      },
      "properties": {
        "name": "9.16.2022"
      }
    }
  ]
}