{
  "type": "FeatureCollection",
  "features": [
    {
      "type": "Feature",
      "geometry": {
        "type": "MultiLineString",
        "coordinates": [[[-90.39503,38.81173,133],[-90.39492,38.81178,134],[-90.39488,38.8118,134],[-90.39484,38.81182,135],[-90.39482,38.81185,135],[-90.39478,38.81189,136],[-90.39475,38.81191,136],[-90.39472,38.81193,136],[-90.39469,38.81196,137],[-90.39466,38.81198,137],[-90.39464,38.812,137],[-90.39463,38.81203,137],[-90.39461,38.81207,137],[-90.39458,38.81211,137],[-90.39454,38.81213,137],[-90.39452,38.81216,137],[-90.3945,38.81218,137],[-90.39447,38.81221,137],[-90.39444,38.81222,138],[-90.39441,38.81225,137],[-90.39437,38.81227,137],[-90.39435,38.81228,137],[-90.39432,38.8123,137],[-90.39429,38.81232,137],[-90.39426,38.81234,137],[-90.39423,38.81236,137],[-90.3942,38.81239,137],[-90.39418,38.81241,137],[-90.39415,38.81243,137],[-90.39412,38.81245,137],[-90.3941,38.81248,137],[-90.39409,38.8125,137],[-90.39407,38.81253,136],[-90.39404,38.81255,136],[-90.39403,38.81258,135],[-90.394,38.81261,135],[-90.39397,38.81263,135],[-90.39394,38.81265,135],[-90.39391,38.81267,135],[-90.39388,38.81269,134],[-90.39385,38.81271,134],[-90.39382,38.81273,134],[-90.39379,38.81276,134],[-90.39376,38.81278,133],[-90.39372,38.81279,133],[-90.39367,38.81279,133],[-90.39362,38.8128,133],[-90.39358,38.8128,133],[-90.39355,38.81279,134],[-90.39351,38.81278,134],[-90.39347,38.81278,134],[-90.39344,38.8128,134],[-90.3934,38.81282,134],[-90.39337,38.81284,134],[-90.39334,38.81288,134],[-90.39332,38.81291,134],[-90.3933,38.81294,133],[-90.39327,38.81296,133],[-90.39324,38.81298,133],[-90.39321,38.813,133],[-90.39317,38.81302,133],[-90.39315,38.81304,133],[-90.39312,38.81308,132],[-90.39309,38.8131,132],[-90.39307,38.81313,132],[-90.39304,38.81315,133],[-90.39302,38.81318,133],[-90.39299,38.81321,133],[-90.39297,38.81324,133],[-90.39294,38.81327,133],[-90.39291,38.8133,134],[-90.39289,38.81332,134],[-90.39286,38.81334,134],[-90.39282,38.81336,134],[-90.39278,38.81338,135],[-90.39275,38.8134,135],[-90.39272,38.81342,136],[-90.39269,38.81344,136],[-90.39267,38.81347,137],[-90.39265,38.8135,137],[-90.39263,38.81352,137],[-90.39261,38.81355,138],[-90.39259,38.81359,138],[-90.39258,38.81362,138],[-90.39257,38.81365,138],[-90.39256,38.81369,138],[-90.39255,38.81373,138],[-90.39254,38.81375,138],[-90.39252,38.81378,138],[-90.39249,38.81381,138],[-90.39247,38.81385,137],[-90.39245,38.81387,137],[-90.39248,38.81389,137],[-90.3925,38.81392,139],[-90.39246,38.81392,138],[-90.39242,38.81394,138],[-90.39239,38.81396,139],[-90.39236,38.81398,140],[-90.39234,38.814,141],[-90.3923,38.81403,142],[-90.39228,38.81405,143],[-90.39226,38.81408,145],[-90.39223,38.81411,147],[-90.39219,38.8141,146],[-90.39216,38.81408,145],[-90.39214,38.81405,144],[-90.39211,38.81402,142],[-90.39209,38.814,141],[-90.39207,38.81397,140],[-90.39204,38.81395,139],[-90.39201,38.81393,139],[-90.39198,38.81391,138],[-90.39194,38.81389,138],[-90.39191,38.81387,139],[-90.39188,38.81385,140],[-90.39185,38.81383,141],[-90.39182,38.8138,142],[-90.39178,38.81378,143],[-90.39175,38.81376,143],[-90.39172,38.81374,144],[-90.39171,38.81372,144],[-90.39169,38.81369,144],[-90.39167,38.81366,143],[-90.39165,38.81364,144],[-90.39162,38.81361,144],[-90.3916,38.81358,145],[-90.39159,38.81355,145],[-90.39158,38.81351,146],[-90.39157,38.81349,146],[-90.39157,38.81346,147],[-90.39156,38.81342,147],[-90.39155,38.81339,148],[-90.39153,38.81336,148],[-90.39151,38.81333,149],[-90.39147,38.81332,149],[-90.39143,38.8133,150],[-90.39139,38.81329,150],[-90.39137,38.81327,151],[-90.39134,38.81324,151],[-90.39131,38.81321,151],[-90.39129,38.81318,151],[-90.39127,38.81315,151],[-90.39124,38.81314,152],[-90.39121,38.81313,152],[-90.39117,38.81311,153],[-90.39115,38.81308,153],[-90.39114,38.81306,153],[-90.39113,38.81302,152],[-90.39112,38.81299,152],[-90.39109,38.81297,152],[-90.39107,38.81295,151],[-90.39105,38.81291,150],[-90.39104,38.81288,150],[-90.39103,38.81285,149],[-90.39101,38.81282,149],[-90.39099,38.8128,149],[-90.39098,38.81277,148],[-90.39098,38.81273,147],[-90.39097,38.81269,147],[-90.39096,38.81266,146],[-90.39095,38.81263,145],[-90.39095,38.8126,145],[-90.39095,38.81257,144],[-90.39095,38.81254,143],[-90.39095,38.8125,142],[-90.39096,38.81247,143],[-90.39096,38.81244,144],[-90.39094,38.8124,145],[-90.39091,38.81237,146],[-90.39087,38.81236,146],[-90.39087,38.81233,147],[-90.39086,38.8123,148],[-90.39086,38.81226,149],[-90.39085,38.81223,149],[-90.39084,38.81219,149],[-90.39084,38.81215,149],[-90.39085,38.81212,149],[-90.39088,38.8121,149],[-90.39091,38.81208,149],[-90.39087,38.8121,149],[-90.39086,38.81213,149],[-90.39087,38.81216,149],[-90.39088,38.81213,149],[-90.39087,38.81209,149],[-90.39088,38.81206,149],[-90.39089,38.81203,149],[-90.3909,38.812,149],[-90.39091,38.81197,149],[-90.39092,38.81194,149],[-90.39091,38.81191,149],[-90.39091,38.81187,148],[-90.3909,38.81183,148],[-90.3909,38.81179,147],[-90.39091,38.81176,147],[-90.39093,38.81173,147],[-90.39095,38.8117,146],[-90.39098,38.81167,145],[-90.391,38.81165,145],[-90.39104,38.81163,145],[-90.39106,38.8116,144],[-90.39108,38.81157,143],[-90.39109,38.81154,143],[-90.39108,38.8115,142],[-90.39107,38.81147,142],[-90.39104,38.81145,142],[-90.39101,38.81142,142],[-90.39098,38.8114,142],[-90.39096,38.81138,141],[-90.39092,38.81135,142],[-90.39089,38.81132,142],[-90.39087,38.81129,141],[-90.39085,38.81127,142],[-90.39083,38.81124,141],[-90.3908,38.81121,141],[-90.39076,38.81121,141],[-90.39071,38.81121,142],[-90.39067,38.81122,142],[-90.39062,38.81124,142],[-90.39058,38.81125,142],[-90.39054,38.81125,142],[-90.3905,38.81123,142],[-90.39046,38.81122,142],[-90.39043,38.81121,142],[-90.39039,38.81119,142],[-90.39035,38.81118,142],[-90.3903,38.81117,142],[-90.39027,38.81118,143],[-90.39023,38.81119,143],[-90.39019,38.81119,144],[-90.39015,38.8112,144],[-90.3901,38.81119,145],[-90.39006,38.81118,145],[-90.39002,38.81118,146],[-90.38998,38.81117,146],[-90.38994,38.81117,147],[-90.3899,38.81117,148],[-90.38986,38.81118,148],[-90.38981,38.8112,149],[-90.38976,38.8112,150],[-90.38972,38.81119,150],[-90.38968,38.81119,150],[-90.38964,38.81118,151],[-90.38961,38.81118,151],[-90.38956,38.81119,151],[-90.38952,38.81121,151],[-90.3895,38.81124,151],[-90.38947,38.81127,151],[-90.38944,38.8113,152],[-90.38942,38.81133,152],[-90.3894,38.81135,152],[-90.38938,38.81138,152],[-90.38933,38.81138,152],[-90.38929,38.81139,152],[-90.38925,38.81139,152],[-90.38922,38.81141,152],[-90.38919,38.81143,152],[-90.38917,38.81145,152],[-90.38915,38.81147,152],[-90.38911,38.8115,153],[-90.38908,38.81152,154],[-90.38904,38.81154,155],[-90.38899,38.81155,156],[-90.38896,38.81156,157],[-90.38892,38.81157,158],[-90.38888,38.81158,159],[-90.38885,38.81161,160],[-90.38882,38.81162,161],[-90.3888,38.81165,161],[-90.38877,38.81168,161],[-90.38873,38.8117,162],[-90.3887,38.81172,162],[-90.38867,38.81173,163],[-90.38864,38.81176,163],[-90.38861,38.81178,163],[-90.38858,38.81181,163],[-90.38858,38.81184,163],[-90.38859,38.81187,163],[-90.3886,38.8119,162],[-90.38862,38.81193,162],[-90.38865,38.81196,161],[-90.38867,38.81199,161],[-90.38869,38.81202,161],[-90.38872,38.81205,161],[-90.38876,38.81207,160],[-90.38878,38.81209,161],[-90.38879,38.81213,161],[-90.38879,38.81216,161],[-90.3888,38.81219,162],[-90.38879,38.81222,162],[-90.38877,38.81224,163],[-90.38875,38.81227,163],[-90.38872,38.81229,164],[-90.38867,38.81231,164],[-90.38864,38.81232,165],[-90.38861,38.81235,166],[-90.38859,38.81238,167],[-90.38859,38.81241,167],[-90.38859,38.81244,168],[-90.38861,38.81247,168],[-90.38862,38.8125,168],[-90.38862,38.81253,168],[-90.38861,38.81257,169],[-90.3886,38.8126,169],[-90.38859,38.81263,170],[-90.38858,38.81266,170],[-90.38856,38.81269,171],[-90.38853,38.81272,172],[-90.3885,38.81274,173],[-90.38846,38.81274,175],[-90.38842,38.81275,176],[-90.38838,38.81276,177],[-90.38834,38.81277,179],[-90.38831,38.81278,180],[-90.38827,38.81278,181],[-90.38824,38.81277,182],[-90.3882,38.81278,183],[-90.38816,38.8128,185],[-90.38813,38.81282,186],[-90.38809,38.81283,187],[-90.38808,38.81286,188],[-90.38808,38.81288,188],[-90.38807,38.81291,189],[-90.38806,38.81294,189],[-90.38806,38.81297,189],[-90.38806,38.81301,190],[-90.38806,38.81304,190],[-90.38806,38.81307,191],[-90.38805,38.81311,192],[-90.38803,38.81314,192],[-90.38802,38.81317,193],[-90.38801,38.81319,193],[-90.38797,38.81318,193],[-90.38795,38.8132,194],[-90.38793,38.81323,194],[-90.38791,38.81326,194],[-90.38789,38.81328,195],[-90.38786,38.81329,195],[-90.38781,38.81331,195],[-90.38777,38.81331,195],[-90.38773,38.81331,195],[-90.38768,38.81331,195],[-90.38765,38.81331,194],[-90.38761,38.81332,194],[-90.3876,38.81335,194],[-90.3876,38.81338,195],[-90.38759,38.81341,195],[-90.38758,38.81345,195],[-90.38758,38.81348,195],[-90.38757,38.81352,195],[-90.38756,38.81356,196],[-90.38755,38.81359,196],[-90.38755,38.81362,196],[-90.38754,38.81366,196],[-90.38754,38.81369,197],[-90.38754,38.81372,197],[-90.38753,38.81375,198],[-90.38753,38.81378,198],[-90.38752,38.81381,198],[-90.38753,38.81384,199],[-90.38756,38.81387,199],[-90.38759,38.8139,200],[-90.38761,38.81392,200],[-90.38765,38.81394,200],[-90.38768,38.81396,200],[-90.38772,38.81396,200],[-90.38776,38.81396,200],[-90.38781,38.81396,199],[-90.38785,38.81396,199],[-90.38788,38.81396,199],[-90.38792,38.81395,199],[-90.38796,38.81394,199],[-90.388,38.81393,199],[-90.38805,38.81393,199],[-90.38809,38.81392,198],[-90.38813,38.81393,198],[-90.38817,38.81395,198],[-90.38821,38.81397,198],[-90.38824,38.81399,198],[-90.38828,38.81402,198],[-90.38832,38.81404,198],[-90.38837,38.81405,198],[-90.3884,38.81406,198],[-90.38844,38.81407,197],[-90.38849,38.81408,197],[-90.38852,38.81409,197],[-90.38856,38.81409,196],[-90.38859,38.8141,196],[-90.38862,38.81411,196],[-90.38866,38.81413,196],[-90.3887,38.81414,195],[-90.38872,38.81417,195],[-90.38875,38.81419,195],[-90.38878,38.81421,194],[-90.38882,38.81422,194],[-90.38886,38.81423,193],[-90.38891,38.81423,192],[-90.38896,38.81423,192],[-90.38899,38.81424,192],[-90.38903,38.81424,192],[-90.38907,38.81424,192],[-90.38911,38.81425,192],[-90.38916,38.81426,192],[-90.3892,38.81427,192],[-90.38924,38.8143,191],[-90.38927,38.81432,191],[-90.38931,38.81434,190],[-90.38934,38.81435,190],[-90.38938,38.81437,190],[-90.38943,38.81438,189],[-90.38947,38.81439,189],[-90.38949,38.81442,189],[-90.38951,38.81445,189],[-90.38952,38.81447,189],[-90.38951,38.81451,190],[-90.38951,38.81455,190],[-90.38951,38.81459,190],[-90.38952,38.81463,190],[-90.38952,38.81468,191],[-90.38951,38.81471,191],[-90.38952,38.81475,190],[-90.38953,38.8148,190],[-90.38953,38.81484,190],[-90.38954,38.81488,189],[-90.38955,38.81493,189],[-90.38957,38.81496,188],[-90.38959,38.815,188],[-90.38961,38.81503,188],[-90.38963,38.81505,187],[-90.38965,38.81509,187],[-90.38969,38.81511,186],[-90.38972,38.81513,186],[-90.38976,38.81515,185],[-90.38979,38.81517,185],[-90.38983,38.8152,184],[-90.38985,38.81523,183],[-90.38988,38.81526,182],[-90.3899,38.81528,182],[-90.38993,38.8153,181],[-90.38996,38.81532,181],[-90.39,38.81533,181],[-90.39005,38.81535,180],[-90.3901,38.81538,180],[-90.39012,38.8154,180],[-90.39015,38.81541,179],[-90.39019,38.81542,179],[-90.39023,38.81543,179],[-90.39027,38.81544,179],[-90.39031,38.81545,179],[-90.39035,38.81545,180],[-90.39039,38.81545,180],[-90.39043,38.81546,181],[-90.39048,38.81547,181],[-90.39053,38.81547,182],[-90.39057,38.81548,182],[-90.39061,38.81548,183],[-90.3906,38.81545,183],[-90.39064,38.81547,183],[-90.39068,38.81548,183],[-90.39071,38.81549,184],[-90.39075,38.81551,184],[-90.3908,38.81552,184],[-90.39085,38.81552,185],[-90.39089,38.81552,185],[-90.39093,38.81552,185],[-90.39097,38.8155,185],[-90.39102,38.81549,185],[-90.39107,38.81548,186],[-90.3911,38.81546,186],[-90.39114,38.81544,186],[-90.39118,38.81544,186],[-90.39122,38.81545,185],[-90.39126,38.81545,185],[-90.39129,38.81546,185],[-90.39132,38.81548,185],[-90.39136,38.81549,185],[-90.3914,38.81551,185],[-90.39145,38.81551,184],[-90.39148,38.81553,184],[-90.39151,38.81554,184],[-90.39153,38.81557,183],[-90.39156,38.8156,183],[-90.39159,38.81563,182],[-90.39161,38.81566,182],[-90.39164,38.81569,181],[-90.39167,38.81571,181],[-90.3917,38.81573,180],[-90.39174,38.81575,179],[-90.39178,38.81572,178],[-90.39182,38.81571,177],[-90.39185,38.81573,176],[-90.39199,38.81575,171],[-90.39198,38.81572,172],[-90.39195,38.8157,174],[-90.39191,38.8157,175],[-90.39186,38.8157,176],[-90.39181,38.8157,178],[-90.39177,38.81571,178],[-90.39175,38.81574,179],[-90.39175,38.81577,178],[-90.39176,38.8158,177],[-90.39177,38.81583,177],[-90.39177,38.81586,176],[-90.39178,38.81589,175],[-90.39178,38.81593,174],[-90.39178,38.81597,173],[-90.39177,38.81601,173],[-90.39177,38.81604,172],[-90.39176,38.81607,172],[-90.39175,38.81611,171],[-90.39175,38.81614,170],[-90.39174,38.81617,169],[-90.39173,38.81621,168],[-90.39173,38.81625,167],[-90.39173,38.81628,166],[-90.39172,38.81631,165],[-90.39168,38.81634,165],[-90.39167,38.81638,164],[-90.39166,38.81641,163],[-90.39163,38.81642,163],[-90.3916,38.81645,163],[-90.39159,38.81648,163],[-90.39156,38.81651,162],[-90.39154,38.81655,162],[-90.39153,38.81658,161],[-90.39151,38.81661,161],[-90.39147,38.81661,162],[-90.39144,38.81662,162],[-90.39143,38.81665,161],[-90.39142,38.81667,161],[-90.3914,38.8167,160],[-90.39137,38.81669,161],[-90.39134,38.8167,161],[-90.39131,38.81672,161],[-90.39127,38.81673,161],[-90.39124,38.81676,161],[-90.39121,38.81678,161],[-90.39119,38.8168,160],[-90.39117,38.81683,160],[-90.39114,38.81684,160],[-90.3911,38.81682,161],[-90.39108,38.8168,162],[-90.39105,38.81679,162],[-90.39101,38.81679,163],[-90.39097,38.81679,163],[-90.39093,38.81677,164],[-90.39089,38.81675,165],[-90.39087,38.81677,164],[-90.39087,38.8168,164],[-90.39084,38.81682,164],[-90.3908,38.81684,164],[-90.39077,38.81683,164],[-90.39073,38.81684,164],[-90.3907,38.81685,164],[-90.39066,38.81686,164],[-90.39062,38.81687,165],[-90.39059,38.81689,165],[-90.39056,38.81691,165],[-90.39053,38.81693,165],[-90.3905,38.81696,164],[-90.39051,38.81699,163],[-90.39053,38.81702,162],[-90.39054,38.81705,161],[-90.39056,38.81708,160],[-90.39058,38.81711,159],[-90.39058,38.81715,157],[-90.39057,38.81718,157],[-90.39056,38.81721,156],[-90.39055,38.81724,155],[-90.39055,38.81727,154],[-90.39056,38.81729,153],[-90.39056,38.81733,152],[-90.39054,38.81736,151],[-90.39058,38.81735,151],[-90.3906,38.81738,149],[-90.3906,38.81741,148],[-90.39057,38.81744,147],[-90.39054,38.81745,147],[-90.3905,38.81746,147],[-90.39048,38.81748,147],[-90.39048,38.81752,146],[-90.39048,38.81755,145],[-90.3905,38.81758,144],[-90.3905,38.81762,143],[-90.39051,38.81765,143],[-90.39054,38.81767,142],[-90.39057,38.81769,141],[-90.3906,38.81771,140],[-90.39062,38.81773,140],[-90.39063,38.81776,139],[-90.39058,38.81777,139],[-90.39054,38.81777,140],[-90.39049,38.81776,141],[-90.39044,38.81777,141],[-90.3904,38.81778,141],[-90.39035,38.81779,142],[-90.39032,38.81781,142],[-90.39029,38.81784,142],[-90.39027,38.81787,142],[-90.39023,38.81789,142],[-90.3902,38.8179,142],[-90.39015,38.81791,143],[-90.39011,38.81792,143],[-90.39007,38.81793,144],[-90.39003,38.81793,144],[-90.38998,38.81793,145],[-90.38993,38.81795,145],[-90.3899,38.81795,146],[-90.38986,38.81797,146],[-90.38982,38.81799,146],[-90.38978,38.81801,146],[-90.38975,38.81802,147],[-90.38972,38.81804,147],[-90.38974,38.81807,146],[-90.38975,38.8181,145],[-90.38969,38.8181,145],[-90.38966,38.8181,145],[-90.38961,38.81809,145],[-90.38957,38.81809,145],[-90.38954,38.81809,145],[-90.3895,38.81809,145],[-90.38946,38.81809,145],[-90.38942,38.81809,145],[-90.38939,38.81807,147],[-90.38935,38.81806,147],[-90.38931,38.81804,148],[-90.38928,38.81803,149],[-90.38924,38.81803,149],[-90.38919,38.81803,150],[-90.38915,38.81803,151],[-90.38912,38.81802,152],[-90.38907,38.81802,153],[-90.38903,38.81803,154],[-90.389,38.81805,154],[-90.38898,38.81807,154],[-90.38896,38.8181,153],[-90.38893,38.81812,153],[-90.38892,38.81816,151],[-90.38891,38.81819,151],[-90.38888,38.81822,150],[-90.38885,38.81824,150],[-90.38882,38.81826,150],[-90.3888,38.81829,149],[-90.38876,38.81831,148],[-90.38872,38.81831,149],[-90.38868,38.8183,150],[-90.38864,38.81831,150],[-90.38862,38.81834,149],[-90.38862,38.81838,147],[-90.38861,38.81841,146],[-90.38859,38.81843,145],[-90.38856,38.81845,144],[-90.38852,38.81848,143],[-90.38848,38.81849,143],[-90.38845,38.8185,142],[-90.38841,38.81851,142],[-90.38838,38.81853,141],[-90.38835,38.81856,140],[-90.38832,38.81858,139],[-90.3883,38.81861,138],[-90.38829,38.81863,138],[-90.38825,38.81865,139],[-90.38822,38.81866,139],[-90.38818,38.81868,139],[-90.38813,38.8187,140],[-90.38809,38.8187,140],[-90.38806,38.81871,140],[-90.38802,38.81872,141],[-90.38797,38.81873,141],[-90.38793,38.81875,142],[-90.38791,38.81878,141],[-90.38789,38.8188,141],[-90.38786,38.81882,141],[-90.38782,38.81884,142],[-90.38779,38.81885,142],[-90.38774,38.81887,142],[-90.3877,38.81888,142],[-90.38766,38.8189,141],[-90.38762,38.81891,141],[-90.38758,38.81893,140],[-90.38754,38.81895,140],[-90.38752,38.81898,139],[-90.38748,38.81901,138],[-90.38746,38.81904,137],[-90.38745,38.81908,135],[-90.38744,38.81911,134],[-90.38741,38.81913,134],[-90.38737,38.81915,133],[-90.38733,38.81917,132],[-90.3873,38.81919,132],[-90.38727,38.81921,132],[-90.38723,38.81923,132],[-90.38719,38.81924,132],[-90.38716,38.81926,132],[-90.38712,38.81927,132],[-90.38709,38.8193,132],[-90.38705,38.81932,132],[-90.38701,38.81934,132],[-90.38696,38.81935,132],[-90.38692,38.81937,132],[-90.38688,38.81938,132],[-90.38684,38.81939,132],[-90.3868,38.81942,132],[-90.38677,38.81944,132],[-90.38676,38.81947,131],[-90.38673,38.81949,131],[-90.3867,38.8195,131],[-90.38666,38.8195,131],[-90.38662,38.81952,131],[-90.38659,38.81953,131],[-90.38656,38.81955,131],[-90.38653,38.81957,131],[-90.38651,38.81959,131],[-90.38647,38.8196,131],[-90.38643,38.81959,131],[-90.38639,38.8196,131],[-90.38634,38.81961,131],[-90.3863,38.81962,131],[-90.38626,38.81963,132],[-90.38621,38.81964,132],[-90.38616,38.81965,132],[-90.38612,38.81965,133],[-90.38607,38.81965,133],[-90.38604,38.81966,132],[-90.386,38.81967,132],[-90.38596,38.81968,132],[-90.38591,38.81969,132],[-90.38587,38.81969,132],[-90.38583,38.8197,131],[-90.3858,38.81969,132],[-90.38576,38.81967,133],[-90.38571,38.81966,133],[-90.38568,38.81965,133],[-90.38564,38.81964,134],[-90.38563,38.81967,133],[-90.3856,38.81969,132],[-90.38557,38.8197,131],[-90.38552,38.81971,131],[-90.38548,38.81972,131],[-90.38545,38.81972,131],[-90.3854,38.81973,131],[-90.38536,38.81973,131],[-90.38532,38.81972,131],[-90.38529,38.8197,131],[-90.38524,38.81969,132],[-90.3852,38.81969,132],[-90.38516,38.8197,131],[-90.38512,38.8197,131],[-90.38509,38.8197,131],[-90.38505,38.8197,131],[-90.38502,38.81972,131],[-90.38498,38.81972,131],[-90.38494,38.81972,133],[-90.38491,38.8197,134],[-90.38489,38.81967,136],[-90.38485,38.81968,137],[-90.38482,38.8197,137],[-90.38478,38.81971,139],[-90.38475,38.81972,139],[-90.38471,38.81973,140],[-90.38469,38.81976,139],[-90.3847,38.81978,138],[-90.3847,38.81981,137],[-90.38469,38.81984,136],[-90.38466,38.81984,136],[-90.38465,38.81987,135],[-90.38461,38.81988,135],[-90.38458,38.8199,134],[-90.38458,38.81993,133],[-90.38456,38.81996,132],[-90.38455,38.81999,131],[-90.38453,38.82002,131],[-90.38452,38.82005,131],[-90.3845,38.82007,131],[-90.38447,38.82009,131],[-90.38449,38.82002,131],[-90.38451,38.81999,131],[-90.38452,38.81996,132],[-90.38454,38.81993,133],[-90.38457,38.81991,134],[-90.3846,38.81989,134],[-90.38463,38.81987,135],[-90.38467,38.81986,135],[-90.38471,38.81985,136],[-90.38474,38.81984,136],[-90.38479,38.81983,135],[-90.38483,38.81982,135],[-90.38486,38.81982,134],[-90.3849,38.81983,133],[-90.38494,38.81982,132],[-90.38498,38.81982,131],[-90.38506,38.81982,131],[-90.3851,38.81983,131],[-90.38514,38.81981,131],[-90.38518,38.8198,131],[-90.38522,38.8198,131],[-90.38525,38.8198,131],[-90.38529,38.81978,131],[-90.38534,38.81978,131],[-90.38537,38.81977,131],[-90.38541,38.81978,131],[-90.38546,38.81978,131],[-90.3855,38.81977,131],[-90.38554,38.81977,131],[-90.38558,38.81976,131],[-90.38561,38.81974,131],[-90.38564,38.81973,131],[-90.38568,38.81974,131],[-90.38572,38.81973,131],[-90.38576,38.81973,131],[-90.38581,38.81973,131],[-90.38584,38.81973,131],[-90.38589,38.81973,131],[-90.38593,38.81973,131],[-90.38597,38.81973,131],[-90.386,38.81974,131],[-90.38604,38.81975,131],[-90.38607,38.81976,131],[-90.38611,38.81976,131],[-90.38615,38.81976,131],[-90.3862,38.81975,131],[-90.38624,38.81975,131],[-90.38628,38.81975,131],[-90.38632,38.81974,131],[-90.38636,38.81973,131],[-90.3864,38.81972,131],[-90.38643,38.81971,131],[-90.38647,38.81969,131],[-90.3865,38.81968,131],[-90.38653,38.81966,131],[-90.38656,38.81964,131],[-90.38659,38.81965,131],[-90.38663,38.81965,131],[-90.38667,38.81966,131],[-90.3867,38.81966,131],[-90.38667,38.81967,131],[-90.38663,38.81967,131],[-90.38661,38.81964,131],[-90.38663,38.81961,131],[-90.38665,38.81959,131],[-90.3867,38.81957,131],[-90.38673,38.81956,131],[-90.38677,38.81956,131],[-90.3868,38.81955,131],[-90.38685,38.81954,131],[-90.38689,38.81954,131],[-90.38693,38.81953,131],[-90.38697,38.81952,131],[-90.38699,38.8195,131],[-90.38703,38.81948,131],[-90.38705,38.81946,131],[-90.38704,38.81943,132],[-90.38705,38.8194,132],[-90.38707,38.81938,132],[-90.38711,38.81937,132],[-90.38714,38.81939,132],[-90.38718,38.8194,132],[-90.38722,38.81942,132],[-90.38725,38.81944,132],[-90.38727,38.81946,131],[-90.3873,38.81949,131],[-90.38733,38.81951,131],[-90.38736,38.81953,131],[-90.38737,38.8195,131],[-90.38737,38.81947,131],[-90.38738,38.81944,132],[-90.38738,38.81941,132],[-90.38736,38.81938,132],[-90.38734,38.81935,132],[-90.38733,38.81933,132],[-90.3873,38.81931,132],[-90.38727,38.81929,132],[-90.38723,38.81927,132],[-90.3872,38.81925,132],[-90.38718,38.81923,132],[-90.38723,38.8192,132],[-90.38725,38.81918,132],[-90.38729,38.81916,132],[-90.38733,38.81914,133],[-90.38736,38.81912,134],[-90.38739,38.81911,134],[-90.38743,38.81909,135],[-90.38744,38.81906,136],[-90.38745,38.81903,137],[-90.38747,38.819,138],[-90.38748,38.81897,139],[-90.38749,38.81895,140],[-90.38752,38.81891,141],[-90.38755,38.81889,141],[-90.38759,38.81888,142],[-90.38764,38.81888,142],[-90.38768,38.81888,142],[-90.38772,38.81887,142],[-90.38776,38.81885,142],[-90.38779,38.81883,142],[-90.38784,38.81882,142],[-90.38788,38.81879,142],[-90.38791,38.81877,142],[-90.38794,38.81876,141],[-90.38798,38.81875,141],[-90.38804,38.81873,140],[-90.38807,38.81872,140],[-90.38812,38.81871,140],[-90.38816,38.81869,139],[-90.3882,38.81867,139],[-90.38823,38.81865,139],[-90.38826,38.81862,139],[-90.38828,38.8186,139],[-90.38831,38.81858,139],[-90.38833,38.81855,140],[-90.38834,38.81853,141],[-90.38836,38.81849,143],[-90.38838,38.81846,144],[-90.38842,38.81844,145],[-90.38845,38.81842,146],[-90.38849,38.8184,147],[-90.38853,38.81837,148],[-90.38856,38.81835,149],[-90.38858,38.81832,150],[-90.38862,38.8183,151],[-90.38866,38.81829,151],[-90.38869,38.81827,151],[-90.38874,38.81826,151],[-90.38878,38.81826,150],[-90.38882,38.81825,150],[-90.38885,38.81822,151],[-90.38887,38.81819,151],[-90.38889,38.81816,152],[-90.38891,38.81813,153],[-90.38892,38.8181,154],[-90.38896,38.81808,154],[-90.389,38.81807,153],[-90.38905,38.81807,152],[-90.38909,38.81805,152],[-90.38912,38.81802,152],[-90.38917,38.81801,151],[-90.38922,38.81801,150],[-90.38926,38.81803,149],[-90.3893,38.81802,149],[-90.38936,38.81802,148],[-90.3894,38.81801,148],[-90.38944,38.81802,147],[-90.38946,38.81804,147],[-90.38949,38.81807,146],[-90.38954,38.81807,146],[-90.38959,38.81806,146],[-90.38963,38.81805,147],[-90.38968,38.81804,147],[-90.38972,38.81802,147],[-90.38975,38.81801,147],[-90.38979,38.81799,146],[-90.38982,38.81797,146],[-90.38986,38.81795,146],[-90.38991,38.81794,146],[-90.38995,38.81793,145],[-90.38999,38.81792,145],[-90.39003,38.81792,145],[-90.39007,38.8179,144],[-90.3901,38.81789,144],[-90.39014,38.81789,143],[-90.39019,38.81788,143],[-90.39023,38.81788,142],[-90.39026,38.81786,142],[-90.39028,38.81784,142],[-90.39031,38.81782,142],[-90.39035,38.8178,141],[-90.3904,38.81778,141],[-90.39044,38.81778,141],[-90.39048,38.81777,141],[-90.39052,38.81777,140],[-90.39055,38.81776,140],[-90.39058,38.81774,140],[-90.39061,38.8177,141],[-90.39063,38.81768,141],[-90.39067,38.81764,141],[-90.3907,38.81763,141],[-90.39074,38.81761,141],[-90.39078,38.8176,140],[-90.39081,38.81758,140],[-90.3908,38.81761,140],[-90.39078,38.81764,140],[-90.39081,38.81761,140],[-90.39083,38.81758,140],[-90.39086,38.81756,140],[-90.39089,38.81753,140],[-90.39089,38.8175,141],[-90.39087,38.81748,142],[-90.39084,38.81744,143],[-90.3908,38.81742,145],[-90.39078,38.81738,146],[-90.39077,38.81735,147],[-90.39081,38.81735,147],[-90.39084,38.81736,146],[-90.39087,38.81738,145],[-90.39091,38.8174,144],[-90.39096,38.81741,143],[-90.39099,38.81741,142],[-90.39102,38.81739,142],[-90.39104,38.81737,143],[-90.39106,38.81735,143],[-90.39108,38.81732,143],[-90.39112,38.81731,143],[-90.39115,38.81729,143],[-90.39116,38.81726,144],[-90.39114,38.81724,144],[-90.39114,38.81721,145],[-90.39117,38.8172,145],[-90.39122,38.8172,145],[-90.39126,38.81718,145],[-90.3913,38.81716,145],[-90.39134,38.81715,144],[-90.39138,38.81714,144],[-90.39142,38.81711,145],[-90.39145,38.81709,145],[-90.39148,38.81707,146],[-90.3915,38.81704,146],[-90.39155,38.81703,146],[-90.39158,38.81702,146],[-90.39163,38.817,146],[-90.39166,38.81699,146],[-90.3917,38.81698,146],[-90.39173,38.81696,147],[-90.39176,38.81694,148],[-90.39178,38.81692,148],[-90.39181,38.8169,149],[-90.39182,38.81687,149],[-90.39184,38.81684,150],[-90.39187,38.81681,150],[-90.39191,38.81679,150],[-90.39193,38.81677,150],[-90.39195,38.81673,150],[-90.39195,38.8167,150],[-90.39197,38.81667,150],[-90.39202,38.81665,149],[-90.39206,38.81664,149],[-90.39208,38.8166,149],[-90.39209,38.81657,149],[-90.39212,38.81655,149],[-90.39216,38.81654,148],[-90.39219,38.81652,148],[-90.3922,38.81649,148],[-90.39223,38.81645,148],[-90.39225,38.81641,148],[-90.39227,38.81639,147],[-90.39228,38.81636,148],[-90.39228,38.81633,149],[-90.39232,38.81631,149],[-90.39234,38.81628,149],[-90.39235,38.81625,150],[-90.39238,38.81621,150],[-90.3924,38.81618,150],[-90.39243,38.81616,150],[-90.39246,38.81614,149],[-90.3925,38.81612,148],[-90.39245,38.81612,150],[-90.39242,38.81615,150],[-90.39241,38.81618,150],[-90.39245,38.81618,149],[-90.39248,38.81616,148],[-90.39252,38.81614,147],[-90.39256,38.81612,146],[-90.39258,38.8161,146],[-90.3926,38.81607,145],[-90.39261,38.81603,145],[-90.39261,38.81601,145],[-90.3926,38.81597,145],[-90.3926,38.81594,145],[-90.39261,38.81591,145],[-90.3926,38.81587,145],[-90.3926,38.81584,145],[-90.39259,38.81581,146],[-90.39258,38.81578,147],[-90.39256,38.81575,148],[-90.39256,38.81572,149],[-90.39255,38.81569,150],[-90.39256,38.81566,151],[-90.39258,38.81563,151],[-90.39261,38.81562,150],[-90.39265,38.81561,149],[-90.3927,38.81561,147],[-90.39273,38.8156,145],[-90.39274,38.81557,146],[-90.39274,38.81553,147],[-90.39276,38.8155,147],[-90.3928,38.81549,146],[-90.39284,38.81547,145],[-90.39287,38.81546,145],[-90.3929,38.81545,144],[-90.39294,38.81543,144],[-90.39298,38.81541,143],[-90.39301,38.8154,143],[-90.39304,38.81537,143],[-90.39306,38.81535,143],[-90.39307,38.81531,144],[-90.39309,38.81528,145],[-90.39311,38.81525,144],[-90.39312,38.81522,144],[-90.39313,38.81519,144],[-90.39314,38.81516,144],[-90.39313,38.81512,145],[-90.39312,38.81509,145],[-90.39311,38.81506,146],[-90.39309,38.81503,147],[-90.39308,38.81499,147],[-90.39306,38.81497,147],[-90.39305,38.81493,147],[-90.39306,38.81491,147],[-90.39304,38.81494,147],[-90.39305,38.81496,147],[-90.39303,38.81494,147],[-90.39299,38.81492,148],[-90.39295,38.8149,148],[-90.39292,38.81489,148],[-90.39292,38.81484,148],[-90.39292,38.8148,148],[-90.39293,38.81477,148],[-90.39293,38.81473,148],[-90.39292,38.81469,149],[-90.39291,38.81466,149],[-90.3929,38.81462,149],[-90.39288,38.81459,150],[-90.39286,38.81457,150],[-90.39284,38.81453,151],[-90.3928,38.81451,152],[-90.39276,38.81451,152],[-90.39271,38.81451,153],[-90.39268,38.81449,153],[-90.39265,38.81447,154],[-90.39262,38.81445,154],[-90.3926,38.81442,154],[-90.3926,38.81439,153],[-90.39259,38.81436,153],[-90.39257,38.81433,152],[-90.39254,38.81432,152],[-90.3925,38.81431,153],[-90.39247,38.8143,152],[-90.39244,38.81432,153],[-90.3924,38.81431,153],[-90.39236,38.81428,152],[-90.39233,38.81427,152],[-90.3923,38.81426,152],[-90.39226,38.81424,151],[-90.39222,38.81423,151],[-90.3922,38.81419,151],[-90.39218,38.81416,150],[-90.39217,38.81414,149],[-90.39217,38.8141,146],[-90.3922,38.81407,145],[-90.39224,38.81405,143],[-90.39228,38.81402,141],[-90.39231,38.814,140],[-90.39233,38.81399,140],[-90.39235,38.81396,139],[-90.39237,38.81394,138],[-90.39239,38.81391,137],[-90.39241,38.81388,136],[-90.39242,38.81384,136],[-90.39244,38.81381,137],[-90.39246,38.81379,137],[-90.39248,38.81376,138],[-90.39252,38.81376,138],[-90.39256,38.81378,138],[-90.3926,38.81379,138],[-90.39264,38.81381,138],[-90.39269,38.81384,138],[-90.39272,38.81386,138],[-90.39274,38.81388,138],[-90.39276,38.8139,139],[-90.39279,38.81394,140],[-90.39281,38.81396,140],[-90.39284,38.81399,140],[-90.39287,38.81402,140],[-90.3929,38.81404,140],[-90.39293,38.81406,140],[-90.39297,38.81408,140],[-90.39301,38.81409,139],[-90.39306,38.81409,139],[-90.39311,38.81409,138],[-90.39315,38.8141,137],[-90.39319,38.8141,136],[-90.39324,38.81411,136],[-90.39328,38.81413,135],[-90.39332,38.81414,135],[-90.39336,38.81416,134],[-90.39331,38.81414,135],[-90.39328,38.81413,135],[-90.39323,38.81411,136],[-90.39319,38.81409,136],[-90.39316,38.81409,137],[-90.39311,38.81409,138],[-90.39307,38.81409,138],[-90.39302,38.8141,140],[-90.39299,38.81409,140],[-90.39295,38.81408,140],[-90.39292,38.81406,141],[-90.39288,38.81403,140],[-90.39286,38.81401,140],[-90.39284,38.81398,140],[-90.39281,38.81395,140],[-90.39278,38.81392,139],[-90.39276,38.8139,139],[-90.39279,38.81387,138],[-90.39283,38.81384,137],[-90.39286,38.81381,137],[-90.3929,38.8138,136],[-90.39295,38.81379,135],[-90.39298,38.81378,135],[-90.39302,38.81376,134],[-90.39305,38.81373,134],[-90.39308,38.81371,134],[-90.39311,38.81369,134],[-90.39313,38.81366,134],[-90.39315,38.81364,134],[-90.39318,38.81362,134],[-90.3932,38.8136,133],[-90.39322,38.81357,133],[-90.39323,38.81355,133],[-90.39324,38.81351,133],[-90.39321,38.81349,133],[-90.39319,38.81352,133],[-90.39318,38.81355,133],[-90.39317,38.81352,133],[-90.39318,38.8135,133],[-90.39322,38.81348,133],[-90.39325,38.81345,132],[-90.39327,38.81343,132],[-90.3933,38.81341,132],[-90.39335,38.8134,132],[-90.39339,38.8134,132],[-90.39343,38.81339,132],[-90.39346,38.81337,132],[-90.39347,38.81334,132],[-90.39349,38.81331,132],[-90.39351,38.81328,132],[-90.39352,38.81325,132],[-90.39353,38.81322,132],[-90.39357,38.81321,132],[-90.3936,38.81319,132],[-90.39364,38.81318,132],[-90.39368,38.8132,132],[-90.39371,38.81322,132],[-90.39375,38.81324,132],[-90.39378,38.81325,132],[-90.39383,38.81326,132],[-90.39385,38.81328,132],[-90.39389,38.81331,132],[-90.39392,38.81332,132],[-90.39395,38.81334,132],[-90.39398,38.81335,132],[-90.39401,38.81337,132],[-90.39404,38.81339,132],[-90.39407,38.81341,132],[-90.39409,38.81343,132],[-90.39412,38.81345,132],[-90.39416,38.81348,132],[-90.39419,38.81349,133],[-90.39422,38.81351,133],[-90.39425,38.81353,133],[-90.39427,38.81355,133],[-90.3943,38.81357,133],[-90.39434,38.8136,133],[-90.39437,38.81361,133],[-90.3944,38.81363,133],[-90.39444,38.81364,133],[-90.39447,38.81366,134],[-90.39451,38.81367,134],[-90.39455,38.8137,134],[-90.39459,38.81372,134],[-90.39462,38.81374,134],[-90.39465,38.81375,135],[-90.3947,38.81377,135],[-90.39473,38.81378,135],[-90.39476,38.81381,135],[-90.39479,38.81384,135],[-90.39482,38.81386,135],[-90.39485,38.81389,135],[-90.3949,38.81391,134],[-90.39495,38.81393,134],[-90.39499,38.81394,134],[-90.39502,38.81396,135],[-90.39505,38.81397,135],[-90.39509,38.81398,135],[-90.39513,38.81401,135],[-90.39516,38.81404,135],[-90.39519,38.81405,135],[-90.39523,38.81405,135],[-90.39531,38.81412,135],[-90.39534,38.81415,135],[-90.39536,38.81418,135],[-90.39539,38.81419,135],[-90.39542,38.81421,135],[-90.39545,38.81423,135],[-90.39549,38.81426,135],[-90.39552,38.81427,135],[-90.39556,38.81428,135],[-90.39561,38.8143,135],[-90.39564,38.81432,135],[-90.39568,38.81433,135],[-90.39572,38.81435,135],[-90.39575,38.81437,135],[-90.39578,38.81438,135],[-90.39582,38.8144,135],[-90.39585,38.81441,135],[-90.39588,38.81443,135],[-90.39591,38.81445,136],[-90.39595,38.81447,136],[-90.39599,38.81449,135],[-90.39602,38.8145,135],[-90.39606,38.81451,135],[-90.3961,38.81452,135],[-90.39614,38.81453,135],[-90.3961,38.81452,135],[-90.39606,38.81452,135],[-90.39601,38.81451,135],[-90.39598,38.8145,135],[-90.39594,38.81448,136],[-90.39591,38.81447,136],[-90.39588,38.81444,135],[-90.39584,38.81443,135],[-90.39581,38.81441,135],[-90.39577,38.81439,135],[-90.39574,38.81437,135],[-90.3957,38.81435,135],[-90.39567,38.81434,135],[-90.39564,38.81432,135],[-90.39561,38.81431,135],[-90.39557,38.81429,135],[-90.39554,38.81427,135],[-90.39552,38.81425,135],[-90.39547,38.81423,135],[-90.39543,38.8142,135],[-90.39539,38.81417,135],[-90.39536,38.81416,135],[-90.39533,38.81414,135],[-90.39529,38.81413,135],[-90.39526,38.81411,135],[-90.39523,38.81409,135],[-90.3952,38.81407,135],[-90.39516,38.81406,135],[-90.39512,38.81405,135],[-90.39507,38.81404,135],[-90.39503,38.81402,135],[-90.39499,38.814,134],[-90.39497,38.81398,134],[-90.39494,38.81395,134],[-90.39491,38.81393,134],[-90.39487,38.81391,134],[-90.39483,38.81389,135],[-90.39479,38.81387,135],[-90.39475,38.81385,135],[-90.39472,38.81384,135],[-90.39469,38.81382,135],[-90.39465,38.8138,134],[-90.39462,38.81379,134],[-90.39459,38.81377,134],[-90.39456,38.81376,134],[-90.39454,38.81374,134],[-90.3945,38.81372,134],[-90.39447,38.81369,134],[-90.39443,38.81367,133],[-90.39439,38.81365,133],[-90.39435,38.81363,133],[-90.39432,38.81361,133],[-90.3943,38.81359,133],[-90.39427,38.81357,133],[-90.39423,38.81355,133],[-90.3942,38.81354,133],[-90.39417,38.81352,133],[-90.39413,38.8135,132],[-90.3941,38.81348,132],[-90.39406,38.81346,132],[-90.39403,38.81344,132],[-90.394,38.81342,132],[-90.39396,38.8134,132],[-90.39393,38.81339,132],[-90.3939,38.81336,132],[-90.39388,38.81334,132],[-90.39384,38.81332,132],[-90.3938,38.8133,132],[-90.39375,38.81329,132],[-90.39371,38.81327,132],[-90.39366,38.81326,132],[-90.39363,38.81324,132],[-90.39361,38.8132,132],[-90.39359,38.81318,132],[-90.39357,38.81315,132],[-90.39355,38.81312,132],[-90.39352,38.81309,132],[-90.3935,38.81305,132],[-90.39348,38.81303,132],[-90.39345,38.813,132],[-90.39341,38.81297,133],[-90.39337,38.81296,133],[-90.39333,38.81295,133],[-90.39329,38.81295,133],[-90.39326,38.81296,133],[-90.39322,38.81298,133],[-90.39319,38.813,133],[-90.39315,38.81303,133],[-90.39312,38.81305,133],[-90.3931,38.81308,132],[-90.39306,38.8131,132],[-90.39303,38.81312,133],[-90.39301,38.81314,133],[-90.393,38.81317,133],[-90.39298,38.8132,133],[-90.39295,38.81322,133],[-90.39293,38.81324,133],[-90.3929,38.81327,134],[-90.39287,38.8133,134],[-90.39286,38.81332,134],[-90.39284,38.81335,134],[-90.39281,38.81337,135],[-90.3928,38.8134,135],[-90.39278,38.81342,135],[-90.39275,38.81346,136],[-90.39272,38.81348,136],[-90.39269,38.81348,137],[-90.39265,38.81346,137],[-90.39261,38.81344,137],[-90.39257,38.81342,137],[-90.39254,38.8134,137],[-90.3925,38.81338,137],[-90.39247,38.81336,137],[-90.39243,38.81334,137],[-90.39239,38.81333,137],[-90.39236,38.81331,137],[-90.39231,38.81328,138],[-90.39229,38.81326,138],[-90.39225,38.81324,138],[-90.39222,38.81322,138],[-90.39219,38.8132,138],[-90.39215,38.81319,138],[-90.39213,38.81317,138],[-90.3921,38.81315,138],[-90.39207,38.81313,138],[-90.39203,38.81312,139],[-90.392,38.8131,139],[-90.39197,38.81308,139],[-90.39192,38.81305,139],[-90.3919,38.81303,139],[-90.39187,38.813,139],[-90.39184,38.81298,139],[-90.3918,38.81296,139],[-90.39177,38.81293,139],[-90.39174,38.81291,139],[-90.39171,38.81289,140],[-90.39167,38.81288,140],[-90.39163,38.81286,140],[-90.3916,38.81284,140],[-90.39156,38.81282,141],[-90.39153,38.8128,141],[-90.3915,38.81278,141],[-90.39148,38.81276,141],[-90.39147,38.81272,140],[-90.39147,38.81268,139],[-90.39147,38.81265,138],[-90.39148,38.81262,138],[-90.39151,38.81259,137],[-90.39155,38.81257,136],[-90.39157,38.81255,136],[-90.3916,38.81252,135],[-90.39161,38.8125,135],[-90.39163,38.81247,135],[-90.39165,38.81244,135],[-90.39167,38.81242,135],[-90.39169,38.81239,136],[-90.3917,38.81237,136],[-90.39172,38.81234,136],[-90.39173,38.81231,136],[-90.39176,38.81228,137],[-90.3918,38.81226,137],[-90.39182,38.81223,137],[-90.39184,38.81221,137],[-90.39187,38.81218,137],[-90.39189,38.81216,137],[-90.39191,38.81214,137],[-90.39193,38.81211,137],[-90.39197,38.81211,137],[-90.39201,38.81211,137],[-90.39205,38.8121,137],[-90.39209,38.81211,136],[-90.39213,38.81211,136],[-90.39217,38.81212,136],[-90.39222,38.81213,136],[-90.39227,38.81214,135],[-90.3923,38.81216,135],[-90.39233,38.81218,135],[-90.39236,38.8122,135],[-90.3924,38.81222,135],[-90.39242,38.81225,135],[-90.39245,38.81226,135],[-90.39248,38.81229,135],[-90.39251,38.81231,135],[-90.39253,38.81234,135],[-90.39256,38.81238,135],[-90.39258,38.8124,135],[-90.39261,38.81242,134],[-90.39266,38.81245,134],[-90.39269,38.81247,134],[-90.39272,38.81249,134],[-90.39275,38.81251,134],[-90.39278,38.81253,134],[-90.39281,38.81255,134],[-90.39284,38.81257,134],[-90.39287,38.81259,134],[-90.3929,38.81262,134],[-90.39293,38.81264,134],[-90.39298,38.81266,134],[-90.393,38.81268,134],[-90.39303,38.81271,134],[-90.39306,38.81273,134],[-90.3931,38.81275,134],[-90.39313,38.81277,134],[-90.39316,38.81279,134],[-90.39319,38.81281,134],[-90.39322,38.81283,134],[-90.39325,38.81284,134],[-90.39329,38.81286,134],[-90.39331,38.81287,134],[-90.39335,38.81289,134],[-90.39339,38.81291,133],[-90.39344,38.81291,133],[-90.39347,38.8129,133],[-90.3935,38.81288,133],[-90.39353,38.81285,133],[-90.39355,38.81282,133],[-90.39358,38.8128,133],[-90.39362,38.81279,133],[-90.39366,38.81278,133],[-90.39372,38.81278,133],[-90.39375,38.81277,134],[-90.39379,38.81275,134],[-90.39382,38.81273,134],[-90.39384,38.8127,134],[-90.39387,38.81267,135],[-90.3939,38.81264,135],[-90.39393,38.81261,135],[-90.39397,38.81258,135],[-90.39399,38.81256,136],[-90.39401,38.81254,136],[-90.39404,38.81251,136],[-90.39407,38.8125,137],[-90.39412,38.81247,137],[-90.39414,38.81245,137],[-90.39418,38.81242,137],[-90.3942,38.8124,137],[-90.39422,38.81237,137],[-90.39426,38.81235,137],[-90.39428,38.81232,137],[-90.39431,38.8123,137],[-90.39433,38.81228,137],[-90.39436,38.81226,137],[-90.39439,38.81224,137],[-90.39442,38.81222,138],[-90.39444,38.8122,138],[-90.39448,38.81217,137],[-90.39452,38.81215,137],[-90.39454,38.81212,137],[-90.39457,38.8121,137],[-90.3946,38.81208,137],[-90.39463,38.81206,137],[-90.39466,38.81204,136],[-90.39468,38.81202,136],[-90.39471,38.812,136],[-90.39475,38.81197,136],[-90.39478,38.81194,136],[-90.3948,38.81192,136],[-90.39482,38.81189,135],[-90.39485,38.81186,135],[-90.39487,38.81183,134],[-90.39487,38.81179,134],[-90.39485,38.81176,134],[-90.39486,38.81173,134],[-90.3949,38.81172,133],[-90.39494,38.8117,133],[-90.39497,38.81167,133],[-90.395,38.81167,133]]],
        "bbox": [
          -90.38447,
          38.82009,
          -90.39614,
          38.81117
        ]
      },
      "properties": {
        "name": "3.14.2021"
      }
    }
  ]
}