{
  "type": "FeatureCollection",
  "features": [
    {
      "type": "Feature",
      "geometry": {
        "type": "MultiLineString",
        "coordinates": [[[-90.39089,38.81091,138],[-90.39089,38.81096,138],[-90.39087,38.81098,139],[-90.39084,38.811,139],[-90.39086,38.81097,139],[-90.39087,38.811,139],[-90.39086,38.81103,139],[-90.39086,38.81107,140],[-90.39085,38.8111,140],[-90.39085,38.81113,141],[-90.39085,38.81116,141],[-90.39082,38.81119,141],[-90.39078,38.81121,141],[-90.39074,38.81122,141],[-90.3907,38.81125,142],[-90.39066,38.81126,142],[-90.39062,38.81128,142],[-90.39058,38.81129,142],[-90.39053,38.81128,142],[-90.39049,38.81127,142],[-90.39045,38.81125,142],[-90.39041,38.81123,142],[-90.39037,38.81122,142],[-90.39033,38.81121,142],[-90.39029,38.81121,142],[-90.39025,38.81121,143],[-90.3902,38.81121,143],[-90.39016,38.81121,144],[-90.39012,38.81121,144],[-90.39008,38.8112,145],[-90.39004,38.81119,145],[-90.39,38.81118,146],[-90.38996,38.81118,147],[-90.38992,38.81118,147],[-90.38988,38.81119,148],[-90.38984,38.8112,148],[-90.3898,38.81121,149],[-90.38976,38.81121,150],[-90.38971,38.8112,150],[-90.38967,38.81119,150],[-90.38963,38.81119,151],[-90.38959,38.8112,151],[-90.38956,38.81122,151],[-90.38953,38.81124,151],[-90.38951,38.81127,151],[-90.38948,38.8113,151],[-90.38946,38.81133,151],[-90.38943,38.81136,152],[-90.3894,38.81138,152],[-90.38936,38.81139,152],[-90.38932,38.81139,152],[-90.38928,38.8114,152],[-90.38925,38.81142,152],[-90.38923,38.81145,152],[-90.3892,38.81147,152],[-90.38917,38.81148,152],[-90.38914,38.8115,152],[-90.38911,38.81152,153],[-90.38907,38.81153,154],[-90.38904,38.81154,155],[-90.389,38.81155,156],[-90.38896,38.81156,157],[-90.38893,38.81158,158],[-90.38889,38.81159,159],[-90.38885,38.8116,160],[-90.38882,38.81161,161],[-90.3888,38.81165,161],[-90.38878,38.81166,161],[-90.38875,38.81168,162],[-90.38872,38.81171,162],[-90.3887,38.81174,162],[-90.38867,38.81176,162],[-90.38865,38.81179,162],[-90.38863,38.81182,162],[-90.38863,38.81184,162],[-90.38864,38.81187,162],[-90.38866,38.8119,161],[-90.38869,38.81192,160],[-90.38871,38.81195,160],[-90.38873,38.81198,160],[-90.38876,38.81199,159],[-90.3888,38.81201,159],[-90.38882,38.81204,159],[-90.38883,38.81207,159],[-90.38883,38.8121,160],[-90.38883,38.81214,161],[-90.38882,38.81217,161],[-90.38881,38.8122,162],[-90.38879,38.81224,162],[-90.38877,38.81226,163],[-90.38875,38.81228,163],[-90.38872,38.8123,164],[-90.3887,38.81233,164],[-90.38868,38.81235,165],[-90.38865,38.81237,166],[-90.38865,38.8124,166],[-90.38867,38.81243,166],[-90.38868,38.81246,167],[-90.38867,38.81249,167],[-90.38866,38.81252,168],[-90.38864,38.81255,168],[-90.38862,38.81258,169],[-90.38861,38.81261,169],[-90.38859,38.81263,170],[-90.38856,38.81266,171],[-90.38853,38.81268,172],[-90.38851,38.8127,172],[-90.38848,38.81273,174],[-90.38845,38.81274,175],[-90.38842,38.81276,176],[-90.38839,38.81277,177],[-90.38835,38.81277,179],[-90.38831,38.81277,180],[-90.38827,38.81276,181],[-90.38824,38.81277,182],[-90.3882,38.81278,183],[-90.38818,38.8128,184],[-90.38814,38.81281,186],[-90.38811,38.81283,187],[-90.38812,38.81286,187],[-90.38812,38.81289,187],[-90.38811,38.81292,188],[-90.3881,38.81295,188],[-90.3881,38.81299,189],[-90.38809,38.81302,189],[-90.38808,38.81305,190],[-90.38807,38.81308,191],[-90.38805,38.81311,192],[-90.38803,38.81314,192],[-90.38801,38.81316,193],[-90.38799,38.81319,193],[-90.38797,38.81321,194],[-90.38795,38.81323,194],[-90.38793,38.81326,194],[-90.3879,38.81328,195],[-90.38787,38.8133,195],[-90.38783,38.81332,195],[-90.38779,38.81333,195],[-90.38775,38.81334,195],[-90.38771,38.81334,195],[-90.38768,38.81333,195],[-90.38764,38.81334,195],[-90.38762,38.81337,195],[-90.38763,38.8134,195],[-90.38763,38.81343,195],[-90.38762,38.81346,195],[-90.3876,38.81349,195],[-90.3876,38.81353,196],[-90.3876,38.81355,196],[-90.38759,38.81359,196],[-90.38759,38.81362,196],[-90.38757,38.81365,196],[-90.38756,38.81368,197],[-90.38755,38.81371,197],[-90.38754,38.81374,198],[-90.38753,38.81377,198],[-90.38753,38.8138,198],[-90.38755,38.81382,199],[-90.38757,38.81384,199],[-90.38761,38.81387,199],[-90.38765,38.81388,199],[-90.38768,38.8139,200],[-90.38772,38.81391,200],[-90.38775,38.81392,200],[-90.3878,38.81392,199],[-90.38784,38.81392,199],[-90.38788,38.81392,199],[-90.38792,38.81392,199],[-90.38796,38.81391,199],[-90.388,38.8139,199],[-90.38805,38.8139,199],[-90.38809,38.8139,198],[-90.38813,38.8139,198],[-90.38817,38.8139,198],[-90.38822,38.81391,198],[-90.38825,38.81392,198],[-90.38828,38.81393,198],[-90.38832,38.81394,198],[-90.38835,38.81395,198],[-90.3884,38.81396,197],[-90.38844,38.81397,197],[-90.38848,38.81399,196],[-90.38851,38.814,196],[-90.38855,38.81402,196],[-90.38858,38.81403,196],[-90.38861,38.81405,196],[-90.38865,38.81406,195],[-90.38868,38.81407,195],[-90.38873,38.81409,194],[-90.38877,38.8141,194],[-90.38881,38.81411,193],[-90.38884,38.81413,193],[-90.38888,38.81414,192],[-90.38892,38.81415,192],[-90.38896,38.81416,192],[-90.389,38.81416,192],[-90.38904,38.81416,192],[-90.38908,38.81416,192],[-90.38912,38.81417,192],[-90.38917,38.81419,192],[-90.3892,38.8142,192],[-90.38925,38.81422,191],[-90.38928,38.81423,190],[-90.38933,38.81425,190],[-90.38937,38.81426,189],[-90.38941,38.81428,189],[-90.38944,38.8143,188],[-90.38948,38.81432,188],[-90.38952,38.81434,188],[-90.38954,38.81437,188],[-90.38956,38.81439,188],[-90.38957,38.81443,189],[-90.38956,38.81447,189],[-90.38956,38.8145,189],[-90.38955,38.81454,190],[-90.38956,38.81457,190],[-90.38956,38.8146,190],[-90.38956,38.81463,190],[-90.38956,38.81466,190],[-90.38956,38.8147,191],[-90.38957,38.81473,191],[-90.38957,38.81477,190],[-90.38957,38.8148,190],[-90.38958,38.81483,190],[-90.3896,38.81487,189],[-90.38962,38.81489,189],[-90.38964,38.81492,189],[-90.38967,38.81495,189],[-90.3897,38.81497,189],[-90.38972,38.81499,189],[-90.38975,38.81502,188],[-90.38978,38.81504,188],[-90.38981,38.81506,187],[-90.38983,38.81509,186],[-90.38986,38.81511,186],[-90.38989,38.81513,185],[-90.38991,38.81515,185],[-90.38995,38.81517,184],[-90.38998,38.8152,184],[-90.39002,38.81522,183],[-90.39005,38.81524,182],[-90.39009,38.81526,182],[-90.39013,38.81528,181],[-90.39016,38.81529,181],[-90.3902,38.8153,181],[-90.39023,38.81531,181],[-90.39028,38.81533,181],[-90.39031,38.81535,181],[-90.39034,38.81536,181],[-90.39038,38.81537,181],[-90.39043,38.81539,181],[-90.39047,38.81541,182],[-90.39051,38.81542,182],[-90.39055,38.81542,182],[-90.39059,38.81542,183],[-90.39063,38.81543,183],[-90.39067,38.81544,184],[-90.39071,38.81544,184],[-90.39076,38.81545,185],[-90.3908,38.81545,185],[-90.39085,38.81546,185],[-90.39089,38.81545,185],[-90.39093,38.81543,186],[-90.39096,38.81542,186],[-90.391,38.81541,186],[-90.39103,38.8154,186],[-90.39107,38.81538,186],[-90.39111,38.81537,186],[-90.39116,38.81537,186],[-90.39119,38.81537,186],[-90.39125,38.81538,186],[-90.39128,38.81539,185],[-90.39133,38.8154,185],[-90.39138,38.81541,185],[-90.39142,38.81542,185],[-90.39145,38.81544,184],[-90.3915,38.81546,183],[-90.39154,38.81547,183],[-90.39157,38.8155,183],[-90.3916,38.81552,183],[-90.39163,38.81555,183],[-90.39166,38.81558,182],[-90.39169,38.8156,181],[-90.39172,38.81563,180],[-90.39176,38.81564,180],[-90.39179,38.81564,179],[-90.39183,38.81563,178],[-90.39187,38.81563,177],[-90.3919,38.81564,177],[-90.39194,38.81563,176],[-90.39193,38.8156,177],[-90.39193,38.81557,177],[-90.39194,38.81554,178],[-90.39194,38.81552,177],[-90.39193,38.81549,177],[-90.39194,38.81546,177],[-90.39194,38.81542,177],[-90.39193,38.81539,177],[-90.39192,38.81536,176],[-90.39191,38.81533,176],[-90.39189,38.8153,176],[-90.39189,38.81527,176],[-90.39189,38.81523,175],[-90.3919,38.8152,174],[-90.39191,38.81516,172],[-90.39193,38.81513,171],[-90.39193,38.81509,169],[-90.39194,38.81506,168],[-90.39193,38.81502,167],[-90.39192,38.815,166],[-90.3919,38.81497,167],[-90.39189,38.81494,167],[-90.39186,38.81491,167],[-90.39186,38.81488,167],[-90.39188,38.81486,166],[-90.3919,38.81483,165],[-90.39189,38.8148,165],[-90.39188,38.81477,165],[-90.39187,38.81474,165],[-90.39187,38.81471,164],[-90.39187,38.81468,164],[-90.39186,38.81464,164],[-90.39185,38.81461,164],[-90.39183,38.81458,164],[-90.39181,38.81455,164],[-90.3918,38.81452,164],[-90.39179,38.81449,164],[-90.39179,38.81446,163],[-90.39178,38.81443,163],[-90.39177,38.8144,162],[-90.39177,38.81437,161],[-90.39176,38.81434,161],[-90.39177,38.81431,160],[-90.39177,38.81428,159],[-90.39178,38.81425,158],[-90.39177,38.81423,158],[-90.39178,38.8142,157],[-90.3918,38.81417,155],[-90.39184,38.81416,154],[-90.39187,38.81416,153],[-90.39188,38.81413,151],[-90.39189,38.8141,150],[-90.39192,38.81409,148],[-90.39196,38.81408,147],[-90.39199,38.81408,147],[-90.39203,38.81407,146],[-90.39207,38.81405,144],[-90.39211,38.81405,144],[-90.39212,38.81407,145],[-90.39208,38.8141,147],[-90.39206,38.81412,149],[-90.39202,38.81413,149],[-90.39199,38.81415,151],[-90.39197,38.81417,152],[-90.39194,38.81419,152],[-90.3919,38.81421,154],[-90.39188,38.81423,155],[-90.39188,38.81426,156],[-90.39187,38.81429,157],[-90.39188,38.81431,157],[-90.39189,38.81434,157],[-90.39189,38.81438,158],[-90.39189,38.81441,159],[-90.3919,38.81444,160],[-90.3919,38.81447,160],[-90.39191,38.8145,160],[-90.39193,38.81453,160],[-90.39194,38.81455,160],[-90.39196,38.81457,160],[-90.39198,38.81461,160],[-90.39197,38.81464,161],[-90.39198,38.81467,161],[-90.39199,38.8147,161],[-90.39201,38.81473,161],[-90.39201,38.81476,162],[-90.39201,38.81479,162],[-90.39199,38.81482,163],[-90.39197,38.81485,163],[-90.39196,38.81488,164],[-90.39198,38.81491,164],[-90.392,38.81493,163],[-90.39202,38.81496,163],[-90.39203,38.81499,163],[-90.39205,38.81502,164],[-90.39206,38.81506,165],[-90.39205,38.81509,166],[-90.39205,38.81512,167],[-90.39205,38.81515,168],[-90.39204,38.81518,170],[-90.39202,38.8152,171],[-90.39201,38.81523,172],[-90.392,38.81526,173],[-90.392,38.81529,174],[-90.39201,38.81532,174],[-90.39201,38.81535,174],[-90.39202,38.81538,174],[-90.39203,38.81541,173],[-90.39203,38.81544,174],[-90.39203,38.81547,174],[-90.39201,38.8155,174],[-90.39202,38.81553,174],[-90.392,38.81556,175],[-90.39199,38.81559,175],[-90.39199,38.81562,174],[-90.39197,38.81565,174],[-90.39194,38.81566,175],[-90.3919,38.81567,176],[-90.39185,38.81568,177],[-90.39182,38.81569,177],[-90.39178,38.8157,178],[-90.39176,38.81573,178],[-90.39178,38.81576,177],[-90.3918,38.81578,177],[-90.39181,38.81581,176],[-90.39181,38.81585,175],[-90.39181,38.81588,174],[-90.39181,38.81591,174],[-90.39181,38.81594,173],[-90.3918,38.81597,173],[-90.39179,38.81601,172],[-90.39178,38.81604,172],[-90.39177,38.81608,171],[-90.39176,38.81611,171],[-90.39176,38.81615,169],[-90.39175,38.81618,169],[-90.39174,38.81622,168],[-90.39172,38.81625,167],[-90.3917,38.81629,166],[-90.39169,38.81632,165],[-90.39167,38.81635,165],[-90.39165,38.81638,164],[-90.39164,38.8164,164],[-90.39161,38.81643,164],[-90.39159,38.81646,163],[-90.39157,38.81649,163],[-90.39154,38.81652,163],[-90.39153,38.81655,162],[-90.39151,38.81657,162],[-90.39148,38.8166,162],[-90.39145,38.81662,162],[-90.39142,38.81663,162],[-90.39139,38.81666,162],[-90.39137,38.81668,161],[-90.39134,38.8167,161],[-90.39133,38.81673,160],[-90.39131,38.81675,160],[-90.39128,38.81677,160],[-90.39125,38.81678,160],[-90.39122,38.8168,160],[-90.3912,38.81683,159],[-90.39116,38.81684,160],[-90.39113,38.81684,160],[-90.3911,38.81682,161],[-90.39106,38.81681,162],[-90.39103,38.81679,163],[-90.391,38.81678,163],[-90.39097,38.81675,164],[-90.39094,38.81674,165],[-90.3909,38.81675,165],[-90.39089,38.81678,164],[-90.39086,38.8168,164],[-90.39083,38.81682,164],[-90.39079,38.81683,164],[-90.39075,38.81683,164],[-90.39072,38.81684,164],[-90.39067,38.81684,165],[-90.39063,38.81685,165],[-90.39061,38.81688,165],[-90.39057,38.8169,165],[-90.39054,38.81691,165],[-90.39054,38.81694,165],[-90.39056,38.81698,163],[-90.39058,38.817,162],[-90.3906,38.81703,161],[-90.39062,38.81706,160],[-90.3906,38.81709,159],[-90.39058,38.81712,158],[-90.39058,38.81715,157],[-90.39058,38.81718,156],[-90.39058,38.8172,156],[-90.39057,38.81723,155],[-90.39059,38.81725,154],[-90.39062,38.81727,153],[-90.39062,38.81731,151],[-90.39062,38.81734,150],[-90.39064,38.81737,149],[-90.39066,38.8174,147],[-90.39063,38.81742,147],[-90.3906,38.8174,148],[-90.39056,38.81738,150],[-90.39054,38.81735,151],[-90.39052,38.81733,152],[-90.39051,38.8173,153],[-90.3905,38.81727,154],[-90.3905,38.81724,155],[-90.39049,38.81721,156],[-90.39048,38.81718,157],[-90.39047,38.81715,158],[-90.39046,38.81712,159],[-90.39046,38.8171,160],[-90.39047,38.81707,161],[-90.39049,38.81705,161],[-90.39049,38.81702,162],[-90.39048,38.81699,164],[-90.39047,38.81696,165],[-90.39046,38.81693,165],[-90.39045,38.8169,166],[-90.39047,38.81687,166],[-90.39051,38.81685,166],[-90.39054,38.81683,166],[-90.39056,38.8168,166],[-90.3906,38.81679,166],[-90.39063,38.81677,166],[-90.39067,38.81677,166],[-90.39071,38.81677,165],[-90.39075,38.81677,165],[-90.39078,38.81675,165],[-90.39081,38.81673,165],[-90.39084,38.81671,166],[-90.39085,38.81668,166],[-90.39088,38.81667,166],[-90.39092,38.81667,166],[-90.39096,38.81667,166],[-90.391,38.81668,166],[-90.39103,38.8167,165],[-90.39106,38.8167,165],[-90.39109,38.81672,164],[-90.39112,38.81674,163],[-90.39115,38.81676,162],[-90.39116,38.81673,163],[-90.39119,38.81672,163],[-90.39123,38.81671,162],[-90.39124,38.81668,163],[-90.39125,38.81666,164],[-90.39128,38.81664,164],[-90.39132,38.81662,164],[-90.39135,38.8166,164],[-90.39139,38.81658,164],[-90.39141,38.81656,164],[-90.39143,38.81653,165],[-90.39145,38.8165,165],[-90.39146,38.81648,166],[-90.39148,38.81645,166],[-90.3915,38.81643,166],[-90.39152,38.8164,167],[-90.39154,38.81637,167],[-90.39155,38.81635,168],[-90.39158,38.81632,168],[-90.39161,38.8163,168],[-90.39162,38.81627,169],[-90.39163,38.81624,169],[-90.39164,38.81621,170],[-90.39165,38.81618,171],[-90.39166,38.81614,173],[-90.39167,38.81611,173],[-90.39168,38.81608,174],[-90.39169,38.81605,174],[-90.3917,38.81601,175],[-90.39171,38.81598,175],[-90.39171,38.81595,176],[-90.39171,38.81592,176],[-90.39171,38.81589,177],[-90.39171,38.81586,178],[-90.39171,38.81583,178],[-90.39171,38.81579,179],[-90.39171,38.81576,179],[-90.3917,38.81573,180],[-90.3917,38.8157,180],[-90.39171,38.81567,180],[-90.39174,38.81566,180],[-90.39178,38.81565,179],[-90.39183,38.81565,178],[-90.39187,38.81566,177],[-90.3919,38.81565,176],[-90.39191,38.81562,177],[-90.39191,38.81559,177],[-90.39192,38.81556,178],[-90.39194,38.81553,177],[-90.39194,38.8155,177],[-90.39195,38.81547,177],[-90.39195,38.81544,176],[-90.39194,38.81541,177],[-90.39193,38.81538,176],[-90.39192,38.81534,176],[-90.39192,38.81532,176],[-90.3919,38.81528,176],[-90.3919,38.81525,175],[-90.39191,38.81521,174],[-90.39192,38.81518,173],[-90.39192,38.81515,171],[-90.39193,38.81512,170],[-90.39194,38.81507,168],[-90.39195,38.81504,167],[-90.39194,38.81501,166],[-90.39192,38.81497,166],[-90.3919,38.81495,167],[-90.39189,38.81492,166],[-90.39188,38.81489,167],[-90.3919,38.81485,165],[-90.39191,38.81482,165],[-90.39191,38.81479,164],[-90.3919,38.81477,164],[-90.39188,38.81473,165],[-90.39188,38.8147,164],[-90.39188,38.81467,164],[-90.39188,38.81464,163],[-90.39187,38.8146,163],[-90.39185,38.81458,163],[-90.39181,38.81456,164],[-90.39179,38.81453,164],[-90.39178,38.8145,164],[-90.39177,38.81447,164],[-90.39177,38.81444,163],[-90.39177,38.81441,163],[-90.39177,38.81438,162],[-90.39176,38.81435,161],[-90.39176,38.81432,160],[-90.39177,38.81429,159],[-90.39178,38.81426,158],[-90.39177,38.81423,158],[-90.39176,38.8142,157],[-90.39179,38.81418,156],[-90.39182,38.81417,155],[-90.39185,38.81415,153],[-90.39187,38.81412,151],[-90.39188,38.81409,150],[-90.39192,38.81407,147],[-90.39196,38.81407,147],[-90.392,38.81407,146],[-90.39204,38.81406,145],[-90.39207,38.81404,144],[-90.39211,38.81403,143],[-90.39213,38.81406,144],[-90.3921,38.81408,146],[-90.39207,38.8141,147],[-90.39205,38.81412,149],[-90.39201,38.81414,150],[-90.39197,38.81415,151],[-90.39195,38.81418,152],[-90.39192,38.81419,153],[-90.39188,38.8142,154],[-90.39186,38.81422,155],[-90.39187,38.81425,156],[-90.39188,38.81427,156],[-90.39189,38.8143,156],[-90.3919,38.81433,157],[-90.3919,38.81436,158],[-90.3919,38.81439,158],[-90.3919,38.81442,159],[-90.3919,38.81445,160],[-90.39191,38.81448,160],[-90.39192,38.81451,160],[-90.39193,38.81454,160],[-90.39195,38.81456,160],[-90.39197,38.81459,160],[-90.39197,38.81462,161],[-90.39198,38.81465,161],[-90.392,38.81468,161],[-90.39201,38.81472,161],[-90.39202,38.81475,161],[-90.39202,38.81478,162],[-90.39202,38.81481,162],[-90.392,38.81484,163],[-90.39199,38.81487,163],[-90.392,38.81489,163],[-90.39202,38.81492,163],[-90.39203,38.81495,163],[-90.39205,38.81497,163],[-90.39207,38.815,162],[-90.39207,38.81503,163],[-90.39206,38.81507,165],[-90.39206,38.8151,166],[-90.39205,38.81513,167],[-90.39204,38.81516,169],[-90.39203,38.81519,170],[-90.39202,38.81522,171],[-90.39202,38.81525,172],[-90.39202,38.81529,173],[-90.39203,38.81531,173],[-90.39204,38.81535,173],[-90.39205,38.81538,173],[-90.39205,38.81541,173],[-90.39205,38.81544,173],[-90.39204,38.81547,173],[-90.39203,38.8155,174],[-90.39203,38.81553,174],[-90.39201,38.81556,174],[-90.392,38.81559,174],[-90.39199,38.81562,174],[-90.39197,38.81565,174],[-90.39194,38.81566,175],[-90.3919,38.81567,176],[-90.39186,38.81567,177],[-90.39182,38.81568,178],[-90.39179,38.81569,178],[-90.39175,38.8157,179],[-90.39171,38.8157,180],[-90.39167,38.81568,181],[-90.39164,38.81566,182],[-90.39162,38.81564,182],[-90.39158,38.81562,182],[-90.39155,38.8156,183],[-90.39152,38.81558,183],[-90.3915,38.81554,184],[-90.39147,38.81552,184],[-90.39144,38.8155,184],[-90.3914,38.81548,185],[-90.39136,38.81548,185],[-90.39132,38.81547,185],[-90.39128,38.81547,185],[-90.39123,38.81547,185],[-90.39119,38.81547,186],[-90.39115,38.81546,186],[-90.39111,38.81547,186],[-90.39107,38.81548,186],[-90.39103,38.81551,185],[-90.39099,38.81552,185],[-90.39094,38.81553,185],[-90.39091,38.81554,185],[-90.39087,38.81555,185],[-90.39082,38.81555,184],[-90.39078,38.81555,184],[-90.39074,38.81555,184],[-90.3907,38.81554,183],[-90.39067,38.81553,183],[-90.39063,38.81553,183],[-90.39059,38.81552,182],[-90.39055,38.81552,182],[-90.39051,38.81551,181],[-90.39047,38.8155,181],[-90.39043,38.81548,180],[-90.3904,38.81546,180],[-90.39036,38.81545,180],[-90.39033,38.81544,180],[-90.39028,38.81544,179],[-90.39024,38.81543,179],[-90.39021,38.81542,179],[-90.39017,38.8154,180],[-90.39014,38.81539,180],[-90.3901,38.81537,180],[-90.39007,38.81536,180],[-90.39004,38.81534,180],[-90.39,38.81532,181],[-90.38998,38.8153,181],[-90.38994,38.81529,182],[-90.38991,38.81528,182],[-90.38988,38.81526,182],[-90.38985,38.81524,183],[-90.38982,38.81522,183],[-90.38979,38.8152,184],[-90.38977,38.81517,185],[-90.38974,38.81514,185],[-90.38971,38.81512,186],[-90.38969,38.81509,187],[-90.38966,38.81507,187],[-90.38963,38.81505,187],[-90.3896,38.81503,188],[-90.38957,38.815,188],[-90.38955,38.81497,188],[-90.38954,38.81494,188],[-90.38953,38.81491,189],[-90.38951,38.81488,189],[-90.3895,38.81484,189],[-90.38948,38.81481,190],[-90.38948,38.81479,190],[-90.38947,38.81475,190],[-90.38947,38.81472,191],[-90.38946,38.81469,190],[-90.38946,38.81466,190],[-90.38946,38.81462,190],[-90.38946,38.81459,190],[-90.38946,38.81456,190],[-90.38946,38.81453,190],[-90.38946,38.8145,190],[-90.38947,38.81447,190],[-90.38947,38.81444,189],[-90.38947,38.81441,189],[-90.38944,38.81438,189],[-90.38942,38.81435,189],[-90.38938,38.81434,189],[-90.38934,38.81433,190],[-90.3893,38.81432,190],[-90.38926,38.81431,191],[-90.38923,38.8143,191],[-90.38919,38.81429,192],[-90.38916,38.81428,192],[-90.38913,38.81425,192],[-90.3891,38.81424,192],[-90.38906,38.81424,192],[-90.38902,38.81424,192],[-90.38897,38.81423,192],[-90.38893,38.81423,192],[-90.38888,38.81421,193],[-90.38885,38.81421,193],[-90.3888,38.81419,194],[-90.38877,38.81418,194],[-90.38873,38.81417,195],[-90.3887,38.81416,195],[-90.38866,38.81416,196],[-90.38861,38.81415,196],[-90.38857,38.81413,197],[-90.38854,38.81411,197],[-90.3885,38.8141,197],[-90.38847,38.81408,197],[-90.38844,38.81406,197],[-90.38841,38.81404,197],[-90.38836,38.81403,198],[-90.38833,38.81401,198],[-90.38829,38.814,198],[-90.38824,38.81398,198],[-90.38821,38.81397,198],[-90.38816,38.81396,198],[-90.38812,38.81396,199],[-90.38807,38.81396,199],[-90.38803,38.81397,199],[-90.38799,38.81397,199],[-90.38795,38.81398,199],[-90.38791,38.81398,199],[-90.38787,38.81399,199],[-90.38782,38.81399,199],[-90.38778,38.81399,199],[-90.38773,38.81399,200],[-90.38768,38.81398,200],[-90.38764,38.81397,200],[-90.3876,38.81394,200],[-90.38757,38.81392,200],[-90.38754,38.81389,199],[-90.38751,38.81386,199],[-90.3875,38.81383,199],[-90.3875,38.8138,198],[-90.3875,38.81377,198],[-90.3875,38.81374,197],[-90.38751,38.8137,197],[-90.38751,38.81367,196],[-90.38752,38.81364,196],[-90.38752,38.8136,196],[-90.38752,38.81356,195],[-90.38753,38.81353,195],[-90.38754,38.8135,195],[-90.38754,38.81346,195],[-90.38755,38.81343,195],[-90.38755,38.81339,194],[-90.38754,38.81336,194],[-90.38754,38.81332,194],[-90.38755,38.81329,194],[-90.38758,38.81327,194],[-90.38762,38.81327,194],[-90.38766,38.81326,194],[-90.3877,38.81326,194],[-90.38774,38.81326,195],[-90.38778,38.81326,195],[-90.38782,38.81326,195],[-90.38785,38.81324,194],[-90.38787,38.81322,194],[-90.38789,38.81319,194],[-90.38791,38.81316,193],[-90.38793,38.81313,192],[-90.38794,38.8131,192],[-90.38797,38.81308,191],[-90.38798,38.81305,191],[-90.388,38.81302,190],[-90.38801,38.813,190],[-90.38801,38.81296,190],[-90.38801,38.81293,189],[-90.388,38.8129,189],[-90.38802,38.81287,189],[-90.38802,38.81284,188],[-90.38802,38.8128,188],[-90.38803,38.81277,187],[-90.38807,38.81276,187],[-90.3881,38.81274,185],[-90.38813,38.81273,184],[-90.38817,38.81271,183],[-90.3882,38.8127,182],[-90.38824,38.81269,180],[-90.38828,38.8127,179],[-90.38832,38.8127,178],[-90.38836,38.81269,177],[-90.38839,38.81269,176],[-90.38842,38.81267,175],[-90.38844,38.81264,174],[-90.38846,38.81262,173],[-90.3885,38.81261,172],[-90.38852,38.81258,171],[-90.38853,38.81255,171],[-90.38854,38.81253,170],[-90.38855,38.8125,170],[-90.38857,38.81247,169],[-90.38858,38.81244,168],[-90.38857,38.81241,168],[-90.38857,38.81238,167],[-90.38858,38.81234,166],[-90.38859,38.81231,165],[-90.3886,38.81229,165],[-90.38863,38.81227,164],[-90.38867,38.81226,164],[-90.38869,38.81224,163],[-90.38872,38.81221,163],[-90.38874,38.81219,162],[-90.38876,38.81216,162],[-90.38876,38.81213,161],[-90.38876,38.8121,161],[-90.38875,38.81207,161],[-90.38871,38.81206,161],[-90.38868,38.81205,161],[-90.38866,38.81202,161],[-90.38865,38.81199,161],[-90.38863,38.81197,161],[-90.38859,38.81195,162],[-90.38857,38.81193,162],[-90.38855,38.81189,163],[-90.38856,38.81185,163],[-90.38857,38.81182,163],[-90.38858,38.81179,164],[-90.38859,38.81176,164],[-90.38861,38.81173,164],[-90.38862,38.81171,164],[-90.38864,38.81168,164],[-90.38866,38.81165,164],[-90.38868,38.81162,163],[-90.38871,38.8116,163],[-90.38874,38.81158,162],[-90.38875,38.81155,162],[-90.38876,38.81152,161],[-90.38878,38.81151,161],[-90.38882,38.81151,160],[-90.38886,38.81151,159],[-90.3889,38.81149,158],[-90.38893,38.81147,157],[-90.38897,38.81147,156],[-90.389,38.81147,155],[-90.38904,38.81147,155],[-90.38907,38.81145,154],[-90.3891,38.81142,153],[-90.38913,38.81139,152],[-90.38916,38.81136,152],[-90.38919,38.81134,152],[-90.38923,38.81133,152],[-90.38927,38.81133,152],[-90.38932,38.81135,152],[-90.38936,38.81134,152],[-90.38938,38.81131,152],[-90.38939,38.81128,152],[-90.38941,38.81125,152],[-90.38944,38.81122,152],[-90.38946,38.8112,151],[-90.38948,38.81117,151],[-90.3895,38.81115,151],[-90.38954,38.81113,151],[-90.38958,38.81114,151],[-90.38961,38.81115,151],[-90.38965,38.81116,151],[-90.38969,38.81117,150],[-90.38973,38.81117,150],[-90.38977,38.81117,150],[-90.38981,38.81116,149],[-90.38984,38.81114,149],[-90.38987,38.81112,148],[-90.38991,38.81111,148],[-90.38996,38.81112,147],[-90.39,38.81113,146],[-90.39005,38.81113,146],[-90.39009,38.81114,145],[-90.39013,38.81115,144],[-90.39016,38.81115,144],[-90.39021,38.81116,143],[-90.39026,38.81115,143],[-90.3903,38.81114,142],[-90.39035,38.81115,142],[-90.39038,38.81116,142],[-90.39042,38.81117,142],[-90.39047,38.81119,142],[-90.3905,38.81121,142],[-90.39053,38.81122,142],[-90.39057,38.81123,142],[-90.39061,38.81123,142],[-90.39065,38.81122,142],[-90.39068,38.81119,141],[-90.39071,38.81118,141],[-90.39074,38.81116,141],[-90.39077,38.81115,141],[-90.3908,38.81113,141],[-90.3908,38.8111,141],[-90.39082,38.81108,140],[-90.39085,38.81105,140],[-90.39085,38.81101,139],[-90.39084,38.81098,139],[-90.39083,38.81095,139],[-90.39082,38.81092,139],[-90.3908,38.81089,138],[-90.39079,38.81085,138],[-90.39079,38.81082,138],[-90.39081,38.81078,138]]],
        "bbox": [
          -90.3875,
          38.81742,
          -90.39213,
          38.81078
        ]
      },
      "properties": {
        "name": "2.7.2024"
      }
    }
  ]
}