{
  "type": "FeatureCollection",
  "features": [
    {
      "type": "Feature",
      "geometry": {
        "type": "MultiLineString",
        "coordinates": [[[-90.39503,38.81169,133],[-90.39499,38.8117,133],[-90.39496,38.81172,133],[-90.39492,38.81174,133],[-90.39489,38.81176,134],[-90.39487,38.81177,134],[-90.39484,38.8118,134],[-90.39482,38.81182,135],[-90.3948,38.81184,135],[-90.39478,38.81186,135],[-90.39475,38.81188,136],[-90.39472,38.8119,136],[-90.39469,38.81193,136],[-90.39467,38.81195,137],[-90.39464,38.81197,137],[-90.39461,38.812,137],[-90.39459,38.81202,137],[-90.39457,38.81204,137],[-90.39454,38.81206,137],[-90.39452,38.81208,137],[-90.39449,38.8121,137],[-90.39447,38.81213,137],[-90.39445,38.81215,137],[-90.39443,38.81218,138],[-90.3944,38.8122,138],[-90.39438,38.81222,138],[-90.39436,38.81225,137],[-90.39434,38.81227,137],[-90.39432,38.8123,137],[-90.39429,38.81232,137],[-90.39426,38.8123,137],[-90.39422,38.8123,137],[-90.39419,38.81231,137],[-90.39415,38.81233,137],[-90.39411,38.81235,137],[-90.39408,38.81237,137],[-90.39407,38.8124,137],[-90.39406,38.81243,137],[-90.39404,38.81246,137],[-90.39402,38.81248,137],[-90.39399,38.8125,137],[-90.39396,38.81252,136],[-90.39393,38.81254,136],[-90.3939,38.81255,136],[-90.39387,38.81257,136],[-90.39384,38.81259,135],[-90.39381,38.81261,135],[-90.39378,38.81263,135],[-90.39375,38.81264,135],[-90.39372,38.81266,135],[-90.39369,38.81268,134],[-90.39366,38.8127,134],[-90.39363,38.81272,134],[-90.3936,38.81274,134],[-90.39358,38.81276,134],[-90.39355,38.81278,134],[-90.39353,38.8128,134],[-90.3935,38.81282,134],[-90.39348,38.81284,134],[-90.39347,38.81287,133],[-90.39343,38.81288,133],[-90.39339,38.81289,134],[-90.39336,38.81287,134],[-90.39332,38.81286,134],[-90.39329,38.81284,134],[-90.39326,38.81282,134],[-90.39324,38.8128,134],[-90.39321,38.81278,134],[-90.39318,38.81276,134],[-90.39316,38.81274,134],[-90.39313,38.81272,134],[-90.3931,38.8127,134],[-90.39307,38.81269,134],[-90.39303,38.81267,134],[-90.39299,38.81267,134],[-90.39296,38.81265,134],[-90.39293,38.81264,134],[-90.39289,38.81262,134],[-90.39286,38.81261,134],[-90.39283,38.81259,134],[-90.3928,38.81257,134],[-90.39277,38.81255,134],[-90.39274,38.81253,134],[-90.39273,38.81249,134],[-90.39274,38.81246,134],[-90.39271,38.81245,134],[-90.39268,38.81243,134],[-90.39264,38.81241,134],[-90.39261,38.81239,134],[-90.39259,38.81237,134],[-90.39257,38.81234,134],[-90.39256,38.81231,134],[-90.39253,38.81229,135],[-90.3925,38.81227,135],[-90.39247,38.81225,135],[-90.39244,38.81223,135],[-90.39242,38.81221,135],[-90.39239,38.81219,135],[-90.39237,38.81217,135],[-90.39234,38.81215,135],[-90.39231,38.81213,135],[-90.39226,38.81212,135],[-90.39223,38.81211,135],[-90.39219,38.8121,136],[-90.39215,38.8121,136],[-90.39211,38.8121,136],[-90.39207,38.81211,137],[-90.39204,38.81212,137],[-90.392,38.81214,137],[-90.39197,38.81215,137],[-90.39194,38.81217,137],[-90.39191,38.81219,137],[-90.39188,38.81221,137],[-90.39186,38.81224,137],[-90.39183,38.81226,137],[-90.39181,38.81228,136],[-90.39178,38.8123,136],[-90.39176,38.81232,136],[-90.39173,38.81234,136],[-90.3917,38.81236,136],[-90.39168,38.81238,136],[-90.39167,38.81241,135],[-90.39166,38.81244,135],[-90.39163,38.81247,135],[-90.39161,38.81249,135],[-90.39158,38.81251,135],[-90.39156,38.81253,135],[-90.39154,38.81256,136],[-90.39154,38.81259,137],[-90.39155,38.81262,137],[-90.39156,38.81264,137],[-90.39158,38.81267,138],[-90.3916,38.81269,138],[-90.39164,38.81272,138],[-90.39166,38.81275,138],[-90.39169,38.81276,138],[-90.39171,38.81279,138],[-90.39173,38.81282,138],[-90.39174,38.81285,139],[-90.39176,38.81287,138],[-90.39179,38.81289,138],[-90.39182,38.81291,138],[-90.39184,38.81294,138],[-90.39187,38.81296,138],[-90.3919,38.81298,138],[-90.39194,38.813,138],[-90.39196,38.81302,138],[-90.392,38.81304,138],[-90.39202,38.81306,138],[-90.39205,38.81308,138],[-90.39208,38.8131,138],[-90.3921,38.81312,138],[-90.39213,38.81314,138],[-90.39216,38.81316,138],[-90.39218,38.81318,138],[-90.39221,38.8132,138],[-90.39224,38.81322,138],[-90.39227,38.81324,138],[-90.3923,38.81325,137],[-90.39233,38.81327,137],[-90.39236,38.81329,137],[-90.39239,38.81331,137],[-90.39242,38.81332,137],[-90.39246,38.81334,137],[-90.39249,38.81335,137],[-90.39252,38.81337,137],[-90.39254,38.8134,137],[-90.39253,38.81343,137],[-90.39253,38.81346,137],[-90.39253,38.8135,138],[-90.39252,38.81354,138],[-90.39251,38.81358,138],[-90.39251,38.8136,138],[-90.39251,38.81364,138],[-90.39251,38.81367,138],[-90.39251,38.8137,138],[-90.3925,38.81373,138],[-90.3925,38.81376,138],[-90.39248,38.81379,138],[-90.39247,38.81382,137],[-90.39247,38.81385,137],[-90.39245,38.81387,137],[-90.39242,38.81389,136],[-90.3924,38.81391,137],[-90.39237,38.81394,138],[-90.39236,38.81396,139],[-90.39234,38.81399,140],[-90.39231,38.81401,141],[-90.39229,38.81403,142],[-90.39226,38.81405,143],[-90.39223,38.81407,144],[-90.39222,38.81409,146],[-90.39224,38.81412,148],[-90.39227,38.81414,149],[-90.39231,38.81416,150],[-90.39234,38.81418,150],[-90.39236,38.8142,151],[-90.39239,38.81423,151],[-90.39241,38.81425,151],[-90.39244,38.81427,152],[-90.39247,38.8143,152],[-90.39251,38.81432,153],[-90.39255,38.81434,153],[-90.39259,38.81436,153],[-90.39262,38.81439,153],[-90.39264,38.81441,153],[-90.39267,38.81443,153],[-90.39269,38.81446,153],[-90.39271,38.81449,153],[-90.39273,38.81451,153],[-90.39277,38.81452,152],[-90.39283,38.81454,151],[-90.39286,38.81456,150],[-90.3929,38.81459,149],[-90.39293,38.81462,149],[-90.39295,38.81466,148],[-90.39297,38.8147,147],[-90.39298,38.81474,147],[-90.39298,38.81478,147],[-90.39299,38.81482,147],[-90.39301,38.81487,147],[-90.39303,38.81491,147],[-90.39307,38.81494,147],[-90.3931,38.81496,146],[-90.39311,38.815,146],[-90.39312,38.81505,146],[-90.39314,38.81509,145],[-90.39316,38.81513,144],[-90.39318,38.81517,143],[-90.39319,38.81521,143],[-90.39318,38.81525,143],[-90.39313,38.81527,144],[-90.39308,38.8153,144],[-90.39305,38.81532,144],[-90.393,38.81533,145],[-90.39297,38.81535,145],[-90.39293,38.81538,146],[-90.39289,38.8154,146],[-90.39285,38.81542,146],[-90.39281,38.81545,147],[-90.39278,38.81548,147],[-90.39275,38.81551,147],[-90.39273,38.81554,147],[-90.39271,38.81558,147],[-90.39271,38.81562,146],[-90.3927,38.81566,146],[-90.39266,38.8157,146],[-90.39264,38.81573,146],[-90.39263,38.81577,146],[-90.39263,38.81581,145],[-90.39264,38.81585,144],[-90.39269,38.81587,142],[-90.39269,38.81591,142],[-90.39267,38.81595,143],[-90.39265,38.81598,144],[-90.39263,38.81601,144],[-90.3926,38.81605,145],[-90.39255,38.81607,147],[-90.39251,38.8161,148],[-90.39248,38.81613,149],[-90.39244,38.81616,149],[-90.39241,38.81619,149],[-90.39238,38.81621,150],[-90.39239,38.81618,150],[-90.3924,38.81614,151],[-90.39242,38.81617,150],[-90.39241,38.81621,149],[-90.39237,38.81624,149],[-90.39236,38.81627,149],[-90.39233,38.8163,149],[-90.39229,38.81632,149],[-90.39229,38.81635,148],[-90.39228,38.81639,147],[-90.39225,38.81642,148],[-90.39221,38.81646,148],[-90.39218,38.81649,148],[-90.39215,38.81653,149],[-90.39211,38.81656,149],[-90.39212,38.8166,148],[-90.3921,38.81664,148],[-90.39206,38.81666,149],[-90.39202,38.81667,149],[-90.39199,38.81671,149],[-90.39196,38.81674,150],[-90.39193,38.81677,150],[-90.39189,38.81681,150],[-90.39185,38.81683,150],[-90.39182,38.81685,150],[-90.3918,38.81687,149],[-90.39177,38.81689,149],[-90.39176,38.81691,149],[-90.39175,38.81694,148],[-90.39172,38.81696,147],[-90.39168,38.81698,146],[-90.39163,38.81699,146],[-90.39159,38.817,147],[-90.39156,38.81701,147],[-90.39152,38.817,148],[-90.39148,38.817,148],[-90.3915,38.81702,147],[-90.39154,38.81703,146],[-90.39154,38.81706,145],[-90.39151,38.81707,145],[-90.39147,38.81707,146],[-90.39144,38.81708,146],[-90.3914,38.81709,146],[-90.39137,38.81711,146],[-90.39133,38.81712,146],[-90.3913,38.81713,146],[-90.39127,38.81715,146],[-90.39124,38.81717,145],[-90.39121,38.81719,145],[-90.39117,38.8172,145],[-90.39114,38.81722,145],[-90.39112,38.81724,145],[-90.39109,38.81727,145],[-90.39106,38.8173,144],[-90.39103,38.81732,144],[-90.391,38.81734,144],[-90.39098,38.81737,144],[-90.39095,38.8174,143],[-90.39094,38.81744,142],[-90.3909,38.81747,142],[-90.39086,38.81748,142],[-90.39083,38.81748,142],[-90.39083,38.81751,141],[-90.39082,38.81755,141],[-90.39082,38.81757,140],[-90.39081,38.81761,140],[-90.3908,38.81764,139],[-90.39077,38.81766,139],[-90.39073,38.81767,140],[-90.3907,38.81768,140],[-90.39066,38.81769,140],[-90.39063,38.8177,140],[-90.39059,38.81771,141],[-90.39055,38.81773,141],[-90.39052,38.81773,141],[-90.39049,38.81774,141],[-90.39049,38.81771,142],[-90.39045,38.8177,142],[-90.39043,38.81768,143],[-90.39041,38.81765,144],[-90.39038,38.81763,145],[-90.39035,38.81763,145],[-90.39035,38.8176,146],[-90.39037,38.81757,146],[-90.39039,38.81755,146],[-90.39042,38.81754,146],[-90.39046,38.81753,146],[-90.3905,38.81752,146],[-90.39052,38.8175,146],[-90.39055,38.81749,146],[-90.39059,38.81748,146],[-90.39061,38.81746,146],[-90.3906,38.81743,147],[-90.39057,38.81744,147],[-90.39055,38.81741,149],[-90.39054,38.81739,150],[-90.39055,38.81736,151],[-90.39055,38.81733,152],[-90.39052,38.8173,153],[-90.39049,38.81729,153],[-90.39048,38.81726,154],[-90.39046,38.81725,155],[-90.39049,38.81723,155],[-90.39051,38.8172,156],[-90.39053,38.81718,157],[-90.39054,38.81715,158],[-90.39055,38.81712,159],[-90.39059,38.81712,158],[-90.39059,38.81708,160],[-90.39058,38.81706,160],[-90.39055,38.81703,162],[-90.39052,38.81701,163],[-90.3905,38.81699,163],[-90.39049,38.81696,164],[-90.39051,38.81693,165],[-90.39053,38.81691,165],[-90.39055,38.81688,165],[-90.39051,38.81686,166],[-90.39048,38.81685,166],[-90.39045,38.81683,166],[-90.39043,38.81681,167],[-90.39042,38.81678,167],[-90.3904,38.81675,167],[-90.39039,38.81672,168],[-90.39037,38.8167,168],[-90.39034,38.81668,168],[-90.39031,38.81667,168],[-90.39027,38.81668,168],[-90.39024,38.81666,169],[-90.39022,38.81664,169],[-90.3902,38.81661,169],[-90.39022,38.81663,169],[-90.39024,38.81666,169],[-90.39027,38.81668,168],[-90.39031,38.8167,168],[-90.39034,38.81673,168],[-90.39037,38.81677,167],[-90.39038,38.81681,167],[-90.39041,38.81684,166],[-90.39045,38.81686,166],[-90.3905,38.81688,166],[-90.39055,38.81686,165],[-90.39058,38.81683,166],[-90.39063,38.81683,165],[-90.39068,38.81681,165],[-90.39073,38.8168,165],[-90.39078,38.81679,165],[-90.39083,38.81679,164],[-90.39088,38.81677,164],[-90.3909,38.81672,165],[-90.39093,38.81669,166],[-90.39098,38.81669,165],[-90.39102,38.81673,164],[-90.39106,38.81676,163],[-90.39109,38.81678,162],[-90.39112,38.81681,161],[-90.39116,38.81682,160],[-90.39118,38.8168,161],[-90.3912,38.81677,161],[-90.39123,38.81676,161],[-90.39126,38.81674,161],[-90.39128,38.81671,162],[-90.39131,38.81669,162],[-90.39134,38.81667,162],[-90.39137,38.81665,162],[-90.39139,38.81663,163],[-90.39143,38.81662,162],[-90.39147,38.81661,162],[-90.39147,38.81658,162],[-90.39146,38.81655,164],[-90.39145,38.81652,165],[-90.39147,38.8165,165],[-90.39151,38.81649,164],[-90.39153,38.81646,165],[-90.39155,38.81644,165],[-90.39157,38.81641,165],[-90.39159,38.81639,165],[-90.39161,38.81637,166],[-90.39164,38.81635,166],[-90.39166,38.81633,166],[-90.39167,38.8163,167],[-90.39167,38.81627,168],[-90.39168,38.81624,169],[-90.39169,38.81621,169],[-90.39169,38.81618,170],[-90.3917,38.81615,171],[-90.39171,38.81612,172],[-90.39172,38.81609,172],[-90.39173,38.81606,173],[-90.39175,38.81603,173],[-90.39175,38.81601,173],[-90.39175,38.81598,174],[-90.39176,38.81595,174],[-90.39178,38.81592,174],[-90.39177,38.81589,175],[-90.39176,38.81586,176],[-90.39176,38.81583,177],[-90.39175,38.8158,178],[-90.39174,38.81577,178],[-90.39173,38.81574,179],[-90.39173,38.81571,179],[-90.39172,38.81569,180],[-90.39168,38.81569,181],[-90.39165,38.81567,181],[-90.39161,38.81564,182],[-90.39159,38.81562,182],[-90.39157,38.8156,183],[-90.39154,38.81558,183],[-90.39152,38.81556,184],[-90.3915,38.81553,184],[-90.39148,38.81551,184],[-90.39145,38.81549,184],[-90.39142,38.81547,184],[-90.3914,38.81545,185],[-90.39136,38.81544,185],[-90.39133,38.81542,185],[-90.39129,38.81542,185],[-90.39125,38.81542,185],[-90.39121,38.81542,186],[-90.39118,38.81542,186],[-90.39114,38.81541,186],[-90.39111,38.81541,186],[-90.39107,38.81542,186],[-90.39103,38.81543,186],[-90.391,38.81544,186],[-90.39096,38.81546,185],[-90.39092,38.81547,185],[-90.39089,38.81548,185],[-90.39085,38.81549,185],[-90.39083,38.81546,185],[-90.39079,38.81546,185],[-90.39075,38.81547,184],[-90.39072,38.81547,184],[-90.39069,38.81545,184],[-90.39065,38.81544,183],[-90.39062,38.81544,183],[-90.39058,38.81543,183],[-90.39054,38.81542,182],[-90.39051,38.81541,182],[-90.39047,38.8154,182],[-90.39044,38.81539,182],[-90.3904,38.81538,181],[-90.39036,38.81538,181],[-90.39032,38.81537,181],[-90.39028,38.81536,180],[-90.39024,38.81535,180],[-90.3902,38.81534,181],[-90.39016,38.81532,181],[-90.39013,38.8153,181],[-90.39011,38.81529,181],[-90.39007,38.81527,182],[-90.39004,38.81526,182],[-90.39,38.81525,182],[-90.38996,38.81524,183],[-90.38994,38.81522,183],[-90.38992,38.81519,184],[-90.38989,38.81517,184],[-90.38985,38.81515,185],[-90.38981,38.81514,185],[-90.38978,38.81513,186],[-90.38974,38.81511,186],[-90.3897,38.81509,187],[-90.38966,38.81506,187],[-90.38963,38.81504,187],[-90.38961,38.81501,188],[-90.38959,38.81498,188],[-90.38958,38.81494,189],[-90.38958,38.81491,189],[-90.38957,38.81488,189],[-90.38956,38.81485,190],[-90.38954,38.81483,190],[-90.38954,38.81479,190],[-90.38954,38.81477,190],[-90.38954,38.81473,191],[-90.38954,38.8147,191],[-90.38953,38.81467,190],[-90.38954,38.81464,190],[-90.38955,38.81462,190],[-90.38955,38.81459,190],[-90.38956,38.81456,190],[-90.38955,38.81453,190],[-90.38953,38.8145,190],[-90.38952,38.81448,189],[-90.38949,38.81445,189],[-90.38946,38.81444,189],[-90.38942,38.81443,190],[-90.38939,38.81441,190],[-90.38936,38.81439,190],[-90.38933,38.81437,190],[-90.38931,38.81434,190],[-90.3893,38.81432,190],[-90.38929,38.81429,190],[-90.38927,38.81427,191],[-90.38924,38.81425,191],[-90.3892,38.81424,192],[-90.38917,38.81422,192],[-90.38914,38.81421,192],[-90.38909,38.8142,192],[-90.38905,38.8142,192],[-90.38901,38.81419,192],[-90.38897,38.81419,192],[-90.38893,38.81418,192],[-90.38889,38.81417,192],[-90.38885,38.81417,193],[-90.38881,38.81416,194],[-90.38877,38.81416,194],[-90.38874,38.81414,194],[-90.38871,38.81413,195],[-90.38867,38.81412,195],[-90.38863,38.81411,196],[-90.3886,38.81409,196],[-90.38856,38.81408,196],[-90.38852,38.81408,197],[-90.38849,38.81407,197],[-90.38844,38.81406,197],[-90.38841,38.81405,197],[-90.38835,38.81401,198],[-90.3883,38.81399,198],[-90.38826,38.81397,198],[-90.38822,38.81395,198],[-90.38819,38.81393,198],[-90.38815,38.81391,198],[-90.38812,38.8139,198],[-90.38808,38.8139,198],[-90.38803,38.8139,199],[-90.388,38.81392,199],[-90.38796,38.81394,199],[-90.38792,38.81394,199],[-90.38788,38.81395,199],[-90.38784,38.81395,199],[-90.38781,38.81395,199],[-90.38776,38.81396,200],[-90.38773,38.81397,200],[-90.38769,38.81397,200],[-90.38766,38.81395,200],[-90.38763,38.81392,200],[-90.3876,38.81391,200],[-90.38756,38.8139,200],[-90.38754,38.81388,199],[-90.38752,38.81385,199],[-90.38752,38.81382,199],[-90.38753,38.81379,198],[-90.38754,38.81375,198],[-90.38755,38.81373,197],[-90.38755,38.8137,197],[-90.38755,38.81367,197],[-90.38756,38.81364,196],[-90.38756,38.81361,196],[-90.38756,38.81358,196],[-90.38757,38.81355,196],[-90.38757,38.81352,195],[-90.38758,38.8135,195],[-90.38759,38.81346,195],[-90.38759,38.81344,195],[-90.38759,38.81341,195],[-90.38758,38.81337,194],[-90.38757,38.81334,194],[-90.38757,38.8133,194],[-90.3876,38.81329,194],[-90.38764,38.81328,194],[-90.38768,38.81328,194],[-90.38772,38.81328,195],[-90.38776,38.81328,195],[-90.38779,38.81328,195],[-90.38783,38.81327,195],[-90.38786,38.81327,195],[-90.3879,38.81326,194],[-90.38794,38.81325,194],[-90.38797,38.81322,194],[-90.38798,38.81319,193],[-90.38799,38.81317,193],[-90.38801,38.81314,192],[-90.38803,38.81312,192],[-90.38805,38.81309,191],[-90.38807,38.81307,190],[-90.38809,38.81304,190],[-90.38808,38.813,189],[-90.38809,38.81297,189],[-90.3881,38.81294,188],[-90.38809,38.8129,188],[-90.38808,38.81288,188],[-90.38808,38.81285,188],[-90.38809,38.81282,187],[-90.38808,38.81279,187],[-90.38804,38.81278,188],[-90.38806,38.81276,187],[-90.3881,38.81275,186],[-90.38814,38.81274,184],[-90.38818,38.81273,183],[-90.38822,38.81271,181],[-90.38825,38.81271,180],[-90.38829,38.81273,180],[-90.38832,38.81271,179],[-90.38836,38.8127,177],[-90.3884,38.81269,176],[-90.38843,38.81269,175],[-90.38847,38.81268,173],[-90.3885,38.81267,173],[-90.38854,38.81266,171],[-90.38857,38.81266,170],[-90.38862,38.81264,169],[-90.38864,38.81262,168],[-90.38867,38.8126,168],[-90.38868,38.81257,168],[-90.38867,38.81254,168],[-90.38868,38.81251,167],[-90.38869,38.81248,167],[-90.38872,38.81246,166],[-90.38875,38.81244,165],[-90.38877,38.81242,165],[-90.38878,38.81239,164],[-90.38875,38.81236,164],[-90.38873,38.81234,164],[-90.3887,38.81232,164],[-90.38868,38.81229,164],[-90.38867,38.81225,163],[-90.38871,38.81223,163],[-90.38875,38.81219,162],[-90.38877,38.81215,161],[-90.38878,38.81211,161],[-90.38877,38.81207,160],[-90.38872,38.81204,161],[-90.38868,38.81201,161],[-90.38865,38.81197,161],[-90.38863,38.81194,161],[-90.38859,38.81192,162],[-90.38857,38.8119,163],[-90.38855,38.81187,163],[-90.38854,38.81185,163],[-90.38854,38.81182,164],[-90.38856,38.81179,164],[-90.38858,38.81176,164],[-90.3886,38.81174,164],[-90.38863,38.81171,164],[-90.38866,38.81169,163],[-90.38869,38.81167,163],[-90.38872,38.81165,163],[-90.38874,38.81163,162],[-90.38877,38.81161,161],[-90.38879,38.81159,161],[-90.38881,38.81155,160],[-90.38883,38.81152,160],[-90.38886,38.81152,159],[-90.3889,38.81153,158],[-90.38894,38.81152,157],[-90.38898,38.81151,156],[-90.38902,38.81151,155],[-90.38905,38.81151,154],[-90.38909,38.8115,153],[-90.38912,38.8115,153],[-90.38916,38.81149,152],[-90.38919,38.81147,152],[-90.38922,38.81146,152],[-90.38925,38.81144,152],[-90.38928,38.81142,152],[-90.38931,38.8114,152],[-90.38934,38.81138,152],[-90.38938,38.81138,152],[-90.3894,38.8114,152],[-90.38944,38.8114,152],[-90.38946,38.81137,151],[-90.38948,38.81134,151],[-90.3895,38.81132,151],[-90.38953,38.81129,151],[-90.38954,38.81126,151],[-90.38955,38.81123,151],[-90.38957,38.8112,151],[-90.38959,38.81117,151],[-90.38963,38.81117,151],[-90.38966,38.81117,151],[-90.3897,38.81117,150],[-90.38973,38.81117,150],[-90.38972,38.81115,150],[-90.38976,38.81113,150],[-90.3898,38.81112,149],[-90.38984,38.81113,149],[-90.38988,38.81114,148],[-90.38991,38.81115,148],[-90.38995,38.81115,147],[-90.38998,38.81114,147],[-90.39002,38.81115,146],[-90.39006,38.81116,145],[-90.39009,38.81117,145],[-90.39013,38.81117,144],[-90.39018,38.81118,144],[-90.39022,38.81118,143],[-90.39025,38.81117,143],[-90.39029,38.81117,142],[-90.39033,38.81118,142],[-90.39036,38.8112,142],[-90.39039,38.81121,142],[-90.39043,38.81123,142],[-90.39046,38.81125,142],[-90.3905,38.81126,142],[-90.39053,38.81126,142],[-90.39057,38.81125,142],[-90.39061,38.81124,142],[-90.39066,38.81123,142],[-90.3907,38.81121,142],[-90.39073,38.81119,141],[-90.39075,38.81117,141],[-90.39079,38.81118,141],[-90.39082,38.81121,141],[-90.39083,38.81123,141],[-90.39085,38.81126,141],[-90.39088,38.81128,141],[-90.39091,38.8113,141],[-90.39093,38.81133,141],[-90.39096,38.81136,141],[-90.39098,38.81138,141],[-90.391,38.8114,141],[-90.39102,38.81143,142],[-90.39102,38.81147,142],[-90.39103,38.81149,143],[-90.39104,38.81152,143],[-90.39105,38.81155,143],[-90.39105,38.81158,144],[-90.39104,38.81161,144],[-90.39102,38.81164,145],[-90.39099,38.81166,145],[-90.39096,38.81167,146],[-90.39093,38.8117,146],[-90.39091,38.81172,147],[-90.39088,38.81175,147],[-90.39088,38.81177,147],[-90.39089,38.81181,148],[-90.39089,38.81183,148],[-90.3909,38.81186,148],[-90.3909,38.81189,149],[-90.3909,38.81192,149],[-90.39089,38.81195,149],[-90.39089,38.81198,149],[-90.39088,38.81201,149],[-90.39087,38.81204,149],[-90.39086,38.81207,149],[-90.39086,38.8121,149],[-90.39085,38.81213,149],[-90.39085,38.81216,149],[-90.39086,38.81219,149],[-90.39087,38.81223,149],[-90.39089,38.81226,148],[-90.39091,38.8123,147],[-90.39091,38.81233,147],[-90.39092,38.81236,146],[-90.39094,38.81239,145],[-90.39096,38.81242,144],[-90.39097,38.81245,143],[-90.39097,38.81248,143],[-90.39098,38.81251,142],[-90.391,38.81254,143],[-90.39101,38.81257,143],[-90.39102,38.8126,144],[-90.39102,38.81263,144],[-90.39102,38.81266,145],[-90.39104,38.81268,145],[-90.39105,38.81272,146],[-90.39104,38.81275,147],[-90.39102,38.81278,148],[-90.39104,38.81281,148],[-90.39107,38.81284,149],[-90.39109,38.81286,149],[-90.3911,38.81289,149],[-90.39111,38.81292,150],[-90.39113,38.81295,151],[-90.39114,38.81298,151],[-90.39114,38.81301,152],[-90.39114,38.81304,153],[-90.39115,38.81307,153],[-90.39116,38.8131,153],[-90.39117,38.81313,153],[-90.39119,38.81316,153],[-90.39124,38.81318,152],[-90.39127,38.81319,152],[-90.39132,38.8132,151],[-90.39135,38.81322,151],[-90.39137,38.81324,150],[-90.39139,38.81327,150],[-90.39141,38.81329,150],[-90.39144,38.81331,150],[-90.39147,38.81332,149],[-90.39151,38.81333,149],[-90.39155,38.81334,148],[-90.39159,38.81336,147],[-90.3916,38.81339,147],[-90.3916,38.81342,146],[-90.39161,38.81345,146],[-90.39162,38.81347,146],[-90.39162,38.81351,145],[-90.39162,38.81354,145],[-90.39161,38.81356,145],[-90.39162,38.81359,144],[-90.39164,38.81362,143],[-90.39167,38.81364,143],[-90.39169,38.81367,143],[-90.39171,38.8137,143],[-90.39173,38.81372,143],[-90.39176,38.81374,143],[-90.39178,38.81377,143],[-90.3918,38.81379,142],[-90.39181,38.81382,142],[-90.39179,38.81385,143],[-90.39179,38.81388,143],[-90.3918,38.8139,143],[-90.39181,38.81393,144],[-90.39184,38.81396,145],[-90.39188,38.81398,144],[-90.39192,38.81399,143],[-90.39196,38.814,143],[-90.392,38.814,142],[-90.39204,38.81401,143],[-90.39207,38.81403,143],[-90.3921,38.81404,144],[-90.39214,38.81405,144],[-90.39217,38.81403,142],[-90.3922,38.81401,141],[-90.39223,38.81399,139],[-90.39227,38.81398,139],[-90.3923,38.81396,138],[-90.39227,38.81394,136],[-90.3923,38.81392,136],[-90.39233,38.8139,135],[-90.39236,38.81388,135],[-90.39239,38.81387,136],[-90.3924,38.81384,136],[-90.39241,38.8138,137],[-90.39243,38.81378,137],[-90.39246,38.81376,138],[-90.39249,38.81374,138],[-90.3925,38.8137,138],[-90.3925,38.81367,138],[-90.39247,38.81368,138],[-90.39248,38.81365,138],[-90.39252,38.81362,138],[-90.39253,38.81359,138],[-90.39255,38.81356,138],[-90.39257,38.81353,138],[-90.39258,38.8135,137],[-90.39259,38.81347,137],[-90.39261,38.81345,137],[-90.39264,38.81342,136],[-90.39267,38.8134,136],[-90.3927,38.81339,136],[-90.39273,38.81337,135],[-90.39276,38.81335,135],[-90.3928,38.81334,134],[-90.39283,38.81333,134],[-90.39285,38.8133,134],[-90.39288,38.81328,134],[-90.3929,38.81325,133],[-90.39292,38.81322,133],[-90.39293,38.8132,133],[-90.39295,38.81317,133],[-90.39298,38.81314,133],[-90.393,38.81312,133],[-90.39302,38.8131,133],[-90.39305,38.81308,133],[-90.39308,38.81306,132],[-90.39311,38.81304,133],[-90.39313,38.81302,133],[-90.39316,38.813,133],[-90.3932,38.81298,133],[-90.39323,38.81296,133],[-90.39327,38.81294,133],[-90.39329,38.81292,133],[-90.39332,38.8129,134],[-90.39336,38.81288,134],[-90.39339,38.81286,134],[-90.39342,38.81284,134],[-90.39345,38.81282,134],[-90.39348,38.81281,134],[-90.39351,38.81279,134],[-90.39354,38.81278,134],[-90.39358,38.81276,134],[-90.39361,38.81275,134],[-90.39364,38.81273,134],[-90.39368,38.81271,134],[-90.39371,38.8127,134],[-90.39374,38.81269,134],[-90.39377,38.81267,134],[-90.3938,38.81265,135],[-90.39383,38.81263,135],[-90.39386,38.81261,135],[-90.3939,38.81259,135],[-90.39392,38.81257,136],[-90.39394,38.81254,136],[-90.39397,38.81251,136],[-90.394,38.81249,137],[-90.39402,38.81247,137],[-90.39404,38.81244,137],[-90.39407,38.81242,137],[-90.3941,38.8124,137],[-90.39413,38.81238,137],[-90.39415,38.81235,137],[-90.39418,38.81233,137],[-90.39421,38.81231,137],[-90.39424,38.81229,137],[-90.39426,38.81226,137],[-90.39428,38.81224,137],[-90.39431,38.81222,138],[-90.39435,38.8122,138],[-90.39438,38.81218,138],[-90.3944,38.81216,138]]],
        "bbox": [
          -90.38752,
          38.81774,
          -90.39503,
          38.81112
        ]
      },
      "properties": {
        "name": "6.4.2022"
      }
    }
  ]
}