{
  "type": "FeatureCollection",
  "features": [
    {
      "type": "Feature",
      "geometry": {
        "type": "MultiLineString",
        "coordinates": [[[-90.39084,38.81093,138],[-90.39085,38.81097,139],[-90.39086,38.81101,139],[-90.39085,38.81104,140],[-90.39084,38.81107,140],[-90.39083,38.8111,140],[-90.39084,38.81113,141],[-90.39083,38.81117,141],[-90.39082,38.81121,141],[-90.3908,38.81124,141],[-90.39078,38.81125,142],[-90.39075,38.81127,142],[-90.39071,38.81128,142],[-90.39067,38.8113,142],[-90.39064,38.81131,142],[-90.3906,38.81131,142],[-90.39056,38.81131,142],[-90.39052,38.8113,142],[-90.39049,38.81128,142],[-90.39046,38.81126,142],[-90.39043,38.81125,142],[-90.39039,38.81123,142],[-90.39036,38.81122,142],[-90.39033,38.81121,142],[-90.39028,38.81121,142],[-90.39024,38.81122,143],[-90.3902,38.81122,143],[-90.39016,38.81121,144],[-90.39011,38.81121,145],[-90.39007,38.8112,145],[-90.39003,38.8112,146],[-90.38998,38.8112,146],[-90.38994,38.81119,147],[-90.3899,38.81119,147],[-90.38986,38.81121,148],[-90.38983,38.81124,148],[-90.38979,38.81125,149],[-90.38975,38.81124,150],[-90.38971,38.81123,150],[-90.38966,38.81122,150],[-90.38963,38.81122,151],[-90.38958,38.81122,151],[-90.38955,38.81124,151],[-90.38953,38.81126,151],[-90.38951,38.81129,151],[-90.3895,38.81132,151],[-90.38947,38.81135,151],[-90.38944,38.81138,152],[-90.38942,38.81141,152],[-90.38938,38.81142,152],[-90.38933,38.81142,152],[-90.38929,38.81142,152],[-90.38926,38.81143,152],[-90.38923,38.81146,152],[-90.3892,38.81148,152],[-90.38917,38.81151,152],[-90.38914,38.81153,152],[-90.3891,38.81155,153],[-90.38907,38.81157,154],[-90.38904,38.81158,155],[-90.389,38.81159,156],[-90.38896,38.8116,157],[-90.38893,38.81162,158],[-90.38889,38.81163,159],[-90.38884,38.81163,160],[-90.38881,38.81164,161],[-90.3888,38.81168,161],[-90.38879,38.81171,161],[-90.38875,38.81172,161],[-90.38873,38.81174,162],[-90.3887,38.81177,162],[-90.38867,38.8118,162],[-90.38865,38.81183,162],[-90.38863,38.81186,162],[-90.38862,38.81189,162],[-90.38862,38.81192,162],[-90.38865,38.81195,161],[-90.38868,38.81197,161],[-90.38871,38.81199,160],[-90.38873,38.81201,160],[-90.38875,38.81204,160],[-90.38879,38.81205,160],[-90.38882,38.81206,160],[-90.38884,38.81209,160],[-90.38884,38.81212,160],[-90.38885,38.81216,161],[-90.38884,38.81219,161],[-90.38882,38.81222,162],[-90.3888,38.81225,162],[-90.38879,38.81227,163],[-90.38878,38.8123,163],[-90.38875,38.81233,164],[-90.38872,38.81235,165],[-90.38869,38.81236,165],[-90.38868,38.81239,166],[-90.38867,38.81242,166],[-90.38865,38.81245,167],[-90.38867,38.81247,167],[-90.38868,38.81251,167],[-90.38867,38.81254,168],[-90.38866,38.81257,168],[-90.38865,38.8126,168],[-90.38863,38.81263,169],[-90.38862,38.81265,169],[-90.38859,38.81268,170],[-90.38856,38.81269,171],[-90.38852,38.81271,172],[-90.38849,38.81274,174],[-90.38846,38.81275,175],[-90.38842,38.81276,176],[-90.38839,38.81278,177],[-90.38835,38.8128,179],[-90.38832,38.81281,180],[-90.38828,38.81281,181],[-90.38824,38.81281,183],[-90.38821,38.81282,184],[-90.38818,38.81284,185],[-90.38814,38.81286,186],[-90.38811,38.81286,187],[-90.38809,38.81289,188],[-90.38811,38.81292,188],[-90.38811,38.81294,188],[-90.3881,38.81297,189],[-90.3881,38.813,189],[-90.3881,38.81303,189],[-90.38808,38.81307,190],[-90.38807,38.81309,191],[-90.38806,38.81312,192],[-90.38805,38.81315,192],[-90.38803,38.81318,193],[-90.38801,38.8132,193],[-90.38799,38.81323,194],[-90.38797,38.81326,194],[-90.38795,38.81328,195],[-90.38794,38.81331,195],[-90.38791,38.81333,195],[-90.38788,38.81335,196],[-90.38785,38.81336,196],[-90.38781,38.81337,196],[-90.38777,38.81337,196],[-90.38773,38.81336,195],[-90.38769,38.81336,195],[-90.38765,38.81335,195],[-90.38762,38.81337,195],[-90.38763,38.81341,195],[-90.38764,38.81344,195],[-90.38764,38.81347,195],[-90.38764,38.8135,196],[-90.38763,38.81353,196],[-90.38762,38.81356,196],[-90.38761,38.81359,196],[-90.38761,38.81362,196],[-90.38759,38.81365,197],[-90.38758,38.81369,197],[-90.38757,38.81372,197],[-90.38756,38.81374,198],[-90.38755,38.81377,198],[-90.38754,38.81381,198],[-90.38754,38.81384,199],[-90.38756,38.81387,199],[-90.38759,38.81389,199],[-90.38762,38.8139,200],[-90.38766,38.81392,200],[-90.3877,38.81394,200],[-90.38774,38.81395,200],[-90.38778,38.81395,199],[-90.38782,38.81395,199],[-90.38786,38.81394,199],[-90.3879,38.81394,199],[-90.38794,38.81394,199],[-90.38798,38.81394,199],[-90.38802,38.81393,199],[-90.38806,38.81393,199],[-90.3881,38.81392,198],[-90.38815,38.81392,198],[-90.38819,38.81392,198],[-90.38822,38.81393,198],[-90.38826,38.81394,198],[-90.38829,38.81396,198],[-90.38832,38.81397,198],[-90.38837,38.81399,198],[-90.38841,38.814,197],[-90.38845,38.81401,197],[-90.38849,38.81403,197],[-90.38852,38.81405,196],[-90.38856,38.81407,196],[-90.38859,38.81408,196],[-90.38863,38.81409,196],[-90.38867,38.8141,195],[-90.38872,38.81411,195],[-90.38876,38.81412,194],[-90.3888,38.81413,193],[-90.38884,38.81415,193],[-90.38888,38.81416,193],[-90.38892,38.81417,192],[-90.38897,38.81418,192],[-90.38901,38.81418,192],[-90.38905,38.81419,192],[-90.38909,38.8142,192],[-90.38912,38.81421,192],[-90.38916,38.81422,192],[-90.3892,38.81423,192],[-90.38924,38.81425,191],[-90.38928,38.81425,190],[-90.38932,38.81427,190],[-90.38935,38.81429,190],[-90.38939,38.81431,189],[-90.38942,38.81432,189],[-90.38945,38.81434,189],[-90.38949,38.81436,189],[-90.38952,38.81438,188],[-90.38955,38.81441,189],[-90.38956,38.81445,189],[-90.38956,38.81448,189],[-90.38956,38.81451,190],[-90.38956,38.81455,190],[-90.38955,38.81459,190],[-90.38955,38.81462,190],[-90.38955,38.81465,190],[-90.38955,38.81468,191],[-90.38955,38.81471,191],[-90.38954,38.81475,191],[-90.38955,38.81479,190],[-90.38956,38.81482,190],[-90.38956,38.81486,189],[-90.38958,38.81489,189],[-90.38959,38.81492,189],[-90.3896,38.81495,189],[-90.38964,38.81497,189],[-90.38967,38.81499,188],[-90.38971,38.81501,188],[-90.38974,38.81504,188],[-90.38978,38.81506,187],[-90.3898,38.81509,186],[-90.38982,38.81511,186],[-90.38984,38.81513,186],[-90.38987,38.81515,185],[-90.3899,38.81518,184],[-90.38994,38.81521,183],[-90.38997,38.81522,183],[-90.39001,38.81524,182],[-90.39005,38.81525,182],[-90.39009,38.81527,182],[-90.39011,38.81529,181],[-90.39014,38.81531,181],[-90.39019,38.81532,181],[-90.39023,38.81534,181],[-90.39027,38.81535,180],[-90.39031,38.81536,181],[-90.39034,38.81538,181],[-90.39038,38.81539,181],[-90.39043,38.81541,181],[-90.39046,38.81542,181],[-90.39049,38.81543,182],[-90.39053,38.81544,182],[-90.39057,38.81545,182],[-90.3906,38.81545,183],[-90.39064,38.81546,183],[-90.39068,38.81547,183],[-90.39072,38.81548,184],[-90.39075,38.81548,184],[-90.3908,38.81549,185],[-90.39083,38.81549,185],[-90.39087,38.81549,185],[-90.39092,38.81547,185],[-90.39096,38.81546,185],[-90.391,38.81545,186],[-90.39103,38.81543,186],[-90.39107,38.81542,186],[-90.3911,38.81541,186],[-90.39115,38.81541,186],[-90.3912,38.81542,186],[-90.39124,38.81543,185],[-90.39128,38.81543,185],[-90.39132,38.81543,185],[-90.39135,38.81543,185],[-90.39139,38.81544,185],[-90.39144,38.81546,184],[-90.39147,38.81547,184],[-90.39151,38.81549,183],[-90.39154,38.81551,183],[-90.39157,38.81553,183],[-90.3916,38.81556,183],[-90.39163,38.81558,182],[-90.39166,38.81561,182],[-90.39169,38.81563,181],[-90.39173,38.81565,180],[-90.39176,38.81567,179],[-90.3918,38.81568,178],[-90.39185,38.81567,177],[-90.39189,38.81567,176],[-90.39192,38.81569,175],[-90.39195,38.81567,175],[-90.39195,38.81563,175],[-90.39194,38.8156,177],[-90.39195,38.81557,177],[-90.39194,38.81554,178],[-90.39195,38.81552,177],[-90.39196,38.81548,176],[-90.39196,38.81544,176],[-90.39195,38.81541,176],[-90.39194,38.81538,176],[-90.39193,38.81535,176],[-90.39192,38.81532,176],[-90.39191,38.8153,176],[-90.39191,38.81527,176],[-90.39192,38.81524,174],[-90.39193,38.81521,173],[-90.39193,38.81517,172],[-90.39194,38.81513,170],[-90.39194,38.8151,169],[-90.39195,38.81507,168],[-90.39193,38.81504,167],[-90.39192,38.81502,167],[-90.39191,38.81499,167],[-90.39188,38.81496,167],[-90.39186,38.81494,168],[-90.39187,38.8149,167],[-90.39189,38.81487,166],[-90.3919,38.81483,165],[-90.39189,38.8148,165],[-90.39187,38.81477,165],[-90.39186,38.81474,165],[-90.39186,38.81471,165],[-90.39186,38.81468,164],[-90.39186,38.81464,164],[-90.39185,38.81462,164],[-90.39183,38.81459,164],[-90.39181,38.81456,164],[-90.3918,38.81453,164],[-90.39179,38.8145,164],[-90.39178,38.81447,164],[-90.39177,38.81444,163],[-90.39176,38.81441,163],[-90.39176,38.81439,162],[-90.39175,38.81436,162],[-90.39176,38.81433,161],[-90.39177,38.8143,160],[-90.39177,38.81427,159],[-90.39178,38.81425,158],[-90.39181,38.81424,157],[-90.39183,38.81421,156],[-90.39184,38.81418,154],[-90.39186,38.81416,153],[-90.39187,38.81413,152],[-90.39189,38.8141,150],[-90.39192,38.81409,148],[-90.39196,38.81409,148],[-90.392,38.81409,147],[-90.39204,38.81409,147],[-90.39208,38.81407,146],[-90.39212,38.81407,145],[-90.39216,38.81407,145],[-90.39216,38.81409,146],[-90.39213,38.81412,148],[-90.39209,38.81413,149],[-90.39205,38.81415,150],[-90.39202,38.81416,151],[-90.39198,38.81417,151],[-90.39195,38.81418,152],[-90.39193,38.8142,153],[-90.39192,38.81423,154],[-90.39191,38.81426,155],[-90.3919,38.81429,156],[-90.39188,38.81431,157],[-90.39187,38.81434,158],[-90.39186,38.81436,159],[-90.39186,38.81439,159],[-90.39186,38.81442,160],[-90.39186,38.81445,161],[-90.39188,38.81448,161],[-90.39189,38.8145,161],[-90.39189,38.81453,161],[-90.3919,38.81456,161],[-90.39193,38.81457,161],[-90.39196,38.81459,160],[-90.39199,38.81463,160],[-90.39199,38.81466,161],[-90.39199,38.81469,161],[-90.39199,38.81472,162],[-90.39199,38.81475,162],[-90.39199,38.81478,162],[-90.392,38.8148,162],[-90.39201,38.81483,162],[-90.392,38.81487,163],[-90.39198,38.81489,163],[-90.39196,38.81492,164],[-90.39197,38.81495,164],[-90.39199,38.81498,164],[-90.39201,38.815,164],[-90.39202,38.81503,165],[-90.39204,38.81506,165],[-90.39205,38.81509,166],[-90.39204,38.81513,168],[-90.39203,38.81516,169],[-90.39203,38.81519,170],[-90.39202,38.81522,171],[-90.39201,38.81525,173],[-90.392,38.81528,174],[-90.392,38.81531,174],[-90.39201,38.81535,174],[-90.39202,38.81538,174],[-90.39203,38.81541,173],[-90.39204,38.81544,173],[-90.39205,38.81548,173],[-90.39204,38.81551,173],[-90.39203,38.81553,174],[-90.39202,38.81556,174],[-90.39202,38.81559,173],[-90.39199,38.81562,174],[-90.39198,38.81565,174],[-90.39197,38.81568,174],[-90.39195,38.81571,174],[-90.39191,38.81571,175],[-90.39186,38.81572,176],[-90.39183,38.81572,177],[-90.39179,38.81573,177],[-90.39177,38.81575,178],[-90.39178,38.81579,177],[-90.39179,38.81581,176],[-90.3918,38.81585,175],[-90.3918,38.81588,175],[-90.3918,38.81591,174],[-90.39181,38.81594,173],[-90.3918,38.81597,173],[-90.39178,38.816,173],[-90.39177,38.81604,172],[-90.39176,38.81607,172],[-90.39175,38.8161,171],[-90.39176,38.81613,170],[-90.39176,38.81616,169],[-90.39176,38.81619,168],[-90.39175,38.81622,167],[-90.39173,38.81626,166],[-90.39171,38.81629,166],[-90.3917,38.81632,165],[-90.3917,38.81635,164],[-90.39169,38.81638,163],[-90.39166,38.8164,163],[-90.39164,38.81643,163],[-90.39162,38.81646,163],[-90.3916,38.81648,162],[-90.39158,38.81651,162],[-90.39157,38.81654,161],[-90.39155,38.81657,161],[-90.39152,38.8166,161],[-90.39148,38.81662,161],[-90.39145,38.81664,161],[-90.39142,38.81666,161],[-90.39139,38.81668,161],[-90.39137,38.81671,160],[-90.39135,38.81673,160],[-90.39132,38.81675,160],[-90.39131,38.81678,159],[-90.39128,38.8168,159],[-90.39125,38.81682,159],[-90.39122,38.81683,159],[-90.3912,38.81686,158],[-90.39116,38.81686,159],[-90.39113,38.81684,160],[-90.39111,38.81682,161],[-90.39108,38.8168,162],[-90.39105,38.81678,163],[-90.39102,38.81677,163],[-90.39099,38.81675,164],[-90.39095,38.81673,165],[-90.39091,38.81673,165],[-90.39089,38.81676,164],[-90.39089,38.81679,164],[-90.39088,38.81681,164],[-90.39085,38.81684,163],[-90.39083,38.81686,163],[-90.3908,38.81689,163],[-90.39076,38.81689,163],[-90.39073,38.81687,164],[-90.39069,38.81688,164],[-90.39066,38.8169,164],[-90.39063,38.81691,164],[-90.39061,38.81694,164],[-90.39057,38.81696,164],[-90.39054,38.81698,163],[-90.39054,38.81701,163],[-90.39057,38.81703,161],[-90.39059,38.81706,160],[-90.3906,38.81708,159],[-90.39059,38.81711,159],[-90.39058,38.81714,158],[-90.39059,38.81717,157],[-90.39056,38.81719,157],[-90.39056,38.81722,156],[-90.39059,38.81721,155],[-90.39062,38.81723,154],[-90.39058,38.81724,154],[-90.39057,38.81727,154],[-90.39054,38.81729,153],[-90.39057,38.8173,152],[-90.39059,38.81733,151],[-90.39062,38.81731,151],[-90.39063,38.81734,150],[-90.39062,38.81737,149],[-90.3906,38.8174,148],[-90.39058,38.81743,148],[-90.39056,38.81746,147],[-90.39054,38.81748,146],[-90.39051,38.81747,147],[-90.3905,38.81744,148],[-90.39052,38.8174,149],[-90.39053,38.81737,150],[-90.39052,38.81735,151],[-90.39049,38.81733,152],[-90.39046,38.81732,153],[-90.39043,38.8173,153],[-90.39043,38.81727,154],[-90.39046,38.81725,155],[-90.39046,38.81723,156],[-90.39045,38.8172,157],[-90.39044,38.81717,158],[-90.39044,38.81714,159],[-90.39043,38.81711,160],[-90.39046,38.81709,160],[-90.39048,38.81707,161],[-90.39047,38.81704,162],[-90.39045,38.81701,163],[-90.39043,38.81699,164],[-90.39043,38.81696,165],[-90.39043,38.81693,166],[-90.39041,38.81689,166],[-90.39044,38.81688,166],[-90.39048,38.81687,166],[-90.39051,38.81685,166],[-90.39054,38.81683,166],[-90.39058,38.81681,166],[-90.39062,38.8168,166],[-90.39065,38.81679,166],[-90.39069,38.81678,165],[-90.39073,38.81678,165],[-90.39077,38.81678,165],[-90.39081,38.81677,165],[-90.39081,38.81674,165],[-90.39084,38.81673,165],[-90.39085,38.8167,166],[-90.39089,38.81669,166],[-90.39093,38.81669,166],[-90.39096,38.8167,165],[-90.39101,38.8167,165],[-90.39105,38.81671,165],[-90.39109,38.81671,164],[-90.39113,38.81672,164],[-90.39114,38.81675,163],[-90.39116,38.81677,162],[-90.39119,38.81679,161],[-90.39118,38.81676,162],[-90.3912,38.81674,162],[-90.39124,38.81673,162],[-90.39126,38.81671,162],[-90.39128,38.81669,162],[-90.39131,38.81666,163],[-90.39134,38.81664,163],[-90.39136,38.81661,164],[-90.39139,38.8166,164],[-90.39143,38.81658,163],[-90.39145,38.81656,164],[-90.39147,38.81653,164],[-90.3915,38.8165,164],[-90.39151,38.81648,165],[-90.39153,38.81645,165],[-90.39155,38.81642,165],[-90.39157,38.81639,166],[-90.39158,38.81637,166],[-90.39161,38.81635,166],[-90.39163,38.81632,167],[-90.39164,38.81629,168],[-90.39165,38.81626,168],[-90.39166,38.81623,169],[-90.39167,38.8162,170],[-90.39168,38.81618,171],[-90.39169,38.81615,171],[-90.39169,38.81611,173],[-90.39169,38.81608,173],[-90.3917,38.81604,174],[-90.39171,38.81602,174],[-90.39172,38.81598,175],[-90.39173,38.81595,175],[-90.39173,38.81592,176],[-90.39172,38.81589,177],[-90.39172,38.81585,178],[-90.39172,38.81582,178],[-90.39172,38.81579,178],[-90.3917,38.81576,179],[-90.3917,38.81573,180],[-90.3917,38.81569,180],[-90.39173,38.81566,180],[-90.39179,38.81566,179],[-90.39182,38.81566,178],[-90.39186,38.81566,177],[-90.3919,38.81568,176],[-90.39194,38.81567,175],[-90.39194,38.81563,176],[-90.39194,38.8156,177],[-90.39194,38.81558,177],[-90.39195,38.81555,177],[-90.39194,38.81552,177],[-90.39195,38.81549,177],[-90.39195,38.81545,176],[-90.39193,38.81542,177],[-90.39192,38.81539,177],[-90.39192,38.81536,176],[-90.3919,38.81533,177],[-90.3919,38.81529,176],[-90.39189,38.81526,176],[-90.3919,38.81523,175],[-90.39191,38.8152,173],[-90.39192,38.81516,172],[-90.39193,38.81513,171],[-90.39194,38.8151,169],[-90.39194,38.81507,168],[-90.39193,38.81504,167],[-90.39191,38.81501,167],[-90.3919,38.81498,167],[-90.39187,38.81495,168],[-90.39186,38.81493,168],[-90.39186,38.8149,167],[-90.39187,38.81487,167],[-90.39189,38.81484,165],[-90.39189,38.81481,165],[-90.39188,38.81477,165],[-90.39187,38.81474,165],[-90.39186,38.81471,165],[-90.39186,38.81469,164],[-90.39186,38.81466,164],[-90.39186,38.81462,163],[-90.39184,38.8146,164],[-90.39181,38.81457,164],[-90.39179,38.81454,164],[-90.39179,38.8145,164],[-90.39178,38.81447,164],[-90.39178,38.81443,163],[-90.39177,38.8144,162],[-90.39177,38.81437,161],[-90.39176,38.81434,161],[-90.39177,38.8143,160],[-90.39178,38.81428,159],[-90.39178,38.81425,158],[-90.39181,38.81423,157],[-90.39183,38.81421,156],[-90.39184,38.81418,154],[-90.39186,38.81416,153],[-90.39188,38.81413,151],[-90.39188,38.8141,150],[-90.39192,38.81409,148],[-90.39196,38.81409,148],[-90.392,38.81409,147],[-90.39205,38.81408,146],[-90.39209,38.81407,145],[-90.39213,38.81406,144],[-90.39217,38.81406,144],[-90.3922,38.81404,143],[-90.39218,38.81402,141],[-90.39214,38.81401,141],[-90.39211,38.81399,141],[-90.39207,38.81398,140],[-90.39204,38.81397,140],[-90.39201,38.81395,140],[-90.39198,38.81392,138],[-90.39194,38.8139,138],[-90.39191,38.81388,139],[-90.39187,38.81386,140],[-90.39184,38.81385,141],[-90.3918,38.81383,142],[-90.39177,38.81381,143],[-90.39174,38.81379,144],[-90.39171,38.81376,144],[-90.39169,38.81373,144],[-90.39166,38.8137,144],[-90.39163,38.81368,145],[-90.39161,38.81365,145],[-90.39159,38.81361,145],[-90.39157,38.81358,145],[-90.39156,38.81354,146],[-90.39156,38.81352,146],[-90.39155,38.81348,147],[-90.39155,38.81345,147],[-90.39154,38.81341,148],[-90.39153,38.81339,148],[-90.3915,38.81336,149],[-90.39146,38.81334,149],[-90.39143,38.81334,150],[-90.39138,38.81333,151],[-90.39135,38.81331,151],[-90.39131,38.81328,151],[-90.39128,38.81326,152],[-90.39126,38.81324,152],[-90.39123,38.81321,152],[-90.3912,38.81318,153],[-90.39118,38.81315,153],[-90.39115,38.81311,153],[-90.39114,38.81308,153],[-90.39113,38.81305,153],[-90.39112,38.81302,152],[-90.3911,38.81298,152],[-90.39108,38.81295,151],[-90.39105,38.81292,151],[-90.39104,38.81289,150],[-90.39103,38.81286,150],[-90.39102,38.81283,149],[-90.391,38.8128,149],[-90.39099,38.81277,148],[-90.39099,38.81274,147],[-90.39098,38.81271,147],[-90.39097,38.81267,146],[-90.39096,38.81264,145],[-90.39096,38.81261,145],[-90.39095,38.81258,144],[-90.39095,38.81254,143],[-90.39095,38.81251,142],[-90.39094,38.81248,143],[-90.39093,38.81245,144],[-90.39092,38.81241,145],[-90.3909,38.81238,146],[-90.39088,38.81235,146],[-90.39087,38.81231,147],[-90.39086,38.81228,148],[-90.39084,38.81225,149],[-90.39083,38.81222,149],[-90.39082,38.81218,149],[-90.39082,38.81216,149],[-90.39081,38.81213,149],[-90.39081,38.8121,149],[-90.39082,38.81207,149],[-90.39085,38.81204,149],[-90.39086,38.812,149],[-90.39087,38.81197,149],[-90.39088,38.81194,149],[-90.39087,38.8119,148],[-90.39087,38.81187,148],[-90.39087,38.81184,148],[-90.39087,38.81181,148],[-90.39088,38.81177,147],[-90.39088,38.81174,147],[-90.3909,38.8117,146],[-90.39092,38.81167,146],[-90.39096,38.81165,145],[-90.39099,38.81162,145],[-90.39103,38.8116,144],[-90.39105,38.81157,144],[-90.39106,38.81154,143],[-90.39106,38.81151,143],[-90.39105,38.81148,142],[-90.39104,38.81145,142],[-90.39102,38.81142,142],[-90.39099,38.81139,141],[-90.39096,38.81137,141],[-90.39093,38.81135,141],[-90.3909,38.81133,142],[-90.39087,38.8113,142],[-90.39085,38.81127,142],[-90.39082,38.81124,141],[-90.39081,38.81122,141],[-90.3908,38.81118,141],[-90.3908,38.81114,141],[-90.39081,38.81112,141],[-90.39083,38.81111,141]]],
        "bbox": [
          -90.38754,
          38.81748,
          -90.3922,
          38.81093
        ]
      },
      "properties": {
        "name": "3.20.2023"
      }
    }
  ]
}