{
  "type": "FeatureCollection",
  "features": [
    {
      "type": "Feature",
      "geometry": {
        "type": "MultiLineString",
        "coordinates": [[[-90.39487,38.81172,133],[-90.39483,38.81173,134],[-90.3948,38.81171,134],[-90.39481,38.81168,133],[-90.39484,38.8117,133],[-90.39486,38.81173,134],[-90.39484,38.81176,134],[-90.39481,38.81178,134],[-90.39479,38.81181,135],[-90.39479,38.81184,135],[-90.39477,38.81187,135],[-90.39474,38.81189,136],[-90.3947,38.81192,136],[-90.39467,38.81194,137],[-90.39464,38.81197,137],[-90.39462,38.81199,137],[-90.39459,38.81201,137],[-90.39455,38.81204,137],[-90.39452,38.81205,137],[-90.39449,38.81208,137],[-90.39446,38.81209,137],[-90.39443,38.81207,138],[-90.39445,38.8121,137],[-90.39442,38.81212,138],[-90.39439,38.81214,138],[-90.39436,38.81217,138],[-90.39433,38.81219,138],[-90.39429,38.81222,138],[-90.39427,38.81224,137],[-90.39423,38.81227,137],[-90.3942,38.81229,137],[-90.39417,38.81232,137],[-90.39413,38.81235,137],[-90.3941,38.81236,137],[-90.39412,38.81239,137],[-90.39409,38.81239,137],[-90.39412,38.8124,137],[-90.3941,38.81243,137],[-90.39407,38.81244,137],[-90.39402,38.81244,137],[-90.39399,38.81246,137],[-90.39395,38.81248,137],[-90.39392,38.8125,137],[-90.39389,38.81253,136],[-90.39386,38.81255,136],[-90.39383,38.81257,136],[-90.39379,38.81258,135],[-90.39376,38.81259,135],[-90.39374,38.81262,135],[-90.39372,38.81264,135],[-90.39368,38.81266,134],[-90.39364,38.81267,134],[-90.39361,38.81269,134],[-90.39359,38.81272,134],[-90.39355,38.81274,134],[-90.39351,38.81276,134],[-90.39347,38.81279,134],[-90.39343,38.8128,134],[-90.3934,38.81283,134],[-90.39338,38.81285,134],[-90.39335,38.81287,134],[-90.39332,38.8129,134],[-90.39328,38.81292,133],[-90.39325,38.81294,133],[-90.39321,38.81296,133],[-90.39318,38.81298,133],[-90.39315,38.81301,133],[-90.39313,38.81304,133],[-90.3931,38.81307,132],[-90.39306,38.81309,132],[-90.39304,38.81312,133],[-90.39302,38.81314,133],[-90.393,38.81316,133],[-90.39296,38.81319,133],[-90.39293,38.81321,133],[-90.39289,38.81324,133],[-90.39285,38.81325,134],[-90.39281,38.81327,134],[-90.39279,38.81329,134],[-90.39274,38.81331,135],[-90.3927,38.81333,135],[-90.39268,38.81335,135],[-90.39265,38.81336,136],[-90.39261,38.81336,136],[-90.39257,38.81334,136],[-90.39254,38.81333,136],[-90.39249,38.81332,137],[-90.39246,38.81331,137],[-90.39242,38.8133,137],[-90.39239,38.81327,137],[-90.39236,38.81324,137],[-90.39232,38.81321,137],[-90.39229,38.81319,137],[-90.39227,38.81318,137],[-90.39224,38.81316,137],[-90.39221,38.81315,137],[-90.39217,38.81313,137],[-90.39214,38.81311,138],[-90.3921,38.81309,138],[-90.39208,38.81307,138],[-90.39205,38.81305,138],[-90.39202,38.81303,138],[-90.39199,38.81302,138],[-90.392,38.81304,138],[-90.39204,38.81307,138],[-90.39207,38.81309,138],[-90.3921,38.81311,138],[-90.39214,38.81313,138],[-90.39216,38.81315,138],[-90.39219,38.81318,138],[-90.3922,38.8132,138],[-90.39222,38.81323,138],[-90.39226,38.81325,138],[-90.39229,38.81328,138],[-90.39232,38.8133,138],[-90.39237,38.81332,137],[-90.3924,38.81334,137],[-90.39244,38.81336,137],[-90.39247,38.81338,137],[-90.39251,38.81339,137],[-90.39253,38.81341,137],[-90.39257,38.81342,137],[-90.39259,38.81345,137],[-90.39257,38.81348,137],[-90.39255,38.81351,138],[-90.39254,38.81354,138],[-90.39252,38.81356,138],[-90.39251,38.8136,138],[-90.3925,38.81363,138],[-90.39249,38.81366,138],[-90.39248,38.81369,138],[-90.39246,38.81372,138],[-90.39245,38.81375,138],[-90.39244,38.81377,137],[-90.39243,38.81381,137],[-90.39241,38.81385,136],[-90.39239,38.81387,136],[-90.39237,38.8139,136],[-90.39236,38.81393,137],[-90.39233,38.81396,138],[-90.3923,38.81398,139],[-90.39226,38.814,140],[-90.39223,38.81402,141],[-90.39219,38.81402,141],[-90.39217,38.814,140],[-90.39213,38.81398,140],[-90.3921,38.81396,139],[-90.39207,38.81395,139],[-90.39203,38.81393,138],[-90.39199,38.81391,138],[-90.39196,38.81389,137],[-90.39193,38.81386,138],[-90.3919,38.81383,139],[-90.39187,38.81381,140],[-90.39186,38.81378,141],[-90.39186,38.81375,141],[-90.39186,38.81378,141],[-90.39183,38.8138,142],[-90.39178,38.81378,143],[-90.39174,38.81377,144],[-90.39171,38.81375,144],[-90.39169,38.81372,144],[-90.39168,38.81369,144],[-90.39166,38.81366,143],[-90.39163,38.81364,144],[-90.39161,38.81362,144],[-90.39159,38.81358,145],[-90.39159,38.81354,145],[-90.39159,38.81351,146],[-90.39158,38.81347,146],[-90.39156,38.81343,147],[-90.39155,38.81341,147],[-90.39152,38.81338,148],[-90.39149,38.81335,149],[-90.39146,38.81333,150],[-90.39144,38.81331,150],[-90.39141,38.81329,150],[-90.39138,38.81326,150],[-90.39134,38.81325,151],[-90.39132,38.81323,151],[-90.39131,38.81319,151],[-90.39128,38.81317,151],[-90.39124,38.81315,152],[-90.3912,38.81313,153],[-90.39118,38.81311,153],[-90.39114,38.81309,153],[-90.39113,38.81306,153],[-90.39113,38.81302,152],[-90.39112,38.81299,152],[-90.3911,38.81296,151],[-90.39109,38.81293,151],[-90.39109,38.8129,150],[-90.39107,38.81287,149],[-90.39106,38.81284,149],[-90.39104,38.81281,148],[-90.39102,38.81278,148],[-90.39101,38.81274,147],[-90.391,38.81271,147],[-90.39099,38.81268,146],[-90.39099,38.81265,145],[-90.39098,38.81261,144],[-90.39098,38.81258,144],[-90.39098,38.81255,143],[-90.39098,38.81252,142],[-90.39097,38.81249,142],[-90.39097,38.81246,143],[-90.39095,38.81243,144],[-90.39092,38.8124,145],[-90.39091,38.81237,146],[-90.39089,38.81234,147],[-90.39088,38.81231,147],[-90.39087,38.81228,148],[-90.39087,38.81225,149],[-90.39084,38.81223,149],[-90.39083,38.8122,149],[-90.39082,38.81217,149],[-90.39083,38.81213,149],[-90.39085,38.81211,149],[-90.39087,38.81207,149],[-90.39089,38.81204,149],[-90.39089,38.81201,149],[-90.39091,38.81198,149],[-90.39091,38.81195,149],[-90.39091,38.81191,149],[-90.39091,38.81188,149],[-90.39091,38.81184,148],[-90.39091,38.81181,148],[-90.39092,38.81178,147],[-90.39093,38.81174,147],[-90.39096,38.81171,146],[-90.39098,38.81169,146],[-90.39101,38.81166,145],[-90.39103,38.81164,145],[-90.39106,38.81161,144],[-90.39107,38.81158,144],[-90.39107,38.81155,143],[-90.39106,38.81153,143],[-90.39105,38.81149,142],[-90.39103,38.81147,142],[-90.391,38.81144,142],[-90.39097,38.81141,142],[-90.39095,38.81139,142],[-90.39093,38.81136,142],[-90.3909,38.81134,142],[-90.39087,38.81131,142],[-90.39086,38.81128,141],[-90.39084,38.81125,141],[-90.39082,38.81123,141],[-90.39078,38.81121,141],[-90.39075,38.81121,141],[-90.3907,38.81121,142],[-90.39067,38.81123,142],[-90.39063,38.81124,142],[-90.3906,38.81125,142],[-90.39058,38.81127,142],[-90.39054,38.81127,142],[-90.39051,38.81125,142],[-90.39048,38.81123,142],[-90.39044,38.81122,142],[-90.3904,38.8112,142],[-90.39037,38.81119,142],[-90.39032,38.81118,142],[-90.39028,38.81118,142],[-90.39024,38.81118,143],[-90.3902,38.81118,144],[-90.39015,38.81118,144],[-90.39011,38.81117,145],[-90.39008,38.81117,145],[-90.39003,38.81117,146],[-90.38999,38.81116,146],[-90.38996,38.81115,147],[-90.38991,38.81115,148],[-90.38987,38.81116,148],[-90.38983,38.81117,149],[-90.38979,38.81117,149],[-90.38974,38.81117,150],[-90.38971,38.81117,150],[-90.38966,38.81116,151],[-90.38962,38.81115,151],[-90.38957,38.81116,151],[-90.38953,38.81118,151],[-90.38951,38.81121,151],[-90.3895,38.81124,151],[-90.38948,38.81126,151],[-90.38945,38.81129,151],[-90.38942,38.81132,152],[-90.38939,38.81135,152],[-90.38937,38.81136,152],[-90.38934,38.81138,152],[-90.38929,38.81137,152],[-90.38925,38.81137,152],[-90.38922,38.81139,152],[-90.38918,38.81141,152],[-90.38915,38.81143,152],[-90.38912,38.81145,153],[-90.3891,38.81147,153],[-90.38906,38.81148,154],[-90.38902,38.81149,155],[-90.38898,38.81149,156],[-90.38894,38.81151,157],[-90.3889,38.81152,158],[-90.38887,38.81154,159],[-90.38884,38.81153,160],[-90.38881,38.81152,160],[-90.38878,38.81153,161],[-90.38876,38.81156,161],[-90.38873,38.81158,162],[-90.3887,38.8116,163],[-90.38867,38.81163,163],[-90.38865,38.81166,164],[-90.38863,38.81168,164],[-90.38861,38.8117,164],[-90.38859,38.81173,164],[-90.38858,38.81177,164],[-90.38858,38.8118,163],[-90.38858,38.81184,163],[-90.38858,38.81186,163],[-90.38859,38.81189,162],[-90.3886,38.81192,162],[-90.38856,38.81191,163],[-90.38859,38.81194,162],[-90.38862,38.81194,161],[-90.38865,38.81196,161],[-90.38868,38.81198,161],[-90.38871,38.812,160],[-90.38872,38.81202,160],[-90.38872,38.81205,161],[-90.38876,38.81206,160],[-90.38877,38.81209,161],[-90.38877,38.81213,161],[-90.38877,38.81216,162],[-90.38877,38.81219,162],[-90.38875,38.81222,163],[-90.38874,38.81225,163],[-90.38872,38.81227,163],[-90.38868,38.81228,164],[-90.38865,38.8123,165],[-90.38864,38.81233,165],[-90.38862,38.81236,166],[-90.38862,38.81239,166],[-90.38863,38.81242,167],[-90.38862,38.81245,167],[-90.38861,38.81248,168],[-90.3886,38.81251,169],[-90.38857,38.81255,170],[-90.38856,38.81257,170],[-90.38854,38.8126,171],[-90.38852,38.81262,171],[-90.38849,38.81264,173],[-90.38845,38.81265,174],[-90.38842,38.81267,175],[-90.38839,38.81269,176],[-90.38836,38.81271,177],[-90.38833,38.81271,178],[-90.38832,38.81274,179],[-90.38828,38.81275,180],[-90.38825,38.81276,181],[-90.38822,38.81276,182],[-90.38818,38.81277,184],[-90.38813,38.81277,185],[-90.38809,38.81277,186],[-90.38805,38.81278,188],[-90.38804,38.81281,188],[-90.38804,38.81285,188],[-90.38804,38.81288,189],[-90.38803,38.81291,189],[-90.38803,38.81294,189],[-90.38802,38.81297,190],[-90.38801,38.813,190],[-90.38799,38.81303,191],[-90.38798,38.81306,191],[-90.38796,38.81309,192],[-90.38796,38.81312,192],[-90.38795,38.81316,193],[-90.38795,38.81319,193],[-90.38793,38.81322,194],[-90.38791,38.81324,194],[-90.38789,38.81327,195],[-90.38786,38.81328,195],[-90.38782,38.8133,195],[-90.38779,38.81331,195],[-90.38774,38.81331,195],[-90.38771,38.81332,195],[-90.38767,38.81332,195],[-90.38763,38.81332,194],[-90.3876,38.81331,194],[-90.38759,38.81333,194],[-90.38756,38.81332,194],[-90.38758,38.81335,194],[-90.38757,38.81338,194],[-90.38757,38.81342,195],[-90.38757,38.81346,195],[-90.38758,38.8135,195],[-90.38758,38.81355,196],[-90.38757,38.81358,196],[-90.38756,38.81361,196],[-90.38755,38.81364,196],[-90.38753,38.81367,197],[-90.38753,38.81369,197],[-90.38753,38.81373,197],[-90.38752,38.81375,198],[-90.38751,38.81379,198],[-90.3875,38.81381,198],[-90.3875,38.81384,199],[-90.38752,38.81388,199],[-90.38754,38.8139,200],[-90.38757,38.81391,200],[-90.3876,38.81393,200],[-90.38762,38.81396,200],[-90.38766,38.81397,200],[-90.3877,38.81397,200],[-90.38774,38.81396,200],[-90.38778,38.81395,199],[-90.38782,38.81394,199],[-90.38785,38.81393,199],[-90.38789,38.81392,199],[-90.38793,38.81392,199],[-90.38797,38.81392,199],[-90.38802,38.81393,199],[-90.38806,38.81394,199],[-90.3881,38.81395,199],[-90.38814,38.81395,198],[-90.38818,38.81396,198],[-90.38821,38.81397,198],[-90.38825,38.81398,198],[-90.38828,38.81399,198],[-90.38832,38.81401,198],[-90.38836,38.81403,198],[-90.3884,38.81405,198],[-90.38844,38.81405,197],[-90.38849,38.81406,197],[-90.38853,38.81407,197],[-90.38858,38.81408,196],[-90.38861,38.81409,196],[-90.38865,38.81411,196],[-90.38868,38.81412,195],[-90.38871,38.81414,195],[-90.38875,38.81415,194],[-90.3888,38.81416,194],[-90.38884,38.81417,193],[-90.38889,38.81417,192],[-90.38893,38.81418,192],[-90.38897,38.81419,192],[-90.38901,38.81419,192],[-90.38906,38.8142,192],[-90.3891,38.81422,192],[-90.38914,38.81424,192],[-90.38917,38.81426,192],[-90.38921,38.81428,191],[-90.38924,38.81429,191],[-90.38927,38.81432,191],[-90.38931,38.81435,190],[-90.38933,38.81436,190],[-90.38938,38.81438,190],[-90.38942,38.8144,189],[-90.38945,38.81441,189],[-90.38948,38.81444,189],[-90.3895,38.81447,189],[-90.3895,38.8145,190],[-90.38952,38.81453,190],[-90.38953,38.81455,190],[-90.38955,38.81458,190],[-90.38953,38.8146,190],[-90.38951,38.81463,190],[-90.38951,38.81466,190],[-90.38951,38.81469,191],[-90.38949,38.81473,191],[-90.38949,38.81476,190],[-90.38949,38.81479,190],[-90.38951,38.81483,190],[-90.38953,38.81486,189],[-90.38954,38.81489,189],[-90.38955,38.81492,189],[-90.38956,38.81495,188],[-90.38958,38.81498,188],[-90.3896,38.815,188],[-90.38962,38.81502,188],[-90.38965,38.81505,187],[-90.38967,38.81507,187],[-90.3897,38.81509,187],[-90.38973,38.81511,186],[-90.38976,38.81513,186],[-90.38979,38.81515,185],[-90.38983,38.81517,185],[-90.38986,38.81519,184],[-90.38989,38.81522,183],[-90.38993,38.81524,183],[-90.38996,38.81527,182],[-90.38998,38.81529,181],[-90.39002,38.81532,181],[-90.39006,38.81534,180],[-90.3901,38.81535,180],[-90.39014,38.81536,180],[-90.39018,38.81537,180],[-90.39022,38.81538,180],[-90.39025,38.81538,180],[-90.3903,38.81539,180],[-90.39033,38.8154,180],[-90.39037,38.81542,181],[-90.39041,38.81544,181],[-90.39045,38.81545,181],[-90.3905,38.81546,182],[-90.39054,38.81546,182],[-90.39057,38.81547,182],[-90.39061,38.81548,183],[-90.39064,38.81549,183],[-90.39067,38.81551,183],[-90.39072,38.81552,183],[-90.39075,38.81552,184],[-90.3908,38.81552,184],[-90.39085,38.81551,185],[-90.39089,38.8155,185],[-90.39093,38.8155,185],[-90.39098,38.81548,185],[-90.39101,38.81547,186],[-90.39105,38.81545,186],[-90.39109,38.81544,186],[-90.39114,38.81543,186],[-90.39118,38.81543,186],[-90.39122,38.81542,186],[-90.39127,38.81542,185],[-90.39131,38.81543,185],[-90.39135,38.81544,185],[-90.39138,38.81545,185],[-90.39142,38.81547,184],[-90.39145,38.81549,184],[-90.39148,38.81551,184],[-90.39151,38.81553,184],[-90.39154,38.81556,183],[-90.39156,38.81559,183],[-90.3916,38.81562,182],[-90.39162,38.81565,182],[-90.39164,38.81567,181],[-90.39168,38.81568,181],[-90.39172,38.81567,180],[-90.39172,38.8157,180],[-90.39175,38.81574,179],[-90.39175,38.81577,178],[-90.39175,38.8158,178],[-90.39176,38.81584,177],[-90.39176,38.81587,176],[-90.39176,38.8159,175],[-90.39175,38.81593,175],[-90.39175,38.81596,174],[-90.39174,38.816,174],[-90.39173,38.81603,173],[-90.39173,38.81606,173],[-90.39173,38.81609,172],[-90.39172,38.81612,172],[-90.39172,38.81616,170],[-90.39171,38.81619,170],[-90.3917,38.81622,169],[-90.39167,38.81625,168],[-90.39165,38.81628,168],[-90.39163,38.81631,167],[-90.39161,38.81634,166],[-90.3916,38.81637,166],[-90.39158,38.8164,165],[-90.39155,38.81642,165],[-90.39153,38.81644,165],[-90.3915,38.81647,165],[-90.39149,38.81649,165],[-90.39147,38.81652,164],[-90.39145,38.81655,164],[-90.39143,38.81657,164],[-90.39141,38.81659,164],[-90.39138,38.81662,163],[-90.39136,38.81664,163],[-90.39132,38.81666,163],[-90.39131,38.81668,162],[-90.39127,38.81669,162],[-90.39126,38.81672,162],[-90.39123,38.81674,162],[-90.3912,38.81675,162],[-90.39117,38.81677,162],[-90.39115,38.8168,161],[-90.39112,38.81681,161],[-90.39109,38.81682,161],[-90.39105,38.8168,162],[-90.39103,38.81677,163],[-90.391,38.81675,164],[-90.39097,38.81673,165],[-90.39094,38.81671,165],[-90.3909,38.81671,165],[-90.39087,38.81671,166],[-90.39084,38.81673,165],[-90.39081,38.81674,165],[-90.39077,38.81677,165],[-90.39074,38.8168,165],[-90.39079,38.81679,165],[-90.39074,38.81679,165],[-90.3907,38.81681,165],[-90.39066,38.81683,165],[-90.39061,38.81684,165],[-90.39057,38.81686,165],[-90.39053,38.81688,165],[-90.39048,38.8169,165],[-90.39048,38.81693,165],[-90.3905,38.81695,165],[-90.39052,38.81699,163],[-90.39052,38.81702,162],[-90.39052,38.81705,161],[-90.39051,38.81708,160],[-90.39049,38.81711,160],[-90.39049,38.81715,158],[-90.3905,38.81718,157],[-90.39048,38.8172,157],[-90.39046,38.81723,156],[-90.39043,38.81726,155],[-90.39044,38.81729,154],[-90.39047,38.8173,153],[-90.3905,38.81731,153],[-90.39053,38.81734,151],[-90.39053,38.81738,150],[-90.3905,38.8174,149],[-90.39054,38.81741,149],[-90.3905,38.81743,149],[-90.3905,38.81745,148],[-90.3905,38.81748,147],[-90.3905,38.81751,146],[-90.39053,38.81754,145],[-90.39056,38.81757,144],[-90.39057,38.8176,143],[-90.39057,38.81763,142],[-90.39061,38.81764,142],[-90.39064,38.81763,142],[-90.39067,38.81761,142],[-90.39071,38.81759,142],[-90.39074,38.81758,141],[-90.39075,38.81755,142],[-90.39078,38.81753,142],[-90.39081,38.81751,142],[-90.39084,38.81749,142],[-90.39088,38.81747,142],[-90.3909,38.81745,142],[-90.39094,38.81744,142],[-90.39097,38.81746,141],[-90.39098,38.81743,142],[-90.391,38.81739,143],[-90.39101,38.81737,143],[-90.39103,38.81734,144],[-90.39102,38.81738,143],[-90.39099,38.81736,144],[-90.391,38.81734,144],[-90.39103,38.81735,144],[-90.39105,38.81733,144],[-90.39106,38.8173,144],[-90.39109,38.81728,144],[-90.39113,38.81726,144],[-90.39115,38.81724,144],[-90.39118,38.81722,144],[-90.39122,38.8172,145],[-90.39125,38.81718,145],[-90.39128,38.81716,145],[-90.39132,38.81714,145],[-90.39135,38.81712,146],[-90.39139,38.8171,146],[-90.39143,38.81709,146],[-90.39146,38.81707,146],[-90.3915,38.81705,146],[-90.39154,38.81704,146],[-90.39157,38.81701,147],[-90.3916,38.81699,147],[-90.39162,38.81697,147],[-90.39165,38.81694,148],[-90.39168,38.81692,148],[-90.39171,38.81691,149],[-90.39174,38.81687,149],[-90.39176,38.81685,150],[-90.39178,38.81682,150],[-90.39179,38.81679,151],[-90.3918,38.81676,151],[-90.39182,38.81673,152],[-90.39185,38.81671,152],[-90.39187,38.81669,152],[-90.39189,38.81667,151],[-90.39188,38.81664,152],[-90.39192,38.81664,151],[-90.39196,38.81664,151],[-90.392,38.81662,150],[-90.39202,38.81659,150],[-90.39206,38.81657,150],[-90.3921,38.81655,149],[-90.39214,38.81655,148],[-90.39218,38.81653,148],[-90.39219,38.8165,148],[-90.3922,38.81647,148],[-90.39222,38.81645,148],[-90.39223,38.81642,148],[-90.39226,38.8164,148],[-90.39226,38.81636,149],[-90.39226,38.81634,149],[-90.39227,38.81631,150],[-90.39228,38.81628,151],[-90.3923,38.81626,150],[-90.39233,38.81624,151],[-90.39233,38.81621,151],[-90.39232,38.81618,152],[-90.39234,38.81621,151],[-90.39236,38.81619,151],[-90.39238,38.81615,151],[-90.39239,38.81612,152],[-90.39243,38.8161,151],[-90.39248,38.81609,149],[-90.39251,38.81608,148],[-90.39253,38.81605,147],[-90.39254,38.81602,147],[-90.39256,38.81599,146],[-90.39255,38.81596,147],[-90.39253,38.81593,147],[-90.39253,38.8159,147],[-90.39253,38.81587,147],[-90.39253,38.81584,147],[-90.39255,38.81582,147],[-90.39257,38.81579,147],[-90.39258,38.81575,148],[-90.39259,38.81572,148],[-90.39259,38.81569,149],[-90.39258,38.81566,150],[-90.39257,38.81563,151],[-90.39256,38.8156,152],[-90.39258,38.81557,152],[-90.39262,38.81556,151],[-90.39265,38.81553,150],[-90.39267,38.8155,150],[-90.39269,38.81548,150],[-90.39274,38.81548,148],[-90.39277,38.81546,148],[-90.3928,38.81544,147],[-90.39283,38.81544,146],[-90.39287,38.81543,146],[-90.39291,38.81542,145],[-90.39295,38.81541,144],[-90.39298,38.81539,144],[-90.39301,38.81537,144],[-90.39304,38.81535,143],[-90.39306,38.81532,144],[-90.39308,38.81529,144],[-90.3931,38.81526,145],[-90.39311,38.81522,145],[-90.39313,38.81519,144],[-90.39314,38.81516,144],[-90.39313,38.81513,145],[-90.39312,38.8151,145],[-90.3931,38.81507,146],[-90.39309,38.81505,146],[-90.39306,38.81501,147],[-90.39304,38.81499,148],[-90.39302,38.81497,148],[-90.393,38.81494,148],[-90.39299,38.8149,148],[-90.39297,38.81487,148],[-90.39296,38.81484,148],[-90.39295,38.8148,148],[-90.39294,38.81477,148],[-90.39294,38.81473,148],[-90.39294,38.81471,148],[-90.39294,38.81467,148],[-90.39294,38.81464,148],[-90.39292,38.81461,149],[-90.39291,38.81458,149],[-90.39289,38.81456,150],[-90.39286,38.81455,150],[-90.39282,38.81453,151],[-90.39278,38.81451,152],[-90.39274,38.8145,153],[-90.39271,38.81448,153],[-90.39268,38.81445,154],[-90.39267,38.81443,153],[-90.39264,38.8144,153],[-90.39261,38.81438,153],[-90.39257,38.81436,153],[-90.39254,38.81434,153],[-90.39251,38.81433,153],[-90.39247,38.81432,153],[-90.39244,38.81431,153],[-90.3924,38.81429,152],[-90.39237,38.81426,152],[-90.39234,38.81424,151],[-90.39231,38.81422,151],[-90.39229,38.81421,151],[-90.39227,38.81418,151],[-90.39226,38.81415,149],[-90.39225,38.81412,148],[-90.39228,38.8141,146],[-90.39229,38.81406,144],[-90.3923,38.81404,143],[-90.39231,38.81401,141],[-90.39232,38.81397,139],[-90.39234,38.81394,137],[-90.39236,38.8139,136],[-90.39238,38.81387,136],[-90.3924,38.81384,136],[-90.39243,38.81382,137],[-90.39247,38.8138,137],[-90.3925,38.81377,138],[-90.39252,38.81374,138],[-90.39253,38.8137,138],[-90.39254,38.81367,138],[-90.39254,38.81364,138],[-90.39255,38.8136,138],[-90.39257,38.81358,138],[-90.39258,38.81355,138],[-90.39261,38.81353,137],[-90.39263,38.81351,137],[-90.39266,38.81348,137],[-90.39268,38.81345,136],[-90.3927,38.81343,136],[-90.39272,38.8134,136],[-90.39275,38.81336,135],[-90.39277,38.81334,135],[-90.39279,38.81332,134],[-90.39281,38.8133,134],[-90.39284,38.81328,134],[-90.39288,38.81327,134],[-90.3929,38.81324,133],[-90.39293,38.81321,133],[-90.39295,38.81319,133],[-90.39298,38.81317,133],[-90.39302,38.81314,133],[-90.39304,38.81312,133],[-90.39308,38.81309,132],[-90.39311,38.81307,132],[-90.39314,38.81304,133],[-90.39317,38.81301,133],[-90.3932,38.81298,133],[-90.39324,38.81296,133],[-90.39326,38.81294,133],[-90.39329,38.81291,134],[-90.39332,38.8129,134],[-90.39336,38.81289,134],[-90.39341,38.81289,133],[-90.39344,38.8129,133],[-90.39348,38.81292,133],[-90.39349,38.81295,133],[-90.3935,38.81298,132],[-90.39351,38.81301,132],[-90.39352,38.81304,132],[-90.39353,38.81307,132],[-90.39355,38.8131,132],[-90.39358,38.81313,132],[-90.39359,38.81315,132],[-90.39363,38.81317,132],[-90.39365,38.81319,132],[-90.39365,38.81316,132],[-90.39362,38.81318,132],[-90.39365,38.81317,132],[-90.39367,38.81314,132],[-90.39371,38.81314,132],[-90.39369,38.81316,132],[-90.39365,38.81317,132],[-90.39364,38.81314,132],[-90.39362,38.81311,132],[-90.39361,38.81308,132],[-90.39361,38.81305,132],[-90.39359,38.81301,132],[-90.39358,38.81297,132],[-90.39356,38.81294,133],[-90.39357,38.81291,133],[-90.39358,38.81288,133],[-90.39359,38.81285,133],[-90.39359,38.81281,133],[-90.39359,38.81277,134],[-90.3936,38.81275,134],[-90.39364,38.81273,134],[-90.39367,38.81271,134],[-90.3937,38.81268,134],[-90.39374,38.81265,135],[-90.39378,38.81263,135],[-90.39382,38.81261,135],[-90.39385,38.81259,135],[-90.39389,38.81256,136],[-90.39393,38.81254,136],[-90.39397,38.81252,136],[-90.39401,38.8125,137],[-90.39404,38.81247,137],[-90.39407,38.81244,137],[-90.3941,38.81241,137],[-90.39413,38.81238,137],[-90.39417,38.81236,137],[-90.39421,38.81234,137],[-90.39424,38.81231,137],[-90.39427,38.81228,137],[-90.39429,38.81225,137],[-90.39432,38.81222,138],[-90.39434,38.81219,138],[-90.39437,38.81217,138],[-90.3944,38.81215,138],[-90.39444,38.81213,138],[-90.39446,38.8121,137],[-90.39448,38.81208,137],[-90.39451,38.81206,137],[-90.39454,38.81204,137],[-90.39457,38.81202,137],[-90.3946,38.81199,137],[-90.39462,38.81197,137],[-90.39465,38.81195,137],[-90.39467,38.81192,136],[-90.3947,38.81189,136],[-90.39473,38.81187,136],[-90.39476,38.81185,135],[-90.3948,38.81182,135],[-90.39482,38.8118,134],[-90.39485,38.81177,134],[-90.39488,38.81175,134],[-90.39491,38.81173,133],[-90.39494,38.8117,133],[-90.39498,38.81168,133],[-90.39498,38.81165,133],[-90.39501,38.81167,133],[-90.39504,38.81167,133],[-90.39509,38.81163,132],[-90.39511,38.81162,132],[-90.39514,38.8116,132],[-90.39517,38.81157,132],[-90.39521,38.81155,132],[-90.39525,38.81153,132],[-90.39528,38.81151,133],[-90.3953,38.81148,133],[-90.39532,38.81145,133],[-90.39535,38.81143,133],[-90.39539,38.81141,133],[-90.39544,38.81138,133],[-90.39549,38.81135,133],[-90.39552,38.81133,133]]],
        "bbox": [
          -90.3875,
          38.81764,
          -90.39552,
          38.81115
        ]
      },
      "properties": {
        "name": "5.22.2020"
      }
    }
  ]
}