{
  "type": "FeatureCollection",
  "features": [
    {
      "type": "Feature",
      "geometry": {
        "type": "MultiLineString",
        "coordinates": [[[-90.39082,38.81095,139],[-90.39083,38.81098,139],[-90.39083,38.81101,139],[-90.39083,38.81104,140],[-90.39083,38.81107,140],[-90.39083,38.8111,140],[-90.39083,38.81113,141],[-90.39082,38.81117,141],[-90.3908,38.8112,141],[-90.39077,38.81122,141],[-90.39075,38.81124,142],[-90.39071,38.81127,142],[-90.39068,38.81129,142],[-90.39064,38.8113,142],[-90.3906,38.81131,142],[-90.39056,38.8113,142],[-90.39053,38.81128,142],[-90.39049,38.81126,142],[-90.39045,38.81124,142],[-90.39041,38.81122,142],[-90.39037,38.8112,142],[-90.39034,38.81119,142],[-90.3903,38.81119,142],[-90.39026,38.8112,143],[-90.39022,38.81121,143],[-90.39018,38.8112,144],[-90.39013,38.8112,144],[-90.39009,38.81119,145],[-90.39005,38.81119,145],[-90.39001,38.81118,146],[-90.38996,38.81117,147],[-90.38992,38.81116,147],[-90.38989,38.81118,148],[-90.38986,38.8112,148],[-90.38982,38.81121,149],[-90.38977,38.81122,149],[-90.38973,38.81121,150],[-90.38968,38.8112,150],[-90.38963,38.81119,151],[-90.3896,38.81119,151],[-90.38956,38.8112,151],[-90.38953,38.81122,151],[-90.38951,38.81125,151],[-90.38949,38.81128,151],[-90.38947,38.81131,151],[-90.38945,38.81134,151],[-90.38943,38.81137,152],[-90.3894,38.8114,152],[-90.38937,38.81141,152],[-90.38933,38.81141,152],[-90.38928,38.81141,152],[-90.38925,38.81143,152],[-90.38922,38.81145,152],[-90.38919,38.81148,152],[-90.38915,38.8115,152],[-90.38912,38.81152,153],[-90.38909,38.81154,153],[-90.38905,38.81155,154],[-90.38902,38.81156,155],[-90.38899,38.81158,156],[-90.38895,38.81159,157],[-90.38891,38.8116,158],[-90.38888,38.81161,159],[-90.38884,38.81162,160],[-90.38882,38.81164,161],[-90.3888,38.81167,161],[-90.38877,38.81169,161],[-90.38874,38.81171,162],[-90.38871,38.81174,162],[-90.38869,38.81176,162],[-90.38867,38.81178,162],[-90.38865,38.81181,162],[-90.38864,38.81183,162],[-90.38863,38.81186,162],[-90.38863,38.8119,162],[-90.38865,38.81192,161],[-90.38869,38.81193,160],[-90.38871,38.81196,160],[-90.38873,38.81198,160],[-90.38876,38.812,159],[-90.38879,38.81202,159],[-90.38883,38.81204,159],[-90.38883,38.81207,159],[-90.38884,38.81209,160],[-90.38884,38.81213,160],[-90.38884,38.81216,161],[-90.38882,38.81219,162],[-90.38881,38.81222,162],[-90.38879,38.81224,162],[-90.38878,38.81228,163],[-90.38876,38.8123,163],[-90.38872,38.81232,164],[-90.38869,38.81235,165],[-90.38867,38.81237,165],[-90.38865,38.8124,166],[-90.38866,38.81243,167],[-90.38867,38.81246,167],[-90.38866,38.81249,167],[-90.38865,38.81252,168],[-90.38863,38.81256,168],[-90.38862,38.81259,169],[-90.38861,38.81261,169],[-90.38858,38.81264,170],[-90.38855,38.81266,171],[-90.38852,38.81268,172],[-90.3885,38.8127,173],[-90.38847,38.81272,174],[-90.38845,38.81274,175],[-90.38841,38.81275,176],[-90.38837,38.81275,178],[-90.38834,38.81277,179],[-90.3883,38.81278,181],[-90.38827,38.81278,181],[-90.38823,38.81277,182],[-90.38821,38.81279,183],[-90.38818,38.81282,184],[-90.38816,38.81284,185],[-90.38812,38.81284,186],[-90.38808,38.81286,188],[-90.3881,38.81289,188],[-90.38809,38.81292,188],[-90.38808,38.81295,189],[-90.38809,38.81298,189],[-90.38809,38.813,189],[-90.38808,38.81304,190],[-90.38807,38.81307,190],[-90.38806,38.8131,191],[-90.38804,38.81313,192],[-90.38802,38.81316,193],[-90.388,38.81318,193],[-90.38797,38.81321,194],[-90.38795,38.81324,194],[-90.38794,38.81326,194],[-90.38791,38.81328,195],[-90.38788,38.8133,195],[-90.38785,38.81332,195],[-90.38781,38.81333,195],[-90.38778,38.81334,196],[-90.38774,38.81334,195],[-90.38769,38.81334,195],[-90.38766,38.81334,195],[-90.38762,38.81333,194],[-90.3876,38.81336,194],[-90.3876,38.81339,195],[-90.38761,38.81342,195],[-90.38761,38.81345,195],[-90.38761,38.81349,195],[-90.38759,38.81352,195],[-90.38759,38.81355,196],[-90.38758,38.81358,196],[-90.38758,38.8136,196],[-90.38757,38.81363,196],[-90.38757,38.81366,197],[-90.38756,38.81369,197],[-90.38756,38.81372,197],[-90.38755,38.81375,198],[-90.38754,38.81379,198],[-90.38754,38.81382,199],[-90.38757,38.81385,199],[-90.3876,38.81387,199],[-90.38763,38.81389,199],[-90.38767,38.8139,200],[-90.3877,38.81392,200],[-90.38774,38.81393,200],[-90.38778,38.81393,199],[-90.38782,38.81393,199],[-90.38785,38.81392,199],[-90.38789,38.81392,199],[-90.38794,38.81391,199],[-90.38797,38.81391,199],[-90.38801,38.8139,199],[-90.38805,38.8139,199],[-90.38809,38.81389,198],[-90.38813,38.81389,198],[-90.38816,38.81389,198],[-90.3882,38.8139,198],[-90.38824,38.8139,198],[-90.38828,38.81392,198],[-90.38831,38.81394,198],[-90.38834,38.81395,198],[-90.38838,38.81397,197],[-90.38842,38.81398,197],[-90.38845,38.81399,197],[-90.38849,38.814,196],[-90.38853,38.81402,196],[-90.38856,38.81403,196],[-90.3886,38.81404,196],[-90.38864,38.81405,195],[-90.38868,38.81407,195],[-90.38871,38.81408,194],[-90.38875,38.8141,194],[-90.38879,38.81411,194],[-90.38883,38.81412,193],[-90.38886,38.81414,193],[-90.38889,38.81415,192],[-90.38893,38.81416,192],[-90.38897,38.81417,192],[-90.38901,38.81417,192],[-90.38905,38.81418,192],[-90.38909,38.81418,192],[-90.38913,38.81418,192],[-90.38917,38.8142,192],[-90.38922,38.81422,191],[-90.38926,38.81423,191],[-90.38929,38.81424,190],[-90.38933,38.81425,190],[-90.38937,38.81426,189],[-90.38941,38.81428,189],[-90.38944,38.8143,188],[-90.38949,38.81432,188],[-90.38952,38.81434,188],[-90.38955,38.81437,188],[-90.38957,38.8144,188],[-90.38956,38.81444,189],[-90.38956,38.81447,189],[-90.38955,38.81451,190],[-90.38955,38.81454,190],[-90.38955,38.81458,190],[-90.38955,38.8146,190],[-90.38954,38.81464,190],[-90.38954,38.81468,191],[-90.38955,38.81471,191],[-90.38955,38.81475,191],[-90.38955,38.81478,190],[-90.38956,38.81481,190],[-90.38957,38.81484,190],[-90.38959,38.81487,189],[-90.3896,38.81491,189],[-90.38962,38.81493,189],[-90.38964,38.81497,189],[-90.38969,38.81499,188],[-90.38973,38.815,189],[-90.38975,38.81503,188],[-90.38978,38.81505,187],[-90.38981,38.81508,187],[-90.38983,38.8151,186],[-90.38986,38.81512,186],[-90.3899,38.81514,185],[-90.38993,38.81516,185],[-90.38996,38.81518,184],[-90.38999,38.8152,183],[-90.39002,38.81521,183],[-90.39006,38.81523,183],[-90.39009,38.81526,182],[-90.39012,38.81528,181],[-90.39016,38.81529,181],[-90.3902,38.81531,181],[-90.39024,38.81532,181],[-90.39028,38.81533,181],[-90.39031,38.81534,181],[-90.39035,38.81536,181],[-90.39039,38.81537,181],[-90.39043,38.81539,181],[-90.39047,38.8154,182],[-90.39051,38.81542,182],[-90.39055,38.81542,182],[-90.39059,38.81542,183],[-90.39062,38.81543,183],[-90.39066,38.81544,183],[-90.3907,38.81545,184],[-90.39074,38.81545,184],[-90.39079,38.81545,185],[-90.39083,38.81546,185],[-90.39088,38.81546,185],[-90.39093,38.81546,185],[-90.39096,38.81544,186],[-90.391,38.81543,186],[-90.39103,38.81542,186],[-90.39107,38.8154,186],[-90.3911,38.81539,186],[-90.39114,38.81538,186],[-90.39118,38.81538,186],[-90.39121,38.81538,186],[-90.39126,38.81539,186],[-90.39131,38.81539,185],[-90.39134,38.8154,185],[-90.39138,38.8154,185],[-90.39142,38.81541,185],[-90.39146,38.81543,184],[-90.39149,38.81545,184],[-90.39153,38.81546,183],[-90.39156,38.81548,183],[-90.39159,38.81551,183],[-90.39162,38.81553,183],[-90.39164,38.81555,183],[-90.39168,38.81558,182],[-90.3917,38.81561,181],[-90.39173,38.81563,180],[-90.39176,38.81565,179],[-90.3918,38.81565,179],[-90.39184,38.81564,178],[-90.39188,38.81564,177],[-90.39191,38.81565,176],[-90.39195,38.81564,175],[-90.39195,38.81562,176],[-90.39194,38.81559,177],[-90.39194,38.81556,178],[-90.39194,38.81553,177],[-90.39194,38.8155,177],[-90.39194,38.81547,177],[-90.39194,38.81544,177],[-90.39193,38.8154,177],[-90.39192,38.81537,177],[-90.39191,38.81534,177],[-90.39191,38.81531,176],[-90.3919,38.81528,176],[-90.3919,38.81525,175],[-90.39189,38.81522,174],[-90.3919,38.81519,173],[-90.39191,38.81516,172],[-90.39193,38.81514,171],[-90.39193,38.81511,170],[-90.39193,38.81507,169],[-90.39194,38.81504,167],[-90.39193,38.81501,166],[-90.39191,38.81498,167],[-90.39189,38.81495,167],[-90.39187,38.81491,167],[-90.39187,38.81488,167],[-90.39188,38.81485,166],[-90.39189,38.81482,165],[-90.39189,38.81479,165],[-90.39188,38.81476,165],[-90.39188,38.81473,165],[-90.39187,38.81469,164],[-90.39186,38.81466,164],[-90.39186,38.81463,164],[-90.39185,38.81459,163],[-90.39184,38.81456,163],[-90.39182,38.81453,163],[-90.3918,38.8145,163],[-90.3918,38.81448,163],[-90.39179,38.81444,163],[-90.39179,38.81441,162],[-90.39178,38.81438,162],[-90.39178,38.81436,161],[-90.39178,38.81433,160],[-90.39178,38.8143,159],[-90.39179,38.81427,158],[-90.39179,38.81424,157],[-90.39178,38.81421,157],[-90.39181,38.8142,156],[-90.39184,38.81418,154],[-90.39183,38.81415,154],[-90.39186,38.81413,152],[-90.39187,38.8141,150],[-90.39189,38.81407,148],[-90.39193,38.81406,147],[-90.39196,38.81406,146],[-90.39201,38.81406,146],[-90.39205,38.81406,145],[-90.39209,38.81405,144],[-90.39213,38.81405,144],[-90.39216,38.81404,143],[-90.39214,38.81407,145],[-90.39211,38.81408,146],[-90.39208,38.8141,147],[-90.39204,38.81413,149],[-90.39201,38.81414,150],[-90.39197,38.81416,151],[-90.39194,38.81418,152],[-90.39193,38.81421,153],[-90.3919,38.81423,154],[-90.39189,38.81426,155],[-90.39187,38.81428,156],[-90.39186,38.81431,157],[-90.39187,38.81434,158],[-90.39187,38.81437,159],[-90.39187,38.8144,160],[-90.39188,38.81443,160],[-90.39189,38.81446,160],[-90.39191,38.81448,160],[-90.39191,38.81451,161],[-90.39195,38.81453,160],[-90.39197,38.81455,160],[-90.39198,38.81459,160],[-90.39198,38.81461,160],[-90.39197,38.81464,161],[-90.39197,38.81468,161],[-90.39198,38.81471,162],[-90.39199,38.81474,162],[-90.39201,38.81477,162],[-90.39201,38.8148,162],[-90.39198,38.81483,163],[-90.39196,38.81486,164],[-90.39195,38.81489,164],[-90.39197,38.81492,164],[-90.39199,38.81495,164],[-90.39201,38.81498,164],[-90.39203,38.81501,164],[-90.39205,38.81503,164],[-90.39205,38.81507,165],[-90.39204,38.8151,167],[-90.39203,38.81514,168],[-90.39202,38.81517,170],[-90.39201,38.8152,171],[-90.39199,38.81523,173],[-90.39199,38.81526,174],[-90.39199,38.81529,174],[-90.39201,38.81531,174],[-90.39202,38.81535,174],[-90.39202,38.81539,174],[-90.39203,38.81542,173],[-90.39203,38.81545,174],[-90.39202,38.81547,174],[-90.39201,38.81551,174],[-90.392,38.81553,175],[-90.39199,38.81556,175],[-90.39197,38.81559,176],[-90.39196,38.81562,175],[-90.39196,38.81566,175],[-90.39193,38.81567,175],[-90.39189,38.81568,176],[-90.39185,38.81568,177],[-90.39182,38.81569,177],[-90.39179,38.8157,178],[-90.39176,38.81572,178],[-90.39177,38.81575,178],[-90.39179,38.81578,177],[-90.3918,38.81581,176],[-90.3918,38.81584,175],[-90.3918,38.81587,175],[-90.3918,38.8159,174],[-90.3918,38.81593,174],[-90.39179,38.81597,173],[-90.39178,38.816,173],[-90.39177,38.81603,172],[-90.39176,38.81607,172],[-90.39175,38.8161,171],[-90.39174,38.81614,170],[-90.39173,38.81617,170],[-90.39171,38.81621,169],[-90.3917,38.81623,168],[-90.39169,38.81627,167],[-90.39167,38.8163,167],[-90.39166,38.81634,165],[-90.39165,38.81636,165],[-90.39161,38.81639,165],[-90.3916,38.81642,164],[-90.39157,38.81645,164],[-90.39156,38.81647,164],[-90.39153,38.8165,163],[-90.39152,38.81653,163],[-90.3915,38.81656,162],[-90.3915,38.81653,163],[-90.39153,38.81655,162],[-90.39149,38.81657,162],[-90.39147,38.8166,162],[-90.39142,38.81662,162],[-90.3914,38.81665,162],[-90.39137,38.81667,162],[-90.39135,38.8167,161],[-90.39132,38.81672,161],[-90.39131,38.81674,160],[-90.39128,38.81677,160],[-90.39126,38.81679,160],[-90.39123,38.81681,159],[-90.39119,38.81681,160],[-90.39117,38.81684,160],[-90.39113,38.81683,161],[-90.3911,38.8168,162],[-90.39108,38.81677,163],[-90.39105,38.81675,164],[-90.39102,38.81673,164],[-90.39099,38.81672,165],[-90.39095,38.81671,165],[-90.39092,38.81674,165],[-90.3909,38.81676,164],[-90.39089,38.81679,164],[-90.39087,38.81682,163],[-90.39084,38.81684,163],[-90.3908,38.81685,163],[-90.39076,38.81685,164],[-90.39073,38.81686,164],[-90.39069,38.81687,164],[-90.39064,38.81689,164],[-90.3906,38.81691,164],[-90.39058,38.81693,164],[-90.39054,38.81696,164],[-90.39053,38.81698,164],[-90.39055,38.81701,162],[-90.39057,38.81703,161],[-90.39057,38.81706,161],[-90.39056,38.81709,160],[-90.39055,38.81712,159],[-90.39055,38.81715,158],[-90.39054,38.81718,157],[-90.39056,38.8172,156],[-90.39056,38.81723,155],[-90.39054,38.81726,154],[-90.39058,38.81726,154],[-90.3906,38.81728,153],[-90.39063,38.81729,152],[-90.39063,38.81733,150],[-90.39062,38.81736,150],[-90.39059,38.81739,149],[-90.39057,38.81743,148],[-90.39055,38.81745,147],[-90.39054,38.81748,146],[-90.39056,38.8175,145],[-90.39055,38.81753,145],[-90.39052,38.81755,145],[-90.39048,38.81754,145],[-90.39045,38.81752,146],[-90.39042,38.81751,147],[-90.39038,38.8175,147],[-90.39035,38.81751,148],[-90.39031,38.81753,147],[-90.39028,38.81753,148],[-90.39024,38.81751,149],[-90.39022,38.81748,150],[-90.39021,38.81745,151],[-90.3902,38.81742,151],[-90.39017,38.81739,153],[-90.39014,38.81736,154],[-90.39011,38.81733,155],[-90.39009,38.81731,155],[-90.39007,38.81727,156],[-90.39005,38.81725,157],[-90.39004,38.81722,157],[-90.39002,38.81718,159],[-90.38999,38.81715,159],[-90.38996,38.81713,160],[-90.38993,38.8171,161],[-90.38993,38.81707,162],[-90.38993,38.81704,162],[-90.38993,38.81701,163],[-90.38992,38.81698,164],[-90.38991,38.81695,164],[-90.3899,38.81692,164],[-90.38988,38.8169,165],[-90.38987,38.81687,165],[-90.38986,38.81684,165],[-90.38984,38.81682,166],[-90.38982,38.81679,166],[-90.38979,38.81678,166],[-90.38975,38.81677,166],[-90.38972,38.81675,166],[-90.3897,38.81672,167],[-90.38969,38.81669,167],[-90.38968,38.81666,167],[-90.38968,38.81663,168],[-90.38966,38.8166,168],[-90.38964,38.81656,168],[-90.38963,38.81653,168],[-90.38961,38.8165,168],[-90.38959,38.81647,168],[-90.38957,38.81644,169],[-90.38955,38.81642,169],[-90.38954,38.81638,169],[-90.38954,38.81635,169],[-90.38953,38.81632,170],[-90.38955,38.81629,170],[-90.38958,38.81627,170],[-90.38958,38.81625,170],[-90.38955,38.81623,171],[-90.38954,38.8162,171],[-90.38952,38.81617,171],[-90.3895,38.81614,171],[-90.38948,38.81612,172],[-90.38945,38.8161,172],[-90.38942,38.81608,172],[-90.38941,38.81605,172],[-90.38939,38.81602,172],[-90.38938,38.81599,173],[-90.38936,38.81596,173],[-90.38934,38.81593,173],[-90.38932,38.81591,174],[-90.3893,38.81588,174],[-90.38929,38.81585,174],[-90.38928,38.81582,175],[-90.38928,38.81579,176],[-90.38926,38.81576,176],[-90.38924,38.81573,177],[-90.38922,38.81571,178],[-90.38921,38.81568,179],[-90.38919,38.81565,180],[-90.38918,38.81562,181],[-90.38916,38.81559,182],[-90.38914,38.81557,182],[-90.38912,38.81554,183],[-90.38909,38.81552,183],[-90.38905,38.81551,183],[-90.38901,38.81549,183],[-90.38898,38.81546,184],[-90.38895,38.81543,184],[-90.38894,38.81541,185],[-90.38891,38.81538,185],[-90.38889,38.81535,185],[-90.38888,38.81532,186],[-90.38887,38.81529,186],[-90.38886,38.81526,187],[-90.38885,38.81523,187],[-90.38883,38.81519,187],[-90.38882,38.81516,187],[-90.38883,38.81513,187],[-90.38883,38.81509,187],[-90.38884,38.81507,187],[-90.38884,38.81503,187],[-90.38883,38.81501,187],[-90.38883,38.81498,188],[-90.38887,38.81495,188],[-90.38891,38.81493,188],[-90.38893,38.8149,188],[-90.38894,38.81487,188],[-90.38894,38.81483,188],[-90.38892,38.8148,188],[-90.38889,38.81477,188],[-90.38885,38.81477,188],[-90.38882,38.81479,188],[-90.38878,38.81478,189],[-90.38874,38.81478,189],[-90.3887,38.81476,189],[-90.38866,38.81476,189],[-90.38863,38.81476,189],[-90.38863,38.81479,189],[-90.38861,38.81481,189],[-90.38856,38.81483,189],[-90.38852,38.81482,190],[-90.38848,38.81481,190],[-90.38844,38.81482,191],[-90.38841,38.81483,191],[-90.38836,38.81485,191],[-90.38832,38.81485,191],[-90.38828,38.81486,191],[-90.38824,38.81485,192],[-90.3882,38.81485,192],[-90.38816,38.81486,193],[-90.38812,38.81487,193],[-90.38808,38.81488,193],[-90.38804,38.81487,193],[-90.388,38.81486,194],[-90.38796,38.81487,194],[-90.38792,38.81487,195],[-90.38788,38.81486,195],[-90.38785,38.81484,196],[-90.38782,38.81484,196],[-90.38778,38.81485,196],[-90.38774,38.81485,197],[-90.38771,38.81483,197],[-90.38767,38.81482,198],[-90.38763,38.81481,198],[-90.3876,38.81478,199],[-90.38758,38.81476,199],[-90.38756,38.81472,200],[-90.38755,38.8147,200],[-90.38752,38.81467,200],[-90.38748,38.81467,201],[-90.38744,38.81467,201],[-90.38741,38.81469,201],[-90.38738,38.81471,201],[-90.38734,38.81471,202],[-90.38731,38.81468,202],[-90.38727,38.81466,202],[-90.38723,38.81466,202],[-90.3872,38.81464,203],[-90.38717,38.81463,203],[-90.38713,38.81461,203],[-90.38709,38.81462,203],[-90.38706,38.81463,203],[-90.38702,38.81463,203],[-90.38698,38.81463,203],[-90.38694,38.81463,203],[-90.38691,38.8146,203],[-90.38689,38.81457,203],[-90.38687,38.81454,203],[-90.38685,38.81452,203],[-90.38681,38.8145,203],[-90.38677,38.81449,203],[-90.38673,38.81448,203],[-90.3867,38.81446,203],[-90.38667,38.81444,202],[-90.38664,38.81441,202],[-90.38662,38.81439,202],[-90.38659,38.81437,202],[-90.38657,38.81435,202],[-90.38655,38.81432,201],[-90.38653,38.8143,201],[-90.38651,38.81428,201],[-90.38649,38.81425,200],[-90.38648,38.81422,200],[-90.38648,38.81419,199],[-90.38647,38.81416,199],[-90.38646,38.81413,199],[-90.38648,38.8141,198],[-90.38651,38.81409,199],[-90.38656,38.81409,199],[-90.38661,38.81409,199],[-90.38665,38.81408,199],[-90.38669,38.81407,200],[-90.38672,38.81407,200],[-90.38677,38.81407,200],[-90.38681,38.81407,200],[-90.38685,38.81406,200],[-90.38689,38.81406,200],[-90.38693,38.81405,200],[-90.38697,38.81405,200],[-90.38701,38.81404,200],[-90.38705,38.81403,200],[-90.38709,38.81402,200],[-90.38713,38.81401,200],[-90.38716,38.814,200],[-90.38721,38.81399,200],[-90.38725,38.81399,200],[-90.3873,38.81398,200],[-90.38734,38.81398,200],[-90.38738,38.81398,200],[-90.38742,38.81397,200],[-90.38746,38.81396,200],[-90.38751,38.81396,200],[-90.38755,38.81395,200],[-90.38759,38.81394,200],[-90.38763,38.81393,200],[-90.38763,38.81391,200],[-90.3876,38.81388,199],[-90.38756,38.81387,199],[-90.38753,38.81385,199],[-90.3875,38.81382,198],[-90.38749,38.81378,198],[-90.38749,38.81374,197],[-90.3875,38.8137,197],[-90.38751,38.81367,196],[-90.38752,38.81364,196],[-90.38753,38.8136,196],[-90.38754,38.81357,195],[-90.38754,38.81353,195],[-90.38755,38.8135,195],[-90.38756,38.81346,195],[-90.38756,38.81342,195],[-90.38757,38.81339,194],[-90.38758,38.81336,194],[-90.38758,38.81332,194],[-90.38758,38.81329,194],[-90.38758,38.81327,194],[-90.38762,38.81326,194],[-90.38766,38.81326,194],[-90.3877,38.81326,194],[-90.38774,38.81326,195],[-90.38778,38.81326,195],[-90.38782,38.81326,195],[-90.38785,38.81325,194],[-90.38787,38.81323,194],[-90.3879,38.8132,194],[-90.38792,38.81318,193],[-90.38794,38.81315,193],[-90.38796,38.81313,192],[-90.38798,38.8131,192],[-90.388,38.81307,191],[-90.38801,38.81304,191],[-90.38802,38.81301,190],[-90.38802,38.81298,190],[-90.38802,38.81295,190],[-90.38803,38.81292,189],[-90.38803,38.81289,189],[-90.38804,38.81286,188],[-90.38805,38.81283,188],[-90.38805,38.81279,188],[-90.38806,38.81276,187],[-90.38809,38.81275,186],[-90.38813,38.81275,185],[-90.38817,38.81273,183],[-90.3882,38.81271,182],[-90.38823,38.8127,181],[-90.38826,38.81269,180],[-90.3883,38.8127,179],[-90.38834,38.8127,178],[-90.38837,38.81268,177],[-90.38841,38.81268,175],[-90.38844,38.81266,174],[-90.38846,38.81264,173],[-90.38849,38.81262,172],[-90.38852,38.8126,171],[-90.38854,38.81258,171],[-90.38855,38.81255,170],[-90.38855,38.81251,170],[-90.38856,38.81248,169],[-90.38858,38.81246,168],[-90.38859,38.81243,168],[-90.38858,38.8124,167],[-90.38857,38.81237,167],[-90.38857,38.81233,166],[-90.38857,38.81231,166],[-90.38858,38.81227,165],[-90.3886,38.81225,164],[-90.38865,38.81224,164],[-90.38868,38.81225,163],[-90.38872,38.81224,163],[-90.38875,38.8122,162],[-90.38877,38.81218,162],[-90.38878,38.81214,161],[-90.38877,38.81211,161],[-90.38875,38.81207,161],[-90.38873,38.81205,161],[-90.38869,38.81204,161],[-90.38867,38.81201,161],[-90.38865,38.81199,161],[-90.38863,38.81196,161],[-90.38861,38.81194,162],[-90.38857,38.81192,162],[-90.38856,38.81189,163],[-90.38855,38.81186,163],[-90.38856,38.81183,163],[-90.38856,38.8118,164],[-90.38857,38.81177,164],[-90.38858,38.81174,164],[-90.3886,38.8117,164],[-90.38862,38.81167,164],[-90.38865,38.81165,164],[-90.38868,38.81163,163],[-90.38871,38.81161,163],[-90.38874,38.81159,162],[-90.38876,38.81156,161],[-90.38877,38.81154,161],[-90.38879,38.81151,161],[-90.38883,38.81152,160],[-90.38888,38.81151,159],[-90.38891,38.8115,158],[-90.38894,38.81148,157],[-90.38898,38.81146,156],[-90.38902,38.81145,155],[-90.38905,38.81145,154],[-90.38909,38.81143,153],[-90.38912,38.81141,152],[-90.38915,38.81138,152],[-90.38918,38.81135,152],[-90.38921,38.81134,152],[-90.38925,38.81134,152],[-90.38929,38.81135,152],[-90.38933,38.81135,152],[-90.38937,38.81134,152],[-90.3894,38.8113,152],[-90.3894,38.81128,152],[-90.38942,38.81124,152],[-90.38945,38.81121,151],[-90.38947,38.81118,151],[-90.38949,38.81116,151],[-90.38952,38.81114,151],[-90.38956,38.81114,151],[-90.3896,38.81114,151],[-90.38965,38.81115,151],[-90.38969,38.81115,151],[-90.38973,38.81116,150],[-90.38977,38.81116,150],[-90.38982,38.81115,149],[-90.38986,38.81113,148],[-90.38989,38.81112,148],[-90.38994,38.81112,147],[-90.38997,38.81112,147],[-90.39002,38.81113,146],[-90.39006,38.81113,146],[-90.3901,38.81114,145],[-90.39015,38.81114,144],[-90.3902,38.81115,144],[-90.39025,38.81115,143],[-90.39028,38.81115,142],[-90.39033,38.81115,142],[-90.39037,38.81115,142],[-90.39042,38.81116,142],[-90.39046,38.81118,142],[-90.39049,38.8112,142],[-90.39053,38.81122,142],[-90.39057,38.81123,142],[-90.3906,38.81123,142],[-90.39064,38.81121,142],[-90.39067,38.81119,141],[-90.39069,38.81117,141],[-90.39074,38.81115,141],[-90.39078,38.81115,141],[-90.39081,38.81112,141],[-90.39081,38.81109,140],[-90.39083,38.81107,140],[-90.39084,38.81104,140],[-90.39084,38.811,139],[-90.39084,38.81097,139],[-90.39083,38.81093,139],[-90.39082,38.8109,138],[-90.3908,38.81088,138],[-90.39079,38.81085,138],[-90.39079,38.81081,138],[-90.3908,38.81078,138],[-90.3908,38.81077,138]]],
        "bbox": [
          -90.38646,
          38.81755,
          -90.39216,
          38.81077
        ]
      },
      "properties": {
        "name": "2.6.2024A"
      }
    }
  ]
}