{
  "type": "FeatureCollection",
  "features": [
    {
      "type": "Feature",
      "geometry": {
        "type": "MultiLineString",
        "coordinates": [[[-90.39325,38.81283,134],[-90.39322,38.81281,134],[-90.39319,38.81279,134],[-90.39316,38.81276,134],[-90.39313,38.81275,134],[-90.3931,38.81274,134],[-90.39307,38.81272,134],[-90.39303,38.8127,134],[-90.393,38.81269,134],[-90.39297,38.81268,134],[-90.39298,38.81271,134],[-90.39302,38.81273,134],[-90.39306,38.81274,134],[-90.39309,38.81276,134],[-90.39313,38.81278,134],[-90.39316,38.8128,134],[-90.39319,38.81281,134],[-90.39323,38.81284,134],[-90.39326,38.81285,134],[-90.39329,38.81287,134],[-90.39333,38.81288,134],[-90.39337,38.81288,134],[-90.39341,38.81288,133],[-90.39346,38.81287,133],[-90.39349,38.81286,133],[-90.39353,38.81284,133],[-90.39357,38.81283,133],[-90.39361,38.81282,133],[-90.39363,38.8128,133],[-90.39366,38.81278,133],[-90.39369,38.81276,134],[-90.39373,38.81274,134],[-90.39376,38.81273,134],[-90.39379,38.8127,134],[-90.39382,38.81268,134],[-90.39385,38.81266,135],[-90.39388,38.81264,135],[-90.39391,38.81262,135],[-90.39394,38.8126,135],[-90.39396,38.81258,135],[-90.394,38.81256,136],[-90.39404,38.81253,136],[-90.39407,38.81251,136],[-90.39409,38.81249,137],[-90.39412,38.81246,137],[-90.39414,38.81244,137],[-90.39417,38.81242,137],[-90.39419,38.8124,137],[-90.39423,38.81237,137],[-90.39426,38.81236,137],[-90.39429,38.81233,137],[-90.39431,38.8123,137],[-90.39436,38.81227,137],[-90.39438,38.81225,137],[-90.39441,38.81223,137],[-90.39444,38.8122,138],[-90.39447,38.81217,137],[-90.3945,38.81215,137],[-90.39452,38.81212,137],[-90.39455,38.8121,137],[-90.39458,38.81207,137],[-90.39461,38.81205,137],[-90.39464,38.81203,137],[-90.39467,38.81201,136],[-90.3947,38.81198,136],[-90.39472,38.81196,136],[-90.39475,38.81193,136],[-90.39477,38.81191,136],[-90.39481,38.81188,135],[-90.39484,38.81186,135],[-90.39487,38.81183,134],[-90.3949,38.8118,134],[-90.39495,38.81179,134],[-90.39497,38.81176,133],[-90.39496,38.81173,133],[-90.39496,38.8117,133],[-90.39497,38.81166,133],[-90.39485,38.81182,134],[-90.39483,38.81185,135],[-90.3948,38.81187,135],[-90.39477,38.8119,136],[-90.39473,38.81193,136],[-90.3947,38.81195,137],[-90.39467,38.81198,137],[-90.39464,38.81201,137],[-90.39461,38.81203,137],[-90.39459,38.81205,137],[-90.39455,38.81208,137],[-90.39453,38.8121,137],[-90.3945,38.81213,137],[-90.39447,38.81215,137],[-90.39444,38.81217,138],[-90.39441,38.8122,138],[-90.39439,38.81222,138],[-90.39436,38.81225,137],[-90.39432,38.81227,137],[-90.39429,38.81229,137],[-90.39426,38.81232,137],[-90.39422,38.81235,137],[-90.3942,38.81237,137],[-90.39416,38.81239,137],[-90.39414,38.81241,137],[-90.3941,38.81244,137],[-90.39407,38.81246,137],[-90.39404,38.81248,137],[-90.39401,38.8125,137],[-90.39399,38.81253,136],[-90.39395,38.81255,136],[-90.39393,38.81257,136],[-90.39389,38.81259,136],[-90.39386,38.81261,135],[-90.39383,38.81264,135],[-90.3938,38.81266,135],[-90.39376,38.81268,134],[-90.39373,38.81271,134],[-90.39369,38.81273,134],[-90.39366,38.81275,134],[-90.39363,38.81277,134],[-90.39358,38.81279,134],[-90.39355,38.81281,134],[-90.39351,38.81283,133],[-90.39347,38.81286,133],[-90.39344,38.81288,133],[-90.3934,38.8129,133],[-90.39336,38.8129,134],[-90.39331,38.81289,134],[-90.39328,38.81287,134],[-90.39325,38.81285,134],[-90.39323,38.81283,134],[-90.3932,38.81281,134],[-90.39317,38.81278,134],[-90.39312,38.81277,134],[-90.39309,38.81275,134],[-90.39305,38.81274,134],[-90.39302,38.81273,134],[-90.39298,38.81271,134],[-90.39295,38.81269,134],[-90.39292,38.81268,134],[-90.39289,38.81266,134],[-90.39286,38.81263,134],[-90.39282,38.8126,134],[-90.3928,38.81259,134],[-90.39277,38.81256,134],[-90.39273,38.81254,134],[-90.39269,38.81252,134],[-90.39265,38.81249,134],[-90.39262,38.81247,135],[-90.3926,38.81245,135],[-90.39258,38.81243,135],[-90.39256,38.8124,135],[-90.39254,38.81237,135],[-90.39252,38.81235,135],[-90.39249,38.81233,135],[-90.39246,38.8123,135],[-90.39243,38.81228,135],[-90.39241,38.81226,135],[-90.39237,38.81224,135],[-90.39233,38.81222,135],[-90.3923,38.8122,135],[-90.39227,38.81217,135],[-90.39224,38.81215,135],[-90.3922,38.81213,136],[-90.39217,38.81212,136],[-90.39212,38.81211,136],[-90.39207,38.81211,137],[-90.39202,38.81211,137],[-90.39199,38.81212,137],[-90.39195,38.81213,137],[-90.39191,38.81214,137],[-90.39187,38.81217,137],[-90.39184,38.81219,137],[-90.39182,38.81222,137],[-90.39179,38.81225,137],[-90.39177,38.81227,137],[-90.39174,38.8123,136],[-90.39171,38.81232,136],[-90.39169,38.81235,136],[-90.39166,38.81238,136],[-90.39163,38.81241,136],[-90.39161,38.81244,136],[-90.39158,38.81247,135],[-90.39155,38.81249,135],[-90.39153,38.81252,135],[-90.39151,38.81255,136],[-90.39149,38.81258,137],[-90.39147,38.81262,138],[-90.39146,38.81266,139],[-90.39146,38.81269,140],[-90.39147,38.81272,140],[-90.3915,38.81275,140],[-90.39152,38.81278,141],[-90.39154,38.8128,141],[-90.39157,38.81283,141],[-90.3916,38.81285,141],[-90.39163,38.81286,140],[-90.39168,38.81287,140],[-90.39171,38.81289,140],[-90.39176,38.8129,139],[-90.3918,38.81292,139],[-90.39182,38.81294,139],[-90.39185,38.81296,138],[-90.39189,38.81298,138],[-90.39192,38.813,138],[-90.39195,38.81302,138],[-90.39198,38.81304,138],[-90.39202,38.81306,138],[-90.39206,38.81308,138],[-90.39209,38.8131,138],[-90.39213,38.81312,138],[-90.39217,38.81314,138],[-90.3922,38.81315,137],[-90.39223,38.81317,137],[-90.39226,38.81319,137],[-90.39229,38.81322,137],[-90.39232,38.81323,137],[-90.39235,38.81325,137],[-90.39239,38.81327,137],[-90.39242,38.81329,137],[-90.39246,38.81331,137],[-90.3925,38.81333,136],[-90.39254,38.81335,136],[-90.39256,38.81337,136],[-90.39259,38.81339,136],[-90.39262,38.81341,136],[-90.39265,38.81343,136],[-90.39268,38.81345,136],[-90.39267,38.81349,137],[-90.39264,38.81351,137],[-90.39261,38.81353,137],[-90.39258,38.81355,138],[-90.39256,38.81358,138],[-90.39253,38.81361,138],[-90.39252,38.81364,138],[-90.39251,38.81367,138],[-90.39249,38.81371,138],[-90.39247,38.81373,138],[-90.39245,38.81376,137],[-90.39244,38.81379,137],[-90.39242,38.81382,137],[-90.3924,38.81384,136],[-90.39239,38.81388,136],[-90.39236,38.81391,136],[-90.39233,38.81393,137],[-90.3923,38.81396,138],[-90.39226,38.81398,139],[-90.39222,38.81399,139],[-90.39219,38.814,140],[-90.39215,38.814,141],[-90.39211,38.81401,142],[-90.39208,38.81402,142],[-90.39204,38.81402,143],[-90.392,38.81403,144],[-90.39196,38.81404,145],[-90.39193,38.81406,147],[-90.39191,38.81408,148],[-90.3919,38.81411,150],[-90.39186,38.81413,152],[-90.39184,38.81415,153],[-90.39184,38.81418,154],[-90.39186,38.8142,155],[-90.39184,38.81422,156],[-90.39187,38.8142,154],[-90.39187,38.81423,155],[-90.3919,38.81423,154],[-90.39194,38.81424,154],[-90.3919,38.81423,154],[-90.39187,38.81422,155],[-90.39185,38.81432,158],[-90.39189,38.81431,156],[-90.39189,38.81428,156],[-90.39189,38.81431,156],[-90.39187,38.81434,158],[-90.39186,38.81437,159],[-90.39185,38.8144,160],[-90.39186,38.81444,161],[-90.39187,38.81447,161],[-90.39188,38.8145,161],[-90.39189,38.81454,161],[-90.39192,38.81458,161],[-90.39193,38.81461,161],[-90.39194,38.81464,162],[-90.39196,38.81467,161],[-90.39197,38.81471,162],[-90.39198,38.81475,162],[-90.39199,38.81478,162],[-90.39198,38.81481,163],[-90.39196,38.81485,164],[-90.39196,38.81488,164],[-90.39196,38.81491,164],[-90.39197,38.81494,164],[-90.39198,38.81496,164],[-90.39199,38.81499,164],[-90.39201,38.81502,165],[-90.39202,38.81506,166],[-90.39202,38.81509,167],[-90.39202,38.81512,168],[-90.39202,38.81515,169],[-90.39202,38.81518,170],[-90.39201,38.81521,171],[-90.392,38.81525,173],[-90.392,38.81528,174],[-90.392,38.81532,174],[-90.39201,38.81535,174],[-90.39202,38.81538,174],[-90.39203,38.81541,173],[-90.39203,38.81544,174],[-90.39201,38.81547,174],[-90.392,38.8155,175],[-90.39201,38.81553,174],[-90.39201,38.81556,174],[-90.392,38.8156,174],[-90.392,38.81563,173],[-90.39199,38.81566,173],[-90.39198,38.81568,173],[-90.39196,38.81571,173],[-90.39194,38.81569,175],[-90.3919,38.81568,176],[-90.39186,38.81567,177],[-90.39186,38.8157,176],[-90.39185,38.81573,176],[-90.39189,38.81572,175],[-90.39193,38.81572,174],[-90.39196,38.81573,173],[-90.392,38.81574,171],[-90.39199,38.81571,172],[-90.39197,38.81569,174],[-90.39193,38.81567,175],[-90.3919,38.81566,176],[-90.39186,38.81567,177],[-90.39181,38.81567,178],[-90.39177,38.81568,179],[-90.39173,38.81568,180],[-90.3917,38.81566,181],[-90.39168,38.81563,181],[-90.39165,38.8156,182],[-90.39163,38.81558,182],[-90.3916,38.81555,183],[-90.39158,38.81553,183],[-90.39154,38.8155,183],[-90.3915,38.81549,184],[-90.39146,38.81547,184],[-90.39142,38.81545,185],[-90.39139,38.81544,185],[-90.39133,38.81543,185],[-90.39129,38.81542,185],[-90.39124,38.81541,186],[-90.3912,38.81541,186],[-90.39116,38.81541,186],[-90.3911,38.81541,186],[-90.39106,38.81543,186],[-90.39102,38.81544,186],[-90.39097,38.81546,186],[-90.39093,38.81547,185],[-90.3909,38.81548,185],[-90.39086,38.81549,185],[-90.39082,38.81549,185],[-90.39078,38.81549,184],[-90.39074,38.81548,184],[-90.3907,38.81547,184],[-90.39066,38.81547,183],[-90.39063,38.81547,183],[-90.39059,38.81546,183],[-90.39055,38.81546,182],[-90.39051,38.81546,182],[-90.39047,38.81545,181],[-90.39044,38.81544,181],[-90.39041,38.81542,181],[-90.39036,38.81541,180],[-90.39033,38.81541,180],[-90.39028,38.81541,180],[-90.39025,38.81539,180],[-90.3902,38.81538,180],[-90.39016,38.81537,180],[-90.39012,38.81536,180],[-90.39009,38.81535,180],[-90.39005,38.81534,180],[-90.39001,38.81533,181],[-90.38996,38.8153,181],[-90.38994,38.81528,182],[-90.38991,38.81526,182],[-90.38988,38.81524,183],[-90.38986,38.8152,184],[-90.38984,38.81518,184],[-90.38981,38.81516,185],[-90.38979,38.81514,185],[-90.38976,38.81511,186],[-90.38972,38.81509,187],[-90.38969,38.81507,187],[-90.38967,38.81504,188],[-90.38964,38.81502,188],[-90.38961,38.81499,188],[-90.38959,38.81497,188],[-90.38957,38.81494,189],[-90.38956,38.8149,189],[-90.38955,38.81486,189],[-90.38955,38.81483,190],[-90.38954,38.8148,190],[-90.38953,38.81477,190],[-90.38952,38.81474,191],[-90.38951,38.81471,191],[-90.38951,38.81468,191],[-90.38951,38.81465,190],[-90.38952,38.8146,190],[-90.38952,38.81457,190],[-90.38953,38.81454,190],[-90.38953,38.81451,190],[-90.38954,38.81448,189],[-90.38953,38.81444,189],[-90.38951,38.81441,189],[-90.38949,38.81438,189],[-90.38946,38.81435,189],[-90.38942,38.81434,189],[-90.38939,38.81433,189],[-90.38935,38.81431,190],[-90.38931,38.8143,190],[-90.38927,38.81429,191],[-90.38923,38.81427,191],[-90.38919,38.81426,192],[-90.38915,38.81424,192],[-90.38911,38.81423,192],[-90.38907,38.81422,192],[-90.38902,38.81422,192],[-90.38898,38.81421,192],[-90.38893,38.81421,192],[-90.38889,38.8142,192],[-90.38885,38.81418,193],[-90.38881,38.81416,194],[-90.38877,38.81415,194],[-90.38872,38.81414,195],[-90.38868,38.81413,195],[-90.38864,38.81412,196],[-90.38859,38.81411,196],[-90.38854,38.8141,197],[-90.38851,38.81408,197],[-90.38848,38.81405,197],[-90.38845,38.81402,197],[-90.38842,38.814,197],[-90.38839,38.81399,197],[-90.38835,38.81397,198],[-90.3883,38.81396,198],[-90.38827,38.81395,198],[-90.38823,38.81393,198],[-90.38819,38.81393,198],[-90.38815,38.81393,198],[-90.3881,38.81393,198],[-90.38807,38.81393,199],[-90.38802,38.81393,199],[-90.38798,38.81392,199],[-90.38794,38.81392,199],[-90.38789,38.81392,199],[-90.38786,38.81392,199],[-90.38781,38.81393,199],[-90.38777,38.81393,200],[-90.38773,38.81393,200],[-90.38769,38.81393,200],[-90.38766,38.81393,200],[-90.38762,38.81391,200],[-90.38759,38.81389,199],[-90.38757,38.81386,199],[-90.38755,38.81382,199],[-90.38755,38.81378,198],[-90.38756,38.81375,198],[-90.38756,38.81372,197],[-90.38758,38.81368,197],[-90.38759,38.81365,197],[-90.38759,38.81362,196],[-90.3876,38.81358,196],[-90.3876,38.81355,196],[-90.38761,38.81351,196],[-90.38763,38.81348,195],[-90.38763,38.81345,195],[-90.38763,38.81342,195],[-90.38763,38.81339,195],[-90.38763,38.81337,195],[-90.38765,38.81334,195],[-90.38769,38.81334,195],[-90.38772,38.81334,195],[-90.38777,38.81333,195],[-90.38781,38.81333,195],[-90.38783,38.81331,195],[-90.38787,38.8133,195],[-90.3879,38.81328,195],[-90.38792,38.81326,194],[-90.38794,38.81324,194],[-90.38797,38.81322,194],[-90.38799,38.81319,193],[-90.38801,38.81317,193],[-90.38804,38.81315,192],[-90.38805,38.81312,192],[-90.38806,38.81309,191],[-90.38807,38.81306,190],[-90.38808,38.81303,190],[-90.38809,38.813,189],[-90.3881,38.81297,189],[-90.3881,38.81294,188],[-90.38811,38.8129,188],[-90.3881,38.81287,187],[-90.3881,38.81285,187],[-90.38812,38.81282,186],[-90.38815,38.81281,185],[-90.38819,38.81279,184],[-90.38822,38.81277,183],[-90.38825,38.81277,182],[-90.38829,38.81278,181],[-90.38833,38.81278,180],[-90.38836,38.81277,178],[-90.38839,38.81276,177],[-90.38843,38.81277,176],[-90.38846,38.81275,175],[-90.38848,38.81273,174],[-90.3885,38.8127,173],[-90.38853,38.81268,172],[-90.38856,38.81266,171],[-90.38858,38.81263,170],[-90.38859,38.8126,169],[-90.38861,38.81257,169],[-90.38864,38.81255,168],[-90.38867,38.81253,168],[-90.38868,38.8125,167],[-90.38868,38.81247,167],[-90.38867,38.81244,166],[-90.38867,38.81241,166],[-90.38868,38.81238,165],[-90.38869,38.81235,165],[-90.38871,38.81233,164],[-90.38875,38.81232,164],[-90.38878,38.81233,164],[-90.38879,38.8123,163],[-90.38881,38.81228,163],[-90.38883,38.81225,162],[-90.38884,38.81222,162],[-90.38884,38.81219,161],[-90.38883,38.81216,161],[-90.38883,38.81214,161],[-90.38881,38.8121,160],[-90.38878,38.81207,160],[-90.38874,38.81204,160],[-90.38873,38.81202,160],[-90.38871,38.81198,160],[-90.38866,38.81195,161],[-90.38865,38.81193,161],[-90.38864,38.81189,162],[-90.38865,38.81186,162],[-90.38867,38.81182,162],[-90.38869,38.81179,162],[-90.3887,38.81176,162],[-90.38872,38.81173,162],[-90.38875,38.81171,162],[-90.38877,38.81169,161],[-90.38879,38.81166,161],[-90.38882,38.81163,161],[-90.38883,38.8116,160],[-90.38885,38.81158,160],[-90.38888,38.81159,159],[-90.38892,38.81158,158],[-90.38896,38.81158,157],[-90.389,38.81157,156],[-90.38904,38.81156,155],[-90.38907,38.81154,154],[-90.38909,38.81152,153],[-90.38912,38.8115,153],[-90.38916,38.81148,152],[-90.3892,38.81146,152],[-90.38923,38.81143,152],[-90.38927,38.81141,152],[-90.38932,38.81142,152],[-90.38937,38.81142,152],[-90.38941,38.8114,152],[-90.38943,38.81138,152],[-90.38945,38.81135,151],[-90.38947,38.81131,151],[-90.3895,38.81129,151],[-90.38952,38.81126,151],[-90.38954,38.81123,151],[-90.38957,38.81122,151],[-90.38961,38.81122,151],[-90.38965,38.81123,150],[-90.38969,38.81123,150],[-90.38973,38.81123,150],[-90.38977,38.81123,149],[-90.3898,38.81123,149],[-90.38984,38.81122,148],[-90.38989,38.8112,148],[-90.38994,38.81119,147],[-90.38998,38.8112,146],[-90.39002,38.81119,146],[-90.39006,38.81119,145],[-90.39009,38.81121,145],[-90.39014,38.81121,144],[-90.39018,38.81121,144],[-90.39022,38.81122,143],[-90.39026,38.81121,143],[-90.3903,38.81121,142],[-90.39034,38.81122,142],[-90.39038,38.81123,142],[-90.39041,38.81125,142],[-90.39043,38.81127,142],[-90.39046,38.81129,142],[-90.3905,38.8113,142],[-90.39054,38.81131,142],[-90.39058,38.8113,142],[-90.3906,38.81128,142],[-90.39064,38.81126,142],[-90.39067,38.81124,142],[-90.39071,38.81123,142],[-90.39075,38.81122,141],[-90.39079,38.81123,141],[-90.39082,38.81125,142],[-90.39085,38.81126,141],[-90.39088,38.81128,141],[-90.39092,38.8113,141],[-90.39095,38.81132,141],[-90.39099,38.81135,141],[-90.39102,38.81138,141],[-90.39103,38.8114,141],[-90.39105,38.81143,142],[-90.39107,38.81146,142],[-90.39108,38.81149,142],[-90.39108,38.81151,142],[-90.39107,38.81155,143],[-90.39106,38.81158,144],[-90.39105,38.81162,144],[-90.39102,38.81164,145],[-90.391,38.81167,145],[-90.39099,38.8117,146],[-90.39097,38.81173,147],[-90.39095,38.81175,147],[-90.39092,38.81177,147],[-90.39093,38.8118,148],[-90.39094,38.81183,148],[-90.39095,38.81186,149],[-90.39095,38.8119,149],[-90.39096,38.81192,150],[-90.39096,38.81195,150],[-90.39096,38.81198,150],[-90.39096,38.81201,150],[-90.39097,38.81204,150],[-90.39097,38.81207,150],[-90.39094,38.81209,149],[-90.39091,38.81211,149],[-90.39092,38.81214,149],[-90.3909,38.81212,149],[-90.39091,38.81215,149],[-90.39094,38.81216,149],[-90.39098,38.81218,149],[-90.39099,38.81221,149],[-90.391,38.81224,148],[-90.391,38.81227,148],[-90.39097,38.8123,147],[-90.39094,38.81233,147],[-90.39094,38.81236,146],[-90.39096,38.81239,145],[-90.39099,38.81242,144],[-90.391,38.81245,143],[-90.391,38.81249,142],[-90.391,38.81252,142],[-90.39101,38.81255,143],[-90.39103,38.81259,143],[-90.39104,38.81262,144],[-90.39105,38.81265,144],[-90.39105,38.81267,145],[-90.39106,38.81271,146],[-90.39107,38.81274,146],[-90.39107,38.81278,147],[-90.39108,38.81281,148],[-90.39109,38.81283,148],[-90.39112,38.81285,148],[-90.39114,38.81288,149],[-90.39115,38.8129,149],[-90.39116,38.81294,150],[-90.39117,38.81297,151],[-90.3912,38.813,151],[-90.39122,38.81304,152],[-90.39123,38.81307,152],[-90.39125,38.8131,152],[-90.39127,38.81313,151],[-90.39131,38.81315,151],[-90.39135,38.81317,150],[-90.39139,38.81317,150],[-90.39141,38.8132,150],[-90.39142,38.81323,150],[-90.39144,38.81326,149],[-90.39147,38.81328,149],[-90.39151,38.8133,148],[-90.39151,38.81332,149],[-90.39153,38.81335,148],[-90.39157,38.81337,147],[-90.39161,38.81339,147],[-90.39163,38.81342,146],[-90.39165,38.81345,145],[-90.39167,38.81348,144],[-90.39169,38.81352,144],[-90.39169,38.81355,143],[-90.3917,38.81358,143],[-90.39171,38.81361,142],[-90.39174,38.81364,142],[-90.39176,38.81368,142],[-90.39178,38.81371,142],[-90.39181,38.81373,142],[-90.39184,38.81376,141],[-90.39188,38.81377,140],[-90.39191,38.81377,140],[-90.39195,38.81379,138],[-90.39197,38.81381,138],[-90.392,38.81383,137],[-90.39203,38.81386,136],[-90.39206,38.81388,136],[-90.3921,38.81391,136],[-90.39213,38.81393,137],[-90.39216,38.81396,138],[-90.39219,38.81398,139],[-90.39221,38.81401,141],[-90.39225,38.81403,142],[-90.39229,38.81403,142],[-90.39232,38.81402,142],[-90.39234,38.81399,140],[-90.39237,38.81396,139],[-90.39239,38.81393,138],[-90.3924,38.81391,137],[-90.39241,38.81388,136],[-90.39243,38.81385,137],[-90.39245,38.81382,137],[-90.39247,38.81379,138],[-90.39249,38.81377,138],[-90.3925,38.81374,138],[-90.39252,38.81372,138],[-90.39253,38.81369,138],[-90.39253,38.81365,138],[-90.39253,38.81363,138],[-90.39255,38.8136,138],[-90.39259,38.81357,138],[-90.39261,38.81355,138],[-90.39263,38.81352,137],[-90.39265,38.8135,137],[-90.39267,38.81347,137],[-90.3927,38.81344,136],[-90.39272,38.81342,136],[-90.39274,38.8134,135],[-90.39277,38.81337,135],[-90.3928,38.81335,135],[-90.39283,38.81333,134],[-90.39285,38.81331,134],[-90.39288,38.81328,134],[-90.39291,38.81325,133],[-90.39294,38.81323,133],[-90.39297,38.8132,133],[-90.393,38.81318,133],[-90.39302,38.81315,133],[-90.39304,38.81313,133],[-90.39308,38.81311,132],[-90.39311,38.81309,132],[-90.39314,38.81306,132],[-90.39317,38.81304,133],[-90.39319,38.81301,133],[-90.39322,38.81298,133],[-90.39325,38.81296,133],[-90.39329,38.81293,133],[-90.39332,38.81291,134],[-90.39335,38.8129,134],[-90.39339,38.81288,134],[-90.39342,38.81286,134],[-90.39346,38.81284,134],[-90.3935,38.81282,134],[-90.39353,38.8128,134],[-90.39356,38.81278,134],[-90.3936,38.81276,134],[-90.39363,38.81274,134],[-90.39366,38.81272,134],[-90.39369,38.81271,134],[-90.39372,38.81269,134],[-90.39376,38.81266,135],[-90.39379,38.81264,135],[-90.39383,38.81262,135],[-90.39386,38.8126,135],[-90.39389,38.81257,136],[-90.39392,38.81255,136],[-90.39394,38.81253,136],[-90.39397,38.81251,136],[-90.39401,38.81249,137],[-90.39403,38.81247,137],[-90.39407,38.81244,137],[-90.3941,38.81241,137],[-90.39412,38.81238,137],[-90.39416,38.81236,137],[-90.39419,38.81233,137],[-90.39422,38.8123,137],[-90.39425,38.81228,137],[-90.39428,38.81226,137],[-90.39432,38.81224,137],[-90.39435,38.81221,138],[-90.39438,38.81219,138],[-90.3944,38.81216,138],[-90.39443,38.81215,138],[-90.39445,38.81212,137],[-90.39448,38.8121,137],[-90.39451,38.81208,137],[-90.39454,38.81205,137]]],
        "bbox": [
          -90.38755,
          38.81574,
          -90.39497,
          38.81119
        ]
      },
      "properties": {
        "name": "3.26.2021B"
      }
    }
  ]
}