{
  "type": "FeatureCollection",
  "features": [
    {
      "type": "Feature",
      "geometry": {
        "type": "MultiLineString",
        "coordinates": [[[-90.39356,38.81283,133],[-90.39352,38.81285,133],[-90.39348,38.81287,133],[-90.39345,38.81289,133],[-90.39342,38.8129,133],[-90.39338,38.81292,133],[-90.39334,38.81293,133],[-90.39332,38.81295,133],[-90.39329,38.81297,133],[-90.39326,38.81299,133],[-90.39322,38.81302,133],[-90.3932,38.81304,133],[-90.39317,38.81306,132],[-90.39315,38.81309,132],[-90.39312,38.81311,132],[-90.39309,38.81313,132],[-90.39306,38.81315,132],[-90.39304,38.81318,133],[-90.39301,38.81321,133],[-90.39299,38.81323,133],[-90.39296,38.81326,133],[-90.39294,38.81328,133],[-90.39291,38.8133,134],[-90.39288,38.81333,134],[-90.39286,38.81335,134],[-90.39284,38.81337,134],[-90.39281,38.8134,135],[-90.39278,38.81342,135],[-90.39275,38.81344,136],[-90.39273,38.81346,136],[-90.3927,38.81348,136],[-90.39268,38.81351,137],[-90.39266,38.81353,137],[-90.39264,38.81356,138],[-90.39262,38.81359,138],[-90.3926,38.81361,138],[-90.39259,38.81364,138],[-90.39257,38.81367,138],[-90.39256,38.8137,138],[-90.39255,38.81373,138],[-90.39254,38.81376,138],[-90.39253,38.81379,138],[-90.39251,38.81382,138],[-90.39249,38.81384,137],[-90.39247,38.81387,137],[-90.39245,38.8139,137],[-90.39242,38.81393,138],[-90.39239,38.81396,139],[-90.3924,38.81393,138],[-90.39237,38.81396,139],[-90.39236,38.81399,141],[-90.39235,38.81402,142],[-90.39232,38.81404,143],[-90.39231,38.81407,145],[-90.39229,38.81409,146],[-90.39226,38.81411,147],[-90.39223,38.8141,146],[-90.39221,38.81408,145],[-90.39218,38.81406,144],[-90.39216,38.81403,142],[-90.39213,38.81401,141],[-90.3921,38.81399,141],[-90.39207,38.81397,140],[-90.39203,38.81396,140],[-90.392,38.81393,139],[-90.39198,38.8139,137],[-90.39195,38.81388,137],[-90.39193,38.81386,138],[-90.39189,38.81384,140],[-90.39186,38.81382,141],[-90.39182,38.8138,142],[-90.39179,38.81378,142],[-90.39177,38.81376,143],[-90.39174,38.81373,143],[-90.39172,38.8137,143],[-90.39168,38.81368,144],[-90.39165,38.81365,144],[-90.39163,38.81362,144],[-90.39161,38.81359,144],[-90.3916,38.81356,145],[-90.39161,38.81353,145],[-90.39163,38.8135,145],[-90.39162,38.81347,146],[-90.39161,38.81344,146],[-90.39159,38.81341,147],[-90.39157,38.81339,147],[-90.39154,38.81337,148],[-90.39151,38.81336,149],[-90.39148,38.81334,149],[-90.39144,38.81333,150],[-90.3914,38.81332,150],[-90.39136,38.8133,151],[-90.39133,38.81328,151],[-90.39131,38.81325,151],[-90.39128,38.81322,152],[-90.39125,38.8132,152],[-90.39123,38.81317,152],[-90.39122,38.81314,152],[-90.39121,38.81311,152],[-90.39119,38.81308,152],[-90.39117,38.81305,153],[-90.39116,38.81303,152],[-90.39115,38.813,152],[-90.39113,38.81297,151],[-90.39111,38.81295,151],[-90.39109,38.81292,150],[-90.39107,38.81289,150],[-90.39106,38.81286,149],[-90.39105,38.81283,149],[-90.39102,38.8128,148],[-90.391,38.81277,148],[-90.39101,38.81274,147],[-90.39101,38.81271,146],[-90.39101,38.81268,146],[-90.39099,38.81266,146],[-90.391,38.81263,145],[-90.39099,38.8126,144],[-90.39098,38.81257,143],[-90.39098,38.81254,143],[-90.39098,38.81251,142],[-90.39096,38.81248,143],[-90.39098,38.81246,143],[-90.39098,38.81243,144],[-90.39096,38.8124,145],[-90.39094,38.81238,145],[-90.39092,38.81235,146],[-90.39091,38.81232,147],[-90.39091,38.81229,148],[-90.3909,38.81227,148],[-90.39089,38.81224,149],[-90.39088,38.81221,149],[-90.39088,38.81218,149],[-90.39087,38.81215,149],[-90.39087,38.81212,149],[-90.39088,38.81208,149],[-90.39089,38.81205,149],[-90.39091,38.81202,149],[-90.39091,38.81199,149],[-90.39093,38.81197,150],[-90.39093,38.81193,149],[-90.39092,38.8119,149],[-90.39091,38.81187,148],[-90.39091,38.81184,148],[-90.39091,38.81181,148],[-90.39093,38.81178,147],[-90.39094,38.81174,147],[-90.39095,38.81171,146],[-90.39096,38.81168,146],[-90.39099,38.81166,145],[-90.39102,38.81164,145],[-90.39105,38.81162,144],[-90.39108,38.81159,144],[-90.39109,38.81156,143],[-90.39109,38.81153,143],[-90.39108,38.8115,142],[-90.39108,38.81146,142],[-90.39106,38.81143,141],[-90.39104,38.81141,141],[-90.39101,38.81138,141],[-90.39098,38.81136,141],[-90.39095,38.81133,141],[-90.39093,38.81131,141],[-90.39091,38.81129,141],[-90.39089,38.81126,141],[-90.39087,38.81123,141],[-90.39085,38.81121,141],[-90.39081,38.8112,141],[-90.39078,38.81121,141],[-90.39074,38.81122,141],[-90.39071,38.81123,142],[-90.39068,38.81125,142],[-90.39064,38.81126,142],[-90.39061,38.81127,142],[-90.39057,38.81128,142],[-90.39053,38.81127,142],[-90.39049,38.81126,142],[-90.39046,38.81124,142],[-90.39043,38.81121,142],[-90.3904,38.8112,142],[-90.39036,38.81118,142],[-90.39032,38.81117,142],[-90.39028,38.81118,142],[-90.39025,38.81119,143],[-90.39021,38.81118,143],[-90.39018,38.81117,144],[-90.39014,38.81117,144],[-90.3901,38.81116,145],[-90.39006,38.81116,145],[-90.39002,38.81116,146],[-90.38998,38.81115,147],[-90.38994,38.81114,147],[-90.3899,38.81115,148],[-90.38987,38.81117,148],[-90.38983,38.81118,149],[-90.38979,38.81119,149],[-90.38976,38.81119,150],[-90.38972,38.81119,150],[-90.38968,38.81118,150],[-90.38964,38.81116,151],[-90.3896,38.81116,151],[-90.38956,38.81117,151],[-90.38953,38.81119,151],[-90.3895,38.81121,151],[-90.38947,38.81124,151],[-90.38944,38.81126,152],[-90.38941,38.81129,152],[-90.3894,38.81132,152],[-90.38938,38.81135,152],[-90.38936,38.81138,152],[-90.38932,38.81138,152],[-90.38928,38.81137,152],[-90.38923,38.81138,152],[-90.3892,38.8114,152],[-90.38917,38.81142,152],[-90.38913,38.81144,152],[-90.3891,38.81145,153],[-90.38908,38.81147,154],[-90.38905,38.81149,154],[-90.38901,38.8115,155],[-90.38898,38.8115,156],[-90.38895,38.81151,157],[-90.38891,38.81153,158],[-90.38887,38.81153,159],[-90.38883,38.81152,160],[-90.3888,38.81154,160],[-90.38878,38.81157,161],[-90.38877,38.8116,161],[-90.38876,38.81163,162],[-90.38873,38.81164,162],[-90.38869,38.81166,163],[-90.38867,38.81168,163],[-90.38864,38.8117,164],[-90.38861,38.81173,164],[-90.3886,38.81176,164],[-90.38859,38.81178,164],[-90.38858,38.81181,163],[-90.38858,38.81184,163],[-90.38858,38.81187,163],[-90.38859,38.8119,162],[-90.38861,38.81193,162],[-90.38864,38.81195,161],[-90.38867,38.81197,161],[-90.3887,38.812,160],[-90.38872,38.81202,160],[-90.38875,38.81204,160],[-90.38879,38.81204,160],[-90.38881,38.81206,160],[-90.38882,38.81209,160],[-90.38882,38.81212,160],[-90.38883,38.81216,161],[-90.38883,38.81219,161],[-90.38881,38.81222,162],[-90.38879,38.81225,163],[-90.38876,38.81227,163],[-90.38873,38.81229,164],[-90.38871,38.81231,164],[-90.38867,38.81232,165],[-90.38863,38.81232,165],[-90.38862,38.81235,166],[-90.38861,38.81238,166],[-90.38861,38.81241,167],[-90.38861,38.81243,167],[-90.38861,38.81246,168],[-90.38865,38.81247,167],[-90.38863,38.81249,168],[-90.3886,38.81252,169],[-90.38857,38.81253,170],[-90.38855,38.81256,170],[-90.38853,38.81259,171],[-90.38853,38.81263,171],[-90.38852,38.81265,172],[-90.38848,38.81267,173],[-90.38844,38.81268,174],[-90.38841,38.81269,175],[-90.38838,38.8127,177],[-90.38834,38.81271,178],[-90.38832,38.81273,179],[-90.38828,38.81273,180],[-90.38824,38.81272,181],[-90.38821,38.81273,182],[-90.38818,38.81276,183],[-90.38816,38.81278,184],[-90.38813,38.81279,186],[-90.38809,38.81279,187],[-90.38812,38.81279,186],[-90.3881,38.81281,187],[-90.38809,38.81284,187],[-90.38808,38.81286,188],[-90.38807,38.81289,188],[-90.38805,38.81292,189],[-90.38804,38.81295,189],[-90.38804,38.81298,190],[-90.38805,38.81301,190],[-90.38803,38.81305,191],[-90.38801,38.81307,191],[-90.388,38.8131,192],[-90.38798,38.81312,192],[-90.38796,38.81314,193],[-90.38794,38.81317,193],[-90.38791,38.8132,194],[-90.38789,38.81323,194],[-90.38787,38.81325,194],[-90.38784,38.81327,195],[-90.3878,38.81328,195],[-90.38777,38.81328,195],[-90.38773,38.81329,195],[-90.38769,38.8133,195],[-90.38765,38.8133,194],[-90.38762,38.81331,194],[-90.38759,38.81333,194],[-90.38758,38.81336,194],[-90.38758,38.8134,195],[-90.38758,38.81343,195],[-90.38757,38.81347,195],[-90.38756,38.8135,195],[-90.38756,38.81352,195],[-90.38754,38.81355,195],[-90.38754,38.81358,196],[-90.38753,38.81362,196],[-90.38752,38.81364,196],[-90.38751,38.81367,196],[-90.3875,38.8137,197],[-90.3875,38.81374,197],[-90.3875,38.81377,198],[-90.38749,38.81381,198],[-90.3875,38.81383,199],[-90.38751,38.81386,199],[-90.38754,38.81389,199],[-90.38757,38.81391,200],[-90.3876,38.81392,200],[-90.38764,38.81393,200],[-90.38768,38.81395,200],[-90.38771,38.81396,200],[-90.38775,38.81396,200],[-90.38779,38.81395,199],[-90.38783,38.81395,199],[-90.38786,38.81395,199],[-90.3879,38.81394,199],[-90.38793,38.81394,199],[-90.38797,38.81394,199],[-90.38801,38.81393,199],[-90.38805,38.81392,199],[-90.38809,38.81392,198],[-90.38813,38.81392,198],[-90.38817,38.81392,198],[-90.38821,38.81392,198],[-90.38825,38.81393,198],[-90.38828,38.81395,198],[-90.38831,38.81396,198],[-90.38835,38.81398,198],[-90.38839,38.81399,197],[-90.38842,38.81401,197],[-90.38846,38.81403,197],[-90.38849,38.81404,197],[-90.38853,38.81405,196],[-90.38856,38.81406,196],[-90.3886,38.81407,196],[-90.38864,38.81408,195],[-90.38867,38.81408,195],[-90.3887,38.8141,195],[-90.38874,38.81411,194],[-90.38877,38.81413,194],[-90.38881,38.81414,193],[-90.38884,38.81415,193],[-90.38888,38.81416,193],[-90.38892,38.81417,192],[-90.38896,38.81417,192],[-90.389,38.81416,192],[-90.38904,38.81417,192],[-90.38908,38.81418,192],[-90.38911,38.81418,192],[-90.38915,38.81419,192],[-90.38919,38.81421,192],[-90.38923,38.81423,191],[-90.38927,38.81425,191],[-90.38929,38.81427,190],[-90.38933,38.81428,190],[-90.38937,38.81429,189],[-90.3894,38.81431,189],[-90.38943,38.81433,189],[-90.38946,38.81435,189],[-90.38949,38.81438,189],[-90.3895,38.81441,189],[-90.3895,38.81444,189],[-90.3895,38.81447,189],[-90.38948,38.81449,190],[-90.38948,38.81453,190],[-90.38949,38.81456,190],[-90.38949,38.8146,190],[-90.38949,38.81463,190],[-90.3895,38.81465,190],[-90.38949,38.81468,190],[-90.38948,38.81471,191],[-90.38948,38.81474,190],[-90.38948,38.81478,190],[-90.38948,38.81481,190],[-90.38948,38.81483,189],[-90.3895,38.81487,189],[-90.38952,38.81489,189],[-90.38953,38.81492,189],[-90.38955,38.81495,188],[-90.38957,38.81498,188],[-90.38959,38.815,188],[-90.38962,38.81502,188],[-90.38965,38.81504,188],[-90.38968,38.81507,187],[-90.3897,38.81509,187],[-90.38973,38.81511,186],[-90.38977,38.81512,186],[-90.38981,38.81514,185],[-90.38983,38.81515,185],[-90.38986,38.81518,184],[-90.38988,38.8152,184],[-90.3899,38.81523,183],[-90.38993,38.81525,182],[-90.38997,38.81527,182],[-90.39,38.81529,181],[-90.39003,38.81531,181],[-90.39006,38.81533,181],[-90.3901,38.81534,180],[-90.39013,38.81535,180],[-90.39017,38.81536,180],[-90.39022,38.81537,180],[-90.39025,38.81538,180],[-90.39029,38.81538,180],[-90.39034,38.81539,181],[-90.39038,38.8154,181],[-90.39042,38.81542,181],[-90.39045,38.81543,181],[-90.39049,38.81544,182],[-90.39053,38.81545,182],[-90.39056,38.81545,182],[-90.3906,38.81545,183],[-90.39064,38.81546,183],[-90.39068,38.81547,183],[-90.39072,38.81548,184],[-90.39076,38.81549,184],[-90.39079,38.81549,185],[-90.39083,38.81549,185],[-90.39087,38.81549,185],[-90.39092,38.81549,185],[-90.39096,38.81548,185],[-90.39099,38.81547,186],[-90.39103,38.81546,186],[-90.39106,38.81544,186],[-90.3911,38.81542,186],[-90.39114,38.81541,186],[-90.39118,38.81541,186],[-90.39122,38.81541,186],[-90.39126,38.81541,185],[-90.39129,38.81541,185],[-90.39133,38.81543,185],[-90.39137,38.81543,185],[-90.3914,38.81544,185],[-90.39144,38.81546,184],[-90.39146,38.81548,184],[-90.39148,38.81551,184],[-90.3915,38.81554,184],[-90.39153,38.81556,183],[-90.39156,38.81559,183],[-90.39159,38.81561,182],[-90.39162,38.81564,182],[-90.39166,38.81565,181],[-90.39169,38.81567,181],[-90.39173,38.81569,180],[-90.39175,38.81571,179],[-90.39176,38.81574,178],[-90.39178,38.81577,177],[-90.39178,38.8158,177],[-90.39178,38.81583,176],[-90.39177,38.81585,176],[-90.39177,38.81588,176],[-90.39176,38.81591,175],[-90.39175,38.81594,175],[-90.39174,38.81597,174],[-90.39173,38.816,174],[-90.39172,38.81604,173],[-90.39171,38.81607,173],[-90.3917,38.81611,173],[-90.3917,38.81614,172],[-90.39168,38.81617,171],[-90.39168,38.8162,170],[-90.39167,38.81623,169],[-90.39166,38.81626,168],[-90.39165,38.8163,167],[-90.39164,38.81633,166],[-90.39162,38.81635,166],[-90.39161,38.81638,165],[-90.39161,38.81641,164],[-90.39161,38.81643,164],[-90.39158,38.81645,164],[-90.39154,38.81646,165],[-90.39152,38.81648,164],[-90.39152,38.81651,164],[-90.3915,38.81653,163],[-90.39148,38.81656,163],[-90.39146,38.81658,163],[-90.39145,38.81661,162],[-90.39148,38.8166,162],[-90.39147,38.81657,163],[-90.3915,38.81656,162],[-90.39147,38.81657,163],[-90.39145,38.8166,162],[-90.39142,38.81661,163],[-90.39139,38.81663,163],[-90.39137,38.81665,162],[-90.39135,38.81668,162],[-90.39133,38.8167,161],[-90.3913,38.81671,161],[-90.39127,38.81674,161],[-90.39124,38.81675,161],[-90.39121,38.81676,161],[-90.39123,38.81678,160],[-90.39126,38.8168,159],[-90.39122,38.81678,161],[-90.39119,38.81678,161],[-90.39119,38.8168,160],[-90.39116,38.81682,160],[-90.39114,38.8168,161],[-90.39116,38.81682,160],[-90.39118,38.81685,159],[-90.39115,38.81687,159],[-90.39111,38.81687,160],[-90.39109,38.81684,161],[-90.39108,38.81681,162],[-90.39107,38.81678,163],[-90.39107,38.81676,163],[-90.39106,38.81673,164],[-90.39103,38.81671,165],[-90.39099,38.81671,165],[-90.39096,38.81672,165],[-90.39092,38.81671,165],[-90.3909,38.81668,166],[-90.39088,38.81671,165],[-90.39085,38.81673,165],[-90.39084,38.81676,165],[-90.39082,38.81679,164],[-90.39079,38.8168,164],[-90.39077,38.81682,164],[-90.39073,38.81681,165],[-90.39069,38.81681,165],[-90.39065,38.81682,165],[-90.39062,38.81684,165],[-90.39059,38.81686,165],[-90.39056,38.81688,165],[-90.39053,38.8169,165],[-90.39049,38.81691,165],[-90.39048,38.81693,165],[-90.39048,38.81696,165],[-90.39047,38.81699,164],[-90.39049,38.81702,162],[-90.39051,38.81704,162],[-90.39053,38.81707,161],[-90.39054,38.81709,160],[-90.39055,38.81712,159],[-90.39054,38.81715,158],[-90.39054,38.81718,157],[-90.39055,38.81721,156],[-90.39053,38.81723,155],[-90.39051,38.81726,154],[-90.39053,38.81723,155],[-90.39056,38.81725,155],[-90.39051,38.81725,155],[-90.39048,38.81726,154],[-90.39044,38.81727,154],[-90.39045,38.8173,153],[-90.39047,38.81732,152],[-90.3905,38.8173,153],[-90.39053,38.81728,154],[-90.39056,38.81728,153],[-90.39053,38.81728,154],[-90.39049,38.81727,154],[-90.39048,38.8173,153],[-90.39047,38.81727,154],[-90.39049,38.8173,153],[-90.39053,38.8173,153],[-90.39056,38.81729,153],[-90.39054,38.81731,152],[-90.39052,38.81734,151],[-90.39054,38.81736,151],[-90.39054,38.81739,150],[-90.39054,38.81742,148],[-90.39057,38.81744,147],[-90.3906,38.81745,147],[-90.39064,38.81746,146],[-90.39065,38.81749,145],[-90.39066,38.81751,144],[-90.39064,38.81754,143],[-90.39068,38.81756,143],[-90.39071,38.81755,142],[-90.39074,38.81754,142],[-90.39076,38.81751,142],[-90.39078,38.81749,143],[-90.39081,38.81747,143],[-90.39084,38.81746,143],[-90.39088,38.81745,143],[-90.39091,38.81743,143],[-90.39095,38.81742,143],[-90.39097,38.81739,143],[-90.39099,38.81736,144],[-90.39101,38.81734,144],[-90.39105,38.81732,144],[-90.39107,38.81729,144],[-90.3911,38.81727,145],[-90.39112,38.81724,145],[-90.39114,38.81721,145],[-90.39117,38.8172,145],[-90.39121,38.81719,145],[-90.39125,38.81718,145],[-90.39129,38.81716,145],[-90.39132,38.81714,145],[-90.39135,38.81712,146],[-90.39138,38.81711,146],[-90.39142,38.81708,146],[-90.39145,38.81707,146],[-90.39147,38.81705,147],[-90.39151,38.81702,147],[-90.39154,38.81701,147],[-90.39158,38.81701,146],[-90.39162,38.817,146],[-90.39165,38.81698,146],[-90.39168,38.81696,147],[-90.39172,38.81695,147],[-90.39176,38.81693,148],[-90.39179,38.81691,149],[-90.39181,38.81688,149],[-90.39184,38.81686,149],[-90.39186,38.81683,150],[-90.39189,38.81681,150],[-90.39192,38.8168,150],[-90.39196,38.81678,149],[-90.39198,38.81676,149],[-90.392,38.81673,149],[-90.39202,38.8167,149],[-90.39204,38.81668,149],[-90.39206,38.81665,149],[-90.39209,38.81664,148],[-90.39212,38.81661,148],[-90.39215,38.81659,148],[-90.39218,38.81658,147],[-90.39221,38.81656,147],[-90.39222,38.81653,147],[-90.39223,38.8165,147],[-90.39225,38.81646,147],[-90.39226,38.81644,147],[-90.39228,38.81641,147],[-90.39231,38.81639,147],[-90.39232,38.81636,147],[-90.39233,38.81634,148],[-90.39233,38.8163,149],[-90.39232,38.81628,150],[-90.39235,38.81626,149],[-90.39237,38.81623,149],[-90.3924,38.81621,149],[-90.39243,38.81619,149],[-90.39246,38.81616,149],[-90.39249,38.81614,148],[-90.39253,38.81613,147],[-90.39257,38.81612,146],[-90.3926,38.8161,145],[-90.39263,38.81607,144],[-90.39266,38.81605,143],[-90.39267,38.81603,143],[-90.39268,38.816,143],[-90.39267,38.81596,143],[-90.39265,38.81594,144],[-90.39264,38.81591,144],[-90.39264,38.81588,144],[-90.39264,38.81584,144],[-90.39262,38.81581,145],[-90.39262,38.81577,146],[-90.39263,38.81574,146],[-90.39262,38.81571,148],[-90.3926,38.81568,149],[-90.3926,38.81565,149],[-90.3926,38.81562,150],[-90.39261,38.81559,150],[-90.39263,38.81557,150],[-90.39267,38.81555,149],[-90.39271,38.81552,148],[-90.39273,38.8155,148],[-90.39276,38.81548,147],[-90.3928,38.81545,147],[-90.39284,38.81544,146],[-90.39287,38.81543,146],[-90.39291,38.81541,145],[-90.39295,38.81539,145],[-90.39299,38.81538,144],[-90.393,38.81541,143],[-90.39299,38.81544,142],[-90.39296,38.81543,143],[-90.39295,38.81546,142],[-90.39297,38.81544,143],[-90.393,38.81544,142],[-90.39302,38.81541,142],[-90.39301,38.81544,141],[-90.39303,38.81547,140],[-90.39305,38.81544,140],[-90.39304,38.81541,142],[-90.39304,38.81538,143],[-90.39304,38.81535,143],[-90.39306,38.81533,144],[-90.39308,38.8153,144],[-90.39311,38.81528,144],[-90.39314,38.81525,144],[-90.39315,38.81522,144],[-90.39316,38.81519,144],[-90.39317,38.81516,144],[-90.39317,38.81513,144],[-90.39316,38.8151,144],[-90.39315,38.81507,145],[-90.39312,38.81505,146],[-90.3931,38.81502,146],[-90.39308,38.81499,147],[-90.39306,38.81496,147],[-90.39304,38.81494,147],[-90.39302,38.8149,147],[-90.393,38.81487,147],[-90.39297,38.81485,148],[-90.39296,38.81481,148],[-90.39296,38.81478,148],[-90.39296,38.81475,148],[-90.39296,38.81471,148],[-90.39296,38.81468,148],[-90.39295,38.81465,148],[-90.39293,38.81463,149],[-90.39291,38.8146,149],[-90.39288,38.81457,150],[-90.39285,38.81455,151],[-90.39281,38.81453,152],[-90.39278,38.81451,152],[-90.39275,38.8145,153],[-90.39272,38.81448,153],[-90.3927,38.81446,153],[-90.39267,38.81443,153],[-90.39264,38.81441,153],[-90.39262,38.81438,153],[-90.39259,38.81436,153],[-90.39256,38.81434,153],[-90.39252,38.81432,153],[-90.39249,38.81431,153],[-90.39246,38.81429,152],[-90.39243,38.81427,152],[-90.39239,38.81425,151],[-90.39235,38.81423,151],[-90.39233,38.81421,151],[-90.39231,38.81418,150],[-90.39229,38.81416,150],[-90.39227,38.81413,148],[-90.39225,38.81411,147],[-90.39223,38.81408,145],[-90.39223,38.81405,143],[-90.39226,38.81403,142],[-90.3923,38.81401,141],[-90.39233,38.814,141],[-90.39235,38.81398,140],[-90.39237,38.81396,139],[-90.3924,38.81394,138],[-90.39241,38.81391,137],[-90.39243,38.81388,136],[-90.39245,38.81385,137],[-90.39247,38.81383,137],[-90.39249,38.8138,138],[-90.39251,38.81378,138],[-90.39253,38.81376,138],[-90.39252,38.81379,138],[-90.3925,38.81381,138],[-90.39251,38.81377,138],[-90.39252,38.81374,138],[-90.39253,38.81371,138],[-90.39254,38.81367,138],[-90.39255,38.81364,138],[-90.39257,38.81362,138],[-90.3926,38.8136,138],[-90.39262,38.81357,138],[-90.39263,38.81354,137],[-90.39265,38.81351,137],[-90.39266,38.81348,137],[-90.39269,38.81345,136],[-90.39271,38.81343,136],[-90.39275,38.8134,135],[-90.39278,38.81337,135],[-90.3928,38.81335,135],[-90.39282,38.81333,134],[-90.39284,38.8133,134],[-90.39287,38.81328,134],[-90.39289,38.81325,134],[-90.39293,38.81324,133],[-90.39296,38.81322,133],[-90.39298,38.81319,133],[-90.39301,38.81317,133],[-90.39304,38.81315,133],[-90.39306,38.81313,132],[-90.39309,38.8131,132],[-90.39312,38.81308,132],[-90.39315,38.81306,132],[-90.39318,38.81304,133],[-90.39321,38.81301,133],[-90.39324,38.81299,133],[-90.39327,38.81297,133],[-90.3933,38.81295,133],[-90.39333,38.81294,133]]],
        "bbox": [
          -90.38749,
          38.81756,
          -90.39356,
          38.81114
        ]
      },
      "properties": {
        "name": "11.12.2023"
      }
    }
  ]
}