{
  "type": "FeatureCollection",
  "features": [
    {
      "type": "Feature",
      "geometry": {
        "type": "MultiLineString",
        "coordinates": [[[-90.39512,38.81155,132],[-90.39496,38.81169,133],[-90.39493,38.81171,133],[-90.39491,38.81173,133],[-90.39484,38.81183,135],[-90.3948,38.81185,135],[-90.39464,38.81198,137],[-90.39461,38.812,137],[-90.39458,38.81203,137],[-90.39455,38.81206,137],[-90.39453,38.81209,137],[-90.39452,38.81211,137],[-90.39451,38.81215,137],[-90.39448,38.81217,137],[-90.39445,38.81219,137],[-90.39442,38.81222,138],[-90.39438,38.81224,137],[-90.39435,38.81226,137],[-90.39431,38.81229,137],[-90.39428,38.8123,137],[-90.39425,38.81232,137],[-90.39422,38.81234,137],[-90.3942,38.81237,137],[-90.39417,38.81238,137],[-90.39414,38.8124,137],[-90.3941,38.81242,137],[-90.39407,38.81244,137],[-90.39405,38.81246,137],[-90.39402,38.81248,137],[-90.39399,38.8125,137],[-90.39395,38.81253,136],[-90.39391,38.81255,136],[-90.39388,38.81258,136],[-90.39384,38.81261,135],[-90.39381,38.81262,135],[-90.39378,38.81265,135],[-90.39374,38.81268,134],[-90.3937,38.8127,134],[-90.39366,38.81272,134],[-90.39362,38.81274,134],[-90.39359,38.81275,134],[-90.39356,38.81277,134],[-90.39353,38.81278,134],[-90.3935,38.81282,134],[-90.39347,38.81284,134],[-90.39344,38.81287,133],[-90.3934,38.81289,133],[-90.39337,38.8129,133],[-90.39334,38.81293,133],[-90.39331,38.81296,133],[-90.39327,38.81297,133],[-90.39323,38.81299,133],[-90.39319,38.81301,133],[-90.39316,38.81303,133],[-90.39313,38.81305,133],[-90.39309,38.81307,132],[-90.39307,38.81309,132],[-90.39303,38.8131,133],[-90.393,38.81311,133],[-90.39296,38.81313,133],[-90.39294,38.81315,133],[-90.3929,38.81317,133],[-90.39287,38.81319,134],[-90.39284,38.81321,134],[-90.39282,38.81324,134],[-90.3928,38.81327,134],[-90.39277,38.8133,134],[-90.39274,38.81332,135],[-90.3927,38.81333,135],[-90.39267,38.81336,136],[-90.39265,38.81338,136],[-90.39263,38.81341,136],[-90.39261,38.81344,137],[-90.39258,38.81348,137],[-90.39255,38.81351,138],[-90.39252,38.81354,138],[-90.39249,38.81356,138],[-90.39247,38.8136,138],[-90.39245,38.81363,138],[-90.39244,38.81366,138],[-90.39243,38.81369,138],[-90.39244,38.81372,138],[-90.39245,38.81375,138],[-90.39249,38.81374,138],[-90.39248,38.81377,138],[-90.39244,38.81378,137],[-90.39247,38.81376,138],[-90.3925,38.81378,138],[-90.39248,38.81381,138],[-90.39246,38.81384,137],[-90.39242,38.81387,136],[-90.3924,38.81389,136],[-90.39236,38.81391,136],[-90.39234,38.81394,137],[-90.39232,38.81396,138],[-90.39231,38.81399,140],[-90.39229,38.81402,141],[-90.3923,38.81405,143],[-90.39229,38.81409,146],[-90.3923,38.81412,148],[-90.39232,38.81415,149],[-90.39235,38.81417,150],[-90.39238,38.81419,150],[-90.39241,38.81421,151],[-90.39242,38.81424,151],[-90.39246,38.81426,152],[-90.3925,38.81425,151],[-90.39253,38.81427,151],[-90.39254,38.8143,152],[-90.39258,38.81431,152],[-90.39261,38.81433,152],[-90.39266,38.81435,152],[-90.39268,38.81437,152],[-90.39272,38.81438,152],[-90.39277,38.81441,152],[-90.39282,38.81443,151],[-90.39285,38.81444,151],[-90.39288,38.81447,150],[-90.39289,38.81449,150],[-90.39291,38.81453,149],[-90.39293,38.81456,149],[-90.39294,38.81459,149],[-90.39296,38.81462,148],[-90.39296,38.81465,148],[-90.39294,38.81467,148],[-90.39294,38.81471,148],[-90.39294,38.81474,148],[-90.39293,38.81477,148],[-90.39294,38.8148,148],[-90.39295,38.81484,148],[-90.39298,38.81487,148],[-90.39302,38.8149,147],[-90.39304,38.81492,147],[-90.39306,38.81495,147],[-90.39308,38.81497,147],[-90.3931,38.815,147],[-90.39312,38.81502,146],[-90.39316,38.81505,145],[-90.39318,38.81507,144],[-90.39318,38.8151,144],[-90.39317,38.81513,144],[-90.39316,38.81515,144],[-90.39314,38.81518,144],[-90.39311,38.8152,145],[-90.39309,38.81524,145],[-90.39307,38.81526,145],[-90.39304,38.81529,145],[-90.39302,38.81531,145],[-90.39299,38.81533,145],[-90.39296,38.81535,146],[-90.39294,38.81537,146],[-90.39291,38.81539,146],[-90.39289,38.81542,145],[-90.39286,38.81545,145],[-90.39282,38.81545,146],[-90.39278,38.81546,147],[-90.39274,38.81549,148],[-90.39271,38.81552,148],[-90.39268,38.81553,149],[-90.39266,38.81556,149],[-90.39264,38.81558,149],[-90.39261,38.8156,150],[-90.39259,38.81563,150],[-90.39262,38.81565,149],[-90.39262,38.81569,148],[-90.39263,38.81572,147],[-90.39266,38.81574,145],[-90.39268,38.81577,144],[-90.3927,38.8158,143],[-90.39272,38.81583,141],[-90.39273,38.81586,141],[-90.39271,38.81589,142],[-90.39269,38.81592,142],[-90.39269,38.81596,142],[-90.39266,38.81598,143],[-90.39263,38.816,144],[-90.3926,38.81602,145],[-90.39256,38.81605,146],[-90.39253,38.81607,147],[-90.3925,38.81609,148],[-90.39246,38.81609,150],[-90.39242,38.81611,151],[-90.39239,38.81614,151],[-90.39236,38.81615,152],[-90.39233,38.81617,152],[-90.39232,38.8162,152],[-90.39231,38.81623,151],[-90.39232,38.81626,150],[-90.3923,38.81629,150],[-90.39231,38.81631,149],[-90.3923,38.81634,148],[-90.39229,38.81637,148],[-90.39226,38.81638,148],[-90.39224,38.81641,148],[-90.39222,38.81643,148],[-90.39221,38.81646,148],[-90.39219,38.8165,148],[-90.39218,38.81652,148],[-90.39216,38.81655,148],[-90.39214,38.81658,148],[-90.39213,38.81661,148],[-90.39211,38.81663,148],[-90.39207,38.81664,149],[-90.39204,38.81666,149],[-90.392,38.81667,150],[-90.39197,38.81669,150],[-90.39196,38.81671,150],[-90.39191,38.81672,151],[-90.39187,38.81673,151],[-90.39183,38.81674,151],[-90.39181,38.81676,151],[-90.39179,38.81679,151],[-90.39178,38.81681,151],[-90.39177,38.81685,150],[-90.39175,38.81688,149],[-90.39179,38.81688,149],[-90.39183,38.81688,149],[-90.39187,38.81687,149],[-90.39185,38.81691,149],[-90.39181,38.81693,148],[-90.39177,38.81694,148],[-90.39173,38.81694,148],[-90.39168,38.81695,147],[-90.39164,38.81696,147],[-90.39161,38.81697,147],[-90.39157,38.81699,147],[-90.39154,38.81699,148],[-90.39151,38.81701,148],[-90.39148,38.81704,147],[-90.39146,38.81706,146],[-90.39144,38.81709,145],[-90.39141,38.81711,145],[-90.39138,38.81712,145],[-90.39135,38.81714,145],[-90.39131,38.81715,145],[-90.39125,38.81716,146],[-90.39121,38.81717,146],[-90.39117,38.81719,146],[-90.39113,38.81721,146],[-90.39109,38.81722,146],[-90.39106,38.81724,146],[-90.39103,38.81726,146],[-90.391,38.81728,146],[-90.39098,38.81731,145],[-90.39096,38.81733,145],[-90.39096,38.81736,144],[-90.39094,38.81739,144],[-90.3909,38.81741,144],[-90.39086,38.81742,144],[-90.39084,38.81745,143],[-90.39083,38.81748,142],[-90.39082,38.81752,141],[-90.3908,38.81755,141],[-90.39077,38.81756,141],[-90.39073,38.81758,141],[-90.39069,38.81758,142],[-90.39066,38.8176,142],[-90.39063,38.81761,142],[-90.39061,38.81764,142],[-90.39059,38.81767,141],[-90.39056,38.81769,141],[-90.39053,38.8177,141],[-90.3905,38.81771,142],[-90.39045,38.81771,142],[-90.3904,38.81771,143],[-90.39037,38.81772,143],[-90.39034,38.81774,143],[-90.39031,38.81776,143],[-90.39029,38.8178,142],[-90.39026,38.81781,142],[-90.39022,38.81783,143],[-90.39018,38.81786,143],[-90.39015,38.81787,143],[-90.39011,38.81787,144],[-90.3901,38.8179,144],[-90.39006,38.81791,144],[-90.39001,38.81789,145],[-90.38998,38.8179,146],[-90.38994,38.8179,146],[-90.3899,38.8179,147],[-90.38985,38.81791,147],[-90.38982,38.81791,147],[-90.38978,38.81793,148],[-90.38975,38.81795,148],[-90.38971,38.81796,148],[-90.38968,38.81796,148],[-90.38964,38.81796,148],[-90.38961,38.81799,148],[-90.38965,38.818,147],[-90.3896,38.81804,147],[-90.38993,38.81793,146],[-90.38996,38.81791,146],[-90.39001,38.81792,145],[-90.39005,38.8179,144],[-90.39009,38.81788,144],[-90.39012,38.81787,144],[-90.39016,38.81787,143],[-90.39021,38.81785,143],[-90.39024,38.81785,142],[-90.39028,38.81785,142],[-90.39033,38.81784,141],[-90.39036,38.81782,141],[-90.39041,38.81781,141],[-90.39044,38.8178,141],[-90.39049,38.81778,140],[-90.39053,38.81776,140],[-90.39056,38.81774,140],[-90.39055,38.81771,141],[-90.39056,38.81768,142],[-90.3906,38.81766,141],[-90.39057,38.81764,142],[-90.39057,38.8176,143],[-90.39056,38.81757,144],[-90.39054,38.81755,145],[-90.39053,38.81752,145],[-90.39054,38.81749,146],[-90.39054,38.81746,147],[-90.39052,38.81744,148],[-90.39049,38.81741,149],[-90.39044,38.8174,150],[-90.39041,38.81738,151],[-90.3904,38.81735,152],[-90.39039,38.81738,151],[-90.39043,38.81739,150],[-90.39046,38.8174,150],[-90.3905,38.81741,149],[-90.39053,38.81739,150],[-90.39057,38.81739,149],[-90.3906,38.8174,148],[-90.39062,38.81737,149],[-90.39064,38.81735,150],[-90.39067,38.81732,150],[-90.39062,38.81732,151],[-90.39058,38.81733,151],[-90.39055,38.81734,151],[-90.39051,38.8173,153],[-90.39045,38.81728,154],[-90.39045,38.81723,156],[-90.39045,38.81718,157],[-90.39047,38.81713,159],[-90.39049,38.81709,160],[-90.39051,38.81707,161],[-90.39054,38.81706,161],[-90.39059,38.81704,161],[-90.39059,38.81695,164],[-90.39055,38.81693,165],[-90.39052,38.8169,165],[-90.39052,38.81686,166],[-90.39053,38.81684,166],[-90.39051,38.81687,166],[-90.39054,38.81685,166],[-90.39058,38.81683,166],[-90.39062,38.81683,165],[-90.39065,38.81681,165],[-90.39068,38.81679,165],[-90.39071,38.81677,165],[-90.39075,38.81677,165],[-90.39077,38.8168,165],[-90.39081,38.81679,164],[-90.39083,38.81676,165],[-90.39086,38.81675,165],[-90.39089,38.81674,165],[-90.39093,38.81674,165],[-90.39096,38.81672,165],[-90.39099,38.81673,164],[-90.39103,38.81672,164],[-90.39107,38.81674,164],[-90.39108,38.81677,163],[-90.39109,38.81681,162],[-90.39111,38.81683,161],[-90.39114,38.81682,161],[-90.39117,38.8168,161],[-90.3912,38.81679,161],[-90.39124,38.81678,160],[-90.39127,38.81676,160],[-90.39129,38.81673,161],[-90.39132,38.8167,161],[-90.39135,38.81668,162],[-90.39138,38.81666,162],[-90.3914,38.81664,162],[-90.39143,38.81662,162],[-90.39146,38.81659,162],[-90.39149,38.81658,162],[-90.39146,38.8166,162],[-90.39157,38.81647,163],[-90.39159,38.81645,164],[-90.39161,38.81642,164],[-90.39164,38.81639,164],[-90.39167,38.81638,164],[-90.39169,38.81634,164],[-90.39171,38.81631,165],[-90.39172,38.81628,166],[-90.39173,38.81625,167],[-90.39174,38.81622,168],[-90.39176,38.81618,168],[-90.39176,38.81615,169],[-90.39178,38.81611,170],[-90.39179,38.81608,171],[-90.39179,38.81604,171],[-90.3918,38.81601,172],[-90.39176,38.81599,173],[-90.39175,38.81596,174],[-90.39171,38.81595,176],[-90.39167,38.81596,177],[-90.39164,38.81598,177],[-90.39161,38.81599,176],[-90.39165,38.81598,176],[-90.39169,38.81598,176],[-90.39174,38.81597,174],[-90.39178,38.81596,174],[-90.39179,38.81592,174],[-90.3918,38.81589,174],[-90.3918,38.81585,175],[-90.39182,38.81582,175],[-90.39182,38.81579,176],[-90.39181,38.81576,177],[-90.39178,38.81573,178],[-90.39175,38.81571,179],[-90.39171,38.8157,180],[-90.39168,38.81567,181],[-90.39166,38.81565,181],[-90.39163,38.81563,182],[-90.3916,38.8156,182],[-90.39157,38.81557,183],[-90.39153,38.81555,183],[-90.39149,38.81551,184],[-90.39148,38.81548,184],[-90.39145,38.81545,184],[-90.39141,38.81544,185],[-90.39137,38.81542,185],[-90.39133,38.81541,185],[-90.39128,38.8154,185],[-90.39124,38.81539,186],[-90.3912,38.81538,186],[-90.39115,38.81539,186],[-90.39111,38.81541,186],[-90.39107,38.81542,186],[-90.39104,38.81543,186],[-90.391,38.81543,186],[-90.39096,38.81544,186],[-90.39092,38.81544,186],[-90.39088,38.81543,185],[-90.39083,38.81544,185],[-90.39079,38.81545,185],[-90.39075,38.81545,184],[-90.39071,38.81544,184],[-90.39067,38.81543,184],[-90.39063,38.81543,183],[-90.39058,38.81543,183],[-90.39054,38.81542,182],[-90.39049,38.81542,182],[-90.39046,38.81541,181],[-90.39043,38.81539,181],[-90.3904,38.81537,181],[-90.39037,38.81536,181],[-90.39033,38.81535,181],[-90.39029,38.81533,181],[-90.39025,38.81532,181],[-90.39022,38.8153,181],[-90.39017,38.8153,181],[-90.39012,38.81529,181],[-90.39008,38.81527,182],[-90.39004,38.81526,182],[-90.39002,38.81524,182],[-90.38998,38.81523,183],[-90.38995,38.8152,184],[-90.38992,38.81517,184],[-90.38989,38.81515,185],[-90.38986,38.81513,185],[-90.38982,38.8151,186],[-90.38978,38.81509,186],[-90.38977,38.81507,187],[-90.38974,38.81504,188],[-90.38973,38.81501,188],[-90.3897,38.81498,189],[-90.38968,38.81496,189],[-90.38965,38.81494,189],[-90.38963,38.81492,189],[-90.38961,38.81488,189],[-90.3896,38.81485,190],[-90.3896,38.81482,190],[-90.38959,38.81479,190],[-90.38957,38.81476,191],[-90.38954,38.81473,191],[-90.38953,38.8147,191],[-90.38952,38.81466,190],[-90.38951,38.81463,190],[-90.38951,38.81459,190],[-90.3895,38.81455,190],[-90.3895,38.81452,190],[-90.38949,38.8145,190],[-90.38947,38.81446,189],[-90.38946,38.81443,189],[-90.38945,38.8144,189],[-90.38943,38.81437,189],[-90.3894,38.81435,189],[-90.38936,38.81433,190],[-90.38934,38.8143,190],[-90.38932,38.81427,190],[-90.38929,38.81425,190],[-90.38925,38.81423,191],[-90.38922,38.8142,191],[-90.3892,38.81417,192],[-90.38917,38.81416,192],[-90.38913,38.81415,192],[-90.38907,38.81415,192],[-90.38903,38.81415,192],[-90.38899,38.81414,192],[-90.38895,38.81413,192],[-90.38891,38.81412,192],[-90.38887,38.81411,192],[-90.38883,38.81409,193],[-90.38879,38.81408,193],[-90.38876,38.81406,194],[-90.38872,38.81406,194],[-90.38868,38.81404,195],[-90.38864,38.81404,195],[-90.38861,38.81403,196],[-90.38855,38.81403,196],[-90.38851,38.81403,196],[-90.38847,38.81403,197],[-90.38843,38.81402,197],[-90.3884,38.81401,197],[-90.38836,38.81401,198],[-90.38832,38.81399,198],[-90.38829,38.81398,198],[-90.38825,38.81397,198],[-90.3882,38.81396,198],[-90.38816,38.81395,198],[-90.38812,38.81394,198],[-90.38807,38.81394,199],[-90.38803,38.81392,199],[-90.38798,38.81391,199],[-90.38794,38.81391,199],[-90.3879,38.81392,199],[-90.38785,38.81392,199],[-90.38782,38.81393,199],[-90.38778,38.81394,199],[-90.38773,38.81395,200],[-90.38769,38.81395,200],[-90.38766,38.81393,200],[-90.38763,38.81391,200],[-90.38759,38.81388,199],[-90.38756,38.81385,199],[-90.38754,38.81382,199],[-90.38754,38.81379,198],[-90.38756,38.81376,198],[-90.38758,38.81372,197],[-90.38756,38.81368,197],[-90.38755,38.81365,196],[-90.38756,38.81361,196],[-90.38757,38.81359,196],[-90.38757,38.81356,196],[-90.38756,38.81352,195],[-90.38755,38.81349,195],[-90.38755,38.81345,195],[-90.38755,38.81342,194],[-90.38755,38.81338,194],[-90.38756,38.81335,194],[-90.38757,38.81333,194],[-90.3876,38.81331,194],[-90.38764,38.8133,194],[-90.38767,38.81329,194],[-90.38771,38.81329,195],[-90.38775,38.81329,195],[-90.38779,38.81328,195],[-90.38783,38.81327,195],[-90.38786,38.81325,194],[-90.38788,38.81323,194],[-90.38793,38.81323,194],[-90.38797,38.81323,194],[-90.38801,38.81321,193],[-90.38803,38.81318,193],[-90.38805,38.81315,192],[-90.38806,38.81312,192],[-90.38808,38.81309,191],[-90.3881,38.81306,190],[-90.38812,38.81303,189],[-90.38812,38.81299,188],[-90.38811,38.81296,188],[-90.38812,38.81293,187],[-90.38814,38.8129,187],[-90.38815,38.81288,186],[-90.38816,38.81285,185],[-90.38816,38.81282,185],[-90.38817,38.81279,184],[-90.38821,38.81278,183],[-90.38824,38.81277,182],[-90.38828,38.81276,181],[-90.38832,38.81275,179],[-90.38836,38.81274,178],[-90.38839,38.81272,177],[-90.38843,38.81272,175],[-90.38845,38.8127,174],[-90.38848,38.8127,173],[-90.38851,38.81268,172],[-90.38854,38.81265,171],[-90.38855,38.81262,171],[-90.38857,38.81259,170],[-90.38859,38.81256,169],[-90.3886,38.81253,169],[-90.38863,38.8125,168],[-90.38866,38.81248,167],[-90.38868,38.81245,167],[-90.38867,38.81242,166],[-90.38867,38.81239,166],[-90.38869,38.81237,165],[-90.3887,38.81234,165],[-90.38871,38.81231,164],[-90.38874,38.81229,163],[-90.38877,38.81227,163],[-90.38879,38.81225,163],[-90.38881,38.81222,162],[-90.38884,38.8122,161],[-90.38886,38.81217,161],[-90.38888,38.81214,160],[-90.38889,38.81212,160],[-90.38888,38.81209,159],[-90.38886,38.81205,159],[-90.38884,38.81203,159],[-90.3888,38.81201,159],[-90.38878,38.81199,159],[-90.38874,38.81198,160],[-90.3887,38.81196,160],[-90.38866,38.81197,161],[-90.38863,38.81196,161],[-90.38864,38.81193,161],[-90.38863,38.8119,162],[-90.38863,38.81187,162],[-90.38865,38.81183,162],[-90.38867,38.81181,162],[-90.38869,38.81178,162],[-90.38869,38.81175,162],[-90.38872,38.81172,162],[-90.38874,38.8117,162],[-90.38877,38.81168,161],[-90.3888,38.81165,161],[-90.38883,38.81162,160],[-90.38884,38.81159,160],[-90.38885,38.81156,160],[-90.38889,38.81156,159],[-90.38892,38.81155,158],[-90.38895,38.81154,157],[-90.389,38.81152,156],[-90.38903,38.81151,155],[-90.38907,38.8115,154],[-90.38911,38.81149,153],[-90.38914,38.81146,152],[-90.38918,38.81144,152],[-90.38923,38.81142,152],[-90.38926,38.81139,152],[-90.38929,38.81137,152],[-90.38932,38.81136,152],[-90.38935,38.81138,152],[-90.38938,38.81137,152],[-90.3894,38.81135,152],[-90.38942,38.81132,152],[-90.38943,38.81129,152],[-90.38947,38.81127,151],[-90.38949,38.81124,151],[-90.3895,38.81121,151],[-90.38952,38.81119,151],[-90.38956,38.81117,151],[-90.3896,38.81116,151],[-90.38964,38.81117,151],[-90.38969,38.81118,150],[-90.38973,38.81118,150],[-90.38977,38.81118,150],[-90.3898,38.81116,149],[-90.38985,38.81116,148],[-90.38989,38.81115,148],[-90.38993,38.81114,147],[-90.38997,38.81116,147],[-90.39,38.81117,146],[-90.39004,38.81118,146],[-90.39008,38.81119,145],[-90.39013,38.81119,144],[-90.39017,38.81119,144],[-90.39021,38.81118,143],[-90.39025,38.81118,143],[-90.39029,38.81118,142],[-90.39032,38.81119,142],[-90.39036,38.8112,142],[-90.3904,38.8112,142],[-90.39043,38.81122,142],[-90.39048,38.81123,142],[-90.39052,38.81125,142],[-90.39057,38.81125,142],[-90.3906,38.81124,142],[-90.39064,38.81122,142],[-90.39068,38.81121,142],[-90.39072,38.8112,141],[-90.39076,38.81119,141],[-90.39079,38.8112,141],[-90.39082,38.81122,141],[-90.39083,38.81125,141],[-90.39086,38.81128,141],[-90.3909,38.8113,141],[-90.39093,38.81132,141],[-90.39097,38.81135,141],[-90.39101,38.81137,141],[-90.39104,38.8114,141],[-90.39107,38.81142,141],[-90.39108,38.81145,142],[-90.39108,38.81148,142],[-90.39109,38.81152,143],[-90.39108,38.81155,143],[-90.39108,38.81158,143],[-90.39105,38.8116,144],[-90.39101,38.81161,144],[-90.39098,38.81163,145],[-90.39096,38.81166,145],[-90.39094,38.8117,146],[-90.39092,38.81172,147],[-90.39091,38.81175,147],[-90.39091,38.81178,147],[-90.39091,38.81182,148],[-90.39089,38.81184,148],[-90.3909,38.81187,148],[-90.39091,38.8119,149],[-90.39092,38.81192,149],[-90.39091,38.81195,149],[-90.3909,38.81199,149],[-90.3909,38.81202,149],[-90.3909,38.81205,149],[-90.39089,38.81208,149],[-90.39086,38.81209,149],[-90.39081,38.81208,149],[-90.39084,38.8121,149],[-90.39086,38.81213,149],[-90.3909,38.81231,147],[-90.3909,38.81234,147],[-90.39091,38.81237,146],[-90.39092,38.8124,145],[-90.39093,38.81243,144],[-90.39093,38.81246,143],[-90.39094,38.81249,143],[-90.39094,38.81253,143],[-90.39094,38.81256,144],[-90.39095,38.81259,144],[-90.39095,38.81263,145],[-90.39097,38.81265,146],[-90.391,38.81267,146],[-90.39103,38.81271,146],[-90.39103,38.81274,147],[-90.39105,38.81277,147],[-90.39107,38.8128,148],[-90.3911,38.81283,148],[-90.39112,38.81286,148],[-90.39113,38.81289,149],[-90.39116,38.81292,149],[-90.39119,38.81293,149],[-90.39123,38.81295,149],[-90.39124,38.81299,150],[-90.39124,38.81302,151],[-90.39122,38.81305,152],[-90.39125,38.81306,152],[-90.39126,38.81309,152],[-90.39125,38.81312,152],[-90.39127,38.81315,151],[-90.3913,38.81317,151],[-90.39135,38.81318,151],[-90.39138,38.81318,150],[-90.39141,38.81321,150],[-90.39142,38.81324,150],[-90.39145,38.81326,149],[-90.39145,38.81329,149],[-90.39146,38.81332,149],[-90.39149,38.81334,149],[-90.39153,38.81336,148],[-90.39156,38.81338,147],[-90.39158,38.81342,147],[-90.39158,38.81344,147],[-90.3916,38.81348,146],[-90.3916,38.81351,145],[-90.3916,38.81354,145],[-90.39159,38.81357,145],[-90.39161,38.81361,144],[-90.39162,38.81363,144],[-90.39164,38.81367,144],[-90.39167,38.81369,144],[-90.3917,38.81371,144],[-90.39173,38.81375,144],[-90.39177,38.81377,143],[-90.3918,38.81378,142],[-90.39183,38.81377,141],[-90.39187,38.81377,141],[-90.39191,38.81379,140],[-90.39194,38.81379,139],[-90.39196,38.81383,138],[-90.39198,38.81385,137],[-90.392,38.81389,137],[-90.39204,38.81391,137],[-90.39205,38.81394,138],[-90.39209,38.81395,138],[-90.39213,38.81396,139],[-90.39217,38.81398,139],[-90.3922,38.81398,139],[-90.39225,38.81398,139],[-90.3923,38.81398,139],[-90.39234,38.81398,140],[-90.39237,38.81395,138],[-90.39241,38.81393,138],[-90.39244,38.81391,138],[-90.39246,38.81388,137],[-90.39248,38.81386,137],[-90.39251,38.81384,138],[-90.39255,38.81382,138],[-90.39255,38.8138,138],[-90.39256,38.81377,138],[-90.39257,38.81374,138],[-90.39259,38.81371,138],[-90.39261,38.81368,138],[-90.39262,38.81365,138],[-90.39263,38.81362,138],[-90.39265,38.81359,138],[-90.39268,38.81356,137],[-90.39268,38.81354,137],[-90.39269,38.8135,137],[-90.3927,38.81348,136],[-90.39268,38.81345,136],[-90.39265,38.81342,136],[-90.39262,38.81339,136],[-90.3926,38.81337,136],[-90.39258,38.81334,136],[-90.39257,38.81332,136],[-90.39254,38.8133,136],[-90.3925,38.81327,136],[-90.39246,38.81325,136],[-90.39244,38.81324,137],[-90.3924,38.81321,137],[-90.39238,38.81319,137],[-90.39235,38.81316,137],[-90.39232,38.81313,137],[-90.39229,38.81311,137],[-90.39226,38.81309,137],[-90.39223,38.81308,137],[-90.3922,38.81305,137],[-90.39216,38.81304,137],[-90.39212,38.81302,137],[-90.39208,38.81301,137],[-90.39205,38.81299,137],[-90.39202,38.81297,137],[-90.39198,38.81296,137],[-90.39195,38.81294,137],[-90.39191,38.8129,137],[-90.39188,38.81287,137],[-90.39185,38.81284,137],[-90.39182,38.81282,137],[-90.39177,38.8128,137],[-90.39173,38.81278,138],[-90.39169,38.81277,138],[-90.39166,38.81275,138],[-90.39163,38.81272,138],[-90.39161,38.81269,138],[-90.39159,38.81267,138],[-90.39159,38.81264,137],[-90.39161,38.81261,137],[-90.39162,38.81258,136],[-90.39164,38.81255,135],[-90.39166,38.81252,135],[-90.39167,38.81248,135],[-90.3917,38.81246,135],[-90.39173,38.81243,135],[-90.39175,38.8124,135],[-90.39177,38.81238,136],[-90.39179,38.81235,136],[-90.39181,38.81232,136],[-90.39183,38.8123,136],[-90.39184,38.81227,136],[-90.39187,38.81224,137],[-90.3919,38.81222,137],[-90.39192,38.8122,137],[-90.39196,38.81218,137],[-90.39199,38.81216,137],[-90.39204,38.81216,136],[-90.39208,38.81217,136],[-90.39212,38.81218,136],[-90.39217,38.81218,136],[-90.39221,38.8122,136],[-90.39224,38.81222,135],[-90.39228,38.81225,135],[-90.39232,38.81226,135],[-90.39236,38.81228,135],[-90.39238,38.8123,135],[-90.3924,38.81232,135],[-90.39244,38.81234,135],[-90.39247,38.81237,135],[-90.39248,38.81239,135],[-90.39251,38.81241,135],[-90.39254,38.81244,135],[-90.39258,38.81246,135],[-90.39261,38.81246,135],[-90.39266,38.81249,134],[-90.3927,38.81252,134],[-90.39273,38.81254,134],[-90.39277,38.81255,134],[-90.39281,38.81257,134],[-90.39285,38.81259,134],[-90.39289,38.8126,134],[-90.39293,38.81263,134],[-90.39296,38.81265,134],[-90.393,38.81268,134],[-90.39303,38.8127,134],[-90.39306,38.81271,134],[-90.3931,38.81273,134],[-90.39313,38.81276,134],[-90.39317,38.81277,134],[-90.3932,38.81278,134],[-90.39323,38.8128,134],[-90.39326,38.81282,134],[-90.39329,38.81284,134],[-90.39333,38.81286,134],[-90.39336,38.81289,134],[-90.3934,38.8129,133],[-90.39345,38.81288,133],[-90.39347,38.81286,133],[-90.3935,38.81284,133],[-90.39354,38.81282,133],[-90.39357,38.8128,133],[-90.3936,38.81278,134],[-90.39363,38.81276,134],[-90.39366,38.81274,134],[-90.3937,38.81272,134],[-90.39373,38.8127,134],[-90.39376,38.81268,134],[-90.3938,38.81266,135],[-90.39384,38.81263,135],[-90.39386,38.81261,135],[-90.39389,38.81259,136],[-90.39392,38.81257,136],[-90.39396,38.81256,136],[-90.39399,38.81254,136],[-90.39402,38.81252,136],[-90.39407,38.8125,137],[-90.3941,38.81248,137],[-90.39413,38.81246,137],[-90.39415,38.81244,137],[-90.39417,38.81241,137],[-90.3942,38.81239,137],[-90.39424,38.81236,137],[-90.39426,38.81234,137],[-90.3943,38.81231,137],[-90.39434,38.81229,137],[-90.39437,38.81227,137],[-90.39439,38.81224,137],[-90.39441,38.81222,138],[-90.39445,38.8122,137],[-90.39447,38.81217,137],[-90.39449,38.81214,137],[-90.39453,38.81212,137],[-90.39456,38.8121,137],[-90.39459,38.81208,137],[-90.39461,38.81205,137],[-90.39463,38.81203,137],[-90.39466,38.81199,137],[-90.39469,38.81197,137],[-90.39472,38.81195,136],[-90.39474,38.81193,136],[-90.39477,38.81191,136],[-90.39481,38.81188,135],[-90.39483,38.81185,135],[-90.39487,38.81183,134],[-90.3949,38.81181,134],[-90.39492,38.81179,134],[-90.39495,38.81176,133],[-90.39499,38.81175,133],[-90.39501,38.81173,133],[-90.39505,38.81171,133],[-90.39508,38.81169,133],[-90.39511,38.81167,133],[-90.39514,38.81165,132],[-90.39514,38.81161,132],[-90.39512,38.81159,132],[-90.39547,38.81168,132],[-90.39567,38.81175,132],[-90.39588,38.81178,131],[-90.39616,38.81184,132],[-90.39652,38.81185,134],[-90.39684,38.81178,136],[-90.39706,38.81154,136],[-90.39826,38.80964,132],[-90.39844,38.80955,133],[-90.39859,38.80948,134],[-90.3988,38.80932,134],[-90.39901,38.8092,133],[-90.39918,38.80912,133],[-90.39933,38.80904,133],[-90.39948,38.80897,133],[-90.39963,38.80888,134],[-90.39977,38.80879,134],[-90.39991,38.80871,134],[-90.40008,38.80861,135],[-90.4004,38.80847,136],[-90.40066,38.80832,136],[-90.40093,38.8077,135],[-90.40109,38.80756,136],[-90.40124,38.80742,137],[-90.40138,38.8073,137],[-90.40152,38.80718,136],[-90.4017,38.80702,134],[-90.40184,38.80687,133],[-90.40197,38.80675,132],[-90.40207,38.80667,131],[-90.40223,38.80653,130],[-90.40235,38.80641,132],[-90.40247,38.80629,133]]],
        "bbox": [
          -90.38754,
          38.81804,
          -90.40247,
          38.80629
        ]
      },
      "properties": {
        "name": "5.24.2020"
      }
    }
  ]
}