{
  "type": "FeatureCollection",
  "features": [
    {
      "type": "Feature",
      "geometry": {
        "type": "MultiLineString",
        "coordinates": [[[-90.39352,38.81284,133],[-90.39344,38.81283,134],[-90.39339,38.81285,134],[-90.39333,38.81286,134],[-90.39329,38.81288,134],[-90.39325,38.81291,134],[-90.39322,38.81294,133],[-90.39318,38.81297,133],[-90.39314,38.813,133],[-90.39309,38.81303,133],[-90.39305,38.81305,133],[-90.39301,38.81308,133],[-90.39296,38.81311,133],[-90.39292,38.81315,133],[-90.39287,38.81318,133],[-90.39284,38.81321,134],[-90.3928,38.81325,134],[-90.39276,38.81328,134],[-90.39271,38.8133,135],[-90.39268,38.81334,135],[-90.39266,38.81338,136],[-90.39263,38.81343,136],[-90.39261,38.81348,137],[-90.39258,38.81352,137],[-90.39256,38.81356,138],[-90.39254,38.8136,138],[-90.39252,38.81364,138],[-90.39251,38.81367,138],[-90.3925,38.8137,138],[-90.39249,38.81374,138],[-90.39247,38.81376,138],[-90.39245,38.81378,137],[-90.39242,38.81381,137],[-90.3924,38.81384,136],[-90.39239,38.81387,136],[-90.39237,38.81389,135],[-90.39236,38.81392,137],[-90.39234,38.81395,138],[-90.39232,38.81397,139],[-90.39229,38.814,140],[-90.39227,38.81402,141],[-90.39223,38.81403,142],[-90.3922,38.81405,143],[-90.39216,38.81406,144],[-90.39213,38.81407,145],[-90.39208,38.81408,146],[-90.39204,38.81409,147],[-90.392,38.8141,148],[-90.39194,38.81411,149],[-90.3919,38.81411,150],[-90.39188,38.81414,152],[-90.39186,38.81417,154],[-90.39183,38.81419,155],[-90.3918,38.81421,156],[-90.39177,38.81423,158],[-90.39175,38.81425,159],[-90.39173,38.81427,160],[-90.39174,38.81431,161],[-90.39175,38.81434,161],[-90.39176,38.81436,161],[-90.39177,38.8144,162],[-90.39177,38.81443,163],[-90.39177,38.81447,164],[-90.39177,38.8145,164],[-90.39178,38.81454,165],[-90.39181,38.81456,164],[-90.39183,38.81459,164],[-90.39185,38.81462,164],[-90.39186,38.81465,164],[-90.39186,38.81468,164],[-90.39185,38.81471,165],[-90.39185,38.81474,165],[-90.39185,38.81478,166],[-90.39187,38.81481,166],[-90.39188,38.81483,166],[-90.39187,38.81486,166],[-90.39185,38.81489,167],[-90.39185,38.81492,168],[-90.39188,38.81495,167],[-90.3919,38.81498,167],[-90.39191,38.81501,167],[-90.39192,38.81504,168],[-90.39193,38.81506,168],[-90.39194,38.81509,169],[-90.39193,38.81512,170],[-90.39192,38.81516,172],[-90.39191,38.81519,173],[-90.39189,38.81522,174],[-90.39186,38.81524,176],[-90.39185,38.81527,177],[-90.39186,38.81531,177],[-90.39188,38.81534,177],[-90.39189,38.81537,177],[-90.3919,38.81541,177],[-90.39191,38.81544,177],[-90.39192,38.81547,177],[-90.3919,38.8155,178],[-90.39189,38.81553,178],[-90.39188,38.81556,179],[-90.39187,38.81559,178],[-90.39187,38.81562,178],[-90.39187,38.81565,177],[-90.39187,38.81568,177],[-90.39186,38.81574,176],[-90.39193,38.81573,174],[-90.39189,38.81569,176],[-90.39185,38.81567,177],[-90.39181,38.81566,178],[-90.39176,38.81567,179],[-90.39172,38.81569,180],[-90.39172,38.81572,179],[-90.39172,38.81575,179],[-90.39172,38.81579,178],[-90.39172,38.81582,178],[-90.39172,38.81585,178],[-90.39171,38.81588,177],[-90.39171,38.81591,177],[-90.39171,38.81594,176],[-90.3917,38.81597,176],[-90.39169,38.816,175],[-90.39168,38.81603,175],[-90.39168,38.81606,174],[-90.39167,38.81609,174],[-90.39166,38.81611,174],[-90.39165,38.81614,173],[-90.39165,38.81617,172],[-90.39165,38.8162,171],[-90.39165,38.81623,169],[-90.39165,38.81626,168],[-90.39164,38.81629,168],[-90.39163,38.81632,167],[-90.39162,38.81635,166],[-90.39161,38.81638,165],[-90.39158,38.81639,166],[-90.39155,38.81642,165],[-90.39153,38.81644,165],[-90.39151,38.81647,165],[-90.39149,38.81649,165],[-90.39146,38.81651,165],[-90.39144,38.81654,164],[-90.39145,38.81657,163],[-90.39141,38.81658,164],[-90.3914,38.81661,163],[-90.39141,38.81664,162],[-90.39142,38.81667,161],[-90.39144,38.81664,161],[-90.39146,38.81661,162],[-90.39148,38.81659,162],[-90.3915,38.81655,163],[-90.39152,38.81651,164],[-90.39154,38.81648,164],[-90.39157,38.81644,164],[-90.39159,38.81641,165],[-90.39161,38.81639,165],[-90.39163,38.81636,165],[-90.39164,38.81632,167],[-90.39165,38.81629,167],[-90.39166,38.81626,168],[-90.39167,38.81623,169],[-90.39168,38.8162,170],[-90.39169,38.81617,171],[-90.3917,38.81614,172],[-90.39171,38.81611,172],[-90.39172,38.81608,173],[-90.39173,38.81605,173],[-90.39174,38.81602,173],[-90.39175,38.81599,174],[-90.39175,38.81596,174],[-90.39175,38.81592,175],[-90.39174,38.81589,176],[-90.39175,38.81586,177],[-90.39176,38.81583,177],[-90.39175,38.81579,178],[-90.39174,38.81576,178],[-90.39174,38.81573,179],[-90.39171,38.8157,180],[-90.39168,38.81569,181],[-90.39165,38.81567,181],[-90.39163,38.81564,182],[-90.39161,38.81562,182],[-90.39159,38.81559,183],[-90.39157,38.81556,183],[-90.39155,38.81554,183],[-90.39153,38.81551,183],[-90.3915,38.81549,184],[-90.39147,38.81547,184],[-90.39143,38.81545,184],[-90.3914,38.81544,185],[-90.39136,38.81543,185],[-90.39132,38.81542,185],[-90.39129,38.81541,185],[-90.39125,38.8154,186],[-90.39121,38.8154,186],[-90.39117,38.8154,186],[-90.39113,38.8154,186],[-90.39109,38.81541,186],[-90.39106,38.81542,186],[-90.39102,38.81544,186],[-90.39098,38.81545,186],[-90.39094,38.81546,185],[-90.3909,38.81546,185],[-90.39086,38.81546,185],[-90.39081,38.81546,185],[-90.39077,38.81546,185],[-90.39073,38.81545,184],[-90.39069,38.81545,184],[-90.39066,38.81545,183],[-90.39062,38.81544,183],[-90.39058,38.81543,183],[-90.39054,38.81542,182],[-90.39049,38.81542,182],[-90.39046,38.81541,181],[-90.39043,38.81538,181],[-90.3904,38.81537,181],[-90.39035,38.81536,181],[-90.39032,38.81535,181],[-90.39028,38.81534,181],[-90.39024,38.81533,181],[-90.39021,38.81531,181],[-90.39017,38.81529,181],[-90.39013,38.81528,181],[-90.3901,38.81527,182],[-90.39006,38.81527,182],[-90.39002,38.81526,182],[-90.38999,38.81525,182],[-90.38996,38.81523,183],[-90.38993,38.81521,183],[-90.38991,38.81519,184],[-90.38989,38.81516,185],[-90.38986,38.81514,185],[-90.38984,38.81511,186],[-90.3898,38.81509,186],[-90.38977,38.81507,187],[-90.38975,38.81504,188],[-90.38972,38.81502,188],[-90.38969,38.81499,188],[-90.38967,38.81496,189],[-90.38964,38.81493,189],[-90.38964,38.81491,189],[-90.38963,38.81488,189],[-90.38963,38.81485,190],[-90.38963,38.81482,190],[-90.38963,38.81479,190],[-90.38962,38.81476,191],[-90.38961,38.81473,191],[-90.3896,38.8147,191],[-90.3896,38.81467,191],[-90.38959,38.81463,190],[-90.38958,38.8146,190],[-90.38958,38.81457,190],[-90.38959,38.81454,190],[-90.38959,38.8145,189],[-90.38959,38.81447,189],[-90.38957,38.81444,189],[-90.38954,38.81442,189],[-90.38952,38.8144,189],[-90.38949,38.81438,189],[-90.38946,38.81436,189],[-90.38943,38.81433,189],[-90.38939,38.81432,189],[-90.38936,38.81429,190],[-90.38933,38.81428,190],[-90.3893,38.81426,190],[-90.38926,38.81425,191],[-90.38922,38.81423,191],[-90.38918,38.81422,192],[-90.38915,38.8142,192],[-90.38911,38.81419,192],[-90.38907,38.81419,192],[-90.38904,38.81418,192],[-90.389,38.81418,192],[-90.38896,38.81417,192],[-90.38892,38.81416,192],[-90.38888,38.81416,193],[-90.38884,38.81414,193],[-90.3888,38.81413,193],[-90.38877,38.81412,194],[-90.38874,38.81411,194],[-90.3887,38.8141,195],[-90.38866,38.81409,195],[-90.38863,38.81408,196],[-90.38859,38.81407,196],[-90.38856,38.81405,196],[-90.38853,38.81403,196],[-90.38849,38.81402,197],[-90.38845,38.81401,197],[-90.38842,38.814,197],[-90.38838,38.81398,197],[-90.38834,38.81396,198],[-90.38831,38.81395,198],[-90.38828,38.81393,198],[-90.38823,38.81393,198],[-90.38818,38.81392,198],[-90.38814,38.81392,198],[-90.3881,38.81393,198],[-90.38806,38.81393,199],[-90.38802,38.81393,199],[-90.38798,38.81393,199],[-90.38793,38.81394,199],[-90.3879,38.81394,199],[-90.38785,38.81394,199],[-90.38781,38.81395,199],[-90.38777,38.81395,200],[-90.38773,38.81395,200],[-90.38769,38.81395,200],[-90.38765,38.81394,200],[-90.38763,38.81392,200],[-90.38759,38.81391,200],[-90.38756,38.81388,199],[-90.38754,38.81386,199],[-90.38752,38.81383,199],[-90.38751,38.81381,198],[-90.38751,38.81378,198],[-90.38753,38.81376,198],[-90.38756,38.81373,197],[-90.38758,38.8137,197],[-90.38761,38.81367,197],[-90.38761,38.81365,197],[-90.3876,38.81362,196],[-90.38756,38.81361,196],[-90.38757,38.81359,196],[-90.38757,38.81356,196],[-90.38757,38.81353,195],[-90.38758,38.8135,195],[-90.3876,38.81347,195],[-90.38762,38.81344,195],[-90.38761,38.81341,195],[-90.3876,38.81338,195],[-90.38761,38.81335,194],[-90.38762,38.81332,194],[-90.38765,38.81332,194],[-90.38769,38.81332,195],[-90.38773,38.81332,195],[-90.38777,38.81332,195],[-90.3878,38.81332,195],[-90.38784,38.81333,195],[-90.38786,38.81331,195],[-90.38789,38.81328,195],[-90.38791,38.81325,194],[-90.38792,38.81322,194],[-90.38793,38.81318,193],[-90.38794,38.81315,193],[-90.38796,38.81312,192],[-90.38799,38.8131,192],[-90.38802,38.81309,191],[-90.38804,38.81306,191],[-90.38806,38.81303,190],[-90.38806,38.813,190],[-90.38805,38.81297,190],[-90.38805,38.81294,189],[-90.38805,38.81291,189],[-90.38806,38.81287,188],[-90.38806,38.81283,188],[-90.38807,38.81279,187],[-90.3881,38.81277,186],[-90.38814,38.81276,185],[-90.38817,38.81276,184],[-90.38821,38.81277,183],[-90.38824,38.81276,182],[-90.38828,38.81275,180],[-90.38831,38.81276,180],[-90.38834,38.81278,179],[-90.38838,38.81278,178],[-90.38841,38.81279,177],[-90.38845,38.81279,176],[-90.38848,38.81277,174],[-90.3885,38.81274,173],[-90.38852,38.81272,172],[-90.38855,38.8127,171],[-90.38857,38.81267,170],[-90.38858,38.81264,170],[-90.3886,38.81261,169],[-90.38862,38.81258,169],[-90.38866,38.81257,168],[-90.38862,38.81258,169],[-90.38859,38.81256,169],[-90.38857,38.81254,170],[-90.38858,38.81256,169],[-90.38862,38.81256,169],[-90.38865,38.81254,168],[-90.38866,38.81252,168],[-90.38868,38.81248,167],[-90.38867,38.81245,167],[-90.38868,38.81242,166],[-90.3887,38.81239,165],[-90.38872,38.81236,165],[-90.38875,38.81234,164],[-90.38879,38.81234,164],[-90.38881,38.81231,163],[-90.38883,38.81229,163],[-90.38884,38.81226,162],[-90.38885,38.81223,162],[-90.38886,38.8122,161],[-90.38885,38.81217,161],[-90.38884,38.81214,161],[-90.38881,38.81211,160],[-90.38879,38.81208,160],[-90.38878,38.81205,160],[-90.38876,38.81202,160],[-90.38874,38.812,160],[-90.38871,38.81198,160],[-90.38868,38.81195,160],[-90.38865,38.81193,161],[-90.38863,38.81191,161],[-90.38862,38.81187,162],[-90.38862,38.81184,162],[-90.38862,38.81181,163],[-90.38864,38.81179,163],[-90.38866,38.81176,163],[-90.38868,38.81174,162],[-90.38871,38.81171,162],[-90.38874,38.8117,162],[-90.38877,38.81168,161],[-90.38879,38.81166,161],[-90.38881,38.81163,161],[-90.38882,38.8116,160],[-90.38885,38.81158,160],[-90.38888,38.81158,159],[-90.38892,38.81158,158],[-90.38895,38.81158,157],[-90.38899,38.81157,156],[-90.38903,38.81156,155],[-90.38906,38.81156,154],[-90.38909,38.81154,153],[-90.38913,38.81152,152],[-90.38915,38.8115,152],[-90.38919,38.81148,152],[-90.38921,38.81146,152],[-90.38924,38.81144,152],[-90.38929,38.81145,152],[-90.38933,38.81145,152],[-90.38937,38.81144,152],[-90.38939,38.8114,152],[-90.38941,38.81138,152],[-90.38943,38.81135,152],[-90.38945,38.81133,151],[-90.38948,38.8113,151],[-90.38951,38.81127,151],[-90.38955,38.81125,151],[-90.38958,38.81123,151],[-90.38962,38.81121,151],[-90.38967,38.81121,150],[-90.38972,38.8112,150],[-90.38977,38.81119,149],[-90.38981,38.8112,149],[-90.38986,38.81119,148],[-90.38991,38.8112,147],[-90.38997,38.81121,146],[-90.39001,38.8112,146],[-90.39006,38.81121,145],[-90.3901,38.81121,145],[-90.39014,38.81122,144],[-90.39018,38.81122,144],[-90.39022,38.81122,143],[-90.39027,38.81123,143],[-90.39031,38.81124,142],[-90.39035,38.81125,142],[-90.39039,38.81127,142],[-90.39042,38.81129,142],[-90.39046,38.8113,142],[-90.3905,38.81131,142],[-90.39055,38.8113,142],[-90.39059,38.81129,142],[-90.39062,38.81127,142],[-90.39067,38.81126,142],[-90.3907,38.81126,142],[-90.39074,38.81124,142],[-90.39075,38.81122,141],[-90.39076,38.81119,141],[-90.3908,38.81118,141],[-90.39084,38.8112,141],[-90.39087,38.81124,141],[-90.3909,38.81127,141],[-90.39094,38.81128,141],[-90.39098,38.8113,141],[-90.39101,38.81133,141],[-90.39103,38.81137,141],[-90.39107,38.81139,141],[-90.3911,38.81143,141],[-90.39111,38.81148,142],[-90.3911,38.81152,142],[-90.39108,38.81156,143],[-90.39105,38.8116,144],[-90.39102,38.81163,145],[-90.39099,38.81166,145],[-90.39096,38.8117,146],[-90.39094,38.81173,147],[-90.39091,38.81177,147],[-90.3909,38.8118,148],[-90.39091,38.81183,148],[-90.39091,38.81187,148],[-90.3909,38.81191,149],[-90.3909,38.81195,149],[-90.3909,38.81198,149],[-90.39089,38.81201,149],[-90.39088,38.81204,149],[-90.39087,38.81207,149],[-90.39089,38.8121,149],[-90.39092,38.81212,149],[-90.3909,38.81215,149],[-90.3909,38.81218,149],[-90.3909,38.81222,149],[-90.39091,38.81225,149],[-90.39091,38.81228,148],[-90.39091,38.81232,147],[-90.39091,38.81235,146],[-90.39091,38.81238,145],[-90.39092,38.81241,145],[-90.39094,38.81243,144],[-90.39094,38.81246,143],[-90.39094,38.81249,143],[-90.39093,38.81252,143],[-90.39094,38.81255,144],[-90.39094,38.81259,145],[-90.39095,38.81262,145],[-90.39096,38.81264,145],[-90.39096,38.81268,146],[-90.39098,38.8127,146],[-90.39098,38.81274,147],[-90.39098,38.81277,148],[-90.39098,38.8128,149],[-90.39098,38.81283,150],[-90.391,38.81286,150],[-90.39101,38.81289,151],[-90.39103,38.81291,151],[-90.39106,38.81294,151],[-90.39107,38.81297,152],[-90.39108,38.81299,152],[-90.39111,38.81302,153],[-90.39113,38.81305,153],[-90.39114,38.81308,153],[-90.39118,38.81308,153],[-90.39121,38.8131,152],[-90.39123,38.81314,152],[-90.39125,38.81317,152],[-90.39127,38.8132,152],[-90.3913,38.81323,151],[-90.39133,38.81327,151],[-90.39135,38.8133,151],[-90.39137,38.81333,151],[-90.3914,38.81334,150],[-90.39144,38.81336,150],[-90.39147,38.81338,149],[-90.3915,38.8134,148],[-90.39153,38.81342,148],[-90.39155,38.81344,147],[-90.39157,38.81347,146],[-90.39158,38.81351,146],[-90.3916,38.81353,145],[-90.3916,38.81357,145],[-90.3916,38.81359,144],[-90.39161,38.81362,144],[-90.39163,38.81365,144],[-90.39164,38.81368,144],[-90.39166,38.8137,144],[-90.39168,38.81373,144],[-90.39171,38.81375,144],[-90.39174,38.81378,144],[-90.39177,38.8138,143],[-90.3918,38.81382,142],[-90.39182,38.81384,142],[-90.39185,38.81386,141],[-90.39188,38.81388,140],[-90.39191,38.8139,139],[-90.39194,38.81393,140],[-90.39196,38.81395,140],[-90.392,38.81398,141],[-90.39203,38.814,142],[-90.39206,38.81402,143],[-90.3921,38.81403,143],[-90.39212,38.81406,145],[-90.39214,38.81408,145],[-90.39217,38.8141,146],[-90.39221,38.81411,147],[-90.39224,38.81412,148],[-90.39227,38.81415,149],[-90.39228,38.81417,150],[-90.3923,38.81421,151],[-90.39231,38.81424,151],[-90.39235,38.81427,152],[-90.39238,38.81429,152],[-90.39242,38.81432,153],[-90.39245,38.81433,153],[-90.39248,38.81434,153],[-90.39252,38.81434,153],[-90.39256,38.81433,152],[-90.3926,38.81432,152],[-90.39262,38.8143,151],[-90.39259,38.81429,151],[-90.39255,38.81429,152],[-90.39258,38.81431,152],[-90.39261,38.81434,152],[-90.39264,38.81434,152],[-90.39268,38.81436,152],[-90.3927,38.81439,152],[-90.39272,38.81442,153],[-90.39274,38.81445,153],[-90.39276,38.81448,153],[-90.39278,38.81451,152],[-90.3928,38.81454,152],[-90.39282,38.81456,151],[-90.39285,38.81459,150],[-90.39287,38.81461,150],[-90.39289,38.81463,149],[-90.39291,38.81466,149],[-90.39292,38.8147,148],[-90.39293,38.81473,148],[-90.39294,38.81476,148],[-90.39294,38.81479,148],[-90.39294,38.81483,148],[-90.39295,38.81486,148],[-90.39295,38.81489,148],[-90.39296,38.81492,148],[-90.39299,38.81494,148],[-90.39302,38.81497,148],[-90.39304,38.81501,148],[-90.39306,38.81504,147],[-90.39308,38.81507,146],[-90.39309,38.8151,146],[-90.39311,38.81513,145],[-90.39312,38.81516,145],[-90.39315,38.81517,144],[-90.39319,38.81518,143],[-90.39321,38.81521,142],[-90.39322,38.81523,142],[-90.39324,38.81526,141],[-90.39327,38.81527,140],[-90.39323,38.81527,141],[-90.39319,38.81527,142],[-90.39315,38.81527,143],[-90.39311,38.81527,144],[-90.39307,38.81528,145],[-90.39303,38.8153,145],[-90.39299,38.81532,146],[-90.39295,38.81534,146],[-90.39291,38.81535,147],[-90.39288,38.81536,147],[-90.39283,38.81538,148],[-90.39279,38.8154,149],[-90.39276,38.81542,149],[-90.39274,38.81544,149],[-90.39277,38.81546,148],[-90.39279,38.81548,146],[-90.3928,38.81552,145],[-90.39277,38.81554,145],[-90.39274,38.81556,146],[-90.3927,38.81558,147],[-90.39266,38.8156,148],[-90.39264,38.81562,149],[-90.39262,38.81565,149],[-90.39263,38.8157,147],[-90.39263,38.81573,146],[-90.39264,38.81576,146],[-90.39264,38.8158,145],[-90.39264,38.81584,144],[-90.39264,38.81588,144],[-90.39263,38.81591,144],[-90.39263,38.81594,144],[-90.39264,38.81597,144],[-90.39264,38.81601,144],[-90.39263,38.81604,144],[-90.39262,38.81607,145],[-90.39259,38.81609,145],[-90.39255,38.81611,147],[-90.39251,38.81612,148],[-90.39248,38.81613,149],[-90.39244,38.81613,150],[-90.39241,38.81615,150],[-90.39239,38.81618,150],[-90.39237,38.8162,150],[-90.39233,38.81622,151],[-90.39232,38.81626,150],[-90.39231,38.81629,149],[-90.39231,38.81632,149],[-90.39232,38.81635,148],[-90.39231,38.81638,147],[-90.39229,38.8164,147],[-90.39227,38.81643,147],[-90.39225,38.81646,147],[-90.39223,38.81648,147],[-90.39221,38.81651,147],[-90.39219,38.81654,148],[-90.39217,38.81657,148],[-90.39213,38.81658,148],[-90.3921,38.81661,149],[-90.39207,38.81664,149],[-90.39205,38.81666,149],[-90.392,38.81668,149],[-90.39198,38.81671,150],[-90.39196,38.81674,150],[-90.39194,38.81677,150],[-90.39191,38.81679,150],[-90.3919,38.81681,150],[-90.39187,38.81683,150],[-90.39184,38.81685,150],[-90.39181,38.81687,149],[-90.3918,38.8169,149],[-90.39183,38.81692,148],[-90.39186,38.81694,148],[-90.39189,38.81692,149],[-90.39192,38.81692,149],[-90.39192,38.81695,148],[-90.39197,38.81692,148],[-90.39197,38.81686,149],[-90.39191,38.81684,149],[-90.39195,38.81682,149],[-90.39199,38.8168,149],[-90.39202,38.81677,149],[-90.39205,38.81675,148],[-90.39208,38.81672,148],[-90.39208,38.81669,148],[-90.39209,38.81666,148],[-90.39212,38.81664,148],[-90.39215,38.81662,147],[-90.39217,38.81658,147],[-90.39219,38.81656,147],[-90.39222,38.81655,147],[-90.39224,38.81652,147],[-90.39226,38.81649,147],[-90.39227,38.81646,147],[-90.39229,38.81644,147],[-90.39231,38.81641,146],[-90.39233,38.81639,146],[-90.39234,38.81635,147],[-90.39234,38.81632,148],[-90.39234,38.81629,149],[-90.39237,38.81626,149],[-90.39237,38.81623,149],[-90.39239,38.81621,150],[-90.39242,38.81619,149],[-90.39245,38.81616,149],[-90.39247,38.81613,149],[-90.39251,38.81612,148],[-90.39254,38.81612,147],[-90.39258,38.8161,146],[-90.39261,38.81608,145],[-90.39264,38.81605,144],[-90.39265,38.81602,144],[-90.39266,38.81599,143],[-90.39267,38.81596,143],[-90.39268,38.81594,143],[-90.3927,38.81591,142],[-90.39271,38.81588,142],[-90.39272,38.81585,141],[-90.39272,38.81582,142],[-90.39271,38.81579,143],[-90.39271,38.81576,143],[-90.3927,38.81573,144],[-90.39269,38.8157,145],[-90.39269,38.81566,146],[-90.3927,38.81563,146],[-90.39271,38.8156,146],[-90.39272,38.81558,146],[-90.39275,38.81555,146],[-90.39277,38.81553,146],[-90.39279,38.8155,146],[-90.39281,38.81548,146],[-90.39285,38.81546,145],[-90.39289,38.81544,145],[-90.39292,38.81542,145],[-90.39296,38.8154,144],[-90.39299,38.81538,144],[-90.39303,38.81537,143],[-90.39306,38.81535,143],[-90.39309,38.81532,143],[-90.39311,38.81529,144],[-90.39313,38.81526,144],[-90.39314,38.81524,144],[-90.39316,38.8152,144],[-90.39318,38.81517,143],[-90.39318,38.81513,144],[-90.39317,38.81511,144],[-90.39315,38.81507,145],[-90.39313,38.81504,146],[-90.39311,38.81501,146],[-90.3931,38.81498,146],[-90.39308,38.81494,147],[-90.39306,38.81492,147],[-90.39304,38.81489,147],[-90.39303,38.81486,147],[-90.39303,38.81482,147],[-90.39302,38.81479,147],[-90.39302,38.81476,146],[-90.39302,38.81472,146],[-90.39303,38.8147,146],[-90.39302,38.81467,146],[-90.393,38.81464,147],[-90.39298,38.81462,147],[-90.39295,38.81459,148],[-90.39291,38.81457,149],[-90.39287,38.81454,150],[-90.39284,38.81452,151],[-90.3928,38.8145,152],[-90.39277,38.81448,152],[-90.39275,38.81446,153],[-90.39273,38.81443,153],[-90.3927,38.81439,152],[-90.39266,38.81437,152],[-90.39263,38.81434,152],[-90.39259,38.81432,152],[-90.39256,38.8143,152],[-90.39252,38.81428,152],[-90.39249,38.81426,152],[-90.39246,38.81424,151],[-90.39243,38.81423,151],[-90.3924,38.81421,151],[-90.39238,38.81419,150],[-90.39235,38.81416,150],[-90.39233,38.81413,148],[-90.39231,38.81411,147],[-90.39229,38.81408,145],[-90.39229,38.81405,143],[-90.39231,38.81403,142],[-90.39234,38.81402,142],[-90.39237,38.814,141],[-90.39239,38.81397,140],[-90.39241,38.81394,138],[-90.39243,38.81391,137],[-90.39244,38.81389,136],[-90.39246,38.81385,137],[-90.39248,38.81382,137],[-90.3925,38.8138,138],[-90.39251,38.81377,138],[-90.39253,38.81374,138],[-90.39255,38.81372,138],[-90.39256,38.81368,138],[-90.39258,38.81365,138],[-90.3926,38.81362,138],[-90.39262,38.81359,138],[-90.39265,38.81356,138],[-90.39266,38.81354,137],[-90.39267,38.8135,137],[-90.39269,38.81347,136],[-90.3927,38.81345,136],[-90.39272,38.81342,136],[-90.39275,38.8134,135],[-90.39278,38.81338,135],[-90.39281,38.81335,134],[-90.39284,38.81332,134],[-90.39286,38.8133,134],[-90.3929,38.81328,134],[-90.39294,38.81325,133],[-90.39297,38.81322,133],[-90.393,38.81319,133],[-90.39303,38.81317,133],[-90.39307,38.81314,132],[-90.39311,38.81312,132],[-90.39313,38.8131,132],[-90.39317,38.81307,132],[-90.3932,38.81305,133],[-90.39324,38.81302,133],[-90.39327,38.81299,133],[-90.39331,38.81297,133],[-90.39335,38.81295,133],[-90.39339,38.81292,133],[-90.39343,38.8129,133],[-90.39347,38.81288,133],[-90.39351,38.81287,133],[-90.39355,38.81285,133],[-90.39359,38.81283,133],[-90.39362,38.81281,133],[-90.39366,38.81279,133],[-90.3937,38.81277,134],[-90.39374,38.81275,134],[-90.39377,38.81273,134],[-90.3938,38.81271,134],[-90.39384,38.81269,134],[-90.39387,38.81266,135],[-90.39391,38.81263,135],[-90.39395,38.81261,135],[-90.39398,38.81259,135],[-90.39402,38.81256,136],[-90.39405,38.81254,136],[-90.39409,38.81251,136],[-90.39412,38.81248,137],[-90.39414,38.81246,137],[-90.39417,38.81243,137],[-90.39421,38.8124,137],[-90.39423,38.81238,137],[-90.39426,38.81234,137],[-90.39429,38.81231,137],[-90.39432,38.81228,137],[-90.39435,38.81225,137],[-90.39438,38.81222,138],[-90.39441,38.8122,138],[-90.39443,38.81218,138],[-90.39446,38.81215,137],[-90.3945,38.81213,137],[-90.39453,38.81211,137],[-90.39456,38.81208,137],[-90.39459,38.81205,137],[-90.39462,38.81203,137],[-90.39465,38.812,137],[-90.39468,38.81197,137],[-90.3947,38.81195,137],[-90.39474,38.81192,136],[-90.39477,38.8119,136],[-90.39479,38.81187,135],[-90.39482,38.81184,135],[-90.39485,38.81181,134],[-90.39488,38.81179,134],[-90.39491,38.81177,134],[-90.39495,38.81174,133],[-90.39497,38.81172,133],[-90.395,38.8117,133],[-90.39502,38.81167,133],[-90.39501,38.81164,132],[-90.39501,38.81162,132]]],
        "bbox": [
          -90.38751,
          38.81695,
          -90.39502,
          38.81118
        ]
      },
      "properties": {
        "name": "10.10.2025"
      }
    }
  ]
}