{
  "type": "FeatureCollection",
  "features": [
    {
      "type": "Feature",
      "geometry": {
        "type": "MultiLineString",
        "coordinates": [[[-90.39493,38.81176,134],[-90.39491,38.81178,134],[-90.39487,38.8118,134],[-90.39486,38.81183,134],[-90.39483,38.81185,135],[-90.39481,38.81187,135],[-90.39479,38.8119,136],[-90.39476,38.81193,136],[-90.39473,38.81195,136],[-90.39471,38.81197,136],[-90.39468,38.81199,137],[-90.39465,38.81201,137],[-90.39462,38.81203,137],[-90.39458,38.81205,137],[-90.39454,38.81207,137],[-90.39451,38.81209,137],[-90.39448,38.81212,137],[-90.39445,38.81214,137],[-90.39443,38.81217,138],[-90.39441,38.81219,138],[-90.39439,38.81222,138],[-90.39436,38.81225,137],[-90.39434,38.81227,137],[-90.39431,38.8123,137],[-90.39427,38.81231,137],[-90.39423,38.81234,137],[-90.39421,38.81236,137],[-90.39418,38.81237,137],[-90.39412,38.8124,137],[-90.39409,38.81243,137],[-90.39406,38.81245,137],[-90.39402,38.81247,137],[-90.39399,38.81249,137],[-90.39395,38.81251,136],[-90.39394,38.81255,136],[-90.39392,38.81257,136],[-90.39389,38.8126,135],[-90.39386,38.81263,135],[-90.39385,38.81266,135],[-90.39384,38.81269,134],[-90.3938,38.81272,134],[-90.39377,38.81273,134],[-90.39373,38.81273,134],[-90.39369,38.81275,134],[-90.39365,38.81277,134],[-90.39362,38.81279,133],[-90.39358,38.8128,133],[-90.39356,38.81277,134],[-90.39355,38.81274,134],[-90.39353,38.81277,134],[-90.39351,38.81279,134],[-90.39346,38.81281,134],[-90.39344,38.81283,134],[-90.3934,38.81284,134],[-90.39335,38.81284,134],[-90.39331,38.81285,134],[-90.39328,38.81283,134],[-90.39324,38.81281,134],[-90.39321,38.81279,134],[-90.39318,38.81277,134],[-90.39315,38.81275,134],[-90.3931,38.81274,134],[-90.39306,38.81273,134],[-90.39301,38.8127,134],[-90.39299,38.81269,134],[-90.39296,38.81266,134],[-90.39293,38.81264,134],[-90.3929,38.81261,134],[-90.39288,38.81259,134],[-90.39285,38.81256,134],[-90.3928,38.81255,134],[-90.39277,38.81256,134],[-90.39272,38.81254,134],[-90.39269,38.81251,134],[-90.39264,38.81248,134],[-90.3926,38.81244,135],[-90.39258,38.8124,135],[-90.39255,38.81237,135],[-90.39251,38.81235,135],[-90.39248,38.81233,135],[-90.39245,38.8123,135],[-90.39242,38.81227,135],[-90.39237,38.81226,135],[-90.39233,38.81225,135],[-90.3923,38.81224,135],[-90.39227,38.81222,135],[-90.39223,38.8122,135],[-90.3922,38.81219,136],[-90.39216,38.81217,136],[-90.39213,38.81216,136],[-90.39209,38.81216,136],[-90.39206,38.81214,136],[-90.39202,38.81212,137],[-90.39198,38.81215,137],[-90.39195,38.81216,137],[-90.39191,38.81218,137],[-90.39187,38.8122,137],[-90.39184,38.81221,137],[-90.39182,38.81224,137],[-90.3918,38.81227,137],[-90.39179,38.8123,136],[-90.39177,38.81233,136],[-90.39175,38.81237,136],[-90.39172,38.8124,135],[-90.39168,38.81244,135],[-90.39165,38.81246,135],[-90.39163,38.81249,135],[-90.39162,38.81252,135],[-90.39159,38.81256,136],[-90.39157,38.81259,137],[-90.39155,38.81261,137],[-90.39155,38.81264,138],[-90.39154,38.81268,138],[-90.39154,38.81271,139],[-90.39155,38.81274,139],[-90.39157,38.81277,140],[-90.39159,38.81279,140],[-90.39163,38.81281,139],[-90.39166,38.81282,139],[-90.3917,38.81284,139],[-90.39174,38.81285,139],[-90.39177,38.81287,138],[-90.3918,38.81289,138],[-90.39183,38.8129,138],[-90.39187,38.81292,138],[-90.39189,38.81294,138],[-90.39191,38.81297,138],[-90.39194,38.81299,138],[-90.39198,38.813,138],[-90.39201,38.81302,138],[-90.39205,38.81305,138],[-90.39207,38.81307,138],[-90.39208,38.8131,138],[-90.39211,38.81312,138],[-90.39216,38.81312,137],[-90.39219,38.81314,137],[-90.39222,38.81317,137],[-90.39225,38.81319,137],[-90.39228,38.81321,137],[-90.39231,38.81322,137],[-90.39236,38.81325,137],[-90.3924,38.81327,137],[-90.39243,38.8133,137],[-90.39247,38.81331,137],[-90.39251,38.81333,136],[-90.39254,38.81335,136],[-90.39258,38.81337,136],[-90.39261,38.81338,136],[-90.39265,38.8134,136],[-90.39268,38.81341,136],[-90.3927,38.81344,136],[-90.39269,38.81347,136],[-90.39267,38.8135,137],[-90.39264,38.81352,137],[-90.39262,38.81355,138],[-90.39261,38.81358,138],[-90.39259,38.81362,138],[-90.39257,38.81364,138],[-90.39256,38.81367,138],[-90.39255,38.81371,138],[-90.39254,38.81373,138],[-90.39253,38.81377,138],[-90.39251,38.8138,138],[-90.39247,38.81378,138],[-90.39248,38.81381,138],[-90.39247,38.81384,137],[-90.39245,38.81387,137],[-90.39243,38.8139,137],[-90.3924,38.81392,137],[-90.39237,38.81394,138],[-90.39237,38.81398,140],[-90.39236,38.81401,142],[-90.39234,38.81404,143],[-90.39232,38.81406,144],[-90.39229,38.81407,145],[-90.39226,38.81409,146],[-90.39222,38.81409,146],[-90.39218,38.81409,146],[-90.39215,38.81409,146],[-90.39211,38.8141,147],[-90.39207,38.81411,148],[-90.39203,38.81412,149],[-90.392,38.81413,149],[-90.39196,38.81413,150],[-90.39192,38.81414,151],[-90.39191,38.81418,153],[-90.39189,38.81421,154],[-90.39189,38.81424,155],[-90.39188,38.81427,156],[-90.39184,38.81431,158],[-90.39183,38.81435,159],[-90.3918,38.81443,162],[-90.39183,38.81445,162],[-90.39183,38.81449,162],[-90.39183,38.81452,163],[-90.39183,38.81455,163],[-90.39185,38.81459,163],[-90.39188,38.8146,163],[-90.3919,38.81466,163],[-90.39189,38.81472,164],[-90.39191,38.81478,164],[-90.39194,38.8148,164],[-90.39196,38.81483,163],[-90.39197,38.81487,164],[-90.39198,38.81491,164],[-90.39193,38.81493,165],[-90.39191,38.81495,166],[-90.3919,38.81498,167],[-90.39198,38.81498,164],[-90.39199,38.81503,165],[-90.39201,38.81505,165],[-90.39202,38.81508,166],[-90.39201,38.81512,168],[-90.392,38.81515,169],[-90.392,38.81518,171],[-90.392,38.81521,172],[-90.392,38.81525,173],[-90.39199,38.81528,174],[-90.39197,38.81531,175],[-90.39197,38.81536,175],[-90.39199,38.81542,175],[-90.392,38.81548,175],[-90.39199,38.81551,175],[-90.39199,38.81554,175],[-90.39198,38.81559,175],[-90.39194,38.81564,176],[-90.39197,38.81562,175],[-90.39195,38.81565,175],[-90.39192,38.81567,176],[-90.39188,38.81569,176],[-90.39185,38.81568,177],[-90.39182,38.81567,178],[-90.39179,38.81569,178],[-90.39176,38.8157,179],[-90.39158,38.81572,181],[-90.39158,38.81562,182],[-90.39158,38.81558,183],[-90.39156,38.81549,183],[-90.39146,38.81546,184],[-90.39141,38.81544,185],[-90.39137,38.81544,185],[-90.39133,38.81545,185],[-90.39131,38.81543,185],[-90.3911,38.81541,186],[-90.3911,38.81545,186],[-90.39113,38.81544,186],[-90.39115,38.81541,186],[-90.39119,38.8154,186],[-90.39123,38.81539,186],[-90.39128,38.81539,185],[-90.39132,38.81539,185],[-90.39137,38.81541,185],[-90.3914,38.81541,185],[-90.39145,38.81541,184],[-90.3915,38.81542,183],[-90.39152,38.81544,183],[-90.39154,38.81547,183],[-90.39157,38.81549,183],[-90.3916,38.81551,183],[-90.39164,38.81554,183],[-90.39167,38.81556,182],[-90.39169,38.81559,182],[-90.39172,38.81561,181],[-90.39176,38.81563,180],[-90.39178,38.81565,179],[-90.39178,38.81568,179],[-90.39178,38.81572,178],[-90.39177,38.81576,178],[-90.39177,38.81579,177],[-90.39178,38.81582,177],[-90.39178,38.81585,176],[-90.39179,38.81589,175],[-90.3918,38.81592,174],[-90.39181,38.81595,173],[-90.39179,38.81598,173],[-90.39176,38.816,173],[-90.39174,38.81603,173],[-90.39174,38.81606,173],[-90.39172,38.81609,172],[-90.39171,38.81612,172],[-90.3917,38.81616,171],[-90.39175,38.8162,168],[-90.39179,38.8162,167],[-90.39177,38.81623,166],[-90.39173,38.81627,166],[-90.39172,38.81631,165],[-90.39159,38.81651,162],[-90.39149,38.81657,162],[-90.39147,38.81659,162],[-90.39144,38.81661,162],[-90.39141,38.81663,162],[-90.39138,38.81665,162],[-90.39136,38.81667,162],[-90.39133,38.81669,162],[-90.3913,38.81673,161],[-90.39129,38.81676,160],[-90.39127,38.81679,159],[-90.39123,38.81678,160],[-90.39122,38.81688,158],[-90.39122,38.81695,155],[-90.39114,38.81698,155],[-90.3911,38.81685,160],[-90.39105,38.81655,169],[-90.39105,38.81647,171],[-90.39104,38.8164,173],[-90.39097,38.81657,168],[-90.39093,38.81673,165],[-90.39092,38.81677,164],[-90.39088,38.8168,164],[-90.39085,38.81679,164],[-90.39081,38.8168,164],[-90.39078,38.81681,164],[-90.39068,38.81683,165],[-90.39064,38.81683,165],[-90.39053,38.81685,166],[-90.3905,38.81693,165],[-90.39051,38.81697,164],[-90.39051,38.81707,161],[-90.39058,38.81711,159],[-90.39057,38.81717,157],[-90.3905,38.81721,156],[-90.39053,38.81716,158],[-90.39052,38.81726,154],[-90.39052,38.81737,150],[-90.39053,38.81744,148],[-90.39057,38.81748,146],[-90.39053,38.8175,146],[-90.39048,38.8175,146],[-90.39048,38.81753,146],[-90.39053,38.81754,145],[-90.39053,38.81759,144],[-90.39049,38.81764,143],[-90.39041,38.81767,143],[-90.39037,38.81768,144],[-90.39031,38.81769,144],[-90.39028,38.81771,144],[-90.39024,38.81773,144],[-90.3902,38.81775,145],[-90.39016,38.81776,145],[-90.39022,38.81779,143],[-90.39011,38.81785,145],[-90.39006,38.81788,145],[-90.39012,38.8179,143],[-90.39009,38.81787,144],[-90.39003,38.81787,145],[-90.38993,38.81786,147],[-90.38988,38.81789,147],[-90.38983,38.81792,147],[-90.38978,38.81796,147],[-90.38968,38.81798,148],[-90.38963,38.81798,148],[-90.38956,38.818,148],[-90.38946,38.818,148],[-90.38907,38.81801,153],[-90.38911,38.81803,152],[-90.38915,38.81801,151],[-90.38918,38.818,151],[-90.38922,38.81799,151],[-90.38926,38.81799,150],[-90.38924,38.81801,150],[-90.3892,38.818,151],[-90.38923,38.81798,151],[-90.38919,38.81799,151],[-90.38915,38.81799,152],[-90.38912,38.81801,152],[-90.3891,38.81804,152],[-90.38912,38.81801,152],[-90.38916,38.81799,152],[-90.38919,38.81798,152],[-90.38923,38.81798,151],[-90.38927,38.81798,151],[-90.3893,38.81797,150],[-90.38934,38.81796,150],[-90.38938,38.81797,149],[-90.38942,38.81797,149],[-90.38947,38.81797,148],[-90.38952,38.81796,148],[-90.38956,38.81796,148],[-90.3896,38.81795,148],[-90.38961,38.81792,149],[-90.38966,38.81791,149],[-90.38972,38.81791,149],[-90.38973,38.81788,149],[-90.38977,38.81787,149],[-90.38982,38.81787,148],[-90.38987,38.81788,147],[-90.3899,38.81789,147],[-90.38993,38.81788,147],[-90.38996,38.81786,146],[-90.39002,38.81785,146],[-90.39005,38.81785,145],[-90.39008,38.81783,145],[-90.39017,38.81782,144],[-90.39011,38.81781,145],[-90.39008,38.81778,146],[-90.39012,38.81776,146],[-90.39031,38.81768,144],[-90.39033,38.8176,146],[-90.3904,38.81761,145],[-90.39042,38.81756,146],[-90.39043,38.8175,147],[-90.39044,38.81747,148],[-90.39046,38.8175,147],[-90.39049,38.81751,146],[-90.39051,38.81748,147],[-90.39049,38.81751,146],[-90.39045,38.8175,147],[-90.39064,38.81746,146],[-90.3907,38.81745,145],[-90.39076,38.81744,145],[-90.39081,38.81745,143],[-90.39085,38.81745,143],[-90.39091,38.81746,142],[-90.39089,38.81749,141],[-90.39084,38.8175,141],[-90.3908,38.8175,142],[-90.39076,38.81749,143],[-90.39075,38.81746,144],[-90.39072,38.81744,145],[-90.39069,38.81746,145],[-90.39066,38.81747,145],[-90.39062,38.81747,146],[-90.39058,38.81744,147],[-90.39057,38.81741,149],[-90.39057,38.81737,150],[-90.39056,38.81735,151],[-90.39054,38.81731,152],[-90.3905,38.8173,153],[-90.39048,38.81727,154],[-90.39048,38.81724,155],[-90.39046,38.81721,156],[-90.39048,38.81718,157],[-90.39049,38.81715,158],[-90.39051,38.81712,159],[-90.39053,38.81709,160],[-90.39054,38.81707,161],[-90.39053,38.81704,162],[-90.3905,38.817,163],[-90.39047,38.81699,164],[-90.39051,38.81699,163],[-90.39048,38.81697,164],[-90.39047,38.81694,165],[-90.39047,38.81691,165],[-90.3905,38.81689,165],[-90.39054,38.81685,166],[-90.39056,38.81683,166],[-90.39062,38.81681,165],[-90.39066,38.81679,165],[-90.3907,38.81678,165],[-90.39076,38.81678,165],[-90.39077,38.81674,166],[-90.39079,38.81672,166],[-90.39151,38.81623,172],[-90.39145,38.81655,164],[-90.39143,38.81657,164],[-90.39142,38.8166,163],[-90.39142,38.81657,164],[-90.39146,38.81655,164],[-90.39149,38.81654,163],[-90.3915,38.81651,164],[-90.39152,38.81649,164],[-90.39154,38.81646,165],[-90.39156,38.81643,165],[-90.39157,38.81639,166],[-90.39159,38.81636,166],[-90.39161,38.81634,166],[-90.39164,38.81632,167],[-90.39167,38.81629,167],[-90.39168,38.81625,168],[-90.39169,38.81622,169],[-90.3917,38.81619,170],[-90.39172,38.81621,168],[-90.39172,38.81618,169],[-90.39172,38.81615,170],[-90.39172,38.81612,172],[-90.39174,38.81609,172],[-90.39175,38.81605,172],[-90.39174,38.81601,174],[-90.39174,38.81598,174],[-90.39176,38.81594,174],[-90.39178,38.81591,175],[-90.39178,38.81588,175],[-90.39178,38.81585,176],[-90.39176,38.81582,177],[-90.39175,38.81579,178],[-90.39174,38.81577,178],[-90.39173,38.81574,179],[-90.39173,38.81571,179],[-90.39175,38.81568,179],[-90.39178,38.81567,179],[-90.39183,38.81567,178],[-90.39187,38.81567,177],[-90.39191,38.81567,176],[-90.39194,38.81568,175],[-90.39196,38.8157,174],[-90.39193,38.81569,175],[-90.39192,38.81565,176],[-90.3919,38.81567,176],[-90.39185,38.81568,177],[-90.39181,38.81569,178],[-90.39177,38.8157,179],[-90.39173,38.81571,179],[-90.39169,38.8157,180],[-90.39165,38.81568,181],[-90.39162,38.81565,182],[-90.39161,38.81563,182],[-90.39158,38.8156,183],[-90.39155,38.81559,183],[-90.39152,38.81557,183],[-90.39148,38.81554,184],[-90.39144,38.81553,184],[-90.3914,38.81552,184],[-90.39136,38.8155,185],[-90.39132,38.81548,185],[-90.39129,38.81547,185],[-90.39125,38.81545,185],[-90.39122,38.81544,186],[-90.39118,38.81543,186],[-90.39115,38.8154,186],[-90.39107,38.81547,186],[-90.391,38.81549,185],[-90.39087,38.81549,185],[-90.39081,38.8155,185],[-90.39078,38.81552,184],[-90.39074,38.81551,184],[-90.3907,38.81551,183],[-90.39067,38.8155,183],[-90.39063,38.8155,183],[-90.39059,38.8155,182],[-90.39054,38.81552,182],[-90.39049,38.81552,181],[-90.39043,38.8155,180],[-90.39039,38.81548,180],[-90.39037,38.81546,180],[-90.39035,38.81544,180],[-90.3903,38.81542,180],[-90.39026,38.81541,180],[-90.39022,38.8154,180],[-90.39018,38.81539,180],[-90.39014,38.81538,180],[-90.3901,38.81537,180],[-90.39007,38.81535,180],[-90.39004,38.81533,181],[-90.39001,38.81531,181],[-90.38998,38.81529,181],[-90.38995,38.81527,182],[-90.38991,38.81526,182],[-90.38987,38.81524,183],[-90.38984,38.81522,183],[-90.38982,38.8152,184],[-90.3898,38.81516,185],[-90.38979,38.81514,185],[-90.38975,38.81512,186],[-90.38972,38.81511,186],[-90.38968,38.8151,186],[-90.38965,38.81507,187],[-90.38963,38.81503,188],[-90.38961,38.815,188],[-90.38958,38.81497,188],[-90.38955,38.81496,188],[-90.38951,38.81494,188],[-90.38949,38.81492,189],[-90.38946,38.81489,189],[-90.38946,38.81486,189],[-90.38945,38.81483,189],[-90.38945,38.8148,190],[-90.38947,38.81476,190],[-90.38949,38.81473,191],[-90.38949,38.8147,191],[-90.38948,38.81467,190],[-90.38946,38.81465,190],[-90.38946,38.81461,190],[-90.38948,38.81459,190],[-90.38949,38.81456,190],[-90.38949,38.81443,189],[-90.38948,38.8144,189],[-90.38944,38.81438,189],[-90.3894,38.81436,189],[-90.38939,38.81434,189],[-90.38937,38.81431,189],[-90.38932,38.8143,190],[-90.38928,38.81429,191],[-90.38925,38.81427,191],[-90.38921,38.81425,192],[-90.38917,38.81422,192],[-90.38914,38.81421,192],[-90.3891,38.8142,192],[-90.38907,38.81419,192],[-90.38902,38.81419,192],[-90.38898,38.81418,192],[-90.38895,38.81417,192],[-90.38887,38.81416,193],[-90.3888,38.81407,193],[-90.3887,38.81405,194],[-90.38866,38.81407,195],[-90.3886,38.81406,196],[-90.38855,38.81405,196],[-90.38848,38.81403,197],[-90.38818,38.81396,198],[-90.38817,38.81394,198],[-90.38794,38.81392,199],[-90.38783,38.81391,199],[-90.38776,38.81395,200],[-90.38772,38.81396,200],[-90.38768,38.81395,200],[-90.38765,38.81393,200],[-90.38762,38.8139,200],[-90.38757,38.81389,199],[-90.38753,38.81387,199],[-90.38751,38.81385,199],[-90.38749,38.81381,198],[-90.3875,38.81378,198],[-90.38751,38.81374,197],[-90.38752,38.8137,197],[-90.38751,38.81368,197],[-90.3875,38.81364,196],[-90.38749,38.8136,195],[-90.38748,38.81357,195],[-90.38752,38.81352,195],[-90.38754,38.81348,195],[-90.38756,38.81343,195],[-90.38757,38.81335,194],[-90.38755,38.81331,194],[-90.38751,38.81326,193],[-90.38745,38.81316,193],[-90.38762,38.81325,194],[-90.38771,38.81327,194],[-90.38784,38.81328,195],[-90.38788,38.81328,195],[-90.38795,38.81294,190],[-90.38808,38.81292,188],[-90.38817,38.81277,184],[-90.38822,38.81272,182],[-90.38831,38.81264,178],[-90.38863,38.8126,168],[-90.38865,38.81251,168],[-90.38864,38.81246,167],[-90.38871,38.81239,165],[-90.3887,38.8123,164],[-90.38876,38.81227,163],[-90.38879,38.81222,162],[-90.38881,38.81218,161],[-90.38884,38.81216,161],[-90.38885,38.81213,160],[-90.38887,38.8121,160],[-90.3889,38.81206,159],[-90.38893,38.81204,158],[-90.38895,38.81202,158],[-90.38897,38.812,157],[-90.38899,38.81195,156],[-90.38899,38.8119,156],[-90.38894,38.81187,157],[-90.38883,38.81188,158],[-90.38879,38.81186,159],[-90.38875,38.81182,160],[-90.38872,38.81177,161],[-90.38867,38.8117,163],[-90.38866,38.81185,162],[-90.38862,38.81197,162],[-90.38859,38.812,162],[-90.38857,38.81205,163],[-90.38858,38.81198,162],[-90.38877,38.81163,161],[-90.38903,38.81148,155],[-90.3891,38.81145,153],[-90.38919,38.81143,152],[-90.38926,38.81141,152],[-90.38935,38.81138,152],[-90.38943,38.81137,152],[-90.38952,38.8114,151],[-90.38962,38.81142,151],[-90.38952,38.81133,151],[-90.39038,38.81127,142],[-90.39051,38.81126,142],[-90.39054,38.81127,142],[-90.39059,38.81128,142],[-90.39063,38.81127,142],[-90.39068,38.81125,142],[-90.39072,38.81123,142],[-90.39074,38.81121,141],[-90.39079,38.81121,141],[-90.39082,38.81122,141],[-90.39085,38.81125,141],[-90.39088,38.81127,141],[-90.39091,38.8113,141],[-90.39094,38.81133,141],[-90.39096,38.81135,141],[-90.39098,38.81138,141],[-90.39101,38.81141,142],[-90.39104,38.81143,142],[-90.39107,38.81145,142],[-90.39109,38.81148,142],[-90.39111,38.81151,142],[-90.39094,38.81173,147],[-90.39083,38.81173,147],[-90.39102,38.81195,150],[-90.3909,38.81206,149],[-90.39073,38.81231,147],[-90.39092,38.8124,145],[-90.39104,38.81237,145],[-90.39105,38.81239,144],[-90.39106,38.81243,143],[-90.39106,38.81246,142],[-90.39107,38.81249,141],[-90.39108,38.81253,141],[-90.39107,38.81256,142],[-90.39104,38.81259,143],[-90.39104,38.81263,144],[-90.39104,38.81267,145],[-90.39105,38.8127,146],[-90.39105,38.81273,146],[-90.39104,38.81276,147],[-90.39104,38.8128,148],[-90.39105,38.81283,149],[-90.39108,38.81285,149],[-90.39112,38.81287,149],[-90.39114,38.81289,149],[-90.39116,38.81292,149],[-90.39117,38.81296,150],[-90.39117,38.81298,151],[-90.39121,38.813,151],[-90.39123,38.81302,151],[-90.39125,38.81306,152],[-90.39125,38.81309,152],[-90.39126,38.81312,152],[-90.39128,38.81314,151],[-90.3913,38.81318,151],[-90.39132,38.81321,151],[-90.39135,38.81324,151],[-90.39137,38.81326,150],[-90.3914,38.81329,150],[-90.39144,38.81331,150],[-90.39147,38.81333,149],[-90.39151,38.81334,149],[-90.39154,38.81336,148],[-90.39156,38.81338,147],[-90.39158,38.8134,147],[-90.3916,38.81345,146],[-90.39163,38.81346,145],[-90.39166,38.81348,144],[-90.39167,38.81351,144],[-90.39168,38.81354,143],[-90.39168,38.81357,143],[-90.39169,38.8136,142],[-90.39171,38.81362,142],[-90.39173,38.81365,142],[-90.39176,38.81369,142],[-90.39178,38.81372,142],[-90.3918,38.81375,142],[-90.39184,38.81376,141],[-90.39187,38.81378,141],[-90.39189,38.81381,140],[-90.39193,38.81384,138],[-90.39195,38.81387,138],[-90.39198,38.81389,137],[-90.39202,38.81393,138],[-90.39204,38.81396,140],[-90.3921,38.81397,139],[-90.39214,38.81398,139],[-90.39219,38.81404,143],[-90.39222,38.81405,143],[-90.39228,38.81405,143],[-90.39232,38.81404,143],[-90.39235,38.81403,143],[-90.39237,38.814,141],[-90.3924,38.81397,140],[-90.39242,38.81395,139],[-90.39243,38.81391,137],[-90.39244,38.81387,137],[-90.39246,38.81384,137],[-90.39248,38.8138,138],[-90.3925,38.81377,138],[-90.39251,38.81375,138],[-90.39253,38.81377,138],[-90.3925,38.81379,138],[-90.39253,38.81377,138],[-90.39254,38.81373,138],[-90.39256,38.8137,138],[-90.39257,38.81367,138],[-90.39258,38.81363,138],[-90.3926,38.8136,138],[-90.39262,38.81355,138],[-90.39264,38.81354,137],[-90.39267,38.81351,137],[-90.39269,38.81348,137],[-90.39271,38.81345,136],[-90.39273,38.81342,136],[-90.39275,38.8134,135],[-90.39277,38.81337,135],[-90.3928,38.81335,135],[-90.39284,38.81333,134],[-90.39287,38.81332,134],[-90.3929,38.81329,134],[-90.39292,38.81326,133],[-90.39294,38.81323,133],[-90.39296,38.81321,133],[-90.39298,38.81318,133],[-90.39299,38.81315,133],[-90.39302,38.81312,133],[-90.39304,38.8131,133],[-90.39306,38.81307,132],[-90.3931,38.81305,133],[-90.39312,38.81302,133],[-90.39314,38.813,133],[-90.39316,38.81297,133],[-90.39319,38.81295,133],[-90.39321,38.81293,133],[-90.39323,38.8129,134],[-90.39327,38.81288,134],[-90.3933,38.81286,134],[-90.39333,38.81284,134],[-90.39337,38.81282,134],[-90.39341,38.81282,134],[-90.39344,38.81282,134],[-90.39347,38.81279,134],[-90.3935,38.81277,134],[-90.39354,38.81275,134],[-90.39357,38.81274,134],[-90.39359,38.81271,134],[-90.39362,38.81269,134],[-90.39365,38.81267,134],[-90.39368,38.81265,135],[-90.3937,38.81263,135],[-90.39373,38.81261,135],[-90.39378,38.8126,135],[-90.39381,38.8126,135],[-90.39385,38.81259,135],[-90.39388,38.81257,136],[-90.39392,38.81255,136]]],
        "bbox": [
          -90.38745,
          38.81804,
          -90.39493,
          38.81121
        ]
      },
      "properties": {
        "name": "5.17.2023A"
      }
    }
  ]
}