{
  "type": "FeatureCollection",
  "features": [
    {
      "type": "Feature",
      "geometry": {
        "type": "MultiLineString",
        "coordinates": [[[-90.3949,38.81175,134],[-90.39488,38.81177,134],[-90.39485,38.81179,134],[-90.39482,38.81181,135],[-90.3948,38.81183,135],[-90.39478,38.81185,135],[-90.39475,38.81188,136],[-90.39472,38.81189,136],[-90.39469,38.81192,136],[-90.39467,38.81194,137],[-90.39464,38.81196,137],[-90.39462,38.81198,137],[-90.39459,38.81201,137],[-90.39456,38.81203,137],[-90.39454,38.81206,137],[-90.39451,38.81208,137],[-90.39448,38.8121,137],[-90.39445,38.81211,137],[-90.39442,38.81213,138],[-90.39439,38.81215,138],[-90.39436,38.81216,138],[-90.3944,38.81215,138],[-90.39444,38.81213,138],[-90.39447,38.81211,137],[-90.39451,38.81208,137],[-90.39454,38.81206,137],[-90.39457,38.81204,137],[-90.3946,38.81201,137],[-90.39462,38.81199,137],[-90.39466,38.81196,137],[-90.39469,38.81194,137],[-90.39472,38.81191,136],[-90.39475,38.81189,136],[-90.39478,38.81186,135],[-90.39481,38.81184,135],[-90.39484,38.81181,134],[-90.39487,38.81178,134],[-90.3949,38.81176,134],[-90.39493,38.81174,133],[-90.39497,38.81173,133],[-90.395,38.81172,133],[-90.39502,38.81169,133],[-90.39503,38.81166,132],[-90.39505,38.81162,132],[-90.39505,38.81159,132],[-90.39503,38.81157,132],[-90.395,38.81157,132],[-90.39501,38.81159,132],[-90.39504,38.81161,132],[-90.39503,38.81164,132],[-90.39501,38.81166,132],[-90.39499,38.81169,133],[-90.39495,38.8117,133],[-90.3949,38.81171,133],[-90.39487,38.81173,134],[-90.39484,38.81175,134],[-90.39482,38.81178,134],[-90.39479,38.8118,135],[-90.39477,38.81183,135],[-90.39474,38.81185,135],[-90.3947,38.81187,136],[-90.39467,38.81189,136],[-90.39464,38.81191,136],[-90.39462,38.81193,137],[-90.39459,38.81196,137],[-90.39457,38.81198,137],[-90.39454,38.81201,137],[-90.3945,38.81204,137],[-90.39448,38.81206,137],[-90.39445,38.81209,137],[-90.39442,38.81211,138],[-90.39438,38.81214,138],[-90.39435,38.81216,138],[-90.39431,38.81218,138],[-90.39428,38.8122,138],[-90.39425,38.81223,137],[-90.39422,38.81225,137],[-90.39418,38.81227,137],[-90.39415,38.8123,137],[-90.39411,38.81234,137],[-90.39409,38.81237,137],[-90.39406,38.81239,137],[-90.39403,38.81242,137],[-90.394,38.81244,137],[-90.39396,38.81246,137],[-90.39393,38.81249,137],[-90.39391,38.81252,136],[-90.39388,38.81255,136],[-90.39384,38.81258,136],[-90.39381,38.8126,135],[-90.39378,38.81262,135],[-90.39374,38.81265,135],[-90.3937,38.81267,134],[-90.39367,38.81268,134],[-90.39364,38.81271,134],[-90.39361,38.81273,134],[-90.39358,38.81275,134],[-90.39354,38.81275,134],[-90.39353,38.81277,134],[-90.39351,38.81281,134],[-90.39348,38.81282,134],[-90.39343,38.81285,134],[-90.3934,38.81287,134],[-90.39338,38.81289,134],[-90.39335,38.81291,134],[-90.39332,38.81294,133],[-90.39329,38.81296,133],[-90.39326,38.81298,133],[-90.39322,38.813,133],[-90.39319,38.81302,133],[-90.39316,38.81305,133],[-90.39313,38.81307,132],[-90.3931,38.8131,132],[-90.39307,38.81312,132],[-90.39304,38.81315,133],[-90.39301,38.81318,133],[-90.39298,38.81321,133],[-90.39295,38.81323,133],[-90.39292,38.81325,133],[-90.39288,38.81326,134],[-90.39284,38.81327,134],[-90.39282,38.8133,134],[-90.39278,38.81332,134],[-90.39275,38.81335,135],[-90.39272,38.81338,135],[-90.3927,38.81341,136],[-90.39269,38.81345,136],[-90.39267,38.81348,137],[-90.39264,38.81351,137],[-90.39262,38.81355,138],[-90.39259,38.81358,138],[-90.39257,38.81362,138],[-90.39255,38.81365,138],[-90.39254,38.81368,138],[-90.39254,38.81371,138],[-90.39253,38.81373,138],[-90.39251,38.81376,138],[-90.39247,38.81377,138],[-90.39245,38.81379,137],[-90.39244,38.81382,137],[-90.39244,38.81385,137],[-90.39243,38.81388,136],[-90.39242,38.81391,137],[-90.39238,38.81392,137],[-90.39235,38.81395,138],[-90.39231,38.81397,139],[-90.39228,38.81399,140],[-90.39227,38.81403,142],[-90.39226,38.81406,144],[-90.39226,38.81409,146],[-90.39227,38.81413,148],[-90.39229,38.81416,150],[-90.39232,38.81418,150],[-90.39234,38.8142,151],[-90.39238,38.81423,151],[-90.39242,38.81425,151],[-90.39246,38.81427,152],[-90.39249,38.8143,152],[-90.39252,38.81431,152],[-90.39255,38.81432,152],[-90.39259,38.81432,152],[-90.39262,38.81431,151],[-90.39261,38.81428,151],[-90.3926,38.81426,150],[-90.39254,38.81426,151],[-90.39254,38.81429,152],[-90.39257,38.81432,152],[-90.3926,38.81434,152],[-90.39263,38.81436,152],[-90.39266,38.81438,152],[-90.39269,38.81441,153],[-90.39273,38.81442,152],[-90.39275,38.81445,153],[-90.39277,38.81448,152],[-90.39279,38.81451,152],[-90.39283,38.81454,151],[-90.39286,38.81456,150],[-90.39288,38.81458,150],[-90.39291,38.81461,149],[-90.39294,38.81463,148],[-90.39297,38.81466,148],[-90.39297,38.8147,147],[-90.39296,38.81473,148],[-90.39296,38.81475,148],[-90.39297,38.81478,148],[-90.39297,38.81481,148],[-90.39297,38.81484,148],[-90.39297,38.81487,148],[-90.39299,38.81491,148],[-90.39301,38.81493,147],[-90.39305,38.81495,147],[-90.39307,38.81498,147],[-90.39309,38.81501,147],[-90.3931,38.81505,146],[-90.39314,38.81508,145],[-90.39317,38.8151,144],[-90.39317,38.81513,144],[-90.39316,38.81516,144],[-90.39314,38.81518,144],[-90.39311,38.81521,145],[-90.39309,38.81524,145],[-90.39307,38.81526,145],[-90.39306,38.81529,145],[-90.39303,38.81532,145],[-90.39301,38.81534,145],[-90.39297,38.81535,145],[-90.39293,38.81537,146],[-90.39289,38.81538,147],[-90.39285,38.81538,148],[-90.39282,38.81539,148],[-90.39279,38.81542,148],[-90.39276,38.81544,148],[-90.39275,38.81547,148],[-90.39272,38.8155,148],[-90.3927,38.81552,148],[-90.39267,38.81556,149],[-90.39265,38.81558,149],[-90.39262,38.81561,150],[-90.39261,38.81564,149],[-90.39262,38.81567,148],[-90.39262,38.81569,148],[-90.39264,38.81572,146],[-90.39264,38.81575,146],[-90.39265,38.81579,145],[-90.39264,38.81582,144],[-90.39264,38.81585,144],[-90.39264,38.81589,144],[-90.39265,38.81592,144],[-90.39265,38.81595,144],[-90.39265,38.81599,144],[-90.39265,38.81602,144],[-90.39264,38.81605,144],[-90.39261,38.81606,145],[-90.39257,38.81607,146],[-90.39256,38.8161,146],[-90.39252,38.81611,148],[-90.39249,38.81613,148],[-90.39244,38.81614,150],[-90.39241,38.81616,150],[-90.39238,38.81618,151],[-90.39238,38.8162,150],[-90.39236,38.81624,150],[-90.39233,38.81625,150],[-90.39236,38.81626,149],[-90.39238,38.81624,149],[-90.3924,38.81621,149],[-90.39244,38.8162,148],[-90.39244,38.81617,149],[-90.39246,38.81615,149],[-90.39251,38.81614,148],[-90.39254,38.81613,147],[-90.39256,38.8161,146],[-90.3926,38.81609,145],[-90.39263,38.81607,144],[-90.39266,38.81606,143],[-90.39268,38.81603,143],[-90.3927,38.816,142],[-90.39271,38.81597,142],[-90.39271,38.81594,142],[-90.39272,38.81591,141],[-90.39271,38.81588,142],[-90.39271,38.81585,142],[-90.3927,38.81582,142],[-90.3927,38.81578,143],[-90.39269,38.81575,144],[-90.39268,38.81572,145],[-90.39267,38.81568,146],[-90.39266,38.81565,147],[-90.39266,38.81562,148],[-90.39267,38.81559,148],[-90.3927,38.81557,147],[-90.39272,38.81555,147],[-90.39276,38.81553,146],[-90.39279,38.81551,145],[-90.39282,38.81548,145],[-90.39285,38.81546,145],[-90.39289,38.81544,145],[-90.39292,38.81542,145],[-90.39296,38.81541,144],[-90.39298,38.81539,144],[-90.39302,38.81537,143],[-90.39305,38.81536,143],[-90.39308,38.81534,143],[-90.3931,38.81532,143],[-90.39313,38.81529,143],[-90.39315,38.81527,143],[-90.39315,38.81524,143],[-90.39317,38.8152,143],[-90.39319,38.81518,143],[-90.39319,38.81514,143],[-90.39319,38.81511,144],[-90.39317,38.81507,144],[-90.39316,38.81505,145],[-90.39315,38.81502,145],[-90.39313,38.81498,146],[-90.39309,38.81496,146],[-90.39306,38.81493,147],[-90.39305,38.8149,147],[-90.39306,38.81487,146],[-90.39303,38.81486,147],[-90.393,38.81484,147],[-90.39298,38.81481,147],[-90.39297,38.81478,148],[-90.39301,38.81478,147],[-90.39304,38.8148,146],[-90.39304,38.81476,146],[-90.39303,38.81472,146],[-90.39302,38.81468,146],[-90.39301,38.81465,147],[-90.39298,38.81462,147],[-90.39296,38.8146,148],[-90.39292,38.81457,149],[-90.39288,38.81454,150],[-90.39285,38.81453,151],[-90.39281,38.81451,152],[-90.39278,38.81449,152],[-90.39275,38.81447,153],[-90.39272,38.81445,153],[-90.39269,38.81443,153],[-90.39267,38.8144,153],[-90.39265,38.81438,153],[-90.39262,38.81435,152],[-90.39259,38.81433,152],[-90.39255,38.81431,152],[-90.39251,38.8143,152],[-90.39247,38.81429,152],[-90.39243,38.81427,152],[-90.3924,38.81424,151],[-90.39237,38.81423,151],[-90.39234,38.8142,151],[-90.39231,38.81417,150],[-90.39229,38.81414,149],[-90.39227,38.81411,147],[-90.39226,38.81408,145],[-90.39224,38.81405,143],[-90.39223,38.81402,141],[-90.39223,38.81405,143],[-90.39224,38.81408,145],[-90.39221,38.81408,145],[-90.39217,38.81409,146],[-90.39213,38.81409,146],[-90.39209,38.81408,146],[-90.39206,38.81409,147],[-90.39202,38.8141,148],[-90.39197,38.8141,148],[-90.39194,38.8141,148],[-90.39191,38.81412,150],[-90.39189,38.81415,152],[-90.39186,38.81417,154],[-90.39185,38.8142,155],[-90.39184,38.81422,156],[-90.39181,38.81424,157],[-90.39181,38.81427,158],[-90.39178,38.81427,159],[-90.39177,38.8143,160],[-90.39179,38.81432,159],[-90.39181,38.81435,160],[-90.39182,38.81438,160],[-90.39181,38.81441,162],[-90.39185,38.81443,161],[-90.39183,38.81445,162],[-90.39183,38.81448,162],[-90.39182,38.81451,163],[-90.39183,38.81454,163],[-90.39186,38.81457,163],[-90.3919,38.81459,162],[-90.39192,38.81461,162],[-90.39192,38.81465,162],[-90.39191,38.81467,163],[-90.39191,38.8147,163],[-90.39192,38.81474,163],[-90.39193,38.81476,163],[-90.39194,38.81479,163],[-90.39196,38.81482,163],[-90.39196,38.81485,164],[-90.39193,38.81488,165],[-90.39192,38.81491,165],[-90.3919,38.81493,166],[-90.39192,38.81495,166],[-90.39196,38.81498,165],[-90.39199,38.815,164],[-90.39201,38.81502,165],[-90.39203,38.81505,165],[-90.39204,38.81509,166],[-90.39202,38.81512,168],[-90.39201,38.81515,169],[-90.392,38.81518,171],[-90.39201,38.81521,171],[-90.392,38.81524,173],[-90.39199,38.81527,174],[-90.39198,38.8153,175],[-90.39198,38.81533,175],[-90.392,38.81536,174],[-90.39201,38.8154,174],[-90.39201,38.81543,174],[-90.39202,38.81545,174],[-90.39203,38.81549,174],[-90.39202,38.81552,174],[-90.392,38.81554,175],[-90.392,38.81557,175],[-90.39198,38.8156,175],[-90.39195,38.81562,176],[-90.39194,38.81566,175],[-90.39194,38.81568,175],[-90.39194,38.81572,174],[-90.39194,38.81569,175],[-90.3919,38.8157,175],[-90.39194,38.81569,175],[-90.3919,38.81568,176],[-90.39186,38.81567,177],[-90.39183,38.81566,178],[-90.39179,38.81566,179],[-90.39175,38.81567,179],[-90.39174,38.8157,179],[-90.39178,38.8157,178],[-90.39178,38.81573,178],[-90.39177,38.81576,178],[-90.39176,38.81579,177],[-90.39176,38.81581,177],[-90.39174,38.81584,177],[-90.39173,38.81588,177],[-90.39173,38.81591,176],[-90.39174,38.81594,175],[-90.39174,38.81597,174],[-90.39174,38.816,174],[-90.39173,38.81603,173],[-90.39171,38.81606,173],[-90.3917,38.8161,173],[-90.3917,38.81614,172],[-90.39171,38.81617,170],[-90.3917,38.81619,170],[-90.39169,38.81623,168],[-90.39165,38.81625,169],[-90.39164,38.81628,168],[-90.39164,38.81632,167],[-90.39163,38.81635,166],[-90.3916,38.81636,166],[-90.39158,38.81639,166],[-90.39155,38.81641,166],[-90.39153,38.81644,165],[-90.39151,38.81647,165],[-90.39148,38.81649,165],[-90.39145,38.81651,165],[-90.39144,38.81654,164],[-90.39144,38.81657,163],[-90.39141,38.81659,164],[-90.39139,38.81661,163],[-90.39137,38.81663,163],[-90.39137,38.81666,162],[-90.39133,38.81667,162],[-90.39131,38.81669,162],[-90.3913,38.81672,161],[-90.39126,38.81673,161],[-90.39124,38.81675,161],[-90.3912,38.81676,161],[-90.39116,38.81675,162],[-90.39116,38.81679,161],[-90.39115,38.81676,162],[-90.39112,38.81673,164],[-90.39109,38.81671,164],[-90.39105,38.81671,165],[-90.39102,38.8167,165],[-90.391,38.81668,166],[-90.39096,38.81666,166],[-90.39092,38.81671,165],[-90.39089,38.81673,165],[-90.39088,38.81676,164],[-90.39088,38.81679,164],[-90.39087,38.81676,165],[-90.39083,38.81677,165],[-90.39078,38.81677,165],[-90.39075,38.8168,165],[-90.39075,38.81683,164],[-90.39072,38.81681,165],[-90.39068,38.81681,165],[-90.39065,38.81684,165],[-90.39062,38.81685,165],[-90.39059,38.81687,165],[-90.39055,38.81689,165],[-90.39052,38.8169,165],[-90.39048,38.8169,165],[-90.39047,38.81693,165],[-90.39048,38.81695,165],[-90.39048,38.81699,164],[-90.3905,38.81702,162],[-90.39051,38.81704,162],[-90.39052,38.81707,161],[-90.3905,38.81709,160],[-90.39049,38.81712,159],[-90.39047,38.81715,158],[-90.39047,38.81718,157],[-90.3905,38.8172,156],[-90.3905,38.81722,156],[-90.39047,38.81724,155],[-90.39046,38.81727,154],[-90.39049,38.81726,154],[-90.39052,38.81727,154],[-90.39052,38.8173,153],[-90.39055,38.81731,152],[-90.39056,38.81735,151],[-90.39055,38.81738,150],[-90.39053,38.81741,149],[-90.39056,38.81742,148],[-90.39059,38.81744,147],[-90.39061,38.81746,146],[-90.39063,38.81748,145],[-90.39063,38.81751,144],[-90.39065,38.81753,144],[-90.39069,38.81754,143],[-90.39072,38.81755,142],[-90.39075,38.81757,141],[-90.39076,38.8176,141],[-90.39075,38.81763,140],[-90.39071,38.81765,140],[-90.39069,38.81767,140],[-90.39066,38.81769,140],[-90.39062,38.81771,140],[-90.39058,38.81772,141],[-90.39055,38.81773,141],[-90.39051,38.81775,141],[-90.39048,38.81776,141],[-90.39044,38.81777,141],[-90.39041,38.81778,141],[-90.39037,38.8178,141],[-90.39034,38.81781,141],[-90.3903,38.81783,142],[-90.39027,38.81785,142],[-90.39024,38.81787,142],[-90.39021,38.81788,142],[-90.39016,38.81789,143],[-90.39013,38.81788,144],[-90.39011,38.81786,144],[-90.39011,38.81783,145],[-90.39007,38.81781,146],[-90.39003,38.81781,146],[-90.38999,38.81782,147],[-90.38996,38.81782,147],[-90.38992,38.81782,148],[-90.38987,38.81783,148],[-90.38983,38.81784,148],[-90.3898,38.81786,148],[-90.38977,38.81787,149],[-90.38973,38.81787,149],[-90.38969,38.81788,149],[-90.38966,38.81791,149],[-90.38963,38.81793,149],[-90.38961,38.81795,148],[-90.38957,38.81796,148],[-90.38954,38.81798,148],[-90.3895,38.81799,148],[-90.38947,38.81799,148],[-90.38943,38.818,148],[-90.38938,38.818,148]],[[-90.39146,38.81651,165],[-90.39149,38.81649,165],[-90.39152,38.81648,164],[-90.39154,38.81646,165],[-90.39157,38.81642,165],[-90.39158,38.8164,165],[-90.3916,38.81637,166],[-90.39162,38.81635,166],[-90.39164,38.81632,167],[-90.39166,38.81629,167],[-90.39168,38.81626,168],[-90.39169,38.81623,168],[-90.39169,38.8162,170],[-90.3917,38.81617,170],[-90.39171,38.81615,171],[-90.39172,38.81612,172],[-90.39172,38.81608,173],[-90.39173,38.81606,173],[-90.39174,38.81603,173],[-90.39175,38.816,174],[-90.39176,38.81597,174],[-90.39177,38.81594,174],[-90.39177,38.8159,175],[-90.39175,38.81587,176],[-90.39176,38.81584,177],[-90.39176,38.81581,177],[-90.39176,38.81578,178],[-90.39174,38.81575,179],[-90.39172,38.81573,179],[-90.39171,38.81569,180],[-90.39169,38.81567,181],[-90.39165,38.81566,182],[-90.39161,38.81565,182],[-90.39158,38.81563,182],[-90.39155,38.81561,183],[-90.39154,38.81558,183],[-90.39153,38.81555,183],[-90.39151,38.81552,184],[-90.3915,38.81549,184],[-90.39148,38.81546,184],[-90.39145,38.81544,184],[-90.39142,38.81542,185],[-90.39138,38.81541,185],[-90.39134,38.81541,185],[-90.3913,38.8154,185],[-90.39126,38.81539,186],[-90.39123,38.81538,186],[-90.39118,38.81537,186],[-90.39113,38.81537,186],[-90.39109,38.81538,186],[-90.39105,38.8154,186],[-90.39102,38.81541,186],[-90.39099,38.81543,186],[-90.39095,38.81545,186],[-90.39092,38.81546,185],[-90.39088,38.81546,185],[-90.39083,38.81547,185],[-90.3908,38.81548,185],[-90.39076,38.81548,184],[-90.39072,38.81549,184],[-90.39072,38.81552,183],[-90.39069,38.81549,183],[-90.39065,38.81547,183],[-90.39061,38.81547,183],[-90.39057,38.81546,182],[-90.39053,38.81545,182],[-90.39049,38.81544,182],[-90.39046,38.81543,181],[-90.39042,38.81542,181],[-90.39039,38.8154,181],[-90.39036,38.81539,181],[-90.39032,38.81538,180],[-90.39028,38.81536,180],[-90.39025,38.81535,180],[-90.3902,38.81534,181],[-90.39016,38.81533,181],[-90.39011,38.81532,181],[-90.39008,38.8153,181],[-90.39005,38.81528,181],[-90.39002,38.81527,182],[-90.38998,38.81525,182],[-90.38995,38.81523,183],[-90.38993,38.81521,183],[-90.3899,38.81519,184],[-90.38987,38.81518,184],[-90.38983,38.81517,185],[-90.38981,38.81514,185],[-90.38977,38.81513,186],[-90.38975,38.81511,186],[-90.38973,38.81508,187],[-90.3897,38.81505,187],[-90.38967,38.81502,188],[-90.38964,38.815,188],[-90.38962,38.81497,188],[-90.3896,38.81494,189],[-90.38957,38.81492,189],[-90.38955,38.81489,189],[-90.38954,38.81486,189],[-90.38953,38.81483,190],[-90.38952,38.81481,190],[-90.38953,38.81478,190],[-90.38953,38.81474,191],[-90.38953,38.81471,191],[-90.38953,38.81469,191],[-90.38954,38.81466,190],[-90.38954,38.81462,190],[-90.38954,38.81459,190],[-90.38953,38.81456,190],[-90.38953,38.81453,190],[-90.38953,38.8145,190],[-90.38954,38.81446,189],[-90.38956,38.81443,189],[-90.38956,38.8144,188],[-90.38953,38.81438,188],[-90.38949,38.81436,189],[-90.38946,38.81434,189],[-90.38943,38.81433,189],[-90.3894,38.81431,189],[-90.38937,38.81429,189],[-90.38934,38.81428,190],[-90.3893,38.81426,190],[-90.38927,38.81424,191],[-90.38924,38.81423,191],[-90.3892,38.81421,192],[-90.38918,38.81419,192],[-90.38913,38.81419,192],[-90.38908,38.8142,192],[-90.38904,38.8142,192],[-90.38898,38.81419,192],[-90.38893,38.81418,192],[-90.38889,38.81418,192],[-90.38885,38.81417,193],[-90.38883,38.81415,193],[-90.38881,38.81413,193],[-90.38878,38.81411,194],[-90.38875,38.8141,194],[-90.38871,38.81408,194],[-90.38867,38.81407,195],[-90.38863,38.81406,195],[-90.38861,38.81404,196],[-90.38857,38.81404,196],[-90.38854,38.81403,196],[-90.3885,38.81402,196],[-90.38847,38.81401,197],[-90.38843,38.81399,197],[-90.38839,38.81398,197],[-90.38835,38.81396,198],[-90.38832,38.81394,198],[-90.38828,38.81392,198],[-90.38824,38.81391,198],[-90.3882,38.8139,198],[-90.38816,38.8139,198],[-90.38811,38.81391,198],[-90.38807,38.81391,199],[-90.38804,38.81391,199],[-90.388,38.81391,199],[-90.38795,38.81392,199],[-90.38791,38.81392,199],[-90.38787,38.81393,199],[-90.38783,38.81394,199],[-90.3878,38.81394,199],[-90.38776,38.81393,200],[-90.38772,38.81395,200],[-90.38768,38.81394,200],[-90.38764,38.81394,200],[-90.38763,38.81392,200],[-90.38761,38.8139,200],[-90.38758,38.81388,199],[-90.38755,38.81387,199],[-90.38752,38.81384,199],[-90.3875,38.81381,198],[-90.3875,38.81378,198],[-90.38753,38.81375,198],[-90.38754,38.81372,197],[-90.38755,38.81369,197],[-90.38756,38.81366,197],[-90.38756,38.81363,196],[-90.38757,38.8136,196],[-90.38758,38.81357,196],[-90.38758,38.81354,196],[-90.38759,38.81351,195],[-90.3876,38.81347,195],[-90.38761,38.81344,195],[-90.38761,38.81341,195],[-90.38761,38.81337,195],[-90.38761,38.81335,194],[-90.38763,38.81332,194],[-90.38765,38.8133,194],[-90.38769,38.8133,195],[-90.38773,38.81331,195],[-90.38777,38.81333,195],[-90.3878,38.81333,195],[-90.38784,38.81332,195],[-90.38787,38.81331,195],[-90.3879,38.81329,195],[-90.38793,38.81328,195],[-90.38795,38.81325,194],[-90.38798,38.81324,194],[-90.38797,38.8132,193],[-90.38797,38.81317,193],[-90.38799,38.81315,192],[-90.38802,38.81312,192],[-90.38804,38.8131,191],[-90.38805,38.81307,191],[-90.38807,38.81304,190],[-90.38808,38.813,189],[-90.38809,38.81297,189],[-90.38809,38.81294,188],[-90.38807,38.81291,189],[-90.3881,38.81289,188],[-90.38809,38.81286,187],[-90.3881,38.81283,187],[-90.38812,38.81281,186],[-90.38815,38.81279,185],[-90.38819,38.81278,184],[-90.38822,38.81277,183],[-90.38825,38.81274,181],[-90.38829,38.81273,180],[-90.3883,38.81275,180],[-90.38833,38.81278,180],[-90.38834,38.81275,179],[-90.38835,38.81272,178],[-90.38838,38.81274,177],[-90.38842,38.81272,176],[-90.38846,38.81272,174],[-90.38849,38.81273,173],[-90.38853,38.81272,172],[-90.38857,38.81271,171],[-90.38859,38.81268,170],[-90.3886,38.81265,169],[-90.3886,38.81262,169],[-90.38861,38.81259,169],[-90.38864,38.81258,168],[-90.38863,38.81255,168],[-90.38864,38.81252,168],[-90.38864,38.81249,168],[-90.38865,38.81246,167],[-90.38862,38.81243,167],[-90.38862,38.81239,166],[-90.38856,38.81239,168],[-90.38859,38.81237,167],[-90.38863,38.81236,166],[-90.38866,38.81233,165],[-90.38868,38.81231,164],[-90.38872,38.8123,164],[-90.38873,38.81228,163],[-90.38875,38.81224,163],[-90.38878,38.81222,162],[-90.38881,38.8122,162],[-90.38883,38.81218,161],[-90.38884,38.81215,161],[-90.38882,38.81212,160],[-90.38879,38.8121,161],[-90.38877,38.81208,160],[-90.38874,38.81205,160],[-90.3887,38.81204,161],[-90.38867,38.81201,161],[-90.38866,38.81198,161],[-90.38865,38.81195,161],[-90.38862,38.81192,162],[-90.3886,38.8119,162],[-90.3886,38.81187,162],[-90.38858,38.81184,163],[-90.3886,38.81182,163],[-90.38862,38.81179,163],[-90.38864,38.81177,163],[-90.38866,38.81174,163],[-90.38868,38.81172,163],[-90.38872,38.8117,162],[-90.38875,38.81167,162],[-90.38878,38.81165,161],[-90.3888,38.81163,161],[-90.38881,38.8116,161],[-90.38882,38.81157,160],[-90.38886,38.81157,159],[-90.38889,38.81158,159],[-90.38891,38.81155,158],[-90.38895,38.81154,157],[-90.38898,38.81152,156],[-90.38901,38.81151,155],[-90.38905,38.81152,154],[-90.38909,38.81152,153],[-90.38912,38.8115,153],[-90.38914,38.81148,152],[-90.38918,38.81145,152],[-90.38921,38.81144,152],[-90.38922,38.81141,152],[-90.38925,38.81139,152],[-90.38928,38.81138,152],[-90.38932,38.81139,152],[-90.38936,38.8114,152],[-90.38939,38.8114,152],[-90.38941,38.81137,152],[-90.38943,38.81133,152],[-90.38945,38.8113,151],[-90.38947,38.81127,151],[-90.38949,38.81125,151],[-90.3895,38.81122,151],[-90.38952,38.81119,151],[-90.38955,38.81117,151],[-90.38958,38.81116,151],[-90.38963,38.81117,151],[-90.38966,38.81117,151],[-90.38969,38.81119,150],[-90.38971,38.81121,150],[-90.38976,38.81122,149],[-90.38979,38.81121,149],[-90.38982,38.81119,149],[-90.38986,38.81116,148],[-90.3899,38.81114,148],[-90.38993,38.81114,147],[-90.38997,38.81115,147],[-90.39,38.81115,146],[-90.39004,38.81115,146],[-90.39007,38.81116,145],[-90.39012,38.81116,145],[-90.39015,38.81117,144],[-90.39019,38.81118,144],[-90.39023,38.81119,143],[-90.39026,38.81119,143],[-90.39031,38.81119,142],[-90.39036,38.81119,142],[-90.3904,38.8112,142],[-90.39044,38.81121,142],[-90.39047,38.81123,142],[-90.3905,38.81125,142],[-90.39053,38.81127,142],[-90.39056,38.81128,142],[-90.3906,38.81128,142],[-90.39064,38.81128,142],[-90.39066,38.81125,142],[-90.3907,38.81124,142],[-90.39072,38.81122,142],[-90.39076,38.8112,141],[-90.3908,38.81118,141],[-90.39084,38.81117,141],[-90.39087,38.81119,141],[-90.39087,38.81122,141],[-90.39089,38.81125,141],[-90.3909,38.81128,141],[-90.39092,38.81131,141],[-90.39094,38.81133,141],[-90.39097,38.81135,141],[-90.39099,38.81137,141],[-90.391,38.8114,141],[-90.39103,38.81143,142],[-90.39104,38.81145,142],[-90.39107,38.81149,142],[-90.39108,38.81152,143],[-90.39108,38.81155,143],[-90.39108,38.81158,143],[-90.39107,38.81161,144],[-90.39103,38.81164,145],[-90.391,38.81165,145],[-90.39096,38.81167,146],[-90.39093,38.81169,146],[-90.39091,38.81172,147],[-90.39089,38.81174,147],[-90.39088,38.81177,147],[-90.39087,38.8118,147],[-90.39088,38.81184,148],[-90.39089,38.81187,148],[-90.3909,38.81189,149],[-90.39091,38.81192,149],[-90.39091,38.81195,149],[-90.3909,38.81198,149],[-90.39089,38.81201,149],[-90.39088,38.81204,149],[-90.39086,38.81207,149],[-90.39085,38.81209,149],[-90.39086,38.81213,149],[-90.39086,38.81216,149],[-90.39086,38.81219,149],[-90.39086,38.81222,149],[-90.39087,38.81226,149],[-90.39088,38.81229,148],[-90.39089,38.81233,147],[-90.39091,38.81235,146],[-90.39093,38.81238,145],[-90.39094,38.81242,144],[-90.39095,38.81244,144],[-90.39097,38.81247,143],[-90.39096,38.8125,142],[-90.39096,38.81254,143],[-90.39097,38.81257,144],[-90.39096,38.81261,145],[-90.39097,38.81264,145],[-90.39098,38.81267,146],[-90.391,38.81269,146],[-90.391,38.81272,147],[-90.39099,38.81276,148],[-90.39099,38.81279,148],[-90.39099,38.81282,149],[-90.391,38.81284,149],[-90.39103,38.81286,150],[-90.39105,38.81287,150],[-90.39108,38.8129,150],[-90.39108,38.81294,151],[-90.39109,38.81297,152],[-90.3911,38.813,152],[-90.39113,38.81303,153],[-90.39115,38.81306,153],[-90.39117,38.8131,153],[-90.39118,38.81312,153],[-90.3912,38.81315,153],[-90.39122,38.81317,152],[-90.39124,38.8132,152],[-90.39127,38.81323,152],[-90.3913,38.81324,151],[-90.39133,38.81326,151],[-90.39135,38.81329,151],[-90.39138,38.81331,151],[-90.39141,38.81333,150],[-90.39144,38.81335,150],[-90.39147,38.81337,149],[-90.39151,38.81338,148],[-90.39154,38.81339,148],[-90.39156,38.81342,147],[-90.39157,38.81345,147],[-90.39157,38.81348,146],[-90.39158,38.81351,146],[-90.39159,38.81355,145],[-90.39159,38.81358,145],[-90.3916,38.81362,144],[-90.39163,38.81364,144],[-90.39165,38.81366,144],[-90.39168,38.81369,144],[-90.39171,38.81372,144],[-90.39173,38.81375,144],[-90.39175,38.81377,143],[-90.39178,38.81379,143],[-90.39182,38.81382,142],[-90.39185,38.81384,141],[-90.39187,38.81386,140],[-90.3919,38.81388,139],[-90.39193,38.8139,139],[-90.39197,38.81391,138],[-90.392,38.81393,139],[-90.39202,38.81397,140],[-90.39205,38.81399,141],[-90.39209,38.814,141],[-90.39213,38.81401,141],[-90.39216,38.81403,142],[-90.3922,38.81406,144],[-90.39224,38.81407,144],[-90.39228,38.81407,145],[-90.39231,38.81407,145],[-90.39235,38.81404,143],[-90.39236,38.814,141],[-90.39237,38.81398,140],[-90.39239,38.81395,139],[-90.39242,38.81393,138],[-90.39243,38.8139,137],[-90.39245,38.81387,137],[-90.39246,38.81384,137],[-90.39247,38.81381,137],[-90.3925,38.81379,138],[-90.39253,38.81376,138],[-90.39255,38.81373,138],[-90.39256,38.8137,138],[-90.39258,38.81367,138],[-90.39259,38.81364,138],[-90.39261,38.81361,138],[-90.39262,38.81359,138],[-90.39265,38.81355,137],[-90.39267,38.81353,137],[-90.39269,38.81349,137],[-90.3927,38.81347,136],[-90.39273,38.81344,136],[-90.39276,38.81341,135],[-90.39279,38.81338,135],[-90.39281,38.81336,135],[-90.39283,38.81333,134],[-90.39286,38.81331,134],[-90.3929,38.81329,134],[-90.39292,38.81327,133],[-90.39295,38.81325,133],[-90.39299,38.81323,133],[-90.39302,38.81321,133],[-90.39306,38.81318,132],[-90.39309,38.81316,132],[-90.39312,38.81313,132],[-90.39314,38.8131,132],[-90.39316,38.81307,132],[-90.39319,38.81303,133],[-90.39323,38.81301,133],[-90.39326,38.81298,133],[-90.3933,38.81295,133],[-90.39333,38.81293,133],[-90.39337,38.81291,133],[-90.3934,38.81289,133],[-90.39344,38.81287,133],[-90.39348,38.81284,134],[-90.39352,38.81282,134],[-90.39356,38.8128,134],[-90.39359,38.81278,134],[-90.39362,38.81276,134],[-90.39366,38.81273,134],[-90.39369,38.81271,134],[-90.39371,38.81269,134],[-90.39374,38.81267,134],[-90.39378,38.81265,135],[-90.39381,38.81263,135],[-90.39385,38.8126,135],[-90.39388,38.81258,136],[-90.39391,38.81256,136],[-90.39394,38.81254,136],[-90.39397,38.81251,136],[-90.394,38.81249,137],[-90.39403,38.81247,137],[-90.39406,38.81244,137],[-90.3941,38.81241,137],[-90.39412,38.81239,137],[-90.39415,38.81236,137],[-90.39418,38.81234,137],[-90.39422,38.81231,137],[-90.39425,38.81229,137],[-90.39427,38.81226,137],[-90.3943,38.81223,137],[-90.39433,38.81221,138],[-90.39436,38.81218,138],[-90.39439,38.81216,138],[-90.39442,38.81213,138],[-90.39446,38.81211,137],[-90.3945,38.81208,137],[-90.39453,38.81205,137],[-90.39455,38.81203,137],[-90.39458,38.812,137],[-90.39462,38.81198,137],[-90.39464,38.81196,137],[-90.39468,38.81193,137],[-90.39471,38.8119,136],[-90.39475,38.81187,136],[-90.39478,38.81185,135],[-90.39481,38.81182,135],[-90.39484,38.8118,134],[-90.39488,38.81177,134],[-90.3949,38.81175,134],[-90.39493,38.81173,133],[-90.39497,38.81171,133],[-90.39501,38.81168,133]]],
        "bbox": [
          -90.3875,
          38.818,
          -90.39505,
          38.81114
        ]
      },
      "properties": {
        "name": "8.17.2022"
      }
    }
  ]
}