{
  "type": "FeatureCollection",
  "features": [
    {
      "type": "Feature",
      "geometry": {
        "type": "MultiLineString",
        "coordinates": [[[-90.3909,38.81218,149],[-90.39091,38.81221,149],[-90.39091,38.81225,149],[-90.39093,38.81229,148],[-90.39093,38.81231,147],[-90.39096,38.81235,146],[-90.39097,38.81237,145],[-90.39099,38.8124,144],[-90.391,38.81243,143],[-90.391,38.81246,143],[-90.391,38.8125,142],[-90.39101,38.81253,142],[-90.39101,38.81256,143],[-90.39098,38.81258,144],[-90.39095,38.81259,144],[-90.39094,38.81263,145],[-90.39096,38.81266,146],[-90.39099,38.81267,146],[-90.39102,38.81269,146],[-90.39102,38.81273,147],[-90.39103,38.81276,147],[-90.39103,38.81279,148],[-90.39105,38.81283,149],[-90.39107,38.81286,149],[-90.39109,38.81288,149],[-90.39111,38.81292,150],[-90.39113,38.81294,150],[-90.39114,38.81297,151],[-90.39115,38.81299,151],[-90.39116,38.81303,152],[-90.39117,38.81306,153],[-90.39118,38.81308,153],[-90.3912,38.81311,152],[-90.39123,38.81314,152],[-90.39126,38.81316,152],[-90.3913,38.8132,151],[-90.39132,38.81322,151],[-90.39136,38.81324,151],[-90.3914,38.81327,150],[-90.39142,38.8133,150],[-90.39145,38.81331,149],[-90.39149,38.81333,149],[-90.39152,38.81335,148],[-90.39155,38.81338,148],[-90.39158,38.8134,147],[-90.39159,38.81342,147],[-90.39161,38.81346,146],[-90.39162,38.81349,145],[-90.39162,38.81353,145],[-90.39163,38.81356,144],[-90.39164,38.81359,143],[-90.39166,38.81361,143],[-90.39168,38.81365,143],[-90.3917,38.81368,143],[-90.39172,38.8137,143],[-90.39175,38.81373,143],[-90.39178,38.81376,143],[-90.3918,38.81379,142],[-90.39184,38.81381,141],[-90.39187,38.81383,140],[-90.3919,38.81384,139],[-90.39193,38.81387,138],[-90.39196,38.8139,138],[-90.39199,38.81391,138],[-90.39202,38.81393,138],[-90.39205,38.81395,139],[-90.39208,38.81398,140],[-90.39212,38.81399,140],[-90.39216,38.814,140],[-90.39221,38.81402,141],[-90.39224,38.81404,142],[-90.39222,38.81406,144],[-90.39224,38.81408,145],[-90.39227,38.81411,147],[-90.39229,38.81414,149],[-90.39232,38.81417,150],[-90.39235,38.81419,150],[-90.39238,38.81421,151],[-90.39241,38.81423,151],[-90.39237,38.81421,151],[-90.39234,38.81419,150],[-90.3923,38.81417,150],[-90.39227,38.81414,149],[-90.39224,38.81412,148],[-90.39222,38.8141,146],[-90.39218,38.81407,145],[-90.39213,38.81408,146],[-90.39209,38.81409,147],[-90.39206,38.8141,147],[-90.39202,38.81412,149],[-90.39198,38.81413,149],[-90.39194,38.81413,150],[-90.39191,38.81414,151],[-90.3919,38.81417,153],[-90.39187,38.81419,154],[-90.39186,38.81421,155],[-90.39184,38.81424,156],[-90.39183,38.81427,157],[-90.39183,38.8143,158],[-90.39183,38.81432,158],[-90.39184,38.81435,159],[-90.39184,38.81438,160],[-90.39182,38.81441,161],[-90.39182,38.81444,162],[-90.39184,38.81446,162],[-90.39185,38.81449,162],[-90.39186,38.81452,162],[-90.39189,38.81455,162],[-90.39191,38.81457,161],[-90.39193,38.8146,161],[-90.39195,38.81462,161],[-90.39195,38.81465,161],[-90.39195,38.81468,162],[-90.39196,38.8147,162],[-90.39197,38.81474,162],[-90.39198,38.81478,162],[-90.39199,38.81481,163],[-90.39198,38.81484,163],[-90.39195,38.81485,164],[-90.39194,38.81489,165],[-90.39195,38.81492,164],[-90.39195,38.81495,165],[-90.39196,38.81498,165],[-90.39197,38.81502,166],[-90.39198,38.81505,166],[-90.39199,38.81509,168],[-90.39198,38.81512,169],[-90.39198,38.81515,170],[-90.39197,38.81517,171],[-90.39196,38.8152,172],[-90.39194,38.81523,174],[-90.39193,38.81526,175],[-90.39193,38.81529,176],[-90.39195,38.81532,176],[-90.39196,38.81535,176],[-90.39197,38.81538,175],[-90.39198,38.8154,175],[-90.392,38.81543,175],[-90.392,38.81546,175],[-90.39198,38.8155,176],[-90.39198,38.81553,176],[-90.39199,38.81555,175],[-90.39197,38.81557,176],[-90.39196,38.8156,176],[-90.39196,38.81564,175],[-90.39194,38.81567,175],[-90.39192,38.81569,175],[-90.3919,38.81567,176],[-90.3919,38.81564,177],[-90.39186,38.81563,178],[-90.39183,38.81564,178],[-90.3918,38.81566,178],[-90.39175,38.81568,179],[-90.39173,38.8157,179],[-90.39172,38.81573,179],[-90.39174,38.81576,178],[-90.39175,38.81579,178],[-90.39175,38.81582,177],[-90.39175,38.81585,177],[-90.39175,38.81588,176],[-90.39176,38.81591,175],[-90.39175,38.81595,175],[-90.39174,38.81598,174],[-90.39174,38.81601,174],[-90.39173,38.81605,173],[-90.39172,38.81609,172],[-90.39171,38.81611,172],[-90.39169,38.81615,171],[-90.39169,38.81619,170],[-90.39169,38.81622,169],[-90.39168,38.81625,168],[-90.39168,38.81628,167],[-90.39167,38.81632,166],[-90.39165,38.81635,165],[-90.39163,38.81637,165],[-90.39161,38.8164,165],[-90.39158,38.81643,165],[-90.39156,38.81646,164],[-90.39154,38.81649,164],[-90.39152,38.81651,164],[-90.3915,38.81654,163],[-90.39147,38.81657,163],[-90.39146,38.8166,162],[-90.39144,38.81663,161],[-90.39141,38.81664,162],[-90.39138,38.81665,162],[-90.39134,38.81666,162],[-90.3913,38.81667,163],[-90.39126,38.81668,163],[-90.39125,38.8167,162],[-90.39122,38.81673,162],[-90.3912,38.81675,162],[-90.39117,38.81676,162],[-90.39114,38.81677,162],[-90.39111,38.81678,162],[-90.39108,38.81678,162],[-90.39105,38.81675,164],[-90.39102,38.81673,164],[-90.39101,38.81671,165],[-90.39099,38.81668,166],[-90.39095,38.81667,166],[-90.39091,38.81668,166],[-90.39087,38.81671,166],[-90.39085,38.81674,165],[-90.39083,38.81677,165],[-90.39084,38.81679,164],[-90.39085,38.81682,164],[-90.39083,38.81685,163],[-90.39081,38.81687,163],[-90.39081,38.81685,163],[-90.39078,38.81684,164],[-90.39074,38.81684,164],[-90.39076,38.81687,163],[-90.3908,38.81687,163],[-90.39083,38.81689,162],[-90.3908,38.81691,162],[-90.39076,38.8169,163],[-90.39073,38.81688,164],[-90.3907,38.81687,164],[-90.39067,38.81685,165],[-90.39067,38.81682,165],[-90.39063,38.81682,165],[-90.39059,38.81684,165],[-90.39057,38.81687,165],[-90.39053,38.81688,165],[-90.3905,38.81691,165],[-90.39051,38.81694,165],[-90.39052,38.81698,164],[-90.39052,38.817,163],[-90.39053,38.81703,162],[-90.39055,38.81706,161],[-90.39054,38.81709,160],[-90.39051,38.81711,159],[-90.39047,38.81713,159],[-90.39049,38.81715,158],[-90.39045,38.81716,158],[-90.39041,38.81715,158],[-90.39038,38.81714,159],[-90.39035,38.81717,158],[-90.39037,38.81721,157],[-90.39041,38.81725,155],[-90.39046,38.81727,154],[-90.39046,38.8173,153],[-90.39044,38.81732,153],[-90.39047,38.81731,153],[-90.39052,38.8173,153],[-90.39048,38.81728,154],[-90.39045,38.81727,154],[-90.39046,38.8173,153],[-90.39049,38.81734,152],[-90.39052,38.81737,150],[-90.39056,38.81738,150],[-90.39059,38.81736,150],[-90.39054,38.81736,151],[-90.39055,38.81739,149],[-90.39053,38.81742,149],[-90.39049,38.81742,149],[-90.39047,38.81745,148],[-90.39047,38.81748,147],[-90.39048,38.81752,146],[-90.39049,38.81756,145],[-90.3905,38.81759,144],[-90.39052,38.81762,143],[-90.39054,38.81765,142],[-90.39056,38.81768,142],[-90.39059,38.81769,141],[-90.39063,38.81769,140],[-90.39066,38.81767,141],[-90.39069,38.81764,141],[-90.39072,38.81762,141],[-90.39076,38.8176,141],[-90.39079,38.81758,141],[-90.3908,38.81756,141],[-90.39082,38.81753,141],[-90.39084,38.81749,142],[-90.39087,38.81748,142],[-90.39091,38.81746,142],[-90.39093,38.81743,143],[-90.39095,38.8174,143],[-90.39097,38.81737,144],[-90.391,38.81734,144],[-90.39102,38.81732,144],[-90.39105,38.81729,145],[-90.39107,38.81727,145],[-90.3911,38.81724,145],[-90.39113,38.81722,145],[-90.39115,38.81719,146],[-90.39117,38.81717,147],[-90.39121,38.81716,146],[-90.39125,38.81715,146],[-90.39129,38.81713,146],[-90.39133,38.81711,147],[-90.39137,38.81709,147],[-90.3914,38.81707,147],[-90.39144,38.81705,147],[-90.39147,38.81703,147],[-90.3915,38.81702,147],[-90.39155,38.81701,147],[-90.39159,38.81701,146],[-90.39162,38.817,146],[-90.39166,38.81698,146],[-90.3917,38.81696,147],[-90.39174,38.81694,148],[-90.39177,38.81693,148],[-90.3918,38.81691,149],[-90.39181,38.81689,149],[-90.39183,38.81686,149],[-90.39185,38.81683,150],[-90.39188,38.81681,150],[-90.39191,38.81679,150],[-90.39194,38.81677,150],[-90.39196,38.81674,150],[-90.39199,38.81672,149],[-90.39201,38.81669,149],[-90.39202,38.81666,149],[-90.39205,38.81664,149],[-90.39208,38.81663,149],[-90.39211,38.81661,148],[-90.39213,38.81658,148],[-90.39216,38.81656,148],[-90.39219,38.81655,147],[-90.39222,38.81653,147],[-90.39224,38.81649,147],[-90.39225,38.81647,147],[-90.39227,38.81643,147],[-90.39229,38.8164,147],[-90.39232,38.81638,147],[-90.39233,38.81635,147],[-90.39232,38.81632,148],[-90.39231,38.81628,150],[-90.39234,38.81626,149],[-90.39235,38.81623,150],[-90.39238,38.81622,150],[-90.39241,38.81619,149],[-90.39243,38.81616,150],[-90.39247,38.81614,149],[-90.39252,38.81612,148],[-90.39255,38.81611,147],[-90.39258,38.81609,146],[-90.39261,38.81607,145],[-90.39264,38.81605,144],[-90.39265,38.81602,144],[-90.39265,38.81598,144],[-90.39266,38.81595,143],[-90.39266,38.81592,143],[-90.39266,38.81588,143],[-90.39266,38.81584,143],[-90.39266,38.81581,144],[-90.39265,38.81579,145],[-90.39264,38.81576,146],[-90.39261,38.81573,147],[-90.39259,38.8157,148],[-90.39259,38.81566,149],[-90.39259,38.81563,150],[-90.3926,38.8156,150],[-90.39264,38.81558,149],[-90.39266,38.81556,149],[-90.39269,38.81554,148],[-90.39272,38.81551,148],[-90.39275,38.81549,147],[-90.39279,38.81548,146],[-90.39282,38.81546,146],[-90.39285,38.81545,146],[-90.39289,38.81542,145],[-90.39292,38.8154,145],[-90.39296,38.81538,145],[-90.393,38.81535,145],[-90.39302,38.81533,145],[-90.39303,38.8153,145],[-90.39305,38.81527,146],[-90.39306,38.81524,146],[-90.39307,38.81521,146],[-90.39309,38.81519,145],[-90.39311,38.81516,145],[-90.39313,38.81513,145],[-90.39311,38.8151,145],[-90.39307,38.81507,147],[-90.39306,38.81504,147],[-90.39304,38.81501,148],[-90.39302,38.81498,148],[-90.393,38.81495,148],[-90.39297,38.81492,148],[-90.39295,38.8149,148],[-90.39293,38.81486,148],[-90.39292,38.81483,148],[-90.39292,38.8148,148],[-90.39293,38.81477,148],[-90.39293,38.81474,148],[-90.39294,38.8147,148],[-90.39294,38.81466,148],[-90.39293,38.81463,149],[-90.39291,38.81459,149],[-90.39289,38.81456,150],[-90.39286,38.81455,150],[-90.39282,38.81453,151],[-90.39279,38.81452,152],[-90.39276,38.81449,153],[-90.39274,38.81446,153],[-90.39272,38.81444,153],[-90.3927,38.8144,152],[-90.39265,38.81438,153],[-90.39262,38.81436,152],[-90.39258,38.81435,153],[-90.39254,38.81433,153],[-90.3925,38.81431,153],[-90.39247,38.81429,152],[-90.39244,38.81428,152],[-90.3924,38.81426,152],[-90.39237,38.81424,151],[-90.39234,38.81422,151],[-90.39231,38.81419,151],[-90.39229,38.81417,150],[-90.39227,38.81414,149],[-90.39225,38.81412,148],[-90.39222,38.81409,146],[-90.39222,38.81406,144],[-90.39225,38.81403,142],[-90.39228,38.814,140],[-90.39231,38.81398,139],[-90.39234,38.81394,137],[-90.39236,38.81392,137],[-90.39237,38.81389,135],[-90.3924,38.81386,136],[-90.39244,38.81384,137],[-90.39246,38.8138,137],[-90.39246,38.81376,138],[-90.39248,38.81373,138],[-90.39249,38.8137,138],[-90.39251,38.81367,138],[-90.39253,38.81364,138],[-90.39255,38.81361,138],[-90.39258,38.81358,138],[-90.39261,38.81355,138],[-90.39264,38.81353,137],[-90.39266,38.8135,137],[-90.39268,38.81347,137],[-90.39269,38.81344,136],[-90.39271,38.81341,136],[-90.39273,38.81339,135],[-90.39276,38.81336,135],[-90.3928,38.81334,134],[-90.39285,38.81333,134],[-90.39288,38.81329,134],[-90.3929,38.81327,134],[-90.39292,38.81325,133],[-90.39296,38.81323,133],[-90.39297,38.8132,133],[-90.39299,38.81318,133],[-90.39301,38.81315,133],[-90.39303,38.81311,133],[-90.39305,38.81309,133],[-90.39309,38.81307,132],[-90.39312,38.81305,133],[-90.39314,38.81303,133],[-90.39316,38.81301,133],[-90.3932,38.81298,133],[-90.39324,38.81295,133],[-90.39326,38.81293,133],[-90.3933,38.81291,134],[-90.39333,38.81289,134],[-90.39336,38.81287,134],[-90.39333,38.81284,134],[-90.3933,38.81282,134],[-90.39327,38.8128,134],[-90.39324,38.81278,134],[-90.3932,38.81276,134],[-90.39318,38.81274,134],[-90.39315,38.81272,134],[-90.39312,38.8127,134],[-90.39308,38.81269,134],[-90.39303,38.81267,134],[-90.39299,38.81264,134],[-90.39296,38.81262,134],[-90.39292,38.8126,134],[-90.39288,38.81258,134],[-90.39285,38.81256,134],[-90.39282,38.81254,134],[-90.39279,38.81252,134],[-90.39275,38.8125,134],[-90.39272,38.81248,134],[-90.39268,38.81245,134],[-90.39265,38.81243,134],[-90.39262,38.8124,134],[-90.39259,38.81238,134],[-90.39256,38.81237,135],[-90.39252,38.81234,135],[-90.39249,38.81232,135],[-90.39246,38.8123,135],[-90.39243,38.81227,135],[-90.3924,38.81226,135],[-90.39236,38.81224,135],[-90.39233,38.81222,135],[-90.39229,38.81219,135],[-90.39226,38.81218,135],[-90.39221,38.81216,136],[-90.39217,38.81215,136],[-90.39214,38.81213,136],[-90.3921,38.81212,136],[-90.39206,38.81211,137],[-90.39203,38.81211,137],[-90.39199,38.81212,137],[-90.39195,38.81213,137],[-90.39191,38.81215,137],[-90.39189,38.81217,137],[-90.39186,38.81221,137],[-90.39184,38.81224,137],[-90.39181,38.81227,137],[-90.39179,38.8123,136],[-90.39177,38.81232,136],[-90.39174,38.81235,136],[-90.39172,38.81239,136],[-90.3917,38.81241,135],[-90.39168,38.81244,135],[-90.39165,38.81247,135],[-90.39162,38.8125,135],[-90.39159,38.81252,135],[-90.39158,38.81255,136],[-90.39156,38.81259,137],[-90.39155,38.81262,137],[-90.39154,38.81266,138],[-90.39154,38.81269,139],[-90.39155,38.81272,139],[-90.39157,38.81275,139],[-90.3916,38.81278,139],[-90.39163,38.8128,139],[-90.39166,38.81282,139],[-90.39169,38.81283,139],[-90.39172,38.81285,139],[-90.39176,38.81288,139],[-90.39179,38.8129,138],[-90.39183,38.81292,138],[-90.39186,38.81293,138],[-90.39189,38.81295,138],[-90.39192,38.81297,138],[-90.39195,38.813,138],[-90.39198,38.81303,138],[-90.39202,38.81305,138],[-90.39206,38.81306,138],[-90.3921,38.81308,138],[-90.39214,38.8131,137],[-90.39217,38.81311,137],[-90.3922,38.81314,137],[-90.39224,38.81317,137],[-90.39227,38.81319,137],[-90.39231,38.81321,137],[-90.39234,38.81323,137],[-90.39239,38.81325,137],[-90.39243,38.81326,137],[-90.39246,38.81328,137],[-90.39248,38.8133,137],[-90.39251,38.81332,136],[-90.39254,38.81334,136],[-90.39257,38.81337,136],[-90.3926,38.81339,136],[-90.39264,38.81341,136],[-90.39267,38.81342,136],[-90.39267,38.81346,136],[-90.39264,38.81349,137],[-90.39263,38.81351,137],[-90.39261,38.81355,138],[-90.39258,38.81357,138],[-90.39256,38.8136,138],[-90.39255,38.81363,138],[-90.39253,38.81366,138],[-90.39251,38.81368,138],[-90.39249,38.81371,138],[-90.39248,38.81374,138],[-90.39247,38.81378,138],[-90.39246,38.81382,137],[-90.39244,38.81385,137],[-90.39242,38.81388,136],[-90.3924,38.81391,137],[-90.39238,38.81394,138],[-90.39234,38.81397,139],[-90.3923,38.81399,140],[-90.39226,38.814,140],[-90.39222,38.81401,140],[-90.39219,38.81401,141],[-90.39215,38.81399,140],[-90.39213,38.81396,139],[-90.39209,38.81394,138],[-90.39205,38.81392,137],[-90.39202,38.81389,136],[-90.392,38.81387,137],[-90.39196,38.81385,138],[-90.39194,38.81382,138],[-90.39191,38.81379,140],[-90.39189,38.81377,140],[-90.39186,38.81376,141],[-90.39182,38.81375,142],[-90.39178,38.81373,142],[-90.39174,38.8137,143],[-90.39173,38.81367,143],[-90.39171,38.81365,143],[-90.3917,38.81362,142],[-90.39167,38.81359,143],[-90.39165,38.81356,144],[-90.39164,38.81353,144],[-90.39164,38.81349,145],[-90.39163,38.81346,145],[-90.39163,38.81343,146],[-90.39162,38.8134,146],[-90.39161,38.81337,147],[-90.39159,38.81334,148],[-90.39155,38.81332,148],[-90.39151,38.81331,149],[-90.39147,38.8133,149],[-90.39142,38.81329,150],[-90.39139,38.81328,150],[-90.39136,38.81325,151],[-90.39134,38.81322,151],[-90.39131,38.8132,151],[-90.39128,38.81317,151],[-90.39126,38.81315,152],[-90.39124,38.81312,152],[-90.39123,38.81309,152],[-90.39122,38.81306,152],[-90.39121,38.81302,151],[-90.39119,38.81299,151],[-90.39117,38.81295,150],[-90.39115,38.81293,150],[-90.39113,38.8129,149],[-90.39111,38.81287,149],[-90.3911,38.81284,148],[-90.39109,38.81281,148],[-90.39107,38.81278,147],[-90.39105,38.81274,147],[-90.39104,38.81271,146],[-90.39105,38.81268,145],[-90.39104,38.81264,144],[-90.39102,38.81262,144],[-90.39102,38.81258,143],[-90.39102,38.81255,143],[-90.39101,38.81251,142],[-90.39101,38.81248,142],[-90.39101,38.81244,143],[-90.391,38.81241,144],[-90.39099,38.81238,145],[-90.39097,38.81235,146],[-90.39095,38.81232,147],[-90.39093,38.81229,148],[-90.39091,38.81226,148],[-90.3909,38.81222,149],[-90.3909,38.81219,149],[-90.3909,38.81216,149],[-90.3909,38.81213,149],[-90.3909,38.81209,149],[-90.39091,38.81206,149],[-90.39093,38.81204,149],[-90.39094,38.812,150],[-90.39096,38.81197,150],[-90.39097,38.81194,150],[-90.39098,38.81191,150],[-90.39097,38.81188,149],[-90.39097,38.81185,148],[-90.39097,38.81182,148],[-90.39096,38.81179,147],[-90.39096,38.81176,147],[-90.39097,38.81172,146],[-90.39098,38.81169,146],[-90.39099,38.81167,145],[-90.39102,38.81163,145],[-90.39105,38.81161,144],[-90.39108,38.81159,144],[-90.39111,38.81156,143],[-90.39113,38.81154,142],[-90.39113,38.8115,142],[-90.39112,38.81147,142],[-90.3911,38.81144,141],[-90.39108,38.81141,141],[-90.39106,38.81137,141],[-90.39103,38.81135,141],[-90.391,38.81132,141],[-90.39097,38.8113,141],[-90.39094,38.81128,141],[-90.39091,38.81126,141],[-90.39089,38.81124,141],[-90.39086,38.81121,141],[-90.39083,38.81118,141],[-90.39083,38.81114,141],[-90.39083,38.81112,141],[-90.39082,38.81108,140],[-90.39082,38.81105,140],[-90.39082,38.81102,140],[-90.39083,38.81098,139],[-90.39083,38.81095,139],[-90.3908,38.81091,139],[-90.39077,38.81089,139],[-90.39075,38.81087,138],[-90.39072,38.81085,138],[-90.39068,38.81084,139],[-90.39065,38.81082,139],[-90.39061,38.8108,139],[-90.39057,38.81079,139]]],
        "bbox": [
          -90.39035,
          38.81769,
          -90.39336,
          38.81079
        ]
      },
      "properties": {
        "name": "12.2.2022"
      }
    }
  ]
}