{
  "type": "FeatureCollection",
  "features": [
    {
      "type": "Feature",
      "geometry": {
        "type": "MultiLineString",
        "coordinates": [[[-90.39265,38.81344,136],[-90.39273,38.81335,135],[-90.39288,38.81322,133],[-90.39296,38.81314,133],[-90.39285,38.8132,134],[-90.39272,38.81336,135],[-90.39257,38.81351,137],[-90.39252,38.8136,138],[-90.39244,38.81377,137],[-90.39238,38.81385,136],[-90.39233,38.81394,137],[-90.39227,38.81402,141],[-90.39225,38.81421,151],[-90.39236,38.81425,152],[-90.39259,38.81427,151],[-90.39264,38.81436,152],[-90.3927,38.81444,153],[-90.39278,38.81452,152],[-90.39284,38.8146,151],[-90.39291,38.81477,149],[-90.39293,38.81486,148],[-90.39299,38.81494,148],[-90.39304,38.81503,147],[-90.39312,38.8151,145],[-90.39311,38.8152,145],[-90.39306,38.81528,145],[-90.393,38.81537,144],[-90.39289,38.81541,146],[-90.39277,38.81545,148],[-90.39268,38.81555,149],[-90.39263,38.81563,149],[-90.39259,38.81573,148],[-90.39258,38.81583,146],[-90.39257,38.81601,146],[-90.39251,38.81609,148],[-90.39242,38.81615,150],[-90.39234,38.81622,151],[-90.39224,38.81637,149],[-90.39217,38.81645,149],[-90.39201,38.81657,151],[-90.39209,38.8165,150],[-90.39227,38.81638,148],[-90.3923,38.81623,151],[-90.3925,38.81615,148],[-90.39259,38.81608,145],[-90.39261,38.81599,145],[-90.39259,38.81589,145],[-90.39263,38.8158,145],[-90.39271,38.81563,146],[-90.3928,38.81557,144],[-90.3929,38.81552,142],[-90.39302,38.81549,140],[-90.3931,38.81541,140],[-90.39313,38.81531,143],[-90.3931,38.81522,145],[-90.39305,38.81514,147],[-90.39299,38.81506,148],[-90.39303,38.81496,147],[-90.39299,38.81486,147],[-90.39297,38.81476,148],[-90.39293,38.81467,148],[-90.39282,38.81461,151],[-90.39276,38.81452,152],[-90.39278,38.81443,152],[-90.39269,38.81436,152],[-90.39258,38.81432,152],[-90.3924,38.81427,152],[-90.39235,38.81417,150],[-90.39226,38.81411,147],[-90.39215,38.81405,144],[-90.39203,38.81405,145],[-90.39193,38.814,144],[-90.3918,38.81401,148],[-90.39173,38.81409,154],[-90.3918,38.81417,155],[-90.39198,38.81428,154],[-90.39203,38.81437,156],[-90.39209,38.81445,156],[-90.39204,38.81462,160],[-90.39204,38.81472,161],[-90.39204,38.81489,162],[-90.39204,38.81499,163],[-90.39201,38.81507,166],[-90.392,38.81517,170],[-90.39194,38.81526,175],[-90.39196,38.81544,176],[-90.39197,38.81558,176],[-90.39192,38.81567,176],[-90.39172,38.81566,180],[-90.39154,38.81559,183],[-90.39145,38.81553,184],[-90.39135,38.81547,185],[-90.39126,38.81541,185],[-90.39114,38.8154,186],[-90.39104,38.81545,186],[-90.39092,38.81548,185],[-90.39081,38.81549,185],[-90.39068,38.81549,183],[-90.39055,38.81547,182],[-90.39043,38.81542,181],[-90.39032,38.81538,180],[-90.3902,38.81535,180],[-90.39007,38.81533,181],[-90.38997,38.81529,181],[-90.38988,38.81523,183],[-90.38977,38.81518,184],[-90.38967,38.81512,186],[-90.38951,38.81498,188],[-90.38945,38.81489,189],[-90.38946,38.8148,190],[-90.38945,38.81463,190],[-90.38943,38.81453,190],[-90.38944,38.81443,189],[-90.38943,38.81434,189],[-90.38959,38.8143,187],[-90.38969,38.81435,186],[-90.38987,38.81447,188],[-90.38995,38.81454,189],[-90.39005,38.8146,189],[-90.39022,38.8145,185],[-90.39034,38.81447,183],[-90.39044,38.81442,182],[-90.39053,38.81436,179],[-90.39064,38.81431,177],[-90.39075,38.81427,176],[-90.39085,38.81422,174],[-90.39097,38.81422,172],[-90.39114,38.81411,167],[-90.39142,38.81404,159],[-90.39145,38.81395,155],[-90.39149,38.81386,152],[-90.3916,38.8139,150],[-90.39177,38.81385,144],[-90.39181,38.81375,142],[-90.39173,38.81368,143],[-90.39167,38.8136,143],[-90.39159,38.81352,146],[-90.39155,38.81334,148],[-90.39147,38.81327,149],[-90.39137,38.8132,150],[-90.39119,38.81309,152],[-90.39112,38.81301,152],[-90.39108,38.81292,150],[-90.39101,38.81274,147],[-90.39097,38.81265,146],[-90.39095,38.81255,143],[-90.39095,38.81245,143],[-90.39078,38.81233,147],[-90.39075,38.81223,148],[-90.39078,38.81215,149],[-90.3908,38.81206,149],[-90.39083,38.81196,149],[-90.39085,38.81187,148],[-90.39085,38.81177,147],[-90.39088,38.81168,146],[-90.39092,38.81159,145],[-90.39098,38.81151,143],[-90.391,38.81141,142],[-90.39088,38.81126,141],[-90.39079,38.81119,141],[-90.3908,38.81109,140],[-90.39083,38.811,139],[-90.3908,38.81085,138],[-90.39076,38.81076,138]]],
        "bbox": [
          -90.38943,
          38.81657,
          -90.39313,
          38.81076
        ]
      },
      "properties": {
        "name": "4.20.2017"
      }
    }
  ]
}