{
  "type": "FeatureCollection",
  "features": [
    {
      "type": "Feature",
      "geometry": {
        "type": "MultiLineString",
        "coordinates": [[[-90.39495,38.81151,132],[-90.39492,38.81156,132],[-90.39495,38.81159,132],[-90.39499,38.81161,132],[-90.39503,38.81162,132],[-90.39508,38.81163,132],[-90.39512,38.81164,132],[-90.39508,38.81166,132],[-90.39504,38.81166,132],[-90.395,38.81167,133],[-90.39499,38.8117,133],[-90.39495,38.81172,133],[-90.39492,38.81174,133],[-90.39488,38.81175,134],[-90.39484,38.81177,134],[-90.39481,38.81179,134],[-90.39478,38.81181,135],[-90.39475,38.81184,135],[-90.39473,38.81187,136],[-90.39471,38.81189,136],[-90.39468,38.81192,136],[-90.39467,38.81195,137],[-90.39465,38.81198,137],[-90.39463,38.812,137],[-90.39458,38.81203,137],[-90.39453,38.81206,137],[-90.39449,38.81209,137],[-90.39447,38.81211,137],[-90.39444,38.81214,138],[-90.3944,38.81217,138],[-90.39437,38.81219,138],[-90.39434,38.81221,138],[-90.3943,38.81223,137],[-90.39428,38.81226,137],[-90.39426,38.81228,137],[-90.39423,38.8123,137],[-90.39419,38.81232,137],[-90.39416,38.81234,137],[-90.39413,38.81237,137],[-90.39411,38.81238,137],[-90.39407,38.8124,137],[-90.39405,38.81242,137],[-90.39402,38.81244,137],[-90.39398,38.81246,137],[-90.39395,38.81248,137],[-90.39391,38.8125,137],[-90.39388,38.81252,136],[-90.39384,38.81254,136],[-90.39381,38.81257,136],[-90.39377,38.81258,135],[-90.39374,38.81261,135],[-90.39371,38.81263,135],[-90.39368,38.81266,134],[-90.39366,38.81269,134],[-90.39362,38.8127,134],[-90.39359,38.81271,134],[-90.39354,38.81271,134],[-90.3935,38.81272,134],[-90.39348,38.81274,134],[-90.39345,38.81276,134],[-90.39341,38.81279,134],[-90.39337,38.8128,134],[-90.39332,38.8128,134],[-90.39329,38.8128,134],[-90.39324,38.8128,134],[-90.3932,38.81279,134],[-90.39316,38.81278,134],[-90.39313,38.81276,134],[-90.3931,38.81273,134],[-90.39306,38.8127,134],[-90.39303,38.81268,134],[-90.393,38.81266,134],[-90.39296,38.81264,134],[-90.39293,38.81263,134],[-90.3929,38.81261,134],[-90.39286,38.81259,134],[-90.39282,38.81258,134],[-90.39279,38.81256,134],[-90.39276,38.81253,134],[-90.39272,38.81251,134],[-90.39268,38.81249,134],[-90.39265,38.81247,134],[-90.39261,38.81245,135],[-90.39258,38.81243,135],[-90.39256,38.81241,135],[-90.39253,38.81238,135],[-90.3925,38.81237,135],[-90.39246,38.81235,135],[-90.39242,38.81232,135],[-90.39239,38.8123,135],[-90.39237,38.81228,135],[-90.39234,38.81226,135],[-90.39231,38.81223,135],[-90.39227,38.8122,135],[-90.39225,38.81218,135],[-90.3922,38.81216,136],[-90.39216,38.81215,136],[-90.3921,38.81214,136],[-90.39207,38.81213,136],[-90.39203,38.81212,137],[-90.39199,38.81212,137],[-90.39195,38.81213,137],[-90.39191,38.81214,137],[-90.39188,38.81215,137],[-90.39185,38.81217,137],[-90.39182,38.81219,137],[-90.3918,38.81221,137],[-90.39179,38.81224,137],[-90.39178,38.81227,137],[-90.39176,38.81229,137],[-90.39173,38.81232,136],[-90.39171,38.81234,136],[-90.39168,38.81237,136],[-90.39166,38.81239,136],[-90.39164,38.81241,136],[-90.39161,38.81244,136],[-90.39159,38.81246,135],[-90.39156,38.81248,135],[-90.39155,38.81252,135],[-90.39153,38.81254,136],[-90.3915,38.81256,136],[-90.39151,38.8126,137],[-90.39153,38.81262,137],[-90.39157,38.81265,138],[-90.39161,38.81267,138],[-90.39165,38.81269,137],[-90.39168,38.81271,137],[-90.39171,38.81274,137],[-90.39175,38.81276,137],[-90.39179,38.81277,137],[-90.39184,38.81279,136],[-90.39187,38.81279,136],[-90.39192,38.8128,135],[-90.39196,38.81282,135],[-90.39201,38.81284,135],[-90.39204,38.81285,136],[-90.39208,38.81287,136],[-90.39211,38.81288,136],[-90.39215,38.81291,136],[-90.39218,38.81292,136],[-90.39223,38.81295,136],[-90.39228,38.81297,136],[-90.39231,38.81298,136],[-90.39234,38.813,136],[-90.39238,38.81302,136],[-90.39242,38.81304,136],[-90.39245,38.81306,136],[-90.39246,38.81308,136],[-90.39242,38.8131,136],[-90.39238,38.8131,136],[-90.39234,38.81309,136],[-90.3923,38.8131,136],[-90.39226,38.8131,137],[-90.39222,38.81309,137],[-90.39219,38.81306,137],[-90.39215,38.81304,137],[-90.39213,38.81302,137],[-90.3921,38.81299,137],[-90.39207,38.81297,137],[-90.39204,38.81295,137],[-90.39199,38.81293,137],[-90.39194,38.81292,137],[-90.3919,38.8129,137],[-90.39187,38.81288,137],[-90.39182,38.81285,137],[-90.39174,38.81282,138],[-90.39171,38.8128,138],[-90.39168,38.81277,138],[-90.39165,38.81275,138],[-90.39161,38.81273,139],[-90.39158,38.81272,139],[-90.39154,38.81272,139],[-90.39149,38.81272,140],[-90.39145,38.81272,140],[-90.39139,38.81266,140],[-90.39143,38.81265,139],[-90.39149,38.81267,139],[-90.39153,38.81268,138],[-90.39157,38.81269,138],[-90.39162,38.8127,138],[-90.39166,38.81271,138],[-90.3917,38.81273,137],[-90.39174,38.81274,137],[-90.39178,38.81275,137],[-90.39182,38.81277,136],[-90.39186,38.81279,136],[-90.3919,38.81281,136],[-90.39194,38.81283,135],[-90.39198,38.81285,136],[-90.39202,38.81286,136],[-90.39207,38.81287,136],[-90.39211,38.81289,136],[-90.39214,38.81291,136],[-90.39217,38.81294,136],[-90.3922,38.81297,136],[-90.39225,38.81299,136],[-90.39228,38.81301,136],[-90.39232,38.81302,136],[-90.39237,38.81304,136],[-90.39241,38.81306,136],[-90.39245,38.81307,136],[-90.39249,38.81308,136],[-90.39255,38.8131,135],[-90.39259,38.81311,135],[-90.39263,38.81312,135],[-90.39267,38.81313,135],[-90.39271,38.81313,134],[-90.39275,38.81315,134],[-90.39274,38.81318,134],[-90.3927,38.8132,135],[-90.39267,38.81323,135],[-90.39264,38.81325,135],[-90.39262,38.81327,135],[-90.39259,38.81331,136],[-90.39257,38.81333,136],[-90.39255,38.81336,136],[-90.39252,38.81339,137],[-90.3925,38.81342,137],[-90.39248,38.81346,138],[-90.39246,38.81349,138],[-90.39245,38.81353,138],[-90.39244,38.81356,138],[-90.39243,38.8136,138],[-90.39242,38.81363,138],[-90.3924,38.81366,138],[-90.39239,38.8137,138],[-90.39237,38.81373,137],[-90.39235,38.81375,137],[-90.39234,38.81379,136],[-90.39235,38.81383,136],[-90.39234,38.81386,135],[-90.39233,38.81389,134],[-90.39232,38.81392,136],[-90.39231,38.81395,138],[-90.39228,38.81397,138],[-90.39224,38.814,140],[-90.39221,38.81402,141],[-90.39216,38.81403,142],[-90.39212,38.81403,143],[-90.39208,38.81404,144],[-90.39204,38.81406,145],[-90.392,38.81408,147],[-90.39196,38.81409,148],[-90.39192,38.81409,148],[-90.39191,38.81413,151],[-90.3919,38.81416,152],[-90.39188,38.81418,154],[-90.39186,38.81421,155],[-90.39184,38.81423,156],[-90.39184,38.81426,157],[-90.39182,38.81428,158],[-90.3918,38.81431,159],[-90.3918,38.81434,160],[-90.39179,38.81437,161],[-90.39178,38.8144,162],[-90.39177,38.81443,163],[-90.39178,38.81446,164],[-90.39179,38.81449,164],[-90.39182,38.81451,163],[-90.39185,38.81454,163],[-90.39186,38.81456,163],[-90.39186,38.81459,163],[-90.39186,38.81464,164],[-90.39186,38.81467,164],[-90.39187,38.81469,164],[-90.39188,38.81472,164],[-90.39189,38.81475,164],[-90.39189,38.81479,165],[-90.39189,38.81482,165],[-90.39188,38.81485,166],[-90.39188,38.81488,166],[-90.39189,38.81491,166],[-90.39191,38.81494,166],[-90.39193,38.81497,166],[-90.39194,38.81499,166],[-90.39195,38.81503,166],[-90.39195,38.81507,168],[-90.39194,38.8151,169],[-90.39193,38.81513,171],[-90.39193,38.81518,172],[-90.39192,38.81521,173],[-90.39192,38.81525,175],[-90.39192,38.81528,176],[-90.39192,38.81531,176],[-90.39193,38.81534,176],[-90.39193,38.81538,176],[-90.39193,38.81541,177],[-90.39193,38.81544,177],[-90.39193,38.81547,177],[-90.39194,38.8155,177],[-90.39194,38.81553,177],[-90.39192,38.81556,178],[-90.39191,38.81559,177],[-90.39192,38.81562,177],[-90.39194,38.81564,176],[-90.39198,38.81564,174],[-90.39194,38.81572,174],[-90.39189,38.81573,175],[-90.39185,38.81572,176],[-90.39181,38.81572,177],[-90.39176,38.81571,179],[-90.39172,38.81569,180],[-90.39168,38.81567,181],[-90.39166,38.81565,181],[-90.39163,38.81562,182],[-90.3916,38.8156,182],[-90.39156,38.81557,183],[-90.39153,38.81555,183],[-90.39149,38.81552,184],[-90.39144,38.8155,184],[-90.3914,38.81549,185],[-90.39137,38.81547,185],[-90.39133,38.81546,185],[-90.3913,38.81544,185],[-90.39127,38.81542,185],[-90.39123,38.81541,186],[-90.39119,38.8154,186],[-90.39116,38.81539,186],[-90.3911,38.81539,186],[-90.39106,38.8154,186],[-90.39102,38.8154,186],[-90.39097,38.81541,186],[-90.39092,38.81543,186],[-90.39088,38.81544,185],[-90.39084,38.81545,185],[-90.3908,38.81545,185],[-90.39076,38.81546,184],[-90.39072,38.81546,184],[-90.39068,38.81546,184],[-90.39064,38.81546,183],[-90.39059,38.81546,183],[-90.39055,38.81545,182],[-90.39052,38.81545,182],[-90.39049,38.81544,182],[-90.39045,38.81542,181],[-90.39041,38.81541,181],[-90.39038,38.81539,181],[-90.39034,38.81538,181],[-90.3903,38.81537,180],[-90.39026,38.81535,180],[-90.39023,38.81533,181],[-90.39019,38.81532,181],[-90.39016,38.81531,181],[-90.39012,38.8153,181],[-90.39009,38.81529,181],[-90.39005,38.81528,181],[-90.39002,38.81526,182],[-90.38998,38.81525,182],[-90.38995,38.81523,183],[-90.38992,38.81522,183],[-90.38979,38.81516,185],[-90.38978,38.81513,186],[-90.38977,38.8151,186],[-90.38976,38.81506,187],[-90.38974,38.81503,188],[-90.38972,38.815,188],[-90.38969,38.81498,189],[-90.38967,38.81495,189],[-90.38966,38.81492,189],[-90.38962,38.8149,189],[-90.38961,38.81487,190],[-90.3896,38.81484,190],[-90.38959,38.81482,190],[-90.3896,38.81478,190],[-90.38963,38.81476,191],[-90.38962,38.81473,191],[-90.38959,38.8147,191],[-90.38958,38.81467,191],[-90.38958,38.81464,190],[-90.38958,38.8146,190],[-90.38959,38.81457,190],[-90.38957,38.81455,190],[-90.38956,38.81451,190],[-90.38955,38.81448,189],[-90.38953,38.81445,189],[-90.38951,38.81442,189],[-90.38948,38.81438,189],[-90.38946,38.81436,189],[-90.38944,38.81433,189],[-90.38942,38.8143,189],[-90.38939,38.81428,189],[-90.38936,38.81426,189],[-90.38933,38.81425,190],[-90.38929,38.81423,190],[-90.38925,38.81422,191],[-90.38921,38.8142,192],[-90.38918,38.81418,192],[-90.38915,38.81417,192],[-90.38911,38.81416,192],[-90.38907,38.81415,192],[-90.38903,38.81415,192],[-90.38899,38.81414,192],[-90.38895,38.81413,192],[-90.38891,38.81412,192],[-90.38889,38.8141,192],[-90.38885,38.81408,192],[-90.38881,38.81406,193],[-90.38878,38.81404,193],[-90.38874,38.81403,194],[-90.3887,38.81402,194],[-90.38866,38.81402,195],[-90.38862,38.81401,195],[-90.38858,38.814,196],[-90.38854,38.81399,196],[-90.3885,38.81397,196],[-90.38846,38.81396,197],[-90.38843,38.81394,197],[-90.38839,38.81392,197],[-90.38836,38.81391,197],[-90.38832,38.81389,198],[-90.38829,38.81388,198],[-90.38824,38.81387,198],[-90.38821,38.81387,198],[-90.38817,38.81387,198],[-90.38812,38.81388,198],[-90.38808,38.81388,198],[-90.38805,38.81388,199],[-90.388,38.81388,199],[-90.38795,38.81389,199],[-90.38791,38.81389,199],[-90.38787,38.81389,199],[-90.38783,38.8139,199],[-90.38779,38.8139,199],[-90.38775,38.8139,200],[-90.38772,38.81391,200],[-90.38768,38.8139,200],[-90.38764,38.81392,200],[-90.3876,38.81393,200],[-90.38763,38.81394,200],[-90.38768,38.81394,200],[-90.38772,38.81394,200],[-90.38776,38.81394,200],[-90.3878,38.81394,199],[-90.38785,38.81395,199],[-90.3879,38.81395,199],[-90.38794,38.81395,199],[-90.38798,38.81395,199],[-90.38802,38.81395,199],[-90.38807,38.81395,199],[-90.38811,38.81395,199],[-90.38816,38.81395,198],[-90.3882,38.81395,198],[-90.38824,38.81395,198],[-90.38828,38.81396,198],[-90.38832,38.81397,198],[-90.38837,38.81397,197],[-90.38841,38.81396,197],[-90.38845,38.81396,197],[-90.38849,38.81397,196],[-90.38853,38.81399,196],[-90.38857,38.814,196],[-90.38861,38.814,195],[-90.38865,38.81401,195],[-90.3887,38.81402,194],[-90.38874,38.81403,194],[-90.38878,38.81405,193],[-90.38883,38.81407,193],[-90.38888,38.81409,192],[-90.38892,38.8141,192],[-90.38896,38.81412,192],[-90.38899,38.81413,192],[-90.38903,38.81414,192],[-90.38907,38.81415,192],[-90.38912,38.81416,192],[-90.38916,38.81418,192],[-90.38921,38.8142,192],[-90.38924,38.81422,191],[-90.38929,38.81424,190],[-90.38933,38.81427,190],[-90.38935,38.81429,190],[-90.38938,38.81432,189],[-90.38941,38.81434,189],[-90.38945,38.81436,189],[-90.38949,38.81437,189],[-90.38953,38.81438,188],[-90.38957,38.81438,188],[-90.38963,38.81438,188],[-90.38966,38.8144,188],[-90.38965,38.81443,188],[-90.38963,38.81447,189],[-90.38961,38.8145,189],[-90.38958,38.81453,190],[-90.38955,38.81454,190],[-90.38953,38.81457,190],[-90.3895,38.81459,190],[-90.38949,38.81462,190],[-90.38949,38.81465,190],[-90.38948,38.81469,190],[-90.38947,38.81472,191],[-90.38947,38.81475,190],[-90.38946,38.81478,190],[-90.38946,38.81481,190],[-90.38946,38.81485,189],[-90.38947,38.81487,189],[-90.38948,38.8149,189],[-90.3895,38.81493,188],[-90.38953,38.81496,188],[-90.38957,38.81498,188],[-90.38961,38.815,188],[-90.38964,38.81502,188],[-90.38968,38.81504,188],[-90.38971,38.81506,187],[-90.38975,38.81506,187],[-90.38979,38.81508,187],[-90.38983,38.81509,186],[-90.38987,38.8151,186],[-90.38991,38.81512,186],[-90.38994,38.81513,185],[-90.38999,38.81515,185],[-90.39004,38.81516,184],[-90.39008,38.81518,184],[-90.39012,38.8152,183],[-90.39017,38.81522,183],[-90.3902,38.81524,182],[-90.39024,38.81526,182],[-90.39028,38.81528,181],[-90.39031,38.81529,182],[-90.39035,38.81531,182],[-90.3904,38.81532,182],[-90.39044,38.81534,182],[-90.39048,38.81535,182],[-90.39052,38.81536,183],[-90.39057,38.81537,183],[-90.39061,38.81538,183],[-90.39065,38.81539,184],[-90.39068,38.8154,184],[-90.39073,38.81541,184],[-90.39077,38.81542,185],[-90.39082,38.81543,185],[-90.39087,38.81544,185],[-90.39092,38.81544,186],[-90.39097,38.81544,186],[-90.39101,38.81544,186],[-90.39105,38.81543,186],[-90.3911,38.81541,186],[-90.39116,38.8154,186],[-90.3912,38.81539,186],[-90.39124,38.81539,186],[-90.39129,38.81539,185],[-90.39133,38.8154,185],[-90.39137,38.8154,185],[-90.3914,38.81541,185],[-90.39143,38.81543,184],[-90.39146,38.81544,184],[-90.39149,38.81546,184],[-90.39153,38.81549,183],[-90.39156,38.81551,183],[-90.39158,38.81553,183],[-90.39161,38.81555,183],[-90.39164,38.81558,182],[-90.39167,38.8156,182],[-90.39171,38.81561,181],[-90.39172,38.81564,180],[-90.39173,38.81568,180],[-90.39174,38.81571,179],[-90.39175,38.81574,179],[-90.39175,38.81578,178],[-90.39174,38.81582,178],[-90.39173,38.81586,177],[-90.39173,38.81589,176],[-90.39172,38.81592,176],[-90.39172,38.81595,175],[-90.39172,38.81598,175],[-90.39172,38.81601,174],[-90.39171,38.81605,174],[-90.3917,38.81608,173],[-90.3917,38.81611,173],[-90.39169,38.81614,172],[-90.39167,38.81618,171],[-90.39167,38.81621,170],[-90.39166,38.81624,169],[-90.39165,38.81627,168],[-90.39164,38.8163,167],[-90.39164,38.81633,166],[-90.39162,38.81636,166],[-90.39159,38.81639,165],[-90.39157,38.81642,165],[-90.39154,38.81645,165],[-90.39151,38.81647,165],[-90.39148,38.81648,165],[-90.39146,38.81651,165],[-90.39143,38.81652,165],[-90.3914,38.81655,165],[-90.39141,38.81658,164],[-90.3914,38.81661,163],[-90.39137,38.81662,163],[-90.39134,38.81664,163],[-90.39131,38.81666,163],[-90.39129,38.81668,162],[-90.39127,38.81671,162],[-90.39124,38.81673,162],[-90.39123,38.81675,161],[-90.3912,38.81677,161],[-90.39116,38.81678,161],[-90.39113,38.81678,162],[-90.39109,38.81676,163],[-90.39108,38.81674,164],[-90.39105,38.81673,164],[-90.39101,38.81672,165],[-90.39097,38.8167,165],[-90.39092,38.81669,166],[-90.39089,38.81671,165],[-90.39086,38.81673,165],[-90.39082,38.81673,165],[-90.39078,38.81672,166],[-90.39074,38.8167,166],[-90.39071,38.81669,167],[-90.39067,38.81668,167],[-90.39067,38.81671,166],[-90.39065,38.81673,166],[-90.39062,38.81675,166],[-90.3906,38.81678,166],[-90.39058,38.81681,166],[-90.39055,38.81683,166],[-90.39052,38.81683,166],[-90.39048,38.81683,166],[-90.39049,38.81687,166],[-90.39049,38.8169,165],[-90.39046,38.81693,165],[-90.39043,38.81695,165],[-90.39042,38.81698,164],[-90.39044,38.81701,163],[-90.39046,38.81703,162],[-90.39049,38.81705,161],[-90.39049,38.81708,160],[-90.39049,38.81711,160],[-90.3905,38.81714,158],[-90.39053,38.81716,158],[-90.39054,38.81719,157],[-90.39051,38.8172,156],[-90.39054,38.81724,155],[-90.39058,38.81726,154],[-90.39057,38.81729,153],[-90.39057,38.81731,152],[-90.39058,38.81735,151],[-90.39059,38.81737,150],[-90.3906,38.8174,148],[-90.39064,38.81742,147],[-90.39068,38.81743,146],[-90.39072,38.81745,145],[-90.39077,38.81746,144],[-90.39081,38.81748,143],[-90.39085,38.81749,142],[-90.39089,38.8175,141],[-90.39093,38.81749,141],[-90.39096,38.81748,141],[-90.39086,38.8176,139],[-90.39078,38.8176,140],[-90.39071,38.8176,141],[-90.39065,38.81764,141],[-90.39061,38.81767,141],[-90.39061,38.81771,140],[-90.3906,38.81774,140],[-90.39058,38.81776,140],[-90.39056,38.81779,139],[-90.39053,38.8178,140],[-90.39051,38.81783,139],[-90.39048,38.81786,139],[-90.39045,38.81788,140],[-90.39044,38.81791,139],[-90.3904,38.81793,140],[-90.39037,38.81793,140],[-90.39033,38.81792,140],[-90.39029,38.81792,141],[-90.39024,38.81792,141],[-90.3902,38.81792,142],[-90.39017,38.81794,142],[-90.39013,38.81797,142],[-90.3901,38.81798,143],[-90.39005,38.818,143],[-90.39002,38.81801,143],[-90.38997,38.81801,144],[-90.38993,38.81802,144],[-90.38989,38.81803,144],[-90.38986,38.81803,145],[-90.38982,38.81803,146],[-90.38978,38.81801,146],[-90.38974,38.818,147],[-90.38971,38.818,147],[-90.38967,38.81799,148],[-90.38963,38.818,147],[-90.38957,38.818,148],[-90.38953,38.818,148],[-90.38948,38.81801,147],[-90.38943,38.81802,147],[-90.38938,38.81802,148],[-90.38934,38.81802,149],[-90.3893,38.81803,149],[-90.38926,38.81804,149],[-90.38922,38.81804,149],[-90.38917,38.81805,150],[-90.38914,38.81806,150],[-90.3891,38.81808,150],[-90.38905,38.8181,151],[-90.38903,38.81813,150],[-90.389,38.81816,150],[-90.38896,38.81819,149],[-90.38892,38.81821,149],[-90.38887,38.81822,150],[-90.38884,38.81824,150],[-90.38881,38.81827,149],[-90.38878,38.8183,149],[-90.38875,38.81832,148],[-90.38872,38.81834,148],[-90.38869,38.81836,147],[-90.38867,38.81839,146],[-90.38865,38.81842,145],[-90.38863,38.81845,144],[-90.3886,38.81848,143],[-90.38857,38.81851,142],[-90.38854,38.81854,141],[-90.3885,38.81856,140],[-90.38847,38.81858,139],[-90.38844,38.8186,138],[-90.3884,38.81862,138],[-90.38833,38.81864,138],[-90.38823,38.81865,139],[-90.38818,38.81865,139],[-90.38812,38.81867,140],[-90.38808,38.81869,140],[-90.38805,38.81872,140],[-90.38802,38.81874,141],[-90.38798,38.81876,141],[-90.38795,38.81878,141],[-90.38793,38.81881,141],[-90.3879,38.81883,141],[-90.38786,38.81885,141],[-90.38783,38.81887,141],[-90.3878,38.81888,141],[-90.38773,38.81889,141],[-90.38769,38.8189,141],[-90.38764,38.81891,141],[-90.38757,38.81893,140],[-90.38752,38.81896,139],[-90.38749,38.81899,138],[-90.38747,38.81901,138],[-90.38745,38.81904,137],[-90.38743,38.81906,136],[-90.3874,38.81909,135],[-90.38738,38.81911,134],[-90.38735,38.81913,133],[-90.38732,38.81915,133],[-90.38729,38.81918,132],[-90.38725,38.81919,132],[-90.38721,38.81919,132],[-90.38717,38.8192,132],[-90.38714,38.81922,132],[-90.38711,38.81925,132],[-90.38708,38.81927,132],[-90.38706,38.8193,132],[-90.38703,38.81933,132],[-90.38699,38.81935,132],[-90.38696,38.81937,132],[-90.38692,38.81939,132],[-90.38689,38.8194,132],[-90.38686,38.81942,132],[-90.38682,38.81944,132],[-90.38677,38.81945,131],[-90.38672,38.81945,131],[-90.38669,38.81947,131],[-90.38666,38.81948,131],[-90.38663,38.8195,131],[-90.38662,38.81952,131],[-90.38659,38.81955,131],[-90.38656,38.81958,131],[-90.38653,38.81959,131],[-90.38649,38.81961,131],[-90.38645,38.81962,131],[-90.38642,38.81964,131],[-90.38639,38.81965,131],[-90.38634,38.81966,131],[-90.3863,38.81967,131],[-90.38626,38.81967,131],[-90.38621,38.81967,131],[-90.38618,38.81968,131],[-90.38613,38.81969,131],[-90.38609,38.81968,132],[-90.38605,38.81968,132],[-90.38601,38.81968,132],[-90.38597,38.81969,132],[-90.38594,38.8197,131],[-90.3859,38.81971,131],[-90.38586,38.81971,131],[-90.38581,38.81972,131],[-90.38578,38.81972,131],[-90.38573,38.81972,131],[-90.38569,38.81972,131],[-90.38565,38.81972,131],[-90.38561,38.81972,131],[-90.38558,38.81972,131],[-90.38553,38.81972,131],[-90.3855,38.81972,131],[-90.38546,38.81972,131],[-90.38542,38.81972,131],[-90.38538,38.81972,131],[-90.38533,38.81973,131],[-90.3853,38.81974,131],[-90.38526,38.81975,131],[-90.38521,38.81975,131],[-90.38517,38.81974,131],[-90.38512,38.81974,131],[-90.38509,38.81974,131],[-90.38505,38.81974,131],[-90.38501,38.81974,131],[-90.38497,38.81974,131],[-90.38493,38.81973,133],[-90.38489,38.81973,134],[-90.38485,38.81972,136],[-90.3848,38.81973,137],[-90.38476,38.81973,139],[-90.38472,38.81972,140],[-90.38468,38.81973,140],[-90.38468,38.81977,139],[-90.38469,38.8198,138],[-90.38471,38.81982,137],[-90.38473,38.81984,136],[-90.38478,38.81987,134],[-90.38476,38.81984,136],[-90.38475,38.81982,136],[-90.38477,38.8198,136],[-90.38481,38.81979,136],[-90.38485,38.81978,135],[-90.38488,38.81976,134],[-90.38491,38.81975,133],[-90.38495,38.81974,132],[-90.38499,38.81972,131],[-90.38504,38.81971,131],[-90.38506,38.81973,131],[-90.3851,38.81975,131],[-90.38514,38.81975,131],[-90.38517,38.81975,131],[-90.38521,38.81976,131],[-90.38525,38.81977,131],[-90.38529,38.81977,131],[-90.38534,38.81977,131],[-90.38538,38.81976,131],[-90.38542,38.81975,131],[-90.38545,38.81974,131],[-90.38549,38.81974,131],[-90.38553,38.81973,131],[-90.38557,38.81974,131],[-90.3856,38.81974,131],[-90.38565,38.81975,131],[-90.38568,38.81975,131],[-90.38573,38.81974,131],[-90.38577,38.81974,131],[-90.38581,38.81974,131],[-90.38585,38.81973,131],[-90.3859,38.81972,131],[-90.38594,38.81972,131],[-90.38599,38.81971,131],[-90.38603,38.81971,131],[-90.38606,38.8197,131],[-90.38611,38.8197,131],[-90.38615,38.8197,131],[-90.38618,38.81969,131],[-90.38622,38.81969,131],[-90.38627,38.81969,131],[-90.38631,38.81968,131],[-90.38635,38.81967,131],[-90.38639,38.81966,131],[-90.38643,38.81965,131],[-90.38647,38.81963,131],[-90.38651,38.81962,131],[-90.38655,38.8196,131],[-90.38658,38.81959,131],[-90.38661,38.81958,131],[-90.38666,38.81957,131],[-90.3867,38.81956,131],[-90.38672,38.81953,131],[-90.38674,38.8195,131],[-90.38677,38.81948,131],[-90.3868,38.81945,131],[-90.38681,38.81942,132],[-90.38684,38.8194,132],[-90.38687,38.81938,132],[-90.38691,38.81937,132],[-90.38695,38.81936,132],[-90.38699,38.81934,132],[-90.38702,38.81933,132],[-90.38705,38.81932,132],[-90.38708,38.81931,132],[-90.38712,38.81929,132],[-90.38715,38.81927,132],[-90.38718,38.81925,132],[-90.38721,38.81923,132],[-90.38725,38.81921,132],[-90.38728,38.81918,132],[-90.38731,38.81916,132],[-90.38735,38.81915,133],[-90.38739,38.81913,133],[-90.38743,38.81911,134],[-90.38746,38.81909,135],[-90.38748,38.81906,136],[-90.38748,38.81902,137],[-90.3875,38.81899,138],[-90.38752,38.81897,139],[-90.38755,38.81894,140],[-90.38757,38.81892,141],[-90.3876,38.8189,141],[-90.38763,38.81889,141],[-90.38768,38.81888,142],[-90.38772,38.81887,142],[-90.38776,38.81886,142],[-90.38781,38.81885,142],[-90.38784,38.81884,141],[-90.38788,38.81882,141],[-90.3879,38.81878,142],[-90.38793,38.81876,141],[-90.38798,38.81875,141],[-90.38803,38.81874,140],[-90.38807,38.81874,140],[-90.38811,38.81873,140],[-90.38815,38.81872,139],[-90.38819,38.81871,139],[-90.38822,38.81869,139],[-90.38825,38.81867,138],[-90.38829,38.81865,138],[-90.38831,38.81862,138],[-90.38833,38.8186,138],[-90.38836,38.81858,139],[-90.38838,38.81855,140],[-90.38838,38.81852,141],[-90.38839,38.81848,143],[-90.3884,38.81846,144],[-90.38845,38.81843,145],[-90.38849,38.81842,146],[-90.38853,38.81841,146],[-90.38858,38.81839,147],[-90.38861,38.81837,148],[-90.38863,38.81835,148],[-90.38866,38.81833,149],[-90.38871,38.81832,149],[-90.38875,38.81831,149],[-90.3888,38.81828,149],[-90.38883,38.81825,150],[-90.38886,38.81823,150],[-90.38889,38.81821,150],[-90.38891,38.81818,151],[-90.38893,38.81816,151],[-90.38895,38.81814,152],[-90.38895,38.8181,153],[-90.38898,38.81808,153],[-90.38902,38.81807,153],[-90.38905,38.81806,152],[-90.38909,38.81804,152],[-90.38913,38.81802,152],[-90.38916,38.81801,151],[-90.38921,38.81801,150],[-90.38926,38.81802,150],[-90.38929,38.81802,149],[-90.38934,38.81801,149],[-90.38938,38.81801,148],[-90.38942,38.818,148],[-90.38946,38.818,148],[-90.3895,38.818,148],[-90.38954,38.81799,148],[-90.38957,38.81798,148],[-90.3896,38.81796,148],[-90.38964,38.81794,148],[-90.38967,38.81792,149],[-90.38971,38.81791,149],[-90.38975,38.81791,148],[-90.38979,38.81791,148],[-90.38983,38.81791,147],[-90.38987,38.81791,147],[-90.38991,38.81791,146],[-90.38996,38.8179,146],[-90.38998,38.81788,146],[-90.38998,38.81785,147],[-90.38999,38.81781,147],[-90.39002,38.81779,147],[-90.39006,38.81778,146],[-90.3901,38.81777,146],[-90.39014,38.81777,145],[-90.39017,38.81775,145],[-90.39018,38.81771,145],[-90.3902,38.81769,146],[-90.39032,38.81768,144],[-90.39036,38.81766,144],[-90.39041,38.81765,144],[-90.39045,38.81764,144],[-90.39048,38.81762,144],[-90.39052,38.8176,144],[-90.39054,38.81757,144],[-90.39055,38.81755,144],[-90.39057,38.81752,145],[-90.3906,38.8175,145],[-90.39063,38.81748,145],[-90.39066,38.81746,145],[-90.39064,38.81742,147],[-90.39062,38.8174,148],[-90.3906,38.81738,149],[-90.39057,38.81734,151],[-90.39054,38.81731,152],[-90.39054,38.81728,154],[-90.39055,38.81725,155],[-90.39053,38.81723,155],[-90.39051,38.8172,156],[-90.39052,38.81717,157],[-90.39056,38.81716,157],[-90.39058,38.81712,158],[-90.39061,38.8171,159],[-90.39062,38.81707,160],[-90.39058,38.81704,161],[-90.39055,38.81702,162],[-90.39054,38.81698,163],[-90.39054,38.81694,165],[-90.39054,38.81692,165],[-90.39055,38.81689,165],[-90.39059,38.81687,165],[-90.39062,38.81685,165],[-90.39058,38.81685,165],[-90.39059,38.81682,166],[-90.39063,38.81681,165],[-90.39061,38.81685,165],[-90.39057,38.81686,165],[-90.39053,38.81686,166],[-90.3905,38.81686,166],[-90.39047,38.81683,166],[-90.39046,38.8168,167],[-90.39044,38.81675,167],[-90.39042,38.81673,167],[-90.39039,38.81671,168],[-90.39036,38.8167,168],[-90.39035,38.81673,168],[-90.39038,38.81675,167],[-90.3904,38.81678,167],[-90.39042,38.8168,167],[-90.39046,38.81681,166],[-90.39051,38.8168,166],[-90.39056,38.81679,166],[-90.39059,38.81679,166],[-90.39063,38.8168,166],[-90.39068,38.81679,165],[-90.39072,38.81679,165],[-90.39076,38.81679,165],[-90.3908,38.81679,164],[-90.39084,38.81677,165],[-90.39086,38.81674,165],[-90.39089,38.81672,165],[-90.39092,38.81671,165],[-90.39096,38.81672,165],[-90.39099,38.81673,164],[-90.39102,38.81675,164],[-90.39106,38.81676,163],[-90.3911,38.81678,162],[-90.39114,38.81679,161],[-90.39118,38.81679,161],[-90.39122,38.81678,161],[-90.39125,38.81676,161],[-90.39128,38.81674,161],[-90.39132,38.81672,161],[-90.39135,38.8167,161],[-90.39138,38.81667,162],[-90.39141,38.81665,162],[-90.39144,38.81663,161],[-90.39147,38.81661,162],[-90.39143,38.8166,163],[-90.39145,38.81654,164],[-90.39148,38.81653,164],[-90.39152,38.81652,163],[-90.39155,38.81648,164],[-90.39156,38.81646,164],[-90.39156,38.81643,165],[-90.39157,38.81639,166],[-90.39158,38.81636,167],[-90.39159,38.81634,167],[-90.39161,38.81631,167],[-90.39163,38.81629,168],[-90.39165,38.81625,169],[-90.39167,38.81622,170],[-90.39169,38.81618,170],[-90.39171,38.81615,171],[-90.39173,38.81611,172],[-90.39174,38.81608,172],[-90.39175,38.81605,172],[-90.39177,38.81602,172],[-90.39178,38.81598,173],[-90.39177,38.81595,174],[-90.39177,38.81592,175],[-90.39177,38.81588,176],[-90.39176,38.81584,177],[-90.39174,38.81581,178],[-90.39172,38.81578,179],[-90.39172,38.81575,179],[-90.39176,38.81573,178],[-90.3918,38.81572,177],[-90.39184,38.81572,177],[-90.3919,38.81572,175],[-90.39193,38.8157,175],[-90.39194,38.81567,175],[-90.39195,38.81564,175],[-90.39196,38.81561,176],[-90.39198,38.81558,175],[-90.392,38.81555,175],[-90.392,38.81551,175],[-90.392,38.81548,175],[-90.39199,38.81544,175],[-90.39197,38.81542,176],[-90.39196,38.81539,176],[-90.39195,38.81535,176],[-90.39195,38.81532,176],[-90.39197,38.81529,175],[-90.39198,38.81526,174],[-90.392,38.81523,172],[-90.39201,38.8152,171],[-90.39201,38.81517,170],[-90.392,38.81514,169],[-90.39198,38.81511,168],[-90.39195,38.81508,168],[-90.39193,38.81505,168],[-90.39192,38.81502,167],[-90.39191,38.81499,167],[-90.39191,38.81495,166],[-90.39191,38.81492,166],[-90.39191,38.81489,166],[-90.39191,38.81486,165],[-90.39191,38.81483,165],[-90.3919,38.81479,165],[-90.3919,38.81475,164],[-90.3919,38.81472,164],[-90.39191,38.81469,163],[-90.3919,38.81464,163],[-90.3919,38.81462,162],[-90.39187,38.81459,163],[-90.39184,38.81457,163],[-90.39182,38.81454,163],[-90.39182,38.81451,163],[-90.39181,38.81448,163],[-90.39181,38.81445,163],[-90.39181,38.81442,162],[-90.3918,38.81439,161],[-90.39179,38.81436,161],[-90.39178,38.81434,160],[-90.39178,38.81431,160],[-90.39178,38.81427,159],[-90.39179,38.81424,157],[-90.39181,38.81422,156],[-90.39184,38.81421,155],[-90.39188,38.8142,154],[-90.39191,38.81418,153],[-90.39193,38.81416,152],[-90.39196,38.81413,150],[-90.392,38.81413,149],[-90.39204,38.81414,150],[-90.39208,38.81413,149],[-90.39212,38.81413,149],[-90.39216,38.81413,148],[-90.3922,38.81412,148],[-90.39225,38.81411,147],[-90.39229,38.81409,146],[-90.39231,38.81407,145],[-90.39234,38.81404,143],[-90.39236,38.81402,142],[-90.39239,38.81399,141],[-90.39241,38.81396,140],[-90.39243,38.81393,138],[-90.39245,38.8139,137],[-90.39247,38.81388,137],[-90.3925,38.81385,138],[-90.39252,38.81382,138],[-90.39253,38.8138,138],[-90.39255,38.81377,138],[-90.39257,38.81374,138],[-90.39259,38.8137,138],[-90.3926,38.81367,138],[-90.39261,38.81364,138],[-90.39263,38.81361,138],[-90.39264,38.81357,138],[-90.39266,38.81354,137],[-90.39268,38.81351,137],[-90.39271,38.81348,136],[-90.39273,38.81345,136],[-90.39275,38.81342,136],[-90.39277,38.81339,135],[-90.39279,38.81336,135],[-90.39282,38.81334,134],[-90.39285,38.81333,134],[-90.39288,38.8133,134],[-90.39291,38.81328,133],[-90.39295,38.81326,133],[-90.39298,38.81324,133],[-90.39301,38.81323,133],[-90.39304,38.81321,133],[-90.39307,38.81319,132],[-90.3931,38.81316,132],[-90.39312,38.81314,132],[-90.39315,38.81311,132],[-90.39318,38.81309,132],[-90.3932,38.81307,132],[-90.39323,38.81305,133],[-90.39327,38.81302,133],[-90.3933,38.813,133],[-90.39333,38.81299,133],[-90.39336,38.81297,133],[-90.3934,38.81294,133],[-90.39343,38.81293,133],[-90.39346,38.8129,133],[-90.3935,38.81288,133],[-90.39355,38.81286,133],[-90.39359,38.81284,133],[-90.39363,38.81283,133],[-90.39367,38.81281,133],[-90.39372,38.81278,133],[-90.39374,38.81276,134],[-90.39377,38.81274,134],[-90.39381,38.81272,134],[-90.39383,38.8127,134],[-90.39386,38.81267,135],[-90.39389,38.81264,135],[-90.39392,38.81262,135],[-90.39395,38.8126,135],[-90.39398,38.81259,135],[-90.39402,38.81256,136],[-90.39404,38.81254,136],[-90.39407,38.81251,136],[-90.39409,38.81248,137],[-90.39412,38.81245,137],[-90.39415,38.81243,137],[-90.39418,38.81241,137],[-90.39421,38.81238,137],[-90.39425,38.81236,137],[-90.39428,38.81234,137],[-90.39429,38.81231,137],[-90.39431,38.81228,137],[-90.39435,38.81225,137],[-90.39439,38.81223,137],[-90.39442,38.81222,138],[-90.39445,38.8122,137],[-90.39447,38.81217,137],[-90.39451,38.81214,137],[-90.39455,38.81212,137],[-90.39458,38.8121,137],[-90.3946,38.81208,137],[-90.39463,38.81205,137],[-90.39467,38.81203,136],[-90.39469,38.81201,136],[-90.39472,38.81197,136],[-90.39475,38.81195,136],[-90.39479,38.81193,136],[-90.39482,38.81191,135],[-90.39484,38.81189,135],[-90.39487,38.81187,135],[-90.3949,38.81184,134],[-90.39494,38.81181,134],[-90.39496,38.81179,134],[-90.39499,38.81177,133],[-90.39503,38.81177,133],[-90.39507,38.81175,133],[-90.39511,38.81173,133],[-90.39514,38.81172,133],[-90.39518,38.81169,133],[-90.39522,38.81167,133],[-90.39524,38.81165,132],[-90.39528,38.81162,133],[-90.39531,38.8116,133],[-90.39535,38.81157,133],[-90.39538,38.81155,133],[-90.39542,38.81152,133],[-90.39545,38.8115,133],[-90.39548,38.81148,133],[-90.3955,38.81145,133],[-90.39553,38.81142,133],[-90.39556,38.8114,132],[-90.39559,38.81138,133],[-90.39562,38.81136,133],[-90.39564,38.81134,133],[-90.39567,38.81133,133],[-90.39571,38.8113,133],[-90.39574,38.81127,133],[-90.39577,38.81124,134],[-90.39579,38.81122,134],[-90.39575,38.81122,134],[-90.3957,38.81123,134],[-90.39567,38.81125,134],[-90.39563,38.81126,133],[-90.3956,38.81127,133],[-90.39556,38.8113,133],[-90.39553,38.81132,133],[-90.3955,38.81135,133],[-90.39548,38.81138,133],[-90.39546,38.81141,133],[-90.39543,38.81143,133],[-90.3954,38.81145,133],[-90.39537,38.81146,133],[-90.39534,38.81147,133],[-90.39531,38.8115,133],[-90.39528,38.81152,133],[-90.39525,38.81154,132],[-90.39522,38.81156,132],[-90.39518,38.81158,132],[-90.39516,38.8116,132],[-90.39514,38.81163,132],[-90.39511,38.81164,132],[-90.39508,38.81166,132],[-90.39504,38.81168,133],[-90.39501,38.8117,133],[-90.39497,38.81171,133],[-90.39493,38.81173,133],[-90.3949,38.81175,134],[-90.39487,38.81176,134],[-90.39484,38.81178,134],[-90.39482,38.81181,135],[-90.3948,38.81184,135],[-90.39476,38.81186,135],[-90.39474,38.81189,136],[-90.39471,38.81191,136],[-90.39467,38.81193,137],[-90.39465,38.81196,137],[-90.39462,38.81198,137],[-90.39459,38.812,137],[-90.39455,38.81201,137],[-90.39452,38.81203,137],[-90.39448,38.81205,137],[-90.39445,38.81206,137],[-90.39442,38.81208,138],[-90.39441,38.81211,138],[-90.39437,38.81214,138],[-90.39434,38.81216,138],[-90.39432,38.81218,138],[-90.39429,38.81221,138],[-90.39426,38.81224,137],[-90.39423,38.81226,137],[-90.39421,38.81229,137],[-90.39418,38.81232,137],[-90.39415,38.81234,137],[-90.39412,38.81237,137],[-90.39409,38.8124,137],[-90.39405,38.81242,137],[-90.39402,38.81245,137],[-90.39399,38.81248,137],[-90.39395,38.81251,136],[-90.39393,38.81253,136],[-90.39389,38.81255,136],[-90.39387,38.81257,136],[-90.39384,38.81259,135],[-90.39381,38.81261,135],[-90.39377,38.81264,135],[-90.39374,38.81265,135],[-90.39371,38.81267,134],[-90.39369,38.81269,134],[-90.39365,38.8127,134],[-90.39362,38.81272,134],[-90.39359,38.81274,134],[-90.39355,38.81276,134],[-90.39352,38.81279,134],[-90.39349,38.81282,134],[-90.39345,38.81284,134],[-90.39342,38.81285,134],[-90.39338,38.81287,134],[-90.39336,38.81288,134],[-90.39333,38.8129,134],[-90.3933,38.81291,134],[-90.39326,38.81293,133],[-90.39322,38.81296,133],[-90.39319,38.81298,133],[-90.39317,38.813,133],[-90.39313,38.81303,133],[-90.39309,38.81305,133],[-90.39306,38.81309,132],[-90.39303,38.81311,133],[-90.393,38.81313,133],[-90.39297,38.81315,133],[-90.39294,38.81317,133],[-90.3929,38.8132,133],[-90.39287,38.81322,134],[-90.39284,38.81324,134],[-90.39282,38.81326,134],[-90.3928,38.81328,134],[-90.39277,38.81331,134],[-90.39274,38.81333,135],[-90.39272,38.81335,135],[-90.39269,38.81337,135],[-90.39267,38.81339,136],[-90.39265,38.81342,136],[-90.39262,38.81344,137],[-90.39259,38.81345,137],[-90.39255,38.81348,137],[-90.39253,38.81351,138],[-90.39251,38.81354,138],[-90.3925,38.81357,138],[-90.39249,38.8136,138],[-90.39248,38.81363,138],[-90.39247,38.81366,138],[-90.39245,38.81369,138],[-90.39244,38.81372,138],[-90.39242,38.81375,137],[-90.39242,38.81378,137],[-90.3924,38.81381,137],[-90.39238,38.81385,136],[-90.39236,38.81388,135],[-90.39234,38.81391,136],[-90.39231,38.81394,137],[-90.39229,38.81396,138],[-90.39226,38.81399,140],[-90.39222,38.814,140],[-90.39218,38.81399,140],[-90.39215,38.81397,139],[-90.3921,38.81396,139],[-90.39206,38.81394,138],[-90.39203,38.81392,138],[-90.39201,38.81389,136],[-90.39198,38.81387,137],[-90.39194,38.81385,138],[-90.3919,38.81383,139],[-90.39187,38.8138,140],[-90.39184,38.81378,141],[-90.39181,38.81376,142],[-90.39178,38.81374,143],[-90.39176,38.81372,143],[-90.39173,38.8137,143],[-90.3917,38.81367,143],[-90.39168,38.81365,143],[-90.39166,38.81361,143],[-90.39163,38.81359,144],[-90.39162,38.81355,145],[-90.39161,38.81351,145],[-90.39161,38.81348,146],[-90.3916,38.81345,146],[-90.3916,38.81342,146],[-90.39159,38.81338,147],[-90.39156,38.81335,148],[-90.39153,38.81333,148],[-90.3915,38.81331,149],[-90.39147,38.8133,149],[-90.39144,38.81329,149],[-90.3914,38.81328,150],[-90.39137,38.81326,150],[-90.39133,38.81323,151],[-90.39129,38.81321,151],[-90.39126,38.8132,152],[-90.39123,38.81318,152],[-90.39121,38.81315,152],[-90.3912,38.81311,152],[-90.39118,38.81308,153],[-90.39117,38.81306,153],[-90.39116,38.81303,152],[-90.39115,38.81299,151],[-90.39114,38.81297,151],[-90.39113,38.81294,150],[-90.39112,38.81291,150],[-90.3911,38.81288,149],[-90.39109,38.81285,149],[-90.39107,38.81283,148],[-90.39105,38.81279,148],[-90.39105,38.81276,147],[-90.39104,38.81273,146],[-90.39103,38.8127,146],[-90.39102,38.81266,145],[-90.391,38.81263,145],[-90.391,38.8126,144],[-90.391,38.81256,143],[-90.39099,38.81252,142],[-90.39099,38.81249,142],[-90.391,38.81246,143],[-90.391,38.81243,143],[-90.39099,38.8124,144],[-90.39098,38.81238,145],[-90.39096,38.81235,146],[-90.39095,38.81232,147],[-90.39094,38.81229,147],[-90.39093,38.81226,148],[-90.39091,38.81223,149],[-90.3909,38.81219,149],[-90.39089,38.81216,149],[-90.39089,38.81213,149],[-90.3909,38.81208,149],[-90.39091,38.81205,149],[-90.39091,38.81202,149],[-90.39093,38.81199,149],[-90.39094,38.81196,150],[-90.39094,38.81193,149],[-90.39093,38.8119,149],[-90.39093,38.81187,149],[-90.39093,38.81184,148],[-90.39093,38.8118,148],[-90.39094,38.81177,147],[-90.39095,38.81174,147],[-90.39098,38.8117,146],[-90.391,38.81168,146],[-90.39103,38.81166,145],[-90.39105,38.81164,145],[-90.39108,38.81162,144],[-90.3911,38.8116,144],[-90.39112,38.81158,143],[-90.39113,38.81155,143],[-90.39112,38.81152,142],[-90.39109,38.81149,142],[-90.39107,38.81147,142],[-90.39104,38.81144,142],[-90.39101,38.81141,142],[-90.39098,38.81139,141],[-90.39095,38.81137,141],[-90.39092,38.81134,141],[-90.3909,38.8113,141],[-90.39088,38.81128,141],[-90.39087,38.81125,141],[-90.39086,38.81121,141],[-90.39085,38.81118,141],[-90.39084,38.81115,141],[-90.39082,38.81113,141],[-90.39082,38.81116,141],[-90.39084,38.81118,141],[-90.39086,38.81121,141],[-90.39088,38.81123,141],[-90.3909,38.81126,141],[-90.39093,38.8113,141],[-90.39096,38.81132,141],[-90.39098,38.81136,141],[-90.391,38.81139,141],[-90.39101,38.81142,142],[-90.39102,38.81145,142],[-90.39102,38.81148,142],[-90.39098,38.81151,143],[-90.39095,38.81154,144],[-90.39093,38.81156,144],[-90.3909,38.81159,145],[-90.39088,38.81162,145],[-90.39086,38.81164,146],[-90.39085,38.81167,146],[-90.39084,38.81171,147],[-90.39084,38.81174,147],[-90.39085,38.81178,147],[-90.39086,38.81181,148],[-90.39086,38.81184,148],[-90.39086,38.81188,148],[-90.39085,38.81191,148],[-90.39083,38.81194,148],[-90.39081,38.81198,149],[-90.3908,38.81201,149],[-90.39079,38.81203,149],[-90.39081,38.81206,149],[-90.39084,38.81207,149],[-90.39083,38.8121,149],[-90.39083,38.81213,149],[-90.39085,38.81216,149],[-90.39086,38.81219,149],[-90.39086,38.81222,149],[-90.39086,38.81225,149],[-90.39088,38.81228,148],[-90.39089,38.81231,147],[-90.39089,38.81234,147],[-90.39089,38.81238,146],[-90.39089,38.81242,145],[-90.3909,38.81245,144],[-90.39091,38.81249,143],[-90.39091,38.81253,143],[-90.39091,38.81256,144],[-90.39093,38.81258,144],[-90.39094,38.81261,145],[-90.39095,38.81265,146],[-90.39095,38.81268,146],[-90.39097,38.81271,147],[-90.39098,38.81274,147],[-90.39099,38.81277,148],[-90.391,38.8128,149],[-90.39101,38.81283,149],[-90.39102,38.81286,150],[-90.39105,38.81288,150],[-90.3911,38.81288,149],[-90.39114,38.81288,149],[-90.39116,38.81291,149],[-90.39118,38.81294,150],[-90.3912,38.81297,150],[-90.3912,38.813,151],[-90.39122,38.81302,151],[-90.39124,38.81304,151],[-90.39124,38.81307,152],[-90.39126,38.8131,152],[-90.39129,38.81313,151],[-90.39134,38.81316,151],[-90.39137,38.81319,150],[-90.39139,38.81321,150],[-90.39142,38.81324,150],[-90.39144,38.81326,149],[-90.39148,38.81328,149],[-90.39152,38.81329,148],[-90.39155,38.81331,148],[-90.39158,38.81333,148],[-90.3916,38.81335,147],[-90.3916,38.81338,147],[-90.39158,38.81342,147],[-90.39158,38.81345,146],[-90.39159,38.81348,146],[-90.39161,38.81352,145],[-90.39162,38.81355,145],[-90.39164,38.81358,144],[-90.39166,38.8136,143],[-90.39169,38.81364,143],[-90.39172,38.81366,143],[-90.39175,38.81368,143],[-90.39178,38.81371,142],[-90.39182,38.81373,142],[-90.39185,38.81376,141],[-90.39189,38.81378,140],[-90.39193,38.81381,139],[-90.39197,38.81384,138],[-90.392,38.81385,137],[-90.39204,38.81387,136],[-90.39208,38.8139,136],[-90.39212,38.81392,136],[-90.39216,38.81394,137],[-90.3922,38.81396,138],[-90.39223,38.81398,138],[-90.39226,38.81401,141],[-90.39229,38.81403,142],[-90.39231,38.81407,145],[-90.39235,38.8141,146],[-90.39237,38.81412,148],[-90.39241,38.81415,149],[-90.39245,38.81417,150],[-90.39249,38.81419,150],[-90.39251,38.81422,151],[-90.39253,38.81425,151],[-90.39256,38.81427,151],[-90.39259,38.8143,151],[-90.39262,38.81432,152],[-90.39265,38.81434,152],[-90.39269,38.81437,152],[-90.39272,38.81439,152],[-90.39275,38.81442,152],[-90.39279,38.81444,152],[-90.39282,38.81446,151],[-90.39286,38.81448,151],[-90.39289,38.8145,150],[-90.39292,38.81452,149],[-90.39293,38.81456,149],[-90.39294,38.81458,149],[-90.39294,38.81462,148],[-90.39293,38.81465,148],[-90.39291,38.81468,149],[-90.39289,38.8147,149],[-90.39289,38.81474,149],[-90.39292,38.81477,148],[-90.39295,38.81481,148],[-90.39298,38.81484,147],[-90.39301,38.81487,147],[-90.39302,38.8149,147],[-90.39304,38.81494,147],[-90.39307,38.81497,147],[-90.39309,38.81501,147],[-90.3931,38.81505,146],[-90.39308,38.81509,146],[-90.39305,38.81512,147],[-90.39303,38.81516,147],[-90.39301,38.81519,147],[-90.39299,38.81523,147],[-90.39297,38.81526,148],[-90.39297,38.81529,147],[-90.39295,38.81532,147],[-90.39292,38.81535,147],[-90.39288,38.81537,147],[-90.39284,38.81538,148],[-90.3928,38.8154,148],[-90.39276,38.81542,149],[-90.39273,38.81544,149],[-90.3927,38.81545,150],[-90.39265,38.81547,151],[-90.39263,38.81549,151],[-90.3926,38.81551,152],[-90.39256,38.81553,153],[-90.39254,38.81556,154],[-90.39254,38.81559,153],[-90.39255,38.81562,152],[-90.39255,38.81566,151],[-90.39256,38.8157,150],[-90.39255,38.81574,149],[-90.39253,38.81577,149],[-90.39252,38.81581,148],[-90.39252,38.81584,148],[-90.39253,38.81588,147],[-90.39252,38.81591,148],[-90.39251,38.81594,148],[-90.3925,38.81597,148],[-90.39249,38.816,149],[-90.39248,38.81603,149],[-90.39247,38.81607,149],[-90.39243,38.81609,151],[-90.3924,38.81611,152],[-90.39237,38.81613,152],[-90.39234,38.81615,153],[-90.39231,38.81617,153],[-90.39228,38.81619,153],[-90.39225,38.81621,153],[-90.39222,38.81624,153],[-90.3922,38.81626,153],[-90.39219,38.81629,153],[-90.39218,38.81632,152],[-90.39215,38.81636,151],[-90.39214,38.81639,150],[-90.39212,38.81642,151],[-90.39214,38.81645,150],[-90.39214,38.81649,149],[-90.39212,38.81652,149],[-90.39208,38.81655,150],[-90.39206,38.81657,150],[-90.39202,38.8166,150],[-90.39202,38.81662,150],[-90.392,38.81664,150],[-90.39197,38.81667,150],[-90.39194,38.8167,150],[-90.39192,38.81673,150],[-90.3919,38.81675,150],[-90.39187,38.81678,150],[-90.39184,38.8168,150],[-90.3918,38.81682,150],[-90.39178,38.81685,150],[-90.39177,38.81688,149],[-90.39175,38.8169,149],[-90.39171,38.81693,148],[-90.39167,38.81695,147],[-90.39163,38.81696,148],[-90.39158,38.81697,148],[-90.39154,38.81698,148],[-90.3915,38.81699,149],[-90.39146,38.817,149],[-90.39142,38.81702,149],[-90.39139,38.81703,149],[-90.39138,38.81706,148],[-90.39135,38.81708,147],[-90.39133,38.81711,147],[-90.3913,38.81713,146],[-90.39126,38.81715,146],[-90.39123,38.81717,146],[-90.3912,38.81718,146],[-90.39116,38.8172,146],[-90.39112,38.81721,146],[-90.39108,38.81723,146],[-90.39104,38.81724,146],[-90.39101,38.81726,146],[-90.39098,38.81728,146],[-90.39094,38.81731,146],[-90.39091,38.81733,146],[-90.39088,38.81735,146],[-90.39086,38.81738,145],[-90.39084,38.81741,144],[-90.3908,38.81743,144],[-90.39078,38.81746,144],[-90.39076,38.81748,143],[-90.39073,38.81751,143],[-90.3907,38.81753,143],[-90.39068,38.81756,143],[-90.39066,38.81758,142],[-90.39063,38.81761,142],[-90.3906,38.81762,142],[-90.39058,38.81765,142],[-90.39062,38.81765,141],[-90.39066,38.81763,141],[-90.39069,38.81761,141],[-90.39072,38.81759,141],[-90.39076,38.81758,141],[-90.39079,38.81756,141],[-90.39083,38.81754,141],[-90.39087,38.81752,141],[-90.3909,38.81751,141],[-90.39094,38.81749,141],[-90.39098,38.81747,141],[-90.39101,38.81745,141],[-90.39103,38.81743,141],[-90.39105,38.8174,142],[-90.39107,38.81737,142],[-90.39109,38.81735,143],[-90.39112,38.81733,143],[-90.39114,38.81731,143],[-90.39117,38.81728,143],[-90.3912,38.81725,143],[-90.39123,38.81724,143],[-90.39126,38.81721,143],[-90.39129,38.81719,144],[-90.39132,38.81717,144],[-90.39135,38.81715,144],[-90.39138,38.81712,145],[-90.39141,38.81711,145],[-90.39144,38.81709,145],[-90.39149,38.81708,145],[-90.39153,38.81707,145],[-90.39157,38.81706,145],[-90.39162,38.81705,144],[-90.39166,38.81704,144],[-90.3917,38.81702,145],[-90.39172,38.817,145],[-90.39175,38.81698,146],[-90.39178,38.81695,148],[-90.3918,38.81693,148],[-90.39183,38.8169,149],[-90.39185,38.81687,149],[-90.39187,38.81684,150],[-90.39189,38.81681,150],[-90.39191,38.81678,150],[-90.39193,38.81675,150],[-90.39194,38.81672,150],[-90.39198,38.81671,150],[-90.39202,38.81668,149],[-90.39205,38.81665,149],[-90.39207,38.81661,149],[-90.39209,38.81659,149],[-90.39212,38.81657,149],[-90.39215,38.81656,148],[-90.39218,38.81654,148],[-90.3922,38.81652,148],[-90.39222,38.81648,148],[-90.39224,38.81645,147],[-90.39227,38.81642,147],[-90.39231,38.8164,146],[-90.39233,38.81637,147],[-90.39232,38.81634,148],[-90.39232,38.81631,149],[-90.39233,38.81628,149],[-90.39234,38.81625,150],[-90.39235,38.81622,150],[-90.39236,38.81619,151],[-90.39239,38.81618,150],[-90.39242,38.81616,150],[-90.39244,38.81614,150],[-90.39247,38.81611,149],[-90.39249,38.81608,149],[-90.39248,38.81605,149],[-90.39249,38.81602,149],[-90.39252,38.816,148],[-90.39254,38.81598,147],[-90.39257,38.81595,146],[-90.39259,38.81593,145],[-90.39259,38.8159,145],[-90.3926,38.81586,145],[-90.39262,38.81584,145],[-90.39265,38.81582,144],[-90.39266,38.81579,144],[-90.39264,38.81576,146],[-90.39261,38.81573,147],[-90.3926,38.81571,148],[-90.3926,38.81567,149],[-90.3926,38.81564,150],[-90.39261,38.81562,150],[-90.39264,38.81558,149],[-90.39268,38.81556,148],[-90.3927,38.81553,148],[-90.39274,38.81551,147],[-90.39278,38.8155,146],[-90.39281,38.81549,146],[-90.39285,38.81548,145],[-90.39289,38.81546,144],[-90.39292,38.81544,144],[-90.39295,38.81542,144],[-90.39299,38.81541,143],[-90.39302,38.8154,143],[-90.39304,38.81536,143],[-90.39306,38.81534,143],[-90.39308,38.81531,144],[-90.3931,38.81529,144],[-90.39312,38.81526,144],[-90.39315,38.81523,144],[-90.39317,38.8152,143],[-90.39319,38.81518,143],[-90.3932,38.81515,143],[-90.3932,38.81512,143],[-90.39319,38.81509,144],[-90.39318,38.81505,144],[-90.39318,38.81502,145],[-90.3932,38.815,144],[-90.3932,38.81497,144],[-90.39317,38.81495,145],[-90.39314,38.81492,145],[-90.39311,38.81491,146],[-90.3931,38.81488,146],[-90.39309,38.81484,146],[-90.39308,38.81481,146],[-90.39307,38.81477,146],[-90.39306,38.81474,146],[-90.39305,38.8147,146],[-90.39303,38.81467,146],[-90.39302,38.81464,147],[-90.393,38.81462,147],[-90.39299,38.81459,147],[-90.39295,38.81457,148],[-90.39291,38.81454,149],[-90.39287,38.81452,150],[-90.39284,38.81449,151],[-90.3928,38.81447,152],[-90.39277,38.81445,153],[-90.39274,38.81443,153],[-90.39271,38.81441,153],[-90.39268,38.81439,152],[-90.39264,38.81437,152],[-90.3926,38.81434,152],[-90.39257,38.81432,152],[-90.39254,38.8143,152],[-90.39249,38.81428,152],[-90.39243,38.81426,152],[-90.39239,38.81424,151],[-90.39236,38.81422,151],[-90.39233,38.81419,151],[-90.39231,38.81417,150],[-90.3923,38.81414,149],[-90.3923,38.81411,147],[-90.39231,38.81408,145],[-90.39233,38.81405,143],[-90.39235,38.81402,142],[-90.39236,38.81398,140],[-90.39238,38.81395,139],[-90.3924,38.81392,137],[-90.39243,38.81389,136],[-90.39246,38.81385,137],[-90.39248,38.81383,137],[-90.3925,38.8138,138],[-90.39252,38.81377,138],[-90.39254,38.81375,138],[-90.39256,38.81372,138],[-90.39256,38.81369,138],[-90.39257,38.81365,138],[-90.39257,38.81361,138],[-90.39257,38.81357,138],[-90.39259,38.81354,138],[-90.39261,38.81351,137],[-90.39264,38.81349,137],[-90.39268,38.81347,137],[-90.39271,38.81345,136],[-90.39274,38.81343,136],[-90.39277,38.8134,135],[-90.3928,38.81338,135],[-90.39282,38.81336,134],[-90.39285,38.81333,134],[-90.39286,38.81331,134],[-90.39289,38.81328,134],[-90.39291,38.81325,133],[-90.39293,38.81323,133],[-90.39295,38.81321,133],[-90.39297,38.81318,133],[-90.39299,38.81315,133],[-90.39302,38.81312,133],[-90.39304,38.81309,133],[-90.39306,38.81307,132],[-90.39308,38.81305,133],[-90.39311,38.81302,133],[-90.39315,38.81299,133],[-90.39317,38.81297,133],[-90.39321,38.81295,133],[-90.39326,38.81294,133],[-90.39329,38.81292,133],[-90.39333,38.81291,134],[-90.39337,38.81289,134],[-90.3934,38.81288,134],[-90.39344,38.81286,134],[-90.39347,38.81284,134],[-90.39351,38.81282,134],[-90.39353,38.8128,134],[-90.39357,38.81277,134],[-90.3936,38.81275,134],[-90.39363,38.81274,134],[-90.39367,38.81271,134],[-90.3937,38.81269,134],[-90.39373,38.81267,134],[-90.39376,38.81265,135],[-90.39378,38.81263,135],[-90.39381,38.81261,135],[-90.39385,38.81258,136],[-90.39389,38.81256,136],[-90.39393,38.81255,136],[-90.39397,38.81254,136],[-90.39401,38.81252,136],[-90.39404,38.8125,137],[-90.39406,38.81247,137],[-90.39409,38.81245,137],[-90.39412,38.81242,137],[-90.39416,38.8124,137],[-90.39419,38.81237,137],[-90.39422,38.81236,137],[-90.39425,38.81234,137],[-90.39429,38.81232,137],[-90.39432,38.81229,137],[-90.39433,38.81226,137],[-90.39435,38.81223,137],[-90.39438,38.81222,138],[-90.39441,38.81221,138],[-90.39444,38.81219,138],[-90.39448,38.81216,137],[-90.3945,38.81214,137],[-90.39451,38.81211,137],[-90.39453,38.81209,137],[-90.39455,38.81205,137],[-90.39456,38.81201,137],[-90.39457,38.81197,137],[-90.39458,38.81194,137],[-90.3946,38.81191,137],[-90.39463,38.81188,136],[-90.39466,38.81185,136],[-90.39469,38.81183,135],[-90.39473,38.81181,135],[-90.39477,38.81179,135],[-90.39479,38.81177,134],[-90.39482,38.81174,134]]],
        "bbox": [
          -90.38468,
          38.81987,
          -90.39579,
          38.81113
        ]
      },
      "properties": {
        "name": "11.20.2021A"
      }
    }
  ]
}