{
  "type": "FeatureCollection",
  "features": [
    {
      "type": "Feature",
      "geometry": {
        "type": "MultiLineString",
        "coordinates": [[[-90.39081,38.81078,138],[-90.39079,38.81081,138],[-90.39078,38.81084,138],[-90.39079,38.81088,138],[-90.39082,38.81089,138],[-90.39085,38.81091,138],[-90.39086,38.81095,139],[-90.39086,38.81098,139],[-90.39086,38.81102,139],[-90.39086,38.81105,140],[-90.39085,38.81109,140],[-90.39084,38.81112,141],[-90.39085,38.81115,141],[-90.39082,38.81118,141],[-90.39078,38.81119,141],[-90.39074,38.81121,141],[-90.39071,38.81123,142],[-90.39067,38.81125,142],[-90.39063,38.81127,142],[-90.39059,38.81127,142],[-90.39055,38.81127,142],[-90.39051,38.81126,142],[-90.39048,38.81124,142],[-90.39045,38.81122,142],[-90.39042,38.8112,142],[-90.39038,38.81119,142],[-90.39034,38.81118,142],[-90.3903,38.81117,142],[-90.39026,38.81118,143],[-90.39023,38.81118,143],[-90.39019,38.81118,144],[-90.39015,38.81117,144],[-90.39011,38.81117,145],[-90.39007,38.81116,145],[-90.39003,38.81116,146],[-90.38999,38.81116,146],[-90.38995,38.81115,147],[-90.38992,38.81116,147],[-90.38989,38.81118,148],[-90.38985,38.81119,148],[-90.38982,38.81121,149],[-90.38977,38.8112,149],[-90.38973,38.8112,150],[-90.3897,38.81119,150],[-90.38966,38.81117,151],[-90.38962,38.81117,151],[-90.38958,38.81117,151],[-90.38955,38.81119,151],[-90.38954,38.81122,151],[-90.38952,38.81126,151],[-90.3895,38.81129,151],[-90.38947,38.81132,151],[-90.38946,38.81135,151],[-90.38944,38.81138,152],[-90.38941,38.8114,152],[-90.38937,38.81141,152],[-90.38934,38.8114,152],[-90.3893,38.8114,152],[-90.38926,38.81141,152],[-90.38923,38.81144,152],[-90.38921,38.81146,152],[-90.38918,38.81148,152],[-90.38915,38.8115,152],[-90.38911,38.81152,153],[-90.38906,38.81152,154],[-90.38902,38.81153,155],[-90.38899,38.81154,156],[-90.38896,38.81155,157],[-90.38892,38.81157,158],[-90.38888,38.81158,159],[-90.38884,38.81159,160],[-90.38882,38.81161,161],[-90.38883,38.81165,160],[-90.3888,38.81167,161],[-90.38877,38.81169,161],[-90.38874,38.81171,162],[-90.38872,38.81173,162],[-90.38869,38.81176,162],[-90.38867,38.81179,162],[-90.38865,38.81182,162],[-90.38865,38.81184,162],[-90.38865,38.81187,162],[-90.38866,38.8119,161],[-90.3887,38.81192,160],[-90.38873,38.81194,159],[-90.38874,38.81197,159],[-90.38877,38.81199,159],[-90.38881,38.81201,159],[-90.38884,38.81203,159],[-90.38885,38.81207,159],[-90.38886,38.8121,160],[-90.38886,38.81213,160],[-90.38885,38.81216,161],[-90.38884,38.81219,161],[-90.38882,38.81221,162],[-90.38881,38.81224,162],[-90.38879,38.81227,163],[-90.38877,38.8123,163],[-90.38873,38.81231,164],[-90.38869,38.81233,165],[-90.38867,38.81236,165],[-90.38867,38.81239,166],[-90.38866,38.81242,166],[-90.38869,38.81244,166],[-90.3887,38.81247,166],[-90.3887,38.8125,167],[-90.38869,38.81253,167],[-90.38868,38.81255,167],[-90.38866,38.81258,168],[-90.38865,38.81261,168],[-90.38863,38.81265,169],[-90.38861,38.81267,169],[-90.38858,38.81269,170],[-90.38854,38.81269,171],[-90.3885,38.8127,173],[-90.38847,38.81272,174],[-90.38844,38.81273,175],[-90.3884,38.81274,177],[-90.38837,38.81276,178],[-90.38833,38.81277,180],[-90.3883,38.81278,181],[-90.38826,38.81277,181],[-90.38822,38.81278,183],[-90.38819,38.8128,184],[-90.38816,38.81281,185],[-90.38812,38.81282,186],[-90.38811,38.81284,187],[-90.38812,38.81287,187],[-90.38812,38.8129,187],[-90.3881,38.81293,188],[-90.38811,38.81296,188],[-90.38811,38.81299,189],[-90.38811,38.81302,189],[-90.38811,38.81305,189],[-90.3881,38.81308,190],[-90.38809,38.81311,191],[-90.38807,38.81314,192],[-90.38805,38.81317,193],[-90.38804,38.81319,193],[-90.38801,38.81321,193],[-90.38798,38.81324,194],[-90.38796,38.81326,194],[-90.38792,38.81328,195],[-90.38789,38.8133,195],[-90.38785,38.81331,195],[-90.38781,38.81332,195],[-90.38778,38.81332,195],[-90.38774,38.81332,195],[-90.3877,38.81332,195],[-90.38766,38.81332,195],[-90.38762,38.81333,194],[-90.38762,38.81336,195],[-90.38763,38.81339,195],[-90.38763,38.81342,195],[-90.38763,38.81345,195],[-90.38762,38.81349,195],[-90.38761,38.81352,196],[-90.38761,38.81356,196],[-90.38761,38.81359,196],[-90.38761,38.81362,196],[-90.3876,38.81365,197],[-90.38759,38.81368,197],[-90.38757,38.81372,197],[-90.38757,38.81374,198],[-90.38756,38.81377,198],[-90.38755,38.81381,198],[-90.38755,38.81384,199],[-90.38758,38.81386,199],[-90.38762,38.81388,199],[-90.38765,38.81389,199],[-90.38769,38.8139,200],[-90.38772,38.81392,200],[-90.38775,38.81393,200],[-90.38779,38.81392,199],[-90.38783,38.81392,199],[-90.38788,38.81392,199],[-90.38792,38.81391,199],[-90.38796,38.8139,199],[-90.38799,38.81389,199],[-90.38803,38.81389,199],[-90.38807,38.81388,198],[-90.38811,38.81388,198],[-90.38815,38.81387,198],[-90.38819,38.81388,198],[-90.38823,38.81388,198],[-90.38827,38.81389,198],[-90.38831,38.81391,198],[-90.38835,38.81393,197],[-90.38839,38.81395,197],[-90.38843,38.81396,197],[-90.38847,38.81398,196],[-90.38851,38.81399,196],[-90.38855,38.814,196],[-90.38859,38.81401,196],[-90.38862,38.81402,195],[-90.38865,38.81404,195],[-90.38868,38.81406,195],[-90.38872,38.81408,194],[-90.38876,38.81409,194],[-90.3888,38.81411,193],[-90.38885,38.81412,193],[-90.38888,38.81413,192],[-90.38893,38.81414,192],[-90.38896,38.81414,192],[-90.389,38.81415,192],[-90.38904,38.81416,192],[-90.38908,38.81416,192],[-90.38911,38.81416,192],[-90.38915,38.81417,192],[-90.38919,38.81418,192],[-90.38923,38.8142,191],[-90.38927,38.81421,191],[-90.38931,38.81423,190],[-90.38934,38.81425,190],[-90.38939,38.81426,189],[-90.38942,38.81428,189],[-90.38945,38.81429,188],[-90.38949,38.81431,188],[-90.38952,38.81433,188],[-90.38954,38.81435,188],[-90.38956,38.81438,188],[-90.38956,38.81442,189],[-90.38957,38.81446,189],[-90.38957,38.81449,189],[-90.38956,38.81452,190],[-90.38956,38.81455,190],[-90.38956,38.81458,190],[-90.38956,38.81461,190],[-90.38956,38.81464,190],[-90.38956,38.81468,191],[-90.38956,38.81471,191],[-90.38957,38.81475,191],[-90.38957,38.81478,190],[-90.38958,38.81481,190],[-90.38959,38.81484,190],[-90.3896,38.81488,189],[-90.38961,38.81491,189],[-90.38962,38.81494,189],[-90.38965,38.81496,189],[-90.38967,38.81498,189],[-90.3897,38.815,188],[-90.38973,38.81502,188],[-90.38977,38.81504,188],[-90.38979,38.81506,187],[-90.38981,38.81508,187],[-90.38984,38.81511,186],[-90.38986,38.81513,185],[-90.3899,38.81515,185],[-90.38993,38.81517,184],[-90.38996,38.81519,184],[-90.38999,38.8152,183],[-90.39002,38.81522,183],[-90.39006,38.81524,182],[-90.3901,38.81526,182],[-90.39013,38.81528,181],[-90.39016,38.81529,181],[-90.3902,38.81531,181],[-90.39024,38.81532,181],[-90.39028,38.81534,181],[-90.39033,38.81535,181],[-90.39036,38.81537,181],[-90.3904,38.81538,181],[-90.39044,38.81539,182],[-90.39047,38.8154,182],[-90.3905,38.81542,182],[-90.39054,38.81543,182],[-90.39057,38.81543,183],[-90.39061,38.81543,183],[-90.39065,38.81545,183],[-90.3907,38.81545,184],[-90.39073,38.81545,184],[-90.39077,38.81545,185],[-90.39081,38.81545,185],[-90.39085,38.81546,185],[-90.39089,38.81545,185],[-90.39092,38.81545,185],[-90.39096,38.81544,186],[-90.391,38.81542,186],[-90.39104,38.81541,186],[-90.39108,38.8154,186],[-90.39112,38.81538,186],[-90.39117,38.81538,186],[-90.39121,38.81538,186],[-90.39126,38.81538,186],[-90.39131,38.81538,185],[-90.39135,38.81539,185],[-90.39139,38.8154,185],[-90.39144,38.81541,184],[-90.39148,38.81542,184],[-90.39152,38.81544,183],[-90.39154,38.81547,183],[-90.39158,38.8155,183],[-90.39161,38.81553,183],[-90.39164,38.81555,183],[-90.39167,38.81558,182],[-90.3917,38.8156,181],[-90.39174,38.81562,180],[-90.39178,38.81564,179],[-90.39182,38.81563,178],[-90.39186,38.81563,178],[-90.39189,38.81564,177],[-90.39193,38.81565,176],[-90.39196,38.81564,175],[-90.39196,38.81561,176],[-90.39195,38.81558,177],[-90.39196,38.81555,177],[-90.39198,38.81552,176],[-90.39196,38.8155,176],[-90.39196,38.81547,176],[-90.39197,38.81543,176],[-90.39197,38.8154,176],[-90.39195,38.81537,176],[-90.39194,38.81535,176],[-90.39193,38.81532,176],[-90.39192,38.81528,176],[-90.39191,38.81525,175],[-90.39192,38.81522,174],[-90.39193,38.81519,173],[-90.39194,38.81516,171],[-90.39195,38.81513,170],[-90.39196,38.8151,169],[-90.39196,38.81507,168],[-90.39197,38.81504,166],[-90.39195,38.815,165],[-90.39194,38.81498,166],[-90.39192,38.81495,166],[-90.3919,38.81492,166],[-90.39189,38.81489,166],[-90.3919,38.81486,165],[-90.39192,38.81483,164],[-90.39192,38.8148,164],[-90.39192,38.81477,164],[-90.3919,38.81474,164],[-90.39189,38.8147,164],[-90.39189,38.81467,163],[-90.39189,38.81463,163],[-90.39188,38.8146,163],[-90.39186,38.81457,163],[-90.39184,38.81454,163],[-90.39182,38.81451,163],[-90.39181,38.81448,163],[-90.3918,38.81444,163],[-90.3918,38.81441,162],[-90.3918,38.81438,161],[-90.3918,38.81435,160],[-90.3918,38.81432,159],[-90.3918,38.81429,158],[-90.39179,38.81426,158],[-90.3918,38.81423,157],[-90.3918,38.8142,156],[-90.3918,38.81418,155],[-90.39183,38.81416,154],[-90.39184,38.81413,152],[-90.39185,38.81411,151],[-90.39187,38.81408,149],[-90.39189,38.81406,148],[-90.39191,38.81404,146],[-90.39195,38.81403,145],[-90.39199,38.81404,145],[-90.39203,38.81405,145],[-90.39207,38.81404,144],[-90.39211,38.81403,143],[-90.39215,38.81402,142],[-90.39219,38.81402,141],[-90.39221,38.81399,139],[-90.39217,38.81398,139],[-90.39214,38.81396,138],[-90.3921,38.81395,138],[-90.39206,38.81395,139],[-90.39203,38.81393,138],[-90.39199,38.81391,138],[-90.39196,38.81389,137],[-90.39192,38.81387,138],[-90.3919,38.81385,139],[-90.39187,38.81382,140],[-90.39184,38.81381,141],[-90.39181,38.81379,142],[-90.39177,38.81377,143],[-90.39175,38.81375,143],[-90.39172,38.81373,144],[-90.3917,38.81371,144],[-90.39167,38.81368,144],[-90.39165,38.81365,144],[-90.39164,38.81362,143],[-90.39161,38.81359,144],[-90.39159,38.81356,145],[-90.39158,38.81354,145],[-90.39158,38.8135,146],[-90.39158,38.81347,146],[-90.39157,38.81343,147],[-90.39156,38.8134,147],[-90.39154,38.81338,148],[-90.39152,38.81335,148],[-90.3915,38.81333,149],[-90.39145,38.81332,150],[-90.39141,38.81331,150],[-90.39138,38.8133,151],[-90.39134,38.81328,151],[-90.39131,38.81326,151],[-90.39128,38.81323,152],[-90.39125,38.81321,152],[-90.39123,38.81319,152],[-90.39122,38.81316,152],[-90.3912,38.81312,152],[-90.39118,38.8131,153],[-90.39116,38.81306,153],[-90.39114,38.81304,153],[-90.39113,38.81301,152],[-90.39111,38.81298,152],[-90.39109,38.81295,151],[-90.39108,38.81292,150],[-90.39107,38.81289,150],[-90.39105,38.81286,149],[-90.39103,38.81284,149],[-90.39101,38.81281,149],[-90.39099,38.81278,148],[-90.39099,38.81275,148],[-90.39099,38.81272,147],[-90.39099,38.81269,146],[-90.39098,38.81266,146],[-90.39097,38.81262,145],[-90.39096,38.81259,144],[-90.39095,38.81255,143],[-90.39094,38.81252,143],[-90.39094,38.81249,143],[-90.39093,38.81246,143],[-90.39093,38.81242,144],[-90.39091,38.81239,145],[-90.39089,38.81237,146],[-90.39088,38.81234,147],[-90.39087,38.81231,147],[-90.39086,38.81228,148],[-90.39085,38.81225,149],[-90.39084,38.81222,149],[-90.39083,38.81219,149],[-90.39082,38.81215,149],[-90.39083,38.81212,149],[-90.39083,38.8121,149],[-90.39084,38.81207,149],[-90.39085,38.81203,149],[-90.39086,38.81199,149],[-90.39087,38.81196,149],[-90.39088,38.81193,149],[-90.39089,38.81189,149],[-90.39089,38.81187,148],[-90.39088,38.81183,148],[-90.39088,38.8118,148],[-90.39088,38.81177,147],[-90.39089,38.81173,147],[-90.3909,38.81171,147],[-90.39093,38.81167,146],[-90.39095,38.81165,145],[-90.39097,38.81162,145],[-90.391,38.81159,144],[-90.39103,38.81157,144],[-90.39105,38.81154,143],[-90.39107,38.81151,143],[-90.39107,38.81149,142],[-90.39106,38.81146,142],[-90.39104,38.81143,142],[-90.39101,38.81142,142],[-90.39099,38.81139,141],[-90.39096,38.81137,141],[-90.39094,38.81135,141],[-90.39091,38.81133,141],[-90.39088,38.8113,141],[-90.39086,38.81127,141],[-90.39084,38.81125,141],[-90.39082,38.81122,141],[-90.3908,38.81118,141],[-90.3908,38.81116,141],[-90.39081,38.81113,141],[-90.39081,38.8111,140],[-90.3908,38.81106,140],[-90.3908,38.81103,140],[-90.3908,38.81099,139],[-90.39079,38.81097,139],[-90.39079,38.81094,139],[-90.39079,38.81091,139],[-90.39078,38.81088,138],[-90.39078,38.81085,138],[-90.39078,38.81082,138],[-90.39079,38.81079,138],[-90.39081,38.81077,138],[-90.39082,38.81077,138]]],
        "bbox": [
          -90.38755,
          38.81565,
          -90.39221,
          38.81077
        ]
      },
      "properties": {
        "name": "1.19.2023"
      }
    }
  ]
}