{
  "type": "FeatureCollection",
  "features": [
    {
      "type": "Feature",
      "geometry": {
        "type": "MultiLineString",
        "coordinates": [[[-90.39078,38.81087,138],[-90.39079,38.8109,138],[-90.39082,38.81092,139],[-90.39085,38.81094,139],[-90.39088,38.81096,138],[-90.3909,38.81099,139],[-90.3909,38.81101,139],[-90.39088,38.81105,139],[-90.39087,38.81109,140],[-90.39086,38.81112,140],[-90.39086,38.81115,140],[-90.39086,38.81119,141],[-90.39083,38.81121,141],[-90.39079,38.81123,141],[-90.39075,38.81124,142],[-90.39071,38.81126,142],[-90.39067,38.81127,142],[-90.39062,38.81129,142],[-90.39059,38.8113,142],[-90.39055,38.81129,142],[-90.39051,38.81128,142],[-90.39048,38.81127,142],[-90.39044,38.81125,142],[-90.3904,38.81123,142],[-90.39035,38.81122,142],[-90.39031,38.81121,142],[-90.39027,38.81122,143],[-90.39023,38.81122,143],[-90.39019,38.81122,144],[-90.39015,38.81122,144],[-90.3901,38.81121,145],[-90.39005,38.81121,145],[-90.39001,38.8112,146],[-90.38997,38.81119,146],[-90.38993,38.81118,147],[-90.3899,38.81119,147],[-90.38986,38.81122,148],[-90.38983,38.81123,148],[-90.38978,38.81124,149],[-90.38974,38.81124,150],[-90.3897,38.81123,150],[-90.38964,38.81122,151],[-90.3896,38.81121,151],[-90.38956,38.81121,151],[-90.38953,38.81123,151],[-90.38951,38.81126,151],[-90.38949,38.81128,151],[-90.38946,38.81131,151],[-90.38944,38.81135,152],[-90.38942,38.81138,152],[-90.3894,38.8114,152],[-90.38935,38.81141,152],[-90.38931,38.81141,152],[-90.38927,38.81141,152],[-90.38924,38.81143,152],[-90.38921,38.81146,152],[-90.38919,38.81149,152],[-90.38915,38.81151,152],[-90.38911,38.81153,153],[-90.38908,38.81155,154],[-90.38904,38.81156,155],[-90.389,38.81157,156],[-90.38897,38.81158,157],[-90.38894,38.8116,158],[-90.3889,38.81161,159],[-90.38887,38.81162,160],[-90.38883,38.81163,160],[-90.38884,38.81166,160],[-90.38882,38.81169,161],[-90.38879,38.8117,161],[-90.38876,38.81171,161],[-90.38873,38.81173,162],[-90.38871,38.81175,162],[-90.38869,38.81178,162],[-90.38867,38.8118,162],[-90.38865,38.81183,162],[-90.38864,38.81187,162],[-90.38864,38.8119,161],[-90.38866,38.81192,161],[-90.3887,38.81193,160],[-90.38872,38.81195,160],[-90.38874,38.81197,159],[-90.38876,38.812,159],[-90.38879,38.81202,159],[-90.38882,38.81204,159],[-90.38885,38.81206,159],[-90.38886,38.81209,159],[-90.38887,38.81212,160],[-90.38887,38.81216,161],[-90.38886,38.81219,161],[-90.38884,38.81223,162],[-90.38883,38.81226,162],[-90.38881,38.81229,163],[-90.38877,38.81231,163],[-90.38874,38.81233,164],[-90.38872,38.81235,165],[-90.3887,38.81238,165],[-90.38868,38.81241,166],[-90.38869,38.81243,166],[-90.38871,38.81245,166],[-90.38872,38.81248,166],[-90.38872,38.81251,167],[-90.38871,38.81254,167],[-90.38867,38.81256,168],[-90.38865,38.81259,168],[-90.38865,38.81263,168],[-90.38862,38.81266,169],[-90.3886,38.81267,169],[-90.38857,38.81269,170],[-90.38853,38.81271,172],[-90.3885,38.81273,173],[-90.38846,38.81275,175],[-90.38843,38.81277,176],[-90.3884,38.81278,177],[-90.38837,38.8128,179],[-90.38834,38.81281,180],[-90.3883,38.81281,181],[-90.38826,38.81281,182],[-90.38822,38.81282,183],[-90.38819,38.81284,184],[-90.38816,38.81286,186],[-90.38812,38.81287,187],[-90.38811,38.81289,187],[-90.38812,38.81292,187],[-90.38811,38.81295,188],[-90.38811,38.81298,188],[-90.38812,38.81301,188],[-90.38811,38.81304,189],[-90.38809,38.81307,190],[-90.38808,38.8131,191],[-90.38807,38.81313,192],[-90.38805,38.81316,192],[-90.38803,38.81318,193],[-90.38801,38.81321,193],[-90.38799,38.81323,194],[-90.38797,38.81326,194],[-90.38796,38.81329,195],[-90.38793,38.81331,195],[-90.3879,38.81333,195],[-90.38786,38.81334,196],[-90.38782,38.81335,196],[-90.38778,38.81336,196],[-90.38773,38.81336,195],[-90.3877,38.81336,195],[-90.38766,38.81336,195],[-90.38762,38.81337,195],[-90.38763,38.8134,195],[-90.38764,38.81342,195],[-90.38765,38.81346,195],[-90.38764,38.81349,196],[-90.38762,38.81352,196],[-90.38762,38.81355,196],[-90.38761,38.81358,196],[-90.38761,38.81361,196],[-90.3876,38.81364,197],[-90.38759,38.81367,197],[-90.38758,38.8137,197],[-90.38757,38.81373,197],[-90.38757,38.81377,198],[-90.38755,38.81381,198],[-90.38756,38.81384,199],[-90.3876,38.81386,199],[-90.38762,38.81388,199],[-90.38766,38.8139,200],[-90.3877,38.81391,200],[-90.38773,38.81393,200],[-90.38778,38.81393,199],[-90.38781,38.81393,199],[-90.38785,38.81393,199],[-90.3879,38.81392,199],[-90.38795,38.81392,199],[-90.38798,38.81392,199],[-90.38802,38.81391,199],[-90.38806,38.81391,199],[-90.38809,38.81391,198],[-90.38814,38.81391,198],[-90.38818,38.81391,198],[-90.38822,38.81391,198],[-90.38827,38.81392,198],[-90.38831,38.81394,198],[-90.38835,38.81395,198],[-90.38839,38.81397,197],[-90.38843,38.81398,197],[-90.38847,38.814,197],[-90.38851,38.81402,196],[-90.38855,38.81403,196],[-90.38858,38.81403,196],[-90.38862,38.81405,196],[-90.38866,38.81406,195],[-90.3887,38.81407,195],[-90.38874,38.81408,194],[-90.38877,38.81409,194],[-90.38881,38.81411,193],[-90.38886,38.81412,193],[-90.3889,38.81413,192]],[[-90.38893,38.81415,192],[-90.38897,38.81416,192],[-90.38901,38.81416,192],[-90.38906,38.81417,192],[-90.38911,38.81418,192],[-90.38914,38.81419,192],[-90.38918,38.8142,192],[-90.38922,38.81421,191],[-90.38925,38.81422,191],[-90.38929,38.81424,190],[-90.38936,38.81425,189],[-90.3894,38.81427,189],[-90.38943,38.8143,189],[-90.38946,38.81432,188],[-90.38949,38.81434,188],[-90.38953,38.81435,188],[-90.38956,38.81438,188],[-90.38958,38.8144,188],[-90.3896,38.81443,189],[-90.3896,38.81446,189],[-90.38958,38.81449,189],[-90.38957,38.81452,190],[-90.38957,38.81456,190],[-90.38956,38.8146,190],[-90.38956,38.81464,190],[-90.38956,38.81467,191],[-90.38956,38.81471,191],[-90.38957,38.81473,191],[-90.38957,38.81477,190],[-90.38957,38.81481,190],[-90.38957,38.81484,190],[-90.38957,38.81487,189],[-90.38958,38.8149,189],[-90.38959,38.81493,189],[-90.3896,38.81496,188],[-90.38964,38.81498,188],[-90.38967,38.815,188],[-90.3897,38.81501,188],[-90.38974,38.81504,188],[-90.38976,38.81506,187],[-90.38979,38.81508,187],[-90.38982,38.8151,186],[-90.38985,38.81512,186],[-90.38988,38.81514,185],[-90.38992,38.81516,185],[-90.38995,38.81518,184],[-90.38997,38.8152,184],[-90.39001,38.81522,183],[-90.39004,38.81524,182],[-90.39007,38.81526,182],[-90.39011,38.81528,181],[-90.39014,38.8153,181],[-90.39018,38.81531,181],[-90.39022,38.81532,181],[-90.39025,38.81533,181],[-90.39029,38.81533,181],[-90.39032,38.81534,181],[-90.39036,38.81535,181],[-90.39039,38.81536,181],[-90.39043,38.81538,181],[-90.39046,38.81539,182],[-90.3905,38.81541,182],[-90.39053,38.81542,182],[-90.39057,38.81543,183],[-90.39062,38.81543,183],[-90.39066,38.81543,184],[-90.39071,38.81544,184],[-90.39074,38.81546,184],[-90.39078,38.81546,185],[-90.39081,38.81547,185],[-90.39086,38.81546,185],[-90.39092,38.81546,185],[-90.39095,38.81545,186],[-90.39099,38.81545,186],[-90.39103,38.81544,186],[-90.39107,38.81542,186],[-90.39111,38.81541,186],[-90.39114,38.8154,186],[-90.39118,38.81538,186],[-90.39122,38.81539,186],[-90.39125,38.81539,186],[-90.39129,38.81539,185],[-90.39133,38.81539,185],[-90.39137,38.8154,185],[-90.3914,38.8154,185],[-90.39144,38.81541,184],[-90.39148,38.81542,184],[-90.39152,38.81544,183],[-90.39155,38.81546,183],[-90.39157,38.81548,183],[-90.39159,38.8155,183],[-90.39162,38.81553,183],[-90.39165,38.81555,183],[-90.39167,38.81558,182],[-90.3917,38.8156,181],[-90.39173,38.81563,180],[-90.39177,38.81565,179],[-90.3918,38.81566,178],[-90.39184,38.81565,178],[-90.39187,38.81564,177],[-90.39191,38.81564,176],[-90.39195,38.81565,175],[-90.39197,38.81562,175],[-90.39196,38.81559,176],[-90.39195,38.81556,177],[-90.39197,38.81554,176],[-90.39194,38.81552,177],[-90.39195,38.8155,177],[-90.39196,38.81547,176],[-90.39197,38.81544,176],[-90.39197,38.81541,176],[-90.39194,38.81538,176],[-90.39193,38.81535,176],[-90.39192,38.81532,176],[-90.39191,38.81528,176],[-90.39192,38.81525,175],[-90.39193,38.81521,173],[-90.39194,38.81518,172],[-90.39195,38.81515,171],[-90.39195,38.81512,170],[-90.39196,38.81509,168],[-90.39196,38.81506,167],[-90.39195,38.81503,166],[-90.39193,38.815,166],[-90.39191,38.81497,166],[-90.39189,38.81494,167],[-90.39187,38.81491,167],[-90.39187,38.81488,167],[-90.39188,38.81485,166],[-90.3919,38.81482,165],[-90.3919,38.81479,165],[-90.39188,38.81476,165],[-90.39188,38.81473,165],[-90.39187,38.8147,164],[-90.39187,38.81466,164],[-90.39186,38.81463,164],[-90.39185,38.8146,163],[-90.39184,38.81457,163],[-90.3918,38.81455,164],[-90.39178,38.81451,164],[-90.39178,38.81448,164],[-90.39177,38.81445,164],[-90.39177,38.81443,163],[-90.39176,38.81439,162],[-90.39177,38.81437,161],[-90.39178,38.81434,160],[-90.39178,38.81431,160],[-90.39179,38.81428,158],[-90.39181,38.81426,157],[-90.39185,38.81425,156],[-90.39183,38.81423,156],[-90.39179,38.81423,157],[-90.3918,38.81421,156],[-90.39184,38.8142,155],[-90.39186,38.81417,154],[-90.39187,38.81414,152],[-90.39189,38.81412,151],[-90.39189,38.81409,149],[-90.39193,38.81408,148],[-90.39197,38.81408,147],[-90.392,38.81408,147],[-90.39205,38.81407,146],[-90.39209,38.81406,145],[-90.39212,38.81406,145],[-90.39216,38.81405,143],[-90.3922,38.81405,143],[-90.39224,38.81403,142],[-90.39222,38.81406,144],[-90.39219,38.81408,145],[-90.39216,38.8141,147],[-90.39211,38.81411,148],[-90.39208,38.81413,149],[-90.39204,38.81414,150],[-90.39201,38.81415,150],[-90.39197,38.81416,151],[-90.39194,38.81418,152],[-90.39195,38.81421,153],[-90.39193,38.81423,154],[-90.39192,38.81426,154],[-90.3919,38.81429,156],[-90.39187,38.8143,157],[-90.39187,38.81433,158],[-90.39189,38.81436,158],[-90.3919,38.81438,158],[-90.39191,38.81442,159],[-90.39192,38.81445,159],[-90.39192,38.81448,160],[-90.39192,38.81451,160],[-90.39194,38.81455,160],[-90.39197,38.81457,160],[-90.39198,38.81459,160],[-90.39199,38.81462,160],[-90.39199,38.81466,161],[-90.392,38.81469,161],[-90.39201,38.81472,161],[-90.39202,38.81475,161],[-90.39202,38.81478,162],[-90.39201,38.81481,162],[-90.39199,38.81484,163],[-90.39196,38.81486,164],[-90.39195,38.81489,164],[-90.39197,38.81492,164],[-90.392,38.81493,163],[-90.39203,38.81496,163],[-90.39204,38.815,163],[-90.39205,38.81503,164],[-90.39206,38.81506,165],[-90.39205,38.81509,166],[-90.39204,38.81513,168],[-90.39202,38.81516,169],[-90.39201,38.81519,170],[-90.39199,38.81523,173],[-90.39198,38.81525,173],[-90.39197,38.81528,175],[-90.39198,38.81531,175],[-90.392,38.81534,174],[-90.39202,38.81537,174],[-90.39203,38.8154,173],[-90.39203,38.81543,173],[-90.39203,38.81546,174],[-90.39202,38.8155,174],[-90.39201,38.81553,174],[-90.39201,38.81555,175],[-90.39199,38.81558,175],[-90.39197,38.8156,175],[-90.39196,38.81563,175],[-90.39195,38.81567,175],[-90.39192,38.81568,175],[-90.39189,38.81569,176],[-90.39185,38.81569,177],[-90.39181,38.81569,178],[-90.39178,38.81571,178],[-90.39176,38.81574,178],[-90.39178,38.81577,177],[-90.39179,38.81581,176],[-90.39179,38.81584,176],[-90.39179,38.81587,175],[-90.39179,38.8159,174],[-90.39179,38.81593,174],[-90.39178,38.81597,173],[-90.39177,38.816,173],[-90.39177,38.81604,172],[-90.39175,38.81607,172],[-90.39175,38.8161,171],[-90.39174,38.81614,170],[-90.39173,38.81617,170],[-90.39172,38.8162,169],[-90.39171,38.81624,168],[-90.3917,38.81627,167],[-90.39169,38.8163,166],[-90.39168,38.81633,165],[-90.39166,38.81636,165],[-90.39164,38.81638,164],[-90.39161,38.81641,164],[-90.39159,38.81644,164],[-90.39157,38.81646,164],[-90.39154,38.81649,164],[-90.39152,38.81652,163],[-90.3915,38.81655,163],[-90.39149,38.81658,162],[-90.39146,38.8166,162],[-90.39143,38.81661,162],[-90.3914,38.81664,162],[-90.39138,38.81666,162],[-90.39135,38.81668,162],[-90.39132,38.8167,161],[-90.39131,38.81673,161],[-90.39129,38.81676,160],[-90.39127,38.81678,160],[-90.39124,38.8168,160],[-90.39122,38.81682,159],[-90.39119,38.81684,159],[-90.39117,38.81686,159],[-90.39112,38.81685,160],[-90.39109,38.81684,161],[-90.39105,38.81682,162],[-90.39102,38.8168,162],[-90.39099,38.81678,163],[-90.39095,38.81678,163],[-90.39092,38.81676,164],[-90.39089,38.81674,165],[-90.39086,38.81673,165],[-90.39085,38.81675,165],[-90.39085,38.81678,164],[-90.39086,38.81682,164],[-90.39083,38.81685,163],[-90.39082,38.81687,163],[-90.3908,38.8169,163],[-90.39076,38.8169,163],[-90.39072,38.81689,164],[-90.39069,38.8169,164]],[[-90.39074,38.8168,165],[-90.39075,38.81683,164],[-90.39072,38.81685,164],[-90.39068,38.81687,164],[-90.39064,38.81689,164],[-90.39061,38.81692,164],[-90.39058,38.81696,164],[-90.39055,38.81698,163],[-90.39054,38.817,163],[-90.39056,38.81703,162],[-90.39058,38.81706,160],[-90.3906,38.81708,159],[-90.39061,38.81711,158],[-90.3906,38.81714,157],[-90.39056,38.81716,157],[-90.39055,38.81718,157],[-90.39056,38.81721,156],[-90.39058,38.81724,154],[-90.3906,38.81727,153],[-90.39057,38.81728,153],[-90.3906,38.8173,152],[-90.39058,38.81733,151],[-90.39062,38.81733,151],[-90.39065,38.81735,149],[-90.39064,38.81737,149],[-90.39061,38.8174,148],[-90.39059,38.81743,148],[-90.39057,38.81745,147],[-90.39055,38.81747,147],[-90.39054,38.81744,148],[-90.39055,38.81741,149],[-90.39056,38.81738,150],[-90.39056,38.81736,151],[-90.39053,38.81733,152],[-90.39049,38.81734,152],[-90.39045,38.81733,152],[-90.39043,38.81731,153],[-90.39043,38.81728,154],[-90.39043,38.81725,155],[-90.39041,38.81723,156],[-90.39041,38.8172,157],[-90.3904,38.81717,158],[-90.39042,38.81714,159],[-90.39041,38.81712,160],[-90.39042,38.81709,161],[-90.39044,38.81706,161],[-90.39045,38.81704,162],[-90.39043,38.81701,163],[-90.39042,38.81697,165],[-90.3904,38.81694,166],[-90.39039,38.81691,166],[-90.39041,38.81688,166],[-90.39045,38.81688,166],[-90.39049,38.81687,166],[-90.39053,38.81684,166],[-90.39055,38.81682,166],[-90.39059,38.8168,166],[-90.39063,38.81678,166],[-90.39067,38.81678,166],[-90.39071,38.81678,165],[-90.39074,38.81678,165],[-90.39078,38.81678,165],[-90.39082,38.81678,165],[-90.39085,38.81677,165],[-90.39088,38.81675,165],[-90.3909,38.81672,165],[-90.39091,38.81669,166],[-90.39094,38.81668,166],[-90.39099,38.81667,166],[-90.39103,38.81668,165],[-90.39107,38.81669,165],[-90.3911,38.8167,165],[-90.39113,38.81672,164],[-90.39115,38.81674,163],[-90.39118,38.81677,161],[-90.39117,38.8168,161],[-90.39113,38.8168,161],[-90.39112,38.81677,162],[-90.39115,38.81674,163],[-90.39119,38.81673,162],[-90.39122,38.81672,162],[-90.39125,38.81671,162],[-90.39127,38.81668,163],[-90.39129,38.81666,163],[-90.39132,38.81664,163],[-90.39135,38.81661,164],[-90.39138,38.81659,164],[-90.39142,38.81658,164],[-90.39145,38.81655,164],[-90.39146,38.81653,164],[-90.39147,38.8165,165],[-90.39149,38.81647,165],[-90.39151,38.81645,166],[-90.39153,38.81642,166],[-90.39156,38.81639,166],[-90.39158,38.81637,166],[-90.3916,38.81634,167],[-90.39163,38.81632,167],[-90.39164,38.81629,168],[-90.39164,38.81626,169],[-90.39165,38.81623,169],[-90.39166,38.8162,170],[-90.39166,38.81617,171],[-90.39167,38.81613,173],[-90.39168,38.81611,173],[-90.39169,38.81607,174],[-90.39169,38.81605,174],[-90.3917,38.81602,174],[-90.39171,38.81598,175],[-90.39171,38.81594,176],[-90.39171,38.81591,177],[-90.39171,38.81587,178],[-90.39171,38.81584,178],[-90.39172,38.81581,178],[-90.39172,38.81578,179],[-90.3917,38.81574,180],[-90.39169,38.81571,180],[-90.39169,38.81568,181],[-90.39173,38.81565,180],[-90.39177,38.81565,179],[-90.39181,38.81564,179],[-90.39186,38.81565,177],[-90.3919,38.81565,176],[-90.39193,38.81566,176],[-90.39195,38.81563,175],[-90.39194,38.81559,177],[-90.39194,38.81557,177],[-90.39197,38.81555,176],[-90.39194,38.81552,177],[-90.39196,38.8155,176],[-90.39198,38.81547,175],[-90.39198,38.81544,175],[-90.39197,38.81541,176],[-90.39195,38.81538,176],[-90.39193,38.81534,176],[-90.39191,38.81531,176],[-90.3919,38.81528,176],[-90.3919,38.81525,175],[-90.39191,38.81522,174],[-90.39193,38.81519,173],[-90.39193,38.81516,172],[-90.39194,38.81513,170],[-90.39195,38.8151,169],[-90.39196,38.81507,168],[-90.39196,38.81504,167],[-90.39193,38.81501,166],[-90.39191,38.81499,167],[-90.39189,38.81496,167],[-90.39187,38.81493,167],[-90.39187,38.81491,167],[-90.39189,38.81488,166],[-90.39191,38.81484,165],[-90.39191,38.8148,165],[-90.39189,38.81477,165],[-90.39187,38.81474,165],[-90.39186,38.81471,165],[-90.39186,38.81468,164],[-90.39185,38.81465,164],[-90.39185,38.81461,164],[-90.39183,38.81458,164],[-90.39181,38.81456,164],[-90.39178,38.81453,165],[-90.39177,38.8145,164],[-90.39178,38.81447,164],[-90.39177,38.81444,163],[-90.39176,38.81441,163],[-90.39176,38.81438,162],[-90.39176,38.81435,161],[-90.39175,38.81432,161],[-90.39178,38.81429,159],[-90.39174,38.81429,160],[-90.39174,38.81426,159],[-90.39175,38.81423,158],[-90.39178,38.81422,157],[-90.39181,38.8142,156],[-90.39182,38.81417,155],[-90.39183,38.81414,153],[-90.39186,38.81412,151],[-90.39186,38.81409,150],[-90.3919,38.81409,149],[-90.39194,38.81408,147],[-90.39198,38.81408,147],[-90.39202,38.81407,146],[-90.39206,38.81407,146],[-90.3921,38.81406,145],[-90.39214,38.81405,144],[-90.39218,38.81405,143],[-90.39222,38.81404,142],[-90.3922,38.81407,145],[-90.39216,38.81409,146],[-90.39212,38.8141,147],[-90.39208,38.81412,148],[-90.39205,38.81414,150],[-90.392,38.81414,150],[-90.39197,38.81415,151],[-90.39194,38.81417,152],[-90.39193,38.81419,152],[-90.39192,38.81423,154],[-90.39189,38.81425,155],[-90.39186,38.81426,156],[-90.39187,38.81429,157],[-90.39189,38.81431,156],[-90.39189,38.81434,157],[-90.39189,38.81437,158],[-90.39189,38.8144,159],[-90.3919,38.81443,159],[-90.39191,38.81446,160],[-90.39191,38.81449,160],[-90.39191,38.81452,161],[-90.39194,38.81455,160],[-90.39195,38.81457,160],[-90.39197,38.8146,160],[-90.39198,38.81463,161],[-90.39198,38.81466,161],[-90.39198,38.81469,161],[-90.39199,38.81472,162],[-90.39199,38.81475,162],[-90.392,38.81478,162],[-90.39201,38.81482,162],[-90.392,38.81485,163],[-90.39198,38.81487,163],[-90.39196,38.81489,164],[-90.39196,38.81493,164],[-90.39199,38.81495,164],[-90.39201,38.81499,164],[-90.39203,38.81502,164],[-90.39204,38.81504,165],[-90.39205,38.81507,165],[-90.39204,38.8151,167],[-90.39203,38.81514,168],[-90.39202,38.81518,170],[-90.39201,38.81521,171],[-90.392,38.81524,173],[-90.39199,38.81527,174],[-90.392,38.8153,174],[-90.39201,38.81532,174],[-90.39202,38.81536,174],[-90.39203,38.81539,173],[-90.39204,38.81541,173],[-90.39205,38.81545,173],[-90.39205,38.81548,173],[-90.39203,38.81551,174],[-90.39202,38.81554,174],[-90.39201,38.81557,174],[-90.39198,38.81558,175],[-90.39197,38.81562,175],[-90.39196,38.81565,175],[-90.39196,38.81568,174],[-90.39192,38.81569,175],[-90.39188,38.8157,176],[-90.39184,38.8157,177],[-90.3918,38.81571,178],[-90.39176,38.81573,178],[-90.39172,38.81573,179],[-90.39169,38.81572,180],[-90.39166,38.81569,181],[-90.39162,38.81567,182],[-90.39159,38.81565,182],[-90.39156,38.81563,182],[-90.39154,38.81561,183],[-90.39151,38.81559,183],[-90.39149,38.81557,184],[-90.39145,38.81554,184],[-90.39142,38.81552,184],[-90.39138,38.81551,185],[-90.39133,38.8155,185],[-90.39128,38.81549,185],[-90.39125,38.81549,185],[-90.39121,38.81549,185],[-90.39117,38.81548,186],[-90.39113,38.81549,186],[-90.3911,38.8155,186],[-90.39106,38.81552,185],[-90.39103,38.81554,185],[-90.39099,38.81555,185],[-90.39096,38.81556,185],[-90.39092,38.81557,185],[-90.39087,38.81557,185],[-90.39082,38.81557,184],[-90.39077,38.81557,184],[-90.39074,38.81556,183],[-90.3907,38.81556,183],[-90.39065,38.81555,183],[-90.39061,38.81554,182],[-90.39056,38.81553,182],[-90.39052,38.81552,181],[-90.39048,38.81551,181],[-90.39044,38.8155,180],[-90.39039,38.81548,180],[-90.39035,38.81547,180],[-90.39031,38.81545,179],[-90.39027,38.81544,179],[-90.39022,38.81544,179],[-90.39018,38.81543,179],[-90.39014,38.81542,179],[-90.3901,38.8154,179],[-90.39007,38.81539,180],[-90.39003,38.81537,180],[-90.39001,38.81534,180],[-90.38997,38.81532,181],[-90.38994,38.8153,181],[-90.3899,38.81528,182],[-90.38986,38.81527,182],[-90.38982,38.81525,183],[-90.38979,38.81522,184],[-90.38975,38.8152,184],[-90.38972,38.81519,184],[-90.3897,38.81516,185],[-90.38967,38.81514,186],[-90.38964,38.81511,186],[-90.38961,38.81509,187],[-90.38959,38.81507,187],[-90.38956,38.81505,187],[-90.38953,38.81503,187],[-90.38951,38.815,188],[-90.38948,38.81498,188],[-90.38946,38.81495,188],[-90.38945,38.81492,188],[-90.38945,38.81488,189],[-90.38943,38.81485,189],[-90.38943,38.81482,189],[-90.38942,38.81479,190],[-90.38942,38.81476,190],[-90.38942,38.81472,190],[-90.38943,38.81468,190],[-90.38944,38.81464,190],[-90.38944,38.8146,190],[-90.38943,38.81457,190],[-90.38944,38.81454,190],[-90.38944,38.81451,190],[-90.38945,38.81448,190],[-90.38944,38.81445,190],[-90.38944,38.81442,189],[-90.38942,38.81439,189],[-90.38939,38.81437,190],[-90.38937,38.81435,190],[-90.38932,38.81433,190],[-90.38928,38.81432,191],[-90.38925,38.81431,191],[-90.38921,38.8143,191],[-90.38918,38.81429,192],[-90.38914,38.81427,192],[-90.3891,38.81426,192],[-90.38906,38.81425,192],[-90.38902,38.81424,192],[-90.38898,38.81423,192],[-90.38895,38.81423,192],[-90.38891,38.81423,192],[-90.38886,38.81424,193],[-90.38882,38.81422,194],[-90.38879,38.81421,194],[-90.38875,38.81419,195],[-90.38871,38.81418,195],[-90.38868,38.81417,196],[-90.38864,38.81415,196],[-90.38861,38.81415,196],[-90.38857,38.81413,197],[-90.38853,38.81412,197],[-90.38849,38.8141,197],[-90.38845,38.81408,197],[-90.38841,38.81407,197],[-90.38837,38.81405,198],[-90.38833,38.81404,198],[-90.38828,38.81402,198],[-90.38824,38.814,198],[-90.38821,38.81399,198],[-90.38817,38.81397,198],[-90.38813,38.81396,198],[-90.38808,38.81396,199],[-90.38804,38.81396,199],[-90.388,38.81397,199],[-90.38796,38.81398,199],[-90.38791,38.81399,199],[-90.38787,38.81399,199],[-90.38783,38.814,199],[-90.38779,38.81401,199],[-90.38775,38.81401,200],[-90.3877,38.81401,200],[-90.38766,38.814,200],[-90.38762,38.81397,200],[-90.38759,38.81394,200],[-90.38755,38.81392,200],[-90.38753,38.8139,200],[-90.38751,38.81388,199],[-90.3875,38.81385,199],[-90.38749,38.81382,198],[-90.3875,38.81378,198],[-90.3875,38.81375,198],[-90.3875,38.81371,197],[-90.38751,38.81367,196],[-90.38751,38.81364,196],[-90.38752,38.8136,196],[-90.38752,38.81357,195],[-90.38753,38.81353,195],[-90.38752,38.8135,195],[-90.38753,38.81347,195],[-90.38754,38.81344,195],[-90.38755,38.81341,194],[-90.38755,38.81338,194],[-90.38756,38.81335,194],[-90.38756,38.81332,194],[-90.38758,38.81329,194],[-90.38762,38.81329,194],[-90.38767,38.81329,194],[-90.38771,38.81328,195],[-90.38775,38.81328,195],[-90.38779,38.81327,195],[-90.38783,38.81327,195],[-90.38786,38.81325,194],[-90.3879,38.81324,194],[-90.38792,38.81321,194],[-90.38792,38.81318,193],[-90.38795,38.81316,193],[-90.38796,38.81313,192],[-90.38797,38.8131,192],[-90.38799,38.81307,191],[-90.38799,38.81304,191],[-90.388,38.81301,190],[-90.388,38.81298,190],[-90.388,38.81294,190],[-90.38799,38.81291,189],[-90.38799,38.81288,189],[-90.388,38.81285,189],[-90.38801,38.81282,188],[-90.38801,38.8128,188],[-90.38802,38.81277,187],[-90.38806,38.81275,187],[-90.3881,38.81275,186],[-90.38814,38.81274,184],[-90.38818,38.81272,183],[-90.38821,38.81271,182],[-90.38824,38.8127,181],[-90.38828,38.8127,179],[-90.38832,38.8127,178],[-90.38836,38.8127,177],[-90.38839,38.81268,176],[-90.38843,38.81268,175],[-90.38846,38.81266,174],[-90.38848,38.81264,173],[-90.3885,38.81262,172],[-90.38853,38.81259,171],[-90.38856,38.81258,170],[-90.38856,38.81255,170],[-90.38856,38.81252,170],[-90.38856,38.81249,169],[-90.38859,38.81246,168],[-90.38859,38.81243,168],[-90.38856,38.81241,168],[-90.38854,38.81238,168],[-90.38855,38.81235,167],[-90.38856,38.81232,166],[-90.38858,38.81229,165],[-90.3886,38.81227,165],[-90.38864,38.81226,164],[-90.38868,38.81226,164],[-90.38871,38.81226,163],[-90.38874,38.81224,163],[-90.38876,38.81221,162],[-90.38878,38.81218,162],[-90.38879,38.81215,161],[-90.38878,38.81212,161],[-90.38876,38.81209,161],[-90.38873,38.81207,161],[-90.38869,38.81205,161],[-90.38866,38.81204,162],[-90.38863,38.81202,162],[-90.38861,38.81199,162],[-90.38858,38.81197,162],[-90.38855,38.81195,163],[-90.38852,38.81192,163],[-90.38851,38.81189,164],[-90.38851,38.81186,164],[-90.38852,38.81182,164],[-90.38854,38.81179,164],[-90.38855,38.81177,164],[-90.38858,38.81174,164],[-90.38861,38.81172,164],[-90.38863,38.8117,164],[-90.38867,38.81167,163],[-90.3887,38.81165,163],[-90.38872,38.81163,162],[-90.38875,38.81161,162],[-90.38877,38.81159,161],[-90.38877,38.81156,161],[-90.38876,38.81153,161],[-90.3888,38.81152,160],[-90.38883,38.81152,160],[-90.38887,38.81152,159],[-90.38891,38.81151,158],[-90.38895,38.8115,157],[-90.38899,38.81149,156],[-90.38903,38.81148,155],[-90.38906,38.81148,154],[-90.3891,38.81147,153],[-90.38913,38.81144,152],[-90.38917,38.81141,152],[-90.38919,38.81139,152],[-90.38922,38.81137,152],[-90.38926,38.81136,152],[-90.3893,38.81136,152],[-90.38934,38.81137,152],[-90.38938,38.81136,152],[-90.3894,38.81134,152],[-90.38942,38.8113,152],[-90.38943,38.81127,152],[-90.38946,38.81125,151],[-90.38948,38.81122,151],[-90.38949,38.81118,151],[-90.38952,38.81116,151],[-90.38956,38.81116,151],[-90.3896,38.81116,151],[-90.38964,38.81116,151],[-90.38969,38.81117,150],[-90.38972,38.81117,150],[-90.38977,38.81117,150],[-90.38981,38.81117,149],[-90.38985,38.81115,149],[-90.38989,38.81113,148],[-90.38992,38.81112,148],[-90.38997,38.81113,147],[-90.39001,38.81114,146],[-90.39005,38.81114,146],[-90.39009,38.81115,145],[-90.39014,38.81116,144],[-90.39018,38.81117,144],[-90.39023,38.81117,143],[-90.39027,38.81116,143],[-90.39031,38.81116,142],[-90.39035,38.81117,142],[-90.39039,38.81118,142],[-90.39044,38.8112,142],[-90.39046,38.81122,142],[-90.39049,38.81123,142],[-90.39053,38.81124,142],[-90.39056,38.81125,142],[-90.39061,38.81124,142],[-90.39065,38.81123,142],[-90.39068,38.81121,142],[-90.39071,38.81119,141],[-90.39075,38.81118,141],[-90.39079,38.81117,141],[-90.39081,38.81115,141],[-90.39081,38.81112,141],[-90.3908,38.81109,140]]],
        "bbox": [
          -90.38749,
          38.81747,
          -90.39224,
          38.81087
        ]
      },
      "properties": {
        "name": "2.1.2023"
      }
    }
  ]
}