{
  "type": "FeatureCollection",
  "features": [
    {
      "type": "Feature",
      "geometry": {
        "type": "MultiLineString",
        "coordinates": [[[-90.39491,38.81172,133],[-90.39489,38.81175,134],[-90.39487,38.81177,134],[-90.39485,38.81179,134],[-90.39481,38.8118,134],[-90.39479,38.81183,135],[-90.39477,38.81185,135],[-90.39474,38.81187,136],[-90.3947,38.81189,136],[-90.39468,38.81192,136],[-90.39465,38.81194,137],[-90.39463,38.81197,137],[-90.39461,38.81199,137],[-90.39457,38.81201,137],[-90.39454,38.81203,137],[-90.39451,38.81205,137],[-90.39449,38.81208,137],[-90.39447,38.8121,137],[-90.39444,38.81212,138],[-90.39442,38.81214,138],[-90.3944,38.81217,138],[-90.39438,38.81219,138],[-90.39436,38.81221,138],[-90.39432,38.81223,137],[-90.39428,38.81223,137],[-90.39425,38.81225,137],[-90.39424,38.81228,137],[-90.39422,38.81231,137],[-90.3942,38.81233,137],[-90.39417,38.81236,137],[-90.39415,38.81238,137],[-90.39412,38.8124,137],[-90.3941,38.81242,137],[-90.39407,38.81244,137],[-90.39404,38.81245,137],[-90.39401,38.81247,137],[-90.39399,38.8125,137],[-90.39397,38.81252,136],[-90.39393,38.81254,136],[-90.3939,38.81256,136],[-90.39388,38.81258,136],[-90.39385,38.8126,135],[-90.39381,38.81262,135],[-90.39379,38.81264,135],[-90.39376,38.81266,135],[-90.39373,38.81268,134],[-90.3937,38.8127,134],[-90.39367,38.81272,134],[-90.39363,38.81274,134],[-90.39361,38.81276,134],[-90.39356,38.81276,134],[-90.39353,38.81275,134],[-90.39349,38.81274,134],[-90.39346,38.81277,134],[-90.39344,38.81279,134],[-90.39341,38.81282,134],[-90.39339,38.81285,134],[-90.39336,38.81288,134],[-90.39334,38.8129,134],[-90.39332,38.81293,133],[-90.39329,38.81294,133],[-90.39325,38.81294,133],[-90.39321,38.81294,133],[-90.39317,38.81293,133],[-90.39313,38.81292,133],[-90.39309,38.81293,133],[-90.39309,38.81299,133],[-90.39308,38.81304,133],[-90.39308,38.81307,132],[-90.39306,38.8131,132],[-90.39304,38.81313,133],[-90.39301,38.81315,133],[-90.39299,38.81317,133],[-90.39296,38.8132,133],[-90.39294,38.81323,133],[-90.3929,38.81325,133],[-90.39288,38.81327,134],[-90.39286,38.8133,134],[-90.39284,38.81333,134],[-90.39281,38.81335,134],[-90.39277,38.81336,135],[-90.39275,38.81339,135],[-90.39274,38.81342,136],[-90.3927,38.81343,136],[-90.39267,38.81344,136],[-90.39266,38.81347,137],[-90.39265,38.8135,137],[-90.39263,38.81352,137],[-90.39261,38.81355,138],[-90.39259,38.81358,138],[-90.39257,38.8136,138],[-90.39255,38.81363,138],[-90.39255,38.81366,138],[-90.39254,38.8137,138],[-90.39251,38.81372,138],[-90.39251,38.81375,138],[-90.39252,38.81378,138],[-90.3925,38.81381,138],[-90.39248,38.81383,137],[-90.39246,38.81386,137],[-90.39244,38.81388,136],[-90.39241,38.8139,136],[-90.39239,38.81392,137],[-90.39237,38.81395,138],[-90.39235,38.81398,140],[-90.39233,38.814,141],[-90.39231,38.81402,142],[-90.39229,38.81405,143],[-90.39226,38.81407,144],[-90.39222,38.81408,145],[-90.39224,38.8141,146],[-90.39225,38.81413,148],[-90.39227,38.81416,150],[-90.3923,38.81419,151],[-90.39232,38.81421,151],[-90.39235,38.81424,151],[-90.39237,38.81426,152],[-90.39241,38.81427,152],[-90.39245,38.81429,152],[-90.39248,38.8143,152],[-90.39252,38.81431,152],[-90.39255,38.8143,152],[-90.39259,38.8143,151],[-90.39255,38.8143,152],[-90.39256,38.81433,152],[-90.39258,38.81435,153],[-90.39262,38.81437,153],[-90.39264,38.81439,153],[-90.39267,38.81441,153],[-90.39269,38.81443,153],[-90.39272,38.81445,153],[-90.39275,38.81448,153],[-90.39278,38.81449,152],[-90.39281,38.8145,152],[-90.39284,38.81452,151],[-90.39288,38.81454,150],[-90.39291,38.81457,149],[-90.39293,38.8146,149],[-90.39295,38.81462,148],[-90.39296,38.81465,148],[-90.39296,38.81468,148],[-90.39295,38.81471,148],[-90.39296,38.81474,148],[-90.39296,38.81477,148],[-90.39297,38.81481,148],[-90.39298,38.81484,147],[-90.39299,38.81487,147],[-90.39298,38.8149,148],[-90.39299,38.81492,148],[-90.39302,38.81495,147],[-90.39304,38.81497,147],[-90.39307,38.815,147],[-90.3931,38.81503,146],[-90.39313,38.81505,146],[-90.39315,38.81507,145],[-90.39317,38.8151,144],[-90.39318,38.81512,144],[-90.39319,38.81515,143],[-90.3932,38.81519,143],[-90.39319,38.81521,143],[-90.39318,38.81524,143],[-90.39314,38.81525,144],[-90.39311,38.81525,144],[-90.39309,38.81527,145],[-90.39306,38.81529,145],[-90.39303,38.8153,145],[-90.393,38.81533,145],[-90.39297,38.81535,145],[-90.39294,38.81538,145],[-90.3929,38.81539,146],[-90.39286,38.8154,147],[-90.39283,38.81542,147],[-90.3928,38.81543,148],[-90.39276,38.81545,148],[-90.39274,38.81548,148],[-90.39273,38.81551,148],[-90.39269,38.81552,149],[-90.39265,38.81554,150],[-90.39262,38.81556,151],[-90.39262,38.81559,150],[-90.39262,38.81562,149],[-90.39262,38.81565,149],[-90.3926,38.81568,149],[-90.39259,38.81571,148],[-90.3926,38.81573,148],[-90.39259,38.81576,147],[-90.3926,38.81579,146],[-90.3926,38.81582,146],[-90.3926,38.81585,145],[-90.39262,38.81587,145],[-90.39265,38.81589,144],[-90.39266,38.81593,143],[-90.39266,38.81596,143],[-90.39266,38.81599,143],[-90.39266,38.81601,143],[-90.39265,38.81604,144],[-90.39263,38.81607,144],[-90.39259,38.81608,145],[-90.39256,38.8161,146],[-90.39253,38.81611,147],[-90.3925,38.81613,148],[-90.39246,38.81614,149],[-90.39243,38.81614,150],[-90.3924,38.81616,150],[-90.39238,38.81619,150],[-90.39236,38.81621,150],[-90.39233,38.81623,151],[-90.39233,38.81626,150],[-90.39232,38.81629,149],[-90.39231,38.81632,149],[-90.39232,38.81634,148],[-90.39232,38.81637,147],[-90.3923,38.8164,147],[-90.39227,38.81641,147],[-90.39225,38.81644,147],[-90.39223,38.81647,148],[-90.39221,38.8165,148],[-90.3922,38.81653,148],[-90.39216,38.81654,148],[-90.39213,38.81656,149],[-90.3921,38.81658,149],[-90.39209,38.81661,149],[-90.39212,38.81659,148],[-90.39215,38.81657,148],[-90.39217,38.81654,148],[-90.39218,38.81651,148],[-90.39219,38.81648,148],[-90.3922,38.81646,148],[-90.39222,38.81643,148],[-90.39223,38.8164,148],[-90.39223,38.81637,149],[-90.39221,38.81634,150],[-90.39221,38.81632,151],[-90.39224,38.81629,151],[-90.39225,38.81627,152],[-90.39228,38.81625,151],[-90.39231,38.81623,151],[-90.39234,38.81622,151],[-90.39237,38.8162,150],[-90.39239,38.81618,150],[-90.39241,38.81615,150],[-90.39245,38.81614,150],[-90.39249,38.81613,148],[-90.39251,38.81611,148],[-90.39255,38.81609,147],[-90.39258,38.81607,146],[-90.39261,38.81606,145],[-90.39264,38.81603,144],[-90.39265,38.816,144],[-90.39266,38.81597,143],[-90.39267,38.81594,143],[-90.39266,38.81591,143],[-90.39265,38.81588,144],[-90.39264,38.81584,144],[-90.39262,38.81579,146],[-90.3926,38.81574,147],[-90.39257,38.81571,149],[-90.39257,38.81568,150],[-90.39257,38.81565,150],[-90.39256,38.81562,151],[-90.3926,38.81562,150],[-90.39264,38.81561,149],[-90.39267,38.81559,148],[-90.39269,38.81556,148],[-90.39271,38.81553,148],[-90.39273,38.81551,148],[-90.39276,38.81549,147],[-90.39279,38.81547,147],[-90.39282,38.81545,146],[-90.39283,38.81542,147],[-90.39286,38.81541,146],[-90.3929,38.8154,146],[-90.39293,38.81539,145],[-90.39297,38.81538,145],[-90.393,38.81537,144],[-90.39302,38.81534,144],[-90.39305,38.81532,144],[-90.39306,38.8153,145],[-90.39308,38.81527,145],[-90.39309,38.81524,145],[-90.3931,38.81521,145],[-90.39312,38.81518,145],[-90.39313,38.81516,145],[-90.39313,38.81513,145],[-90.39313,38.8151,145],[-90.39312,38.81507,146],[-90.39311,38.81504,146],[-90.39309,38.81502,147],[-90.39307,38.81499,147],[-90.39304,38.81496,147],[-90.39301,38.81494,148],[-90.39299,38.81492,148],[-90.39298,38.81489,148],[-90.39297,38.81486,148],[-90.39296,38.81483,148],[-90.39296,38.81479,148],[-90.39296,38.81477,148],[-90.39296,38.81474,148],[-90.39295,38.8147,148],[-90.39294,38.81467,148],[-90.39293,38.81464,149],[-90.39292,38.81461,149],[-90.3929,38.81459,149],[-90.39288,38.81456,150],[-90.39285,38.81454,151],[-90.39283,38.81453,151],[-90.3928,38.8145,152],[-90.39276,38.81449,153],[-90.39273,38.81447,153],[-90.3927,38.81445,153],[-90.39268,38.81443,153],[-90.39267,38.8144,153],[-90.39264,38.81437,152],[-90.39262,38.81435,152],[-90.39258,38.81433,152],[-90.39253,38.81431,152],[-90.39249,38.81429,152],[-90.39246,38.81428,152],[-90.39242,38.81427,152],[-90.39239,38.81425,151],[-90.39236,38.81423,151],[-90.39233,38.81421,151],[-90.3923,38.81419,151],[-90.39227,38.81418,151],[-90.39224,38.81416,150],[-90.39221,38.81414,149],[-90.39219,38.81411,147],[-90.39217,38.81408,145],[-90.39214,38.8141,147],[-90.3921,38.81411,148],[-90.39207,38.81411,148],[-90.39203,38.81412,149],[-90.39199,38.81414,150],[-90.39195,38.81414,150],[-90.39192,38.81414,151],[-90.39189,38.81416,152],[-90.39189,38.81419,153],[-90.39186,38.81421,155],[-90.39183,38.81422,156],[-90.3918,38.81424,157],[-90.3918,38.81427,158],[-90.3918,38.81429,158],[-90.3918,38.81432,159],[-90.3918,38.81435,160],[-90.39181,38.81438,161],[-90.39184,38.81439,160],[-90.39184,38.81443,161],[-90.39186,38.81445,161],[-90.39186,38.81448,161],[-90.39186,38.81451,162],[-90.39186,38.81454,162],[-90.39188,38.81457,162],[-90.39189,38.8146,162],[-90.39189,38.81462,163],[-90.3919,38.81465,163],[-90.3919,38.81468,163],[-90.39191,38.81471,163],[-90.39192,38.81474,163],[-90.39192,38.81477,164],[-90.39194,38.8148,164],[-90.39194,38.81483,164],[-90.39194,38.81486,164],[-90.39193,38.81489,165],[-90.39193,38.81492,165],[-90.39194,38.81495,165],[-90.39195,38.81497,165],[-90.39196,38.815,165],[-90.39199,38.81503,165],[-90.39201,38.81505,165],[-90.39202,38.81508,166],[-90.39201,38.81511,168],[-90.39201,38.81514,169],[-90.39201,38.81517,170],[-90.39201,38.8152,171],[-90.392,38.81523,172],[-90.39198,38.81526,174],[-90.39198,38.81529,174],[-90.39199,38.81531,174],[-90.392,38.81534,174],[-90.39201,38.81537,174],[-90.39203,38.8154,173],[-90.39205,38.81543,173],[-90.39206,38.81545,172],[-90.39207,38.81548,172],[-90.39207,38.81551,172],[-90.39207,38.81554,172],[-90.39207,38.81557,172],[-90.39206,38.81559,172],[-90.39203,38.81561,173],[-90.392,38.81564,173],[-90.39199,38.81566,173],[-90.39195,38.81567,175],[-90.39191,38.81567,176],[-90.39188,38.81568,176],[-90.39185,38.81569,177],[-90.39181,38.81571,177],[-90.39178,38.8157,178],[-90.39175,38.81568,179],[-90.39172,38.81566,180],[-90.39169,38.81564,181],[-90.39166,38.81563,182],[-90.39163,38.81561,182],[-90.39161,38.81559,183],[-90.3916,38.81556,183],[-90.39156,38.81555,183],[-90.39153,38.81553,183],[-90.3915,38.81551,184],[-90.39148,38.81549,184],[-90.39145,38.81547,184],[-90.39142,38.81545,185],[-90.3914,38.81543,185],[-90.39136,38.81541,185],[-90.39133,38.8154,185],[-90.39129,38.81539,185],[-90.39126,38.81539,186],[-90.39122,38.81538,186],[-90.39118,38.81538,186],[-90.39114,38.81539,186],[-90.3911,38.8154,186],[-90.39106,38.81541,186],[-90.39102,38.81542,186],[-90.39098,38.81543,186],[-90.39094,38.81545,186],[-90.39091,38.81548,185],[-90.39088,38.81549,185],[-90.39083,38.8155,185],[-90.39079,38.8155,184],[-90.39075,38.8155,184],[-90.39072,38.8155,184],[-90.39068,38.81549,183],[-90.39064,38.81548,183],[-90.39061,38.81548,183],[-90.39057,38.81548,182],[-90.39053,38.81548,182],[-90.39049,38.81548,181],[-90.39045,38.81548,181],[-90.39042,38.81547,180],[-90.39038,38.81546,180],[-90.39034,38.81544,180],[-90.39031,38.81544,180],[-90.39027,38.81542,179],[-90.39024,38.81541,180],[-90.39022,38.81539,180],[-90.39018,38.81537,180],[-90.39015,38.81535,180],[-90.39012,38.81533,181],[-90.3901,38.81531,181],[-90.39008,38.81529,181],[-90.39005,38.81527,182],[-90.39001,38.81525,182],[-90.38998,38.81524,183],[-90.38995,38.81524,183],[-90.38992,38.81522,183],[-90.38989,38.8152,184],[-90.38985,38.81517,185],[-90.38981,38.81514,185],[-90.38978,38.81512,186],[-90.38975,38.81511,186],[-90.38973,38.81509,187],[-90.3897,38.81507,187],[-90.38967,38.81506,187],[-90.38963,38.81505,187],[-90.3896,38.81503,188],[-90.38959,38.815,188],[-90.3896,38.81497,188],[-90.38961,38.81495,189],[-90.3896,38.81492,189],[-90.3896,38.81489,189],[-90.38962,38.81486,190],[-90.38965,38.81484,190],[-90.38968,38.81481,190],[-90.38964,38.81479,190],[-90.38962,38.81476,191],[-90.38959,38.81474,191],[-90.38957,38.81471,191],[-90.38956,38.81468,191],[-90.38954,38.81466,190],[-90.38953,38.81462,190],[-90.38952,38.81458,190],[-90.38952,38.81455,190],[-90.3895,38.81452,190],[-90.38948,38.8145,190],[-90.38945,38.81448,190],[-90.38943,38.81446,190],[-90.3894,38.81444,190],[-90.38937,38.81442,190],[-90.38934,38.8144,190],[-90.38931,38.81438,190],[-90.38929,38.81436,191],[-90.38928,38.81433,191],[-90.38927,38.8143,191],[-90.38925,38.81427,191],[-90.38923,38.81425,191],[-90.38921,38.81423,192],[-90.38918,38.8142,192],[-90.38915,38.81419,192],[-90.38912,38.81417,192],[-90.38909,38.81417,192],[-90.38905,38.81416,192],[-90.38901,38.81416,192],[-90.38898,38.81415,192],[-90.38893,38.81414,192],[-90.38889,38.81414,192],[-90.38886,38.81414,193],[-90.38883,38.81413,193],[-90.38879,38.81412,194],[-90.38876,38.81411,194],[-90.38872,38.8141,194],[-90.38869,38.81409,195],[-90.38865,38.81408,195],[-90.38862,38.81407,196],[-90.38858,38.81406,196],[-90.38855,38.81404,196],[-90.38851,38.81403,196],[-90.38848,38.81401,197],[-90.38845,38.814,197],[-90.38843,38.81398,197],[-90.3884,38.81396,197],[-90.38837,38.81394,197],[-90.38833,38.81392,198],[-90.3883,38.81391,198],[-90.38826,38.8139,198],[-90.38822,38.8139,198],[-90.38818,38.81389,198],[-90.38815,38.81388,198],[-90.38811,38.81388,198],[-90.38807,38.81388,198],[-90.38803,38.81388,199],[-90.38799,38.81388,199],[-90.38796,38.81389,199],[-90.38792,38.81391,199],[-90.38788,38.81391,199],[-90.38785,38.81392,199],[-90.38781,38.81392,199],[-90.38777,38.81392,200],[-90.38773,38.81393,200],[-90.38769,38.81394,200],[-90.38766,38.81394,200],[-90.38765,38.81391,200],[-90.38765,38.81388,199],[-90.38765,38.81385,199],[-90.38763,38.81383,199],[-90.38761,38.8138,198],[-90.38759,38.81378,198],[-90.38759,38.81375,198],[-90.3876,38.81372,198],[-90.38759,38.81369,197],[-90.38758,38.81366,197],[-90.38757,38.81363,196],[-90.38756,38.8136,196],[-90.38755,38.81357,196],[-90.38755,38.81354,195],[-90.38755,38.81351,195],[-90.38755,38.81348,195],[-90.38757,38.81345,195],[-90.38759,38.81343,195],[-90.3876,38.8134,195],[-90.38761,38.81337,195],[-90.38762,38.81334,194],[-90.38762,38.81331,194],[-90.38765,38.81329,194],[-90.38768,38.81328,194],[-90.38772,38.81327,194],[-90.38775,38.81327,195],[-90.38779,38.81328,195],[-90.38782,38.81327,195],[-90.38786,38.81327,195],[-90.38789,38.81329,195],[-90.38791,38.81326,194],[-90.38792,38.81324,194],[-90.38796,38.81322,194],[-90.38798,38.8132,193],[-90.388,38.81318,193],[-90.38801,38.81315,192],[-90.38805,38.81313,192],[-90.38807,38.81311,191],[-90.38807,38.81308,191],[-90.38807,38.81305,190],[-90.3881,38.81303,189],[-90.3881,38.813,189],[-90.38809,38.81298,189],[-90.38808,38.81295,189],[-90.38807,38.81293,189],[-90.38808,38.81289,188],[-90.38809,38.81287,188],[-90.38809,38.81284,187],[-90.38808,38.81281,187],[-90.38811,38.81279,186],[-90.38815,38.81279,185],[-90.38815,38.81276,184],[-90.38819,38.81275,183],[-90.38823,38.81275,182],[-90.38826,38.81276,181],[-90.3883,38.81275,180],[-90.38833,38.81274,179],[-90.38836,38.81272,178],[-90.38838,38.8127,177],[-90.38842,38.8127,175],[-90.38845,38.81269,174],[-90.38847,38.81266,173],[-90.38851,38.81265,172],[-90.38854,38.81265,171],[-90.38857,38.81263,170],[-90.38858,38.8126,170],[-90.38858,38.81257,170],[-90.3886,38.81255,169],[-90.38862,38.81252,168],[-90.38863,38.8125,168],[-90.38864,38.81247,167],[-90.38864,38.81244,167],[-90.38862,38.81242,167],[-90.38863,38.81239,166],[-90.38865,38.81236,165],[-90.38868,38.81234,165],[-90.38871,38.81232,164],[-90.38874,38.8123,164],[-90.38875,38.81228,163],[-90.38877,38.81225,163],[-90.38877,38.81223,162],[-90.38878,38.8122,162],[-90.3888,38.81217,161],[-90.38881,38.81215,161],[-90.38881,38.81212,161],[-90.38882,38.81209,160],[-90.38881,38.81206,160],[-90.38878,38.81205,160],[-90.38875,38.81203,160],[-90.38872,38.81201,160],[-90.38868,38.812,161],[-90.38865,38.81198,161],[-90.38862,38.81196,161],[-90.38858,38.81195,162],[-90.38855,38.81192,163],[-90.38855,38.81189,163],[-90.38854,38.81187,163],[-90.38855,38.81184,163],[-90.38857,38.81181,163],[-90.38859,38.81179,163],[-90.38861,38.81176,163],[-90.38864,38.81174,163],[-90.38866,38.81172,163],[-90.38868,38.8117,163],[-90.3887,38.81167,163],[-90.38874,38.81166,162],[-90.38876,38.81164,162],[-90.38877,38.81161,161],[-90.38879,38.81158,161],[-90.38883,38.81157,160],[-90.38886,38.81156,159],[-90.38886,38.81153,159],[-90.38889,38.81151,158],[-90.38892,38.81149,157],[-90.38895,38.81148,157],[-90.38899,38.81149,156],[-90.38901,38.81151,155],[-90.38904,38.81152,155],[-90.38907,38.8115,154],[-90.38909,38.81148,153],[-90.38911,38.81145,153],[-90.38914,38.81143,152],[-90.38917,38.81142,152],[-90.3892,38.8114,152],[-90.38922,38.81138,152],[-90.38926,38.81137,152],[-90.3893,38.81139,152],[-90.38933,38.81139,152],[-90.38937,38.81138,152],[-90.38939,38.81135,152],[-90.38941,38.81133,152],[-90.38943,38.81131,152],[-90.38946,38.81129,151],[-90.38949,38.81127,151],[-90.38951,38.81124,151],[-90.38953,38.81122,151],[-90.38956,38.81119,151],[-90.38959,38.81118,151],[-90.38963,38.81117,151],[-90.38966,38.81119,150],[-90.3897,38.81119,150],[-90.38973,38.81119,150],[-90.38977,38.81119,149],[-90.38981,38.81118,149],[-90.38984,38.81117,149],[-90.38988,38.81117,148],[-90.38992,38.81117,147],[-90.38995,38.81119,147],[-90.38998,38.81119,146],[-90.39002,38.8112,146],[-90.39005,38.81122,145],[-90.39009,38.81122,145],[-90.39013,38.81122,144],[-90.39017,38.81122,144],[-90.39021,38.81121,143],[-90.39025,38.8112,143],[-90.39028,38.81121,142],[-90.39032,38.81122,142],[-90.39036,38.81122,142],[-90.3904,38.81122,142],[-90.39044,38.81123,142],[-90.39048,38.81124,142],[-90.39051,38.81125,142],[-90.39054,38.81127,142],[-90.39058,38.81127,142],[-90.39061,38.81127,142],[-90.39065,38.81126,142],[-90.39069,38.81125,142],[-90.39073,38.81123,142],[-90.39077,38.81121,141],[-90.3908,38.81119,141],[-90.39084,38.81119,141],[-90.39086,38.81122,141],[-90.39087,38.81124,141],[-90.39089,38.81127,141],[-90.39091,38.8113,141],[-90.39093,38.81132,141],[-90.39096,38.81135,141],[-90.39098,38.81137,141],[-90.391,38.81139,141],[-90.39103,38.81141,141],[-90.39105,38.81143,142],[-90.39107,38.81146,142],[-90.39108,38.81149,142],[-90.39109,38.81152,143],[-90.39109,38.81154,143],[-90.39109,38.81157,143],[-90.39108,38.8116,144],[-90.39105,38.81162,144],[-90.39102,38.81163,145],[-90.391,38.81166,145],[-90.39098,38.81168,146],[-90.39097,38.81171,146],[-90.39096,38.81174,147],[-90.39096,38.81176,147],[-90.39097,38.81179,148],[-90.39097,38.81182,148],[-90.39097,38.81185,148],[-90.39097,38.81187,149],[-90.39096,38.81191,149],[-90.39095,38.81194,150],[-90.39093,38.81196,150],[-90.39091,38.81199,149],[-90.3909,38.81202,149],[-90.3909,38.81204,149],[-90.39089,38.81207,149],[-90.39089,38.8121,149],[-90.3909,38.81213,149],[-90.39091,38.81216,149],[-90.39091,38.81219,149],[-90.39091,38.81223,149],[-90.3909,38.81226,148],[-90.3909,38.81229,148],[-90.3909,38.81232,147],[-90.39091,38.81234,146],[-90.39092,38.81237,146],[-90.39093,38.8124,145],[-90.39094,38.81243,144],[-90.39095,38.81247,143],[-90.39096,38.81249,142],[-90.39097,38.81252,142],[-90.39096,38.81255,143],[-90.39096,38.81258,144],[-90.39097,38.81261,145],[-90.39097,38.81264,145],[-90.39097,38.81267,146],[-90.39099,38.8127,146],[-90.39099,38.81272,147],[-90.39099,38.81275,148],[-90.39099,38.81278,148],[-90.391,38.81281,149],[-90.39101,38.81283,149],[-90.39103,38.81286,150],[-90.39104,38.81289,150],[-90.39105,38.81292,151],[-90.39107,38.81295,151],[-90.39109,38.81297,152],[-90.39112,38.81299,152],[-90.39113,38.81302,152],[-90.39114,38.81305,153],[-90.39116,38.81307,153],[-90.39117,38.8131,153],[-90.39119,38.81312,153],[-90.3912,38.81315,153],[-90.39122,38.81318,152],[-90.39125,38.8132,152],[-90.39128,38.81322,152],[-90.3913,38.81324,151],[-90.39134,38.81324,151],[-90.39138,38.81324,150],[-90.39142,38.81325,150],[-90.39145,38.81326,149],[-90.39149,38.81327,149],[-90.39152,38.81327,148],[-90.39155,38.81329,148],[-90.39158,38.81331,147],[-90.39161,38.81333,147],[-90.39165,38.81334,147],[-90.39167,38.81336,146],[-90.39169,38.81338,145],[-90.3917,38.81341,145],[-90.3917,38.81344,145],[-90.39169,38.81348,144],[-90.39168,38.81351,144],[-90.39166,38.81354,144],[-90.39165,38.81357,144],[-90.39163,38.8136,144],[-90.39163,38.81364,144],[-90.39164,38.81367,144],[-90.39166,38.8137,144],[-90.39169,38.81372,144],[-90.39172,38.81374,144],[-90.39175,38.81376,143],[-90.39177,38.81379,143],[-90.39179,38.81381,143],[-90.39182,38.81383,142],[-90.39185,38.81384,141],[-90.39189,38.81385,140],[-90.39192,38.81386,139],[-90.39195,38.81388,137],[-90.39198,38.8139,137],[-90.39201,38.81392,138],[-90.39204,38.81395,139],[-90.39206,38.81397,140],[-90.39209,38.81399,141],[-90.39212,38.81401,142],[-90.39214,38.81403,142],[-90.39217,38.81405,143],[-90.3922,38.81406,144],[-90.39219,38.81409,146],[-90.39223,38.81409,146],[-90.39226,38.81409,146],[-90.3923,38.81408,145],[-90.39232,38.81407,145],[-90.39235,38.81405,144],[-90.39238,38.81402,142],[-90.3924,38.814,141],[-90.39241,38.81397,140],[-90.39242,38.81394,138],[-90.39244,38.81392,138],[-90.39246,38.81389,137],[-90.39247,38.81386,137],[-90.39248,38.81383,137],[-90.3925,38.81381,138],[-90.39252,38.81378,138],[-90.39253,38.81375,138],[-90.39254,38.81373,138],[-90.39255,38.81369,138],[-90.39256,38.81367,138],[-90.39258,38.81364,138],[-90.39259,38.81361,138],[-90.39261,38.81359,138],[-90.39263,38.81356,138],[-90.39265,38.81353,137],[-90.39267,38.8135,137],[-90.39269,38.81347,136],[-90.39271,38.81345,136],[-90.39273,38.81343,136],[-90.39275,38.8134,135],[-90.39277,38.81338,135],[-90.39279,38.81336,135],[-90.39282,38.81334,134],[-90.39285,38.81332,134],[-90.39288,38.81329,134],[-90.3929,38.81327,134],[-90.39292,38.81325,133],[-90.39294,38.81323,133],[-90.39297,38.8132,133],[-90.393,38.81317,133],[-90.39302,38.81314,133],[-90.39305,38.81312,133],[-90.39307,38.8131,132],[-90.3931,38.81308,132],[-90.39313,38.81306,132],[-90.39316,38.81304,133],[-90.39318,38.81301,133],[-90.39322,38.81299,133],[-90.39325,38.81298,133],[-90.39328,38.81296,133],[-90.39331,38.81295,133],[-90.39334,38.81293,133],[-90.39338,38.81291,133],[-90.3934,38.81289,133],[-90.39342,38.81287,134],[-90.39345,38.81285,134],[-90.39348,38.81283,134],[-90.39351,38.81281,134],[-90.39354,38.81279,134],[-90.39356,38.81277,134],[-90.3936,38.81275,134],[-90.39363,38.81274,134],[-90.39366,38.81272,134],[-90.39369,38.8127,134],[-90.39372,38.81268,134],[-90.39374,38.81266,135],[-90.39377,38.81264,135],[-90.39381,38.81262,135],[-90.39384,38.81261,135],[-90.39387,38.81259,135],[-90.3939,38.81257,136],[-90.39392,38.81255,136],[-90.39395,38.81252,136],[-90.39397,38.8125,137],[-90.394,38.81247,137],[-90.39403,38.81246,137],[-90.39405,38.81244,137],[-90.39408,38.81242,137],[-90.39411,38.8124,137],[-90.39414,38.81238,137],[-90.39417,38.81236,137],[-90.3942,38.81234,137],[-90.39423,38.81232,137],[-90.39426,38.8123,137],[-90.39428,38.81227,137],[-90.39431,38.81225,137],[-90.39434,38.81223,137],[-90.39436,38.8122,138],[-90.39438,38.81218,138],[-90.3944,38.81216,138],[-90.39443,38.81214,138],[-90.39445,38.81211,137],[-90.39449,38.81209,137],[-90.39451,38.81208,137],[-90.39454,38.81205,137],[-90.39457,38.81203,137],[-90.3946,38.81202,137],[-90.39463,38.81199,137],[-90.39465,38.81197,137],[-90.39468,38.81195,137],[-90.39471,38.81192,136],[-90.39473,38.8119,136],[-90.39476,38.81188,136],[-90.39479,38.81186,135],[-90.39481,38.81183,135],[-90.39483,38.81181,134],[-90.39485,38.81179,134],[-90.39488,38.81176,134],[-90.39491,38.81174,133],[-90.39494,38.81172,133],[-90.39496,38.8117,133],[-90.395,38.81169,133],[-90.39502,38.81166,132],[-90.39503,38.81163,132],[-90.39499,38.81163,132]]],
        "bbox": [
          -90.38755,
          38.81661,
          -90.39503,
          38.81117
        ]
      },
      "properties": {
        "name": "11.2.2024"
      }
    }
  ]
}