{
  "type": "FeatureCollection",
  "features": [
    {
      "type": "Feature",
      "geometry": {
        "type": "MultiLineString",
        "coordinates": [[[-90.3941,38.81241,137],[-90.39408,38.81243,137],[-90.39405,38.81244,137],[-90.39401,38.81246,137],[-90.39397,38.81249,137],[-90.39395,38.81251,136],[-90.39393,38.81254,136],[-90.3939,38.81256,136],[-90.39388,38.81258,136],[-90.39385,38.81261,135],[-90.39381,38.81263,135],[-90.39378,38.81265,135],[-90.39375,38.81267,134],[-90.39372,38.81269,134],[-90.39369,38.81271,134],[-90.39367,38.81273,134],[-90.39364,38.81274,134],[-90.3936,38.81275,134],[-90.39357,38.81275,134],[-90.39353,38.81275,134],[-90.3935,38.81273,134],[-90.39346,38.81273,134],[-90.39344,38.81276,134],[-90.39343,38.81279,134],[-90.39342,38.81282,134],[-90.3934,38.81284,134],[-90.39337,38.81287,134],[-90.39335,38.81289,134],[-90.39333,38.81291,134],[-90.39334,38.81289,134],[-90.39329,38.81291,134],[-90.39324,38.81294,133],[-90.39321,38.81297,133],[-90.39318,38.81301,133],[-90.39314,38.81303,133],[-90.39311,38.81306,132],[-90.39309,38.81308,132],[-90.39305,38.81311,133],[-90.39302,38.81314,133],[-90.39299,38.81317,133],[-90.39295,38.81319,133],[-90.39293,38.81323,133],[-90.39291,38.81325,133],[-90.39288,38.81328,134],[-90.39286,38.81331,134],[-90.39284,38.81333,134],[-90.39281,38.81337,135],[-90.39279,38.81339,135],[-90.39275,38.81341,135],[-90.39272,38.81344,136],[-90.39269,38.81347,136],[-90.39268,38.8135,137],[-90.39267,38.81353,137],[-90.39264,38.81355,137],[-90.39261,38.81358,138],[-90.39259,38.81362,138],[-90.39258,38.81364,138],[-90.39257,38.81367,138],[-90.39255,38.81371,138],[-90.39253,38.81374,138],[-90.39251,38.81378,138],[-90.39249,38.81381,138],[-90.39246,38.81384,137],[-90.39244,38.81388,136],[-90.39241,38.8139,136],[-90.39238,38.81393,138],[-90.39237,38.81396,139],[-90.39234,38.81399,140],[-90.39231,38.81401,141],[-90.3923,38.81404,143],[-90.39225,38.81406,144],[-90.39222,38.81408,145],[-90.39218,38.81407,145],[-90.39214,38.81407,145],[-90.3921,38.81406,145],[-90.39206,38.81407,146],[-90.39202,38.81407,146],[-90.39198,38.81408,147],[-90.39195,38.8141,148],[-90.39192,38.81412,150],[-90.3919,38.81415,152],[-90.39188,38.81417,153],[-90.39186,38.8142,155],[-90.39186,38.81423,155],[-90.39184,38.81426,157],[-90.39183,38.81429,158],[-90.39184,38.81432,158],[-90.39184,38.81435,159],[-90.39184,38.81439,160],[-90.39185,38.81442,160],[-90.39184,38.81445,162],[-90.39184,38.81448,162],[-90.39186,38.81451,162],[-90.39189,38.81454,161],[-90.3919,38.81457,162],[-90.39191,38.81461,162],[-90.39192,38.81464,162],[-90.39193,38.81467,162],[-90.39194,38.8147,162],[-90.39195,38.81473,162],[-90.39195,38.81476,163],[-90.39195,38.8148,163],[-90.39194,38.81483,164],[-90.39192,38.81485,165],[-90.39193,38.81489,165],[-90.39195,38.81492,164],[-90.39196,38.81495,165],[-90.39198,38.81498,164],[-90.392,38.81502,165],[-90.39201,38.81505,165],[-90.39202,38.81508,166],[-90.39203,38.81511,167],[-90.39202,38.81514,168],[-90.39201,38.81517,170],[-90.39199,38.81519,171],[-90.39198,38.81521,172],[-90.39197,38.81524,173],[-90.39197,38.81527,175],[-90.39196,38.81531,175],[-90.39196,38.81534,175],[-90.39198,38.81537,175],[-90.392,38.81539,174],[-90.392,38.81542,175],[-90.39199,38.81545,175],[-90.39198,38.81548,175],[-90.39198,38.81551,176],[-90.39197,38.81554,176],[-90.39195,38.81558,177],[-90.39195,38.81561,176],[-90.39194,38.81564,176],[-90.39194,38.81567,175],[-90.39191,38.81562,177],[-90.39186,38.81564,177],[-90.3918,38.81563,179],[-90.39174,38.81565,180],[-90.39173,38.8157,179],[-90.39175,38.81574,179],[-90.39176,38.81578,178],[-90.39177,38.81581,177],[-90.39177,38.81584,176],[-90.39178,38.81588,175],[-90.39178,38.8159,175],[-90.39178,38.81593,174],[-90.39178,38.81596,174],[-90.39177,38.81599,173],[-90.39175,38.81602,173],[-90.39174,38.81605,173],[-90.39173,38.81609,172],[-90.39172,38.81612,172],[-90.39172,38.81615,170],[-90.39172,38.81618,169],[-90.39171,38.81621,169],[-90.39169,38.81623,168],[-90.39168,38.81627,167],[-90.39167,38.8163,167],[-90.39164,38.81633,166],[-90.39162,38.81636,166],[-90.3916,38.81638,165],[-90.39157,38.81641,165],[-90.39154,38.81644,165],[-90.39152,38.81647,165],[-90.3915,38.8165,164],[-90.39148,38.81653,164],[-90.39147,38.81655,163],[-90.39144,38.81658,163],[-90.39143,38.81661,162],[-90.39141,38.81663,162],[-90.39139,38.8166,164],[-90.39139,38.81663,163],[-90.39136,38.81664,163],[-90.39133,38.81666,163],[-90.39132,38.8167,161],[-90.3913,38.81672,161],[-90.39127,38.81674,161],[-90.39124,38.81675,161],[-90.39122,38.81678,161],[-90.39121,38.81681,160],[-90.39116,38.8168,161],[-90.39111,38.81679,162],[-90.39105,38.81678,163],[-90.39101,38.81679,163],[-90.39098,38.81678,163],[-90.39092,38.81679,163],[-90.39087,38.81679,164],[-90.39083,38.8168,164],[-90.39079,38.81684,164],[-90.3908,38.81679,164],[-90.39076,38.81671,166],[-90.39076,38.81678,165],[-90.39069,38.81681,165],[-90.39064,38.81687,165],[-90.39059,38.81689,165],[-90.39054,38.81692,165],[-90.39053,38.81697,164],[-90.39049,38.81694,165],[-90.39049,38.81699,163],[-90.39051,38.81702,162],[-90.3905,38.81706,161],[-90.3905,38.8171,160],[-90.3905,38.81715,158],[-90.39049,38.81721,156],[-90.39047,38.81725,155],[-90.39045,38.81729,154],[-90.3905,38.81729,153],[-90.39054,38.81728,154],[-90.39055,38.81731,152],[-90.39057,38.81735,151],[-90.39061,38.81737,149],[-90.39063,38.81741,148],[-90.39063,38.81745,146],[-90.3906,38.81748,146],[-90.39056,38.8175,145],[-90.39051,38.81751,146],[-90.39051,38.81755,145],[-90.39049,38.81759,144],[-90.39045,38.81758,145],[-90.39042,38.81756,146],[-90.39038,38.81758,146],[-90.39034,38.8176,146],[-90.39031,38.81763,145],[-90.39027,38.81764,146],[-90.39022,38.81767,146],[-90.3902,38.81771,145],[-90.39017,38.81774,145],[-90.39011,38.81774,146],[-90.39006,38.81775,147],[-90.39004,38.81778,147],[-90.39002,38.81781,147],[-90.39001,38.81784,146],[-90.39005,38.81786,145],[-90.39008,38.81791,144],[-90.3901,38.81795,143],[-90.39013,38.81796,143],[-90.39015,38.81794,142],[-90.39018,38.81796,142],[-90.39021,38.81798,141],[-90.39025,38.818,140],[-90.39029,38.81799,140],[-90.39033,38.81801,139],[-90.39033,38.81804,139],[-90.39033,38.81808,139],[-90.39034,38.81811,138],[-90.39036,38.81814,138],[-90.3904,38.81813,138],[-90.39044,38.81817,137],[-90.39037,38.81811,138],[-90.39032,38.81807,139],[-90.39027,38.81806,140],[-90.39027,38.81801,140],[-90.3903,38.81797,140],[-90.39025,38.81796,141],[-90.39021,38.81795,142],[-90.3902,38.81792,142],[-90.39017,38.8179,143],[-90.39014,38.8179,143],[-90.39008,38.81789,144],[-90.39008,38.81784,145],[-90.39009,38.81781,145],[-90.39012,38.81777,145],[-90.39014,38.81775,146],[-90.39018,38.81774,145],[-90.39022,38.81772,145],[-90.39024,38.8177,145],[-90.39027,38.81766,145],[-90.3903,38.81764,145],[-90.39032,38.81762,145],[-90.39035,38.81759,146],[-90.39038,38.81757,146],[-90.39041,38.81755,146],[-90.39043,38.81752,146],[-90.39047,38.81751,146],[-90.39051,38.81751,146],[-90.39056,38.81751,145],[-90.39059,38.8175,145],[-90.39058,38.81747,146],[-90.39057,38.81743,148],[-90.39057,38.81739,149],[-90.39056,38.81734,151],[-90.39056,38.81731,152],[-90.39053,38.81729,153],[-90.3905,38.81731,153],[-90.39055,38.8173,153],[-90.39059,38.81732,151],[-90.39064,38.81733,150],[-90.39058,38.81729,153],[-90.39066,38.81729,151],[-90.39071,38.81735,148],[-90.39073,38.8174,146],[-90.39075,38.81747,144],[-90.39069,38.8175,143],[-90.39063,38.81753,144],[-90.39059,38.81756,144],[-90.39055,38.81759,144],[-90.39049,38.81761,144],[-90.39045,38.81764,144],[-90.39041,38.81766,144],[-90.39037,38.81767,144],[-90.39034,38.81769,144],[-90.3903,38.81771,144],[-90.39026,38.81773,144],[-90.39023,38.81775,144],[-90.3902,38.81777,144],[-90.39017,38.81779,144],[-90.39014,38.81783,144],[-90.39007,38.81787,145],[-90.39002,38.81789,145],[-90.38997,38.8179,146],[-90.38992,38.81792,146],[-90.38988,38.81793,146],[-90.38983,38.81794,147],[-90.38979,38.81794,147],[-90.38975,38.81795,148],[-90.38972,38.81798,148],[-90.38966,38.81799,148],[-90.38961,38.818,147],[-90.38957,38.81802,147],[-90.38953,38.81803,147],[-90.38949,38.81803,147],[-90.38945,38.81802,147],[-90.38936,38.81804,148],[-90.38932,38.81805,148],[-90.38927,38.81803,149],[-90.38924,38.81798,151],[-90.3892,38.81799,151],[-90.38917,38.81801,151],[-90.38915,38.81804,150],[-90.38913,38.81806,150],[-90.38909,38.81809,150],[-90.38905,38.81809,151],[-90.389,38.81811,151],[-90.38897,38.81811,152],[-90.38893,38.81812,153],[-90.38888,38.81813,154],[-90.38884,38.81813,154],[-90.38881,38.81814,155],[-90.38877,38.81813,156],[-90.38873,38.81813,157],[-90.38868,38.81813,158],[-90.38864,38.81813,158],[-90.38862,38.81816,157],[-90.38859,38.81818,157],[-90.38857,38.81822,155],[-90.38856,38.81824,154],[-90.38853,38.81826,153],[-90.38849,38.81827,153],[-90.38847,38.81831,151],[-90.38845,38.81835,149],[-90.38844,38.81839,147],[-90.38843,38.81842,146],[-90.38841,38.81845,144],[-90.38839,38.81848,143],[-90.38837,38.81851,142],[-90.38835,38.81854,141],[-90.38834,38.8186,138],[-90.3883,38.81861,138],[-90.38825,38.81862,139],[-90.38821,38.81862,139],[-90.38817,38.81861,140],[-90.38814,38.81863,140],[-90.38812,38.81866,140],[-90.38808,38.81868,141],[-90.38805,38.81869,141],[-90.38801,38.81871,141],[-90.38797,38.81875,141],[-90.38794,38.81876,141],[-90.3879,38.81877,142],[-90.38788,38.8188,142],[-90.38783,38.81881,142],[-90.38777,38.81882,142],[-90.38774,38.81884,142],[-90.3877,38.81885,142],[-90.38767,38.81886,142],[-90.38763,38.81887,142],[-90.38759,38.81888,142],[-90.38755,38.81889,141],[-90.38752,38.81891,141],[-90.38749,38.81892,141],[-90.38749,38.81896,139],[-90.38748,38.81898,139],[-90.38748,38.81902,137],[-90.38746,38.81905,136],[-90.38744,38.81908,135],[-90.38741,38.8191,135],[-90.38737,38.81912,134],[-90.38733,38.81912,134],[-90.38729,38.81912,134],[-90.38726,38.81914,133],[-90.38724,38.81916,132],[-90.38721,38.81918,132],[-90.38718,38.81919,132],[-90.38715,38.81921,132],[-90.38712,38.81919,132],[-90.38715,38.81917,132],[-90.38719,38.81918,132],[-90.38719,38.81915,132],[-90.38722,38.81913,133],[-90.38726,38.81913,133],[-90.38727,38.81916,132],[-90.3873,38.81919,132],[-90.38732,38.81921,132],[-90.38728,38.81922,132],[-90.38726,38.81925,132],[-90.38725,38.81928,132],[-90.38723,38.81932,132],[-90.38721,38.81935,132],[-90.3872,38.81939,132],[-90.38717,38.81942,132],[-90.38715,38.81944,132],[-90.38712,38.81947,131],[-90.38709,38.81949,131],[-90.38707,38.81952,131],[-90.38704,38.81955,131],[-90.38703,38.81957,131],[-90.38702,38.8196,131],[-90.38702,38.81964,131],[-90.38698,38.81957,131],[-90.38705,38.8196,131],[-90.38712,38.8196,131],[-90.38717,38.8196,131],[-90.38721,38.81957,131],[-90.38725,38.81956,131],[-90.38728,38.81955,131],[-90.38734,38.81954,131],[-90.38736,38.81951,131],[-90.3874,38.8195,131],[-90.38743,38.81948,131],[-90.38745,38.81946,131],[-90.38748,38.81944,132],[-90.38751,38.81943,132],[-90.38757,38.81941,132],[-90.3876,38.8194,132],[-90.38763,38.81938,133],[-90.38766,38.81935,133],[-90.38771,38.81936,133],[-90.38776,38.81937,134],[-90.38776,38.81941,133],[-90.38772,38.81944,133],[-90.38769,38.81946,133],[-90.38766,38.8195,132],[-90.38763,38.81954,132],[-90.38759,38.81955,132],[-90.38754,38.81956,131],[-90.38751,38.81959,131],[-90.38749,38.81962,131],[-90.38747,38.81966,131],[-90.38744,38.8197,131],[-90.38742,38.81972,131],[-90.38736,38.81977,131],[-90.38729,38.8198,131],[-90.38723,38.81983,131],[-90.38721,38.81987,131],[-90.38718,38.81991,131],[-90.38719,38.81994,131],[-90.38721,38.81997,131],[-90.38721,38.82,131],[-90.38723,38.82006,131],[-90.38724,38.8201,131],[-90.38725,38.82013,131],[-90.38725,38.82016,131],[-90.38728,38.82018,131],[-90.38732,38.82018,131],[-90.38736,38.82017,131],[-90.38739,38.82016,131],[-90.38744,38.82016,131],[-90.38748,38.82015,131],[-90.38751,38.82014,131],[-90.38755,38.82015,131],[-90.38758,38.82016,131],[-90.38761,38.82019,131],[-90.38761,38.82021,131],[-90.38766,38.82024,131],[-90.38772,38.82026,131],[-90.38777,38.82028,131],[-90.38782,38.8203,131],[-90.38786,38.82031,131],[-90.3879,38.82031,131],[-90.38794,38.82032,131],[-90.38798,38.82033,131],[-90.38801,38.82035,131],[-90.38797,38.82034,131],[-90.38794,38.82034,131],[-90.38789,38.82033,131],[-90.38784,38.82032,131],[-90.38781,38.82032,131],[-90.38777,38.8203,131],[-90.38774,38.82029,131],[-90.3877,38.82028,131],[-90.38766,38.82028,131],[-90.38762,38.82026,131],[-90.38758,38.82025,131],[-90.38754,38.82024,131],[-90.3875,38.82023,131],[-90.38747,38.82022,131],[-90.38743,38.82021,131],[-90.3874,38.82019,131],[-90.38738,38.82017,131],[-90.38734,38.82017,131],[-90.38732,38.82012,131],[-90.38727,38.82012,131],[-90.38724,38.82014,131],[-90.38722,38.82016,131],[-90.38718,38.82018,131],[-90.38715,38.8202,131],[-90.38712,38.8202,131],[-90.38708,38.8202,131],[-90.38705,38.8202,131],[-90.3871,38.82019,131],[-90.38714,38.82016,131],[-90.38717,38.82013,131],[-90.3872,38.8201,131],[-90.38723,38.82007,131],[-90.38725,38.82004,131],[-90.38726,38.82001,131],[-90.38726,38.81998,131],[-90.38724,38.81995,131],[-90.3872,38.81994,131],[-90.3872,38.81991,131],[-90.38718,38.81988,131],[-90.38715,38.81986,131],[-90.38718,38.81984,131],[-90.38721,38.81983,131],[-90.38724,38.81981,131],[-90.38726,38.81979,131],[-90.38731,38.81978,131],[-90.38734,38.81977,131],[-90.38737,38.81975,131],[-90.3874,38.81973,131],[-90.38741,38.81971,131],[-90.38743,38.81968,131],[-90.38745,38.81965,131],[-90.38748,38.81962,131],[-90.38751,38.81961,131],[-90.38755,38.8196,131],[-90.38757,38.81958,131],[-90.3876,38.81955,132],[-90.38762,38.81953,132],[-90.38764,38.8195,132],[-90.38766,38.81947,132],[-90.38768,38.81944,133],[-90.38771,38.81943,133],[-90.38774,38.81941,133],[-90.38775,38.81938,134],[-90.3877,38.81938,133],[-90.38766,38.81938,133],[-90.38763,38.81939,133],[-90.38763,38.81936,133],[-90.38763,38.81933,133],[-90.38761,38.8193,133],[-90.3876,38.81927,133],[-90.38759,38.81924,133],[-90.38759,38.81921,133],[-90.38756,38.81919,133],[-90.38756,38.81917,133],[-90.38756,38.81913,134],[-90.38757,38.8191,135],[-90.38759,38.81905,137],[-90.38762,38.81912,135],[-90.38755,38.81906,136],[-90.38756,38.81899,138],[-90.38749,38.81896,139],[-90.38743,38.81893,141],[-90.38748,38.81889,142],[-90.38753,38.81887,142],[-90.38757,38.81883,143],[-90.38762,38.81883,143],[-90.38767,38.81882,143],[-90.38772,38.8188,143],[-90.38776,38.81878,143],[-90.3878,38.81877,143],[-90.38784,38.81876,143],[-90.38786,38.81879,142],[-90.38788,38.81875,142],[-90.38791,38.81872,142],[-90.38796,38.81872,142],[-90.38799,38.8187,141],[-90.38803,38.81868,141],[-90.38805,38.81866,141],[-90.38808,38.81865,141],[-90.38812,38.81865,140],[-90.38817,38.81865,140],[-90.3882,38.81864,139],[-90.38824,38.81862,139],[-90.38826,38.8186,139],[-90.38829,38.81858,139],[-90.38833,38.81857,139],[-90.38836,38.81855,140],[-90.38839,38.81853,141],[-90.3884,38.8185,142],[-90.38841,38.81846,144],[-90.38839,38.81842,146],[-90.3884,38.81838,148],[-90.38843,38.81834,149],[-90.38846,38.81831,151],[-90.38849,38.81829,152],[-90.38851,38.81826,153],[-90.38853,38.81822,155],[-90.38853,38.81818,157],[-90.38853,38.81815,159],[-90.38857,38.81812,160],[-90.38861,38.8181,160],[-90.38864,38.81808,161],[-90.38863,38.81805,162],[-90.38866,38.81797,163],[-90.3887,38.81799,162],[-90.38871,38.81804,161],[-90.38869,38.81808,160],[-90.38873,38.8181,158],[-90.38878,38.81809,157],[-90.38884,38.81808,157],[-90.3889,38.81808,155],[-90.38895,38.81808,154],[-90.389,38.81807,153],[-90.38902,38.81804,154],[-90.3891,38.81804,152],[-90.38917,38.81801,151],[-90.38922,38.81801,150],[-90.38926,38.81799,150],[-90.38931,38.81798,150],[-90.38937,38.81797,149],[-90.38943,38.81797,149],[-90.38946,38.81798,148],[-90.3895,38.81798,148],[-90.38954,38.81794,149],[-90.38955,38.81791,149],[-90.38958,38.81788,150],[-90.38962,38.81787,150],[-90.38967,38.81786,150],[-90.38972,38.81787,149],[-90.38977,38.81788,148],[-90.38983,38.81788,148],[-90.38987,38.81787,147],[-90.3899,38.81787,147],[-90.38995,38.81787,146],[-90.38999,38.81785,146],[-90.39003,38.81782,146],[-90.39008,38.8178,146],[-90.39013,38.81779,145],[-90.39016,38.81776,145],[-90.39019,38.81774,145],[-90.39022,38.81771,145],[-90.39024,38.81768,145],[-90.39028,38.81767,145],[-90.39033,38.81766,144],[-90.39037,38.81764,144],[-90.39042,38.81764,144],[-90.39046,38.81762,144],[-90.3905,38.81762,143],[-90.39055,38.8176,143],[-90.39054,38.81756,144],[-90.39052,38.81753,145],[-90.39047,38.81751,146],[-90.39046,38.81748,147],[-90.39043,38.81745,148],[-90.39039,38.81744,149],[-90.39034,38.81746,149],[-90.39029,38.81748,149],[-90.39025,38.81747,150],[-90.39023,38.81744,151],[-90.3902,38.81742,151],[-90.39019,38.81739,152],[-90.39017,38.81736,153],[-90.39017,38.81733,154],[-90.39016,38.8173,155],[-90.39014,38.81727,156],[-90.39011,38.81729,155],[-90.3901,38.81724,157],[-90.39009,38.8172,158],[-90.39005,38.81719,158],[-90.39001,38.81717,159],[-90.38999,38.81712,160],[-90.38996,38.81709,161],[-90.38996,38.81704,162],[-90.38997,38.817,163],[-90.38995,38.81695,164],[-90.38995,38.81688,165],[-90.38987,38.81687,165],[-90.3898,38.8169,164],[-90.38974,38.81689,164],[-90.38975,38.81684,165],[-90.38977,38.81679,166],[-90.38973,38.81677,166],[-90.38972,38.81673,167],[-90.38972,38.8167,167],[-90.38971,38.81666,167],[-90.3897,38.81663,168],[-90.3897,38.81658,168],[-90.3897,38.81652,168],[-90.38967,38.8165,169],[-90.38964,38.81648,169],[-90.38962,38.81644,169],[-90.38958,38.81643,169],[-90.38951,38.81644,168],[-90.38949,38.81641,169],[-90.38954,38.81639,169],[-90.38955,38.81634,169],[-90.38958,38.8163,170],[-90.38963,38.81631,170],[-90.38958,38.81634,170],[-90.38958,38.8163,170],[-90.38957,38.81626,170],[-90.38951,38.81627,170],[-90.38945,38.81624,170],[-90.38943,38.81616,171],[-90.3894,38.81611,171],[-90.38937,38.81606,172],[-90.38935,38.81601,172],[-90.38937,38.81596,173],[-90.38938,38.81591,174],[-90.38938,38.81587,174],[-90.38932,38.81585,174],[-90.38926,38.81581,175],[-90.38924,38.81578,176],[-90.38922,38.81574,177],[-90.38922,38.8157,178],[-90.38921,38.81564,180],[-90.38921,38.81561,181],[-90.3892,38.81557,182],[-90.38918,38.81554,183],[-90.38912,38.81553,183],[-90.3891,38.81551,183],[-90.38906,38.81549,183],[-90.38904,38.81547,184],[-90.389,38.81544,184],[-90.38897,38.81541,185],[-90.38896,38.81538,185],[-90.38894,38.81535,185],[-90.38893,38.81531,186],[-90.38891,38.81528,186],[-90.3889,38.81524,187],[-90.38892,38.8152,187],[-90.38893,38.81516,187],[-90.38892,38.81512,187],[-90.3889,38.81509,187],[-90.38888,38.81505,187],[-90.38885,38.81502,187],[-90.38889,38.81501,187],[-90.38893,38.815,188],[-90.38896,38.81496,188],[-90.38897,38.81493,188],[-90.38899,38.81488,188],[-90.389,38.81485,188],[-90.389,38.81482,188],[-90.38898,38.81478,188],[-90.38894,38.81476,188],[-90.3889,38.81476,188],[-90.38884,38.81475,189],[-90.38881,38.81473,189],[-90.38878,38.8147,189],[-90.38872,38.81472,189],[-90.38865,38.81475,189],[-90.38861,38.81479,189],[-90.38857,38.81472,190],[-90.38848,38.81475,191],[-90.3884,38.81478,192],[-90.38834,38.81481,192],[-90.38824,38.8148,193],[-90.38817,38.81479,194],[-90.38809,38.81481,194],[-90.38802,38.81481,195],[-90.38795,38.81481,195],[-90.38788,38.8148,196],[-90.38781,38.8148,197],[-90.38774,38.81482,197],[-90.38769,38.81479,198],[-90.38765,38.81482,198],[-90.3876,38.81485,198],[-90.38756,38.81481,199],[-90.38763,38.81478,199],[-90.38761,38.81471,200],[-90.38761,38.81465,200],[-90.38752,38.81465,200],[-90.38745,38.81468,201],[-90.38739,38.81469,201],[-90.38734,38.81468,202],[-90.3873,38.81465,202],[-90.38726,38.81462,202],[-90.38722,38.81461,202],[-90.38715,38.81459,203],[-90.38711,38.81458,203],[-90.38706,38.81458,203],[-90.38702,38.81457,203],[-90.38698,38.81457,203],[-90.38695,38.81453,203],[-90.38692,38.81452,203],[-90.38689,38.8145,203],[-90.38685,38.81449,203],[-90.38681,38.81449,203],[-90.38678,38.8145,203],[-90.38671,38.81446,203],[-90.38666,38.81443,202],[-90.38662,38.81438,202],[-90.38658,38.81436,202],[-90.38655,38.81433,201],[-90.38652,38.81429,201],[-90.3865,38.81427,200],[-90.38648,38.81424,200],[-90.38646,38.81421,200],[-90.38645,38.81418,199],[-90.38643,38.81415,199],[-90.38642,38.81411,198],[-90.38641,38.81407,198],[-90.38638,38.81409,198],[-90.38635,38.81407,197],[-90.38634,38.81404,197],[-90.38634,38.81402,197],[-90.38637,38.81404,197],[-90.38639,38.81407,197],[-90.38642,38.81409,198],[-90.38644,38.81411,198],[-90.38648,38.81412,199],[-90.38653,38.81411,199],[-90.38657,38.81409,199],[-90.38661,38.81409,199],[-90.38666,38.8141,200],[-90.38669,38.81408,200],[-90.38674,38.81407,200],[-90.38678,38.81407,200],[-90.38683,38.81406,200],[-90.38687,38.81404,200],[-90.38692,38.81404,200],[-90.38698,38.81403,200],[-90.38701,38.81402,200],[-90.38704,38.81401,200],[-90.38709,38.814,200],[-90.38714,38.814,200],[-90.38718,38.81401,200],[-90.38721,38.81401,200],[-90.38726,38.81401,200],[-90.3873,38.81401,200],[-90.38734,38.81401,200],[-90.38739,38.81399,200],[-90.38742,38.81398,200],[-90.38746,38.81398,200],[-90.38752,38.81397,200],[-90.38756,38.81397,200],[-90.3876,38.81396,200],[-90.38764,38.81395,200],[-90.38768,38.81395,200],[-90.38773,38.81394,200],[-90.38777,38.81394,200],[-90.38782,38.81393,199],[-90.38787,38.81393,199],[-90.38791,38.81392,199],[-90.38796,38.81391,199],[-90.388,38.81391,199],[-90.38804,38.81391,199],[-90.38809,38.81392,198],[-90.38813,38.81392,198],[-90.38817,38.81393,198],[-90.38821,38.81392,198],[-90.38825,38.81393,198],[-90.38831,38.81393,198],[-90.38835,38.81394,197],[-90.38839,38.81396,197],[-90.38843,38.81398,197],[-90.38847,38.81401,197],[-90.3885,38.81403,197],[-90.38855,38.81404,196],[-90.38859,38.81405,196],[-90.38862,38.81406,196],[-90.38866,38.81408,195],[-90.38871,38.8141,195],[-90.38875,38.81411,194],[-90.38879,38.81412,194],[-90.38883,38.81414,193],[-90.38887,38.81415,193],[-90.3889,38.81416,192],[-90.38895,38.81416,192],[-90.38899,38.81416,192],[-90.38902,38.81416,192],[-90.38908,38.81417,192],[-90.38911,38.81417,192],[-90.38915,38.8142,192],[-90.38919,38.81422,192],[-90.38922,38.81424,191],[-90.38925,38.81426,191],[-90.38928,38.81427,191],[-90.38932,38.81428,190],[-90.38936,38.8143,190],[-90.38941,38.81432,189],[-90.38943,38.81434,189],[-90.38947,38.81436,189],[-90.3895,38.81437,188],[-90.38952,38.8144,189],[-90.38953,38.81443,189],[-90.38953,38.81446,189],[-90.38953,38.81449,189],[-90.38952,38.81453,190],[-90.38952,38.81457,190],[-90.38949,38.81454,190],[-90.38949,38.81451,190],[-90.38949,38.81447,189],[-90.38949,38.81444,189],[-90.38948,38.8144,189],[-90.38945,38.81438,189],[-90.38945,38.81435,189],[-90.38946,38.81431,188],[-90.38949,38.81428,188],[-90.38951,38.81426,187],[-90.38955,38.81425,186],[-90.38959,38.81426,186],[-90.38962,38.81427,186],[-90.38965,38.81428,185],[-90.38968,38.8143,185],[-90.38972,38.81433,186],[-90.38976,38.81435,186],[-90.38979,38.81437,186],[-90.38982,38.8144,187],[-90.38985,38.81441,187],[-90.38989,38.81443,187],[-90.38992,38.81446,187],[-90.38995,38.81447,187],[-90.38999,38.81449,188],[-90.39002,38.81451,188],[-90.39005,38.81453,188],[-90.39008,38.81455,188],[-90.39011,38.81455,187],[-90.39015,38.81457,187],[-90.39019,38.81457,187],[-90.3902,38.81455,186],[-90.39024,38.81454,185],[-90.39028,38.81453,185],[-90.39031,38.81452,184],[-90.39035,38.8145,184],[-90.39038,38.81448,183],[-90.39041,38.81447,183],[-90.39046,38.81445,182],[-90.3905,38.81443,181],[-90.39054,38.81442,181],[-90.39058,38.81441,180],[-90.39061,38.81439,180],[-90.39064,38.81436,179],[-90.39068,38.81435,178],[-90.3907,38.81433,177],[-90.39074,38.81431,177],[-90.39077,38.81431,176],[-90.3908,38.8143,176],[-90.39084,38.81429,176],[-90.39088,38.81427,175],[-90.39091,38.81426,174],[-90.39095,38.81425,173],[-90.39098,38.81424,173],[-90.39101,38.81422,172],[-90.39102,38.81425,172],[-90.39103,38.81428,173],[-90.39105,38.81431,173],[-90.39106,38.81435,174],[-90.39109,38.81436,174],[-90.39113,38.81438,174],[-90.39116,38.81439,173],[-90.3912,38.81438,173],[-90.39123,38.8144,172],[-90.39128,38.81441,172],[-90.39132,38.81442,171],[-90.39135,38.81442,171],[-90.39139,38.81444,170],[-90.39142,38.81445,170],[-90.39144,38.81448,171],[-90.39147,38.8145,171],[-90.39149,38.81452,171],[-90.39153,38.81454,170],[-90.39158,38.81453,169],[-90.39162,38.81452,168],[-90.39164,38.81449,168],[-90.39168,38.81448,167],[-90.39171,38.8145,166],[-90.39175,38.8145,165],[-90.39179,38.81449,164],[-90.39181,38.81451,163],[-90.39183,38.81454,163],[-90.39186,38.81456,163],[-90.39183,38.81458,164],[-90.39185,38.81454,163],[-90.39186,38.81449,162],[-90.39186,38.81445,161],[-90.39185,38.81441,160],[-90.39185,38.81438,159],[-90.39184,38.81434,159],[-90.39186,38.81431,157],[-90.39185,38.81428,157],[-90.39187,38.81426,156],[-90.39189,38.81423,155],[-90.3919,38.8142,154],[-90.3919,38.81418,153],[-90.39192,38.81415,151],[-90.39196,38.81413,150],[-90.39199,38.81411,148],[-90.39202,38.81409,147],[-90.39207,38.81409,147],[-90.3921,38.81409,147],[-90.39215,38.81409,146],[-90.3922,38.81408,145],[-90.39223,38.81406,144],[-90.39228,38.81404,143],[-90.3923,38.81402,142],[-90.39233,38.814,141],[-90.39236,38.81397,139],[-90.39237,38.81394,138],[-90.3924,38.81392,137],[-90.39243,38.8139,137],[-90.39244,38.81387,137],[-90.39247,38.81385,137],[-90.39249,38.81382,138],[-90.39249,38.81379,138],[-90.39251,38.81376,138],[-90.39253,38.81373,138],[-90.39255,38.8137,138],[-90.39256,38.81366,138],[-90.39258,38.81363,138],[-90.39261,38.81359,138],[-90.39263,38.81356,138],[-90.39265,38.81352,137],[-90.39267,38.81349,137],[-90.39269,38.81346,136],[-90.3927,38.81343,136],[-90.39272,38.81341,136],[-90.39275,38.81338,135],[-90.39279,38.81335,135],[-90.39281,38.81332,134],[-90.39284,38.8133,134],[-90.39286,38.81328,134],[-90.39289,38.81326,134],[-90.39292,38.81324,133],[-90.39294,38.81322,133],[-90.39297,38.8132,133],[-90.39299,38.81318,133],[-90.39301,38.81316,133],[-90.39304,38.81313,133],[-90.39306,38.81311,132],[-90.39309,38.81309,132],[-90.39313,38.81307,132],[-90.39316,38.81304,133],[-90.39319,38.81302,133],[-90.39323,38.81299,133],[-90.39326,38.81297,133],[-90.39329,38.81295,133],[-90.39332,38.81294,133],[-90.39335,38.81292,133],[-90.39337,38.81289,134],[-90.39336,38.81286,134],[-90.39333,38.81285,134],[-90.39329,38.81282,134],[-90.39326,38.8128,134],[-90.39322,38.81278,134],[-90.39321,38.81275,134],[-90.39318,38.81273,134],[-90.39315,38.81271,134],[-90.39311,38.81269,134],[-90.39308,38.81268,134],[-90.39305,38.81267,134],[-90.39301,38.81264,134],[-90.39297,38.81263,134],[-90.39293,38.81261,134],[-90.3929,38.8126,134],[-90.39286,38.81258,134],[-90.39283,38.81255,134],[-90.39278,38.81253,134],[-90.39275,38.81251,134],[-90.39271,38.81249,134],[-90.39269,38.81247,134],[-90.39266,38.81245,134],[-90.39263,38.81243,134],[-90.39259,38.8124,134],[-90.39256,38.81237,135],[-90.39253,38.81235,135],[-90.3925,38.81234,135],[-90.39246,38.81231,135],[-90.39242,38.81229,135],[-90.39239,38.81226,135],[-90.39236,38.81224,135],[-90.39232,38.81223,135],[-90.39229,38.8122,135],[-90.39225,38.81218,135],[-90.3922,38.81217,136],[-90.39216,38.81216,136],[-90.39212,38.81215,136],[-90.39208,38.81213,136],[-90.39205,38.81212,137],[-90.39201,38.81211,137],[-90.39197,38.81212,137],[-90.39193,38.81214,137],[-90.39189,38.81216,137],[-90.39186,38.81218,137],[-90.39184,38.81221,137],[-90.39181,38.81223,137],[-90.39179,38.81226,137],[-90.39177,38.8123,136],[-90.39174,38.81232,136],[-90.39172,38.81235,136],[-90.39169,38.81238,136],[-90.39167,38.81242,135],[-90.39164,38.81244,135],[-90.39162,38.81246,135],[-90.39159,38.8125,135],[-90.39157,38.81253,135],[-90.39155,38.81255,136],[-90.39153,38.81259,137],[-90.39153,38.81261,137],[-90.39153,38.81264,138],[-90.39154,38.81268,138],[-90.39155,38.8127,139],[-90.39157,38.81273,139],[-90.3916,38.81274,139],[-90.39164,38.81277,139],[-90.39167,38.81279,139],[-90.3917,38.81281,138],[-90.39173,38.81283,138],[-90.39177,38.81284,138],[-90.3918,38.81286,138],[-90.39183,38.81288,138],[-90.39186,38.8129,137],[-90.39188,38.81292,138],[-90.39191,38.81295,138],[-90.39194,38.81298,138],[-90.39197,38.813,138],[-90.39201,38.81302,138],[-90.39205,38.81304,138],[-90.39209,38.81306,137],[-90.39212,38.81308,137],[-90.39215,38.81309,137],[-90.39218,38.81311,137],[-90.39221,38.81313,137],[-90.39224,38.81315,137],[-90.39227,38.81317,137],[-90.3923,38.8132,137],[-90.39231,38.81323,137],[-90.39233,38.81326,137],[-90.39237,38.81327,137],[-90.3924,38.81328,137],[-90.39244,38.81329,137],[-90.39248,38.81332,137],[-90.39251,38.81334,136],[-90.39255,38.81336,136],[-90.39258,38.81337,136],[-90.39262,38.81338,136],[-90.39266,38.81339,136],[-90.3927,38.81339,136],[-90.39274,38.81338,135],[-90.39278,38.81337,135],[-90.39281,38.81334,134],[-90.39284,38.81331,134],[-90.39286,38.81328,134],[-90.39291,38.81326,133],[-90.39294,38.81324,133],[-90.39298,38.81322,133],[-90.39301,38.8132,133],[-90.39304,38.81318,133],[-90.39308,38.81315,132],[-90.39312,38.81313,132],[-90.39315,38.81311,132],[-90.39317,38.81308,132],[-90.39321,38.81306,132],[-90.39325,38.81303,133],[-90.39327,38.813,133],[-90.39329,38.81298,133],[-90.39331,38.81295,133],[-90.39334,38.81293,133],[-90.39338,38.81291,133],[-90.39341,38.81289,133],[-90.39344,38.81287,133],[-90.39347,38.81285,133],[-90.3935,38.81284,133],[-90.39354,38.81282,133],[-90.39357,38.8128,133],[-90.3936,38.81278,134],[-90.39362,38.81276,134],[-90.39365,38.81274,134],[-90.39369,38.81272,134],[-90.39372,38.8127,134],[-90.39375,38.81267,134],[-90.39379,38.81265,135],[-90.39382,38.81263,135],[-90.39386,38.81261,135],[-90.39389,38.81258,136],[-90.39391,38.81256,136],[-90.39395,38.81253,136],[-90.39398,38.81251,136],[-90.39401,38.81248,137],[-90.39404,38.81246,137],[-90.39407,38.81244,137],[-90.39411,38.81241,137],[-90.39414,38.81238,137],[-90.39416,38.81236,137],[-90.39418,38.81233,137],[-90.3942,38.8123,137],[-90.39423,38.81228,137],[-90.39427,38.81227,137],[-90.3943,38.81225,137],[-90.39433,38.81221,138],[-90.39436,38.81218,138],[-90.3944,38.81217,138],[-90.39442,38.81215,138],[-90.39446,38.81212,137],[-90.39448,38.8121,137],[-90.39452,38.81207,137],[-90.39455,38.81204,137],[-90.39456,38.81201,137],[-90.39459,38.81199,137],[-90.39462,38.81197,137],[-90.39465,38.81195,137],[-90.39469,38.81193,136],[-90.39472,38.81191,136],[-90.39475,38.81189,136],[-90.39478,38.81187,135],[-90.39481,38.81185,135],[-90.39485,38.81182,134],[-90.39487,38.81179,134],[-90.3949,38.81176,134],[-90.39492,38.81174,133],[-90.39496,38.81172,133],[-90.395,38.8117,133],[-90.39504,38.81168,133],[-90.39507,38.81165,132],[-90.3951,38.81163,132],[-90.39511,38.8116,132],[-90.39511,38.81157,132],[-90.39513,38.8116,132],[-90.39517,38.81159,132],[-90.39513,38.8116,132],[-90.39508,38.81162,132]]],
        "bbox": [
          -90.38634,
          38.82035,
          -90.39517,
          38.81157
        ]
      },
      "properties": {
        "name": "1.10.2026"
      }
    }
  ]
}