{
  "type": "FeatureCollection",
  "features": [
    {
      "type": "Feature",
      "geometry": {
        "type": "MultiLineString",
        "coordinates": [[[-90.39499,38.81169,133],[-90.39496,38.81171,133],[-90.39493,38.81173,133],[-90.3949,38.81176,134],[-90.39489,38.81179,134],[-90.39487,38.81181,134],[-90.39484,38.81183,135],[-90.39482,38.81186,135],[-90.3948,38.81188,135],[-90.39477,38.8119,136],[-90.39475,38.81193,136],[-90.39472,38.81195,136],[-90.39469,38.81197,137],[-90.39467,38.812,137],[-90.39464,38.81202,137],[-90.3946,38.81203,137],[-90.39456,38.81203,137],[-90.39452,38.81205,137],[-90.39449,38.81207,137],[-90.39446,38.81209,137],[-90.39443,38.81211,138],[-90.39441,38.81213,138],[-90.39438,38.81216,138],[-90.39437,38.81218,138],[-90.3944,38.81217,138],[-90.39444,38.81216,138],[-90.39441,38.81218,138],[-90.39438,38.8122,138],[-90.39434,38.81221,138],[-90.39431,38.81223,137],[-90.39428,38.81224,137],[-90.39425,38.81226,137],[-90.39423,38.81229,137],[-90.39421,38.81232,137],[-90.39418,38.81234,137],[-90.39417,38.81237,137],[-90.39415,38.81239,137],[-90.39412,38.81241,137],[-90.39409,38.81244,137],[-90.39406,38.81246,137],[-90.39404,38.81248,137],[-90.39402,38.8125,137],[-90.39399,38.81253,136],[-90.39397,38.81255,136],[-90.39394,38.81257,136],[-90.39391,38.81259,135],[-90.39388,38.81262,135],[-90.39385,38.81264,135],[-90.39382,38.81267,135],[-90.39379,38.81268,134],[-90.39376,38.81269,134],[-90.39372,38.81271,134],[-90.39369,38.81272,134],[-90.39366,38.81274,134],[-90.39362,38.81276,134],[-90.39359,38.81278,134],[-90.39355,38.8128,134],[-90.39352,38.81279,134],[-90.39348,38.81278,134],[-90.39345,38.81279,134],[-90.39342,38.81282,134],[-90.3934,38.81285,134],[-90.39336,38.81286,134],[-90.39332,38.81287,134],[-90.39328,38.81285,134],[-90.39325,38.81284,134],[-90.39323,38.81281,134],[-90.39318,38.81278,134],[-90.39315,38.81275,134],[-90.39313,38.81272,134],[-90.3931,38.8127,134],[-90.39306,38.81269,134],[-90.39302,38.81268,134],[-90.39299,38.81266,134],[-90.39297,38.81263,134],[-90.39295,38.81261,134],[-90.39292,38.81259,134],[-90.3929,38.81257,134],[-90.39286,38.81255,134],[-90.39284,38.81252,134],[-90.3928,38.8125,134],[-90.39277,38.81248,133],[-90.39274,38.81246,134],[-90.39271,38.81244,134],[-90.39269,38.81242,134],[-90.39265,38.8124,134],[-90.39263,38.81238,134],[-90.39259,38.81236,134],[-90.39256,38.81234,134],[-90.39252,38.81233,135],[-90.39248,38.81231,135],[-90.39245,38.81229,135],[-90.39241,38.81227,135],[-90.39239,38.81225,135],[-90.39237,38.81222,135],[-90.39234,38.8122,135],[-90.39231,38.81219,135],[-90.39228,38.81217,135],[-90.39224,38.81216,135],[-90.39221,38.81214,136],[-90.39218,38.81212,136],[-90.39214,38.8121,136],[-90.3921,38.81209,136],[-90.39206,38.81209,137],[-90.39202,38.8121,137],[-90.39198,38.81211,137],[-90.39194,38.81212,137],[-90.39191,38.81213,137],[-90.39187,38.81215,137],[-90.39184,38.81218,137],[-90.39183,38.8122,137],[-90.39181,38.81223,137],[-90.39178,38.81226,137],[-90.39176,38.81229,137],[-90.39173,38.81232,136],[-90.39171,38.81234,136],[-90.3917,38.81237,136],[-90.39168,38.8124,136],[-90.39166,38.81243,135],[-90.39164,38.81246,135],[-90.39162,38.81248,135],[-90.3916,38.81251,135],[-90.39158,38.81253,135],[-90.39156,38.81256,136],[-90.39153,38.81259,137],[-90.39149,38.81261,138],[-90.39152,38.81263,138],[-90.39153,38.81266,138],[-90.39152,38.81269,139],[-90.39153,38.81272,139],[-90.39154,38.81275,140],[-90.39156,38.81278,140],[-90.39159,38.81279,140],[-90.39162,38.81281,140],[-90.39165,38.81283,140],[-90.39169,38.81286,139],[-90.39172,38.81288,139],[-90.39175,38.81291,139],[-90.39178,38.81293,139],[-90.39181,38.81294,139],[-90.39185,38.81296,138],[-90.39188,38.81298,138],[-90.39191,38.813,138],[-90.39194,38.81301,138],[-90.39197,38.81302,138],[-90.392,38.81303,138],[-90.39205,38.81305,138],[-90.39208,38.81307,138],[-90.39212,38.81308,137],[-90.39215,38.8131,137],[-90.39218,38.81312,137],[-90.39221,38.81314,137],[-90.39224,38.81315,137],[-90.39227,38.81318,137],[-90.3923,38.8132,137],[-90.39232,38.81323,137],[-90.39235,38.81325,137],[-90.39238,38.81327,137],[-90.39242,38.81328,137],[-90.39245,38.81329,137],[-90.39248,38.81331,137],[-90.39251,38.81332,136],[-90.39254,38.81334,136],[-90.39251,38.81337,137],[-90.3925,38.8134,137],[-90.39254,38.81342,137],[-90.39257,38.81343,137],[-90.3926,38.81344,137],[-90.39264,38.81346,137],[-90.39267,38.81348,137],[-90.39266,38.81351,137],[-90.39265,38.81354,137],[-90.39262,38.81356,138],[-90.39259,38.81359,138],[-90.39257,38.81361,138],[-90.39254,38.81363,138],[-90.39252,38.81366,138],[-90.39251,38.81368,138],[-90.39255,38.81368,138],[-90.39256,38.81371,138],[-90.39255,38.81373,138],[-90.39253,38.81376,138],[-90.3925,38.81378,138],[-90.39247,38.81379,138],[-90.39245,38.81382,137],[-90.39243,38.81384,137],[-90.39242,38.81387,136],[-90.39241,38.8139,136],[-90.39239,38.81393,138],[-90.39238,38.81395,139],[-90.39235,38.81399,140],[-90.39233,38.81401,141],[-90.3923,38.81403,142],[-90.39226,38.81404,143],[-90.39223,38.81405,143],[-90.39219,38.81406,144],[-90.39215,38.81405,144],[-90.39212,38.81403,143],[-90.39209,38.81401,142],[-90.39206,38.81398,141],[-90.39203,38.81395,139],[-90.39201,38.81392,138],[-90.39199,38.81388,137],[-90.39197,38.81385,138],[-90.39194,38.81383,138],[-90.39191,38.81381,139],[-90.39188,38.8138,140],[-90.39185,38.81378,141],[-90.39181,38.81378,142],[-90.39178,38.81376,143],[-90.39175,38.81375,143],[-90.39171,38.81373,144],[-90.39169,38.81371,144],[-90.39166,38.81368,144],[-90.39165,38.81365,144],[-90.39163,38.81362,144],[-90.39162,38.81359,144],[-90.39161,38.81356,145],[-90.3916,38.81353,145],[-90.39159,38.8135,146],[-90.39159,38.81346,146],[-90.3916,38.81343,146],[-90.3916,38.8134,147],[-90.3916,38.81337,147],[-90.39159,38.81334,148],[-90.39156,38.81331,148],[-90.39153,38.81328,148],[-90.39149,38.81327,149],[-90.39146,38.81327,149],[-90.39142,38.81326,150],[-90.39138,38.81324,150],[-90.39134,38.81322,151],[-90.39131,38.8132,151],[-90.39128,38.81318,151],[-90.39125,38.81316,152],[-90.39122,38.81313,152],[-90.39121,38.8131,152],[-90.39122,38.81307,152],[-90.39121,38.81303,151],[-90.39119,38.81301,151],[-90.39117,38.81298,151],[-90.39115,38.81296,151],[-90.39113,38.81293,150],[-90.39111,38.81291,150],[-90.39108,38.81289,150],[-90.39105,38.81287,150],[-90.39104,38.81284,149],[-90.39104,38.81281,148],[-90.39103,38.81278,148],[-90.39102,38.81275,147],[-90.391,38.81271,147],[-90.39099,38.81268,146],[-90.39099,38.81265,145],[-90.39099,38.81262,145],[-90.391,38.81259,144],[-90.39099,38.81256,143],[-90.39098,38.81253,143],[-90.39097,38.81251,142],[-90.39097,38.81248,143],[-90.391,38.81249,142],[-90.39099,38.81246,143],[-90.39098,38.81243,144],[-90.39098,38.8124,144],[-90.39097,38.81236,146],[-90.39095,38.81233,146],[-90.39092,38.8123,147],[-90.39089,38.81228,148],[-90.39087,38.81225,149],[-90.39086,38.81221,149],[-90.39085,38.81218,149],[-90.39085,38.81215,149],[-90.39083,38.81212,149],[-90.39083,38.81209,149],[-90.39086,38.81206,149],[-90.3909,38.81205,149],[-90.3909,38.81202,149],[-90.39092,38.81199,149],[-90.39093,38.81196,150],[-90.39094,38.81194,150],[-90.39095,38.8119,149],[-90.39095,38.81187,149],[-90.39095,38.81184,148],[-90.39094,38.81181,148],[-90.39093,38.81177,147],[-90.39093,38.81175,147],[-90.39094,38.81171,146],[-90.39094,38.81168,146],[-90.39096,38.81165,145],[-90.39098,38.81162,145],[-90.39101,38.81159,144],[-90.39104,38.81157,144],[-90.39107,38.81155,143],[-90.3911,38.81153,143],[-90.39113,38.81151,142],[-90.39111,38.81148,142],[-90.39109,38.81145,142],[-90.39107,38.81142,141],[-90.39105,38.81139,141],[-90.39102,38.81137,141],[-90.39099,38.81134,141],[-90.39097,38.81131,141],[-90.39095,38.81129,141],[-90.39093,38.81126,141],[-90.3909,38.81124,141],[-90.39086,38.81123,141],[-90.39083,38.8112,141],[-90.39081,38.81117,141],[-90.3908,38.81114,141],[-90.3908,38.81111,141],[-90.3908,38.81109,140],[-90.39082,38.81106,140],[-90.39085,38.81104,140],[-90.39087,38.81101,139],[-90.39089,38.81098,139],[-90.39089,38.81095,138],[-90.39087,38.81092,138],[-90.39083,38.8109,138],[-90.3908,38.81089,138],[-90.39077,38.81087,138],[-90.39074,38.81086,138],[-90.39071,38.81084,138],[-90.39067,38.81082,139],[-90.39062,38.81081,139],[-90.39058,38.81079,139],[-90.39055,38.81078,139],[-90.39051,38.81077,140],[-90.39047,38.81075,140],[-90.39043,38.81074,140],[-90.3904,38.81073,140],[-90.39036,38.81072,140],[-90.39032,38.81072,140],[-90.39029,38.81071,140],[-90.39025,38.81072,140],[-90.39021,38.81072,141],[-90.39018,38.81072,141],[-90.39013,38.81072,141],[-90.39009,38.81072,141],[-90.39004,38.81073,142],[-90.39,38.81073,142],[-90.38995,38.81072,142],[-90.38991,38.81071,143],[-90.38988,38.81071,143],[-90.38984,38.8107,143],[-90.3898,38.81069,143],[-90.38976,38.81068,143],[-90.38972,38.81068,144],[-90.38969,38.81067,144],[-90.38965,38.81066,144],[-90.38966,38.81063,143],[-90.3897,38.81064,143],[-90.38966,38.81064,143],[-90.38961,38.81064,144],[-90.38957,38.81064,144],[-90.38953,38.81064,144],[-90.38949,38.81062,144],[-90.38945,38.8106,143],[-90.38942,38.81059,143],[-90.38938,38.81058,144],[-90.38935,38.81056,143],[-90.38933,38.81053,143],[-90.38932,38.8105,143],[-90.38931,38.81047,143],[-90.3893,38.81044,143],[-90.38928,38.81041,143],[-90.38927,38.81038,143],[-90.38924,38.81035,143],[-90.38923,38.81032,143],[-90.3892,38.8103,143],[-90.38918,38.81027,142],[-90.38917,38.81024,143],[-90.38917,38.81021,143],[-90.38916,38.81018,143],[-90.38918,38.81016,143],[-90.38918,38.81013,143],[-90.38917,38.8101,143],[-90.38916,38.81007,143],[-90.38915,38.81004,144],[-90.38913,38.81001,144],[-90.38911,38.80999,145],[-90.38911,38.80995,145],[-90.3891,38.80992,145],[-90.38909,38.80989,145],[-90.38908,38.80986,145],[-90.38907,38.80984,145],[-90.38905,38.80981,145],[-90.38904,38.80978,145],[-90.38903,38.80975,145],[-90.38901,38.80972,145],[-90.38899,38.80969,145],[-90.38898,38.80967,145],[-90.38896,38.80964,145],[-90.38894,38.80961,145],[-90.38893,38.80958,145],[-90.38891,38.80955,144],[-90.38889,38.80953,144],[-90.38887,38.8095,144],[-90.38885,38.80948,144],[-90.38883,38.80945,144],[-90.38881,38.80942,144],[-90.3888,38.8094,144],[-90.38882,38.80937,143],[-90.38884,38.80935,143],[-90.38881,38.80932,143],[-90.38878,38.8093,143],[-90.38875,38.80928,143],[-90.38873,38.80925,142],[-90.38871,38.80922,142],[-90.38869,38.80919,142],[-90.38868,38.80917,141],[-90.38867,38.80914,141],[-90.38867,38.80911,141],[-90.38867,38.80907,141],[-90.38866,38.80904,141],[-90.38865,38.80902,141],[-90.38864,38.80899,141],[-90.38863,38.80896,141],[-90.38861,38.80893,141],[-90.38861,38.80889,141],[-90.3886,38.80886,141],[-90.38859,38.80883,141],[-90.38859,38.8088,141],[-90.38859,38.80877,141],[-90.38859,38.80874,141],[-90.38858,38.80871,141],[-90.38856,38.80868,142],[-90.38855,38.80865,142],[-90.38854,38.80862,142],[-90.38853,38.80859,142],[-90.38852,38.80856,142],[-90.38852,38.80853,142],[-90.38851,38.80849,142],[-90.38851,38.80846,142],[-90.3885,38.80843,142],[-90.3885,38.8084,142],[-90.38851,38.80836,142],[-90.38852,38.80834,142],[-90.38852,38.8083,141],[-90.38851,38.80826,141],[-90.38851,38.80823,141],[-90.38849,38.8082,141],[-90.38849,38.80818,141],[-90.38848,38.80815,141],[-90.38848,38.80812,141],[-90.38847,38.80809,141],[-90.38845,38.80806,141],[-90.38844,38.80803,141],[-90.38844,38.808,141],[-90.38847,38.80799,141],[-90.38845,38.80796,141],[-90.38844,38.80792,141],[-90.38843,38.80789,142],[-90.38841,38.80786,142],[-90.3884,38.80783,142],[-90.3884,38.8078,142],[-90.38839,38.80777,143],[-90.38837,38.80775,143],[-90.38836,38.80771,143],[-90.38834,38.80768,143],[-90.38832,38.80764,143],[-90.3883,38.80762,143],[-90.38829,38.80759,143],[-90.38828,38.80756,143],[-90.38828,38.80753,143],[-90.38827,38.8075,143],[-90.38827,38.80746,143],[-90.38826,38.80743,143],[-90.38826,38.8074,143],[-90.38826,38.80737,142],[-90.38825,38.80734,143],[-90.38824,38.80731,143],[-90.38824,38.80728,143],[-90.38823,38.80725,143],[-90.38822,38.80722,142],[-90.38821,38.80719,142],[-90.38821,38.80716,142],[-90.38821,38.80713,142],[-90.38821,38.8071,141],[-90.38821,38.80706,141],[-90.3882,38.80703,140],[-90.3882,38.807,140],[-90.38819,38.80697,140],[-90.38818,38.80693,140],[-90.38817,38.8069,140],[-90.38816,38.80687,140],[-90.38816,38.80684,139],[-90.38816,38.8068,139],[-90.38816,38.80677,139],[-90.38816,38.80674,138],[-90.38815,38.80671,138],[-90.38815,38.80668,138],[-90.38813,38.80665,139],[-90.38811,38.80663,139],[-90.3881,38.80659,140],[-90.3881,38.80656,140],[-90.38808,38.80654,141],[-90.38807,38.80651,141],[-90.38806,38.80648,141],[-90.38805,38.80646,142],[-90.38803,38.80643,142],[-90.38803,38.8064,142],[-90.38803,38.80636,142],[-90.38803,38.80633,142],[-90.38803,38.80631,142],[-90.38803,38.80628,142],[-90.38803,38.80624,142],[-90.38803,38.80621,142],[-90.38803,38.80617,142],[-90.38802,38.80614,142],[-90.38802,38.80611,142],[-90.38801,38.80608,143],[-90.388,38.80605,143],[-90.38799,38.80602,143],[-90.38798,38.80599,144],[-90.38796,38.80596,144],[-90.38794,38.80593,145],[-90.38794,38.80591,145],[-90.38793,38.80588,145],[-90.38793,38.80584,145],[-90.38792,38.80581,145],[-90.38791,38.80579,144],[-90.3879,38.80576,144],[-90.3879,38.80573,144],[-90.38788,38.8057,144],[-90.38788,38.80567,143],[-90.38787,38.80565,143],[-90.38786,38.80561,142],[-90.38786,38.80558,142],[-90.38786,38.80556,141],[-90.38787,38.80553,141],[-90.38787,38.8055,141],[-90.38785,38.80547,142],[-90.38784,38.80544,142],[-90.38783,38.80541,142],[-90.38784,38.80538,142],[-90.38788,38.80539,142],[-90.38792,38.80539,141],[-90.38792,38.80536,142],[-90.38791,38.80533,142],[-90.3879,38.8053,142],[-90.38791,38.80527,142],[-90.38792,38.80524,142],[-90.3879,38.80521,143],[-90.38789,38.80518,143],[-90.38788,38.80515,143],[-90.38784,38.80514,143],[-90.3878,38.80511,144],[-90.38779,38.80508,144],[-90.38778,38.80504,144],[-90.38779,38.80501,144],[-90.38779,38.80498,144],[-90.38779,38.80494,144],[-90.38779,38.80491,144],[-90.3878,38.80488,143],[-90.38781,38.80485,143],[-90.38782,38.80482,143],[-90.38781,38.80479,143],[-90.3878,38.80476,142],[-90.3878,38.80473,142],[-90.38779,38.80469,142],[-90.38779,38.80466,142],[-90.38778,38.80462,142],[-90.38776,38.80459,142],[-90.38775,38.80456,142],[-90.38774,38.80453,142],[-90.38772,38.8045,143],[-90.38771,38.80447,143],[-90.38769,38.80444,143],[-90.38768,38.80441,143],[-90.38765,38.80439,144],[-90.38762,38.80437,144],[-90.38758,38.80437,145],[-90.38753,38.80437,145],[-90.38748,38.80437,146],[-90.38744,38.80438,147],[-90.3874,38.80438,147],[-90.38736,38.80438,148],[-90.38732,38.80437,149],[-90.38728,38.80437,149],[-90.38724,38.80438,150],[-90.3872,38.80437,151],[-90.38717,38.80435,152],[-90.38717,38.80432,152],[-90.38721,38.8043,151],[-90.38724,38.8043,150],[-90.38727,38.80428,150],[-90.38731,38.80427,149],[-90.38735,38.80427,148],[-90.38738,38.80429,148],[-90.38741,38.80431,147],[-90.38745,38.80432,147],[-90.38748,38.80433,146],[-90.38752,38.80434,146],[-90.38755,38.80436,145],[-90.38758,38.80439,145],[-90.38761,38.80441,144],[-90.38765,38.80443,143],[-90.38769,38.80444,143],[-90.38773,38.80445,142],[-90.38778,38.80445,142],[-90.3878,38.80449,141],[-90.38781,38.80451,141],[-90.38782,38.80454,141],[-90.38782,38.80458,142],[-90.3878,38.80461,142],[-90.38779,38.80464,142],[-90.38778,38.80468,142],[-90.38778,38.80471,142],[-90.38778,38.80474,143],[-90.38779,38.80478,143],[-90.3878,38.80481,143],[-90.38781,38.80485,143],[-90.38781,38.80489,143],[-90.38782,38.80491,143],[-90.38782,38.80494,144],[-90.38783,38.80498,144],[-90.38784,38.80501,144],[-90.38785,38.80505,144],[-90.38785,38.80509,144],[-90.38785,38.80512,143],[-90.38785,38.80515,143],[-90.38786,38.80518,143],[-90.38786,38.80521,143],[-90.38787,38.80525,143],[-90.38787,38.80529,142],[-90.38788,38.80532,142],[-90.38788,38.80535,142],[-90.38789,38.80539,142],[-90.3879,38.80542,141],[-90.3879,38.80545,141],[-90.3879,38.80548,141],[-90.3879,38.8055,141],[-90.38791,38.80553,141],[-90.38791,38.80556,141],[-90.38791,38.80559,141],[-90.38791,38.80563,142],[-90.38791,38.80566,142],[-90.38792,38.80569,143],[-90.38794,38.80572,143],[-90.38795,38.80574,143],[-90.38796,38.80577,143],[-90.38797,38.8058,143],[-90.38798,38.80584,143],[-90.38799,38.80587,143],[-90.38801,38.8059,143],[-90.38802,38.80592,142],[-90.38803,38.80595,142],[-90.38803,38.80598,142],[-90.38804,38.80602,142],[-90.38804,38.80604,142],[-90.38805,38.80608,142],[-90.38806,38.80611,141],[-90.38807,38.80615,141],[-90.38807,38.80618,141],[-90.38808,38.80622,141],[-90.38808,38.80624,141],[-90.38807,38.80629,141],[-90.38807,38.80631,141],[-90.38807,38.80634,141],[-90.38807,38.80637,141],[-90.38808,38.80641,141],[-90.38808,38.80643,141],[-90.38809,38.80647,141],[-90.3881,38.80651,140],[-90.38812,38.80654,140],[-90.38813,38.80658,139],[-90.38814,38.80661,139],[-90.38815,38.80664,138],[-90.38816,38.80667,138],[-90.38817,38.8067,138],[-90.38818,38.80673,138],[-90.38819,38.80676,138],[-90.38819,38.80679,138],[-90.3882,38.80682,138],[-90.3882,38.80685,139],[-90.3882,38.80689,139],[-90.3882,38.80692,139],[-90.38821,38.80696,139],[-90.38822,38.807,140],[-90.38822,38.80703,140],[-90.38823,38.80706,140],[-90.38824,38.80709,141],[-90.38824,38.80712,141],[-90.38822,38.80715,142],[-90.38821,38.80718,142],[-90.38821,38.80721,143],[-90.38822,38.80724,143],[-90.38824,38.80727,142],[-90.38825,38.8073,142],[-90.38826,38.80733,142],[-90.38827,38.80737,142],[-90.38827,38.80741,143],[-90.38828,38.80744,142],[-90.38829,38.80747,142],[-90.3883,38.8075,142],[-90.38831,38.80754,142],[-90.38831,38.80757,142],[-90.38832,38.8076,142],[-90.38834,38.80763,142],[-90.38835,38.80766,142],[-90.38837,38.80769,142],[-90.38838,38.80773,142],[-90.38839,38.80776,143],[-90.38839,38.80779,143],[-90.3884,38.80782,142],[-90.38841,38.80785,142],[-90.38842,38.80789,142],[-90.38842,38.80793,142],[-90.38843,38.80796,141],[-90.38843,38.80799,141],[-90.38844,38.80802,141],[-90.38844,38.80805,141],[-90.38845,38.80808,141],[-90.38846,38.80812,141],[-90.38847,38.80815,141],[-90.38848,38.80818,141],[-90.38847,38.80821,142],[-90.38847,38.80824,142],[-90.38847,38.80828,142],[-90.38847,38.80831,142],[-90.38847,38.80835,143],[-90.38848,38.80838,142],[-90.38848,38.80841,143],[-90.38849,38.80844,143],[-90.38849,38.80848,143],[-90.38849,38.80852,143],[-90.38849,38.80855,143],[-90.3885,38.80858,143],[-90.38851,38.80862,143],[-90.38852,38.80864,142],[-90.38853,38.80868,142],[-90.38853,38.80871,142],[-90.38854,38.80875,142],[-90.38855,38.80877,142],[-90.38857,38.80881,141],[-90.38858,38.80883,141],[-90.38858,38.80886,141],[-90.38859,38.80889,141],[-90.38861,38.80892,141],[-90.38862,38.80895,141],[-90.38864,38.80898,141],[-90.38864,38.80901,141],[-90.38864,38.80904,141],[-90.38865,38.80907,141],[-90.38865,38.8091,141],[-90.38866,38.80913,141],[-90.38867,38.80916,141],[-90.38868,38.8092,142],[-90.3887,38.80923,142],[-90.38871,38.80926,143],[-90.38873,38.80929,143],[-90.38874,38.80932,143],[-90.38875,38.80935,144],[-90.38877,38.80939,144],[-90.38879,38.80942,144],[-90.38882,38.80945,144],[-90.38883,38.80948,145],[-90.38885,38.80951,145],[-90.38887,38.80954,145],[-90.3889,38.80957,145],[-90.38892,38.80961,145],[-90.38895,38.80964,145],[-90.38897,38.80967,145],[-90.389,38.80969,145],[-90.38903,38.80972,145],[-90.38905,38.80975,145],[-90.38907,38.80978,145],[-90.38908,38.8098,145],[-90.38909,38.80983,145],[-90.3891,38.80987,145],[-90.38911,38.80991,145],[-90.38912,38.80994,144],[-90.38913,38.80997,144],[-90.38914,38.81001,144],[-90.38915,38.81005,144],[-90.38915,38.81008,144],[-90.38916,38.81012,143],[-90.38917,38.81016,143],[-90.38918,38.81019,143],[-90.3892,38.81022,143],[-90.38921,38.81025,142],[-90.38923,38.81028,142],[-90.38921,38.81031,143],[-90.38924,38.81033,143],[-90.38926,38.81035,143],[-90.38927,38.81037,143],[-90.38927,38.8104,143],[-90.38925,38.81043,143],[-90.38926,38.81046,143],[-90.38928,38.81048,143],[-90.3893,38.81051,143],[-90.38933,38.81054,143],[-90.38936,38.81057,143],[-90.38939,38.81059,144],[-90.38942,38.81061,144],[-90.38946,38.81062,144],[-90.38949,38.81064,144],[-90.38953,38.81065,144],[-90.38957,38.81066,144],[-90.38962,38.81067,144],[-90.38966,38.81068,144],[-90.3897,38.81069,144],[-90.38975,38.8107,144],[-90.38979,38.81072,144],[-90.38983,38.81072,143],[-90.38986,38.81072,143],[-90.38991,38.81073,143],[-90.38995,38.81073,142],[-90.38998,38.81073,142],[-90.39003,38.81073,142],[-90.39006,38.81073,142],[-90.39011,38.81073,141],[-90.39015,38.81073,141],[-90.3902,38.81073,141],[-90.39024,38.81073,141],[-90.39029,38.81073,140],[-90.39032,38.81073,140],[-90.39036,38.81073,140],[-90.3904,38.81073,140],[-90.39044,38.81073,140],[-90.39049,38.81074,139],[-90.39053,38.81075,139],[-90.39057,38.81076,139],[-90.39061,38.81077,139],[-90.39064,38.81079,139],[-90.39068,38.8108,139],[-90.39071,38.81081,138],[-90.39075,38.81082,138],[-90.39078,38.81083,138],[-90.39081,38.81085,138],[-90.39084,38.81088,138],[-90.39087,38.8109,138],[-90.3909,38.81092,138],[-90.39091,38.81095,138],[-90.39091,38.81098,138],[-90.39089,38.811,139],[-90.39087,38.81103,139],[-90.39086,38.81107,140],[-90.39086,38.81111,140],[-90.39087,38.81114,140],[-90.39087,38.81118,141],[-90.39087,38.81121,141],[-90.39086,38.81124,141],[-90.39082,38.81126,142],[-90.39078,38.81128,142],[-90.39073,38.81129,142],[-90.3907,38.8113,142],[-90.39065,38.81131,142],[-90.3906,38.81132,142],[-90.39057,38.81132,142],[-90.39053,38.81131,142],[-90.3905,38.81131,142],[-90.39046,38.8113,142],[-90.39043,38.81128,142],[-90.3904,38.81125,142],[-90.39037,38.81123,142],[-90.39034,38.81121,142],[-90.39031,38.81119,142],[-90.39028,38.81117,142],[-90.39024,38.81117,143],[-90.3902,38.81118,144],[-90.39017,38.81119,144],[-90.39013,38.81119,144],[-90.39009,38.81118,145],[-90.39005,38.81117,145],[-90.39002,38.81116,146],[-90.38998,38.81116,146],[-90.38994,38.81116,147],[-90.38991,38.81116,148],[-90.38987,38.81115,148],[-90.38983,38.81115,149],[-90.38979,38.81116,149],[-90.38977,38.81119,149],[-90.38974,38.81121,150],[-90.38971,38.81123,150],[-90.38967,38.81123,150],[-90.38964,38.81122,151],[-90.3896,38.81121,151],[-90.38956,38.81119,151],[-90.38952,38.81118,151],[-90.38948,38.81119,151],[-90.38945,38.81121,151],[-90.38943,38.81124,152],[-90.38941,38.81126,152],[-90.3894,38.81129,152],[-90.38938,38.81132,152],[-90.38938,38.81135,152],[-90.38939,38.81138,152],[-90.38938,38.81141,152],[-90.38934,38.8114,152],[-90.38932,38.81137,152],[-90.38929,38.81135,152],[-90.38926,38.81134,152],[-90.38922,38.81135,152],[-90.3892,38.81138,152],[-90.38919,38.81141,152],[-90.38919,38.81144,152],[-90.38917,38.81147,152],[-90.38914,38.81149,152],[-90.38911,38.81151,153],[-90.38908,38.81153,154],[-90.38904,38.81154,155],[-90.389,38.81155,156],[-90.38897,38.81156,157],[-90.38893,38.81156,158],[-90.3889,38.81158,159],[-90.38887,38.8116,159],[-90.38883,38.81161,160],[-90.38882,38.81164,161],[-90.38883,38.81167,161],[-90.38879,38.81168,161],[-90.38876,38.8117,161],[-90.38873,38.81171,162],[-90.3887,38.81173,162],[-90.38868,38.81175,162],[-90.38865,38.81178,163],[-90.38863,38.8118,163],[-90.38861,38.81184,163],[-90.38859,38.81187,163],[-90.3886,38.81191,162],[-90.38862,38.81195,161],[-90.38866,38.81196,161],[-90.38871,38.81197,160],[-90.38874,38.81198,160],[-90.38876,38.81201,160],[-90.38878,38.81203,160],[-90.38882,38.81204,159],[-90.38885,38.81204,159],[-90.38889,38.81205,158],[-90.38891,38.81207,159],[-90.38891,38.8121,159],[-90.38891,38.81214,160],[-90.38889,38.81217,160],[-90.38887,38.81219,161],[-90.38885,38.81222,162],[-90.38883,38.81224,162],[-90.38881,38.81227,163],[-90.38878,38.81229,163],[-90.38875,38.8123,164],[-90.38871,38.81231,164],[-90.38868,38.81234,165],[-90.38868,38.81237,165],[-90.38868,38.8124,166],[-90.38867,38.81243,166],[-90.38867,38.81246,167],[-90.38868,38.81249,167],[-90.38869,38.81252,167],[-90.38867,38.81255,168],[-90.38866,38.81258,168],[-90.38866,38.81261,168],[-90.38866,38.81264,168],[-90.38866,38.81267,168],[-90.38862,38.81269,169],[-90.38859,38.8127,170],[-90.38854,38.81272,172],[-90.3885,38.81274,173],[-90.38846,38.81275,175],[-90.38842,38.81275,176],[-90.38838,38.81277,178],[-90.38833,38.81278,180],[-90.38829,38.81279,181],[-90.38825,38.8128,182],[-90.38821,38.81281,184],[-90.38818,38.81283,185],[-90.38814,38.81285,186],[-90.3881,38.81285,187],[-90.38807,38.81288,188],[-90.38809,38.81291,188],[-90.3881,38.81294,188],[-90.3881,38.81297,189],[-90.38811,38.813,189],[-90.38812,38.81303,189],[-90.38812,38.81306,189],[-90.38811,38.8131,190],[-90.3881,38.81313,191],[-90.38808,38.81317,192],[-90.38806,38.81319,193],[-90.38804,38.81322,194],[-90.388,38.81325,194],[-90.38797,38.81327,195],[-90.38794,38.8133,195],[-90.3879,38.81331,195],[-90.38786,38.81331,195],[-90.38781,38.81332,195],[-90.38777,38.81332,195],[-90.38772,38.81332,195],[-90.38769,38.81333,195],[-90.38764,38.81333,195],[-90.3876,38.81334,194],[-90.3876,38.81337,195],[-90.38761,38.8134,195],[-90.38763,38.81343,195],[-90.38764,38.81345,195],[-90.38765,38.81348,196],[-90.38764,38.81351,196],[-90.38763,38.81354,196],[-90.38763,38.81357,196],[-90.38762,38.8136,196],[-90.3876,38.81362,196],[-90.3876,38.81365,197],[-90.38759,38.81368,197],[-90.38759,38.81371,197],[-90.38759,38.81374,198],[-90.38759,38.81377,198],[-90.3876,38.8138,198],[-90.3876,38.81383,199],[-90.38762,38.81385,199],[-90.38765,38.81387,199],[-90.38769,38.81388,199],[-90.38771,38.81391,200],[-90.3877,38.81394,200],[-90.38775,38.81395,200],[-90.38779,38.81395,199],[-90.38783,38.81395,199],[-90.38786,38.81396,199],[-90.38791,38.81396,199],[-90.38794,38.81396,199],[-90.38798,38.81394,199],[-90.38801,38.81392,199],[-90.38804,38.8139,199],[-90.38808,38.81388,198],[-90.38812,38.81388,198],[-90.38817,38.81388,198],[-90.3882,38.81388,198],[-90.38824,38.81389,198],[-90.38828,38.8139,198],[-90.38832,38.81391,198],[-90.38836,38.81393,197],[-90.3884,38.81394,197],[-90.38843,38.81396,197],[-90.38846,38.81398,197],[-90.38849,38.814,196],[-90.38853,38.81401,196],[-90.38857,38.81403,196],[-90.38861,38.81404,196],[-90.38865,38.81405,195],[-90.38868,38.81406,195],[-90.38871,38.81408,194],[-90.38875,38.81409,194],[-90.38878,38.8141,194],[-90.38882,38.81411,193],[-90.38886,38.81412,193],[-90.3889,38.81414,192],[-90.38894,38.81414,192],[-90.38897,38.81415,192],[-90.38901,38.81415,192],[-90.38905,38.81415,192],[-90.38909,38.81415,192],[-90.38913,38.81414,192],[-90.38918,38.81414,192],[-90.38921,38.81415,191],[-90.38925,38.81415,191],[-90.38929,38.81417,190],[-90.38932,38.81419,190],[-90.38935,38.81421,189],[-90.38939,38.81423,189],[-90.38941,38.81425,189],[-90.38944,38.81428,188],[-90.38947,38.8143,188],[-90.3895,38.81432,188],[-90.38953,38.81434,188],[-90.38956,38.81436,188],[-90.38959,38.81438,188],[-90.38961,38.81441,188],[-90.38963,38.81443,189],[-90.38963,38.81446,189],[-90.38963,38.81449,189],[-90.38963,38.81452,189],[-90.38962,38.81456,190],[-90.3896,38.81458,190],[-90.38959,38.81462,190],[-90.38956,38.81463,190],[-90.38955,38.81467,191],[-90.38954,38.81469,191],[-90.38954,38.81473,191],[-90.38955,38.81476,190],[-90.38955,38.81479,190],[-90.38956,38.81482,190],[-90.38957,38.81485,190],[-90.38958,38.81488,189],[-90.3896,38.8149,189],[-90.38962,38.81493,189],[-90.38964,38.81496,189],[-90.38968,38.81497,189],[-90.38971,38.81499,189],[-90.38975,38.815,189],[-90.38978,38.81502,188],[-90.38981,38.81504,188],[-90.38983,38.81506,187],[-90.38985,38.81509,186],[-90.38987,38.81512,186],[-90.38989,38.81514,185],[-90.38991,38.81517,184],[-90.38993,38.81519,184],[-90.38996,38.81521,183],[-90.38998,38.81524,183],[-90.39001,38.81525,182],[-90.39005,38.81527,182],[-90.39008,38.81528,181],[-90.39011,38.81529,181],[-90.39015,38.81531,181],[-90.39018,38.81532,181],[-90.39022,38.81533,181],[-90.39025,38.81534,181],[-90.39029,38.81535,181],[-90.39032,38.81536,181],[-90.39035,38.81538,181],[-90.39039,38.81538,181],[-90.39043,38.81539,181],[-90.39046,38.8154,182],[-90.3905,38.8154,182],[-90.39053,38.81541,182],[-90.39057,38.81542,183],[-90.39061,38.81542,183],[-90.39065,38.81542,183],[-90.39068,38.81542,184],[-90.39072,38.81542,184],[-90.39076,38.81543,185],[-90.3908,38.81544,185],[-90.39085,38.81544,185],[-90.3909,38.81545,185],[-90.39095,38.81545,186],[-90.39099,38.81544,186],[-90.39103,38.81543,186],[-90.39107,38.81541,186],[-90.39111,38.81539,186],[-90.39114,38.81537,186],[-90.39118,38.81535,186],[-90.39122,38.81535,186],[-90.39126,38.81535,186],[-90.39131,38.81536,185],[-90.39135,38.81537,185],[-90.3914,38.81538,185],[-90.39144,38.8154,184],[-90.39148,38.81542,184],[-90.39152,38.81544,183],[-90.39155,38.81546,183],[-90.39158,38.81549,183],[-90.3916,38.81552,183],[-90.39162,38.81554,183],[-90.39164,38.81557,183],[-90.39165,38.81559,182],[-90.39167,38.81562,182],[-90.39169,38.81565,181],[-90.39171,38.81567,180],[-90.39174,38.81569,179],[-90.39178,38.8157,178],[-90.3918,38.81572,177],[-90.39183,38.81574,176],[-90.39184,38.81577,176],[-90.39184,38.81581,175],[-90.39183,38.81584,175],[-90.39182,38.81587,174],[-90.39182,38.8159,174],[-90.39182,38.81593,173],[-90.39183,38.81596,172],[-90.39182,38.81598,172],[-90.39181,38.81602,171],[-90.39181,38.81605,171],[-90.39181,38.81608,170],[-90.3918,38.81611,170],[-90.39179,38.81614,169],[-90.39177,38.81617,168],[-90.39176,38.81619,168],[-90.39174,38.81622,168],[-90.39173,38.81625,167],[-90.39172,38.81628,166],[-90.39171,38.81631,165],[-90.3917,38.81633,165],[-90.39167,38.81633,166],[-90.39163,38.81635,166],[-90.39163,38.81639,164],[-90.39163,38.81643,163],[-90.39162,38.81646,163],[-90.3916,38.81649,162],[-90.39157,38.81651,162],[-90.39155,38.81653,162],[-90.39152,38.81656,162],[-90.39151,38.81658,162],[-90.39149,38.81661,161],[-90.39147,38.81664,161],[-90.39144,38.81666,161],[-90.39141,38.81668,161],[-90.39137,38.8167,161],[-90.39134,38.81671,161],[-90.39131,38.81674,160],[-90.39128,38.81676,160],[-90.39128,38.81679,159],[-90.39127,38.81682,158],[-90.39125,38.81684,158],[-90.39123,38.81686,158],[-90.3912,38.81688,158],[-90.39116,38.8169,158],[-90.39113,38.81692,158],[-90.3911,38.81693,158],[-90.39106,38.81692,159],[-90.39104,38.81688,160],[-90.39102,38.81686,161],[-90.39099,38.81683,162],[-90.39095,38.8168,163],[-90.39092,38.81678,164],[-90.3909,38.81676,164],[-90.39088,38.81673,165],[-90.39084,38.81672,166],[-90.39081,38.81674,165],[-90.3908,38.81676,165],[-90.39078,38.81679,165],[-90.39078,38.81682,164],[-90.39082,38.81682,164],[-90.39077,38.81682,164],[-90.39073,38.81681,165],[-90.39069,38.81682,165],[-90.39067,38.81684,165],[-90.39064,38.81685,165],[-90.3906,38.81686,165],[-90.39056,38.81687,165],[-90.39054,38.81689,165],[-90.39051,38.81692,165],[-90.39048,38.81693,165],[-90.39046,38.81696,165],[-90.39048,38.81699,164],[-90.39051,38.81701,163],[-90.39054,38.81703,162],[-90.39057,38.81704,161],[-90.39061,38.81705,160],[-90.39062,38.81708,159],[-90.39063,38.81711,158],[-90.39062,38.81714,157],[-90.39066,38.81715,156],[-90.39065,38.81718,155],[-90.39063,38.8172,155],[-90.39063,38.81723,154],[-90.39061,38.81726,153],[-90.39062,38.81729,152],[-90.3906,38.81731,152],[-90.3906,38.81734,150],[-90.39058,38.81738,149],[-90.39057,38.81741,149],[-90.39055,38.81743,148],[-90.39051,38.81744,148],[-90.39048,38.81746,148],[-90.39045,38.81748,147],[-90.39044,38.8175,147],[-90.39044,38.81754,146],[-90.39044,38.81757,145],[-90.39045,38.81759,145],[-90.39044,38.81763,144],[-90.3904,38.81765,144],[-90.39036,38.81765,144],[-90.39033,38.81765,145],[-90.39029,38.81766,145],[-90.39025,38.81768,145],[-90.39022,38.8177,145],[-90.39019,38.81772,145],[-90.39016,38.81775,145],[-90.39013,38.81777,145],[-90.39009,38.81778,146],[-90.39005,38.81778,147],[-90.39003,38.8178,147],[-90.39001,38.81783,146],[-90.38997,38.81784,147],[-90.38993,38.81784,147],[-90.38989,38.81785,147],[-90.38986,38.81785,148],[-90.38983,38.81787,148],[-90.3898,38.81789,148],[-90.38976,38.8179,148],[-90.38972,38.81789,149],[-90.38969,38.81789,149],[-90.38966,38.81791,149],[-90.38962,38.81791,149],[-90.38957,38.81792,149],[-90.38955,38.81794,149],[-90.38953,38.81797,148],[-90.38949,38.81797,148],[-90.38945,38.81798,148],[-90.38941,38.81799,148],[-90.38937,38.81799,149],[-90.38933,38.81798,150],[-90.3893,38.81798,150],[-90.38928,38.818,150],[-90.38924,38.818,150],[-90.3892,38.818,151],[-90.38917,38.81799,152],[-90.38913,38.818,152],[-90.3891,38.81801,153],[-90.38907,38.81803,153],[-90.38905,38.81805,153],[-90.38902,38.81806,153],[-90.38905,38.81803,153],[-90.38908,38.81802,153],[-90.38912,38.81801,152],[-90.38909,38.81803,152],[-90.38904,38.81804,153],[-90.389,38.81804,154],[-90.38896,38.81804,155],[-90.38891,38.81804,156],[-90.38886,38.81803,158],[-90.38882,38.81803,159],[-90.38878,38.81803,159],[-90.38874,38.81803,160],[-90.38871,38.81804,161],[-90.38868,38.81805,161],[-90.38865,38.81807,161],[-90.38861,38.81809,161],[-90.38858,38.81808,162],[-90.38854,38.81809,161],[-90.38853,38.81812,160],[-90.38852,38.81815,159],[-90.3885,38.81818,157],[-90.38848,38.8182,156],[-90.38847,38.81824,154],[-90.38847,38.81827,153],[-90.38845,38.81829,152],[-90.38842,38.81831,151],[-90.3884,38.81834,149],[-90.3884,38.81837,148],[-90.38841,38.8184,147],[-90.38842,38.81843,145],[-90.38843,38.81846,144],[-90.3884,38.81849,143],[-90.38838,38.81851,142],[-90.38835,38.81854,141],[-90.38832,38.81856,140],[-90.38828,38.81857,140],[-90.38825,38.81858,140],[-90.38821,38.8186,140],[-90.38818,38.81861,140],[-90.38814,38.81861,140],[-90.3881,38.81862,141],[-90.38807,38.81863,141],[-90.38805,38.81866,141],[-90.38802,38.81868,141],[-90.388,38.8187,141],[-90.38797,38.81872,141],[-90.38793,38.81872,142],[-90.38789,38.81873,142],[-90.38787,38.81876,142],[-90.38786,38.81879,142],[-90.38783,38.81881,142],[-90.38779,38.81881,143],[-90.38775,38.81882,143],[-90.38772,38.81883,143],[-90.38768,38.81884,142],[-90.38764,38.81884,142],[-90.38761,38.81884,143],[-90.38757,38.81885,142],[-90.38754,38.81887,142],[-90.38752,38.81889,141],[-90.3875,38.81892,141],[-90.3875,38.81895,140],[-90.38749,38.81897,139],[-90.3875,38.819,138],[-90.3875,38.81903,137],[-90.38749,38.81907,136],[-90.38746,38.81909,135],[-90.38742,38.81911,134],[-90.38739,38.81911,134],[-90.38735,38.81911,134],[-90.38731,38.81912,134],[-90.38728,38.81913,133],[-90.38725,38.81915,132],[-90.38722,38.81916,132],[-90.38718,38.81917,132],[-90.38719,38.8192,132],[-90.38719,38.81923,132],[-90.38715,38.81924,132],[-90.38712,38.81925,132],[-90.38709,38.81926,132],[-90.38706,38.81928,132],[-90.38702,38.8193,132],[-90.38699,38.81932,132],[-90.38696,38.81933,132],[-90.38693,38.81935,132],[-90.38689,38.81935,132],[-90.38685,38.81936,132],[-90.38681,38.81938,132],[-90.3868,38.81941,132],[-90.38678,38.81943,132],[-90.38675,38.81944,132],[-90.3867,38.81945,131],[-90.38666,38.81946,131],[-90.38663,38.81947,131],[-90.38661,38.81949,131],[-90.38657,38.81951,131],[-90.38654,38.81952,131],[-90.3865,38.81952,131],[-90.38648,38.8195,131],[-90.38644,38.8195,131],[-90.3864,38.8195,131],[-90.38636,38.81951,131],[-90.38633,38.81952,132],[-90.38629,38.81952,133],[-90.38627,38.81955,133],[-90.38625,38.81957,133],[-90.38621,38.81959,133],[-90.38618,38.8196,133],[-90.38614,38.81961,133],[-90.3861,38.81962,134],[-90.38607,38.81961,134],[-90.38603,38.8196,134],[-90.38599,38.8196,135],[-90.38595,38.8196,135],[-90.38591,38.81961,135],[-90.38588,38.81963,134],[-90.38584,38.81963,134],[-90.38581,38.81963,134],[-90.38578,38.81961,135],[-90.38575,38.8196,135],[-90.38571,38.81961,135],[-90.38567,38.81962,135],[-90.38564,38.81962,135],[-90.38559,38.81963,134],[-90.38555,38.81963,134],[-90.38551,38.81964,134],[-90.38548,38.81965,133],[-90.38543,38.81966,133],[-90.38539,38.81967,133],[-90.38536,38.81967,133],[-90.38531,38.81967,133],[-90.38528,38.81966,133],[-90.38524,38.81965,133],[-90.3852,38.81965,133],[-90.38516,38.81966,133],[-90.38515,38.81969,132],[-90.38516,38.81972,131],[-90.38515,38.81975,131],[-90.38511,38.81975,131],[-90.38515,38.81974,131],[-90.38519,38.81975,131],[-90.38522,38.81974,131],[-90.38526,38.81974,131],[-90.3853,38.81973,131],[-90.38532,38.81971,131],[-90.38536,38.8197,131],[-90.38539,38.81969,132],[-90.38543,38.8197,131],[-90.38546,38.81968,132],[-90.38549,38.81966,133],[-90.38553,38.81967,133],[-90.38557,38.81968,132],[-90.3856,38.81968,132],[-90.38564,38.81969,132],[-90.38568,38.8197,131],[-90.38571,38.81971,131],[-90.38575,38.81972,131],[-90.38578,38.8197,131],[-90.38577,38.81967,133],[-90.38573,38.81966,133],[-90.38571,38.81963,134],[-90.38571,38.8196,135],[-90.38575,38.81959,136],[-90.38579,38.81958,136],[-90.38583,38.81958,136],[-90.38585,38.81961,135],[-90.38589,38.81962,134],[-90.38593,38.81963,134],[-90.38596,38.81963,134],[-90.38598,38.8196,135],[-90.38601,38.81958,135],[-90.38605,38.81959,135],[-90.38608,38.81958,135],[-90.38611,38.81957,135],[-90.38615,38.81958,134],[-90.38618,38.81958,134],[-90.38622,38.81957,133],[-90.38626,38.81956,133],[-90.3863,38.81956,132],[-90.38633,38.81956,131],[-90.38637,38.81955,131],[-90.3864,38.81953,131],[-90.38644,38.81953,131],[-90.38648,38.81952,131],[-90.38651,38.81951,131],[-90.38653,38.81949,131],[-90.38656,38.81947,131],[-90.38659,38.81945,131],[-90.38662,38.81943,132],[-90.38666,38.81942,132],[-90.38669,38.81941,132],[-90.38672,38.8194,132],[-90.38676,38.8194,132],[-90.3868,38.8194,132],[-90.38683,38.81939,132],[-90.38686,38.81937,132],[-90.38688,38.81935,132],[-90.38692,38.81933,132],[-90.38696,38.81931,132],[-90.387,38.81928,132],[-90.38705,38.81927,132],[-90.38709,38.81926,132],[-90.38713,38.81924,132],[-90.38717,38.81922,132],[-90.3872,38.81919,132],[-90.38723,38.81916,132],[-90.38725,38.81913,133],[-90.38728,38.81911,134],[-90.38731,38.81909,135],[-90.38734,38.81907,136],[-90.38734,38.81909,135],[-90.38738,38.81909,135],[-90.38742,38.81908,135],[-90.38744,38.81906,136],[-90.38747,38.81903,137],[-90.38749,38.819,138],[-90.38749,38.81897,139],[-90.3875,38.81894,140],[-90.38752,38.81891,141],[-90.38754,38.81888,142],[-90.38756,38.81885,142],[-90.38759,38.81882,143],[-90.38764,38.81881,143],[-90.38768,38.81881,143],[-90.38771,38.81881,143],[-90.38775,38.8188,143],[-90.38778,38.81878,143],[-90.38782,38.81877,143],[-90.38785,38.81875,143],[-90.38788,38.81873,143],[-90.38791,38.81871,142],[-90.38794,38.81869,142],[-90.38796,38.81867,142],[-90.38799,38.81866,142],[-90.38803,38.81865,141],[-90.38806,38.81864,141],[-90.3881,38.81862,141],[-90.38813,38.8186,141],[-90.38816,38.81858,141],[-90.3882,38.81857,141],[-90.38823,38.81857,141],[-90.38827,38.81856,140],[-90.3883,38.81854,141],[-90.38832,38.81851,142],[-90.38834,38.81849,143],[-90.38837,38.81846,144],[-90.38838,38.81844,145],[-90.38838,38.81841,146],[-90.38838,38.81838,148],[-90.38836,38.81835,149],[-90.38835,38.81832,150],[-90.38835,38.8183,151],[-90.38834,38.81827,153],[-90.38836,38.81824,154],[-90.38838,38.81822,156],[-90.38842,38.81821,156],[-90.38845,38.81819,157],[-90.38848,38.81818,157],[-90.38851,38.81815,159],[-90.38853,38.81812,160],[-90.38853,38.81809,161],[-90.38855,38.81807,162],[-90.38857,38.81804,163],[-90.38861,38.81803,163],[-90.38865,38.81803,162],[-90.38868,38.81804,161],[-90.38872,38.81803,161],[-90.38876,38.81802,160],[-90.3888,38.81801,160],[-90.38883,38.818,159],[-90.38888,38.81799,159],[-90.38891,38.818,158],[-90.38895,38.81799,157],[-90.38899,38.81799,156],[-90.38903,38.81799,155],[-90.38907,38.818,154],[-90.38911,38.81799,153],[-90.38913,38.81797,153],[-90.38913,38.81795,154],[-90.38915,38.81792,154],[-90.38919,38.81792,153],[-90.38922,38.81794,152],[-90.38926,38.81796,151],[-90.38929,38.81797,151],[-90.38933,38.81797,150],[-90.38936,38.81795,150],[-90.38939,38.81793,150],[-90.38943,38.81793,150],[-90.38947,38.81793,149],[-90.3895,38.81791,149],[-90.38954,38.8179,149],[-90.38957,38.81788,150],[-90.3896,38.81786,150],[-90.38963,38.81784,150],[-90.38967,38.81783,150],[-90.3897,38.81781,150],[-90.38974,38.8178,150],[-90.38978,38.8178,150],[-90.38982,38.8178,149],[-90.38986,38.8178,149],[-90.38989,38.81779,148],[-90.38993,38.81777,148],[-90.38996,38.81776,148],[-90.38999,38.81775,148],[-90.39003,38.81774,148],[-90.39007,38.81773,147],[-90.39011,38.81773,146],[-90.39015,38.81771,146],[-90.39017,38.81769,146],[-90.39021,38.81769,145],[-90.39022,38.81766,146],[-90.39023,38.81763,146],[-90.39025,38.81761,146],[-90.39028,38.81759,147],[-90.39032,38.81759,146],[-90.39035,38.81757,146],[-90.39039,38.81756,146],[-90.39042,38.81755,146],[-90.39045,38.81753,146],[-90.39046,38.8175,147],[-90.39047,38.81747,147],[-90.39049,38.81744,148],[-90.39052,38.81743,148],[-90.39056,38.81741,149],[-90.39059,38.81741,148],[-90.39063,38.8174,148],[-90.39065,38.81738,148],[-90.39068,38.81735,149],[-90.39072,38.81734,149],[-90.39076,38.81735,148],[-90.39079,38.81736,147],[-90.39084,38.81736,146],[-90.39087,38.81735,146],[-90.39091,38.81734,146],[-90.39095,38.81733,145],[-90.39099,38.81733,145],[-90.39102,38.81732,144],[-90.39104,38.81729,145],[-90.39106,38.81726,145],[-90.39107,38.81723,146],[-90.3911,38.81721,146],[-90.39112,38.81718,147],[-90.39112,38.81715,148],[-90.39112,38.81712,150],[-90.39113,38.81709,151],[-90.39116,38.81707,151],[-90.39119,38.81706,151],[-90.39122,38.81705,151],[-90.39127,38.81704,150],[-90.39131,38.81704,150],[-90.39135,38.81703,149],[-90.39139,38.81702,149],[-90.39143,38.817,149],[-90.39147,38.81699,149],[-90.39151,38.81697,149],[-90.39154,38.81696,149],[-90.39157,38.81694,149],[-90.39154,38.81694,150],[-90.39157,38.81695,149],[-90.39161,38.81694,149],[-90.39165,38.81693,148],[-90.39168,38.81691,149],[-90.39171,38.81689,149],[-90.39175,38.81688,149],[-90.39178,38.81687,149],[-90.39181,38.81685,150],[-90.39183,38.81682,150],[-90.39184,38.81679,150],[-90.39185,38.81676,151],[-90.39186,38.81673,151],[-90.39188,38.8167,151],[-90.39191,38.81668,151],[-90.39194,38.81666,151],[-90.39197,38.81663,151],[-90.39199,38.81661,151],[-90.39202,38.81658,150],[-90.39203,38.81656,151],[-90.39206,38.81653,151],[-90.39209,38.81652,150],[-90.39212,38.8165,150],[-90.39216,38.81649,149],[-90.3922,38.81648,148],[-90.39223,38.81646,148],[-90.39225,38.81644,147],[-90.39228,38.81642,147],[-90.3923,38.81644,146],[-90.39233,38.81641,146],[-90.39234,38.81638,146],[-90.39235,38.81635,147],[-90.39235,38.81631,148],[-90.39233,38.81629,149],[-90.39232,38.81626,150],[-90.39232,38.81622,151],[-90.39233,38.81619,152],[-90.39233,38.81616,153],[-90.39235,38.81614,153],[-90.39239,38.81612,152],[-90.39241,38.8161,151],[-90.39245,38.81608,150],[-90.39248,38.81607,149],[-90.39252,38.81606,148],[-90.39256,38.81604,146],[-90.39259,38.81602,145],[-90.39262,38.81601,145],[-90.39266,38.81599,143],[-90.39268,38.81597,143],[-90.39269,38.81594,142],[-90.39269,38.81591,142],[-90.3927,38.81589,142],[-90.39271,38.81586,142],[-90.39269,38.81583,142],[-90.39266,38.81581,144],[-90.39264,38.81579,145],[-90.39261,38.81577,146],[-90.39258,38.81575,148],[-90.39255,38.81572,150],[-90.39253,38.8157,151],[-90.39252,38.81567,152],[-90.39251,38.81564,153],[-90.3925,38.81562,154],[-90.39249,38.81559,155],[-90.39249,38.81556,156],[-90.39252,38.81553,155],[-90.39256,38.81551,154],[-90.39259,38.8155,153],[-90.39262,38.81548,152],[-90.39265,38.81546,151],[-90.39268,38.81544,151],[-90.39271,38.81542,150],[-90.39274,38.8154,150],[-90.39278,38.81538,150],[-90.39281,38.81537,149],[-90.39285,38.81535,148],[-90.39289,38.81534,148],[-90.39292,38.81532,148],[-90.39295,38.81531,147],[-90.39299,38.8153,146],[-90.39303,38.81529,146],[-90.39306,38.81528,145],[-90.39309,38.81525,145],[-90.3931,38.81523,145],[-90.39312,38.8152,144],[-90.39314,38.81517,144],[-90.39315,38.81515,144],[-90.39317,38.81512,144],[-90.39318,38.81509,144],[-90.39319,38.81506,144],[-90.39319,38.81503,144],[-90.39317,38.815,145],[-90.39314,38.81499,146],[-90.3931,38.81497,146],[-90.39307,38.81496,147],[-90.39303,38.81495,147],[-90.393,38.81494,148],[-90.39296,38.81492,148],[-90.39293,38.8149,148],[-90.3929,38.81489,149],[-90.39288,38.81486,149],[-90.39287,38.81484,149],[-90.39285,38.81481,150],[-90.39284,38.81478,150],[-90.39283,38.81475,150],[-90.39283,38.81472,150],[-90.39284,38.81469,150],[-90.39284,38.81466,150],[-90.39285,38.81463,150],[-90.39284,38.81461,151],[-90.39283,38.81458,151],[-90.3928,38.81455,152],[-90.39278,38.81453,152],[-90.39276,38.8145,152],[-90.39273,38.81448,153],[-90.3927,38.81446,153],[-90.39267,38.81445,154],[-90.39263,38.81444,154],[-90.39259,38.81443,154],[-90.39256,38.81441,154],[-90.39254,38.81439,154],[-90.39253,38.81436,153],[-90.39251,38.81434,153],[-90.39249,38.81431,153],[-90.39246,38.81429,152],[-90.39243,38.81427,152],[-90.3924,38.81426,152],[-90.39237,38.81425,152],[-90.39233,38.81424,151],[-90.3923,38.81423,151],[-90.39226,38.81421,151],[-90.39224,38.81419,151],[-90.39221,38.81417,151],[-90.39219,38.81415,150],[-90.39217,38.81412,148],[-90.39215,38.81409,146],[-90.39215,38.81406,144],[-90.39217,38.81403,142],[-90.3922,38.81401,141],[-90.39223,38.81399,139],[-90.39225,38.81397,138],[-90.39229,38.81396,138],[-90.39232,38.81394,137],[-90.39236,38.81393,137],[-90.39238,38.81391,137],[-90.3924,38.81388,136],[-90.39242,38.81386,136],[-90.39245,38.81383,137],[-90.39247,38.81381,137],[-90.39249,38.81378,138],[-90.39251,38.81376,138],[-90.39253,38.81373,138],[-90.39255,38.81371,138],[-90.39256,38.81367,138],[-90.39257,38.81365,138],[-90.39258,38.81361,138],[-90.39258,38.81358,138],[-90.39259,38.81355,138],[-90.39262,38.81353,137],[-90.39264,38.8135,137],[-90.39266,38.81347,137],[-90.39268,38.81345,136],[-90.39271,38.81343,136],[-90.39274,38.81341,136],[-90.39277,38.81338,135],[-90.3928,38.81336,135],[-90.39283,38.81334,134],[-90.39285,38.81332,134],[-90.39287,38.81329,134],[-90.3929,38.81327,134],[-90.39293,38.81326,133],[-90.39296,38.81324,133],[-90.39298,38.81321,133],[-90.39299,38.81318,133],[-90.39302,38.81316,133],[-90.39305,38.81315,133],[-90.39308,38.81312,132],[-90.39311,38.8131,132],[-90.39314,38.81308,132],[-90.39317,38.81307,132],[-90.3932,38.81305,133],[-90.39323,38.81303,133],[-90.39325,38.81301,133],[-90.39327,38.81298,133],[-90.39329,38.81295,133],[-90.39331,38.81293,133],[-90.39335,38.81291,134],[-90.39338,38.81289,134],[-90.39342,38.81288,133],[-90.39346,38.81287,133],[-90.3935,38.81285,133],[-90.39352,38.81283,133],[-90.39356,38.81281,133],[-90.39357,38.81277,134],[-90.39356,38.81274,134],[-90.39352,38.81275,134],[-90.39352,38.81278,134],[-90.39355,38.81276,134],[-90.39359,38.81276,134],[-90.39363,38.81275,134],[-90.39367,38.81274,134],[-90.39371,38.81274,134],[-90.39374,38.81272,134],[-90.39377,38.81269,134],[-90.3938,38.81267,135],[-90.39382,38.81265,135],[-90.39384,38.81262,135],[-90.39386,38.81259,135],[-90.39388,38.81257,136],[-90.39391,38.81254,136],[-90.39393,38.81253,136],[-90.39397,38.81251,136],[-90.394,38.8125,137],[-90.39404,38.81248,137],[-90.39408,38.81245,137],[-90.39412,38.81243,137],[-90.39415,38.81241,137],[-90.39418,38.81239,137],[-90.39421,38.81237,137],[-90.39423,38.81235,137],[-90.39426,38.81232,137],[-90.39429,38.81229,137],[-90.39432,38.81227,137],[-90.39436,38.81226,137],[-90.39438,38.81224,137],[-90.3944,38.81221,138],[-90.39442,38.81219,138],[-90.39445,38.81216,137],[-90.39447,38.81214,137],[-90.39449,38.81211,137],[-90.39452,38.81208,137],[-90.39455,38.81206,137],[-90.39457,38.81204,137],[-90.3946,38.81201,137],[-90.39463,38.81199,137],[-90.39465,38.81196,137],[-90.39466,38.81193,137],[-90.39468,38.8119,136],[-90.3947,38.81188,136],[-90.39473,38.81186,136],[-90.39476,38.81184,135],[-90.3948,38.81182,135],[-90.39484,38.81181,134],[-90.39486,38.81179,134],[-90.39488,38.81177,134],[-90.3949,38.81174,134],[-90.39492,38.81172,133]]],
        "bbox": [
          -90.38511,
          38.81975,
          -90.39499,
          38.80427
        ]
      },
      "properties": {
        "name": "4.8.2023"
      }
    }
  ]
}