{
  "type": "FeatureCollection",
  "features": [
    {
      "type": "Feature",
      "geometry": {
        "type": "MultiLineString",
        "coordinates": [[[-90.3952,38.81152,132],[-90.39516,38.81155,132],[-90.39514,38.81157,132],[-90.39511,38.81159,132],[-90.39507,38.81161,132],[-90.39504,38.81163,132],[-90.39501,38.81165,132],[-90.39498,38.81167,133],[-90.39495,38.81169,133],[-90.39493,38.81171,133],[-90.3949,38.81174,134],[-90.39487,38.81175,134],[-90.39484,38.81177,134],[-90.39482,38.8118,134],[-90.3948,38.81183,135],[-90.39477,38.81185,135],[-90.39475,38.81188,136],[-90.39472,38.81191,136],[-90.39469,38.81193,136],[-90.39466,38.81195,137],[-90.39463,38.81197,137],[-90.39461,38.812,137],[-90.39458,38.81202,137],[-90.39456,38.81204,137],[-90.39454,38.81206,137],[-90.39451,38.81209,137],[-90.39448,38.81211,137],[-90.39445,38.81214,137],[-90.39442,38.81216,138],[-90.39439,38.81218,138],[-90.39435,38.8122,138],[-90.39433,38.81223,137],[-90.3943,38.81225,137],[-90.39427,38.81228,137],[-90.39424,38.8123,137],[-90.39421,38.81233,137],[-90.39418,38.81236,137],[-90.39415,38.81239,137],[-90.39412,38.81241,137],[-90.39409,38.81243,137],[-90.39406,38.81245,137],[-90.39403,38.81247,137],[-90.39401,38.81249,137],[-90.39398,38.81251,136],[-90.39395,38.81253,136],[-90.39392,38.81256,136],[-90.3939,38.81258,136],[-90.39387,38.8126,135],[-90.39384,38.81262,135],[-90.3938,38.81264,135],[-90.39377,38.81267,134],[-90.39374,38.81269,134],[-90.39371,38.81271,134],[-90.39367,38.81273,134],[-90.39364,38.81275,134],[-90.39359,38.81277,134],[-90.39355,38.81276,134],[-90.39352,38.81275,134],[-90.39348,38.81275,134],[-90.39343,38.81275,134],[-90.39339,38.81274,134],[-90.39335,38.81275,134],[-90.39331,38.81275,134],[-90.39326,38.81276,134],[-90.39322,38.81275,134],[-90.39318,38.81274,134],[-90.39314,38.81273,134],[-90.39309,38.8127,134],[-90.39305,38.81269,134],[-90.39302,38.81268,134],[-90.39299,38.81266,134],[-90.39296,38.81265,134],[-90.39291,38.81262,134],[-90.39287,38.8126,134],[-90.39284,38.81258,134],[-90.3928,38.81255,134],[-90.39277,38.81253,134],[-90.39273,38.81251,134],[-90.3927,38.8125,134],[-90.39267,38.81248,134],[-90.39263,38.81245,134],[-90.3926,38.81243,135],[-90.39257,38.81241,135],[-90.39255,38.81239,135],[-90.39251,38.81236,135],[-90.39248,38.81234,135],[-90.39245,38.81232,135],[-90.39243,38.8123,135],[-90.3924,38.81227,135],[-90.39237,38.81226,135],[-90.39234,38.81223,135],[-90.39231,38.81221,135],[-90.39228,38.81219,135],[-90.39225,38.81217,135],[-90.39221,38.81215,136],[-90.39217,38.81214,136],[-90.39214,38.81212,136],[-90.39209,38.81211,136],[-90.39205,38.8121,137],[-90.39201,38.81209,137],[-90.39196,38.8121,137],[-90.39191,38.81211,138],[-90.39188,38.81211,138],[-90.39183,38.81212,138],[-90.39181,38.81214,138],[-90.39178,38.81218,138],[-90.39175,38.81222,137],[-90.39178,38.81222,137],[-90.3918,38.81224,137],[-90.39179,38.81227,137],[-90.39178,38.8123,136],[-90.39175,38.81233,136],[-90.39172,38.81236,136],[-90.39169,38.81239,136],[-90.39166,38.81241,136],[-90.39164,38.81244,135],[-90.39167,38.81246,135],[-90.39167,38.81249,135],[-90.39163,38.81251,135],[-90.39159,38.81254,135],[-90.39156,38.81257,136],[-90.39154,38.8126,137],[-90.39152,38.81263,138],[-90.39152,38.81267,139],[-90.39153,38.8127,139],[-90.39155,38.81273,139],[-90.39158,38.81275,139],[-90.39161,38.81277,139],[-90.39164,38.81278,139],[-90.39165,38.81281,139],[-90.39168,38.81283,139],[-90.39171,38.81285,139],[-90.39176,38.81286,138],[-90.3918,38.81287,138],[-90.39184,38.81288,138],[-90.39188,38.8129,137],[-90.39191,38.81292,137],[-90.39194,38.81294,137],[-90.39197,38.81296,137],[-90.392,38.81298,137],[-90.39203,38.813,137],[-90.39206,38.81302,137],[-90.3921,38.81304,137],[-90.39213,38.81306,137],[-90.39216,38.81308,137],[-90.39219,38.8131,137],[-90.39223,38.81312,137],[-90.39226,38.81315,137],[-90.39229,38.81317,137],[-90.39233,38.8132,137],[-90.39236,38.81322,137],[-90.3924,38.81324,137],[-90.39244,38.81326,137],[-90.39248,38.81328,136],[-90.39251,38.81329,136],[-90.39254,38.81331,136],[-90.39257,38.81333,136],[-90.3926,38.81335,136],[-90.39262,38.81337,136],[-90.39264,38.8134,136],[-90.39266,38.81342,136],[-90.39266,38.81346,137],[-90.39265,38.81349,137],[-90.39263,38.81352,137],[-90.39261,38.81355,138],[-90.39259,38.81358,138],[-90.39258,38.81361,138],[-90.39256,38.81364,138],[-90.39255,38.81367,138],[-90.39254,38.8137,138],[-90.39253,38.81372,138],[-90.39251,38.81375,138],[-90.39249,38.81378,138],[-90.39247,38.81381,137],[-90.39245,38.81385,137],[-90.39243,38.81387,136],[-90.39242,38.8139,137],[-90.3924,38.81393,138],[-90.39238,38.81396,139],[-90.39236,38.81399,141],[-90.39233,38.81402,142],[-90.39231,38.81404,143],[-90.39228,38.81407,145],[-90.39226,38.81409,146],[-90.39225,38.81412,148],[-90.39226,38.81416,150],[-90.39228,38.81418,150],[-90.3923,38.81421,151],[-90.39232,38.81423,151],[-90.39235,38.81426,152],[-90.39238,38.81427,152],[-90.39242,38.81429,152],[-90.39245,38.8143,152],[-90.39249,38.81432,153],[-90.39253,38.81433,153],[-90.39256,38.81434,153],[-90.3926,38.81436,153],[-90.39263,38.81438,153],[-90.39267,38.81441,153],[-90.39269,38.81443,153],[-90.39272,38.81445,153],[-90.39274,38.81447,153],[-90.39278,38.81449,152],[-90.39281,38.81451,152],[-90.39284,38.81452,151],[-90.39288,38.81454,150],[-90.39291,38.81456,149],[-90.39293,38.81459,149],[-90.39294,38.81462,148],[-90.39295,38.81465,148],[-90.39295,38.81467,148],[-90.39295,38.8147,148],[-90.39295,38.81473,148],[-90.39295,38.81477,148],[-90.39295,38.8148,148],[-90.39294,38.81483,148],[-90.39295,38.81487,148],[-90.39297,38.8149,148],[-90.39298,38.81492,148],[-90.393,38.81495,148],[-90.39303,38.81498,148],[-90.39306,38.81501,147],[-90.3931,38.81505,146],[-90.39312,38.81509,145],[-90.39314,38.81511,145],[-90.39315,38.81514,144],[-90.39315,38.81518,144],[-90.39314,38.81522,144],[-90.39312,38.81525,144],[-90.39309,38.81528,145],[-90.39307,38.8153,145],[-90.39305,38.81533,144],[-90.39302,38.81535,144],[-90.39298,38.81538,144],[-90.39295,38.8154,144],[-90.3929,38.81541,145],[-90.39287,38.81542,146],[-90.39283,38.81543,147],[-90.3928,38.81545,147],[-90.39276,38.81546,148],[-90.39273,38.81548,148],[-90.3927,38.81549,149],[-90.39267,38.81552,149],[-90.39265,38.81554,150],[-90.39262,38.81556,151],[-90.39259,38.81559,151],[-90.39257,38.81562,151],[-90.39256,38.81565,151],[-90.39254,38.81567,151],[-90.39255,38.8157,150],[-90.39256,38.81573,149],[-90.39259,38.81575,147],[-90.39261,38.81579,146],[-90.39262,38.81582,145],[-90.39263,38.81585,144],[-90.39264,38.81588,144],[-90.39266,38.81591,143],[-90.39267,38.81595,143],[-90.39267,38.81598,143],[-90.39266,38.81601,143],[-90.39265,38.81605,144],[-90.39264,38.81608,144],[-90.39262,38.8161,145],[-90.39259,38.81612,145],[-90.39255,38.81613,147],[-90.39252,38.81615,147],[-90.3925,38.81617,147],[-90.39246,38.81619,148],[-90.39243,38.81619,149],[-90.39239,38.81621,150],[-90.39238,38.81624,149],[-90.39235,38.81627,149],[-90.39231,38.81628,150],[-90.39228,38.81631,150],[-90.39227,38.81634,149],[-90.39226,38.81637,148],[-90.39226,38.8164,148],[-90.39228,38.81642,147],[-90.39231,38.81644,146],[-90.39227,38.81645,147],[-90.39225,38.81647,147],[-90.39223,38.81649,147],[-90.39222,38.81652,147],[-90.39222,38.81655,147],[-90.3922,38.81658,147],[-90.39217,38.8166,147],[-90.39214,38.81661,148],[-90.39211,38.81662,148],[-90.39209,38.81665,148],[-90.39205,38.81667,149],[-90.39202,38.81669,149],[-90.39202,38.81672,149],[-90.39203,38.81675,149],[-90.39202,38.81678,149],[-90.39198,38.81679,149],[-90.39195,38.8168,149],[-90.39193,38.81682,150],[-90.39189,38.81684,149],[-90.39186,38.81686,149],[-90.39183,38.81688,149],[-90.39181,38.81691,149],[-90.39178,38.81693,148],[-90.39174,38.81695,147],[-90.3917,38.81696,147],[-90.39166,38.81698,146],[-90.39163,38.81699,146],[-90.3916,38.817,146],[-90.39156,38.81701,147],[-90.39152,38.81702,147],[-90.39149,38.81704,147],[-90.39145,38.81705,147],[-90.39142,38.81707,147],[-90.3914,38.81708,146],[-90.39136,38.81709,147],[-90.39131,38.81709,148],[-90.39127,38.81709,148],[-90.39124,38.8171,148],[-90.39121,38.81712,148],[-90.3912,38.81715,147],[-90.39117,38.81718,146],[-90.39117,38.81721,145],[-90.39115,38.81723,145],[-90.39113,38.81726,144],[-90.3911,38.81728,144],[-90.39107,38.81729,144],[-90.39104,38.81731,144],[-90.39101,38.81734,144],[-90.39098,38.81736,144],[-90.39094,38.81739,144],[-90.39092,38.81742,143],[-90.3909,38.81744,143],[-90.39087,38.81747,142],[-90.39083,38.81749,142],[-90.3908,38.81752,142],[-90.39078,38.81754,142],[-90.39075,38.81757,141],[-90.39072,38.81761,141],[-90.39069,38.81763,141],[-90.39067,38.81766,141],[-90.39064,38.81768,141],[-90.39061,38.8177,141],[-90.39056,38.81771,141],[-90.39052,38.81773,141],[-90.39048,38.81773,141],[-90.39045,38.81772,142],[-90.39042,38.8177,143],[-90.3904,38.81767,143],[-90.39037,38.81765,144],[-90.39035,38.81763,145],[-90.39031,38.81765,145],[-90.39028,38.81767,145],[-90.39026,38.81769,145],[-90.39023,38.81771,145],[-90.3902,38.81773,145],[-90.39017,38.81775,145],[-90.39015,38.81778,145],[-90.39012,38.8178,145],[-90.39008,38.81781,145],[-90.39005,38.81783,146],[-90.39006,38.81786,145],[-90.39008,38.81788,144],[-90.39012,38.81789,144],[-90.39016,38.81788,143],[-90.39019,38.81787,143],[-90.39016,38.81789,143],[-90.39012,38.81788,144],[-90.39009,38.81787,144],[-90.39006,38.81784,145],[-90.39002,38.81783,146],[-90.38997,38.81783,147],[-90.38993,38.81784,147],[-90.38992,38.81786,147],[-90.3899,38.8179,147],[-90.38989,38.81792,146],[-90.38987,38.81795,146],[-90.38983,38.81795,147],[-90.3898,38.81797,147],[-90.38976,38.81798,147],[-90.38972,38.81798,148],[-90.38968,38.81799,148],[-90.38965,38.81797,148],[-90.38961,38.81797,148],[-90.38958,38.81797,148],[-90.38954,38.81799,148],[-90.38951,38.81799,148],[-90.38947,38.81798,148],[-90.38944,38.81798,148],[-90.3894,38.81799,149],[-90.38935,38.81799,149],[-90.38931,38.81799,150],[-90.38928,38.81799,150],[-90.38924,38.818,150],[-90.3892,38.81798,151],[-90.38915,38.81797,153],[-90.38911,38.81798,153],[-90.38907,38.818,154],[-90.38904,38.81801,154],[-90.38901,38.81805,154],[-90.38898,38.81807,154],[-90.38894,38.81807,155],[-90.3889,38.81807,156],[-90.38886,38.81807,157],[-90.38882,38.81808,157],[-90.38878,38.81808,158],[-90.38874,38.81809,158],[-90.3887,38.81809,159],[-90.38866,38.81811,159],[-90.38862,38.81812,159],[-90.38859,38.81814,159],[-90.38857,38.81816,158],[-90.38854,38.81818,157],[-90.3885,38.81819,157],[-90.38847,38.81821,156],[-90.38844,38.81823,155],[-90.38843,38.81826,153],[-90.38846,38.81828,152],[-90.3885,38.8183,151],[-90.38854,38.81829,152],[-90.38851,38.81826,153],[-90.38849,38.81824,154],[-90.38846,38.81823,155],[-90.38842,38.81823,155],[-90.38838,38.81824,154],[-90.38835,38.81827,153],[-90.38835,38.8183,151],[-90.38835,38.81833,150],[-90.38837,38.81836,148],[-90.38838,38.8184,147],[-90.38839,38.81842,146],[-90.38843,38.81843,145],[-90.38848,38.81843,145],[-90.38852,38.81842,146],[-90.38855,38.81841,146],[-90.38855,38.81838,148],[-90.38852,38.8184,147],[-90.38848,38.8184,147],[-90.38843,38.81841,146],[-90.38839,38.81843,145],[-90.38837,38.81845,144],[-90.38837,38.81848,143],[-90.38835,38.81851,142],[-90.38833,38.81853,141],[-90.38831,38.81856,140],[-90.3883,38.81859,139],[-90.38827,38.81862,138],[-90.38824,38.81863,139],[-90.38819,38.81864,139],[-90.38816,38.81865,140],[-90.38812,38.81867,140],[-90.38809,38.81868,140],[-90.38806,38.81869,141],[-90.38802,38.8187,141],[-90.38798,38.81871,141],[-90.38795,38.81872,142],[-90.38792,38.81875,142],[-90.38789,38.81877,142],[-90.38785,38.81879,142],[-90.38782,38.81881,142],[-90.38778,38.81882,142],[-90.38775,38.81884,142],[-90.3877,38.81885,142],[-90.38766,38.81886,142],[-90.38761,38.81887,142],[-90.38758,38.81889,141],[-90.38754,38.81891,141],[-90.38752,38.81893,140],[-90.38749,38.81896,139],[-90.38747,38.81898,139],[-90.38746,38.81901,138],[-90.38745,38.81904,137],[-90.38744,38.81907,136],[-90.38741,38.81909,135],[-90.38736,38.81909,135],[-90.38732,38.81911,134],[-90.38729,38.81914,133],[-90.38727,38.81916,132],[-90.38726,38.81919,132],[-90.38723,38.81918,132],[-90.38719,38.81918,132],[-90.38716,38.8192,132],[-90.38712,38.81922,132],[-90.38709,38.81924,132],[-90.38706,38.81926,132],[-90.38704,38.81929,132],[-90.387,38.8193,132],[-90.38696,38.8193,132],[-90.38692,38.8193,132],[-90.38687,38.8193,133],[-90.38682,38.81931,133],[-90.38679,38.81932,133],[-90.38676,38.81933,133],[-90.38673,38.81936,133],[-90.38672,38.81938,132],[-90.38669,38.8194,132],[-90.38668,38.81943,132],[-90.38667,38.81946,131],[-90.38666,38.81949,131],[-90.38664,38.81952,131],[-90.38661,38.81954,131],[-90.38658,38.81956,131],[-90.38654,38.81958,131],[-90.3865,38.81959,131],[-90.38646,38.8196,131],[-90.38643,38.81961,131],[-90.3864,38.81962,131],[-90.38635,38.81963,131],[-90.38631,38.81963,131],[-90.38628,38.81964,131],[-90.38625,38.81965,132],[-90.38621,38.81966,132],[-90.38617,38.81967,132],[-90.38612,38.81967,132],[-90.38609,38.81968,132],[-90.38605,38.81969,131],[-90.38602,38.81967,132],[-90.38602,38.81965,133],[-90.38601,38.81962,134],[-90.38601,38.81958,135],[-90.38601,38.81955,136],[-90.38605,38.81955,136],[-90.38608,38.81953,136],[-90.38604,38.81953,137],[-90.38599,38.81954,137],[-90.38594,38.81954,137],[-90.38589,38.81955,137],[-90.38585,38.81957,136],[-90.38582,38.81958,136],[-90.38578,38.8196,135],[-90.38575,38.81961,135],[-90.38571,38.8196,135],[-90.38571,38.81963,134],[-90.38567,38.81963,134],[-90.38564,38.81964,134],[-90.3856,38.81965,133],[-90.38556,38.81965,133],[-90.38553,38.81966,133],[-90.38549,38.81966,133],[-90.38545,38.81968,132],[-90.38542,38.81969,132],[-90.38538,38.81968,132],[-90.38533,38.81969,132],[-90.3853,38.81967,133],[-90.38526,38.81967,132],[-90.38521,38.81967,132],[-90.38517,38.81966,133],[-90.38514,38.81967,132],[-90.38516,38.81965,133],[-90.3852,38.81963,134],[-90.38523,38.81961,135],[-90.38527,38.8196,135],[-90.3853,38.81961,135],[-90.38533,38.81963,134],[-90.38537,38.81964,134],[-90.38541,38.81963,134],[-90.38545,38.81963,134],[-90.38549,38.81963,134],[-90.38552,38.81962,135],[-90.38556,38.81961,135],[-90.3856,38.81961,135],[-90.38563,38.81961,135],[-90.38567,38.8196,135],[-90.38572,38.81959,136],[-90.38575,38.81958,136],[-90.3858,38.81958,136],[-90.38581,38.81955,137],[-90.38582,38.81958,136],[-90.38582,38.81961,135],[-90.38585,38.81963,134],[-90.38589,38.81963,134],[-90.38593,38.81961,134],[-90.38597,38.81959,135],[-90.386,38.81958,135],[-90.38604,38.81957,135],[-90.38609,38.81956,135],[-90.38612,38.81956,135],[-90.38617,38.81956,134],[-90.3862,38.81956,134],[-90.38624,38.81955,133],[-90.38627,38.81954,133],[-90.38631,38.81953,132],[-90.38635,38.81952,131],[-90.38639,38.81951,131],[-90.38643,38.8195,131],[-90.38647,38.81949,131],[-90.38651,38.81948,131],[-90.38655,38.81946,131],[-90.38657,38.81944,131],[-90.3866,38.81942,132],[-90.38664,38.81942,132],[-90.38667,38.81941,132],[-90.38671,38.8194,132],[-90.38674,38.81938,132],[-90.38678,38.81937,132],[-90.38681,38.81935,132],[-90.38684,38.81933,133],[-90.38686,38.81931,133],[-90.3869,38.8193,132],[-90.38693,38.81928,132],[-90.38697,38.81925,132],[-90.38701,38.81924,132],[-90.38705,38.81922,132],[-90.38708,38.8192,132],[-90.38712,38.81919,132],[-90.38715,38.81917,132],[-90.38718,38.81916,132],[-90.38721,38.81913,133],[-90.38724,38.81912,134],[-90.38728,38.8191,134],[-90.38731,38.81908,135],[-90.38734,38.81907,136],[-90.38738,38.81905,136],[-90.38741,38.81903,137],[-90.38743,38.81901,138],[-90.38745,38.81898,139],[-90.38747,38.81894,140],[-90.38749,38.81892,141],[-90.38751,38.81889,141],[-90.38754,38.81887,142],[-90.38758,38.81886,142],[-90.38761,38.81884,143],[-90.38765,38.81883,143],[-90.3877,38.81881,143],[-90.38774,38.8188,143],[-90.38777,38.81878,143],[-90.38781,38.81876,143],[-90.38784,38.81875,143],[-90.38787,38.81873,143],[-90.3879,38.81871,142],[-90.38793,38.81868,142],[-90.38799,38.81866,142],[-90.38803,38.81864,142],[-90.38807,38.81862,141],[-90.38812,38.81861,141],[-90.38816,38.8186,140],[-90.3882,38.81859,140],[-90.38823,38.81857,141],[-90.38827,38.81856,140],[-90.3883,38.81854,141],[-90.38832,38.81853,141],[-90.38835,38.81851,142],[-90.38837,38.81848,143],[-90.38838,38.81845,144],[-90.3884,38.81841,146],[-90.38841,38.81838,148],[-90.3884,38.81834,149],[-90.38839,38.81831,151],[-90.3884,38.81828,152],[-90.38843,38.81826,153],[-90.38847,38.81825,154],[-90.3885,38.81824,154],[-90.38853,38.81824,154],[-90.38857,38.81826,153],[-90.38862,38.81827,152],[-90.38865,38.81827,152],[-90.38869,38.81826,152],[-90.38868,38.81823,153],[-90.38865,38.81821,155],[-90.38862,38.81819,156],[-90.38859,38.81817,157],[-90.38856,38.81815,158],[-90.38853,38.81813,159],[-90.38852,38.81811,160],[-90.38853,38.81808,162],[-90.38857,38.81807,162],[-90.38862,38.81807,162],[-90.38866,38.81806,161],[-90.38869,38.81805,161],[-90.38873,38.81804,160],[-90.38878,38.81803,159],[-90.38882,38.81802,159],[-90.38887,38.81802,158],[-90.38892,38.81801,157],[-90.38895,38.81801,156],[-90.38899,38.81802,155],[-90.38903,38.81801,154],[-90.38907,38.81801,153],[-90.38909,38.81799,153],[-90.38912,38.81796,154],[-90.38916,38.81794,153],[-90.38921,38.81794,153],[-90.38925,38.81795,152],[-90.38929,38.81794,151],[-90.38932,38.81792,151],[-90.38936,38.81791,151],[-90.38942,38.81791,150],[-90.38947,38.81791,150],[-90.3895,38.81792,149],[-90.38953,38.81795,149],[-90.38958,38.81796,148],[-90.38962,38.81796,148],[-90.38963,38.81793,149],[-90.38964,38.8179,149],[-90.38965,38.81787,150],[-90.38968,38.81785,150],[-90.38973,38.81787,149],[-90.38978,38.81787,148],[-90.38981,38.81784,149],[-90.38983,38.8178,149],[-90.38984,38.81778,149],[-90.38988,38.81776,149],[-90.38991,38.81775,149],[-90.38996,38.81776,148],[-90.39,38.81776,148],[-90.39004,38.81776,147],[-90.39007,38.81774,147],[-90.39009,38.81773,147],[-90.39013,38.8177,147],[-90.39015,38.81768,147],[-90.39018,38.81766,146],[-90.39021,38.81764,146],[-90.39023,38.81761,147],[-90.39027,38.81762,146],[-90.3903,38.81763,145],[-90.39033,38.81764,145],[-90.39037,38.81765,144],[-90.39041,38.81766,144],[-90.39044,38.81768,143],[-90.39046,38.8177,142],[-90.39049,38.81772,142],[-90.39052,38.81774,141],[-90.39048,38.81775,141],[-90.39044,38.81774,142],[-90.39041,38.81775,142],[-90.39037,38.81776,142],[-90.39034,38.81777,142],[-90.39031,38.81779,142],[-90.39028,38.8178,142],[-90.39024,38.81782,143],[-90.39022,38.81784,143],[-90.3902,38.81786,143],[-90.3902,38.81783,143],[-90.39024,38.81783,143],[-90.39027,38.81782,142],[-90.3903,38.81781,142],[-90.39032,38.81778,142],[-90.39034,38.81775,142],[-90.39038,38.81773,142],[-90.39042,38.81773,142],[-90.39046,38.81773,142],[-90.39049,38.81772,142],[-90.39052,38.8177,142],[-90.39055,38.81768,142],[-90.39058,38.81767,142],[-90.39062,38.81765,141],[-90.39065,38.81763,142],[-90.39067,38.81761,142],[-90.3907,38.81757,142],[-90.39072,38.81755,142],[-90.39076,38.81753,142],[-90.39079,38.81751,142],[-90.39081,38.81748,143],[-90.39078,38.81747,143],[-90.39074,38.81746,144],[-90.39073,38.81743,145],[-90.39074,38.8174,146],[-90.39076,38.81738,147],[-90.39079,38.81736,147],[-90.39082,38.81734,147],[-90.39081,38.81731,148],[-90.3908,38.81728,149],[-90.39077,38.81725,151],[-90.39074,38.81725,151],[-90.3907,38.81726,152],[-90.39066,38.81727,152],[-90.39062,38.81728,152],[-90.39058,38.8173,152],[-90.39054,38.81731,152],[-90.39052,38.81733,152],[-90.3905,38.81736,151],[-90.3905,38.81739,150],[-90.3905,38.81743,149],[-90.39048,38.81739,150],[-90.39045,38.81736,151],[-90.39043,38.81734,152],[-90.39042,38.81731,153],[-90.39043,38.81727,154],[-90.39043,38.81724,155],[-90.39044,38.81721,156],[-90.39045,38.81718,157],[-90.39046,38.81715,158],[-90.39047,38.81712,159],[-90.39047,38.81709,160],[-90.39048,38.81706,161],[-90.39049,38.81704,162],[-90.3905,38.81701,163],[-90.3905,38.81698,164],[-90.39049,38.81696,164],[-90.39047,38.81693,165],[-90.39045,38.8169,166],[-90.39044,38.81687,166],[-90.39048,38.81685,166],[-90.39053,38.81683,166],[-90.39057,38.81682,166],[-90.39061,38.81683,165],[-90.39064,38.81681,165],[-90.39068,38.8168,165],[-90.39073,38.8168,165],[-90.39077,38.8168,165],[-90.3908,38.81679,164],[-90.39083,38.81676,165],[-90.39087,38.81676,165],[-90.39089,38.81674,165],[-90.3909,38.81671,165],[-90.3909,38.81667,166],[-90.39092,38.81665,167],[-90.39093,38.81667,166],[-90.39092,38.8167,165],[-90.39095,38.81672,165],[-90.39099,38.81674,164],[-90.39104,38.81675,164],[-90.39107,38.81677,163],[-90.39109,38.81679,162],[-90.39112,38.81681,161],[-90.39116,38.8168,161],[-90.39118,38.81677,161],[-90.39121,38.81675,162],[-90.39124,38.81673,162],[-90.39127,38.81672,162],[-90.39131,38.81671,161],[-90.39133,38.81669,162],[-90.39134,38.81666,162],[-90.39136,38.81664,163],[-90.39139,38.81662,163],[-90.39143,38.8166,163],[-90.39144,38.81657,163],[-90.39146,38.81655,164],[-90.39148,38.81653,164],[-90.3915,38.8165,164],[-90.39152,38.81646,165],[-90.39153,38.81643,166],[-90.39155,38.8164,166],[-90.39156,38.81637,167],[-90.39158,38.81634,167],[-90.3916,38.81631,168],[-90.39163,38.81629,168],[-90.39166,38.81627,168],[-90.39167,38.81625,168],[-90.39168,38.81622,169],[-90.39169,38.81618,170],[-90.3917,38.81615,171],[-90.39169,38.81612,172],[-90.3917,38.81609,173],[-90.3917,38.81606,174],[-90.39171,38.81602,174],[-90.39171,38.816,175],[-90.39171,38.81597,175],[-90.39172,38.81593,176],[-90.39174,38.8159,176],[-90.39175,38.81588,176],[-90.39174,38.81585,177],[-90.39173,38.81581,178],[-90.39173,38.81578,178],[-90.39173,38.81575,179],[-90.39172,38.81572,179],[-90.39171,38.81569,180],[-90.39169,38.81566,181],[-90.39165,38.81567,181],[-90.39162,38.81565,182],[-90.39158,38.81563,182],[-90.39156,38.81561,183],[-90.39153,38.81558,183],[-90.39152,38.81555,184],[-90.3915,38.81552,184],[-90.39147,38.81549,184],[-90.39144,38.81547,184],[-90.3914,38.81544,185],[-90.39137,38.81543,185],[-90.39133,38.81542,185],[-90.39129,38.81542,185],[-90.39124,38.81542,186],[-90.39118,38.81542,186],[-90.39113,38.81542,186],[-90.39109,38.81543,186],[-90.39105,38.81543,186],[-90.39101,38.81545,186],[-90.39098,38.81547,185],[-90.39093,38.81548,185],[-90.3909,38.8155,185],[-90.39086,38.81551,185],[-90.39083,38.81552,185],[-90.39079,38.81552,184],[-90.39075,38.81553,184],[-90.39069,38.81553,183],[-90.39065,38.81553,183],[-90.3906,38.81553,182],[-90.39056,38.81553,182],[-90.39052,38.81552,181],[-90.39048,38.81551,181],[-90.39044,38.8155,180],[-90.3904,38.81549,180],[-90.39035,38.81547,180],[-90.39032,38.81546,179],[-90.39028,38.81544,179],[-90.39025,38.81542,179],[-90.39022,38.8154,180],[-90.39019,38.81538,180],[-90.39016,38.81536,180],[-90.39013,38.81535,180],[-90.39009,38.81533,181],[-90.39006,38.81531,181],[-90.39002,38.8153,181],[-90.38998,38.81529,181],[-90.38994,38.81528,182],[-90.3899,38.81526,182],[-90.38986,38.81525,183],[-90.38983,38.81523,183],[-90.38979,38.81521,184],[-90.38976,38.81519,184],[-90.38974,38.81517,185],[-90.38972,38.81515,185],[-90.38969,38.81512,186],[-90.38966,38.81509,187],[-90.38963,38.81506,187],[-90.3896,38.81504,187],[-90.38956,38.81502,188],[-90.38954,38.81499,188],[-90.38951,38.81497,188],[-90.38948,38.81494,188],[-90.38947,38.81491,189],[-90.38946,38.81488,189],[-90.38945,38.81484,189],[-90.38945,38.81481,190],[-90.38945,38.81478,190],[-90.38945,38.81474,190],[-90.38946,38.81471,190],[-90.38947,38.81467,190],[-90.38948,38.81464,190],[-90.38949,38.81462,190],[-90.3895,38.81458,190],[-90.3895,38.81453,190],[-90.38949,38.8145,190],[-90.38949,38.81446,189],[-90.38949,38.81443,189],[-90.38948,38.8144,189],[-90.38947,38.81438,189],[-90.38944,38.81435,189],[-90.38941,38.81432,189],[-90.38937,38.8143,189],[-90.38933,38.81429,190],[-90.3893,38.81427,190],[-90.38926,38.81426,191],[-90.38922,38.81425,191],[-90.38917,38.81423,192],[-90.38913,38.81422,192],[-90.3891,38.8142,192],[-90.38905,38.81418,192],[-90.38902,38.81416,192],[-90.38897,38.81416,192],[-90.38892,38.81416,192],[-90.38888,38.81417,193],[-90.38883,38.81417,193],[-90.38879,38.81417,194],[-90.38875,38.81417,195],[-90.38871,38.81417,195],[-90.38868,38.81415,195],[-90.38864,38.81415,196],[-90.3886,38.81414,196],[-90.38855,38.81413,197],[-90.38852,38.81412,197],[-90.38847,38.81412,197],[-90.3885,38.81409,197],[-90.38853,38.81408,197],[-90.38849,38.81406,197],[-90.38845,38.81404,197],[-90.38842,38.81403,197],[-90.38838,38.81402,198],[-90.38835,38.81401,198],[-90.38831,38.814,198],[-90.38828,38.81399,198],[-90.38824,38.81397,198],[-90.3882,38.81396,198],[-90.38817,38.81395,198],[-90.38812,38.81394,198],[-90.38809,38.81394,199],[-90.38804,38.81395,199],[-90.38801,38.81396,199],[-90.38797,38.81397,199],[-90.38792,38.81397,199],[-90.38788,38.81399,199],[-90.38784,38.814,199],[-90.38781,38.81401,199],[-90.38777,38.81401,200],[-90.38773,38.81401,200],[-90.3877,38.814,200],[-90.38766,38.81399,200],[-90.38762,38.81399,200],[-90.38759,38.81401,200],[-90.38763,38.81401,200],[-90.38759,38.81401,200],[-90.38756,38.81399,200],[-90.38752,38.81395,200],[-90.38751,38.81386,199],[-90.38751,38.8138,198],[-90.38752,38.81377,198],[-90.38753,38.81373,197],[-90.38753,38.8137,197],[-90.38754,38.81367,197],[-90.38754,38.81364,196],[-90.38755,38.81361,196],[-90.38754,38.81358,196],[-90.38754,38.81355,195],[-90.38754,38.81352,195],[-90.38755,38.81349,195],[-90.38755,38.81346,195],[-90.38755,38.81342,194],[-90.38755,38.8134,194],[-90.38755,38.81337,194],[-90.38755,38.81334,194],[-90.38755,38.8133,194],[-90.38757,38.81326,194],[-90.3876,38.81324,194],[-90.38765,38.81323,194],[-90.38769,38.81323,194],[-90.38773,38.81323,194],[-90.38776,38.81323,194],[-90.38781,38.81324,194],[-90.38785,38.81324,194],[-90.38789,38.81324,194],[-90.38793,38.81323,194],[-90.38796,38.81321,194],[-90.38798,38.81318,193],[-90.38799,38.81316,193],[-90.388,38.81313,192],[-90.388,38.8131,192],[-90.388,38.81307,191],[-90.38801,38.81304,191],[-90.38801,38.813,190],[-90.38801,38.81298,190],[-90.38801,38.81295,190],[-90.38801,38.81292,189],[-90.388,38.81289,189],[-90.38799,38.81286,189],[-90.38799,38.81282,188],[-90.388,38.81279,188],[-90.388,38.81276,187],[-90.38801,38.81273,187],[-90.38804,38.8127,186],[-90.38808,38.81269,185],[-90.38813,38.81268,183],[-90.38817,38.81268,182],[-90.38822,38.81267,180],[-90.38827,38.81265,179],[-90.3883,38.81265,178],[-90.38836,38.81265,176],[-90.3884,38.81264,175],[-90.38842,38.81261,174],[-90.38847,38.81261,173],[-90.3885,38.8126,172],[-90.38854,38.81258,171],[-90.38856,38.81256,170],[-90.38858,38.81253,169],[-90.38859,38.81251,169],[-90.3886,38.81248,168],[-90.38861,38.81245,168],[-90.3886,38.81242,167],[-90.3886,38.81239,167],[-90.38861,38.81236,166],[-90.3886,38.81233,166],[-90.38858,38.8123,165],[-90.38855,38.81227,165],[-90.38855,38.81224,165],[-90.38856,38.81222,164],[-90.38858,38.81219,164],[-90.38862,38.81218,163],[-90.38867,38.81217,163],[-90.38872,38.81216,162],[-90.38876,38.81215,161],[-90.38878,38.81213,161],[-90.3888,38.8121,160],[-90.38881,38.81207,160],[-90.38879,38.81204,160],[-90.38876,38.81202,160],[-90.38874,38.812,160],[-90.3887,38.81198,160],[-90.38867,38.81197,161],[-90.38862,38.81197,162],[-90.38858,38.81196,162],[-90.38854,38.81194,163],[-90.38851,38.81191,164],[-90.38849,38.81189,164],[-90.38848,38.81185,164],[-90.38849,38.81182,164],[-90.3885,38.8118,164],[-90.38852,38.81176,164],[-90.38854,38.81173,164],[-90.38857,38.81171,164],[-90.38859,38.81168,165],[-90.38862,38.81166,164],[-90.38865,38.81163,164],[-90.38869,38.81161,163],[-90.38872,38.81159,162],[-90.38874,38.81157,162],[-90.38876,38.81154,161],[-90.38878,38.81152,161],[-90.38881,38.81149,160],[-90.38885,38.81149,159],[-90.38889,38.81148,158],[-90.38893,38.81147,157],[-90.38897,38.81146,156],[-90.38902,38.81144,155],[-90.38906,38.81144,154],[-90.3891,38.81143,153],[-90.38914,38.81142,152],[-90.38917,38.8114,152],[-90.3892,38.81138,152],[-90.38922,38.81136,152],[-90.38926,38.81134,152],[-90.38931,38.81132,152],[-90.38935,38.81132,152],[-90.38939,38.81132,152],[-90.38943,38.8113,152],[-90.38944,38.81127,152],[-90.38946,38.81124,151],[-90.38947,38.81121,151],[-90.38949,38.81118,151],[-90.38951,38.81116,151],[-90.38953,38.81114,151],[-90.38959,38.81114,151],[-90.38963,38.81115,151],[-90.38967,38.81114,151],[-90.38973,38.81113,150],[-90.38976,38.81114,150],[-90.3898,38.81115,149],[-90.38984,38.81115,149],[-90.38989,38.81115,148],[-90.38992,38.81113,147],[-90.38996,38.81112,147],[-90.39,38.81112,146],[-90.39003,38.81113,146],[-90.39008,38.81113,145],[-90.39013,38.81113,145],[-90.39018,38.81113,144],[-90.39021,38.81114,143],[-90.39025,38.81114,143],[-90.39029,38.81113,142],[-90.39035,38.81112,142],[-90.39039,38.81112,142],[-90.39044,38.81113,142],[-90.3905,38.81116,142],[-90.39055,38.81118,142],[-90.39059,38.81121,142],[-90.39067,38.81121,142],[-90.39071,38.81121,142],[-90.39074,38.81119,141],[-90.39076,38.81116,141],[-90.39078,38.81114,141],[-90.39081,38.81112,141],[-90.39083,38.81109,140],[-90.39083,38.81106,140],[-90.39085,38.81102,139],[-90.39085,38.81099,139],[-90.39084,38.81096,139],[-90.39082,38.81094,139],[-90.3908,38.8109,138],[-90.39078,38.81088,138],[-90.39074,38.81086,138],[-90.39071,38.81084,138],[-90.39068,38.81082,139],[-90.39065,38.8108,139],[-90.3906,38.81079,139],[-90.39057,38.81078,139],[-90.39053,38.81078,139],[-90.39049,38.81077,140],[-90.39046,38.81076,140],[-90.39042,38.81076,140],[-90.39038,38.81076,140],[-90.39033,38.81075,140],[-90.3903,38.81075,140],[-90.39025,38.81075,141],[-90.3902,38.81075,141],[-90.39016,38.81076,141],[-90.39011,38.81077,142],[-90.39006,38.81077,142],[-90.39002,38.81077,142],[-90.38996,38.81076,143],[-90.38992,38.81076,143],[-90.38988,38.81076,144],[-90.38982,38.81076,144],[-90.38978,38.81077,145],[-90.38974,38.81077,145],[-90.3897,38.81077,145],[-90.38965,38.81075,145],[-90.38962,38.81074,145],[-90.38957,38.81072,145],[-90.38954,38.81071,145],[-90.38949,38.81069,145],[-90.38946,38.81067,145],[-90.38942,38.81065,145],[-90.38939,38.81063,145],[-90.38935,38.81061,144],[-90.38932,38.81059,144],[-90.3893,38.81056,144],[-90.38928,38.81053,144],[-90.38926,38.8105,144],[-90.38924,38.81047,143],[-90.38922,38.81044,143],[-90.38921,38.81041,143],[-90.38919,38.81037,143],[-90.38919,38.81034,143],[-90.38918,38.81031,143],[-90.38917,38.81027,143],[-90.38917,38.81024,143],[-90.38916,38.81021,143],[-90.38915,38.81018,143],[-90.38913,38.81014,144],[-90.38912,38.81011,144],[-90.38911,38.81007,145],[-90.38911,38.81004,145],[-90.3891,38.81,145],[-90.38909,38.80997,145],[-90.38908,38.80994,145],[-90.38907,38.80991,145],[-90.38905,38.80987,145],[-90.38903,38.80984,146],[-90.38902,38.80981,146],[-90.389,38.80978,146],[-90.38898,38.80976,146],[-90.38896,38.80973,146],[-90.38894,38.8097,146],[-90.38892,38.80968,146],[-90.3889,38.80965,146],[-90.38888,38.80962,146],[-90.38886,38.8096,146],[-90.38884,38.80957,146],[-90.38883,38.80954,145],[-90.38882,38.80952,145],[-90.38881,38.80949,145],[-90.3888,38.80946,145],[-90.38879,38.80943,144],[-90.38878,38.80939,144],[-90.38877,38.80937,144],[-90.38876,38.80934,143],[-90.38874,38.80931,143],[-90.38872,38.80928,143],[-90.38871,38.80925,142],[-90.3887,38.80922,142],[-90.38868,38.80919,142],[-90.38865,38.80919,142],[-90.38864,38.80916,141],[-90.38864,38.80912,141],[-90.38862,38.80909,141],[-90.38861,38.80906,141],[-90.38859,38.80902,141],[-90.38858,38.80899,141],[-90.38856,38.80896,142],[-90.38855,38.80893,142],[-90.38854,38.8089,142],[-90.38853,38.80887,142],[-90.38852,38.80884,142],[-90.38852,38.80881,142],[-90.38851,38.80878,142],[-90.3885,38.80875,143],[-90.38849,38.80871,143],[-90.38849,38.80868,143],[-90.38848,38.80864,143],[-90.38847,38.80861,143],[-90.38847,38.80858,143],[-90.38846,38.80855,144],[-90.38845,38.80852,144],[-90.38845,38.80849,144],[-90.38844,38.80846,144],[-90.38843,38.80843,144],[-90.38842,38.8084,144],[-90.38843,38.80837,144],[-90.38843,38.80834,143],[-90.38843,38.80831,143],[-90.38843,38.80828,143],[-90.38844,38.80825,142],[-90.38844,38.80822,142],[-90.38844,38.80819,142],[-90.38844,38.80816,142],[-90.38843,38.80813,142],[-90.38843,38.8081,142],[-90.38843,38.80807,141],[-90.38843,38.80805,141],[-90.38842,38.80801,141],[-90.38841,38.80798,142],[-90.3884,38.80795,142],[-90.38839,38.80791,142],[-90.38838,38.80789,142],[-90.38837,38.80786,143],[-90.38836,38.80783,143],[-90.38835,38.80781,143],[-90.38834,38.80778,143],[-90.38833,38.80775,143],[-90.38832,38.80772,143],[-90.38832,38.80769,143],[-90.38831,38.80766,143],[-90.3883,38.80762,143],[-90.38829,38.80759,143],[-90.38829,38.80756,143],[-90.38828,38.80753,143],[-90.38828,38.8075,143],[-90.38827,38.80747,143],[-90.38826,38.80744,143],[-90.38826,38.80741,143],[-90.38826,38.80738,143],[-90.38825,38.80735,143],[-90.38824,38.80731,143],[-90.38823,38.80728,143],[-90.38822,38.80724,143],[-90.38821,38.80722,143],[-90.3882,38.80719,143],[-90.38819,38.80716,142],[-90.38818,38.80713,142],[-90.38817,38.8071,142],[-90.38817,38.80707,142],[-90.38817,38.80704,141],[-90.38816,38.80701,141],[-90.38815,38.80698,141],[-90.38814,38.80694,141],[-90.38813,38.80691,141],[-90.38812,38.80688,141],[-90.38812,38.80685,140],[-90.38811,38.80682,140],[-90.3881,38.80679,140],[-90.38809,38.80676,140],[-90.38809,38.80673,140],[-90.38809,38.8067,140],[-90.38808,38.80667,140],[-90.38807,38.80664,140],[-90.38807,38.8066,140],[-90.38807,38.80657,141],[-90.38806,38.80654,141],[-90.38807,38.8065,141],[-90.38806,38.80647,141],[-90.38806,38.80644,141],[-90.38806,38.80641,141],[-90.38805,38.80638,142],[-90.38803,38.80636,142],[-90.38802,38.80632,142],[-90.38801,38.80629,143],[-90.388,38.80625,143],[-90.38799,38.80622,143],[-90.38799,38.80619,143],[-90.38798,38.80616,144],[-90.38797,38.80613,144],[-90.38796,38.80611,144],[-90.38795,38.80607,145],[-90.38794,38.80604,145],[-90.38794,38.80601,145],[-90.38794,38.80598,145],[-90.38794,38.80595,145],[-90.38793,38.80592,145],[-90.38792,38.80589,145],[-90.38791,38.80586,145],[-90.38791,38.80584,145],[-90.38791,38.80581,145],[-90.38791,38.80578,144],[-90.38791,38.80575,144],[-90.38791,38.80572,143],[-90.3879,38.80569,143],[-90.38789,38.80566,143],[-90.38787,38.80563,142],[-90.38785,38.80559,142],[-90.38785,38.80555,142],[-90.38784,38.80552,142],[-90.38784,38.80548,142],[-90.38783,38.80545,142],[-90.38782,38.80542,142],[-90.38782,38.80539,143],[-90.38782,38.80536,143],[-90.38783,38.80538,142],[-90.38784,38.80535,143],[-90.38784,38.80532,143],[-90.38783,38.80529,143],[-90.38782,38.80526,143],[-90.38781,38.80524,143],[-90.3878,38.80521,144],[-90.38779,38.80518,144],[-90.38778,38.80515,144],[-90.38778,38.80512,144],[-90.38778,38.80509,144],[-90.38778,38.80506,144],[-90.38778,38.80503,144],[-90.38777,38.805,145],[-90.38776,38.80496,144],[-90.38776,38.80492,144],[-90.38775,38.80489,144],[-90.38775,38.80485,144],[-90.38775,38.80482,144],[-90.38774,38.80479,143],[-90.38774,38.80476,143],[-90.38773,38.80474,143],[-90.38772,38.80471,143],[-90.38773,38.80468,143],[-90.38772,38.80464,143],[-90.38771,38.80461,143],[-90.38771,38.80458,143],[-90.3877,38.80455,143],[-90.38767,38.80453,143],[-90.38763,38.8045,144],[-90.38758,38.80447,144],[-90.38755,38.80444,145],[-90.38752,38.80442,145],[-90.38747,38.80441,146],[-90.38743,38.80441,147],[-90.38739,38.8044,148],[-90.38735,38.8044,148],[-90.38732,38.8044,149],[-90.3873,38.80437,149],[-90.38729,38.80433,149],[-90.38729,38.8043,149],[-90.3873,38.80427,149],[-90.38733,38.80424,149],[-90.38735,38.80421,149],[-90.38737,38.80419,148],[-90.38741,38.80417,148],[-90.38744,38.80415,147],[-90.38746,38.80412,147],[-90.38746,38.80409,147],[-90.38747,38.80406,147],[-90.38747,38.80402,148],[-90.38746,38.80399,148],[-90.38747,38.80395,148],[-90.38746,38.80392,148],[-90.38744,38.8039,148],[-90.38742,38.80387,149],[-90.3874,38.80384,151],[-90.38737,38.80381,152],[-90.38736,38.80378,153],[-90.38734,38.80376,154],[-90.38731,38.80374,155],[-90.38728,38.80372,156],[-90.38728,38.80369,156],[-90.38727,38.80366,157],[-90.38728,38.80363,158],[-90.38729,38.8036,158],[-90.38728,38.80356,158],[-90.38726,38.80354,159],[-90.38729,38.80352,159],[-90.38731,38.80349,159],[-90.38728,38.8035,159],[-90.38727,38.80353,159],[-90.38729,38.80359,158],[-90.38731,38.80363,158],[-90.38734,38.80368,156],[-90.38736,38.80373,155],[-90.38737,38.80377,153],[-90.38737,38.80379,153],[-90.38737,38.80382,152],[-90.38738,38.80386,150],[-90.38741,38.80388,149],[-90.38743,38.80391,149],[-90.38743,38.80394,149],[-90.38745,38.80398,148],[-90.38745,38.80401,148],[-90.38746,38.80404,148],[-90.38746,38.80407,147],[-90.38748,38.8041,147],[-90.38749,38.80413,147],[-90.38749,38.80416,147],[-90.38749,38.80419,147],[-90.38748,38.80422,147],[-90.38745,38.80424,147],[-90.38741,38.80426,148],[-90.38738,38.80427,148],[-90.38735,38.8043,148],[-90.38734,38.80433,149],[-90.38733,38.80436,149],[-90.38734,38.80439,149],[-90.38737,38.8044,148],[-90.38741,38.80441,147],[-90.38746,38.80442,146],[-90.38749,38.80444,146],[-90.38753,38.80445,145],[-90.38757,38.80445,144],[-90.3876,38.80445,144],[-90.38764,38.80445,143],[-90.38767,38.80447,143],[-90.38769,38.8045,143],[-90.38771,38.80453,143],[-90.38773,38.80455,143],[-90.38776,38.80458,142],[-90.38777,38.80462,142],[-90.38778,38.80464,142],[-90.38779,38.80468,142],[-90.38781,38.80472,142],[-90.38782,38.80476,142],[-90.38784,38.8048,142],[-90.38786,38.80486,143],[-90.38786,38.8049,143],[-90.38786,38.80495,143],[-90.38787,38.80499,144],[-90.38788,38.80502,144],[-90.38789,38.80505,143],[-90.38789,38.80509,143],[-90.3879,38.80512,143],[-90.3879,38.80515,143],[-90.38791,38.80518,143],[-90.38791,38.80521,142],[-90.38792,38.80524,142],[-90.38792,38.80527,142],[-90.38791,38.8053,142],[-90.38792,38.80533,142],[-90.38793,38.80536,141],[-90.38794,38.80539,141],[-90.38795,38.80542,141],[-90.38795,38.80545,141],[-90.38793,38.80548,141],[-90.38789,38.80549,141],[-90.38786,38.80547,142],[-90.38791,38.80549,141],[-90.38795,38.80551,140],[-90.38795,38.80554,140],[-90.38795,38.80557,140],[-90.38795,38.80561,141],[-90.38796,38.80563,141],[-90.38797,38.80566,141],[-90.38798,38.80569,141],[-90.38799,38.80573,142],[-90.38799,38.80576,142],[-90.38801,38.80579,142],[-90.38802,38.80581,142],[-90.38803,38.80585,142],[-90.38804,38.80588,142],[-90.38804,38.80591,142],[-90.38805,38.80594,142],[-90.38806,38.80596,141],[-90.38807,38.80599,141],[-90.38807,38.80602,141],[-90.38807,38.80605,141],[-90.38808,38.80608,141],[-90.38808,38.80611,141],[-90.38809,38.80614,141],[-90.38809,38.80617,141],[-90.3881,38.8062,141],[-90.38811,38.80623,141],[-90.38812,38.80626,140],[-90.38812,38.80629,140],[-90.38813,38.80633,140],[-90.38813,38.80636,140],[-90.38814,38.8064,140],[-90.38815,38.80643,140],[-90.38816,38.80647,139],[-90.38816,38.80651,139],[-90.38817,38.80655,139],[-90.38817,38.80658,138],[-90.38818,38.80662,138],[-90.38818,38.80665,137],[-90.38818,38.80667,137],[-90.38819,38.80671,137],[-90.3882,38.80674,138],[-90.3882,38.80677,138],[-90.38821,38.8068,138],[-90.38822,38.80682,138],[-90.38822,38.80686,138],[-90.38823,38.80688,138],[-90.38823,38.80691,138],[-90.38823,38.80695,139],[-90.38824,38.80698,139],[-90.38824,38.80701,139],[-90.38822,38.80704,140],[-90.38821,38.80707,141],[-90.38821,38.8071,141],[-90.38822,38.80713,141],[-90.38823,38.80716,142],[-90.38824,38.80719,142],[-90.38825,38.80722,142],[-90.38825,38.80725,142],[-90.38826,38.80728,142],[-90.38826,38.80731,142],[-90.38826,38.80734,142],[-90.38827,38.80739,142],[-90.38826,38.80741,143],[-90.38827,38.80744,143],[-90.38828,38.80747,142],[-90.3883,38.80751,142],[-90.38831,38.80754,142],[-90.38831,38.80756,142],[-90.3883,38.80759,143],[-90.38831,38.80762,143],[-90.38832,38.80765,143],[-90.38833,38.80769,143],[-90.38833,38.80772,143],[-90.38834,38.80775,143],[-90.38835,38.80778,143],[-90.38837,38.80781,143],[-90.38838,38.80784,143],[-90.3884,38.80786,142],[-90.38841,38.80789,142],[-90.38842,38.80792,142],[-90.38842,38.80796,142],[-90.38844,38.80799,141],[-90.38845,38.80802,141],[-90.38846,38.80805,141],[-90.38847,38.80808,141],[-90.38848,38.80811,141],[-90.38849,38.80814,141],[-90.3885,38.80818,141],[-90.38851,38.80821,141],[-90.38851,38.80824,141],[-90.38852,38.80827,141],[-90.38853,38.8083,141],[-90.38854,38.80833,141],[-90.38853,38.80836,141],[-90.38853,38.80839,142],[-90.38853,38.80843,142],[-90.38853,38.80846,142],[-90.38854,38.80849,142],[-90.38855,38.80852,142],[-90.38856,38.80855,141],[-90.38857,38.80858,141],[-90.38858,38.80861,141],[-90.38859,38.80863,141],[-90.38859,38.80867,141],[-90.3886,38.8087,141],[-90.38861,38.80873,141],[-90.38862,38.80877,140],[-90.38863,38.80879,140],[-90.38863,38.80882,140],[-90.38864,38.80886,140],[-90.38865,38.80889,140],[-90.38866,38.80892,140],[-90.38866,38.80895,140],[-90.38866,38.80898,141],[-90.38866,38.80901,141],[-90.38868,38.80904,141],[-90.38869,38.80908,141],[-90.3887,38.8091,141],[-90.38871,38.80914,141],[-90.38872,38.80917,141],[-90.38873,38.8092,142],[-90.38875,38.80922,142],[-90.38877,38.80925,142],[-90.38878,38.80928,142],[-90.3888,38.80932,143],[-90.38881,38.80934,143],[-90.38883,38.80937,143],[-90.38884,38.8094,143],[-90.38886,38.80943,144],[-90.38888,38.80946,144],[-90.3889,38.8095,144],[-90.38891,38.80953,144],[-90.38893,38.80955,144],[-90.38896,38.80958,144],[-90.38898,38.80962,145],[-90.38901,38.80964,144],[-90.38903,38.80966,144],[-90.38905,38.80969,144],[-90.38908,38.80971,144],[-90.3891,38.80974,144],[-90.38912,38.80977,144],[-90.38913,38.8098,144],[-90.38915,38.80983,144],[-90.38917,38.80985,143],[-90.38919,38.80988,143],[-90.38918,38.80991,143],[-90.38918,38.80994,143],[-90.38917,38.80998,143],[-90.38914,38.80998,144],[-90.38914,38.81001,144],[-90.38913,38.81004,144],[-90.38914,38.81008,144],[-90.38916,38.81011,143],[-90.38917,38.81014,143],[-90.38918,38.81017,143],[-90.38919,38.8102,143],[-90.38921,38.81023,143],[-90.38922,38.81026,142],[-90.38923,38.81029,142],[-90.38924,38.81032,143],[-90.38925,38.81035,143],[-90.38926,38.81038,143],[-90.38928,38.81041,143],[-90.38929,38.81044,143],[-90.38931,38.81046,143],[-90.38933,38.81048,143],[-90.38935,38.81051,143],[-90.38937,38.81054,143],[-90.3894,38.81056,143],[-90.38944,38.81058,143],[-90.38948,38.8106,143],[-90.38951,38.81062,144],[-90.38955,38.81063,144],[-90.38959,38.81065,144],[-90.38963,38.81065,144],[-90.38967,38.81066,144],[-90.38971,38.81067,144],[-90.38975,38.81068,144],[-90.38978,38.81069,143],[-90.38982,38.8107,143],[-90.38985,38.81071,143],[-90.38989,38.81072,143],[-90.38993,38.81072,142],[-90.38997,38.81072,142],[-90.39002,38.81072,142],[-90.39007,38.81073,142],[-90.39011,38.81072,141],[-90.39016,38.81073,141],[-90.39019,38.81073,141],[-90.39023,38.81074,141],[-90.39026,38.81074,141],[-90.3903,38.81074,140],[-90.39034,38.81074,140],[-90.39038,38.81074,140],[-90.39043,38.81074,140],[-90.39049,38.81075,140],[-90.39054,38.81076,139],[-90.39058,38.81076,139],[-90.39064,38.81078,139],[-90.39067,38.81079,139],[-90.3907,38.8108,139],[-90.39074,38.81081,138],[-90.39077,38.81083,138],[-90.39081,38.81085,138],[-90.39083,38.81088,138],[-90.39085,38.81091,138],[-90.39086,38.81094,138],[-90.39086,38.81097,139],[-90.39085,38.811,139],[-90.39084,38.81104,140],[-90.39084,38.81107,140],[-90.39084,38.81111,140],[-90.39085,38.81114,141],[-90.39086,38.81117,141],[-90.39088,38.8112,141],[-90.3909,38.81123,141],[-90.39093,38.81125,141],[-90.39095,38.81127,141],[-90.39098,38.8113,141],[-90.39101,38.81132,141],[-90.39103,38.81134,141],[-90.39106,38.81137,141],[-90.39109,38.81139,141],[-90.39111,38.81141,141],[-90.39114,38.81144,141],[-90.39115,38.81147,141],[-90.39117,38.81149,141],[-90.39117,38.81152,142],[-90.39116,38.81155,142],[-90.39113,38.81157,143],[-90.3911,38.8116,144],[-90.39106,38.81163,144],[-90.39104,38.81165,145],[-90.391,38.81167,145],[-90.39098,38.81168,146],[-90.39096,38.81171,146],[-90.39093,38.81174,147],[-90.39091,38.81176,147],[-90.3909,38.81179,147],[-90.39091,38.81182,148],[-90.39092,38.81186,148],[-90.39094,38.81189,149],[-90.39095,38.81193,150],[-90.39094,38.81197,150],[-90.39093,38.812,149],[-90.39092,38.81203,149],[-90.39091,38.81206,149],[-90.3909,38.81209,149],[-90.39089,38.81212,149],[-90.39089,38.81216,149],[-90.39088,38.81219,149],[-90.39089,38.81222,149],[-90.3909,38.81226,148],[-90.39092,38.81229,148],[-90.39094,38.81231,147],[-90.39096,38.81234,146],[-90.39099,38.81237,145],[-90.39102,38.8124,144],[-90.39104,38.81243,143],[-90.39106,38.81245,142],[-90.39108,38.8125,141],[-90.39109,38.81252,141],[-90.3911,38.81255,142],[-90.39111,38.81258,142],[-90.39111,38.81262,143],[-90.39111,38.81266,144],[-90.3911,38.81269,145],[-90.39109,38.81272,146],[-90.39109,38.81275,146],[-90.39108,38.81278,147],[-90.39108,38.81281,148],[-90.39109,38.81283,148],[-90.39113,38.81286,148],[-90.39115,38.81288,149],[-90.39117,38.81292,149],[-90.39119,38.81295,150],[-90.39119,38.81299,151],[-90.39121,38.81302,151],[-90.39123,38.81305,152],[-90.39124,38.81307,152],[-90.39126,38.8131,152],[-90.39127,38.81313,151],[-90.39128,38.81315,151],[-90.3913,38.81318,151],[-90.39132,38.81321,151],[-90.39134,38.81323,151],[-90.39138,38.81324,150],[-90.39141,38.81326,150],[-90.39144,38.81327,149],[-90.39147,38.81329,149],[-90.39151,38.8133,148],[-90.39154,38.81332,148],[-90.39157,38.81334,148],[-90.39161,38.81336,147],[-90.39164,38.81338,146],[-90.39163,38.81342,146],[-90.39164,38.81345,145],[-90.39165,38.81348,145],[-90.39165,38.8135,145],[-90.39165,38.81354,144],[-90.39165,38.81356,144],[-90.39166,38.81359,143],[-90.39167,38.81362,143],[-90.39169,38.81364,143],[-90.39172,38.81366,143],[-90.39176,38.81368,142],[-90.39179,38.81371,142],[-90.39181,38.81373,142],[-90.39183,38.81375,141],[-90.39187,38.81377,141],[-90.3919,38.81379,140],[-90.39193,38.81381,139],[-90.39196,38.81383,138],[-90.392,38.81385,137],[-90.39203,38.81387,136],[-90.39206,38.81389,135],[-90.39208,38.81392,137],[-90.39211,38.81394,137],[-90.39215,38.81397,139],[-90.39218,38.81399,140],[-90.39222,38.81401,140],[-90.39225,38.81403,142],[-90.39227,38.81405,143],[-90.39232,38.81404,143],[-90.39234,38.81402,142],[-90.39237,38.81399,141],[-90.39237,38.81396,139],[-90.39239,38.81392,137],[-90.39241,38.81389,136],[-90.39243,38.81386,137],[-90.39245,38.81384,137],[-90.39246,38.81381,137],[-90.39248,38.81378,138],[-90.3925,38.81375,138],[-90.39252,38.81372,138],[-90.39253,38.81369,138],[-90.39254,38.81365,138],[-90.39254,38.81362,138],[-90.39255,38.81359,138],[-90.39257,38.81357,138],[-90.3926,38.81354,138],[-90.39262,38.81351,137],[-90.39264,38.81349,137],[-90.39266,38.81347,137],[-90.39268,38.81344,136],[-90.39271,38.81341,136],[-90.39274,38.81338,135],[-90.39277,38.81335,135],[-90.39279,38.81333,134],[-90.39283,38.8133,134],[-90.39285,38.81328,134],[-90.39288,38.81325,134],[-90.39291,38.81323,133],[-90.39294,38.8132,133],[-90.39297,38.81317,133],[-90.39299,38.81315,133],[-90.39301,38.81312,133],[-90.39304,38.81308,133],[-90.39307,38.81306,132],[-90.3931,38.81304,133],[-90.39313,38.81302,133],[-90.39316,38.813,133],[-90.39319,38.81297,133],[-90.39322,38.81295,133],[-90.39325,38.81293,133],[-90.39328,38.81291,134],[-90.39331,38.81288,134],[-90.39336,38.81286,134],[-90.3934,38.81285,134],[-90.39343,38.81283,134],[-90.39346,38.81281,134],[-90.39349,38.81284,133],[-90.39351,38.81286,133],[-90.39355,38.81285,133],[-90.39355,38.81282,133],[-90.39355,38.8128,134],[-90.39359,38.81278,134],[-90.39362,38.81277,134],[-90.39365,38.81275,134],[-90.39368,38.81273,134],[-90.39371,38.8127,134],[-90.39374,38.81268,134],[-90.39377,38.81265,135],[-90.3938,38.81263,135],[-90.39383,38.81261,135],[-90.39385,38.81259,135],[-90.39388,38.81257,136],[-90.3939,38.81255,136],[-90.39393,38.81253,136],[-90.39397,38.81251,136],[-90.394,38.81249,137],[-90.39402,38.81247,137],[-90.39406,38.81244,137],[-90.39408,38.81242,137],[-90.39411,38.81239,137],[-90.39414,38.81236,137],[-90.39417,38.81234,137],[-90.3942,38.81232,137],[-90.39422,38.8123,137],[-90.39426,38.81226,137],[-90.39429,38.81224,137],[-90.39432,38.81222,138],[-90.39435,38.81219,138],[-90.39438,38.81217,138],[-90.39441,38.81214,138],[-90.39443,38.81212,138],[-90.39446,38.8121,137],[-90.3945,38.81208,137],[-90.39452,38.81206,137],[-90.39455,38.81203,137],[-90.39458,38.812,137],[-90.39461,38.81199,137],[-90.39464,38.81196,137],[-90.39467,38.81194,137],[-90.3947,38.81191,136],[-90.39473,38.81189,136],[-90.39477,38.81186,135],[-90.3948,38.81184,135],[-90.39482,38.81182,135],[-90.39484,38.81179,134],[-90.39487,38.81177,134],[-90.39489,38.81175,134]]],
        "bbox": [
          -90.38514,
          38.81969,
          -90.3952,
          38.80349
        ]
      },
      "properties": {
        "name": "10.19.2022"
      }
    }
  ]
}