{
  "type": "FeatureCollection",
  "features": [
    {
      "type": "Feature",
      "geometry": {
        "type": "MultiLineString",
        "coordinates": [[[-90.39497,38.81172,133],[-90.39494,38.81173,133],[-90.39489,38.81175,134],[-90.39485,38.81176,134],[-90.39481,38.81176,134],[-90.39485,38.81175,134],[-90.39485,38.8118,134],[-90.39482,38.81183,135],[-90.3948,38.81186,135],[-90.39477,38.81189,136],[-90.39475,38.81191,136],[-90.39472,38.81193,136],[-90.39469,38.81195,137],[-90.39465,38.81197,137],[-90.3946,38.81199,137],[-90.39457,38.812,137],[-90.39453,38.81202,137],[-90.39451,38.81204,137],[-90.39448,38.81206,137],[-90.39444,38.81208,138],[-90.39441,38.81211,138],[-90.39438,38.81214,138],[-90.39437,38.81217,138],[-90.39435,38.8122,138],[-90.39432,38.81222,138],[-90.39429,38.81225,137],[-90.39426,38.81228,137],[-90.39422,38.8123,137],[-90.39419,38.81233,137],[-90.39416,38.81236,137],[-90.39412,38.81239,137],[-90.39409,38.81242,137],[-90.39405,38.81245,137],[-90.39402,38.81247,137],[-90.39399,38.81249,137],[-90.39397,38.81251,136],[-90.39394,38.81253,136],[-90.39392,38.81255,136],[-90.39389,38.81257,136],[-90.39386,38.81259,135],[-90.39384,38.81261,135],[-90.3938,38.81264,135],[-90.39377,38.81265,135],[-90.39374,38.81267,134],[-90.39372,38.81269,134],[-90.39369,38.81271,134],[-90.39367,38.81273,134],[-90.39363,38.81275,134],[-90.39359,38.81276,134],[-90.39355,38.81276,134],[-90.3935,38.81275,134],[-90.39348,38.81277,134],[-90.39346,38.8128,134],[-90.39345,38.81282,134],[-90.39343,38.81285,134],[-90.39341,38.81288,133],[-90.39339,38.81291,133],[-90.39336,38.81292,133],[-90.3934,38.81294,133],[-90.39343,38.81295,133],[-90.39347,38.81297,133],[-90.39351,38.81299,132],[-90.39354,38.81301,132],[-90.39357,38.81304,132],[-90.3936,38.81307,132],[-90.39362,38.81311,132],[-90.39364,38.81316,132],[-90.39366,38.81319,132],[-90.39369,38.81321,132],[-90.39371,38.81323,132],[-90.39374,38.81326,132],[-90.39378,38.81329,132],[-90.39381,38.81331,132],[-90.39385,38.81334,132],[-90.39389,38.81336,132],[-90.39392,38.81338,132],[-90.39396,38.81341,132],[-90.39399,38.81344,132],[-90.39403,38.81346,132],[-90.39407,38.81348,132],[-90.3941,38.81349,132],[-90.39414,38.81348,132],[-90.39419,38.81348,133],[-90.39422,38.8135,133],[-90.39424,38.81353,133],[-90.39427,38.81356,133],[-90.3943,38.81358,133],[-90.39432,38.8136,133],[-90.39436,38.81363,133],[-90.3944,38.81365,133],[-90.39444,38.81367,133],[-90.39448,38.81369,134],[-90.39452,38.81371,134],[-90.39456,38.81373,134],[-90.3946,38.81375,134],[-90.39465,38.81377,135],[-90.39469,38.81379,135],[-90.39473,38.8138,135],[-90.39477,38.81382,135],[-90.3948,38.81385,135],[-90.39484,38.81387,135],[-90.39488,38.81388,135],[-90.39492,38.8139,134],[-90.39496,38.81392,134],[-90.39499,38.81395,134],[-90.39503,38.81397,135],[-90.39506,38.81398,135],[-90.39509,38.814,135],[-90.39513,38.81402,135],[-90.39517,38.81404,135],[-90.3952,38.81406,135],[-90.39516,38.81403,135],[-90.39512,38.814,135],[-90.39515,38.81403,135],[-90.39518,38.81405,135],[-90.39515,38.81406,135],[-90.39511,38.81405,135],[-90.39506,38.81404,135],[-90.39503,38.814,135],[-90.39501,38.81395,135],[-90.39499,38.81393,134],[-90.39495,38.81391,134],[-90.39491,38.81389,135],[-90.39488,38.81387,135],[-90.39484,38.81385,135],[-90.3948,38.81382,135],[-90.39476,38.8138,135],[-90.39472,38.81378,135],[-90.39468,38.81376,135],[-90.39464,38.81374,135],[-90.39459,38.81372,134],[-90.39455,38.8137,134],[-90.39451,38.81368,134],[-90.39447,38.81366,134],[-90.39443,38.81364,133],[-90.39439,38.81362,133],[-90.39435,38.8136,133],[-90.39431,38.81358,133],[-90.39428,38.81356,133],[-90.39424,38.81354,133],[-90.3942,38.81352,133],[-90.39416,38.8135,132],[-90.39412,38.81348,132],[-90.39409,38.81346,132],[-90.39406,38.81343,132],[-90.39401,38.81341,132],[-90.39397,38.81339,132],[-90.39393,38.81336,132],[-90.39389,38.81334,132],[-90.39385,38.81332,132],[-90.39381,38.81329,132],[-90.39377,38.81327,132],[-90.39374,38.81325,132],[-90.39371,38.81323,132],[-90.39373,38.81325,132],[-90.39373,38.81322,132],[-90.3937,38.8132,132],[-90.39367,38.81318,132],[-90.39364,38.81315,132],[-90.3936,38.81311,132],[-90.39357,38.81307,132],[-90.39353,38.81303,132],[-90.39349,38.81299,132],[-90.39343,38.81297,133],[-90.39336,38.81295,133],[-90.39329,38.81294,133],[-90.39324,38.81293,133],[-90.39319,38.81293,133],[-90.39316,38.81297,133],[-90.39314,38.81301,133],[-90.39313,38.81304,133],[-90.3931,38.81307,132],[-90.39308,38.81309,132],[-90.39304,38.81312,133],[-90.39301,38.81314,133],[-90.39298,38.81317,133],[-90.39294,38.8132,133],[-90.39292,38.81322,133],[-90.39288,38.81325,134],[-90.39285,38.81327,134],[-90.39282,38.8133,134],[-90.39279,38.81333,134],[-90.39276,38.81335,135],[-90.39273,38.81338,135],[-90.39269,38.81341,136],[-90.39266,38.81343,136],[-90.39263,38.81346,137],[-90.3926,38.81348,137],[-90.39258,38.81351,137],[-90.39258,38.81354,138],[-90.39257,38.81357,138],[-90.39255,38.8136,138],[-90.39253,38.81363,138],[-90.39252,38.81366,138],[-90.3925,38.81369,138],[-90.39248,38.81372,138],[-90.39248,38.81375,138],[-90.39246,38.81378,137],[-90.39245,38.81381,137],[-90.39243,38.81384,137],[-90.39241,38.81382,137],[-90.39242,38.81385,136],[-90.39246,38.81385,137],[-90.39245,38.81388,137],[-90.39243,38.81391,137],[-90.3924,38.81394,138],[-90.39236,38.81397,139],[-90.39233,38.81399,140],[-90.39231,38.81401,141],[-90.39229,38.81403,142],[-90.39226,38.81406,144],[-90.39223,38.81409,146],[-90.3922,38.81408,145],[-90.39216,38.81407,145],[-90.39213,38.81408,146],[-90.39209,38.81409,147],[-90.39205,38.81409,147],[-90.39201,38.8141,148],[-90.39197,38.81411,148],[-90.39193,38.81411,149],[-90.39188,38.81411,151],[-90.39184,38.81413,152],[-90.39179,38.81415,155],[-90.39173,38.81418,157],[-90.39168,38.81422,160],[-90.3917,38.81428,161],[-90.39179,38.8143,159],[-90.39183,38.81436,160],[-90.39183,38.81443,161],[-90.39185,38.81449,162],[-90.39186,38.81458,163],[-90.39188,38.81464,163],[-90.39191,38.81469,163],[-90.39192,38.81474,163],[-90.39193,38.81478,164],[-90.39194,38.81482,164],[-90.39195,38.81486,164],[-90.39197,38.8149,164],[-90.39197,38.81493,164],[-90.39196,38.81497,165],[-90.39198,38.81501,165],[-90.39199,38.81505,166],[-90.392,38.81508,167],[-90.39201,38.81511,168],[-90.39202,38.81515,169],[-90.39202,38.81519,170],[-90.39201,38.81523,172],[-90.39201,38.81527,173],[-90.392,38.81531,174],[-90.392,38.81535,174],[-90.39201,38.81539,174],[-90.39201,38.81543,174],[-90.39202,38.81547,174],[-90.392,38.81552,175],[-90.39196,38.81554,177],[-90.39195,38.81557,177],[-90.39194,38.81561,176],[-90.39193,38.81564,176],[-90.39192,38.81566,176],[-90.39191,38.8157,175],[-90.39191,38.81573,175],[-90.3919,38.8157,175],[-90.3919,38.81567,176],[-90.39194,38.81569,175],[-90.39187,38.81569,176],[-90.3918,38.81568,178],[-90.39174,38.81568,179],[-90.39169,38.81569,180],[-90.3917,38.81574,180],[-90.39171,38.81578,179],[-90.39172,38.81582,178],[-90.39175,38.81587,176],[-90.39176,38.81592,175],[-90.39176,38.81597,174],[-90.39176,38.81601,173],[-90.39175,38.81605,172],[-90.39175,38.81608,172],[-90.39174,38.81612,171],[-90.39173,38.81615,170],[-90.39173,38.81619,169],[-90.39172,38.81622,168],[-90.39171,38.81625,167],[-90.39171,38.81629,166],[-90.3917,38.81632,165],[-90.39169,38.81635,164],[-90.39168,38.81638,164],[-90.39166,38.8164,163],[-90.39165,38.81644,162],[-90.39163,38.81647,162],[-90.39162,38.8165,161],[-90.39159,38.81648,163],[-90.39155,38.81648,164],[-90.39151,38.81649,164],[-90.39148,38.81651,164],[-90.39146,38.81654,164],[-90.39144,38.81656,164],[-90.39141,38.81659,164],[-90.39135,38.81666,162],[-90.39128,38.8167,162],[-90.39121,38.81674,162],[-90.39113,38.81675,163],[-90.39106,38.81675,163],[-90.39099,38.81675,164],[-90.39092,38.81675,164],[-90.39084,38.81675,165],[-90.39078,38.81677,165],[-90.39072,38.81678,165],[-90.39067,38.81679,165],[-90.39063,38.8168,166],[-90.39059,38.81681,166],[-90.39058,38.81684,165],[-90.39056,38.81687,165],[-90.39053,38.8169,165],[-90.3905,38.81691,165],[-90.39047,38.81694,165],[-90.39045,38.81697,164],[-90.39047,38.817,163],[-90.3905,38.81703,162],[-90.39053,38.81705,161],[-90.39054,38.81708,160],[-90.39054,38.81711,159],[-90.39052,38.81714,158],[-90.3905,38.81717,157],[-90.39048,38.81719,157],[-90.39047,38.81723,156],[-90.39048,38.81726,154],[-90.39049,38.81734,152],[-90.39056,38.81738,150],[-90.39061,38.81743,147],[-90.39066,38.81746,145],[-90.3907,38.81748,144],[-90.39075,38.8175,143],[-90.39082,38.81751,141],[-90.39082,38.81747,143],[-90.39082,38.81742,144],[-90.39083,38.81738,145],[-90.39086,38.81735,146],[-90.3909,38.81736,145],[-90.39093,38.81739,144],[-90.39097,38.81741,143],[-90.39101,38.81741,142],[-90.39104,38.81739,142],[-90.39107,38.81736,143],[-90.3911,38.81733,143],[-90.39113,38.8173,143],[-90.39116,38.81726,144],[-90.39118,38.81724,144],[-90.39121,38.81721,144],[-90.39124,38.81719,145],[-90.39127,38.81716,145],[-90.39131,38.81713,146],[-90.39136,38.8171,146],[-90.39129,38.81709,148],[-90.39122,38.81709,149],[-90.39119,38.81715,147],[-90.39118,38.81719,146],[-90.39116,38.81723,144],[-90.39111,38.81725,145],[-90.39108,38.81728,145],[-90.39104,38.81731,144],[-90.39099,38.81733,145],[-90.39094,38.81735,145],[-90.3909,38.81737,145],[-90.39087,38.81739,145],[-90.39082,38.81741,145],[-90.39077,38.81743,145],[-90.39073,38.81744,145],[-90.39068,38.81745,145],[-90.39062,38.81746,146],[-90.39056,38.81747,147],[-90.3905,38.81748,147],[-90.39045,38.8175,147],[-90.39039,38.81752,147],[-90.3903,38.81754,147],[-90.39019,38.81753,149],[-90.39009,38.81752,150],[-90.39008,38.81744,152],[-90.39007,38.81738,154],[-90.39006,38.81731,155],[-90.39005,38.81724,157],[-90.39003,38.81719,158],[-90.39,38.81714,160],[-90.38997,38.81708,161],[-90.38994,38.81702,163],[-90.38989,38.81697,164],[-90.38983,38.81692,164],[-90.38993,38.8169,165],[-90.39003,38.8169,165],[-90.38996,38.81696,164],[-90.38996,38.81705,162],[-90.38998,38.81713,160],[-90.38999,38.8172,158],[-90.39,38.81725,157],[-90.39002,38.8173,156],[-90.39006,38.81735,154],[-90.39011,38.81737,153],[-90.39017,38.81739,153],[-90.39022,38.81742,151],[-90.39024,38.81746,150],[-90.39025,38.81749,149],[-90.39029,38.81749,149],[-90.39033,38.8175,148],[-90.39036,38.81752,147],[-90.39041,38.81752,147],[-90.39046,38.81749,147],[-90.39047,38.81745,148],[-90.39049,38.81741,149],[-90.39054,38.81743,148],[-90.39056,38.81746,147],[-90.39061,38.81749,145],[-90.39068,38.81747,145],[-90.39069,38.81741,147],[-90.3907,38.81737,148],[-90.39061,38.81735,150],[-90.39055,38.81734,151],[-90.39052,38.8173,153],[-90.39054,38.81725,155],[-90.39054,38.81721,156],[-90.39054,38.81716,158],[-90.39054,38.81712,159],[-90.39054,38.81707,161],[-90.39054,38.81702,162],[-90.39054,38.81698,163],[-90.39054,38.81694,165],[-90.39053,38.8169,165],[-90.39051,38.81686,166],[-90.39049,38.81683,166],[-90.39045,38.81682,166],[-90.39041,38.81681,167],[-90.39038,38.81679,167],[-90.39036,38.81677,167],[-90.39033,38.81674,168],[-90.39031,38.81671,168],[-90.39029,38.81668,168],[-90.3903,38.81673,168],[-90.39033,38.81677,168],[-90.39036,38.81679,167],[-90.39039,38.81682,167],[-90.39042,38.81686,166],[-90.39045,38.81688,166],[-90.39048,38.81691,165],[-90.39051,38.81693,165],[-90.39054,38.81692,165],[-90.39058,38.81689,165],[-90.39061,38.81688,165],[-90.39065,38.81687,164],[-90.39069,38.81685,164],[-90.39073,38.81683,164],[-90.39077,38.81681,164],[-90.39081,38.8168,164],[-90.39085,38.8168,164],[-90.39089,38.81678,164],[-90.39093,38.81676,164],[-90.39098,38.81675,164],[-90.39102,38.81673,164],[-90.39104,38.81677,163],[-90.39106,38.81681,162],[-90.3911,38.81682,161],[-90.39114,38.81683,160],[-90.39119,38.81683,160],[-90.39126,38.81682,159],[-90.39128,38.81678,160],[-90.3913,38.81675,160],[-90.39133,38.81672,161],[-90.39135,38.81669,161],[-90.39137,38.81667,162],[-90.3914,38.81665,162],[-90.39143,38.81664,161],[-90.39145,38.81661,162],[-90.39148,38.81659,162],[-90.3915,38.81657,162],[-90.39153,38.81655,162],[-90.39156,38.81652,162],[-90.39159,38.81648,163],[-90.39161,38.81645,163],[-90.39164,38.81642,163],[-90.39166,38.81638,164],[-90.39167,38.81635,165],[-90.39168,38.81631,166],[-90.39169,38.81627,167],[-90.39171,38.81624,168],[-90.39173,38.8162,168],[-90.39175,38.81617,169],[-90.39177,38.81613,170],[-90.39178,38.8161,171],[-90.3918,38.81606,171],[-90.39182,38.81602,171],[-90.39183,38.81599,171],[-90.39181,38.81595,173],[-90.39179,38.81591,174],[-90.39179,38.81588,175],[-90.39178,38.81585,176],[-90.39177,38.81582,177],[-90.39177,38.81578,177],[-90.39177,38.81575,178],[-90.39177,38.81571,178],[-90.39176,38.81568,179],[-90.39171,38.81567,180],[-90.39167,38.81563,182],[-90.39163,38.81559,182],[-90.39159,38.81554,183],[-90.39154,38.81552,183],[-90.39148,38.81549,184],[-90.39142,38.81545,185],[-90.39137,38.81543,185],[-90.39131,38.8154,185],[-90.39126,38.81537,186],[-90.39122,38.81537,186],[-90.39116,38.81538,186],[-90.3911,38.81538,186],[-90.39106,38.81539,186],[-90.39101,38.81541,186],[-90.39095,38.81543,186],[-90.39089,38.81545,185],[-90.39084,38.81546,185],[-90.39079,38.81548,185],[-90.39073,38.8155,184],[-90.39067,38.81548,183],[-90.39062,38.81546,183],[-90.39057,38.81544,182],[-90.39053,38.81543,182],[-90.39047,38.81543,181],[-90.39041,38.81542,181],[-90.39035,38.81541,180],[-90.3903,38.81539,180],[-90.39026,38.81538,180],[-90.39022,38.81537,180],[-90.39017,38.81535,180],[-90.39014,38.81534,181],[-90.39009,38.81532,181],[-90.39005,38.81531,181],[-90.39001,38.81529,181],[-90.38997,38.81527,182],[-90.38993,38.81526,182],[-90.3899,38.81524,183],[-90.38987,38.81522,183],[-90.38984,38.8152,184],[-90.38982,38.81518,184],[-90.3898,38.81514,185],[-90.38978,38.81511,186],[-90.38977,38.81508,187],[-90.38975,38.81506,187],[-90.38972,38.81503,188],[-90.3897,38.81499,189],[-90.38967,38.81496,189],[-90.38963,38.81494,189],[-90.3896,38.81492,189],[-90.38958,38.81489,189],[-90.38955,38.81487,189],[-90.38953,38.81485,189],[-90.3895,38.81483,190],[-90.3895,38.8148,190],[-90.38954,38.81477,190],[-90.38956,38.81475,191],[-90.38956,38.81471,191],[-90.38956,38.81468,191],[-90.38957,38.81463,190],[-90.38959,38.81456,190],[-90.3896,38.81451,189],[-90.38959,38.81445,189],[-90.38958,38.81439,188],[-90.38952,38.81437,188],[-90.38946,38.81434,189],[-90.38942,38.81431,189],[-90.38936,38.8143,190],[-90.3893,38.81427,190],[-90.38925,38.81424,191],[-90.3892,38.81422,192],[-90.38915,38.8142,192],[-90.3891,38.81418,192],[-90.38905,38.81416,192],[-90.389,38.81415,192],[-90.38895,38.81414,192],[-90.38891,38.81413,192],[-90.38886,38.81412,193],[-90.38882,38.81413,193],[-90.38877,38.81414,194],[-90.38874,38.81413,194],[-90.3887,38.81412,195],[-90.38866,38.81411,195],[-90.38862,38.81409,196],[-90.38857,38.81407,196],[-90.38853,38.81404,196],[-90.38848,38.81401,197],[-90.38842,38.81398,197],[-90.38836,38.81397,198],[-90.38831,38.81395,198],[-90.38826,38.81394,198],[-90.38821,38.81392,198],[-90.38816,38.81391,198],[-90.38811,38.8139,198],[-90.38806,38.8139,199],[-90.38802,38.81391,199],[-90.38797,38.81392,199],[-90.38792,38.81393,199],[-90.38787,38.81393,199],[-90.38782,38.81394,199],[-90.38776,38.81395,200],[-90.38771,38.81396,200],[-90.38766,38.81396,200],[-90.38758,38.81396,200],[-90.38761,38.81392,200],[-90.38759,38.81388,199],[-90.38757,38.81384,199],[-90.38752,38.81383,199],[-90.38756,38.81385,199],[-90.38753,38.81388,199],[-90.38757,38.81391,200],[-90.38762,38.81392,200],[-90.38766,38.81394,200],[-90.38768,38.81396,200],[-90.3877,38.81399,200],[-90.38774,38.814,200],[-90.38778,38.81399,199],[-90.38782,38.81397,199],[-90.38786,38.81396,199],[-90.38791,38.81395,199],[-90.38795,38.81394,199],[-90.38799,38.81393,199],[-90.38804,38.81393,199],[-90.38808,38.81392,199],[-90.38813,38.81392,198],[-90.38818,38.81392,198],[-90.38822,38.81394,198],[-90.38826,38.81396,198],[-90.38829,38.81398,198],[-90.38832,38.814,198],[-90.38837,38.81401,198],[-90.38841,38.81402,197],[-90.38845,38.81404,197],[-90.38849,38.81406,197],[-90.38852,38.81407,197],[-90.38856,38.81409,196],[-90.38859,38.8141,196],[-90.38863,38.81412,196],[-90.38866,38.81413,196],[-90.38871,38.81415,195],[-90.38874,38.81416,195],[-90.38878,38.81417,194],[-90.38881,38.81418,194],[-90.38885,38.8142,193],[-90.38888,38.81421,193],[-90.38892,38.81422,192],[-90.38895,38.81423,192],[-90.389,38.81423,192],[-90.38905,38.81422,192],[-90.38909,38.8142,192],[-90.38914,38.81421,192],[-90.38917,38.81424,192],[-90.3892,38.81426,192],[-90.38924,38.81427,191],[-90.38927,38.81429,191],[-90.38931,38.8143,190],[-90.38934,38.81432,190],[-90.38937,38.81433,190],[-90.38941,38.81435,189],[-90.38944,38.81436,189],[-90.38947,38.81437,189],[-90.38951,38.81436,188],[-90.38954,38.81433,188],[-90.38956,38.81431,187],[-90.38957,38.81428,187],[-90.3896,38.81427,186],[-90.38956,38.81426,186],[-90.38952,38.81426,187],[-90.38949,38.81429,188],[-90.38947,38.81431,188],[-90.38945,38.81434,189],[-90.38944,38.81437,189],[-90.38945,38.8144,189],[-90.38946,38.81443,189],[-90.38947,38.81446,189],[-90.38948,38.81448,190],[-90.3895,38.81452,190],[-90.3895,38.81456,190],[-90.38948,38.81463,190],[-90.38949,38.8147,191],[-90.38948,38.81477,190],[-90.38949,38.81485,189],[-90.3895,38.81491,189],[-90.38952,38.81497,188],[-90.38958,38.81502,188],[-90.38963,38.81505,187],[-90.38969,38.81508,187],[-90.38975,38.81512,186],[-90.38979,38.81516,185],[-90.38984,38.81519,184],[-90.38987,38.81522,183],[-90.38992,38.81526,182],[-90.38996,38.81527,182],[-90.39001,38.81529,181],[-90.39005,38.81531,181],[-90.39009,38.81533,181],[-90.39013,38.81535,180],[-90.39017,38.81537,180],[-90.39022,38.81539,180],[-90.39027,38.81541,180],[-90.39032,38.81543,180],[-90.39036,38.81544,180],[-90.39042,38.81546,181],[-90.39047,38.81548,181],[-90.39052,38.81549,181],[-90.39057,38.8155,182],[-90.39063,38.81552,183],[-90.39068,38.81553,183],[-90.39073,38.81554,184],[-90.39079,38.81555,184],[-90.39085,38.81556,185],[-90.39091,38.81555,185],[-90.39094,38.81551,185],[-90.39098,38.81548,185],[-90.391,38.81552,185],[-90.39095,38.81553,185],[-90.39086,38.81554,185],[-90.39081,38.81555,184],[-90.39089,38.81555,185],[-90.39083,38.81548,185],[-90.39099,38.81546,186],[-90.3911,38.81546,186],[-90.3912,38.81545,186],[-90.39128,38.81545,185],[-90.39135,38.81544,185],[-90.39141,38.81544,185],[-90.39147,38.81544,184],[-90.3915,38.81548,184],[-90.39153,38.81553,183],[-90.39157,38.81556,183],[-90.39161,38.8156,182],[-90.39165,38.81563,182],[-90.39168,38.81565,181],[-90.39172,38.81568,180],[-90.39175,38.8157,179],[-90.39182,38.81569,177],[-90.39188,38.81568,176],[-90.39191,38.81563,177],[-90.39194,38.81558,177],[-90.39196,38.81555,177],[-90.39199,38.81552,175],[-90.39202,38.81549,174],[-90.39203,38.81545,174],[-90.39199,38.81541,175],[-90.39198,38.81538,175],[-90.39197,38.81535,175],[-90.39197,38.81532,175],[-90.39196,38.81529,175],[-90.39193,38.81527,175],[-90.39194,38.81523,174],[-90.392,38.81522,172],[-90.39204,38.81519,170],[-90.39205,38.81514,168],[-90.39205,38.8151,166],[-90.39205,38.81507,165],[-90.39205,38.81503,164],[-90.39204,38.815,163],[-90.392,38.81497,164],[-90.39197,38.81494,164],[-90.39196,38.81491,164],[-90.39197,38.81494,164],[-90.39193,38.81488,165],[-90.39193,38.81482,164],[-90.39193,38.81476,163],[-90.39192,38.8147,163],[-90.39192,38.81466,162],[-90.39189,38.81459,162],[-90.39186,38.81453,162],[-90.39182,38.81448,163],[-90.39181,38.81443,162],[-90.39181,38.81439,161],[-90.39181,38.81436,160],[-90.39182,38.81433,159],[-90.39182,38.8143,158],[-90.39183,38.81427,157],[-90.39183,38.81425,157],[-90.39184,38.81422,156],[-90.39188,38.81421,154],[-90.39192,38.81418,152],[-90.39195,38.81416,151],[-90.39198,38.81413,149],[-90.39199,38.8141,148],[-90.39203,38.8141,147],[-90.39208,38.8141,147],[-90.39213,38.81408,146],[-90.39219,38.81407,145],[-90.39225,38.81406,144],[-90.39229,38.81405,143],[-90.39231,38.81402,142],[-90.39234,38.81401,141],[-90.39237,38.81398,140],[-90.39238,38.81395,139],[-90.3924,38.81392,137],[-90.39242,38.81389,136],[-90.39245,38.81386,137],[-90.39247,38.81383,137],[-90.39249,38.8138,138],[-90.39251,38.81377,138],[-90.39253,38.81375,138],[-90.39255,38.81372,138],[-90.39256,38.81369,138],[-90.39258,38.81366,138],[-90.39259,38.81363,138],[-90.3926,38.8136,138],[-90.39262,38.81357,138],[-90.39265,38.81356,138],[-90.39267,38.81353,137],[-90.39269,38.8135,137],[-90.3927,38.81347,136],[-90.39272,38.81344,136],[-90.39273,38.81342,136],[-90.3927,38.8134,136],[-90.39275,38.81337,135],[-90.39281,38.81334,134],[-90.39284,38.81332,134],[-90.39288,38.8133,134],[-90.39293,38.81325,133],[-90.39296,38.81323,133],[-90.393,38.81319,133],[-90.39303,38.81316,133],[-90.39307,38.81313,132],[-90.3931,38.8131,132],[-90.39314,38.81308,132],[-90.39317,38.81305,133],[-90.3932,38.81303,133],[-90.39323,38.81301,133],[-90.39326,38.81298,133],[-90.39329,38.81296,133],[-90.39331,38.81294,133],[-90.39334,38.81292,133],[-90.39337,38.8129,133],[-90.3934,38.81288,134],[-90.39343,38.81286,134],[-90.39346,38.81284,134],[-90.39349,38.81282,134],[-90.39352,38.8128,134],[-90.39355,38.81278,134],[-90.39359,38.81277,134],[-90.39363,38.81277,134],[-90.39366,38.81275,134],[-90.39369,38.81273,134],[-90.39372,38.81271,134],[-90.39375,38.81268,134],[-90.39378,38.81267,135],[-90.39381,38.81265,135],[-90.39384,38.81262,135],[-90.39387,38.8126,135],[-90.3939,38.81258,136],[-90.39393,38.81256,136],[-90.39397,38.81253,136],[-90.394,38.81251,136],[-90.39403,38.81249,137],[-90.39406,38.81246,137],[-90.39409,38.81244,137],[-90.39412,38.81241,137],[-90.39415,38.81239,137],[-90.39419,38.81236,137],[-90.39422,38.81234,137],[-90.39425,38.81231,137],[-90.39428,38.81229,137],[-90.39431,38.81226,137],[-90.39435,38.81224,137],[-90.39438,38.81221,138],[-90.39441,38.81218,138],[-90.39443,38.81215,138],[-90.39445,38.81212,137],[-90.39448,38.81209,137],[-90.39452,38.81207,137],[-90.39455,38.81204,137],[-90.39458,38.81202,137],[-90.39461,38.81199,137],[-90.39464,38.81197,137],[-90.39468,38.81194,137],[-90.39471,38.81192,136],[-90.39474,38.8119,136],[-90.39477,38.81187,135],[-90.3948,38.81184,135],[-90.39483,38.81182,135],[-90.39486,38.8118,134],[-90.39489,38.81177,134],[-90.39492,38.81175,133],[-90.39495,38.81172,133],[-90.39499,38.8117,133],[-90.39502,38.81168,133],[-90.39505,38.81166,132],[-90.39508,38.81164,132],[-90.39513,38.81164,132],[-90.39517,38.81162,132],[-90.3952,38.8116,132],[-90.39523,38.81157,132],[-90.39526,38.81154,132],[-90.39529,38.81151,133],[-90.39528,38.81148,133],[-90.39524,38.81146,132],[-90.39521,38.81144,132],[-90.39519,38.81147,132],[-90.39521,38.81146,132]]],
        "bbox": [
          -90.38752,
          38.81754,
          -90.39529,
          38.81144
        ]
      },
      "properties": {
        "name": "8.3.2025"
      }
    }
  ]
}