{
  "type": "FeatureCollection",
  "features": [
    {
      "type": "Feature",
      "geometry": {
        "type": "MultiLineString",
        "coordinates": [[[-90.39484,38.81178,134],[-90.39481,38.81181,135],[-90.3948,38.81184,135],[-90.39478,38.81186,135],[-90.39476,38.8119,136],[-90.39474,38.81192,136],[-90.39471,38.81194,136],[-90.39468,38.81196,137],[-90.39464,38.81197,137],[-90.39461,38.81199,137],[-90.39459,38.81201,137],[-90.39457,38.81204,137],[-90.39454,38.81206,137],[-90.39451,38.81209,137],[-90.39449,38.81211,137],[-90.39447,38.81213,137],[-90.39444,38.81215,138],[-90.39441,38.81217,138],[-90.39438,38.81219,138],[-90.39435,38.8122,138],[-90.39432,38.81222,138],[-90.39429,38.81224,137],[-90.39426,38.81226,137],[-90.39424,38.8123,137],[-90.39422,38.81232,137],[-90.3942,38.81235,137],[-90.3942,38.81239,137],[-90.39416,38.8124,137],[-90.39412,38.81242,137],[-90.39409,38.81244,137],[-90.39406,38.81246,137],[-90.39405,38.81249,137],[-90.39403,38.81252,136],[-90.394,38.81253,136],[-90.39396,38.81255,136],[-90.39395,38.81257,136],[-90.39392,38.81259,135],[-90.39386,38.81261,135],[-90.39382,38.81264,135],[-90.39377,38.81267,134],[-90.39373,38.81269,134],[-90.39369,38.81271,134],[-90.39365,38.81273,134],[-90.39361,38.81274,134],[-90.39358,38.81276,134],[-90.39355,38.81277,134],[-90.39352,38.81278,134],[-90.39349,38.81275,134],[-90.39346,38.81274,134],[-90.39344,38.81276,134],[-90.39345,38.81279,134],[-90.39345,38.81282,134],[-90.39343,38.81285,134],[-90.3934,38.81288,134],[-90.39337,38.8129,133],[-90.39334,38.81292,133],[-90.39331,38.81295,133],[-90.39328,38.81297,133],[-90.39325,38.81299,133],[-90.39323,38.813,133],[-90.3932,38.81302,133],[-90.39317,38.81305,133],[-90.39315,38.81307,132],[-90.39312,38.81309,132],[-90.39309,38.81311,132],[-90.39306,38.81313,132],[-90.39303,38.81315,133],[-90.393,38.81316,133],[-90.39298,38.81318,133],[-90.39298,38.81321,133],[-90.39298,38.81325,133],[-90.39296,38.81328,133],[-90.39294,38.8133,133],[-90.39291,38.81331,134],[-90.39287,38.81333,134],[-90.39285,38.81336,134],[-90.39282,38.81337,135],[-90.39279,38.8134,135],[-90.39276,38.81342,136],[-90.39273,38.81344,136],[-90.3927,38.81346,136],[-90.39266,38.81349,137],[-90.39264,38.81353,137],[-90.39263,38.81355,137],[-90.3926,38.81359,138],[-90.39259,38.81362,138],[-90.39257,38.81365,138],[-90.39253,38.81367,138],[-90.39251,38.8137,138],[-90.3925,38.81372,138],[-90.39248,38.81375,138],[-90.39246,38.81378,137],[-90.39245,38.81381,137],[-90.39243,38.81384,137],[-90.39245,38.81386,137],[-90.39245,38.81389,137],[-90.39242,38.81391,137],[-90.39238,38.81393,138],[-90.39235,38.81396,139],[-90.39233,38.81399,140],[-90.39232,38.81401,141],[-90.3923,38.81404,143],[-90.39227,38.81406,144],[-90.39224,38.81408,145],[-90.39223,38.81411,147],[-90.39225,38.81414,149],[-90.39227,38.81416,150],[-90.39229,38.81419,151],[-90.39231,38.81422,151],[-90.39233,38.81425,152],[-90.39236,38.81427,152],[-90.3924,38.81428,152],[-90.39243,38.8143,152],[-90.39247,38.81431,153],[-90.39251,38.81432,153],[-90.39255,38.81431,152],[-90.39259,38.81432,152],[-90.39263,38.81433,152],[-90.39264,38.81436,152],[-90.39266,38.81438,152],[-90.39269,38.81441,153],[-90.3927,38.81443,153],[-90.39272,38.81446,153],[-90.39274,38.81448,153],[-90.39276,38.81451,152],[-90.3928,38.81452,152],[-90.39283,38.81454,151],[-90.39286,38.81455,150],[-90.39289,38.81457,150],[-90.39291,38.8146,149],[-90.39293,38.81462,149],[-90.39295,38.81465,148],[-90.39295,38.81468,148],[-90.39295,38.81471,148],[-90.39296,38.81474,148],[-90.39298,38.81477,147],[-90.39296,38.81479,148],[-90.39295,38.81482,148],[-90.39294,38.81485,148],[-90.39292,38.81488,148],[-90.39292,38.81491,148],[-90.39293,38.81494,148],[-90.39295,38.81496,148],[-90.39296,38.81499,148],[-90.39299,38.81501,148],[-90.39302,38.81502,148],[-90.39305,38.81505,147],[-90.39307,38.81507,147],[-90.39308,38.8151,146],[-90.3931,38.81512,146],[-90.39308,38.81514,146],[-90.39308,38.81517,146],[-90.3931,38.81521,145],[-90.39312,38.81523,144],[-90.39309,38.81526,145],[-90.39306,38.81527,145],[-90.39303,38.81529,146],[-90.393,38.81531,146],[-90.39297,38.81532,146],[-90.39293,38.81533,147],[-90.3929,38.81536,147],[-90.39287,38.81538,147],[-90.39285,38.81541,147],[-90.39283,38.81543,147],[-90.39281,38.81546,146],[-90.39279,38.81548,146],[-90.39276,38.8155,147],[-90.39273,38.81552,147],[-90.39269,38.81554,148],[-90.39266,38.81555,149],[-90.39263,38.81557,150],[-90.3926,38.81559,151],[-90.39257,38.81561,151],[-90.39255,38.81564,152],[-90.39252,38.81566,152],[-90.3925,38.81568,152],[-90.39247,38.8157,153],[-90.39245,38.81573,153],[-90.39245,38.81576,152],[-90.39245,38.81579,151],[-90.39246,38.81582,150],[-90.39247,38.81586,150],[-90.39249,38.81588,149],[-90.39251,38.81591,148],[-90.39252,38.81594,148],[-90.39254,38.81597,147],[-90.39256,38.81599,146],[-90.39256,38.81602,146],[-90.39255,38.81605,147],[-90.39255,38.81608,147],[-90.39256,38.8161,146],[-90.39254,38.81613,147],[-90.3925,38.81615,148],[-90.39248,38.81618,148],[-90.39245,38.81619,148],[-90.39242,38.8162,149],[-90.3924,38.81623,149],[-90.39239,38.81626,148],[-90.39236,38.81628,149],[-90.39233,38.8163,149],[-90.3923,38.81631,149],[-90.39229,38.81634,148],[-90.39228,38.81637,148],[-90.39228,38.8164,147],[-90.39227,38.81643,147],[-90.39226,38.81646,147],[-90.39224,38.81648,147],[-90.39221,38.81649,148],[-90.39217,38.81649,148],[-90.39215,38.81652,149],[-90.39215,38.81655,148],[-90.39213,38.81658,148],[-90.39211,38.8166,148],[-90.39208,38.81662,149],[-90.39207,38.81664,149],[-90.39204,38.81667,149],[-90.39201,38.81669,149],[-90.39199,38.81671,149],[-90.39196,38.81673,150],[-90.39195,38.81676,150],[-90.39193,38.81678,150],[-90.39192,38.81681,150],[-90.39188,38.81682,150],[-90.39186,38.81684,150],[-90.39184,38.81687,149],[-90.39182,38.81689,149],[-90.3918,38.81691,149],[-90.39177,38.81693,148],[-90.39173,38.81694,148],[-90.39169,38.81695,147],[-90.39166,38.81695,147],[-90.39162,38.81697,147],[-90.3916,38.817,146],[-90.39158,38.81702,146],[-90.39156,38.81705,145],[-90.39154,38.81707,145],[-90.39153,38.8171,143],[-90.39149,38.81711,144],[-90.39146,38.81712,144],[-90.39143,38.81713,144],[-90.3914,38.81715,143],[-90.39135,38.81717,143],[-90.39132,38.81718,144],[-90.39128,38.81718,144],[-90.39124,38.81719,145],[-90.39121,38.81721,144],[-90.39119,38.81723,144],[-90.39115,38.81725,144],[-90.39112,38.81726,144],[-90.3911,38.81729,144],[-90.39107,38.81731,144],[-90.39105,38.81733,144],[-90.39101,38.81736,144],[-90.39098,38.81738,143],[-90.39095,38.8174,143],[-90.39092,38.81742,143],[-90.39089,38.81743,143],[-90.39087,38.81746,142],[-90.39087,38.81749,141],[-90.39088,38.81752,141],[-90.39089,38.81754,140],[-90.3909,38.81757,139],[-90.39093,38.81756,139],[-90.3909,38.81755,140],[-90.39086,38.81756,140],[-90.39083,38.81757,140],[-90.39081,38.81755,141],[-90.39078,38.81754,142],[-90.39074,38.81753,142],[-90.3907,38.81754,143],[-90.39068,38.81751,144],[-90.39069,38.81748,144],[-90.39067,38.81744,146],[-90.39063,38.81743,147],[-90.39059,38.81744,147],[-90.39057,38.81746,147],[-90.39054,38.81748,146],[-90.3905,38.81749,146],[-90.39047,38.81749,147],[-90.39047,38.81752,146],[-90.39048,38.81755,145],[-90.39047,38.81757,145],[-90.39043,38.81758,145],[-90.3904,38.8176,145],[-90.39038,38.81762,145],[-90.39041,38.81764,144],[-90.39042,38.81767,143],[-90.39042,38.81769,143],[-90.39042,38.81772,142],[-90.3904,38.81775,142],[-90.39037,38.81777,142],[-90.39034,38.81778,142],[-90.39031,38.8178,142],[-90.39029,38.81782,142],[-90.39026,38.81784,142],[-90.39023,38.81786,142],[-90.3902,38.81788,143],[-90.39016,38.81789,143],[-90.39012,38.81789,144],[-90.39008,38.8179,144],[-90.39004,38.81791,145],[-90.39001,38.81791,145],[-90.38997,38.81791,146],[-90.38994,38.81792,146],[-90.38989,38.81792,146],[-90.38986,38.81794,146],[-90.38984,38.81797,146],[-90.38981,38.81799,146],[-90.38978,38.818,147],[-90.38974,38.81801,147],[-90.38971,38.81802,147],[-90.38967,38.81802,147],[-90.38964,38.81803,147],[-90.3896,38.81803,147],[-90.38958,38.81805,147]],[[-90.38961,38.81798,148],[-90.38958,38.81799,148],[-90.38953,38.81801,147],[-90.3895,38.81803,147],[-90.38947,38.81803,147],[-90.38944,38.81801,148],[-90.38941,38.818,148],[-90.38937,38.818,149],[-90.38933,38.818,149],[-90.38931,38.81803,149],[-90.38927,38.81803,149],[-90.38923,38.81802,150],[-90.38919,38.81801,151],[-90.38915,38.81801,151],[-90.38911,38.81802,152],[-90.38908,38.81802,153],[-90.38904,38.81802,154],[-90.389,38.81802,155],[-90.38897,38.81802,156],[-90.38894,38.81804,156],[-90.38894,38.81806,155],[-90.38893,38.81809,154],[-90.38891,38.81812,153],[-90.38889,38.81814,153],[-90.38886,38.81817,153],[-90.38883,38.81819,152],[-90.38881,38.81822,151],[-90.38878,38.81825,151],[-90.38875,38.81826,151],[-90.38871,38.81827,151],[-90.38867,38.81828,151],[-90.38863,38.8183,151],[-90.38861,38.81833,150],[-90.38856,38.81835,149],[-90.38853,38.81836,148],[-90.3885,38.81838,148],[-90.38848,38.81841,146],[-90.38844,38.81842,146],[-90.38841,38.81843,145],[-90.38838,38.81844,145],[-90.38837,38.81848,143],[-90.38836,38.8185,142],[-90.38833,38.81852,141],[-90.38832,38.81855,140],[-90.3883,38.81859,139],[-90.38828,38.81861,138],[-90.38824,38.81863,139],[-90.38821,38.81865,139],[-90.38818,38.81867,139],[-90.38814,38.81868,140],[-90.38811,38.81868,140],[-90.38806,38.81868,141],[-90.38803,38.81868,141],[-90.388,38.81869,141],[-90.38796,38.81869,142],[-90.38793,38.81871,142],[-90.38791,38.81874,142],[-90.38788,38.81877,142],[-90.38785,38.81879,142],[-90.38781,38.81881,142],[-90.38778,38.81882,142],[-90.38774,38.81883,142],[-90.38771,38.81884,142],[-90.38767,38.81885,142],[-90.38764,38.81887,142],[-90.3876,38.81888,142],[-90.38757,38.81891,141],[-90.38754,38.81893,140],[-90.38752,38.81897,139],[-90.38749,38.81899,138],[-90.38747,38.81902,137],[-90.38745,38.81905,136],[-90.38742,38.81907,136],[-90.38738,38.81908,135],[-90.38734,38.8191,135],[-90.38732,38.81912,134],[-90.38729,38.81913,133],[-90.38726,38.81915,132],[-90.38724,38.81918,132],[-90.3872,38.81919,132],[-90.38717,38.8192,132],[-90.38713,38.81921,132],[-90.3871,38.81923,132],[-90.38707,38.81925,132],[-90.38703,38.81927,132],[-90.38701,38.81929,132],[-90.38697,38.8193,132],[-90.38694,38.81931,132],[-90.38689,38.81931,132],[-90.38686,38.81932,132],[-90.38684,38.81935,132],[-90.38683,38.81937,132],[-90.38681,38.8194,132],[-90.38679,38.81943,132],[-90.38676,38.81944,132],[-90.38672,38.81944,132],[-90.38671,38.81947,131],[-90.38667,38.81947,131],[-90.38664,38.81948,131],[-90.38661,38.8195,131],[-90.38657,38.81951,131],[-90.38655,38.81953,131],[-90.38651,38.81953,131],[-90.38648,38.81954,131],[-90.38644,38.81954,131],[-90.3864,38.81955,131],[-90.38638,38.81956,131],[-90.38641,38.81955,131],[-90.38644,38.81955,131],[-90.38648,38.81954,131],[-90.38651,38.81952,131],[-90.38654,38.81951,131],[-90.38658,38.8195,131],[-90.38662,38.81949,131],[-90.38665,38.81946,131],[-90.38667,38.81945,131],[-90.38671,38.81944,132],[-90.38674,38.81944,132],[-90.38678,38.81942,132],[-90.3868,38.8194,132],[-90.38681,38.81937,132],[-90.38684,38.81935,132],[-90.38687,38.81933,132],[-90.3869,38.81932,132],[-90.38694,38.81932,132],[-90.38697,38.81931,132],[-90.38701,38.81931,132],[-90.38705,38.8193,132],[-90.38709,38.8193,132],[-90.38712,38.81928,132],[-90.38716,38.81927,132],[-90.38719,38.81926,132],[-90.38723,38.81925,132],[-90.38726,38.81922,132],[-90.38729,38.8192,132],[-90.38732,38.81917,132],[-90.38734,38.81915,133],[-90.38737,38.81912,134],[-90.3874,38.8191,135],[-90.38742,38.81908,135],[-90.38745,38.81906,136],[-90.38747,38.81904,137],[-90.38749,38.81901,138],[-90.38751,38.81898,139],[-90.38754,38.81896,139],[-90.38754,38.81893,140],[-90.38757,38.8189,141],[-90.38761,38.81889,141],[-90.38765,38.81888,142],[-90.38768,38.81887,142],[-90.38771,38.81886,142],[-90.38775,38.81886,142],[-90.3878,38.81885,142],[-90.38783,38.81883,142],[-90.38785,38.81881,142],[-90.38788,38.81879,142],[-90.38792,38.81878,141],[-90.38795,38.81876,141],[-90.38799,38.81877,141],[-90.38803,38.81876,140],[-90.38806,38.81874,140],[-90.38808,38.81872,140],[-90.38811,38.8187,140],[-90.38815,38.81869,140],[-90.38818,38.81867,139],[-90.3882,38.81865,139],[-90.38822,38.81862,139],[-90.38826,38.81862,139],[-90.3883,38.8186,138],[-90.38832,38.81857,139],[-90.38834,38.81855,140],[-90.38837,38.81853,141],[-90.38841,38.81852,141],[-90.38844,38.81851,142],[-90.38847,38.81851,142],[-90.38852,38.8185,142],[-90.38855,38.8185,142],[-90.38857,38.81847,144],[-90.38857,38.81844,145],[-90.38858,38.81841,146],[-90.38861,38.81839,147],[-90.38864,38.81837,147],[-90.38868,38.81837,147],[-90.38872,38.81837,147],[-90.38876,38.81837,146],[-90.38879,38.81835,146],[-90.3888,38.81833,147],[-90.38882,38.8183,148],[-90.38883,38.81827,149],[-90.38885,38.81825,150],[-90.38886,38.81821,151],[-90.38886,38.81819,152],[-90.38888,38.81816,153],[-90.38891,38.81814,153],[-90.38895,38.81815,151],[-90.38898,38.81816,150],[-90.38901,38.81818,149],[-90.38904,38.8182,147],[-90.38907,38.81821,146],[-90.3891,38.81823,144],[-90.38913,38.81822,144],[-90.38916,38.81821,144],[-90.38918,38.81818,144],[-90.3892,38.81816,145],[-90.38923,38.81813,146],[-90.38926,38.81811,146],[-90.38929,38.81809,147],[-90.38932,38.81807,147],[-90.38935,38.81806,147],[-90.38939,38.81807,147],[-90.38942,38.81807,146],[-90.38946,38.81805,147],[-90.38948,38.81804,147],[-90.38952,38.81803,147],[-90.38956,38.81802,147],[-90.3896,38.81803,147],[-90.38963,38.81804,147],[-90.38966,38.81806,146],[-90.38969,38.81805,147],[-90.38972,38.81803,147],[-90.38975,38.818,147],[-90.38978,38.81799,147],[-90.38982,38.81798,146],[-90.38985,38.81797,146],[-90.38989,38.81796,146],[-90.38993,38.81795,145],[-90.38996,38.81794,145],[-90.39,38.81793,145],[-90.39004,38.81792,144],[-90.39008,38.81793,144],[-90.39011,38.81794,143],[-90.39015,38.81794,142],[-90.39017,38.81792,143],[-90.39021,38.8179,142],[-90.39024,38.8179,142],[-90.39028,38.81789,141],[-90.39031,38.8179,141],[-90.39035,38.81788,141],[-90.39039,38.81787,140],[-90.39042,38.81785,140],[-90.39045,38.81784,140],[-90.39048,38.81782,140],[-90.39051,38.8178,140],[-90.39054,38.81778,140],[-90.39057,38.81777,140],[-90.39061,38.81776,139],[-90.39064,38.81774,139],[-90.39067,38.81772,139],[-90.3907,38.8177,139],[-90.39073,38.81768,139],[-90.39076,38.81768,139],[-90.39078,38.81766,139],[-90.3908,38.81762,140],[-90.39082,38.8176,140],[-90.39083,38.81757,140],[-90.39083,38.81754,141],[-90.39086,38.81751,141],[-90.39086,38.81748,142],[-90.39088,38.81746,142],[-90.3909,38.81744,143],[-90.39091,38.81741,143],[-90.39088,38.81739,144],[-90.39085,38.81737,145],[-90.39081,38.81738,146],[-90.39079,38.8174,145],[-90.39075,38.81741,146],[-90.39071,38.81742,146],[-90.39068,38.81742,146],[-90.39064,38.81742,147],[-90.3906,38.81743,147],[-90.39058,38.81745,147],[-90.39054,38.81745,147],[-90.39051,38.81744,148],[-90.39047,38.81743,149],[-90.3905,38.81745,148],[-90.39052,38.81742,149],[-90.39054,38.81739,150],[-90.39055,38.81737,150],[-90.39054,38.81734,151],[-90.39054,38.81731,152],[-90.39055,38.81728,153],[-90.39055,38.81725,155],[-90.39053,38.81723,155],[-90.39052,38.8172,156],[-90.39052,38.81717,157],[-90.3905,38.81715,158],[-90.39052,38.81712,159],[-90.39052,38.81709,160],[-90.39053,38.81706,161],[-90.39053,38.81703,162],[-90.39052,38.817,163],[-90.3905,38.81698,164],[-90.3905,38.81694,165],[-90.3905,38.81691,165],[-90.39053,38.8169,165],[-90.39056,38.81688,165],[-90.39058,38.81686,165],[-90.3906,38.81684,165],[-90.39064,38.81684,165],[-90.39068,38.81683,165],[-90.39071,38.81681,165],[-90.39075,38.8168,165],[-90.39078,38.8168,165],[-90.3908,38.81677,165],[-90.39083,38.81676,165],[-90.39086,38.81675,165],[-90.3909,38.81673,165],[-90.39092,38.81671,165],[-90.39095,38.8167,165],[-90.39099,38.81669,165],[-90.39102,38.8167,165],[-90.39105,38.81672,164],[-90.39107,38.81675,163],[-90.3911,38.81677,163],[-90.39114,38.81677,162],[-90.39118,38.81677,161],[-90.39122,38.81677,161],[-90.39125,38.81675,161],[-90.39128,38.81674,161],[-90.3913,38.81671,161],[-90.39132,38.81669,162],[-90.39134,38.81666,162],[-90.39136,38.81664,163],[-90.39138,38.81661,163],[-90.39141,38.81659,164],[-90.39144,38.81657,163],[-90.39146,38.81656,163],[-90.3915,38.81654,163],[-90.39151,38.81651,164],[-90.39155,38.81652,162],[-90.39157,38.8165,163],[-90.39158,38.81647,163],[-90.3916,38.81644,164],[-90.39162,38.81642,164],[-90.39164,38.81639,164],[-90.39165,38.81636,165],[-90.39167,38.81633,166],[-90.39168,38.8163,166],[-90.39168,38.81627,167],[-90.3917,38.81625,168],[-90.39172,38.81623,168],[-90.39172,38.8162,169],[-90.39172,38.81617,170],[-90.39173,38.81614,171],[-90.39174,38.81611,171],[-90.39175,38.81608,172],[-90.39176,38.81605,172],[-90.39178,38.81603,172],[-90.39178,38.816,173],[-90.39179,38.81596,173],[-90.3918,38.81593,174],[-90.39179,38.8159,174],[-90.39178,38.81587,176],[-90.39177,38.81585,176],[-90.39176,38.81582,177],[-90.39174,38.81579,178],[-90.39172,38.81577,179],[-90.39172,38.81573,179],[-90.39175,38.81571,179],[-90.39178,38.8157,178],[-90.39182,38.81569,177],[-90.39186,38.8157,176],[-90.3919,38.81569,176],[-90.39193,38.81569,175],[-90.39197,38.81568,174],[-90.39196,38.81565,175],[-90.39192,38.81565,176],[-90.39188,38.81566,177],[-90.39185,38.81567,177],[-90.39181,38.81569,178],[-90.39177,38.8157,179],[-90.39174,38.8157,179],[-90.3917,38.81569,180],[-90.39167,38.81567,181],[-90.39164,38.81565,182],[-90.39162,38.81563,182],[-90.39159,38.81561,182],[-90.39157,38.81558,183],[-90.39154,38.81556,183],[-90.3915,38.81555,184],[-90.39146,38.81553,184],[-90.39142,38.81552,184],[-90.39139,38.8155,185],[-90.39135,38.8155,185],[-90.39132,38.81549,185],[-90.39128,38.81548,185],[-90.39123,38.81547,185],[-90.39118,38.81547,186],[-90.39114,38.81546,186],[-90.39109,38.81547,186],[-90.39105,38.81548,186],[-90.39101,38.81548,186],[-90.39096,38.81549,185],[-90.39092,38.8155,185],[-90.39089,38.81552,185],[-90.39086,38.81552,185],[-90.39082,38.81552,185],[-90.39078,38.81552,184],[-90.39074,38.81551,184],[-90.3907,38.8155,183],[-90.39064,38.81551,183],[-90.39061,38.8155,182],[-90.39057,38.81549,182],[-90.39054,38.81548,182],[-90.39049,38.81547,181],[-90.39047,38.81546,181],[-90.39044,38.81543,181],[-90.39041,38.81542,181],[-90.39038,38.8154,181],[-90.39034,38.8154,180],[-90.39031,38.8154,180],[-90.39027,38.8154,180],[-90.39023,38.81539,180],[-90.3902,38.81538,180],[-90.39016,38.81537,180],[-90.39012,38.81536,180],[-90.39009,38.81535,180],[-90.39005,38.81533,181],[-90.39002,38.8153,181],[-90.39,38.81528,181],[-90.38996,38.81526,182],[-90.38993,38.81524,183],[-90.3899,38.81522,183],[-90.38988,38.8152,184],[-90.38986,38.81518,184],[-90.38983,38.81515,185],[-90.38981,38.81513,186],[-90.38979,38.8151,186],[-90.38977,38.81508,187],[-90.38975,38.81506,187],[-90.38971,38.81503,188],[-90.38968,38.81502,188],[-90.38965,38.815,188],[-90.38963,38.81497,189],[-90.3896,38.81495,189],[-90.38956,38.81494,189],[-90.38953,38.81493,189],[-90.38951,38.8149,189],[-90.3895,38.81487,189],[-90.3895,38.81485,189],[-90.3895,38.81481,190],[-90.38951,38.81475,190],[-90.38952,38.81472,191],[-90.38952,38.81468,191],[-90.38951,38.81465,190],[-90.38951,38.81463,190],[-90.38952,38.81459,190],[-90.38952,38.81456,190],[-90.38954,38.81452,190],[-90.38954,38.81449,189],[-90.38952,38.81446,189],[-90.3895,38.81442,189],[-90.38947,38.8144,189],[-90.38944,38.81438,189],[-90.38942,38.81436,189],[-90.38938,38.81435,190],[-90.38935,38.81433,190],[-90.38931,38.81432,190],[-90.38928,38.8143,191],[-90.38925,38.81429,191],[-90.38922,38.81427,191],[-90.38918,38.81425,192],[-90.38914,38.81424,192],[-90.3891,38.81423,192],[-90.38906,38.81423,192],[-90.38902,38.81422,192],[-90.38897,38.81421,192],[-90.38893,38.81419,192],[-90.38885,38.81416,193],[-90.38881,38.81416,194],[-90.38877,38.81414,194],[-90.38874,38.81412,194],[-90.3887,38.8141,195],[-90.38866,38.81408,195],[-90.38862,38.81407,196],[-90.38858,38.81407,196],[-90.38854,38.81408,196],[-90.38851,38.81409,197],[-90.38847,38.81408,197],[-90.38844,38.81406,197],[-90.38841,38.81404,197],[-90.38838,38.81402,198],[-90.38834,38.81401,198],[-90.3883,38.814,198],[-90.38826,38.81399,198],[-90.38823,38.81397,198],[-90.38818,38.81397,198],[-90.38814,38.81396,198],[-90.38809,38.81396,199],[-90.38804,38.81395,199],[-90.38799,38.81394,199],[-90.38795,38.81395,199],[-90.38792,38.81396,199],[-90.38788,38.81397,199],[-90.38785,38.81397,199],[-90.3878,38.81397,199],[-90.38777,38.81396,200],[-90.38773,38.81397,200],[-90.3877,38.81397,200],[-90.38768,38.81394,200],[-90.38765,38.81391,200],[-90.38761,38.81389,199],[-90.38758,38.81387,199],[-90.38756,38.81384,199],[-90.38756,38.81381,198],[-90.38755,38.81378,198],[-90.38755,38.81374,198],[-90.38755,38.81371,197],[-90.38755,38.81369,197],[-90.38755,38.81365,196],[-90.38757,38.81362,196],[-90.38757,38.81359,196],[-90.38756,38.81356,196],[-90.38757,38.81353,195],[-90.38758,38.81349,195],[-90.38759,38.81346,195],[-90.38759,38.81343,195],[-90.38759,38.81339,195],[-90.38759,38.81335,194],[-90.3876,38.81332,194],[-90.38763,38.8133,194],[-90.38767,38.8133,194],[-90.38771,38.8133,195],[-90.38776,38.81332,195],[-90.3878,38.81332,195],[-90.38783,38.8133,195],[-90.38786,38.81328,195],[-90.38789,38.81326,194],[-90.3879,38.81323,194],[-90.38793,38.81322,194],[-90.38797,38.8132,193],[-90.38799,38.81317,193],[-90.38799,38.81314,192],[-90.38799,38.81311,192],[-90.38799,38.81308,191],[-90.38801,38.81306,191],[-90.38804,38.81303,190],[-90.38804,38.813,190],[-90.38804,38.81297,190],[-90.38804,38.81294,189],[-90.38805,38.81291,189],[-90.38806,38.81288,188],[-90.38805,38.81285,188],[-90.38806,38.81282,188],[-90.38807,38.8128,187],[-90.38811,38.81278,186],[-90.38814,38.81276,185],[-90.38817,38.81274,183],[-90.38821,38.81273,182],[-90.38826,38.81274,181],[-90.38831,38.81273,179],[-90.38834,38.81273,178],[-90.38838,38.81273,177],[-90.38841,38.81271,176],[-90.38845,38.81271,174],[-90.38848,38.81273,174],[-90.38851,38.81272,173],[-90.38854,38.8127,171],[-90.38857,38.81268,170],[-90.38859,38.81265,170],[-90.38862,38.81263,169],[-90.38864,38.81259,168],[-90.38865,38.81257,168],[-90.38866,38.81254,168],[-90.38867,38.81251,167],[-90.38867,38.81248,167],[-90.38866,38.81245,167],[-90.38865,38.81242,166],[-90.38865,38.81239,166],[-90.38866,38.81237,166],[-90.38868,38.81234,165],[-90.38869,38.81231,164],[-90.38872,38.8123,164],[-90.38874,38.81227,163],[-90.38877,38.81224,163],[-90.38882,38.81221,162],[-90.38884,38.81218,161],[-90.38884,38.81215,161],[-90.38883,38.81211,160],[-90.38881,38.81208,160],[-90.38877,38.81207,160],[-90.38875,38.81205,160],[-90.38874,38.81201,160],[-90.38872,38.81198,160],[-90.3887,38.81196,160],[-90.38868,38.81194,160],[-90.38864,38.81192,161],[-90.3886,38.8119,162],[-90.38859,38.81187,163],[-90.38859,38.81184,163],[-90.38859,38.8118,163],[-90.38861,38.81177,163],[-90.38864,38.81176,163],[-90.38868,38.81175,162],[-90.38871,38.81173,162],[-90.38874,38.8117,162],[-90.38876,38.81168,162],[-90.38879,38.81165,161],[-90.3888,38.81162,161],[-90.38881,38.81159,161],[-90.38882,38.81156,160],[-90.38884,38.81154,160],[-90.38888,38.81153,159],[-90.38892,38.81152,158],[-90.38896,38.81152,157],[-90.389,38.81151,156],[-90.38903,38.81151,155],[-90.38907,38.81152,154],[-90.38911,38.81152,153],[-90.38914,38.8115,152],[-90.38918,38.81148,152],[-90.38921,38.81146,152],[-90.38924,38.81143,152],[-90.38926,38.81141,152],[-90.38928,38.81139,152],[-90.38932,38.81136,152],[-90.38936,38.81135,152],[-90.3894,38.81134,152],[-90.38942,38.81131,152],[-90.38943,38.81127,152],[-90.38947,38.81125,151],[-90.38951,38.81123,151],[-90.38953,38.81121,151],[-90.38956,38.81121,151],[-90.38961,38.8112,151],[-90.38965,38.81119,151],[-90.3897,38.81118,150],[-90.38975,38.81118,150],[-90.38978,38.81118,149],[-90.38982,38.81118,149],[-90.38985,38.81119,148],[-90.38989,38.81119,148],[-90.38993,38.81118,147],[-90.38997,38.81118,146],[-90.39001,38.81117,146],[-90.39004,38.81116,146],[-90.39008,38.81116,145],[-90.39013,38.81116,144],[-90.39016,38.81115,144],[-90.3902,38.81115,144],[-90.39024,38.81116,143],[-90.39027,38.81115,143],[-90.39032,38.81115,142],[-90.39035,38.81116,142],[-90.39039,38.81117,142],[-90.39042,38.81119,142],[-90.39045,38.81121,142],[-90.39049,38.81123,142],[-90.39052,38.81124,142],[-90.39055,38.81125,142],[-90.3906,38.81125,142],[-90.39064,38.81124,142],[-90.39067,38.81124,142],[-90.3907,38.81121,142],[-90.39072,38.81119,141],[-90.39077,38.81117,141],[-90.3908,38.81116,141],[-90.39083,38.81117,141],[-90.39085,38.8112,141],[-90.39086,38.81122,141],[-90.39088,38.81125,141],[-90.3909,38.81128,141],[-90.39091,38.81131,141],[-90.39093,38.81134,141],[-90.39096,38.81136,141],[-90.39099,38.81138,141],[-90.39103,38.81139,141],[-90.39106,38.81141,141],[-90.39109,38.81142,141],[-90.39111,38.81145,141],[-90.39112,38.81148,142],[-90.39112,38.8115,142],[-90.39112,38.81153,142],[-90.3911,38.81156,143],[-90.39108,38.81158,143],[-90.39106,38.81161,144],[-90.39103,38.81163,145],[-90.39101,38.81165,145],[-90.39098,38.81168,146],[-90.39097,38.81171,146],[-90.39096,38.81174,147],[-90.39095,38.81176,147],[-90.39093,38.81179,147],[-90.39092,38.81182,148],[-90.39091,38.81185,148],[-90.39091,38.81188,149],[-90.39092,38.81191,149],[-90.39093,38.81195,150],[-90.39092,38.81198,149],[-90.3909,38.81201,149],[-90.39086,38.81202,149],[-90.39085,38.81207,149],[-90.39086,38.8121,149],[-90.39089,38.81211,149],[-90.39088,38.81213,149],[-90.39088,38.81217,149],[-90.39088,38.8122,149],[-90.39087,38.81226,149],[-90.39088,38.81229,148],[-90.39089,38.81232,147],[-90.39091,38.81235,146],[-90.39094,38.81239,145],[-90.39096,38.81241,144],[-90.39098,38.81244,143],[-90.39099,38.81247,143],[-90.39098,38.8125,142],[-90.39099,38.81253,143],[-90.391,38.81257,143],[-90.39099,38.8126,144],[-90.391,38.81262,144],[-90.39101,38.81265,145],[-90.39102,38.81268,146],[-90.39102,38.81271,146],[-90.39101,38.81274,147],[-90.39102,38.81277,148],[-90.39104,38.8128,148],[-90.39107,38.81282,148],[-90.3911,38.81286,149],[-90.39111,38.8129,150],[-90.39111,38.81293,150],[-90.39113,38.81295,151],[-90.39116,38.81296,150],[-90.39117,38.81299,151],[-90.39118,38.81303,152],[-90.39119,38.81306,152],[-90.3912,38.81309,152],[-90.39121,38.81313,152],[-90.39123,38.81316,152],[-90.39125,38.81318,152],[-90.39128,38.81321,152],[-90.39131,38.81322,151],[-90.39135,38.81322,151],[-90.39137,38.81325,150],[-90.39138,38.81327,150],[-90.3914,38.81331,150],[-90.39142,38.81333,150],[-90.39145,38.81334,150],[-90.39149,38.81334,149],[-90.39153,38.81333,148],[-90.39157,38.81334,148],[-90.3916,38.81337,147],[-90.39162,38.8134,146],[-90.39161,38.81343,146],[-90.3916,38.81346,146],[-90.39159,38.8135,146],[-90.39158,38.81352,146],[-90.39158,38.81355,145],[-90.39159,38.81359,145],[-90.39159,38.81362,145],[-90.3916,38.81365,145],[-90.39162,38.81367,145],[-90.39165,38.81369,144],[-90.39168,38.81371,144],[-90.3917,38.81374,144],[-90.39172,38.81377,144],[-90.39175,38.81379,144],[-90.39178,38.81381,143],[-90.39182,38.81383,142],[-90.39185,38.81384,141],[-90.39189,38.81385,140],[-90.39193,38.81386,138],[-90.39196,38.81388,137],[-90.392,38.81389,137],[-90.39203,38.81391,137],[-90.39205,38.81394,138],[-90.39208,38.81396,139],[-90.39211,38.814,141],[-90.39214,38.81402,142],[-90.39215,38.81405,144],[-90.39217,38.81408,145],[-90.3922,38.81408,145],[-90.39224,38.81405,143],[-90.39226,38.81403,142],[-90.39228,38.814,140],[-90.39231,38.81397,139],[-90.39233,38.81395,138],[-90.39236,38.81392,137],[-90.39235,38.81389,135],[-90.39237,38.81387,135],[-90.39241,38.81385,136],[-90.39241,38.81382,137],[-90.39243,38.81379,137],[-90.39245,38.81377,137],[-90.39247,38.81374,138],[-90.39248,38.81371,138],[-90.39248,38.81368,138],[-90.39249,38.81365,138],[-90.39251,38.81363,138],[-90.39253,38.8136,138],[-90.39254,38.81357,138],[-90.39252,38.81355,138],[-90.39254,38.81352,138],[-90.39256,38.8135,137],[-90.39258,38.81347,137],[-90.39261,38.81345,137],[-90.39264,38.81343,136],[-90.39266,38.8134,136],[-90.39267,38.81338,136],[-90.3927,38.81334,135],[-90.39272,38.81332,135],[-90.39276,38.8133,135],[-90.39278,38.81328,134],[-90.39281,38.81326,134],[-90.39282,38.81323,134],[-90.39285,38.81321,134],[-90.39288,38.8132,133],[-90.39291,38.81317,133],[-90.39295,38.81317,133],[-90.39297,38.81315,133],[-90.393,38.81312,133],[-90.39302,38.8131,133],[-90.39305,38.81308,133],[-90.39308,38.81306,132],[-90.39311,38.81303,133],[-90.39314,38.81302,133],[-90.39318,38.813,133],[-90.39321,38.81299,133],[-90.39324,38.81297,133],[-90.39326,38.81295,133],[-90.3933,38.81293,133],[-90.39333,38.81292,133],[-90.39335,38.81289,134],[-90.39339,38.81288,134],[-90.39342,38.81286,134],[-90.39345,38.81285,134],[-90.39348,38.81283,134],[-90.39351,38.81281,134],[-90.39353,38.81279,134],[-90.39355,38.81276,134],[-90.39359,38.81275,134],[-90.39361,38.81272,134],[-90.39365,38.81271,134],[-90.39367,38.81269,134],[-90.3937,38.81266,134],[-90.39374,38.81265,135],[-90.39377,38.81262,135],[-90.3938,38.81261,135],[-90.39383,38.8126,135],[-90.39387,38.81259,135],[-90.39391,38.81257,136],[-90.39395,38.81256,136],[-90.39398,38.81254,136],[-90.39401,38.81252,136],[-90.39404,38.8125,137],[-90.39408,38.8125,137],[-90.39409,38.81253,136],[-90.39412,38.81252,136],[-90.39415,38.8125,137],[-90.39416,38.81247,137],[-90.39417,38.81243,137],[-90.39419,38.8124,137],[-90.39421,38.81238,137],[-90.39425,38.81235,137],[-90.39428,38.81234,137],[-90.39431,38.81231,137],[-90.39433,38.81229,137],[-90.39435,38.81226,137],[-90.39436,38.81224,137],[-90.39437,38.81221,138],[-90.3944,38.81218,138],[-90.39443,38.81217,138],[-90.39446,38.81215,137],[-90.39449,38.81213,137],[-90.39452,38.81211,137],[-90.39452,38.81208,137],[-90.39454,38.81204,137],[-90.39456,38.81202,137],[-90.3946,38.81201,137],[-90.39463,38.812,137],[-90.39464,38.81197,137],[-90.39466,38.81195,137],[-90.39468,38.81192,136],[-90.3947,38.8119,136],[-90.39473,38.81188,136],[-90.39477,38.81186,135],[-90.3948,38.81184,135],[-90.39483,38.81182,135]]],
        "bbox": [
          -90.38638,
          38.81956,
          -90.39484,
          38.81115
        ]
      },
      "properties": {
        "name": "3.6.2021"
      }
    }
  ]
}