{
  "type": "FeatureCollection",
  "features": [
    {
      "type": "Feature",
      "geometry": {
        "type": "MultiLineString",
        "coordinates": [[[-90.39491,38.8118,134],[-90.39488,38.81185,135],[-90.39484,38.81189,135],[-90.39481,38.81191,135],[-90.39478,38.81192,136],[-90.39474,38.81194,136],[-90.39471,38.81195,137],[-90.39468,38.81197,137],[-90.39466,38.81199,137],[-90.39464,38.81202,137],[-90.39463,38.81205,137],[-90.39463,38.81208,137],[-90.39462,38.81212,136],[-90.3946,38.81215,137],[-90.39457,38.81217,137],[-90.39455,38.81219,137],[-90.39452,38.81222,137],[-90.3945,38.81224,137],[-90.39446,38.81226,137],[-90.39442,38.81228,137],[-90.39439,38.8123,137],[-90.39437,38.81232,137],[-90.39435,38.81235,136],[-90.39434,38.81238,136],[-90.39432,38.81241,136],[-90.39429,38.81244,136],[-90.39424,38.81246,136],[-90.3942,38.81248,136],[-90.39415,38.81251,136],[-90.39411,38.81254,136],[-90.39405,38.81257,135],[-90.39396,38.8126,135],[-90.39387,38.81259,135],[-90.39381,38.81261,135],[-90.39374,38.81265,135],[-90.3937,38.8127,134],[-90.39362,38.81274,134],[-90.39354,38.81277,134],[-90.39347,38.81279,134],[-90.39343,38.81282,134],[-90.39341,38.81287,134],[-90.39338,38.81291,133],[-90.39332,38.81294,133],[-90.39327,38.81298,133],[-90.39322,38.81303,133],[-90.39318,38.81307,132],[-90.39315,38.81309,132],[-90.3931,38.81311,132],[-90.39306,38.81313,132],[-90.39301,38.81314,133],[-90.39296,38.81316,133],[-90.39291,38.8132,133],[-90.3929,38.81325,133],[-90.3929,38.81331,134],[-90.39288,38.81335,134],[-90.39285,38.81338,134],[-90.3928,38.81341,135],[-90.39275,38.81344,136],[-90.39271,38.81347,136],[-90.39267,38.8135,137],[-90.39264,38.81353,137],[-90.3926,38.81356,138],[-90.39257,38.81359,138],[-90.39254,38.81363,138],[-90.39252,38.8137,138],[-90.39252,38.81377,138],[-90.39246,38.81379,137],[-90.39243,38.81382,137],[-90.39239,38.81383,136],[-90.39236,38.81386,135],[-90.39234,38.81391,136],[-90.39234,38.81399,140],[-90.39231,38.81406,144],[-90.39225,38.81411,147],[-90.39227,38.81408,145],[-90.39224,38.81405,143],[-90.39219,38.81401,141],[-90.39213,38.81397,139],[-90.39208,38.81396,139],[-90.39203,38.81394,139],[-90.39199,38.81392,138],[-90.39195,38.8139,138],[-90.39191,38.81387,139],[-90.39188,38.81384,140],[-90.39184,38.8138,141],[-90.39179,38.81377,142],[-90.39175,38.81372,143],[-90.39171,38.81367,143],[-90.39167,38.8136,143],[-90.39164,38.81356,144],[-90.39163,38.81352,145],[-90.39162,38.81348,145],[-90.39162,38.81344,146],[-90.39162,38.8134,146],[-90.39162,38.81336,147],[-90.39159,38.81332,148],[-90.39154,38.8133,148],[-90.39149,38.81328,149],[-90.39145,38.81325,149],[-90.39141,38.81322,150],[-90.39137,38.81319,150],[-90.39134,38.81316,151],[-90.39132,38.81312,151],[-90.39131,38.81308,151],[-90.39131,38.81304,150],[-90.39131,38.813,149],[-90.39131,38.81296,148],[-90.3913,38.81292,147],[-90.39128,38.81288,147],[-90.39125,38.81285,146],[-90.39123,38.81281,146],[-90.39121,38.81278,145],[-90.39117,38.81275,145],[-90.39113,38.81271,145],[-90.39112,38.81267,144],[-90.39111,38.81262,143],[-90.39109,38.81258,142],[-90.39107,38.81253,142],[-90.39105,38.81248,142],[-90.39103,38.81243,143],[-90.39102,38.81238,145],[-90.391,38.81234,146],[-90.39099,38.81228,147],[-90.39099,38.81224,148],[-90.39098,38.8122,149],[-90.39097,38.81216,149],[-90.39096,38.81212,149],[-90.39098,38.81208,150],[-90.39099,38.81204,150],[-90.39101,38.81201,150],[-90.39102,38.81197,150],[-90.39102,38.81193,150],[-90.39098,38.81187,149],[-90.39096,38.81183,148],[-90.39097,38.81177,147],[-90.39099,38.81172,146],[-90.39101,38.81169,146],[-90.39104,38.81166,145],[-90.39109,38.81164,144],[-90.39113,38.81162,144],[-90.39117,38.81159,143],[-90.39117,38.81155,142],[-90.39115,38.81151,142],[-90.39111,38.81148,142],[-90.39107,38.81144,142],[-90.39104,38.81141,141],[-90.39101,38.81138,141],[-90.39098,38.81135,141],[-90.39095,38.81131,141],[-90.39092,38.81127,141],[-90.39088,38.81124,141],[-90.39085,38.81121,141],[-90.3908,38.81118,141],[-90.39075,38.81118,141],[-90.39071,38.81119,141],[-90.39067,38.81122,142],[-90.39063,38.81125,142],[-90.39059,38.81127,142],[-90.39054,38.81125,142],[-90.39047,38.81121,142],[-90.39043,38.81123,142],[-90.39039,38.81123,142],[-90.39035,38.81122,142],[-90.39029,38.81122,142],[-90.39025,38.81122,143],[-90.3902,38.81122,143],[-90.39014,38.81122,144],[-90.3901,38.81122,145],[-90.39005,38.81122,145],[-90.39,38.81123,146],[-90.38996,38.81124,146],[-90.38991,38.81126,147],[-90.38987,38.81128,147],[-90.38982,38.81128,148],[-90.38977,38.81127,149],[-90.38972,38.81126,150],[-90.38967,38.81124,150],[-90.38963,38.81123,151],[-90.38958,38.81123,151],[-90.38954,38.81124,151],[-90.3895,38.81127,151],[-90.38947,38.8113,151],[-90.38943,38.81134,152],[-90.38941,38.81138,152],[-90.3894,38.81143,152],[-90.38934,38.81142,152],[-90.38929,38.81141,152],[-90.38925,38.81144,152],[-90.38922,38.81147,152],[-90.38918,38.8115,152],[-90.38913,38.81152,152],[-90.38908,38.81151,154],[-90.38903,38.81151,155],[-90.38897,38.81153,156],[-90.38894,38.81157,157],[-90.38891,38.81161,159],[-90.38885,38.8116,160],[-90.38882,38.81163,161],[-90.3888,38.81167,161],[-90.38877,38.81171,161],[-90.38875,38.81175,161],[-90.38873,38.81178,161],[-90.38871,38.81181,161],[-90.3887,38.81184,161],[-90.38869,38.81188,161],[-90.38869,38.81192,160],[-90.38869,38.81197,160],[-90.38868,38.81201,161],[-90.38868,38.81206,161],[-90.38868,38.81211,162],[-90.3887,38.81217,162],[-90.38872,38.81221,163],[-90.38874,38.81226,163],[-90.38873,38.8123,164],[-90.3887,38.81233,164],[-90.38865,38.81234,165],[-90.38866,38.81238,166],[-90.38867,38.81242,166],[-90.38868,38.81247,167],[-90.38869,38.81251,167],[-90.38868,38.81255,167],[-90.38864,38.81258,168],[-90.38858,38.81259,170],[-90.38854,38.81261,171],[-90.3885,38.81264,172],[-90.38844,38.81264,174],[-90.38838,38.81263,175],[-90.38837,38.81267,177],[-90.38833,38.8127,178],[-90.3883,38.81273,180],[-90.38827,38.81276,181],[-90.38823,38.8128,183],[-90.38819,38.81283,184],[-90.38815,38.81285,186],[-90.38816,38.81289,186],[-90.38817,38.81294,186],[-90.38815,38.81299,187],[-90.38809,38.81301,189],[-90.38805,38.81304,190],[-90.38803,38.81308,191],[-90.38801,38.81313,192],[-90.38798,38.81316,193],[-90.38794,38.81319,193],[-90.38791,38.81323,194],[-90.38788,38.81326,195],[-90.38783,38.81327,195],[-90.38778,38.81328,195],[-90.38773,38.8133,195],[-90.38768,38.81331,195],[-90.38763,38.81332,194],[-90.38758,38.81333,194],[-90.38756,38.81339,194],[-90.38755,38.81344,195],[-90.38753,38.81347,195],[-90.38751,38.81351,195],[-90.3875,38.81355,195],[-90.38749,38.81358,195],[-90.38749,38.81362,196],[-90.3875,38.81366,196],[-90.38751,38.8137,197],[-90.38755,38.81375,198],[-90.38754,38.81382,199],[-90.38753,38.81387,199],[-90.38752,38.81391,200],[-90.38752,38.81394,200],[-90.38758,38.81395,200],[-90.38762,38.81395,200],[-90.38767,38.81395,200],[-90.38774,38.81396,200],[-90.38779,38.81396,199],[-90.3878,38.81394,199],[-90.38783,38.81394,199],[-90.38787,38.81392,199],[-90.38792,38.81392,199],[-90.38798,38.81392,199],[-90.38808,38.81394,199],[-90.38813,38.81397,199],[-90.38817,38.81399,198],[-90.38822,38.81401,198],[-90.38827,38.81401,198],[-90.38832,38.81401,198],[-90.38838,38.81402,198],[-90.38843,38.81402,197],[-90.38849,38.81403,197],[-90.38855,38.81404,196],[-90.38862,38.81405,196],[-90.3887,38.81405,194],[-90.38876,38.81403,193],[-90.38882,38.814,192],[-90.38888,38.81398,191],[-90.38895,38.81396,190],[-90.38902,38.81397,190],[-90.38906,38.81401,190],[-90.3891,38.81404,190],[-90.38916,38.81407,190],[-90.38918,38.81411,191],[-90.38922,38.81415,191],[-90.38926,38.81418,191],[-90.3893,38.81421,190],[-90.38935,38.81425,189],[-90.38939,38.81429,189],[-90.38943,38.81433,189],[-90.38946,38.81438,189],[-90.3895,38.81444,189],[-90.38953,38.81449,189],[-90.38956,38.81454,190],[-90.3896,38.8146,190],[-90.38964,38.81465,191],[-90.38966,38.8147,191],[-90.38967,38.81476,191],[-90.38966,38.81482,190],[-90.38967,38.81487,190],[-90.3897,38.81493,189],[-90.38973,38.81498,189],[-90.38976,38.81503,188],[-90.3898,38.81507,187],[-90.38984,38.81511,186],[-90.38988,38.81515,185],[-90.38991,38.81521,183],[-90.38994,38.81526,182],[-90.38999,38.81529,181],[-90.39003,38.81533,181],[-90.39008,38.81535,180],[-90.39014,38.81537,180],[-90.39021,38.81538,180],[-90.39027,38.81541,180],[-90.39033,38.81544,180],[-90.39041,38.81547,180],[-90.39048,38.81547,181],[-90.39055,38.81547,182],[-90.39063,38.81547,183],[-90.3907,38.81549,184],[-90.39078,38.81549,184],[-90.39084,38.81544,185],[-90.3909,38.81543,186],[-90.39097,38.81545,186],[-90.39105,38.81545,186],[-90.3911,38.81546,186],[-90.39116,38.81547,186],[-90.39123,38.8155,185],[-90.39129,38.81552,185],[-90.39134,38.81555,185],[-90.39141,38.81558,184],[-90.39147,38.8156,183],[-90.39153,38.81561,183],[-90.39158,38.81561,182],[-90.39164,38.81559,182],[-90.3917,38.8156,181],[-90.39174,38.81564,180],[-90.39178,38.81569,178],[-90.39179,38.81574,177],[-90.3918,38.81578,177],[-90.3918,38.81584,175],[-90.3918,38.8159,174],[-90.39181,38.81596,173],[-90.39181,38.81601,172],[-90.39181,38.81608,170],[-90.39181,38.81613,169],[-90.3918,38.81619,167],[-90.39178,38.81625,165],[-90.39177,38.8163,164],[-90.39175,38.81634,163],[-90.39173,38.81638,162],[-90.39169,38.81643,162],[-90.39165,38.81646,162],[-90.39161,38.8165,162],[-90.39158,38.81654,161],[-90.39156,38.81658,160],[-90.39154,38.81663,159],[-90.39152,38.81667,159],[-90.39147,38.81669,159],[-90.39133,38.81671,161],[-90.39129,38.81667,163],[-90.39123,38.81667,164],[-90.39116,38.81669,164],[-90.39109,38.81671,164],[-90.39103,38.81673,164],[-90.39096,38.81676,164],[-90.39089,38.81679,164],[-90.3908,38.81683,164],[-90.39072,38.81687,164],[-90.39067,38.81691,164],[-90.39065,38.81697,163],[-90.39057,38.81703,161],[-90.3906,38.81708,159],[-90.39061,38.81713,158],[-90.39062,38.81718,156],[-90.39062,38.81725,153],[-90.39062,38.81732,151],[-90.39062,38.81738,149],[-90.39063,38.81744,146],[-90.39064,38.8175,144],[-90.39065,38.81757,143],[-90.39079,38.81751,142],[-90.39084,38.81747,142],[-90.3909,38.81744,143],[-90.39095,38.81742,143],[-90.39102,38.8174,142],[-90.3911,38.81737,142],[-90.39116,38.81734,142],[-90.39124,38.81731,141],[-90.39132,38.81729,140],[-90.39139,38.81727,139],[-90.39147,38.81723,139],[-90.39154,38.81718,140],[-90.3916,38.81713,141],[-90.39167,38.81707,143],[-90.39174,38.81701,145],[-90.39181,38.81696,147],[-90.39186,38.81691,149],[-90.39191,38.81686,149],[-90.39196,38.81678,149],[-90.39197,38.81671,150],[-90.39199,38.81665,150],[-90.39203,38.81659,150],[-90.39207,38.81655,150],[-90.39213,38.81655,149],[-90.39222,38.8165,147],[-90.39226,38.81645,147],[-90.39228,38.8164,147],[-90.39231,38.81634,148],[-90.39234,38.81627,149],[-90.39234,38.81621,151],[-90.39236,38.81616,152],[-90.39237,38.81611,153],[-90.39239,38.81604,152],[-90.39239,38.81598,152],[-90.3924,38.81591,152],[-90.39241,38.81584,152],[-90.39242,38.81579,153],[-90.39245,38.81572,153],[-90.39251,38.81569,152],[-90.39258,38.8157,149],[-90.39262,38.81565,149],[-90.39263,38.8156,149],[-90.39265,38.81554,150],[-90.39267,38.81549,150],[-90.39272,38.81544,149],[-90.39276,38.8154,149],[-90.39281,38.81536,149],[-90.39286,38.81533,149],[-90.3929,38.8153,149],[-90.39294,38.81526,148],[-90.393,38.81522,147],[-90.39306,38.81518,146],[-90.39312,38.81514,145],[-90.39312,38.81511,145],[-90.39311,38.81506,146],[-90.39309,38.81503,147],[-90.39308,38.81498,147],[-90.39305,38.81493,147],[-90.39302,38.81489,147],[-90.39298,38.81483,147],[-90.39293,38.81478,148],[-90.39289,38.81474,149],[-90.39286,38.8147,150],[-90.39284,38.81466,150],[-90.39281,38.81462,151],[-90.39276,38.81458,152],[-90.39272,38.81454,153],[-90.39268,38.81451,153],[-90.39264,38.81448,154],[-90.39257,38.81444,155],[-90.39253,38.81439,154],[-90.39251,38.81434,153],[-90.39247,38.81429,152],[-90.39243,38.81424,151],[-90.39238,38.81419,150],[-90.39234,38.81414,149],[-90.39231,38.81408,145],[-90.39231,38.81402,142],[-90.39235,38.81399,140],[-90.39237,38.81394,138],[-90.39239,38.81389,135],[-90.39241,38.81384,136],[-90.39245,38.81379,137],[-90.3925,38.81375,138],[-90.39253,38.81371,138],[-90.39254,38.81365,138],[-90.39256,38.8136,138],[-90.39261,38.81354,138],[-90.39266,38.81349,137]]],
        "bbox": [
          -90.38749,
          38.81757,
          -90.39491,
          38.81118
        ]
      },
      "properties": {
        "name": "6.8.2023"
      }
    }
  ]
}