{
  "type": "FeatureCollection",
  "features": [
    {
      "type": "Feature",
      "geometry": {
        "type": "MultiLineString",
        "coordinates": [[[-90.39331,38.81291,134],[-90.3933,38.81294,133],[-90.39328,38.81296,133],[-90.39324,38.81298,133],[-90.39321,38.813,133],[-90.39318,38.81302,133],[-90.39316,38.81305,133],[-90.39313,38.81308,132],[-90.3931,38.8131,132],[-90.39307,38.81312,132],[-90.39304,38.81314,133],[-90.39302,38.81317,133],[-90.393,38.8132,133],[-90.39297,38.81322,133],[-90.39294,38.81325,133],[-90.39292,38.81326,133],[-90.3929,38.81329,134],[-90.39287,38.81332,134],[-90.39285,38.81334,134],[-90.39282,38.81337,135],[-90.39279,38.8134,135],[-90.39276,38.81342,136],[-90.39272,38.81344,136],[-90.39269,38.81347,136],[-90.39266,38.8135,137],[-90.39263,38.81353,137],[-90.39261,38.81356,138],[-90.39259,38.81359,138],[-90.39257,38.81362,138],[-90.39255,38.81365,138],[-90.39254,38.81368,138],[-90.39253,38.81371,138],[-90.39252,38.81374,138],[-90.39249,38.81376,138],[-90.39248,38.81379,138],[-90.39246,38.81382,137],[-90.39245,38.81386,137],[-90.39242,38.81387,136],[-90.3924,38.8139,136],[-90.39238,38.81393,138],[-90.39236,38.81396,139],[-90.39234,38.814,141],[-90.39232,38.81403,142],[-90.39229,38.81405,143],[-90.39225,38.81406,144],[-90.39222,38.81405,143],[-90.39223,38.81408,145],[-90.39224,38.81412,148],[-90.39227,38.81415,149],[-90.3923,38.81418,150],[-90.39233,38.81421,151],[-90.39235,38.81423,151],[-90.39237,38.81426,152],[-90.3924,38.81428,152],[-90.39244,38.81429,152],[-90.39248,38.81431,153],[-90.39252,38.81433,153],[-90.39257,38.81432,152],[-90.3926,38.81431,151],[-90.3926,38.81435,152],[-90.39263,38.81438,153],[-90.39266,38.8144,153],[-90.39269,38.81442,153],[-90.39272,38.81445,153],[-90.39275,38.81448,153],[-90.39278,38.81451,152],[-90.39282,38.81453,151],[-90.39286,38.81455,150],[-90.39289,38.81457,150],[-90.39292,38.8146,149],[-90.39294,38.81463,148],[-90.39296,38.81466,148],[-90.39297,38.8147,147],[-90.39297,38.81473,147],[-90.39297,38.81476,148],[-90.39297,38.81479,148],[-90.39297,38.81482,148],[-90.39297,38.81486,148],[-90.39297,38.81489,148],[-90.39299,38.81492,148],[-90.39301,38.81495,148],[-90.39304,38.81497,147],[-90.39308,38.81497,147],[-90.39312,38.81496,146],[-90.39316,38.81495,145],[-90.39319,38.81494,144],[-90.39323,38.81494,143],[-90.3932,38.81496,144],[-90.39318,38.81499,145],[-90.39316,38.81501,145],[-90.39314,38.81503,145],[-90.39314,38.81507,145],[-90.39315,38.8151,145],[-90.39316,38.81513,144],[-90.39317,38.81517,143],[-90.39317,38.8152,143],[-90.39315,38.81523,144],[-90.39314,38.81526,143],[-90.39312,38.81529,144],[-90.39308,38.81531,144],[-90.39306,38.81533,144],[-90.39303,38.81536,144],[-90.39299,38.81538,144],[-90.39296,38.81539,144],[-90.39292,38.8154,145],[-90.39287,38.81541,146],[-90.39284,38.81542,147],[-90.3928,38.81544,147],[-90.39277,38.81545,148],[-90.39273,38.81548,148],[-90.39269,38.8155,149],[-90.39267,38.81552,149],[-90.39265,38.81556,150],[-90.39263,38.81559,150],[-90.3926,38.81562,150],[-90.39257,38.81565,150],[-90.39257,38.81567,150],[-90.39257,38.81571,149],[-90.39257,38.81574,148],[-90.39258,38.81577,147],[-90.3926,38.8158,146],[-90.39262,38.81583,145],[-90.39263,38.81586,144],[-90.39263,38.81589,144],[-90.39264,38.81593,144],[-90.39265,38.81595,144],[-90.39265,38.81599,144],[-90.39265,38.81602,144],[-90.39264,38.81605,144],[-90.39263,38.81608,144],[-90.39261,38.81611,145],[-90.39257,38.81613,146],[-90.39253,38.81615,147],[-90.39249,38.81616,148],[-90.39245,38.81617,149],[-90.3924,38.81616,150],[-90.39237,38.81619,151],[-90.39236,38.81621,150],[-90.39234,38.81624,150],[-90.39231,38.81626,150],[-90.3923,38.81628,150],[-90.39229,38.81632,149],[-90.39228,38.81634,149],[-90.3923,38.81637,147],[-90.3923,38.8164,147],[-90.39228,38.81643,147],[-90.39225,38.81645,147],[-90.39223,38.81647,148],[-90.39221,38.8165,148],[-90.3922,38.81653,148],[-90.39218,38.81656,148],[-90.39215,38.81658,148],[-90.39211,38.8166,148],[-90.39208,38.81663,149],[-90.39206,38.81665,149],[-90.39203,38.81668,149],[-90.39199,38.8167,149],[-90.39198,38.81672,149],[-90.39196,38.81675,150],[-90.39194,38.81678,150],[-90.3919,38.81681,150],[-90.39188,38.81684,150],[-90.39185,38.81686,149],[-90.39182,38.81688,149],[-90.3918,38.8169,149],[-90.39177,38.81692,148],[-90.39176,38.81695,148],[-90.39173,38.81693,148],[-90.39169,38.81695,147],[-90.39166,38.81697,147],[-90.39162,38.81699,147],[-90.39159,38.81701,146],[-90.39155,38.81703,146],[-90.39152,38.81704,146],[-90.39148,38.81704,147],[-90.39145,38.81706,147],[-90.39142,38.81708,146],[-90.39137,38.8171,146],[-90.39132,38.81713,146],[-90.39128,38.81716,145],[-90.39123,38.81718,145],[-90.39119,38.81722,144],[-90.39113,38.81723,145],[-90.39109,38.81725,145],[-90.39106,38.81728,145],[-90.39104,38.81731,144],[-90.39102,38.81735,144],[-90.39099,38.81737,143],[-90.39096,38.81739,143],[-90.39092,38.81742,143],[-90.39088,38.81741,144],[-90.39084,38.81739,145],[-90.3908,38.81738,146],[-90.39075,38.81738,147],[-90.39072,38.8174,147],[-90.39071,38.81744,145],[-90.39067,38.81746,145],[-90.39064,38.81745,146],[-90.3906,38.81745,147],[-90.39056,38.81745,147],[-90.39053,38.81746,147],[-90.39047,38.81746,148],[-90.39044,38.81748,147],[-90.39043,38.81751,147],[-90.39043,38.81755,146],[-90.39042,38.81751,147],[-90.3904,38.81749,147],[-90.39036,38.81748,148],[-90.39033,38.81747,149],[-90.39029,38.81747,149],[-90.39026,38.81747,150],[-90.39021,38.81747,150],[-90.39017,38.81746,151],[-90.39016,38.81743,152],[-90.39016,38.8174,152],[-90.39015,38.81738,153],[-90.39014,38.81735,154],[-90.39011,38.81733,155],[-90.39008,38.81731,155],[-90.39006,38.81727,156],[-90.39004,38.81724,157],[-90.39001,38.8172,158],[-90.39,38.81718,159],[-90.38999,38.81714,160],[-90.38998,38.8171,161],[-90.38997,38.81707,161],[-90.38996,38.81704,162],[-90.38994,38.81702,163],[-90.38996,38.81698,164],[-90.38996,38.81696,164],[-90.38994,38.81693,165],[-90.38992,38.8169,165],[-90.3899,38.81688,165],[-90.3899,38.81685,166],[-90.38987,38.81683,166],[-90.38983,38.81681,166],[-90.38981,38.81678,166],[-90.38975,38.81677,166],[-90.3897,38.81675,166],[-90.38967,38.81672,167],[-90.38963,38.8167,167],[-90.38963,38.81666,167],[-90.38964,38.81662,168],[-90.38965,38.8166,168],[-90.38964,38.81656,168],[-90.38963,38.81654,168],[-90.38961,38.81651,168],[-90.38959,38.81648,168],[-90.38957,38.81646,168],[-90.38954,38.81643,169],[-90.38952,38.81638,169],[-90.38957,38.81634,169],[-90.38962,38.81629,170],[-90.38962,38.81624,171],[-90.38957,38.8162,171],[-90.38956,38.81615,171],[-90.38953,38.81611,172],[-90.38949,38.81609,172],[-90.38944,38.81608,172],[-90.38941,38.81605,172],[-90.3894,38.81601,172],[-90.38938,38.81598,173],[-90.38937,38.81594,173],[-90.38934,38.81592,173],[-90.38932,38.81589,174],[-90.3893,38.81586,174],[-90.3893,38.81583,175],[-90.3893,38.8158,175],[-90.3893,38.81576,176],[-90.38927,38.81574,177],[-90.38925,38.81572,178],[-90.38923,38.81569,178],[-90.38922,38.81566,179],[-90.3892,38.81563,180],[-90.38919,38.8156,181],[-90.38917,38.81558,182],[-90.38915,38.81555,183],[-90.38912,38.81552,183],[-90.38908,38.81551,183],[-90.38904,38.8155,183],[-90.38901,38.81548,184],[-90.38898,38.81545,184],[-90.38897,38.81542,184],[-90.38895,38.81539,185],[-90.38892,38.81537,185],[-90.38888,38.81534,186],[-90.38886,38.81531,186],[-90.38885,38.81529,186],[-90.38885,38.81525,187],[-90.38885,38.81521,187],[-90.38885,38.81517,187],[-90.38887,38.81514,187],[-90.3889,38.81511,187],[-90.38891,38.81509,187],[-90.3889,38.81505,187],[-90.38888,38.81503,187],[-90.38886,38.815,188],[-90.38889,38.81498,188],[-90.38893,38.81496,188],[-90.38897,38.81494,188],[-90.38898,38.81491,188],[-90.38898,38.81487,188],[-90.38898,38.81484,188],[-90.38896,38.81481,188],[-90.38893,38.81479,188],[-90.38889,38.81477,188],[-90.38885,38.81476,189],[-90.3888,38.81476,189],[-90.38877,38.81475,189],[-90.38873,38.81474,189],[-90.38869,38.81472,189],[-90.38866,38.81471,190],[-90.38862,38.81471,190],[-90.38857,38.81472,190],[-90.38856,38.81474,190],[-90.38853,38.81477,190],[-90.38849,38.81478,191],[-90.38844,38.81478,191],[-90.3884,38.81477,192],[-90.38836,38.81477,193],[-90.38834,38.8148,192],[-90.38831,38.81482,192],[-90.38827,38.81482,193],[-90.38824,38.8148,193],[-90.3882,38.8148,194],[-90.38816,38.81479,194],[-90.38812,38.81479,195],[-90.38807,38.8148,195],[-90.38804,38.81481,195],[-90.388,38.81482,195],[-90.38797,38.81481,195],[-90.38793,38.81481,196],[-90.38789,38.81482,196],[-90.38785,38.81482,196],[-90.38782,38.8148,197],[-90.38778,38.8148,197],[-90.38774,38.81481,197],[-90.3877,38.81481,198],[-90.38766,38.8148,198],[-90.38763,38.81479,199],[-90.38763,38.81476,199],[-90.38758,38.81475,200],[-90.38754,38.81474,200],[-90.38752,38.81471,200],[-90.38751,38.81468,200],[-90.38747,38.81467,201],[-90.38743,38.81467,201],[-90.38739,38.81468,201],[-90.38735,38.81469,202],[-90.38731,38.81469,202],[-90.38726,38.81467,202],[-90.38723,38.81465,202],[-90.3872,38.81463,203],[-90.38717,38.81461,203],[-90.38713,38.8146,203],[-90.38709,38.8146,203],[-90.38704,38.81461,203],[-90.38701,38.81462,203],[-90.38696,38.81462,203],[-90.38691,38.81462,203],[-90.38689,38.81459,203],[-90.38687,38.81456,203],[-90.38694,38.81455,203],[-90.38701,38.81459,203],[-90.38708,38.81459,203],[-90.38714,38.81456,203],[-90.38719,38.81454,203],[-90.38725,38.81456,202],[-90.3873,38.81455,202],[-90.38736,38.81454,202],[-90.38741,38.81453,201],[-90.38747,38.81453,201],[-90.38752,38.81454,200],[-90.38758,38.81455,200],[-90.38764,38.81451,200],[-90.3877,38.81448,200],[-90.38772,38.81442,200],[-90.38773,38.81436,200],[-90.38775,38.81432,200],[-90.38776,38.81428,200],[-90.38781,38.81427,199],[-90.38781,38.81423,199],[-90.38787,38.81423,199],[-90.38792,38.81425,199],[-90.38797,38.81424,199],[-90.38799,38.81421,199],[-90.38803,38.81419,199],[-90.38808,38.81419,199],[-90.38812,38.81421,199],[-90.38817,38.81421,199],[-90.38822,38.81419,199],[-90.38826,38.8142,199],[-90.38829,38.81418,199],[-90.38834,38.81416,198],[-90.38839,38.81416,198],[-90.38843,38.81416,198],[-90.38845,38.81412,197],[-90.38845,38.81408,197],[-90.38846,38.81404,197],[-90.38847,38.81401,197],[-90.38842,38.81401,197],[-90.38838,38.81401,197],[-90.38834,38.81401,198],[-90.38829,38.814,198],[-90.38826,38.81399,198],[-90.38822,38.81396,198],[-90.38818,38.81394,198],[-90.38814,38.81395,198],[-90.38809,38.81396,199],[-90.38805,38.81398,199],[-90.38801,38.814,199],[-90.38796,38.814,199],[-90.38791,38.81401,199],[-90.38786,38.81402,199],[-90.38782,38.81402,199],[-90.38779,38.81401,199],[-90.38773,38.81401,200],[-90.38769,38.81401,200],[-90.38766,38.81401,200],[-90.38764,38.81398,200],[-90.38761,38.81396,200],[-90.38758,38.81394,200],[-90.38756,38.81392,200],[-90.38754,38.81389,199],[-90.38752,38.81387,199],[-90.38749,38.81385,199],[-90.38748,38.81382,198],[-90.38747,38.81379,198],[-90.38749,38.81375,197],[-90.3875,38.81371,197],[-90.38751,38.81367,196],[-90.38752,38.81364,196],[-90.38752,38.81361,196],[-90.38751,38.81357,195],[-90.38751,38.81354,195],[-90.38751,38.81351,195],[-90.38751,38.81347,195],[-90.38752,38.81344,194],[-90.38754,38.81342,194],[-90.38756,38.81339,194],[-90.38755,38.81336,194],[-90.38754,38.81332,194],[-90.38759,38.81329,194],[-90.38766,38.81331,194],[-90.38773,38.81331,195],[-90.38779,38.81331,195],[-90.38784,38.8133,195],[-90.38787,38.81326,195],[-90.3879,38.81323,194],[-90.38795,38.81319,193],[-90.38798,38.81316,193],[-90.38802,38.81314,192],[-90.38804,38.81311,192],[-90.38806,38.81308,191],[-90.38807,38.81304,190],[-90.38807,38.81301,190],[-90.38808,38.81296,189],[-90.38808,38.81293,189],[-90.38807,38.81288,188],[-90.38807,38.81284,188],[-90.38811,38.81281,186],[-90.38815,38.81279,185],[-90.38819,38.81276,183],[-90.38824,38.81275,182],[-90.38829,38.81275,180],[-90.38833,38.81272,179],[-90.38839,38.81272,177],[-90.38844,38.81273,175],[-90.3885,38.81272,173],[-90.38856,38.81271,171],[-90.3886,38.81267,169],[-90.38858,38.81258,170],[-90.38857,38.81254,170],[-90.38861,38.8125,169],[-90.38864,38.81247,167],[-90.38864,38.81242,167],[-90.3886,38.81239,167],[-90.3886,38.81235,166],[-90.38862,38.81232,165],[-90.38864,38.81228,164],[-90.38866,38.81226,164],[-90.38872,38.81224,163],[-90.38877,38.81222,162],[-90.38881,38.81219,162],[-90.38884,38.81216,161],[-90.38885,38.81213,160],[-90.38883,38.81209,160],[-90.38881,38.81207,160],[-90.38877,38.81205,160],[-90.38874,38.81204,160],[-90.3887,38.81202,161],[-90.38867,38.81199,161],[-90.38865,38.81196,161],[-90.38864,38.81193,161],[-90.38861,38.81191,162],[-90.38857,38.81188,163],[-90.38856,38.81186,163],[-90.38856,38.81183,163],[-90.38858,38.8118,163],[-90.38861,38.81177,163],[-90.38863,38.81174,163],[-90.38866,38.81171,163],[-90.38868,38.81169,163],[-90.38871,38.81168,163],[-90.38874,38.81166,162],[-90.38877,38.81164,162],[-90.38881,38.81161,161],[-90.38884,38.81159,160],[-90.38884,38.81155,160],[-90.38885,38.81152,159],[-90.38889,38.81151,158],[-90.38893,38.81151,157],[-90.38897,38.8115,156],[-90.38901,38.81148,155],[-90.38904,38.81147,155],[-90.38909,38.81146,153],[-90.38914,38.81145,152],[-90.38917,38.81143,152],[-90.3892,38.81141,152],[-90.38923,38.81139,152],[-90.38925,38.81136,152],[-90.38928,38.81134,152],[-90.38932,38.81134,152],[-90.38935,38.81137,152],[-90.38939,38.81138,152],[-90.38943,38.81136,152],[-90.38945,38.81132,151],[-90.38947,38.81129,151],[-90.38949,38.81126,151],[-90.38951,38.81123,151],[-90.38953,38.8112,151],[-90.38955,38.81117,151],[-90.38957,38.81114,151],[-90.38962,38.81114,151],[-90.38966,38.81116,151],[-90.38969,38.81117,150],[-90.38973,38.81119,150],[-90.38977,38.81119,149],[-90.38981,38.81119,149],[-90.38984,38.81117,149],[-90.38987,38.81115,148],[-90.3899,38.81114,148],[-90.38994,38.81113,147],[-90.38998,38.81113,147],[-90.39003,38.81114,146],[-90.39008,38.81114,145],[-90.39012,38.81114,145],[-90.39016,38.81116,144],[-90.3902,38.81117,144],[-90.39023,38.81117,143],[-90.39028,38.81117,142],[-90.39031,38.81117,142],[-90.39035,38.81117,142],[-90.39039,38.81118,142],[-90.39044,38.8112,142],[-90.39047,38.81121,142],[-90.3905,38.81123,142],[-90.39053,38.81125,142],[-90.39056,38.81127,142],[-90.3906,38.81127,142],[-90.39063,38.81128,142],[-90.39067,38.81127,142],[-90.3907,38.81125,142],[-90.39072,38.81123,142],[-90.39075,38.81121,141],[-90.39079,38.81119,141],[-90.39083,38.81118,141],[-90.39087,38.81119,141],[-90.39089,38.81122,141],[-90.39091,38.81126,141],[-90.39093,38.81129,141],[-90.39095,38.81132,141],[-90.39098,38.81134,141],[-90.391,38.81137,141],[-90.39103,38.81139,141],[-90.39106,38.81142,141],[-90.39109,38.81145,142],[-90.3911,38.81148,142],[-90.39112,38.81151,142],[-90.39112,38.81154,143],[-90.39112,38.81157,143],[-90.3911,38.8116,144],[-90.39108,38.81162,144],[-90.39103,38.81162,144],[-90.39101,38.81164,145],[-90.39098,38.81167,145],[-90.39096,38.81169,146],[-90.39095,38.81172,146],[-90.39093,38.81176,147],[-90.39092,38.81179,147],[-90.39092,38.81182,148],[-90.39093,38.81185,148],[-90.39094,38.81188,149],[-90.39094,38.81191,149],[-90.39095,38.81194,150],[-90.39095,38.81197,150],[-90.39094,38.81201,150],[-90.39093,38.81204,149],[-90.39092,38.81207,149],[-90.3909,38.8121,149],[-90.39089,38.81213,149],[-90.39089,38.81216,149],[-90.39089,38.81219,149],[-90.3909,38.81222,149],[-90.39091,38.81226,148],[-90.39092,38.81229,148],[-90.39094,38.81232,147],[-90.39094,38.81234,146],[-90.39095,38.81239,145],[-90.39096,38.81242,144],[-90.39098,38.81245,143],[-90.39098,38.81248,142],[-90.39097,38.81251,142],[-90.39098,38.81254,143],[-90.39099,38.81257,143],[-90.391,38.8126,144],[-90.39101,38.81263,145],[-90.39102,38.81266,145],[-90.39103,38.81269,146],[-90.39104,38.81272,146],[-90.39105,38.81275,147],[-90.39104,38.81279,148],[-90.39104,38.81282,149],[-90.39107,38.81284,149],[-90.3911,38.81286,149],[-90.39111,38.81289,149],[-90.39112,38.81292,150],[-90.39113,38.81295,151],[-90.39114,38.81298,151],[-90.39117,38.81301,152],[-90.39118,38.81304,152],[-90.3912,38.81307,152],[-90.39122,38.8131,152],[-90.39123,38.81314,152],[-90.39125,38.81317,152],[-90.39127,38.8132,152],[-90.3913,38.81323,151],[-90.39134,38.81325,151],[-90.39138,38.81327,150],[-90.3914,38.81329,150],[-90.39143,38.81332,150],[-90.39148,38.81333,149],[-90.39152,38.81334,149],[-90.39156,38.81336,148],[-90.3916,38.81338,147],[-90.39161,38.81341,146],[-90.39162,38.81344,146],[-90.39163,38.81347,145],[-90.39164,38.8135,145],[-90.39165,38.81354,144],[-90.39166,38.81356,143],[-90.39166,38.81359,143],[-90.39168,38.81362,143],[-90.39169,38.81365,143],[-90.39172,38.81368,143],[-90.39174,38.81369,143],[-90.39177,38.81372,143],[-90.39179,38.81374,142],[-90.39181,38.81376,142],[-90.39183,38.81379,142],[-90.39186,38.81381,141],[-90.3919,38.81383,139],[-90.39193,38.81384,138],[-90.39197,38.81386,137],[-90.39199,38.81389,137],[-90.39201,38.81391,137],[-90.39204,38.81394,139],[-90.39207,38.81395,139],[-90.39211,38.81397,139],[-90.39214,38.81398,139],[-90.39216,38.81401,141],[-90.3922,38.81402,141],[-90.39223,38.81404,142],[-90.39227,38.81405,143],[-90.39232,38.81404,143],[-90.39234,38.81401,141],[-90.39237,38.81398,140],[-90.3924,38.81396,139],[-90.39242,38.81393,138],[-90.39244,38.8139,137],[-90.39245,38.81387,137],[-90.39248,38.81383,137],[-90.39251,38.81379,138],[-90.39252,38.81375,138],[-90.39253,38.81372,138],[-90.39254,38.81369,138],[-90.39256,38.81366,138],[-90.39257,38.81363,138],[-90.39258,38.8136,138],[-90.3926,38.81357,138],[-90.39262,38.81355,138],[-90.39264,38.81353,137],[-90.39266,38.8135,137],[-90.39269,38.81347,136],[-90.3927,38.81344,136],[-90.39268,38.81342,136],[-90.39264,38.8134,136],[-90.39261,38.81338,136],[-90.39258,38.81337,136],[-90.39255,38.81335,136],[-90.39252,38.81333,136],[-90.39249,38.81331,137],[-90.39246,38.8133,137],[-90.39242,38.81328,137],[-90.3924,38.81326,137],[-90.39237,38.81324,137],[-90.39234,38.81323,137],[-90.39231,38.81321,137],[-90.39228,38.81319,137],[-90.39225,38.81317,137],[-90.39222,38.81315,137],[-90.39218,38.81314,137],[-90.39214,38.81311,138],[-90.3921,38.81309,138],[-90.39206,38.81307,138],[-90.39202,38.81305,138],[-90.39198,38.81302,138],[-90.39195,38.81299,137],[-90.39192,38.81297,138],[-90.39188,38.81295,138],[-90.39185,38.81293,138],[-90.39181,38.81291,138],[-90.39178,38.81288,138],[-90.39175,38.81286,139],[-90.39171,38.81285,139],[-90.39167,38.81283,139],[-90.39163,38.81281,139],[-90.39159,38.81279,140],[-90.39156,38.81277,140],[-90.39153,38.81274,140],[-90.39151,38.81271,139],[-90.3915,38.81268,139],[-90.39151,38.81265,138],[-90.39152,38.81262,137],[-90.39154,38.81259,137],[-90.39156,38.81257,136],[-90.39158,38.81255,136],[-90.39161,38.81252,135],[-90.39164,38.81249,135],[-90.39166,38.81246,135],[-90.39169,38.81244,135],[-90.39171,38.81241,135],[-90.39173,38.81238,136],[-90.39175,38.81235,136],[-90.39177,38.81233,136],[-90.39179,38.8123,136],[-90.39182,38.81227,137],[-90.39184,38.81224,137],[-90.39187,38.81221,137],[-90.39189,38.81219,137],[-90.39191,38.81216,137],[-90.39195,38.81214,137],[-90.39199,38.81213,137],[-90.39204,38.81212,137],[-90.39208,38.81212,136],[-90.39211,38.81213,136],[-90.39215,38.81215,136],[-90.39219,38.81217,136],[-90.39222,38.81219,136],[-90.39226,38.81221,135],[-90.3923,38.81222,135],[-90.39233,38.81223,135],[-90.39237,38.81224,135],[-90.3924,38.81227,135],[-90.39243,38.81229,135],[-90.39246,38.81231,135],[-90.3925,38.81233,135],[-90.39252,38.81235,135],[-90.39256,38.81237,135],[-90.39258,38.81239,135],[-90.39261,38.81242,134],[-90.39264,38.81244,134],[-90.39267,38.81246,134],[-90.3927,38.81248,134],[-90.39274,38.8125,134],[-90.39277,38.81252,134],[-90.3928,38.81254,134],[-90.39283,38.81256,134],[-90.39286,38.81258,134],[-90.3929,38.8126,134],[-90.39293,38.81262,134],[-90.39296,38.81264,134],[-90.39299,38.81266,134],[-90.39302,38.81267,134],[-90.39306,38.81269,134],[-90.39309,38.8127,134],[-90.39312,38.81272,134],[-90.39315,38.81274,134],[-90.39318,38.81275,134],[-90.39321,38.81277,134],[-90.39325,38.8128,134],[-90.39328,38.81282,134],[-90.39332,38.81285,134],[-90.39335,38.81287,134],[-90.39338,38.81289,134],[-90.39341,38.81291,133],[-90.39344,38.81293,133],[-90.39348,38.81296,133],[-90.39351,38.81298,132],[-90.39354,38.813,132],[-90.39357,38.81303,132],[-90.39359,38.81306,132],[-90.39361,38.8131,132],[-90.39363,38.81313,132],[-90.39366,38.81315,132],[-90.39369,38.81318,132],[-90.39372,38.81321,132],[-90.39375,38.81323,132],[-90.39378,38.81325,132],[-90.39381,38.81327,132],[-90.39384,38.81329,132],[-90.39382,38.81327,132],[-90.39379,38.81325,132],[-90.39376,38.81323,132],[-90.39372,38.81321,132],[-90.39369,38.8132,132],[-90.39366,38.81318,132],[-90.39363,38.81315,132],[-90.39361,38.81313,132],[-90.39359,38.8131,132],[-90.39358,38.81307,132],[-90.39357,38.81304,132],[-90.39356,38.81301,132],[-90.39357,38.81297,132],[-90.39357,38.81294,132],[-90.39358,38.81291,133],[-90.3936,38.81288,133],[-90.39362,38.81285,133],[-90.39364,38.81283,133],[-90.39366,38.8128,133],[-90.39368,38.81278,133],[-90.3937,38.81275,134],[-90.39371,38.81272,134],[-90.39372,38.8127,134],[-90.39375,38.81267,134],[-90.39378,38.81265,135],[-90.39382,38.81263,135],[-90.39385,38.81262,135],[-90.39388,38.8126,135],[-90.39391,38.81258,136],[-90.39394,38.81257,136],[-90.39397,38.81254,136],[-90.394,38.81252,136],[-90.39403,38.8125,137],[-90.39406,38.81247,137],[-90.39409,38.81245,137],[-90.39412,38.81243,137],[-90.39414,38.81241,137],[-90.39417,38.81238,137],[-90.39419,38.81236,137],[-90.39422,38.81234,137],[-90.39425,38.81231,137],[-90.39428,38.81228,137],[-90.39431,38.81226,137],[-90.39434,38.81223,137],[-90.39437,38.8122,138],[-90.3944,38.81218,138],[-90.39443,38.81215,138],[-90.39446,38.81213,137],[-90.39449,38.8121,137],[-90.39452,38.81208,137],[-90.39455,38.81206,137],[-90.39458,38.81203,137],[-90.39461,38.81201,137],[-90.39463,38.81198,137],[-90.39466,38.81196,137],[-90.39469,38.81193,136],[-90.39473,38.8119,136],[-90.39476,38.81188,136],[-90.39478,38.81186,135],[-90.39481,38.81183,135],[-90.39484,38.81181,134],[-90.39486,38.81179,134],[-90.3949,38.81176,134],[-90.39493,38.81174,133],[-90.39495,38.81171,133],[-90.39497,38.81168,133],[-90.39496,38.81166,133]]],
        "bbox": [
          -90.38687,
          38.81755,
          -90.39497,
          38.81113
        ]
      },
      "properties": {
        "name": "11.20.2024"
      }
    }
  ]
}