{
  "type": "FeatureCollection",
  "features": [
    {
      "type": "Feature",
      "geometry": {
        "type": "MultiLineString",
        "coordinates": [[[-90.39048,38.81075,140],[-90.39053,38.81072,139],[-90.39057,38.81068,139],[-90.39063,38.81066,139],[-90.39069,38.81066,139],[-90.39073,38.81068,139],[-90.39075,38.81071,139],[-90.39077,38.81075,138],[-90.39078,38.81078,138],[-90.3908,38.81081,138],[-90.39082,38.81085,138],[-90.39083,38.81088,138],[-90.39084,38.81091,138],[-90.39085,38.81094,139],[-90.39087,38.81097,139],[-90.39085,38.81099,139],[-90.39081,38.811,139],[-90.39081,38.81104,140],[-90.39081,38.81107,140],[-90.3908,38.8111,141],[-90.3908,38.81113,141],[-90.3908,38.81117,141],[-90.3908,38.81119,141],[-90.39076,38.81119,141],[-90.39073,38.8112,141],[-90.39069,38.81121,142],[-90.39065,38.81123,142],[-90.39062,38.81124,142],[-90.39058,38.81126,142],[-90.39054,38.81127,142],[-90.3905,38.81128,142],[-90.39047,38.81126,142],[-90.39046,38.81122,142],[-90.39044,38.81119,142],[-90.39041,38.81118,142],[-90.39037,38.81116,142],[-90.39034,38.81114,142],[-90.3903,38.81114,142],[-90.39026,38.81114,143],[-90.39022,38.81115,143],[-90.39019,38.81116,144],[-90.39015,38.81116,144],[-90.39011,38.81116,145],[-90.39007,38.81115,145],[-90.39003,38.81115,146],[-90.39,38.81115,146],[-90.38996,38.81114,147],[-90.38992,38.81113,147],[-90.38988,38.81112,148],[-90.38984,38.81113,149],[-90.38981,38.81114,149],[-90.38977,38.81115,150],[-90.38973,38.81115,150],[-90.38969,38.81115,151],[-90.38965,38.81115,151],[-90.38962,38.81115,151],[-90.38958,38.81115,151],[-90.38954,38.81116,151],[-90.38952,38.81119,151],[-90.38949,38.81121,151],[-90.38946,38.81123,151],[-90.38944,38.81125,152],[-90.38941,38.81127,152],[-90.38939,38.81129,152],[-90.38936,38.81132,152],[-90.38933,38.81135,152],[-90.38931,38.81137,152],[-90.38927,38.81138,152],[-90.38924,38.81136,152],[-90.38921,38.81134,152],[-90.38918,38.81136,152],[-90.38915,38.81138,152],[-90.38913,38.8114,152],[-90.3891,38.81142,153],[-90.38907,38.81144,154],[-90.38903,38.81146,155],[-90.389,38.81147,155],[-90.38897,38.81149,156],[-90.38893,38.8115,157],[-90.3889,38.8115,158],[-90.38885,38.81151,159],[-90.38881,38.81152,160],[-90.38878,38.81154,161],[-90.38881,38.81156,160],[-90.38879,38.81158,161],[-90.38877,38.81161,161],[-90.38874,38.81163,162],[-90.38871,38.81165,163],[-90.38868,38.81167,163],[-90.38865,38.81168,164],[-90.38862,38.8117,164],[-90.38859,38.81172,164],[-90.38858,38.81175,164],[-90.38856,38.81178,164],[-90.38855,38.81182,164],[-90.38853,38.81185,164],[-90.38852,38.81188,164],[-90.38851,38.8119,164],[-90.38851,38.81194,163],[-90.38854,38.81196,163],[-90.38858,38.81198,162],[-90.38861,38.812,162],[-90.38864,38.812,161],[-90.38866,38.81203,161],[-90.38868,38.81206,161],[-90.38871,38.81208,161],[-90.38873,38.8121,161],[-90.38877,38.81212,161],[-90.38879,38.81214,161],[-90.38881,38.81216,161],[-90.38881,38.81219,162],[-90.38876,38.81221,162],[-90.38872,38.81222,163],[-90.38868,38.81223,163],[-90.38866,38.81226,164],[-90.38863,38.81228,164],[-90.38861,38.8123,165],[-90.38858,38.81232,166],[-90.38857,38.81236,167],[-90.38856,38.81243,168],[-90.38855,38.81247,169],[-90.38855,38.81255,170],[-90.3885,38.81262,172],[-90.3885,38.8127,173],[-90.38842,38.81271,175],[-90.38833,38.81271,178],[-90.38825,38.81272,181],[-90.3882,38.81274,183],[-90.38818,38.81277,184],[-90.38819,38.81272,182],[-90.38822,38.81276,182],[-90.38819,38.81279,184],[-90.38815,38.8128,185],[-90.3881,38.8128,187],[-90.38806,38.81281,188],[-90.38802,38.81282,188],[-90.38803,38.81286,188],[-90.38804,38.8129,189],[-90.38804,38.81293,189],[-90.38803,38.81296,190],[-90.38802,38.813,190],[-90.38802,38.81303,190],[-90.38803,38.81306,191],[-90.38803,38.81309,191],[-90.38803,38.81312,192],[-90.38799,38.81313,192],[-90.38795,38.81313,192],[-90.38794,38.81316,193],[-90.38793,38.81321,194],[-90.38792,38.81325,194],[-90.38788,38.81328,195],[-90.38784,38.81328,195],[-90.38778,38.81328,195],[-90.38773,38.81329,195],[-90.3877,38.81329,195],[-90.38766,38.81329,194],[-90.38762,38.81329,194],[-90.38758,38.81329,194],[-90.38762,38.8133,194],[-90.38761,38.81332,194],[-90.3876,38.81335,194],[-90.38759,38.81338,194],[-90.38759,38.81341,195],[-90.38758,38.81344,195],[-90.38757,38.81348,195],[-90.38758,38.81344,195],[-90.38758,38.81341,195],[-90.38758,38.81338,194],[-90.3876,38.81341,195],[-90.3876,38.81343,195],[-90.3876,38.81346,195],[-90.3876,38.81349,195],[-90.3876,38.81353,196],[-90.3876,38.81355,196],[-90.3876,38.81358,196],[-90.38759,38.81361,196],[-90.38756,38.81364,196],[-90.38753,38.81366,196],[-90.3875,38.81367,196],[-90.38748,38.8137,197],[-90.38746,38.81373,197],[-90.38744,38.81376,197],[-90.38743,38.81379,198],[-90.38745,38.81382,198],[-90.38747,38.81385,199],[-90.38749,38.81388,199],[-90.38752,38.8139,200],[-90.38755,38.81392,200],[-90.38758,38.81394,200],[-90.38762,38.81393,200],[-90.38765,38.81392,200],[-90.38763,38.81394,200],[-90.38765,38.81397,200],[-90.38769,38.81398,200],[-90.38774,38.81397,200],[-90.38778,38.81397,199],[-90.38782,38.81397,199],[-90.38786,38.81397,199],[-90.3879,38.81397,199],[-90.38793,38.81396,199],[-90.38789,38.81396,199],[-90.38794,38.81395,199],[-90.388,38.81395,199],[-90.38805,38.81395,199],[-90.38809,38.81395,199],[-90.38814,38.81394,198],[-90.38818,38.81395,198],[-90.38822,38.81395,198],[-90.38826,38.81396,198],[-90.3883,38.81397,198],[-90.38834,38.81398,198],[-90.38838,38.814,197],[-90.38841,38.81402,197],[-90.38843,38.81405,197],[-90.38846,38.81407,197],[-90.3885,38.81408,197],[-90.38853,38.81411,197],[-90.38857,38.81412,196],[-90.38861,38.81414,196],[-90.38864,38.81415,196],[-90.38868,38.81417,196],[-90.38871,38.81418,195],[-90.38875,38.81419,195],[-90.38879,38.8142,194],[-90.38882,38.81422,194],[-90.38886,38.81423,193],[-90.3889,38.81424,192],[-90.38893,38.81425,192],[-90.38897,38.81424,192],[-90.389,38.81423,192],[-90.38904,38.81422,192],[-90.38908,38.81423,192],[-90.38912,38.81424,192],[-90.38915,38.81425,192],[-90.38919,38.81427,192],[-90.38922,38.81428,191],[-90.38926,38.81429,191],[-90.3893,38.8143,190],[-90.38933,38.81433,190],[-90.38936,38.81434,190],[-90.3894,38.81436,189],[-90.38942,38.81439,189],[-90.38945,38.8144,189],[-90.38949,38.8144,189],[-90.38951,38.81442,189],[-90.38954,38.81444,189],[-90.38956,38.81447,189],[-90.38953,38.81449,189],[-90.3895,38.81451,190],[-90.38948,38.81454,190],[-90.38946,38.81458,190],[-90.38945,38.81461,190],[-90.38945,38.81464,190],[-90.38946,38.81467,190],[-90.38947,38.81469,190],[-90.38947,38.81472,191],[-90.38946,38.81475,190],[-90.38946,38.81479,190],[-90.38946,38.81482,189],[-90.38946,38.81484,189],[-90.38946,38.81487,189],[-90.38948,38.8149,189],[-90.38949,38.81493,188],[-90.38949,38.81496,188],[-90.38951,38.81499,188],[-90.38954,38.81502,188],[-90.38957,38.81504,187],[-90.3896,38.81506,187],[-90.38962,38.81508,187],[-90.38965,38.81511,186],[-90.38967,38.81513,186],[-90.38971,38.81514,186],[-90.38973,38.81516,185],[-90.38975,38.8152,184],[-90.38978,38.81522,184],[-90.3898,38.81525,183],[-90.38983,38.81528,182],[-90.38986,38.8153,182],[-90.38989,38.81534,181],[-90.38992,38.81536,180],[-90.38995,38.81538,180],[-90.38998,38.8154,179],[-90.39001,38.81537,180],[-90.39004,38.81536,180],[-90.39008,38.81536,180],[-90.39011,38.81536,180],[-90.39015,38.81538,180],[-90.39018,38.8154,180],[-90.39021,38.81542,179],[-90.39023,38.81545,179],[-90.39026,38.81547,179],[-90.39029,38.81549,179],[-90.39032,38.8155,179],[-90.39036,38.81551,179],[-90.3904,38.81552,180],[-90.39044,38.81552,180],[-90.39047,38.81552,181],[-90.3905,38.8155,181],[-90.39053,38.81548,182],[-90.39059,38.81547,182],[-90.39063,38.81547,183],[-90.39068,38.81547,183],[-90.39072,38.81548,184],[-90.39075,38.81549,184],[-90.39079,38.8155,184],[-90.39082,38.81551,185],[-90.39086,38.81552,185],[-90.3909,38.81553,185],[-90.39094,38.81553,185],[-90.39098,38.81553,185],[-90.39102,38.81553,185],[-90.39105,38.81552,185],[-90.39108,38.8155,186],[-90.3911,38.81548,186],[-90.39113,38.81546,186],[-90.39116,38.81544,186],[-90.39119,38.81543,186],[-90.39123,38.81543,186],[-90.39127,38.81543,185],[-90.3913,38.81544,185],[-90.39134,38.81545,185],[-90.39137,38.81545,185],[-90.39141,38.81546,185],[-90.39144,38.81547,184],[-90.39147,38.8155,184],[-90.39148,38.81553,184],[-90.3915,38.81556,184],[-90.39152,38.81559,183],[-90.39155,38.81562,183],[-90.39157,38.81565,182],[-90.3916,38.81567,182],[-90.39163,38.81569,181],[-90.39165,38.81571,181],[-90.39168,38.81573,180],[-90.39171,38.81575,179],[-90.39174,38.81575,179],[-90.39178,38.81576,177],[-90.39179,38.81579,177],[-90.39179,38.81582,176],[-90.39179,38.81585,176],[-90.39179,38.81588,175],[-90.3918,38.81591,174],[-90.3918,38.81594,173],[-90.39179,38.81597,173],[-90.39178,38.816,173],[-90.39178,38.81603,172],[-90.39178,38.81606,171],[-90.39177,38.81609,171],[-90.39176,38.81612,170],[-90.39174,38.81615,170],[-90.39173,38.81618,169],[-90.39173,38.81621,168],[-90.39172,38.81624,167],[-90.39171,38.81627,167],[-90.39171,38.8163,166],[-90.3917,38.81634,164],[-90.3917,38.81637,163],[-90.39169,38.8164,162],[-90.39165,38.81642,163],[-90.39162,38.81643,164],[-90.3916,38.81646,163],[-90.39158,38.81648,163],[-90.39155,38.8165,163],[-90.39154,38.81653,162],[-90.39152,38.81656,162],[-90.39151,38.81659,161],[-90.39149,38.81661,161],[-90.39147,38.81664,161],[-90.39144,38.81666,161],[-90.39139,38.81667,161],[-90.39136,38.81669,161],[-90.39139,38.81668,161],[-90.39141,38.81665,162],[-90.39143,38.81663,162],[-90.39139,38.81665,162],[-90.39144,38.81662,162],[-90.39149,38.81657,162],[-90.39152,38.81652,163],[-90.39154,38.81648,164],[-90.39156,38.81642,165],[-90.3916,38.81638,165],[-90.39166,38.81634,165],[-90.3917,38.81632,165],[-90.39173,38.81629,165],[-90.39176,38.81625,166],[-90.39177,38.81622,167],[-90.39177,38.81619,168],[-90.39177,38.81616,169],[-90.39177,38.81613,170],[-90.39177,38.8161,171],[-90.39178,38.81606,171],[-90.39179,38.81603,172],[-90.39179,38.816,172],[-90.39181,38.81596,173],[-90.39181,38.81591,174],[-90.39182,38.81587,174],[-90.39183,38.81584,175],[-90.39183,38.8158,175],[-90.39183,38.81577,176],[-90.39182,38.81573,177],[-90.39181,38.81571,177],[-90.39177,38.81568,179],[-90.39177,38.81565,179],[-90.39179,38.81563,179],[-90.39183,38.81562,178],[-90.39186,38.81565,177],[-90.39189,38.81567,176],[-90.39193,38.81568,175],[-90.39197,38.81568,174],[-90.392,38.81569,172],[-90.39197,38.81571,173],[-90.39194,38.8157,175],[-90.39194,38.81567,175],[-90.39194,38.81563,176],[-90.39195,38.81559,176],[-90.39196,38.81557,176],[-90.39196,38.81554,177],[-90.39197,38.8155,176],[-90.39197,38.81547,176],[-90.39198,38.81544,175],[-90.39198,38.81542,175],[-90.39198,38.81539,175],[-90.39198,38.81536,175],[-90.39198,38.81533,175],[-90.39195,38.8153,175],[-90.39193,38.81528,176],[-90.39194,38.81525,175],[-90.39194,38.81522,174],[-90.39196,38.81519,172],[-90.39197,38.81516,171],[-90.39198,38.81514,169],[-90.39199,38.8151,168],[-90.39199,38.81508,167],[-90.39199,38.81505,166],[-90.392,38.81501,164],[-90.39199,38.81498,164],[-90.39198,38.81495,164],[-90.39198,38.81492,164],[-90.39197,38.81489,164],[-90.39196,38.81487,164],[-90.39196,38.81483,163],[-90.39196,38.81481,163],[-90.39195,38.81478,163],[-90.39195,38.81474,163],[-90.39194,38.81471,163],[-90.39194,38.81467,162],[-90.39193,38.81463,162],[-90.39193,38.8146,161],[-90.39192,38.81456,161],[-90.39191,38.81453,161],[-90.3919,38.8145,161],[-90.39189,38.81446,160],[-90.39188,38.81443,160],[-90.39187,38.81446,161],[-90.39186,38.8145,162],[-90.39183,38.81453,163],[-90.39181,38.81455,164],[-90.39181,38.81459,165],[-90.39182,38.81462,165],[-90.39184,38.81465,165],[-90.39185,38.81468,164],[-90.39186,38.81471,165],[-90.39187,38.81474,165],[-90.39189,38.81476,164],[-90.39191,38.81479,164],[-90.39192,38.81482,164],[-90.39193,38.81485,164],[-90.39192,38.81488,165],[-90.39191,38.81492,166],[-90.39195,38.81485,164],[-90.39195,38.81476,163],[-90.39195,38.81467,162],[-90.39195,38.81461,161],[-90.39195,38.81456,160],[-90.39195,38.81451,159],[-90.39195,38.81446,159],[-90.39194,38.81443,158],[-90.39191,38.8144,158],[-90.39186,38.81438,159],[-90.39182,38.81435,159],[-90.39179,38.81433,160],[-90.39179,38.81429,159],[-90.39182,38.81426,157],[-90.39186,38.81425,156],[-90.39189,38.81423,155],[-90.3919,38.8142,154],[-90.39194,38.81415,151],[-90.39198,38.81412,149],[-90.39203,38.8141,147],[-90.3921,38.81409,147],[-90.39216,38.81409,146],[-90.39221,38.81408,145],[-90.39225,38.81407,144],[-90.39227,38.81404,143],[-90.3923,38.81402,142],[-90.39234,38.81401,141],[-90.39238,38.81399,141],[-90.39241,38.81397,140],[-90.39242,38.81394,138],[-90.39243,38.81391,137],[-90.39245,38.81388,137],[-90.39241,38.81389,136],[-90.3924,38.81392,137],[-90.39238,38.81395,139],[-90.39237,38.81398,140],[-90.39235,38.81402,142],[-90.39232,38.81405,143],[-90.3923,38.81408,145],[-90.39225,38.81409,146],[-90.3922,38.81407,145],[-90.39216,38.81405,143],[-90.39213,38.81402,142],[-90.39211,38.81398,140],[-90.3921,38.81395,138],[-90.39208,38.81391,136],[-90.39207,38.81388,135],[-90.39205,38.81385,136],[-90.39202,38.81383,137],[-90.39198,38.8138,138],[-90.39195,38.81378,139],[-90.39191,38.81376,140],[-90.39187,38.81374,141],[-90.39184,38.81372,141],[-90.39181,38.81371,142],[-90.39178,38.81369,142],[-90.39175,38.81366,142],[-90.39172,38.81364,142],[-90.3917,38.81362,142],[-90.39167,38.81359,143],[-90.39165,38.81357,144],[-90.39163,38.81354,144],[-90.39164,38.81351,145],[-90.39166,38.81349,144],[-90.39164,38.81346,145],[-90.39162,38.81343,146],[-90.39161,38.8134,147],[-90.39158,38.81337,147],[-90.39156,38.81334,148],[-90.39153,38.81332,148],[-90.3915,38.8133,149],[-90.39148,38.81328,149],[-90.39145,38.81326,149],[-90.39142,38.81324,150],[-90.39139,38.81322,150],[-90.39136,38.8132,150],[-90.39133,38.81318,151],[-90.3913,38.81316,151],[-90.39127,38.81314,151],[-90.39124,38.81313,152],[-90.39122,38.8131,152],[-90.3912,38.81307,152],[-90.3912,38.81304,152],[-90.39121,38.81301,151],[-90.39121,38.81298,150],[-90.3912,38.81294,149],[-90.39118,38.81291,149],[-90.39115,38.81288,149],[-90.39113,38.81285,148],[-90.39111,38.81283,148],[-90.39108,38.81281,148],[-90.39105,38.81279,148],[-90.39101,38.81277,148],[-90.39099,38.81275,148],[-90.39099,38.81271,147],[-90.391,38.81269,146],[-90.39101,38.81266,145],[-90.39101,38.81263,145],[-90.39102,38.8126,144],[-90.39102,38.81256,143],[-90.39102,38.81253,142],[-90.39102,38.81251,142],[-90.39102,38.81247,142],[-90.39102,38.81244,143],[-90.39102,38.81241,144],[-90.39101,38.81238,145],[-90.391,38.81235,146],[-90.39099,38.81233,146],[-90.39098,38.81229,147],[-90.39097,38.81226,148],[-90.39096,38.81223,149],[-90.39096,38.8122,149],[-90.39095,38.81217,149],[-90.39094,38.81214,149],[-90.39093,38.81211,149],[-90.3909,38.81209,149],[-90.39089,38.81206,149],[-90.39092,38.81203,149],[-90.39094,38.81201,150],[-90.39096,38.81198,150],[-90.39097,38.81196,150],[-90.39097,38.81193,150],[-90.39097,38.8119,149],[-90.39097,38.81187,149],[-90.39097,38.81184,148],[-90.39097,38.81181,148],[-90.39098,38.81179,148],[-90.39098,38.81176,147],[-90.39098,38.81172,146],[-90.39099,38.81169,146],[-90.391,38.81167,145],[-90.39102,38.81164,145],[-90.39105,38.81161,144],[-90.39109,38.81159,144],[-90.39112,38.81156,143],[-90.39114,38.81153,142],[-90.39114,38.81151,142],[-90.39114,38.81148,141],[-90.39112,38.81145,141],[-90.3911,38.81142,141],[-90.39108,38.8114,141],[-90.39106,38.81137,141],[-90.39105,38.81134,140],[-90.39102,38.81132,140],[-90.39099,38.8113,141],[-90.39096,38.81127,141],[-90.39094,38.81125,141],[-90.39091,38.81123,141],[-90.39089,38.81121,141],[-90.39086,38.81119,141],[-90.39083,38.81117,141],[-90.39082,38.81117,141]]],
        "bbox": [
          -90.38743,
          38.81669,
          -90.39245,
          38.81066
        ]
      },
      "properties": {
        "name": "11.11.2025B"
      }
    }
  ]
}