{
  "type": "FeatureCollection",
  "features": [
    {
      "type": "Feature",
      "geometry": {
        "type": "MultiLineString",
        "coordinates": [[[-90.39521,38.81159,132],[-90.39518,38.81161,132],[-90.39515,38.81163,132],[-90.39512,38.81165,132],[-90.39509,38.81167,133],[-90.39507,38.8117,133],[-90.39505,38.81173,133],[-90.39502,38.81176,133],[-90.39498,38.81177,133],[-90.39495,38.81178,134],[-90.3949,38.8118,134],[-90.39487,38.81182,134],[-90.39474,38.81194,136],[-90.3947,38.81195,137],[-90.39466,38.81197,137],[-90.39463,38.81199,137],[-90.39461,38.81201,137],[-90.39458,38.81203,137],[-90.39454,38.81205,137],[-90.39449,38.81207,137],[-90.39445,38.81211,137],[-90.39442,38.81214,138],[-90.3944,38.81216,138],[-90.39436,38.81219,138],[-90.39434,38.81221,138],[-90.39431,38.81223,137],[-90.39429,38.81225,137],[-90.39426,38.81228,137],[-90.39423,38.8123,137],[-90.3942,38.81232,137],[-90.39417,38.81234,137],[-90.39415,38.81236,137],[-90.39412,38.81239,137],[-90.39409,38.81241,137],[-90.39406,38.81244,137],[-90.39403,38.81247,137],[-90.394,38.81249,137],[-90.39397,38.81252,136],[-90.39393,38.81255,136],[-90.3939,38.81258,136],[-90.39388,38.81261,135],[-90.39385,38.81263,135],[-90.39383,38.81265,135],[-90.3938,38.81267,135],[-90.39377,38.8127,134],[-90.39373,38.81273,134],[-90.3937,38.81274,134],[-90.39368,38.81277,134],[-90.39365,38.81279,133],[-90.39362,38.81281,133],[-90.39359,38.81284,133],[-90.39356,38.81286,133],[-90.39354,38.81288,133],[-90.3935,38.81289,133],[-90.39347,38.81291,133],[-90.39344,38.81293,133],[-90.3934,38.81295,133],[-90.39337,38.81296,133],[-90.39334,38.81298,133],[-90.39331,38.813,133],[-90.39327,38.81302,133],[-90.39323,38.81305,133],[-90.3932,38.81308,132],[-90.39317,38.81311,132],[-90.39313,38.81314,132],[-90.3931,38.81317,132],[-90.39306,38.8132,132],[-90.39303,38.81322,133],[-90.393,38.81324,133],[-90.39296,38.81326,133],[-90.39293,38.81329,133],[-90.39289,38.81332,134],[-90.39287,38.81334,134],[-90.39285,38.81336,134],[-90.39281,38.8134,135],[-90.39279,38.81342,135],[-90.39275,38.81345,136],[-90.39272,38.81347,136],[-90.39269,38.8135,137],[-90.39266,38.81352,137],[-90.39264,38.81355,137],[-90.39261,38.81359,138],[-90.39259,38.81362,138],[-90.39258,38.81366,138],[-90.39256,38.81369,138],[-90.39254,38.81373,138],[-90.39253,38.81377,138],[-90.39251,38.8138,138],[-90.39249,38.81384,137],[-90.39247,38.81387,137],[-90.39244,38.8139,137],[-90.39241,38.8139,136],[-90.39241,38.81387,136],[-90.39239,38.8139,136],[-90.39238,38.81392,137],[-90.39236,38.81396,139],[-90.39236,38.81399,141],[-90.39234,38.81402,142],[-90.39231,38.81404,143],[-90.39229,38.81406,144],[-90.39225,38.81409,146],[-90.39222,38.8141,146],[-90.39219,38.81413,148],[-90.39215,38.81414,149],[-90.39211,38.81415,150],[-90.39207,38.81416,151],[-90.39203,38.81417,151],[-90.39199,38.81418,152],[-90.39194,38.81418,152],[-90.39191,38.81419,153],[-90.3919,38.81422,154],[-90.39193,38.8142,153],[-90.39191,38.81418,153],[-90.39187,38.81418,154],[-90.39184,38.8142,155],[-90.39181,38.81422,156],[-90.39177,38.81425,158],[-90.39176,38.81429,159],[-90.39175,38.81432,161],[-90.39176,38.81435,161],[-90.39176,38.81438,162],[-90.39177,38.81441,163],[-90.39178,38.81444,163],[-90.3918,38.81447,163],[-90.39181,38.8145,163],[-90.39183,38.81453,163],[-90.39184,38.81456,163],[-90.39185,38.81459,163],[-90.39187,38.81462,163],[-90.39188,38.81465,163],[-90.3919,38.81467,163],[-90.3919,38.81471,164],[-90.3919,38.81474,164],[-90.39191,38.81477,164],[-90.39192,38.8148,164],[-90.39193,38.81483,164],[-90.39193,38.81487,165],[-90.39192,38.81491,165],[-90.39192,38.81493,166],[-90.39194,38.81497,165],[-90.39196,38.81499,165],[-90.39197,38.81502,166],[-90.39198,38.81506,167],[-90.39198,38.81509,168],[-90.39198,38.81512,169],[-90.39197,38.81515,170],[-90.39196,38.81519,172],[-90.39194,38.81522,174],[-90.39193,38.81526,175],[-90.39192,38.81529,176],[-90.39192,38.81532,176],[-90.39194,38.81535,176],[-90.39196,38.81538,176],[-90.39197,38.81541,176],[-90.39198,38.81544,175],[-90.39197,38.81548,176],[-90.39196,38.81551,177],[-90.39195,38.81553,177],[-90.39194,38.81557,177],[-90.39194,38.8156,177],[-90.39193,38.81563,176],[-90.39192,38.81566,176],[-90.39192,38.8157,175],[-90.39194,38.81572,174],[-90.39197,38.81573,173],[-90.39201,38.81573,171],[-90.39196,38.81574,173],[-90.39193,38.81576,173],[-90.39191,38.81573,175],[-90.39188,38.81571,176],[-90.39184,38.81569,177],[-90.3918,38.81568,178],[-90.39174,38.81569,179],[-90.39171,38.8157,180],[-90.39171,38.81574,179],[-90.39173,38.81578,178],[-90.39174,38.81581,178],[-90.39174,38.81585,177],[-90.39174,38.81589,176],[-90.39175,38.81593,175],[-90.39175,38.81595,175],[-90.39175,38.81598,174],[-90.39174,38.81601,174],[-90.39174,38.81603,173],[-90.39173,38.81607,173],[-90.39172,38.81611,172],[-90.39172,38.81614,171],[-90.39172,38.81618,169],[-90.39171,38.81621,169],[-90.39171,38.81625,167],[-90.39173,38.81627,166],[-90.39166,38.81636,165],[-90.39164,38.81639,164],[-90.39162,38.81641,164],[-90.39161,38.81644,163],[-90.3916,38.81647,163],[-90.39158,38.81649,163],[-90.39155,38.81652,162],[-90.39153,38.81654,162],[-90.39151,38.81657,162],[-90.3915,38.81659,161],[-90.39147,38.81661,162],[-90.39144,38.81664,161],[-90.39141,38.81665,162],[-90.39137,38.81669,161],[-90.39133,38.81672,161],[-90.3913,38.81675,160],[-90.39127,38.81678,160],[-90.39126,38.81681,159],[-90.39123,38.81683,159],[-90.39121,38.81685,159],[-90.39118,38.81687,158],[-90.39115,38.81689,158],[-90.39113,38.81692,158],[-90.39113,38.81694,157],[-90.39107,38.81694,158],[-90.39104,38.81692,159],[-90.391,38.81688,161],[-90.39097,38.81685,162],[-90.39093,38.81682,163],[-90.3909,38.8168,164],[-90.39086,38.81678,164],[-90.3909,38.81677,164],[-90.39088,38.81675,165],[-90.39091,38.81674,165],[-90.39091,38.81678,164],[-90.39085,38.81681,164],[-90.3908,38.81685,163],[-90.39076,38.81688,163],[-90.39072,38.81688,164],[-90.39068,38.81688,164],[-90.39064,38.81688,164],[-90.3906,38.8169,165],[-90.39058,38.81692,165],[-90.39054,38.81694,165],[-90.3905,38.81695,165],[-90.39048,38.81697,164],[-90.39044,38.81697,164],[-90.3904,38.81695,165],[-90.39038,38.81693,166],[-90.39037,38.81689,166],[-90.39036,38.81686,167],[-90.39034,38.81683,167],[-90.39032,38.81681,167],[-90.3903,38.81678,168],[-90.39027,38.81678,168],[-90.39023,38.81676,168],[-90.39021,38.81674,168],[-90.39016,38.81671,168],[-90.39013,38.81668,168],[-90.39011,38.81666,169],[-90.39009,38.81663,169],[-90.39006,38.81662,169],[-90.39003,38.81664,169],[-90.39001,38.81657,169],[-90.39008,38.81655,169],[-90.39013,38.81655,170],[-90.39017,38.81655,170],[-90.39021,38.81657,169],[-90.39024,38.81658,169],[-90.39025,38.81655,170],[-90.39027,38.81652,170],[-90.39029,38.81649,170],[-90.39026,38.81647,171],[-90.39025,38.81643,171],[-90.39029,38.81643,171],[-90.39031,38.8164,172],[-90.39034,38.81638,172],[-90.39038,38.81636,172],[-90.39042,38.81636,172],[-90.39047,38.81636,172],[-90.39052,38.81634,173],[-90.39048,38.8163,173],[-90.39044,38.81629,173],[-90.39041,38.81627,173],[-90.39039,38.81624,173],[-90.3904,38.81619,174],[-90.3904,38.81616,174],[-90.3904,38.81613,174],[-90.3904,38.81609,175],[-90.39042,38.81607,175],[-90.39045,38.81605,176],[-90.39048,38.81603,176],[-90.3905,38.816,177],[-90.39051,38.81596,178],[-90.39051,38.81594,179],[-90.39051,38.81591,179],[-90.39048,38.81589,179],[-90.39051,38.81586,180],[-90.39053,38.81585,181],[-90.39055,38.81582,181],[-90.39058,38.8158,182],[-90.39061,38.81579,182],[-90.39064,38.81579,182],[-90.39068,38.8158,182],[-90.39072,38.8158,182],[-90.39075,38.81582,182],[-90.39077,38.81584,182],[-90.3908,38.81581,183],[-90.39079,38.81577,183],[-90.39081,38.81575,183],[-90.39085,38.81573,183],[-90.39088,38.81574,183],[-90.39089,38.81571,183],[-90.39089,38.81568,184],[-90.3909,38.81564,184],[-90.3909,38.81561,184],[-90.39089,38.81559,184],[-90.39087,38.81556,185],[-90.39085,38.81553,185],[-90.39083,38.8155,185],[-90.39083,38.81547,185],[-90.39087,38.81549,185],[-90.39084,38.81551,185],[-90.3908,38.81552,184],[-90.39076,38.81552,184],[-90.39072,38.81552,183],[-90.39068,38.81552,183],[-90.39064,38.81552,183],[-90.3906,38.81551,182],[-90.39056,38.8155,182],[-90.39051,38.8155,181],[-90.39047,38.81549,181],[-90.39043,38.81547,181],[-90.39039,38.81546,180],[-90.39035,38.81546,180],[-90.39031,38.81546,179],[-90.39027,38.81546,179],[-90.39023,38.81545,179],[-90.39019,38.81544,179],[-90.39015,38.81543,179],[-90.39011,38.81542,179],[-90.39007,38.8154,179],[-90.39003,38.81538,180],[-90.38999,38.81535,180],[-90.38995,38.81533,181],[-90.38991,38.81532,181],[-90.38988,38.8153,182],[-90.38985,38.81528,182],[-90.38982,38.81525,183],[-90.38979,38.81523,183],[-90.38977,38.81521,184],[-90.38974,38.81518,185],[-90.38971,38.81515,185],[-90.38969,38.81513,186],[-90.38966,38.81511,186],[-90.38963,38.81508,187],[-90.38961,38.81506,187],[-90.38957,38.81503,188],[-90.38956,38.815,188],[-90.38954,38.81497,188],[-90.38953,38.81494,188],[-90.38951,38.81492,189],[-90.3895,38.81489,189],[-90.3895,38.81485,189],[-90.38949,38.81481,190],[-90.38949,38.81477,190],[-90.3895,38.81474,191],[-90.3895,38.8147,191],[-90.3895,38.81467,190],[-90.38949,38.81464,190],[-90.38949,38.81461,190],[-90.38949,38.81458,190],[-90.38949,38.81455,190],[-90.38949,38.81452,190],[-90.38949,38.81449,190],[-90.38948,38.81446,189],[-90.38946,38.81444,189],[-90.38944,38.81441,189],[-90.3894,38.81439,190],[-90.38935,38.81437,190],[-90.38931,38.81435,190],[-90.38926,38.81433,191],[-90.38923,38.81431,191],[-90.3892,38.8143,192],[-90.38916,38.81428,192],[-90.38911,38.81427,192],[-90.38908,38.81426,192],[-90.38903,38.81425,192],[-90.38898,38.81425,192],[-90.38893,38.81424,192],[-90.3889,38.81423,192],[-90.38887,38.81421,193],[-90.38883,38.8142,193],[-90.38879,38.81419,194],[-90.38875,38.81419,195],[-90.38871,38.81419,195],[-90.38867,38.81418,196],[-90.38863,38.81417,196],[-90.38858,38.81417,197],[-90.38853,38.81416,197],[-90.38849,38.81415,197],[-90.38845,38.81414,198],[-90.38841,38.81412,198],[-90.38838,38.81411,198],[-90.38834,38.81408,198],[-90.3883,38.81406,198],[-90.38826,38.81404,198],[-90.38822,38.81403,198],[-90.38817,38.81401,199],[-90.3881,38.81402,199],[-90.38804,38.81402,199],[-90.388,38.81402,199],[-90.38796,38.81401,199],[-90.38792,38.81401,199],[-90.38787,38.81402,199],[-90.38782,38.81403,199],[-90.38778,38.81404,199],[-90.38773,38.81404,200],[-90.38768,38.81404,200],[-90.38764,38.81402,200],[-90.38762,38.81401,200],[-90.3876,38.81398,200],[-90.38757,38.81395,200],[-90.38754,38.81392,200],[-90.38751,38.81389,199],[-90.38751,38.81385,199],[-90.38751,38.81382,199],[-90.38752,38.81379,198],[-90.38753,38.81376,198],[-90.38754,38.81374,198],[-90.38756,38.8136,196],[-90.38757,38.81357,196],[-90.38757,38.81353,195],[-90.38757,38.81349,195],[-90.38757,38.81346,195],[-90.38757,38.81343,195],[-90.38756,38.81341,194],[-90.38756,38.81337,194],[-90.38757,38.81333,194],[-90.38759,38.81331,194],[-90.38762,38.81329,194],[-90.38766,38.81329,194],[-90.38771,38.81328,195],[-90.38775,38.81328,195],[-90.38779,38.81327,195],[-90.38784,38.81327,195],[-90.38788,38.81326,195],[-90.38791,38.81324,194],[-90.38793,38.81322,194],[-90.38795,38.8132,194],[-90.38796,38.81317,193],[-90.38798,38.81314,192],[-90.388,38.81311,192],[-90.38802,38.81309,191],[-90.38803,38.81306,191],[-90.38804,38.81303,190],[-90.38804,38.813,190],[-90.38804,38.81297,190],[-90.38806,38.81295,189],[-90.38808,38.81291,188],[-90.38809,38.81288,188],[-90.38808,38.81286,188],[-90.38807,38.81283,188],[-90.38807,38.8128,187],[-90.3881,38.81278,186],[-90.38813,38.81277,185],[-90.38817,38.81276,184],[-90.3882,38.81274,183],[-90.38823,38.81272,181],[-90.38828,38.81271,180],[-90.38831,38.81272,179],[-90.38835,38.81272,178],[-90.38838,38.8127,177],[-90.38842,38.8127,175],[-90.38846,38.8127,174],[-90.3885,38.81268,173],[-90.38853,38.81266,172],[-90.38856,38.81263,170],[-90.38859,38.8126,169],[-90.3886,38.81257,169],[-90.38862,38.81254,169],[-90.38863,38.81251,168],[-90.38865,38.81249,168],[-90.38866,38.81246,167],[-90.38865,38.81243,167],[-90.38863,38.8124,166],[-90.38863,38.81237,166],[-90.38864,38.81234,165],[-90.38866,38.81231,165],[-90.38869,38.81229,164],[-90.38873,38.81229,164],[-90.38876,38.81227,163],[-90.38877,38.81224,163],[-90.38879,38.81221,162],[-90.3888,38.81218,162],[-90.3888,38.81215,161],[-90.38878,38.81212,161],[-90.38876,38.81209,161],[-90.38873,38.81207,161],[-90.38869,38.81205,161],[-90.38866,38.81202,161],[-90.38864,38.812,161],[-90.38862,38.81197,162],[-90.38859,38.81194,162],[-90.38857,38.81191,163],[-90.38856,38.81188,163],[-90.38858,38.81185,163],[-90.38863,38.81174,163],[-90.38865,38.81171,163],[-90.38868,38.81168,163],[-90.38871,38.81166,163],[-90.38874,38.81164,162],[-90.38876,38.81161,162],[-90.38877,38.81158,161],[-90.38879,38.81155,161],[-90.38882,38.81152,160],[-90.38885,38.8115,159],[-90.38889,38.81149,158],[-90.38893,38.81149,157],[-90.38897,38.81148,156],[-90.38901,38.81149,155],[-90.38905,38.81149,154],[-90.38909,38.81149,153],[-90.38912,38.81148,153],[-90.38916,38.81146,152],[-90.38919,38.81144,152],[-90.38921,38.81142,152],[-90.38923,38.8114,152],[-90.38928,38.81139,152],[-90.38931,38.81139,152],[-90.38935,38.81139,152],[-90.38938,38.81136,152],[-90.3894,38.81133,152],[-90.38942,38.8113,152],[-90.38945,38.81127,151],[-90.38947,38.81124,151],[-90.3895,38.81121,151],[-90.38953,38.81119,151],[-90.38957,38.81119,151],[-90.38961,38.8112,151],[-90.38965,38.81121,151],[-90.38969,38.81121,150],[-90.38974,38.81121,150],[-90.38978,38.8112,149],[-90.38981,38.81118,149],[-90.38985,38.81117,148],[-90.3899,38.81116,148],[-90.38994,38.81117,147],[-90.38997,38.81117,147],[-90.39001,38.81115,146],[-90.39005,38.81116,145],[-90.39008,38.81117,145],[-90.39012,38.81118,144],[-90.39016,38.81119,144],[-90.3902,38.81119,143],[-90.39024,38.81119,143],[-90.39028,38.81118,142],[-90.39033,38.81118,142],[-90.39037,38.81119,142],[-90.3904,38.81119,142],[-90.39043,38.81122,142],[-90.39045,38.81124,142],[-90.39048,38.81126,142],[-90.39052,38.81128,142],[-90.39056,38.81128,142],[-90.3906,38.81127,142],[-90.39064,38.81126,142],[-90.39067,38.81124,142],[-90.39072,38.81122,142],[-90.39075,38.81121,141],[-90.39078,38.8112,141],[-90.39082,38.8112,141],[-90.39084,38.81122,141],[-90.39086,38.81125,141],[-90.39088,38.81128,141],[-90.39091,38.81132,141],[-90.39093,38.81134,141],[-90.39096,38.81137,141],[-90.39099,38.8114,142],[-90.39101,38.81142,142],[-90.39104,38.81145,142],[-90.39107,38.81148,142],[-90.39109,38.81152,143],[-90.3911,38.81155,143],[-90.39111,38.81158,143],[-90.39109,38.81162,144],[-90.39105,38.81164,145],[-90.39103,38.81166,145],[-90.391,38.81168,146],[-90.39097,38.8117,146],[-90.39094,38.81173,147],[-90.39093,38.81177,147],[-90.39092,38.8118,148],[-90.39092,38.81184,148],[-90.3909,38.81187,148],[-90.3909,38.81191,149],[-90.39091,38.81194,149],[-90.39091,38.81198,149],[-90.39091,38.81201,149],[-90.3909,38.81204,149],[-90.39087,38.81207,149],[-90.39086,38.8121,149],[-90.39086,38.81214,149],[-90.39085,38.81216,149],[-90.39083,38.81219,149],[-90.39084,38.81222,149],[-90.39085,38.81225,149],[-90.39086,38.81229,148],[-90.39088,38.81232,147],[-90.3909,38.81235,146],[-90.39091,38.81238,145],[-90.39092,38.81241,145],[-90.39094,38.81244,144],[-90.39096,38.81247,143],[-90.39098,38.8125,142],[-90.39098,38.81253,143],[-90.39098,38.81256,143],[-90.39098,38.81259,144],[-90.39099,38.81262,145],[-90.39099,38.81265,145],[-90.39099,38.81268,146],[-90.391,38.81271,147],[-90.39101,38.81275,147],[-90.39101,38.81278,148],[-90.39101,38.81282,149],[-90.39102,38.81285,149],[-90.39105,38.81287,150],[-90.39107,38.81291,150],[-90.39108,38.81293,151],[-90.39109,38.81296,151],[-90.3911,38.81298,152],[-90.39113,38.81302,152],[-90.39115,38.81305,153],[-90.39116,38.81308,153],[-90.39117,38.81311,153],[-90.39119,38.81314,153],[-90.39121,38.81317,152],[-90.39124,38.81319,152],[-90.39127,38.8132,152],[-90.39131,38.81322,151],[-90.39133,38.81324,151],[-90.39134,38.81327,151],[-90.39137,38.8133,151],[-90.3914,38.81332,150],[-90.39144,38.81334,150],[-90.39149,38.81336,149],[-90.39152,38.81339,148],[-90.39155,38.81342,147],[-90.39156,38.81346,147],[-90.39157,38.81349,146],[-90.39157,38.81353,146],[-90.39158,38.81356,145],[-90.39159,38.81359,145],[-90.3916,38.81362,144],[-90.39162,38.81366,145],[-90.39164,38.81369,145],[-90.39166,38.81372,145],[-90.39169,38.81376,145],[-90.39171,38.81378,145],[-90.39175,38.8138,144],[-90.39179,38.81382,143],[-90.39183,38.81384,142],[-90.39187,38.81387,140],[-90.39191,38.81389,139],[-90.39195,38.81391,139],[-90.39198,38.81393,139],[-90.39201,38.81396,140],[-90.39204,38.81398,141],[-90.39207,38.814,142],[-90.3921,38.81403,143],[-90.39214,38.81405,144],[-90.39218,38.81407,145],[-90.39223,38.81406,144],[-90.39226,38.81405,143],[-90.39229,38.81404,143],[-90.39231,38.81402,142],[-90.39234,38.81399,140],[-90.39236,38.81397,139],[-90.39237,38.81394,138],[-90.39239,38.81392,137],[-90.39241,38.81389,136],[-90.39243,38.81387,136],[-90.39245,38.81384,137],[-90.39247,38.81381,137],[-90.39249,38.81378,138],[-90.39251,38.81374,138],[-90.39253,38.81371,138],[-90.39255,38.81367,138],[-90.39256,38.81365,138],[-90.39258,38.81362,138],[-90.3926,38.8136,138],[-90.39261,38.81357,138],[-90.39263,38.81355,137],[-90.39265,38.81352,137],[-90.39267,38.8135,137],[-90.39268,38.81347,137],[-90.39271,38.81344,136],[-90.39275,38.81341,135],[-90.39278,38.81338,135],[-90.39281,38.81336,135],[-90.39284,38.81333,134],[-90.39287,38.81331,134],[-90.39289,38.81328,134],[-90.39291,38.81326,133],[-90.39294,38.81324,133],[-90.39296,38.81322,133],[-90.39299,38.8132,133],[-90.39302,38.81317,133],[-90.39305,38.81315,133],[-90.39308,38.81312,132],[-90.39311,38.8131,132],[-90.39314,38.81308,132],[-90.39317,38.81306,132],[-90.3932,38.81303,133],[-90.39323,38.81301,133],[-90.39327,38.81299,133],[-90.3933,38.81296,133],[-90.39334,38.81294,133],[-90.39337,38.81292,133],[-90.39341,38.8129,133],[-90.39345,38.81288,133],[-90.39348,38.81285,133],[-90.39352,38.81283,133],[-90.39355,38.81281,134],[-90.39358,38.81279,134],[-90.39362,38.81277,134],[-90.39366,38.81275,134],[-90.3937,38.81273,134],[-90.39374,38.81271,134],[-90.39377,38.81269,134],[-90.39381,38.81267,135],[-90.39384,38.81265,135],[-90.39388,38.81262,135],[-90.39391,38.81259,135],[-90.39395,38.81256,136],[-90.39398,38.81253,136],[-90.394,38.81251,136],[-90.39403,38.81248,137],[-90.39405,38.81245,137],[-90.39408,38.81243,137],[-90.39411,38.8124,137],[-90.39413,38.81238,137],[-90.39417,38.81235,137],[-90.39421,38.81233,137],[-90.39424,38.8123,137],[-90.39427,38.81227,137],[-90.3943,38.81225,137],[-90.39433,38.81223,137],[-90.39436,38.8122,138],[-90.39439,38.81217,138],[-90.39442,38.81214,138],[-90.39446,38.81211,137],[-90.39449,38.81209,137],[-90.39451,38.81206,137],[-90.39454,38.81204,137],[-90.39457,38.81201,137],[-90.3946,38.81199,137],[-90.39464,38.81196,137],[-90.39466,38.81194,137],[-90.39469,38.81192,136],[-90.39472,38.81189,136],[-90.39474,38.81187,136],[-90.39478,38.81184,135],[-90.39481,38.81182,135],[-90.39483,38.8118,134],[-90.39487,38.81177,134],[-90.3949,38.81174,134],[-90.39494,38.81172,133],[-90.39497,38.8117,133],[-90.39501,38.81168,133],[-90.39505,38.81167,133],[-90.39509,38.81165,132],[-90.39512,38.81163,132],[-90.39515,38.81162,132],[-90.3952,38.8116,132],[-90.39523,38.81158,132],[-90.39526,38.81156,132],[-90.39529,38.81153,133],[-90.39532,38.81151,133],[-90.39535,38.81148,133],[-90.39538,38.81147,133],[-90.39542,38.81145,133],[-90.39545,38.81143,133],[-90.39549,38.8114,133],[-90.39553,38.81138,133],[-90.39557,38.81136,133],[-90.39559,38.81133,133],[-90.39554,38.81134,133],[-90.39551,38.81135,133]]],
        "bbox": [
          -90.38751,
          38.81697,
          -90.39559,
          38.81115
        ]
      },
      "properties": {
        "name": "3.27.2021B"
      }
    }
  ]
}