{
  "type": "FeatureCollection",
  "features": [
    {
      "type": "Feature",
      "geometry": {
        "type": "MultiLineString",
        "coordinates": [[[-90.39501,38.81169,133],[-90.39496,38.81172,133],[-90.39491,38.81174,133],[-90.39489,38.81177,134],[-90.39489,38.8118,134],[-90.39487,38.81183,134],[-90.39484,38.81185,135],[-90.39481,38.81187,135],[-90.39478,38.81189,136],[-90.39475,38.81191,136],[-90.39472,38.81194,136],[-90.3947,38.81196,137],[-90.39466,38.81198,137],[-90.39462,38.812,137],[-90.39459,38.81202,137],[-90.39455,38.81204,137],[-90.39452,38.81207,137],[-90.3945,38.81209,137],[-90.39447,38.81211,137],[-90.39444,38.81214,138],[-90.39441,38.81216,138],[-90.39438,38.81218,138],[-90.39436,38.81221,138],[-90.39434,38.81223,137],[-90.39432,38.81225,137],[-90.39429,38.81227,137],[-90.39426,38.8123,137],[-90.39422,38.81232,137],[-90.39419,38.81234,137],[-90.39416,38.81236,137],[-90.39413,38.81239,137],[-90.3941,38.81241,137],[-90.39407,38.81243,137],[-90.39405,38.81246,137],[-90.39403,38.81248,137],[-90.394,38.81251,136],[-90.39397,38.81253,136],[-90.39394,38.81256,136],[-90.3939,38.81258,136],[-90.39386,38.81261,135],[-90.39382,38.81263,135],[-90.39378,38.81265,135],[-90.39375,38.81267,134],[-90.39372,38.8127,134],[-90.39369,38.81272,134],[-90.39366,38.81274,134],[-90.39362,38.81277,134],[-90.39358,38.81279,134],[-90.39354,38.81282,133],[-90.39351,38.81284,133],[-90.39348,38.81286,133],[-90.39344,38.81288,133],[-90.39341,38.8129,133],[-90.39337,38.81292,133],[-90.39333,38.81294,133],[-90.3933,38.81296,133],[-90.39328,38.81298,133],[-90.39325,38.813,133],[-90.39322,38.81302,133],[-90.39318,38.81304,133],[-90.39315,38.81306,132],[-90.39312,38.81308,132],[-90.39309,38.8131,132],[-90.39307,38.81313,132],[-90.39304,38.81315,133],[-90.39302,38.81318,133],[-90.393,38.8132,133],[-90.39297,38.81323,133],[-90.39294,38.81325,133],[-90.39292,38.81327,133],[-90.39289,38.8133,134],[-90.39286,38.81333,134],[-90.39282,38.81335,134],[-90.39278,38.81338,135],[-90.39275,38.8134,135],[-90.39271,38.81341,136],[-90.39268,38.81344,136],[-90.39265,38.81347,137],[-90.39263,38.81349,137],[-90.3926,38.81352,137],[-90.39258,38.81354,138],[-90.39257,38.81358,138],[-90.39256,38.81361,138],[-90.39254,38.81364,138],[-90.39253,38.81367,138],[-90.39251,38.8137,138],[-90.3925,38.81373,138],[-90.39249,38.81376,138],[-90.39248,38.81379,138],[-90.39246,38.81381,137],[-90.39244,38.81384,137],[-90.39241,38.81387,136],[-90.39239,38.8139,136],[-90.39237,38.81392,137],[-90.39235,38.81395,138],[-90.39233,38.81398,140],[-90.39229,38.814,140],[-90.39225,38.81403,142],[-90.39222,38.81405,143],[-90.39219,38.81406,144],[-90.39217,38.81409,146],[-90.39214,38.81411,147],[-90.39211,38.81409,146],[-90.39207,38.81409,147],[-90.39204,38.81409,147],[-90.392,38.81411,148],[-90.39195,38.81413,150],[-90.39195,38.81417,152],[-90.39193,38.81421,153],[-90.39189,38.81422,154],[-90.39186,38.81426,156],[-90.39186,38.81429,157],[-90.39185,38.81432,158],[-90.39181,38.81431,159],[-90.3918,38.81435,160],[-90.3918,38.81438,161],[-90.39182,38.81441,161],[-90.39184,38.81444,161],[-90.39184,38.81448,162],[-90.39185,38.81452,162],[-90.39185,38.81455,163],[-90.39186,38.81458,163],[-90.3919,38.8146,162],[-90.39192,38.81464,162],[-90.39193,38.81467,162],[-90.39192,38.81471,163],[-90.39192,38.81475,163],[-90.39192,38.81479,164],[-90.39194,38.81481,164],[-90.39195,38.81484,164],[-90.39195,38.81487,164],[-90.39193,38.8149,165],[-90.39192,38.81494,166],[-90.39193,38.81497,166],[-90.39195,38.81501,166],[-90.39196,38.81504,167],[-90.39198,38.81508,167],[-90.39199,38.81512,169],[-90.39198,38.81515,170],[-90.39198,38.81519,171],[-90.39199,38.81522,172],[-90.39199,38.81525,173],[-90.39197,38.81527,175],[-90.39195,38.8153,175],[-90.39195,38.81534,176],[-90.39196,38.81537,176],[-90.39197,38.8154,176],[-90.39199,38.81543,175],[-90.392,38.81546,175],[-90.39199,38.81551,175],[-90.39199,38.81554,175],[-90.39198,38.81557,175],[-90.39196,38.81559,176],[-90.39195,38.81562,176],[-90.39194,38.81565,176],[-90.39195,38.81568,174],[-90.3919,38.81567,176],[-90.39185,38.81566,177],[-90.39182,38.81567,178],[-90.39178,38.81567,179],[-90.39175,38.8157,179],[-90.39174,38.81572,179],[-90.39175,38.81576,178],[-90.39175,38.81579,178],[-90.39176,38.81582,177],[-90.39176,38.81585,176],[-90.39177,38.81588,176],[-90.39177,38.81591,175],[-90.39177,38.81594,174],[-90.39177,38.81597,174],[-90.39176,38.816,173],[-90.39175,38.81603,173],[-90.39174,38.81609,172],[-90.3917,38.81616,171],[-90.39167,38.81624,169],[-90.39165,38.8163,167],[-90.39158,38.81635,167],[-90.39154,38.81642,166],[-90.39152,38.81647,165],[-90.39151,38.81652,163],[-90.39149,38.81657,162],[-90.39145,38.81663,161],[-90.3914,38.81667,161],[-90.39138,38.81675,159],[-90.39134,38.81681,158],[-90.39127,38.8168,159],[-90.39121,38.81684,159],[-90.39114,38.81686,159],[-90.39107,38.81684,161],[-90.39102,38.81679,163],[-90.39096,38.81673,165],[-90.39092,38.81668,166],[-90.39088,38.81662,168],[-90.39085,38.81669,166],[-90.39088,38.81677,164],[-90.39077,38.81682,164],[-90.39068,38.81681,165],[-90.3906,38.81681,166],[-90.39061,38.8169,164],[-90.39059,38.81699,163],[-90.39052,38.81704,162],[-90.39047,38.81698,164],[-90.39045,38.81691,166],[-90.39041,38.81684,166],[-90.39037,38.81676,167],[-90.39034,38.81674,168],[-90.39031,38.81671,168],[-90.39029,38.81669,168],[-90.39027,38.81667,168],[-90.39016,38.8165,170],[-90.39026,38.81647,171],[-90.39029,38.81641,171],[-90.39035,38.81641,171],[-90.39041,38.81638,172],[-90.39052,38.8164,172],[-90.39046,38.81654,170],[-90.39046,38.81671,167],[-90.39047,38.81681,166],[-90.39057,38.81679,166],[-90.3907,38.81683,165],[-90.3908,38.81682,164],[-90.39094,38.81681,163],[-90.391,38.81676,164],[-90.39109,38.81671,164],[-90.39109,38.81676,163],[-90.39111,38.8168,162],[-90.39115,38.81681,161],[-90.39119,38.8168,160],[-90.3912,38.81677,161],[-90.39122,38.81675,161],[-90.39126,38.81674,161],[-90.39129,38.81673,161],[-90.39131,38.8167,162],[-90.39134,38.81669,161],[-90.39138,38.81667,162],[-90.39142,38.81666,161],[-90.39145,38.81664,161],[-90.39147,38.81661,162],[-90.3915,38.8166,161],[-90.39153,38.81658,161],[-90.39152,38.81655,162],[-90.39148,38.81656,163],[-90.39148,38.81649,165],[-90.39153,38.81643,166],[-90.39158,38.81637,166],[-90.39164,38.81631,167],[-90.39168,38.81625,168],[-90.39169,38.81614,172],[-90.39174,38.81604,173],[-90.39176,38.81592,175],[-90.39177,38.81588,176],[-90.39177,38.81585,176],[-90.39177,38.81582,177],[-90.39173,38.81575,179],[-90.39168,38.81567,181],[-90.39165,38.81561,182],[-90.3916,38.81554,183],[-90.3915,38.81549,184],[-90.39141,38.81546,185],[-90.39131,38.81544,185],[-90.39107,38.81553,185],[-90.39092,38.81552,185],[-90.39073,38.81552,184],[-90.39059,38.81546,183],[-90.39047,38.81545,181],[-90.39036,38.81542,180],[-90.39028,38.8154,180],[-90.39019,38.81544,179],[-90.39012,38.81539,180],[-90.39011,38.81533,181],[-90.39003,38.8153,181],[-90.38994,38.81526,182],[-90.38987,38.81522,183],[-90.38981,38.81516,185],[-90.38974,38.81511,186],[-90.38969,38.81507,187],[-90.38964,38.81501,188],[-90.38959,38.81495,189],[-90.38959,38.81488,189],[-90.38958,38.81481,190],[-90.38953,38.81472,191],[-90.38956,38.81464,190],[-90.38955,38.81457,190],[-90.38956,38.8145,189],[-90.38957,38.81444,189],[-90.38957,38.81438,188],[-90.38955,38.81432,187],[-90.38943,38.81433,189],[-90.38934,38.8143,190],[-90.38922,38.81425,191],[-90.38913,38.81418,192],[-90.38899,38.81418,192],[-90.38887,38.81418,193],[-90.38879,38.81416,194],[-90.38869,38.81414,195],[-90.38863,38.81409,196],[-90.38855,38.81404,196],[-90.38847,38.81398,196],[-90.38838,38.81396,197],[-90.38829,38.81397,198],[-90.3882,38.81395,198],[-90.3881,38.81392,198],[-90.38802,38.81391,199],[-90.38794,38.81393,199],[-90.38786,38.81395,199],[-90.38781,38.81398,199],[-90.38774,38.81398,200],[-90.38768,38.81397,200],[-90.38767,38.81395,200],[-90.38763,38.81394,200],[-90.3876,38.81392,200],[-90.38756,38.8139,200],[-90.38752,38.81388,199],[-90.38749,38.81386,199],[-90.38748,38.81381,198],[-90.38749,38.81377,198],[-90.38751,38.81369,197],[-90.38759,38.81363,196],[-90.3876,38.81356,196],[-90.38761,38.81347,195],[-90.38761,38.81337,195],[-90.38764,38.81329,194],[-90.38777,38.81331,195],[-90.38789,38.81331,195],[-90.388,38.81323,194],[-90.38804,38.81311,192],[-90.38809,38.81302,189],[-90.38804,38.81292,189],[-90.38809,38.81283,187],[-90.38816,38.81278,184],[-90.38825,38.81278,182],[-90.38833,38.81273,179],[-90.38844,38.81272,175],[-90.38854,38.81268,171],[-90.38856,38.81259,170],[-90.3886,38.8125,169],[-90.38863,38.81242,167],[-90.38868,38.8124,166],[-90.38878,38.81237,164],[-90.38881,38.81233,163],[-90.38874,38.81232,164],[-90.38864,38.81233,165],[-90.38871,38.81228,164],[-90.38878,38.81223,162],[-90.38889,38.8122,161],[-90.38894,38.81216,160],[-90.38889,38.81211,159],[-90.38883,38.81206,159],[-90.38875,38.81202,160],[-90.38866,38.81199,161],[-90.38862,38.81193,162],[-90.3886,38.81186,163],[-90.3887,38.81178,162],[-90.38874,38.81171,162],[-90.38876,38.81163,162],[-90.3888,38.81156,161],[-90.38888,38.81155,159],[-90.38896,38.81157,157],[-90.389,38.81152,156],[-90.38909,38.8115,153],[-90.38915,38.81146,152],[-90.38919,38.8114,152],[-90.38925,38.81138,152],[-90.38933,38.81138,152],[-90.3894,38.81139,152],[-90.38948,38.81136,151],[-90.38952,38.81132,151],[-90.38957,38.81126,151],[-90.3896,38.8112,151],[-90.38968,38.8112,150],[-90.38975,38.81121,150],[-90.38981,38.81118,149],[-90.38992,38.81118,147],[-90.39002,38.81119,146],[-90.39012,38.81117,145],[-90.3902,38.81119,143],[-90.39029,38.81122,142],[-90.39037,38.81122,142],[-90.39045,38.81123,142],[-90.39053,38.81125,142],[-90.39061,38.81124,142],[-90.39069,38.81122,142],[-90.39075,38.81119,141],[-90.3908,38.81117,141],[-90.39082,38.81113,141],[-90.39085,38.81118,141],[-90.39089,38.81122,141],[-90.39093,38.81127,141],[-90.39095,38.81133,141],[-90.391,38.81138,141],[-90.39104,38.81141,141],[-90.39108,38.81146,142],[-90.39108,38.8115,142],[-90.39107,38.81156,143],[-90.39101,38.81162,145],[-90.39094,38.81165,145],[-90.39091,38.81171,146],[-90.39092,38.81178,147],[-90.39093,38.81183,148],[-90.39095,38.81189,149],[-90.39098,38.81193,150],[-90.39093,38.81198,149],[-90.39091,38.81204,149],[-90.3909,38.81211,149],[-90.39086,38.81216,149],[-90.39083,38.81222,149],[-90.39085,38.81228,148],[-90.3909,38.81232,147],[-90.39093,38.81237,146],[-90.39096,38.81244,144],[-90.39097,38.81249,142],[-90.39097,38.81255,143],[-90.39096,38.81261,145],[-90.39094,38.81266,146],[-90.391,38.81268,146],[-90.391,38.81272,147],[-90.391,38.81277,148],[-90.39099,38.81283,149],[-90.39101,38.81288,150],[-90.39107,38.81293,151],[-90.39112,38.81298,151],[-90.39118,38.81299,151],[-90.3912,38.81306,152],[-90.39121,38.81312,152],[-90.39125,38.81317,152],[-90.3913,38.81322,151],[-90.39131,38.81327,151],[-90.39137,38.81332,151],[-90.39144,38.81334,150],[-90.39151,38.81336,149],[-90.39155,38.8134,148],[-90.39159,38.81346,146],[-90.39161,38.8135,145],[-90.3916,38.81356,145],[-90.39162,38.81361,144],[-90.39166,38.81367,144],[-90.39171,38.81372,144],[-90.39177,38.81375,143],[-90.39183,38.81379,142],[-90.39184,38.81384,141],[-90.39191,38.81387,139],[-90.39199,38.8139,137],[-90.39206,38.81393,138],[-90.39213,38.81395,138],[-90.39222,38.81396,137],[-90.39227,38.81402,141],[-90.39235,38.814,141],[-90.3924,38.81394,138],[-90.39243,38.81387,136],[-90.39246,38.81381,137],[-90.3925,38.81375,138],[-90.39256,38.8137,138],[-90.39258,38.81361,138],[-90.39258,38.81357,138],[-90.3926,38.81354,138],[-90.39262,38.81352,137],[-90.39266,38.8135,137],[-90.39268,38.81347,137],[-90.39268,38.81344,136],[-90.39268,38.8134,136],[-90.39264,38.81339,136],[-90.3926,38.81338,136],[-90.39256,38.81337,136],[-90.39252,38.81336,137],[-90.39248,38.81335,137],[-90.39245,38.81333,137],[-90.39238,38.81326,137],[-90.39228,38.81318,137],[-90.39219,38.81312,137],[-90.39211,38.81311,138],[-90.39206,38.8131,138],[-90.39201,38.81308,138],[-90.39198,38.81305,138],[-90.39195,38.81303,138],[-90.39193,38.81299,138],[-90.3919,38.81297,138],[-90.39187,38.81295,138],[-90.39184,38.81293,138],[-90.3918,38.81292,139],[-90.39176,38.81291,139],[-90.39172,38.81289,139],[-90.39167,38.81288,140],[-90.39163,38.81286,140],[-90.3916,38.81283,140],[-90.39155,38.8128,141],[-90.39152,38.81277,141],[-90.3915,38.81274,140],[-90.3915,38.8127,139],[-90.39151,38.81266,138],[-90.39151,38.81262,137],[-90.39153,38.81259,137],[-90.39156,38.81255,136],[-90.39158,38.81253,135],[-90.39161,38.8125,135],[-90.39164,38.81247,135],[-90.39167,38.81244,135],[-90.3917,38.81242,135],[-90.39174,38.8124,135],[-90.39176,38.81236,136],[-90.39178,38.81234,136],[-90.39179,38.8123,136],[-90.3918,38.81228,137],[-90.39182,38.81224,137],[-90.39184,38.81222,137],[-90.39187,38.8122,137],[-90.39189,38.81217,137],[-90.39192,38.81215,137],[-90.39196,38.81214,137],[-90.392,38.81214,137],[-90.39205,38.81214,136],[-90.39209,38.81215,136],[-90.39213,38.81215,136],[-90.39216,38.81216,136],[-90.3922,38.81217,136],[-90.39224,38.81218,135],[-90.39228,38.81219,135],[-90.39231,38.81222,135],[-90.39234,38.81224,135],[-90.39238,38.81226,135],[-90.39242,38.81227,135],[-90.39245,38.81228,135],[-90.39247,38.81231,135],[-90.3925,38.81234,135],[-90.39253,38.81237,135],[-90.39257,38.81239,135],[-90.39261,38.81241,134],[-90.39264,38.81243,134],[-90.39267,38.81246,134],[-90.3927,38.81248,134],[-90.39273,38.8125,134],[-90.39277,38.81251,134],[-90.3928,38.81253,134],[-90.39284,38.81254,134],[-90.39288,38.81257,134],[-90.39292,38.81259,134],[-90.39294,38.81261,134],[-90.39296,38.81264,134],[-90.39299,38.81266,134],[-90.39302,38.81268,134],[-90.39305,38.8127,134],[-90.39308,38.81272,134],[-90.39312,38.81274,134],[-90.39315,38.81276,134],[-90.39319,38.81277,134],[-90.39322,38.81279,134],[-90.39325,38.81281,134],[-90.39329,38.81283,134],[-90.39333,38.81284,134],[-90.39335,38.81287,134],[-90.39338,38.81288,134],[-90.39342,38.8129,133],[-90.39346,38.81291,133],[-90.39349,38.81293,133],[-90.3935,38.81296,133],[-90.39352,38.81299,132],[-90.39354,38.81302,132],[-90.39357,38.81305,132],[-90.39359,38.81307,132],[-90.39363,38.81308,132],[-90.39367,38.8131,132],[-90.39369,38.81312,132],[-90.39372,38.81314,132],[-90.39375,38.81317,132],[-90.39378,38.81319,132],[-90.39382,38.81321,132],[-90.39386,38.81322,132],[-90.39389,38.81324,132],[-90.39392,38.81327,132],[-90.39395,38.81329,132],[-90.39398,38.81331,132],[-90.39401,38.81333,132],[-90.39404,38.81335,132],[-90.39407,38.81337,132],[-90.3941,38.8134,132],[-90.39413,38.81342,132],[-90.39416,38.81344,132],[-90.39419,38.81346,133],[-90.39423,38.81348,133],[-90.39427,38.81349,133],[-90.3943,38.8135,133],[-90.39433,38.81353,133],[-90.39437,38.81355,133],[-90.39439,38.81357,133],[-90.39442,38.81359,133],[-90.39445,38.81361,134],[-90.39449,38.81363,134],[-90.39452,38.81364,134],[-90.39456,38.81366,134],[-90.39459,38.81368,134],[-90.39463,38.81371,135],[-90.39465,38.81373,135],[-90.39468,38.81374,135],[-90.39471,38.81376,135],[-90.39475,38.81378,135],[-90.39477,38.8138,135],[-90.39481,38.81382,135],[-90.39484,38.81384,135],[-90.39488,38.81386,135],[-90.39491,38.81387,135],[-90.39494,38.81389,135],[-90.39497,38.8139,134],[-90.39501,38.81392,135],[-90.39505,38.81394,135],[-90.39509,38.81395,135],[-90.39512,38.81396,135],[-90.39514,38.81398,135],[-90.39517,38.81399,135],[-90.3952,38.81401,135],[-90.39522,38.81404,135],[-90.39519,38.81407,135],[-90.39515,38.81408,135],[-90.39512,38.81407,135],[-90.39509,38.81404,135],[-90.39506,38.81402,135],[-90.39502,38.81401,135],[-90.39499,38.81399,134],[-90.39496,38.81397,134],[-90.39499,38.814,134],[-90.39499,38.81403,134],[-90.39496,38.81404,134],[-90.39493,38.81405,134],[-90.39489,38.81405,134],[-90.39484,38.81406,134],[-90.39481,38.81407,134],[-90.39477,38.81408,134],[-90.39475,38.81411,134],[-90.39471,38.81411,134],[-90.39467,38.81411,134],[-90.39463,38.81413,133],[-90.3946,38.81415,133],[-90.39456,38.81415,133],[-90.39452,38.81414,133],[-90.39448,38.81414,133],[-90.39444,38.81415,133],[-90.39441,38.81416,132],[-90.39437,38.81416,132],[-90.39435,38.81414,132],[-90.39431,38.81412,132],[-90.39427,38.81413,132],[-90.39424,38.81413,132],[-90.39422,38.81411,132],[-90.39423,38.81408,132],[-90.39424,38.81405,132],[-90.39428,38.81402,132],[-90.39433,38.81401,132],[-90.39436,38.814,132],[-90.3944,38.81399,133],[-90.39443,38.81396,133],[-90.39446,38.81393,133],[-90.39449,38.81391,134],[-90.39452,38.81389,134],[-90.39455,38.81386,134],[-90.39457,38.81384,134],[-90.39459,38.81382,134],[-90.39459,38.81379,134],[-90.39455,38.81377,134],[-90.39453,38.81375,134],[-90.39453,38.81372,134],[-90.39453,38.81369,134],[-90.3945,38.81367,134],[-90.39447,38.81365,134],[-90.39443,38.81364,133],[-90.39439,38.81362,133],[-90.39436,38.8136,133],[-90.39433,38.81359,133],[-90.39428,38.81359,133],[-90.39425,38.81359,133],[-90.39422,38.81357,133],[-90.39419,38.81355,133],[-90.39415,38.81353,132],[-90.39411,38.81351,132],[-90.39408,38.81349,132],[-90.39405,38.81347,132],[-90.39401,38.81344,132],[-90.39398,38.81342,132],[-90.39395,38.8134,132],[-90.39392,38.81338,132],[-90.39388,38.81336,132],[-90.39385,38.81335,132],[-90.39381,38.81334,132],[-90.39377,38.81331,132],[-90.39375,38.81329,132],[-90.39372,38.81327,132],[-90.39369,38.81325,132],[-90.39366,38.81323,132],[-90.39362,38.8132,132],[-90.3936,38.81318,132],[-90.39357,38.81315,132],[-90.39355,38.81312,132],[-90.39353,38.8131,132],[-90.39352,38.81308,132],[-90.39351,38.81305,132],[-90.3935,38.81302,132],[-90.39349,38.81298,132],[-90.3935,38.81295,133],[-90.39352,38.81291,133],[-90.39353,38.81288,133],[-90.39354,38.81285,133],[-90.39355,38.81282,133],[-90.39357,38.8128,133],[-90.39359,38.81277,134],[-90.39363,38.81275,134],[-90.39366,38.81273,134],[-90.3937,38.81271,134],[-90.39373,38.81269,134],[-90.39375,38.81268,134],[-90.39379,38.81266,135],[-90.39383,38.81264,135],[-90.39386,38.81262,135],[-90.39389,38.8126,135],[-90.39393,38.81258,136],[-90.39396,38.81256,136],[-90.394,38.81254,136],[-90.39403,38.81252,136],[-90.39406,38.81249,137],[-90.39409,38.81247,137],[-90.39412,38.81244,137],[-90.39414,38.81242,137],[-90.39416,38.81239,137],[-90.39418,38.81237,137],[-90.39421,38.81234,137],[-90.39424,38.81233,137],[-90.39428,38.81231,137],[-90.39431,38.81229,137],[-90.39433,38.81227,137],[-90.39435,38.81224,137],[-90.39438,38.81222,138],[-90.39441,38.81219,138],[-90.39444,38.81218,138],[-90.39447,38.81215,137],[-90.39449,38.81212,137],[-90.39451,38.8121,137],[-90.39454,38.81208,137],[-90.39457,38.81205,137],[-90.3946,38.81203,137],[-90.39463,38.812,137],[-90.39466,38.81197,137],[-90.39469,38.81195,137],[-90.39472,38.81193,136],[-90.39475,38.81193,136],[-90.39478,38.8119,136],[-90.39481,38.81187,135],[-90.39483,38.81185,135],[-90.39486,38.81182,134],[-90.39488,38.81179,134],[-90.39491,38.81177,134],[-90.39494,38.81175,133],[-90.39492,38.81173,133],[-90.39487,38.81174,134],[-90.39488,38.81178,134],[-90.39493,38.81177,134],[-90.39496,38.81176,133],[-90.39499,38.81174,133],[-90.39502,38.81172,133],[-90.39503,38.81169,133],[-90.39501,38.81166,132]]],
        "bbox": [
          -90.38748,
          38.81704,
          -90.39522,
          38.81113
        ]
      },
      "properties": {
        "name": "1.19.2021"
      }
    }
  ]
}