{
  "type": "FeatureCollection",
  "features": [
    {
      "type": "Feature",
      "geometry": {
        "type": "MultiLineString",
        "coordinates": [[[-90.39329,38.81301,133],[-90.39326,38.81303,133],[-90.39323,38.81305,133],[-90.3932,38.81308,132],[-90.39317,38.81311,132],[-90.39315,38.81314,132],[-90.39313,38.81316,132],[-90.39309,38.81319,132],[-90.39306,38.81322,132],[-90.39303,38.81325,133],[-90.39301,38.81328,133],[-90.39298,38.8133,133],[-90.39296,38.81332,133],[-90.39293,38.81334,133],[-90.3929,38.81337,134],[-90.39288,38.81339,134],[-90.39286,38.81342,135],[-90.39283,38.81344,135],[-90.3928,38.81346,136],[-90.39277,38.81349,136],[-90.39274,38.81351,137],[-90.39271,38.81354,137],[-90.39269,38.81356,137],[-90.39266,38.81358,138],[-90.39263,38.8136,138],[-90.39261,38.81363,138],[-90.39258,38.81366,138],[-90.39256,38.81368,138],[-90.39255,38.81371,138],[-90.39254,38.81374,138],[-90.39252,38.81377,138],[-90.39249,38.81379,138],[-90.39246,38.81381,137],[-90.39244,38.81383,137],[-90.39245,38.81386,137],[-90.39248,38.81385,137],[-90.39246,38.81387,137],[-90.39244,38.8139,137],[-90.39242,38.81392,138],[-90.3924,38.81395,139],[-90.39236,38.81398,140],[-90.39233,38.81399,140],[-90.3923,38.81401,141],[-90.39227,38.81403,142],[-90.39224,38.81406,144],[-90.39221,38.81406,144],[-90.39218,38.81404,143],[-90.39218,38.81406,144],[-90.39218,38.8141,146],[-90.39219,38.81414,149],[-90.39221,38.81416,150],[-90.39224,38.81419,151],[-90.39228,38.81421,151],[-90.3923,38.81423,151],[-90.39233,38.81425,152],[-90.39237,38.81427,152],[-90.39241,38.81429,152],[-90.39244,38.81431,153],[-90.39248,38.81432,153],[-90.39252,38.81434,153],[-90.39255,38.81435,153],[-90.3926,38.81436,153],[-90.39264,38.81437,152],[-90.39268,38.81439,152],[-90.39271,38.81441,153],[-90.39273,38.81444,153],[-90.39276,38.81446,153],[-90.39278,38.81448,152],[-90.39281,38.81451,152],[-90.39285,38.81452,151],[-90.39288,38.81454,150],[-90.39291,38.81456,149],[-90.39294,38.81459,149],[-90.39296,38.81461,148],[-90.39298,38.81464,147],[-90.39299,38.81467,147],[-90.393,38.8147,147],[-90.39299,38.81474,147],[-90.39299,38.81478,147],[-90.39299,38.81481,147],[-90.39298,38.81484,147],[-90.39298,38.81488,148],[-90.393,38.81491,148],[-90.39301,38.81494,148],[-90.39303,38.81496,147],[-90.39305,38.81499,147],[-90.39309,38.815,147],[-90.39311,38.81503,146],[-90.39313,38.81505,146],[-90.39313,38.81508,145],[-90.39314,38.81511,145],[-90.39316,38.81514,144],[-90.39313,38.81517,145],[-90.3931,38.8152,145],[-90.39308,38.81523,145],[-90.39305,38.81526,146],[-90.39301,38.81529,146],[-90.39299,38.81532,146],[-90.39296,38.81534,146],[-90.39292,38.81535,147],[-90.39288,38.81537,147],[-90.39285,38.81539,147],[-90.39281,38.81541,148],[-90.39278,38.81543,148],[-90.39275,38.81546,148],[-90.39273,38.81549,148],[-90.3927,38.81551,149],[-90.39266,38.81554,149],[-90.39264,38.81556,150],[-90.39261,38.81558,151],[-90.39261,38.81562,150],[-90.39261,38.81566,149],[-90.39262,38.8157,148],[-90.39263,38.81573,146],[-90.39264,38.81576,146],[-90.39264,38.8158,145],[-90.39264,38.81583,144],[-90.39264,38.81586,144],[-90.39264,38.8159,144],[-90.39265,38.81592,144],[-90.39265,38.81596,144],[-90.39265,38.81599,144],[-90.39265,38.81602,144],[-90.39268,38.81605,143],[-90.3927,38.81607,142],[-90.39272,38.8161,141],[-90.39271,38.81613,141],[-90.39272,38.81616,141],[-90.39271,38.81613,141],[-90.3927,38.81611,142],[-90.39273,38.81612,141],[-90.39275,38.8161,140],[-90.39276,38.81606,140],[-90.39276,38.81609,140],[-90.39274,38.81612,141],[-90.39274,38.81608,141],[-90.39275,38.81606,140],[-90.39272,38.81604,141],[-90.39269,38.81602,142],[-90.39265,38.81602,144],[-90.39261,38.81604,145],[-90.39259,38.81607,145],[-90.39254,38.81609,147],[-90.39251,38.81611,148],[-90.39247,38.81613,149],[-90.39243,38.81615,150],[-90.3924,38.81617,150],[-90.39236,38.81621,150],[-90.39234,38.81625,150],[-90.39233,38.81629,149],[-90.39229,38.81632,149],[-90.39229,38.81635,148],[-90.39228,38.81639,147],[-90.39225,38.81641,148],[-90.39224,38.81645,147],[-90.39222,38.81648,148],[-90.3922,38.81651,148],[-90.39219,38.81655,147],[-90.39216,38.81657,148],[-90.39212,38.81659,148],[-90.39208,38.8166,149],[-90.39206,38.81662,149],[-90.39202,38.81664,150],[-90.39199,38.81667,150],[-90.39197,38.8167,150],[-90.39197,38.81673,150],[-90.39194,38.81675,150],[-90.39191,38.81677,150],[-90.39188,38.8168,150],[-90.39185,38.8168,150],[-90.39185,38.81684,150],[-90.39186,38.81687,149],[-90.39184,38.8169,149],[-90.39181,38.81692,148],[-90.39177,38.81693,148],[-90.39179,38.81696,147],[-90.39183,38.81697,147],[-90.39182,38.817,146],[-90.39179,38.81702,145],[-90.39175,38.81704,144],[-90.39172,38.81705,143],[-90.39168,38.81707,143],[-90.39165,38.81709,142],[-90.39161,38.8171,142],[-90.39158,38.81711,142],[-90.39154,38.81711,143],[-90.39151,38.81712,143],[-90.39148,38.81714,143],[-90.39145,38.81716,142],[-90.39142,38.81718,142],[-90.3914,38.81721,141],[-90.39137,38.81723,141],[-90.39135,38.81725,141],[-90.39132,38.81727,141],[-90.39129,38.81729,141],[-90.39125,38.8173,141],[-90.39121,38.81732,141],[-90.39118,38.81734,141],[-90.39115,38.81737,141],[-90.39113,38.81738,141],[-90.39109,38.81739,142],[-90.39105,38.81741,142],[-90.39103,38.81743,141],[-90.39103,38.81746,141],[-90.39104,38.81749,140],[-90.39107,38.81751,139],[-90.39109,38.81748,139],[-90.39113,38.81747,139],[-90.39117,38.81747,138],[-90.39121,38.81745,138],[-90.3912,38.8175,137],[-90.39118,38.81753,137],[-90.39117,38.81756,136],[-90.39116,38.8176,135],[-90.39112,38.81761,136],[-90.39108,38.81761,136],[-90.39105,38.81761,136],[-90.39099,38.8176,138],[-90.39095,38.8176,138],[-90.39092,38.81762,138],[-90.39088,38.81763,139],[-90.39084,38.81765,139],[-90.39081,38.81767,139],[-90.39078,38.81768,139],[-90.39075,38.81771,139],[-90.39073,38.81774,138],[-90.39071,38.81776,138],[-90.39067,38.81777,138],[-90.39064,38.81777,139],[-90.39059,38.81777,139],[-90.39056,38.81778,139],[-90.39053,38.81781,139],[-90.39049,38.81781,140],[-90.39045,38.81781,140],[-90.3904,38.81781,141],[-90.39036,38.81782,141],[-90.39033,38.81783,141],[-90.3903,38.81784,142],[-90.39026,38.81786,142],[-90.39023,38.81788,142],[-90.39018,38.81788,143],[-90.39014,38.81788,144],[-90.3901,38.81788,144],[-90.39007,38.8179,144],[-90.39003,38.81791,145],[-90.38999,38.81792,145],[-90.38996,38.81794,145],[-90.38993,38.81795,145],[-90.38988,38.81794,146],[-90.38985,38.81796,146],[-90.38984,38.81799,146],[-90.3898,38.818,146],[-90.38977,38.81801,147],[-90.38975,38.81803,146],[-90.3897,38.81803,147],[-90.38966,38.81803,147],[-90.38961,38.81803,147],[-90.38958,38.81802,147],[-90.38956,38.81799,148],[-90.38954,38.81797,148],[-90.3895,38.81798,148],[-90.38947,38.81799,148],[-90.38943,38.818,148],[-90.3894,38.81798,149],[-90.38937,38.81797,149],[-90.38933,38.81798,150],[-90.38929,38.81798,150],[-90.38925,38.81798,151],[-90.38922,38.81798,151],[-90.38918,38.81798,152],[-90.38915,38.818,152],[-90.38913,38.81802,152],[-90.38909,38.81803,152],[-90.38904,38.81804,153],[-90.38901,38.81804,154],[-90.38898,38.81806,154],[-90.38897,38.8181,153],[-90.38895,38.81813,152],[-90.38893,38.81815,152],[-90.38891,38.81818,151],[-90.38889,38.8182,151],[-90.38887,38.81823,150],[-90.38886,38.81826,149],[-90.38883,38.81828,149],[-90.38879,38.81829,149],[-90.38876,38.8183,149],[-90.38872,38.81831,149],[-90.38868,38.81831,150],[-90.38865,38.81833,149],[-90.38864,38.81836,148],[-90.38861,38.81838,148],[-90.38858,38.81841,146],[-90.38856,38.81843,145],[-90.38853,38.81845,144],[-90.3885,38.81846,144],[-90.38846,38.81846,144],[-90.38842,38.81847,144],[-90.3884,38.8185,142],[-90.38837,38.81852,141],[-90.38834,38.81853,141],[-90.38831,38.81856,140],[-90.38828,38.81858,139],[-90.38825,38.8186,139],[-90.38822,38.81862,139],[-90.3882,38.81864,139],[-90.38817,38.81866,140],[-90.38813,38.81865,140],[-90.38809,38.81865,141],[-90.38805,38.81865,141],[-90.38803,38.81867,141],[-90.38799,38.81869,141],[-90.38796,38.81871,142],[-90.38792,38.81873,142],[-90.38789,38.81874,142],[-90.38786,38.81876,142],[-90.38783,38.81877,143],[-90.38779,38.81879,143],[-90.38775,38.81879,143],[-90.38772,38.81881,143],[-90.38768,38.81882,143],[-90.38765,38.81884,142],[-90.38761,38.81886,142],[-90.38757,38.81888,142],[-90.38755,38.8189,141],[-90.38753,38.81892,141],[-90.3875,38.81895,140],[-90.3875,38.81898,139],[-90.38749,38.81901,138],[-90.38748,38.81904,137],[-90.38745,38.81907,136],[-90.38742,38.81908,135],[-90.38738,38.81909,135],[-90.38735,38.81911,134],[-90.38732,38.81913,133],[-90.38728,38.81914,133],[-90.38725,38.81914,133],[-90.38722,38.81915,132],[-90.38718,38.81917,132],[-90.38714,38.81918,132],[-90.38712,38.81922,132],[-90.38707,38.81923,132],[-90.38704,38.81925,132],[-90.38702,38.81927,132],[-90.38702,38.81931,132],[-90.38703,38.81934,132],[-90.38704,38.81937,132],[-90.38704,38.8194,132],[-90.38702,38.81936,132],[-90.387,38.81933,132],[-90.38698,38.81935,132],[-90.38699,38.81938,132],[-90.38702,38.81939,132],[-90.38703,38.81942,132],[-90.38706,38.81945,131],[-90.38709,38.81945,131],[-90.38709,38.81948,131],[-90.3871,38.81951,131],[-90.38713,38.81955,131],[-90.38713,38.8195,131],[-90.3871,38.81945,131],[-90.38708,38.81938,132],[-90.38707,38.81942,132],[-90.38705,38.8194,132],[-90.38702,38.81935,132],[-90.38703,38.8193,132],[-90.38701,38.81922,132],[-90.38693,38.81929,132],[-90.38699,38.81937,132],[-90.387,38.8193,132],[-90.38701,38.81928,132],[-90.38697,38.81927,132],[-90.38694,38.81928,132],[-90.3869,38.8193,132],[-90.38687,38.81932,132],[-90.38683,38.81935,132],[-90.3868,38.81936,132],[-90.38677,38.8194,132],[-90.38674,38.81943,132],[-90.38671,38.81946,131],[-90.38671,38.8195,131],[-90.38672,38.81952,131],[-90.38668,38.8195,131],[-90.38665,38.81952,131],[-90.38664,38.81954,131],[-90.38665,38.81957,131],[-90.38665,38.81954,131],[-90.38663,38.81956,131],[-90.3866,38.81955,131],[-90.38661,38.81952,131],[-90.38659,38.81949,131],[-90.38662,38.81947,131],[-90.38665,38.81946,131],[-90.38665,38.81943,132],[-90.38667,38.81938,133],[-90.38671,38.81935,133],[-90.38675,38.81934,133],[-90.3868,38.81935,133],[-90.38685,38.81935,132],[-90.38689,38.81934,132],[-90.38691,38.8193,132],[-90.38695,38.81928,132],[-90.387,38.81928,132],[-90.38704,38.81928,132],[-90.38709,38.81927,132],[-90.38713,38.81924,132],[-90.38717,38.81923,132],[-90.38721,38.8192,132],[-90.38724,38.81918,132],[-90.38727,38.81915,132],[-90.3873,38.81913,133],[-90.38733,38.81911,134],[-90.38736,38.8191,135],[-90.3874,38.81908,135],[-90.38743,38.81906,136],[-90.38744,38.81903,137],[-90.38746,38.819,138],[-90.38749,38.81897,139],[-90.38752,38.81895,140],[-90.38756,38.81893,140],[-90.38759,38.81891,141],[-90.38762,38.81889,141],[-90.38765,38.81887,142],[-90.38769,38.81887,142],[-90.38773,38.81885,142],[-90.38776,38.81884,142],[-90.3878,38.81882,142],[-90.38783,38.8188,142],[-90.38787,38.81878,142],[-90.3879,38.81876,142],[-90.38793,38.81873,142],[-90.38795,38.81871,142],[-90.38799,38.8187,141],[-90.38803,38.81869,141],[-90.38807,38.81869,140],[-90.38811,38.81869,140],[-90.38816,38.81868,140],[-90.38819,38.81867,139],[-90.38822,38.81866,139],[-90.38826,38.81863,139],[-90.38828,38.8186,139],[-90.38829,38.81856,140],[-90.3883,38.81853,141],[-90.38833,38.81851,142],[-90.38835,38.81849,143],[-90.38836,38.81846,144],[-90.38837,38.81844,145],[-90.3884,38.81841,146],[-90.38843,38.8184,147],[-90.38847,38.8184,147],[-90.38851,38.81838,148],[-90.38853,38.81835,149],[-90.38857,38.81833,150],[-90.38859,38.8183,151],[-90.38863,38.81827,152],[-90.38867,38.81827,151],[-90.38871,38.81826,151],[-90.38874,38.81824,152],[-90.38877,38.81823,152],[-90.38879,38.8182,153],[-90.38882,38.81816,154],[-90.38884,38.81814,154],[-90.38886,38.81811,155],[-90.38886,38.81807,157],[-90.38886,38.81804,158],[-90.38891,38.81804,156],[-90.38895,38.81804,156],[-90.38899,38.81805,154],[-90.38903,38.81804,153],[-90.38906,38.81802,153],[-90.3891,38.818,153],[-90.38914,38.81799,152],[-90.38918,38.81799,151],[-90.38922,38.81799,151],[-90.38926,38.81797,151],[-90.3893,38.81798,150],[-90.38934,38.81798,149],[-90.38938,38.81798,149],[-90.38941,38.81798,149],[-90.38946,38.81798,148],[-90.38949,38.81799,148],[-90.38953,38.81798,148],[-90.38956,38.81796,148],[-90.3896,38.81795,148],[-90.38964,38.81795,148],[-90.38967,38.81795,148],[-90.3897,38.81792,149],[-90.38974,38.81792,148],[-90.38978,38.81792,148],[-90.38979,38.8179,148],[-90.38977,38.81787,149],[-90.38979,38.81785,149],[-90.38981,38.81782,149],[-90.38981,38.81779,149],[-90.3898,38.81776,150],[-90.38978,38.8178,150],[-90.38978,38.81783,149],[-90.38979,38.81786,148],[-90.38983,38.81786,148],[-90.38986,38.81784,148],[-90.38988,38.81781,148],[-90.38991,38.81777,149],[-90.38992,38.81774,149],[-90.38996,38.81773,149],[-90.39001,38.81773,148],[-90.39005,38.81773,147],[-90.39009,38.81772,147],[-90.39014,38.81771,146],[-90.39015,38.81769,146],[-90.39018,38.81766,146],[-90.39021,38.81765,146],[-90.39025,38.81766,145],[-90.39029,38.81766,145],[-90.3903,38.81763,145],[-90.39032,38.81761,146],[-90.39028,38.8176,146],[-90.39025,38.81759,147],[-90.39022,38.81757,148],[-90.39019,38.81755,148],[-90.39018,38.81752,149],[-90.39016,38.81749,150],[-90.3902,38.81748,150],[-90.39024,38.81748,149],[-90.39028,38.81749,149],[-90.39032,38.81751,148],[-90.39036,38.81751,147],[-90.39037,38.81748,148],[-90.3904,38.81747,148],[-90.39044,38.81746,148],[-90.39048,38.81747,147],[-90.39048,38.81744,148],[-90.39046,38.81746,148],[-90.3905,38.81747,147],[-90.39054,38.81747,147],[-90.39056,38.81745,147],[-90.39058,38.81749,146],[-90.39054,38.81749,146],[-90.39051,38.81751,146],[-90.39048,38.81753,146],[-90.39045,38.81751,146],[-90.39042,38.81749,147],[-90.39039,38.81748,148],[-90.39037,38.81751,147],[-90.3904,38.81752,147],[-90.39042,38.81749,147],[-90.39045,38.81746,148],[-90.39048,38.81744,148],[-90.3905,38.8174,149],[-90.3905,38.81738,150],[-90.39052,38.81734,151],[-90.39053,38.81731,152],[-90.39054,38.81735,151],[-90.39051,38.81733,152],[-90.39048,38.81732,152],[-90.39049,38.81729,153],[-90.3905,38.81727,154],[-90.3905,38.81725,155],[-90.39049,38.81722,156],[-90.39047,38.81719,157],[-90.39048,38.81716,158],[-90.39049,38.81713,159],[-90.39049,38.8171,160],[-90.39051,38.81708,160],[-90.39052,38.81705,161],[-90.3905,38.81702,162],[-90.3905,38.817,163],[-90.3905,38.81697,164],[-90.39049,38.81694,165],[-90.39048,38.8169,165],[-90.39049,38.81687,166],[-90.39051,38.81685,166],[-90.39055,38.81684,166],[-90.39058,38.81683,166],[-90.39062,38.81682,165],[-90.39065,38.81681,165],[-90.39069,38.81679,165],[-90.39073,38.81679,165],[-90.39077,38.8168,165],[-90.39081,38.8168,164],[-90.39083,38.81677,165],[-90.39086,38.81676,165],[-90.39089,38.81678,164],[-90.39092,38.81676,164],[-90.39095,38.81674,164],[-90.39099,38.81675,164],[-90.39103,38.81675,164],[-90.39106,38.81676,163],[-90.3911,38.81679,162],[-90.39111,38.81681,161],[-90.39112,38.81684,160],[-90.39115,38.81681,161],[-90.39116,38.81679,161],[-90.3912,38.81678,161],[-90.39123,38.81676,161],[-90.39127,38.81674,161],[-90.39129,38.81672,161],[-90.39131,38.81669,162],[-90.39133,38.81667,162],[-90.39137,38.81665,162],[-90.3914,38.81663,162],[-90.39143,38.81663,162],[-90.39144,38.8166,162],[-90.39146,38.81657,163],[-90.39146,38.81659,162],[-90.39148,38.81657,163],[-90.39147,38.8166,162],[-90.39144,38.81661,162],[-90.39146,38.81658,163],[-90.39149,38.81656,163],[-90.39151,38.81653,163],[-90.39154,38.81651,163],[-90.39156,38.81648,163],[-90.39157,38.81645,164],[-90.39159,38.81642,165],[-90.39161,38.8164,165],[-90.39163,38.81637,165],[-90.39164,38.81634,166],[-90.39164,38.81631,167],[-90.39166,38.81628,167],[-90.39167,38.81624,169],[-90.39169,38.81622,169],[-90.3917,38.81619,170],[-90.39171,38.81617,170],[-90.39173,38.81614,171],[-90.39174,38.81611,171],[-90.39175,38.81607,172],[-90.39176,38.81604,172],[-90.39176,38.81601,173],[-90.39177,38.81597,174],[-90.39177,38.81594,174],[-90.39177,38.81591,175],[-90.39178,38.81588,175],[-90.39178,38.81585,176],[-90.39178,38.81582,177],[-90.39177,38.81579,177],[-90.39175,38.81576,178],[-90.39172,38.81574,179],[-90.39168,38.81572,180],[-90.39165,38.81569,181],[-90.39163,38.81566,182],[-90.39161,38.81563,182],[-90.39159,38.8156,183],[-90.39156,38.81557,183],[-90.39153,38.81555,183],[-90.3915,38.81552,184],[-90.39148,38.8155,184],[-90.39145,38.81548,184],[-90.39142,38.81547,184],[-90.39137,38.81545,185],[-90.39134,38.81545,185],[-90.39129,38.81545,185],[-90.39125,38.81544,185],[-90.3912,38.81543,186],[-90.39115,38.81543,186],[-90.39111,38.81544,186],[-90.39107,38.81546,186],[-90.39104,38.81548,186],[-90.391,38.81548,185],[-90.39096,38.81549,185],[-90.39092,38.8155,185],[-90.39088,38.8155,185],[-90.39084,38.8155,185],[-90.3908,38.81551,184],[-90.39076,38.81551,184],[-90.39073,38.8155,184],[-90.39069,38.8155,183],[-90.39065,38.8155,183],[-90.39061,38.8155,182],[-90.39056,38.8155,182],[-90.39052,38.8155,181],[-90.39048,38.81548,181],[-90.39044,38.81546,181],[-90.39041,38.81545,181],[-90.39037,38.81543,180],[-90.39032,38.81542,180],[-90.39028,38.81541,180],[-90.39024,38.81539,180],[-90.3902,38.81538,180],[-90.39016,38.81537,180],[-90.39012,38.81535,180],[-90.39009,38.81532,181],[-90.39007,38.8153,181],[-90.39003,38.81528,181],[-90.39,38.81527,182],[-90.38996,38.81525,182],[-90.38993,38.81524,183],[-90.3899,38.81522,183],[-90.38987,38.81519,184],[-90.38983,38.81517,185],[-90.3898,38.81515,185],[-90.38977,38.81513,186],[-90.38974,38.8151,186],[-90.38971,38.81507,187],[-90.38968,38.81504,188],[-90.38966,38.81502,188],[-90.38964,38.815,188],[-90.38962,38.81497,188],[-90.38959,38.81495,189],[-90.38956,38.81491,189],[-90.38954,38.81488,189],[-90.38952,38.81485,189],[-90.38952,38.81481,190],[-90.38951,38.81479,190],[-90.3895,38.81476,190],[-90.38949,38.81473,191],[-90.38948,38.8147,191],[-90.38948,38.81466,190],[-90.38949,38.81463,190],[-90.3895,38.8146,190],[-90.3895,38.81457,190],[-90.3895,38.81453,190],[-90.3895,38.8145,190],[-90.3895,38.81447,189],[-90.38949,38.81445,189],[-90.38948,38.81442,189],[-90.38945,38.81439,189],[-90.38941,38.81437,189],[-90.38938,38.81436,190],[-90.38934,38.81434,190],[-90.38931,38.81433,190],[-90.38927,38.81433,191],[-90.38924,38.81432,191],[-90.38921,38.8143,191],[-90.38917,38.81428,192],[-90.38914,38.81426,192],[-90.38911,38.81424,192],[-90.38908,38.81423,192],[-90.38904,38.81422,192],[-90.389,38.81422,192],[-90.38896,38.81422,192],[-90.38893,38.81423,192],[-90.38889,38.81423,192],[-90.38886,38.81422,193],[-90.38883,38.81421,193],[-90.38879,38.8142,194],[-90.38876,38.81418,194],[-90.38872,38.81416,195],[-90.38868,38.81415,195],[-90.38864,38.81414,196],[-90.3886,38.81414,196],[-90.38857,38.81412,196],[-90.38853,38.8141,197],[-90.38849,38.81409,197],[-90.38846,38.81408,197],[-90.38842,38.81406,197],[-90.38839,38.81404,198],[-90.38835,38.81402,198],[-90.38832,38.81401,198],[-90.38828,38.814,198],[-90.38825,38.81398,198],[-90.38821,38.81397,198],[-90.38817,38.81396,198],[-90.38813,38.81396,198],[-90.38809,38.81396,199],[-90.38806,38.81397,199],[-90.38802,38.81398,199],[-90.38797,38.81398,199],[-90.38793,38.81398,199],[-90.38789,38.81398,199],[-90.38784,38.81399,199],[-90.38781,38.81399,199],[-90.38776,38.814,200],[-90.38773,38.81399,200],[-90.38769,38.81398,200],[-90.38766,38.81397,200],[-90.38763,38.81394,200],[-90.38759,38.81392,200],[-90.38756,38.81389,199],[-90.38753,38.81387,199],[-90.3875,38.81386,199],[-90.38748,38.81382,198],[-90.38747,38.81379,198],[-90.38749,38.81377,198],[-90.3875,38.81373,197],[-90.3875,38.8137,197],[-90.38751,38.81367,196],[-90.38752,38.81364,196],[-90.38752,38.81361,196],[-90.38752,38.81358,195],[-90.38752,38.81355,195],[-90.38752,38.81351,195],[-90.38754,38.81348,195],[-90.38754,38.81345,195],[-90.38755,38.81342,194],[-90.38755,38.81339,194],[-90.38755,38.81335,194],[-90.38755,38.81332,194],[-90.38758,38.8133,194],[-90.38763,38.8133,194],[-90.38766,38.81329,194],[-90.3877,38.81329,195],[-90.38774,38.81328,195],[-90.38777,38.81328,195],[-90.38781,38.81327,195],[-90.38784,38.81324,194],[-90.38786,38.81322,194],[-90.38789,38.8132,194],[-90.38791,38.81318,193],[-90.38793,38.81315,193],[-90.38795,38.81313,192],[-90.38797,38.8131,192],[-90.38798,38.81307,191],[-90.38799,38.81304,191],[-90.388,38.813,190],[-90.388,38.81297,190],[-90.38801,38.81294,190],[-90.38801,38.81291,189],[-90.38802,38.81287,189],[-90.38802,38.81283,188],[-90.38802,38.81281,188],[-90.38805,38.81278,188],[-90.38809,38.81277,186],[-90.38813,38.81275,185],[-90.38816,38.81273,183],[-90.38819,38.81271,182],[-90.38823,38.8127,181],[-90.38827,38.81271,180],[-90.38831,38.81272,179],[-90.38835,38.81272,178],[-90.38839,38.81271,176],[-90.38842,38.8127,175],[-90.38846,38.81269,174],[-90.38849,38.81268,173],[-90.38851,38.81265,172],[-90.38854,38.81263,171],[-90.38856,38.8126,170],[-90.38859,38.81258,169],[-90.3886,38.81254,169],[-90.3886,38.81251,169],[-90.38859,38.81248,169],[-90.38861,38.81244,167],[-90.38863,38.81241,167],[-90.38865,38.81237,166],[-90.38868,38.81234,165],[-90.38872,38.81232,164],[-90.38876,38.81229,163],[-90.38878,38.81225,163],[-90.3888,38.81222,162],[-90.38881,38.81219,162],[-90.38881,38.81216,161],[-90.3888,38.81213,161],[-90.38878,38.8121,161],[-90.38878,38.81207,160],[-90.38878,38.81203,160],[-90.38874,38.812,160],[-90.3887,38.81199,160],[-90.38869,38.81202,161],[-90.38866,38.812,161],[-90.38864,38.81196,161],[-90.38863,38.81192,161],[-90.38862,38.81189,162],[-90.38863,38.81185,162],[-90.38866,38.81182,162],[-90.38867,38.81179,162],[-90.38869,38.81176,162],[-90.38872,38.81174,162],[-90.38874,38.81171,162],[-90.38876,38.81169,161],[-90.38877,38.81166,162],[-90.38878,38.81163,161],[-90.3888,38.8116,161],[-90.38883,38.81158,160],[-90.38887,38.81157,159],[-90.38891,38.81155,158],[-90.38896,38.81154,157],[-90.38901,38.81155,156],[-90.38905,38.81154,154],[-90.38908,38.81152,154],[-90.38912,38.81149,153],[-90.38916,38.81146,152],[-90.3892,38.81145,152],[-90.38924,38.81142,152],[-90.38929,38.81142,152],[-90.38933,38.81142,152],[-90.38938,38.81141,152],[-90.38941,38.81138,152],[-90.38943,38.81136,152],[-90.38946,38.81133,151],[-90.38948,38.81131,151],[-90.3895,38.81128,151],[-90.38951,38.81124,151],[-90.38952,38.81121,151],[-90.38957,38.8112,151],[-90.38962,38.8112,151],[-90.38967,38.8112,150],[-90.38971,38.8112,150],[-90.38976,38.8112,150],[-90.3898,38.8112,149],[-90.38985,38.81119,148],[-90.38988,38.81118,148],[-90.38992,38.81117,147],[-90.38996,38.81118,147],[-90.39,38.8112,146],[-90.39004,38.8112,145],[-90.39008,38.81119,145],[-90.39012,38.8112,144],[-90.39017,38.8112,144],[-90.3902,38.8112,143],[-90.39024,38.8112,143],[-90.39029,38.8112,142],[-90.39033,38.81121,142],[-90.39037,38.81122,142],[-90.3904,38.81124,142],[-90.39043,38.81126,142],[-90.39045,38.81129,142],[-90.39048,38.81131,142],[-90.39052,38.81131,142],[-90.39056,38.81131,142],[-90.3906,38.8113,142],[-90.39064,38.81129,142],[-90.39067,38.81127,142],[-90.39071,38.81126,142],[-90.39075,38.81125,142],[-90.39079,38.81125,142],[-90.39082,38.81127,142],[-90.39086,38.8113,142],[-90.39089,38.81132,142],[-90.39091,38.81135,142],[-90.39093,38.81137,142],[-90.39095,38.8114,142],[-90.39098,38.81143,142],[-90.391,38.81145,142],[-90.39104,38.81146,142],[-90.39107,38.81147,142],[-90.3911,38.81148,142],[-90.39113,38.81151,142],[-90.39114,38.81153,142],[-90.39113,38.81156,143],[-90.39111,38.8116,144],[-90.39107,38.81163,144],[-90.39104,38.81165,145],[-90.39102,38.81168,145],[-90.391,38.8117,146],[-90.39098,38.81173,146],[-90.39096,38.81176,147],[-90.39095,38.81179,147],[-90.39095,38.81182,148],[-90.39096,38.81186,149],[-90.39098,38.81189,149],[-90.39099,38.81193,150],[-90.39099,38.81196,150],[-90.39098,38.812,150],[-90.39097,38.81203,150],[-90.39096,38.81206,150],[-90.39093,38.81209,149],[-90.39092,38.81212,149],[-90.39091,38.81215,149],[-90.3909,38.81219,149],[-90.39089,38.81222,149],[-90.39091,38.81225,149],[-90.39093,38.81228,148],[-90.39094,38.8123,147],[-90.39094,38.81234,146],[-90.39094,38.81238,145],[-90.39095,38.8124,145],[-90.39097,38.81244,144],[-90.391,38.81247,143],[-90.39101,38.81249,142],[-90.39101,38.81252,142],[-90.39102,38.81255,143],[-90.39103,38.81259,143],[-90.39105,38.81262,144],[-90.39105,38.81265,144],[-90.39106,38.81268,145],[-90.39108,38.81272,146],[-90.39108,38.81275,146],[-90.39107,38.81278,147],[-90.39108,38.81281,148],[-90.3911,38.81284,148],[-90.39112,38.81286,148],[-90.39113,38.81288,149],[-90.39114,38.81292,150],[-90.39116,38.81295,150],[-90.39118,38.81298,151],[-90.39121,38.81301,151],[-90.39123,38.81303,151],[-90.39124,38.81306,152],[-90.39124,38.8131,152],[-90.39126,38.81313,152],[-90.39128,38.81316,151],[-90.39131,38.81317,151],[-90.39134,38.81318,151],[-90.39139,38.81318,150],[-90.39141,38.8132,150],[-90.39142,38.81323,150],[-90.39144,38.81326,149],[-90.39147,38.81329,149],[-90.39151,38.81331,149],[-90.39154,38.81333,148],[-90.39157,38.81334,148],[-90.3916,38.81336,147],[-90.39163,38.81338,146],[-90.39166,38.8134,146],[-90.39166,38.81343,145],[-90.39167,38.81346,145],[-90.39167,38.8135,144],[-90.39168,38.81353,144],[-90.39169,38.81357,143],[-90.3917,38.8136,142],[-90.39173,38.81363,142],[-90.39175,38.81366,142],[-90.39177,38.81369,142],[-90.39178,38.81373,142],[-90.3918,38.81375,142],[-90.39184,38.81377,141],[-90.39188,38.81379,140],[-90.39192,38.8138,139],[-90.39195,38.81382,138],[-90.39197,38.81385,138],[-90.39199,38.81387,137],[-90.39203,38.81388,136],[-90.39206,38.8139,136],[-90.39209,38.81393,137],[-90.39212,38.81396,139],[-90.39215,38.81398,139],[-90.39218,38.814,140],[-90.39221,38.81402,141],[-90.39224,38.81405,143],[-90.39227,38.81406,144],[-90.39231,38.81405,143],[-90.39234,38.81403,142],[-90.39235,38.814,141],[-90.39236,38.81396,139],[-90.39238,38.81393,138],[-90.39239,38.81389,135],[-90.39241,38.81386,136],[-90.39242,38.81383,137],[-90.39245,38.81381,137],[-90.39247,38.81379,138],[-90.39249,38.81376,138],[-90.39251,38.81374,138],[-90.39252,38.81371,138],[-90.39253,38.81368,138],[-90.39254,38.81365,138],[-90.39254,38.81362,138],[-90.39255,38.81359,138],[-90.39257,38.81356,138],[-90.39259,38.81354,138],[-90.39262,38.81351,137],[-90.39264,38.81348,137],[-90.39266,38.81346,137],[-90.39267,38.81343,136],[-90.39269,38.8134,136],[-90.39271,38.81337,135],[-90.39274,38.81335,135],[-90.39278,38.81333,135],[-90.39281,38.81331,134],[-90.39283,38.81328,134],[-90.39286,38.81325,134],[-90.39288,38.81323,134],[-90.39291,38.8132,133],[-90.39294,38.81317,133],[-90.39297,38.81314,133],[-90.39298,38.81311,133],[-90.393,38.81309,133],[-90.39303,38.81305,133],[-90.39306,38.81303,133],[-90.3931,38.81302,133],[-90.39313,38.813,133],[-90.39317,38.81299,133],[-90.3932,38.81297,133],[-90.39323,38.81295,133],[-90.39326,38.81293,133],[-90.39329,38.81291,134],[-90.39332,38.81289,134],[-90.39335,38.81287,134],[-90.39338,38.81285,134],[-90.39341,38.81282,134],[-90.39344,38.8128,134],[-90.39347,38.81278,134],[-90.39351,38.81276,134],[-90.39354,38.81275,134],[-90.39357,38.81272,134],[-90.3936,38.8127,134],[-90.39363,38.81268,134],[-90.39367,38.81267,134],[-90.3937,38.81265,135],[-90.39373,38.81263,135],[-90.39376,38.81261,135],[-90.39379,38.8126,135],[-90.39382,38.81257,136],[-90.39385,38.81255,136],[-90.39389,38.81256,136],[-90.39391,38.81258,136],[-90.39387,38.81258,136],[-90.3939,38.81256,136],[-90.39393,38.81254,136],[-90.39395,38.81252,136],[-90.39397,38.81249,137],[-90.394,38.81248,137]]],
        "bbox": [
          -90.38659,
          38.81957,
          -90.394,
          38.81117
        ]
      },
      "properties": {
        "name": "7.5.2020"
      }
    }
  ]
}