{
  "type": "FeatureCollection",
  "features": [
    {
      "type": "Feature",
      "geometry": {
        "type": "MultiLineString",
        "coordinates": [[[-90.39086,38.81112,140],[-90.39083,38.81114,141],[-90.39079,38.81116,141],[-90.39078,38.81119,141],[-90.39081,38.81121,141],[-90.39084,38.81123,141],[-90.39086,38.81125,141],[-90.39089,38.81127,141],[-90.39092,38.81129,141],[-90.39094,38.81131,141],[-90.39097,38.81133,141],[-90.391,38.81135,141],[-90.39103,38.81136,141],[-90.39105,38.81139,141],[-90.39106,38.81141,141],[-90.39108,38.81144,141],[-90.39109,38.81146,142],[-90.3911,38.81149,142],[-90.3911,38.81152,142],[-90.3911,38.81155,143],[-90.39109,38.81158,143],[-90.39106,38.81159,144],[-90.39103,38.81162,144],[-90.39102,38.81165,145],[-90.391,38.81167,145],[-90.39097,38.8117,146],[-90.39094,38.81172,147],[-90.39093,38.81174,147],[-90.39093,38.81177,147],[-90.39093,38.8118,148],[-90.39094,38.81183,148],[-90.39094,38.81186,148],[-90.39094,38.81189,149],[-90.39094,38.81192,149],[-90.39094,38.81195,150],[-90.39095,38.81198,150],[-90.39094,38.81201,150],[-90.39094,38.81204,149],[-90.39091,38.81206,149],[-90.39088,38.81208,149],[-90.39087,38.81211,149],[-90.39088,38.81214,149],[-90.39089,38.81217,149],[-90.3909,38.8122,149],[-90.39091,38.81223,149],[-90.39092,38.81226,148],[-90.39092,38.81229,148],[-90.39092,38.81232,147],[-90.39094,38.81234,146],[-90.39095,38.81237,145],[-90.39097,38.8124,145],[-90.39099,38.81242,144],[-90.391,38.81245,143],[-90.39099,38.81248,142],[-90.39098,38.81251,142],[-90.39096,38.81248,143],[-90.39098,38.81251,142],[-90.39098,38.81254,143],[-90.39099,38.81257,143],[-90.39101,38.8126,144],[-90.391,38.81263,145],[-90.39101,38.81266,145],[-90.39103,38.81269,146],[-90.39104,38.81271,146],[-90.39104,38.81274,147],[-90.39104,38.81277,147],[-90.39105,38.8128,148],[-90.39105,38.81283,149],[-90.39106,38.81285,149],[-90.39107,38.81288,150],[-90.39109,38.81291,150],[-90.39112,38.81293,150],[-90.39115,38.81295,150],[-90.39118,38.81296,150],[-90.39122,38.81296,150],[-90.39125,38.81296,149],[-90.39128,38.81293,148],[-90.39128,38.8129,147],[-90.39131,38.81289,146],[-90.39134,38.81288,146],[-90.39131,38.81291,147],[-90.39128,38.813,150],[-90.39126,38.81307,151],[-90.39124,38.81309,152],[-90.39123,38.81312,152],[-90.39126,38.81314,152],[-90.39129,38.81316,151],[-90.39132,38.81316,151],[-90.39135,38.81318,151],[-90.39135,38.81321,151],[-90.39138,38.81323,150],[-90.3914,38.81326,150],[-90.39144,38.81328,149],[-90.39147,38.81329,149],[-90.3915,38.81331,149],[-90.39153,38.81333,148],[-90.39157,38.81334,148],[-90.39159,38.81335,147],[-90.3916,38.81338,147],[-90.39159,38.81341,147],[-90.39159,38.81345,146],[-90.39161,38.81347,146],[-90.39162,38.8135,145],[-90.39163,38.81353,144],[-90.39163,38.81356,144],[-90.39162,38.81359,144],[-90.39163,38.81362,144],[-90.39165,38.81365,144],[-90.39167,38.81367,144],[-90.39169,38.81369,144],[-90.39171,38.81372,144],[-90.39173,38.81374,143],[-90.39176,38.81376,143],[-90.39179,38.81378,142],[-90.39182,38.8138,142],[-90.39185,38.81382,141],[-90.39188,38.81384,140],[-90.39192,38.81385,139],[-90.39195,38.81387,138],[-90.39197,38.81389,137],[-90.392,38.81391,138],[-90.39204,38.81393,138],[-90.39206,38.81395,139],[-90.39209,38.81397,140],[-90.39212,38.81399,140],[-90.39215,38.81401,141],[-90.39217,38.81403,142],[-90.3922,38.81405,143],[-90.39223,38.81407,144],[-90.39227,38.81405,143],[-90.3923,38.81403,142],[-90.39233,38.81401,141],[-90.39235,38.81399,140]],[[-90.39257,38.81372,138],[-90.39253,38.81373,138],[-90.39252,38.81376,138],[-90.39251,38.81378,138],[-90.39248,38.8138,138],[-90.39246,38.81382,137],[-90.39245,38.81385,137],[-90.39243,38.81388,136],[-90.39242,38.81391,137],[-90.3924,38.81393,138],[-90.39237,38.81395,138],[-90.39234,38.81396,139],[-90.3923,38.81398,139],[-90.39229,38.81401,141],[-90.39227,38.81404,143],[-90.39226,38.81406,144],[-90.39225,38.81409,146],[-90.39225,38.81412,148],[-90.39228,38.81415,149],[-90.3923,38.81417,150],[-90.39232,38.8142,151],[-90.39233,38.81422,151],[-90.39234,38.81425,152],[-90.39237,38.81427,152],[-90.3924,38.81429,152],[-90.39244,38.8143,152],[-90.39248,38.8143,152],[-90.39252,38.81429,152],[-90.39255,38.81429,152],[-90.39259,38.8143,151],[-90.39256,38.81431,152],[-90.39257,38.81434,152],[-90.3926,38.81437,153],[-90.39263,38.81438,153],[-90.39266,38.81439,153],[-90.3927,38.8144,152],[-90.39273,38.81441,152],[-90.39276,38.81441,152],[-90.3928,38.81442,151],[-90.39284,38.81443,151],[-90.39288,38.81442,150],[-90.39291,38.81441,149],[-90.39295,38.81441,148],[-90.39299,38.81441,147],[-90.39303,38.81441,146],[-90.39306,38.81441,146],[-90.3931,38.81441,145],[-90.39313,38.81443,144],[-90.39316,38.81445,144],[-90.39319,38.81447,143],[-90.39323,38.81448,142],[-90.39328,38.81449,140],[-90.39334,38.81451,139],[-90.39335,38.81456,139],[-90.39336,38.81462,139],[-90.39338,38.81468,139],[-90.39339,38.81474,139],[-90.39338,38.8148,139],[-90.39336,38.81485,140],[-90.39335,38.81489,140],[-90.3933,38.81491,142],[-90.39325,38.81491,143],[-90.39321,38.81492,144],[-90.39317,38.81495,145],[-90.39316,38.81498,145],[-90.39315,38.81501,145],[-90.39314,38.81504,145],[-90.39312,38.81507,146],[-90.39308,38.8151,146],[-90.39305,38.8152,146],[-90.39302,38.81529,146],[-90.39299,38.81533,145],[-90.39296,38.81534,146],[-90.39292,38.81535,147],[-90.39289,38.81537,147],[-90.39285,38.81537,148],[-90.39282,38.81539,148],[-90.39279,38.81541,148],[-90.39276,38.81542,149],[-90.39273,38.81544,149],[-90.39271,38.81547,149],[-90.39269,38.8155,149],[-90.39268,38.81552,149],[-90.39266,38.81555,149],[-90.39262,38.81557,151],[-90.39261,38.8156,150],[-90.39259,38.81562,150],[-90.39259,38.81565,150],[-90.39259,38.81568,149],[-90.39259,38.81571,148],[-90.39261,38.81574,147],[-90.39262,38.81577,146],[-90.39263,38.8158,145],[-90.39263,38.81582,145],[-90.39264,38.81585,144],[-90.39264,38.81588,144],[-90.39265,38.81591,144],[-90.39263,38.81594,144],[-90.39264,38.81597,144],[-90.39263,38.816,144],[-90.39263,38.81603,144],[-90.39262,38.81606,145],[-90.39259,38.81608,145],[-90.39256,38.81609,146],[-90.39252,38.81611,148],[-90.39249,38.81612,149],[-90.39245,38.81613,150],[-90.39242,38.81615,150],[-90.39239,38.81617,151],[-90.39237,38.81619,151],[-90.39234,38.81621,151],[-90.39233,38.81623,151],[-90.39231,38.81626,150],[-90.3923,38.81628,150],[-90.39231,38.81631,149],[-90.3923,38.81634,148],[-90.39229,38.81636,148],[-90.39228,38.81639,147],[-90.39227,38.81642,147],[-90.39226,38.81645,147],[-90.39224,38.81648,147],[-90.39223,38.81651,147],[-90.39219,38.81653,148],[-90.39217,38.81655,148],[-90.39214,38.81657,148],[-90.39213,38.8166,148],[-90.39211,38.81662,148],[-90.39207,38.81664,149],[-90.39205,38.81666,149],[-90.39205,38.81669,148],[-90.39202,38.81671,149],[-90.392,38.81673,149],[-90.39198,38.81675,149],[-90.39195,38.81678,150],[-90.39192,38.81679,150],[-90.39189,38.81679,150],[-90.39187,38.81682,150],[-90.39185,38.81684,150],[-90.39182,38.81686,149],[-90.39179,38.81687,149],[-90.39175,38.81688,149],[-90.39173,38.8169,149],[-90.39171,38.81692,148],[-90.39168,38.81694,148],[-90.39165,38.81696,147],[-90.39163,38.81699,146],[-90.3916,38.817,146],[-90.39156,38.81702,146],[-90.39153,38.81704,146],[-90.3915,38.81705,146],[-90.39146,38.81706,146],[-90.39142,38.81706,147],[-90.39139,38.81705,148],[-90.39136,38.81705,148],[-90.39132,38.81706,149],[-90.3913,38.81708,148],[-90.39127,38.8171,148],[-90.39124,38.81712,148],[-90.39121,38.81714,147],[-90.39118,38.81716,147],[-90.39116,38.81718,146],[-90.39114,38.8172,146],[-90.39111,38.81722,146],[-90.39107,38.81724,146],[-90.39105,38.81726,146],[-90.39103,38.81729,145],[-90.39102,38.81732,144],[-90.391,38.81734,144],[-90.39097,38.81736,144],[-90.39093,38.81736,145],[-90.39089,38.81737,145],[-90.39085,38.81738,145],[-90.39081,38.81739,145],[-90.39077,38.8174,146],[-90.39074,38.81741,146],[-90.39071,38.81742,146],[-90.39067,38.81743,146],[-90.39064,38.81743,147],[-90.3906,38.81744,147],[-90.39059,38.81741,148],[-90.39057,38.81738,150],[-90.39055,38.81736,151],[-90.39055,38.81733,152],[-90.39054,38.8173,153],[-90.39052,38.81728,154],[-90.39051,38.81725,155],[-90.39047,38.81724,155],[-90.39046,38.81722,156],[-90.39047,38.81719,157],[-90.39048,38.81717,158],[-90.39049,38.81714,159],[-90.3905,38.81711,159],[-90.39051,38.81708,160],[-90.39052,38.81705,161],[-90.39053,38.81702,162],[-90.39051,38.817,163],[-90.39051,38.81697,164],[-90.3905,38.81694,165],[-90.39051,38.8169,165],[-90.39051,38.81687,166],[-90.39049,38.81685,166],[-90.3905,38.81682,166],[-90.39053,38.81682,166],[-90.39057,38.81683,166],[-90.3906,38.81682,166],[-90.39064,38.81682,165],[-90.39066,38.8168,165],[-90.3907,38.81679,165],[-90.39073,38.81678,165],[-90.39077,38.81677,165],[-90.3908,38.81677,165],[-90.39083,38.81675,165],[-90.39085,38.81673,165],[-90.39087,38.8167,166],[-90.3909,38.81669,166],[-90.39094,38.81669,166],[-90.39097,38.8167,165],[-90.39101,38.81672,165],[-90.39105,38.81673,164],[-90.39108,38.81675,163],[-90.39112,38.81676,163],[-90.39114,38.81674,163],[-90.39117,38.81672,163],[-90.3912,38.8167,163],[-90.39124,38.8167,163],[-90.39127,38.81669,162],[-90.39127,38.81666,163],[-90.39129,38.81663,164],[-90.39133,38.81662,164],[-90.39136,38.8166,164],[-90.39139,38.81659,164],[-90.3914,38.81656,165],[-90.39142,38.81654,165],[-90.39145,38.81655,164],[-90.39148,38.81655,163],[-90.39148,38.81652,164],[-90.3915,38.8165,164],[-90.39153,38.81647,164],[-90.39154,38.81645,165],[-90.39157,38.81642,165],[-90.39158,38.81639,166],[-90.39159,38.81636,166],[-90.3916,38.81634,167],[-90.39163,38.81632,167],[-90.39165,38.81629,167],[-90.39169,38.81627,167],[-90.39171,38.81625,167],[-90.39171,38.81622,168],[-90.39171,38.8162,169],[-90.39171,38.81617,170],[-90.39172,38.81614,171],[-90.39172,38.81611,172],[-90.39173,38.81608,172],[-90.39174,38.81605,173],[-90.39174,38.81602,173],[-90.39175,38.81599,174],[-90.39175,38.81596,174],[-90.39175,38.81593,175],[-90.39175,38.81591,176],[-90.39175,38.81588,176],[-90.39175,38.81585,177],[-90.39174,38.81582,178],[-90.39175,38.81579,178],[-90.39175,38.81577,178],[-90.39175,38.81573,179],[-90.39174,38.81571,179],[-90.39174,38.81568,179],[-90.39177,38.81566,179],[-90.39181,38.81565,178],[-90.39185,38.81565,177],[-90.39188,38.81567,177],[-90.39192,38.81567,176],[-90.39195,38.81567,175],[-90.39192,38.81566,176],[-90.39188,38.81565,177],[-90.39185,38.81567,177],[-90.39181,38.81568,178],[-90.39177,38.81569,179],[-90.39173,38.81569,180],[-90.39169,38.81568,181],[-90.39166,38.81566,181],[-90.39162,38.81565,182],[-90.39159,38.81564,182],[-90.39155,38.81562,183],[-90.39151,38.8156,183],[-90.39148,38.81559,183],[-90.39145,38.81557,184],[-90.39143,38.81555,184],[-90.3914,38.81552,184],[-90.39138,38.8155,185],[-90.39135,38.81548,185],[-90.39131,38.81547,185],[-90.39127,38.81546,185],[-90.39123,38.81546,185],[-90.39119,38.81546,186],[-90.39116,38.81546,186],[-90.39112,38.81547,186],[-90.39108,38.81547,186],[-90.39104,38.81547,186],[-90.39101,38.81548,186],[-90.39098,38.81549,185],[-90.39094,38.8155,185],[-90.39091,38.8155,185],[-90.39087,38.81551,185],[-90.39084,38.81552,185],[-90.3908,38.81552,184],[-90.39075,38.81551,184],[-90.39071,38.8155,184],[-90.39067,38.8155,183],[-90.39063,38.81549,183],[-90.39059,38.81549,182],[-90.39056,38.81547,182],[-90.39053,38.81545,182],[-90.39049,38.81544,182],[-90.39046,38.81543,181],[-90.39042,38.81542,181],[-90.39038,38.81542,181],[-90.39035,38.81541,180],[-90.39031,38.8154,180],[-90.39027,38.81539,180],[-90.39023,38.81538,180],[-90.3902,38.81537,180],[-90.39017,38.81536,180],[-90.39013,38.81535,180],[-90.3901,38.81534,180],[-90.39006,38.81533,181],[-90.39003,38.81531,181],[-90.39,38.8153,181],[-90.38997,38.81528,182],[-90.38994,38.81526,182],[-90.38991,38.81524,183],[-90.38989,38.81522,183],[-90.38987,38.81519,184],[-90.38984,38.81517,185],[-90.38981,38.81516,185],[-90.38978,38.81514,185],[-90.38974,38.81513,186],[-90.38971,38.81512,186],[-90.38968,38.8151,186],[-90.38965,38.81509,187],[-90.38962,38.81507,187],[-90.38958,38.81505,187],[-90.38955,38.81503,188],[-90.38952,38.81501,188],[-90.38949,38.815,188],[-90.38949,38.81496,188],[-90.3895,38.81494,188],[-90.38952,38.81491,189],[-90.38954,38.81488,189],[-90.38954,38.81485,189],[-90.38953,38.81482,190],[-90.38952,38.81479,190],[-90.3895,38.81477,190],[-90.38948,38.81475,190],[-90.38947,38.81472,191],[-90.38947,38.81468,190],[-90.38946,38.81465,190],[-90.38946,38.81463,190],[-90.38946,38.8146,190],[-90.38945,38.81457,190],[-90.38944,38.81454,190],[-90.38943,38.81451,190],[-90.38942,38.81448,190],[-90.38941,38.81445,190],[-90.38938,38.81443,190],[-90.38936,38.8144,190],[-90.38934,38.81438,190],[-90.38933,38.81435,190],[-90.38931,38.81433,190],[-90.38928,38.81431,191],[-90.38925,38.81429,191],[-90.38922,38.81427,191],[-90.38919,38.81425,192],[-90.38916,38.81423,192],[-90.38913,38.81421,192],[-90.3891,38.81421,192],[-90.38906,38.81421,192],[-90.38902,38.81421,192],[-90.38899,38.8142,192],[-90.38895,38.81419,192],[-90.38892,38.81419,192],[-90.38888,38.81418,193],[-90.38884,38.81418,193],[-90.3888,38.81418,194],[-90.38876,38.81418,194],[-90.38872,38.81418,195],[-90.38868,38.81419,196],[-90.38865,38.81418,196],[-90.38861,38.81417,197],[-90.38857,38.81416,197],[-90.38854,38.81415,197],[-90.3885,38.81414,197],[-90.38846,38.81413,197],[-90.38843,38.81412,198],[-90.38839,38.81411,198],[-90.38835,38.8141,198],[-90.38832,38.81408,198],[-90.38829,38.81406,198],[-90.38826,38.81404,198],[-90.38822,38.81403,198],[-90.38819,38.81402,198],[-90.38815,38.81401,199],[-90.38811,38.814,199],[-90.38808,38.81398,199],[-90.38805,38.81396,199],[-90.38802,38.81395,199],[-90.38799,38.81392,199],[-90.38796,38.81391,199],[-90.38792,38.81392,199],[-90.38788,38.81393,199],[-90.38785,38.81394,199],[-90.38781,38.81394,199],[-90.38778,38.81394,199],[-90.38774,38.81395,200],[-90.38771,38.81395,200],[-90.38767,38.81395,200],[-90.38764,38.81397,200],[-90.38762,38.81394,200],[-90.38759,38.81392,200],[-90.38756,38.8139,200],[-90.38754,38.81387,199],[-90.38752,38.81385,199],[-90.3875,38.81382,198],[-90.38749,38.81379,198],[-90.38749,38.81376,198],[-90.38749,38.81373,197],[-90.38752,38.81371,197],[-90.38753,38.81369,197],[-90.38753,38.81365,196],[-90.38754,38.81363,196],[-90.38754,38.8136,196],[-90.38754,38.81357,195],[-90.38755,38.81354,195],[-90.38755,38.81351,195],[-90.38756,38.81348,195],[-90.38756,38.81345,195],[-90.38756,38.81342,195],[-90.38755,38.81339,194],[-90.38755,38.81336,194],[-90.38754,38.81333,194],[-90.38755,38.8133,194],[-90.38758,38.81328,194],[-90.38762,38.81328,194],[-90.38765,38.81327,194],[-90.38769,38.81327,194],[-90.38773,38.81327,195],[-90.38776,38.81326,195],[-90.3878,38.81325,195],[-90.38784,38.81323,194],[-90.38785,38.8132,194],[-90.38786,38.81317,193],[-90.38788,38.81315,193],[-90.38788,38.81312,193],[-90.38789,38.81309,192],[-90.38791,38.81307,192],[-90.38794,38.81305,191],[-90.38796,38.81303,191],[-90.38798,38.813,190],[-90.38799,38.81297,190],[-90.38801,38.81294,190],[-90.38803,38.81292,189],[-90.38805,38.8129,189],[-90.38805,38.81287,189],[-90.38805,38.81284,188],[-90.38807,38.81281,187],[-90.38809,38.8128,187],[-90.38812,38.81277,185],[-90.38815,38.81275,184],[-90.38817,38.81273,183],[-90.3882,38.81271,182],[-90.38824,38.8127,181],[-90.38828,38.81268,179],[-90.38831,38.81267,178],[-90.38835,38.81266,177],[-90.38837,38.81264,176],[-90.38839,38.81262,175],[-90.38841,38.8126,174],[-90.38844,38.81257,173],[-90.38844,38.81255,173],[-90.38844,38.81252,172],[-90.38843,38.81249,172],[-90.38845,38.81246,171],[-90.38847,38.81245,170],[-90.38851,38.81243,169],[-90.38855,38.81243,168],[-90.38859,38.81243,168],[-90.38863,38.81242,167],[-90.38866,38.81241,166],[-90.38869,38.81239,165],[-90.38872,38.81238,165],[-90.38873,38.81236,164],[-90.38875,38.81232,164],[-90.38876,38.8123,163],[-90.38877,38.81226,163],[-90.38877,38.81223,162],[-90.38876,38.8122,162],[-90.38875,38.81217,162],[-90.38873,38.81214,162],[-90.38871,38.81212,162],[-90.38868,38.8121,162],[-90.38866,38.81207,162],[-90.38863,38.81206,162],[-90.38864,38.81203,162],[-90.38865,38.812,161],[-90.38864,38.81197,161],[-90.38861,38.81195,162],[-90.38859,38.81192,162],[-90.38857,38.8119,163],[-90.38856,38.81187,163],[-90.38857,38.81184,163],[-90.38858,38.81182,163],[-90.3886,38.81179,163],[-90.38861,38.81176,163],[-90.38862,38.81173,164],[-90.38864,38.8117,164],[-90.38865,38.81168,164],[-90.38867,38.81166,163],[-90.3887,38.81164,163],[-90.38873,38.81163,162],[-90.38876,38.81162,162],[-90.38874,38.81159,162],[-90.38874,38.81156,162],[-90.38874,38.81153,162],[-90.38873,38.8115,162],[-90.38875,38.81148,161],[-90.38875,38.81146,161],[-90.38876,38.81143,161],[-90.38877,38.8114,161],[-90.38878,38.81137,160],[-90.38879,38.81134,160],[-90.3888,38.81131,160],[-90.3888,38.81128,160],[-90.3888,38.81125,160],[-90.3888,38.81122,161],[-90.3888,38.81119,161],[-90.38882,38.81116,161],[-90.38886,38.81115,160],[-90.38892,38.81115,159],[-90.38897,38.81116,158],[-90.38901,38.81117,157],[-90.38906,38.81117,156],[-90.38911,38.81117,155],[-90.38916,38.81117,154],[-90.3892,38.81117,154],[-90.38924,38.81116,153],[-90.38928,38.81116,153],[-90.38932,38.81116,153],[-90.38934,38.81118,152],[-90.3894,38.81124,152],[-90.38943,38.81127,152],[-90.38946,38.81126,151],[-90.38947,38.81123,151],[-90.38948,38.8112,151],[-90.38951,38.81118,151],[-90.38954,38.81117,151],[-90.38957,38.81116,151],[-90.38961,38.81116,151],[-90.38964,38.81116,151],[-90.38968,38.81116,151],[-90.38972,38.81115,150],[-90.38975,38.81114,150],[-90.38978,38.81112,150],[-90.38981,38.8111,149],[-90.38984,38.81109,149],[-90.38988,38.81108,148],[-90.38991,38.81108,147],[-90.38995,38.81107,147],[-90.38999,38.81107,146],[-90.39003,38.81108,146],[-90.39006,38.81109,145],[-90.3901,38.8111,145],[-90.39014,38.81111,145],[-90.39018,38.81111,144],[-90.39022,38.81111,143],[-90.39026,38.81113,143],[-90.39029,38.81114,142],[-90.39033,38.81115,142],[-90.39036,38.81117,142],[-90.3904,38.81118,142],[-90.39044,38.81119,142],[-90.39047,38.8112,142],[-90.39051,38.81119,142],[-90.39054,38.81119,142],[-90.39058,38.81118,142],[-90.39061,38.81117,142],[-90.39065,38.81116,141],[-90.39068,38.81116,141],[-90.39072,38.81116,141],[-90.39076,38.81115,141],[-90.39079,38.81112,141],[-90.3908,38.8111,141],[-90.39082,38.81107,140],[-90.39084,38.81104,140],[-90.39084,38.81101,139],[-90.39084,38.81098,139],[-90.39083,38.81096,139],[-90.39082,38.81093,139],[-90.3908,38.8109,138],[-90.39077,38.81088,138],[-90.39075,38.81086,138],[-90.39072,38.81083,138],[-90.3907,38.81081,138]]],
        "bbox": [
          -90.38749,
          38.81744,
          -90.39339,
          38.81081
        ]
      },
      "properties": {
        "name": "5.24.2025"
      }
    }
  ]
}