{
  "type": "FeatureCollection",
  "features": [
    {
      "type": "Feature",
      "geometry": {
        "type": "MultiLineString",
        "coordinates": [[[-90.39519,38.81155,132],[-90.39517,38.81158,132],[-90.39515,38.8116,132],[-90.39512,38.81163,132],[-90.39508,38.81165,132],[-90.39505,38.81168,133],[-90.39502,38.8117,133],[-90.395,38.81173,133],[-90.39496,38.81175,133],[-90.39492,38.81177,134],[-90.39489,38.81179,134],[-90.39486,38.81182,134],[-90.39483,38.81185,135],[-90.3948,38.81188,135],[-90.39476,38.81191,136],[-90.39474,38.81193,136],[-90.39472,38.81195,136],[-90.39469,38.81197,137],[-90.39466,38.812,137],[-90.39463,38.81202,137],[-90.3946,38.81205,137],[-90.39456,38.81208,137],[-90.39454,38.8121,137],[-90.39452,38.81212,137],[-90.39449,38.81214,137],[-90.39446,38.81216,137],[-90.39442,38.81219,138],[-90.39439,38.81221,138],[-90.39435,38.81223,137],[-90.39432,38.81225,137],[-90.39429,38.81227,137],[-90.39425,38.8123,137],[-90.39422,38.81233,137],[-90.39419,38.81235,137],[-90.39417,38.81238,137],[-90.39414,38.8124,137],[-90.39411,38.81242,137],[-90.39408,38.81245,137],[-90.39405,38.81248,137],[-90.39402,38.81251,136],[-90.39399,38.81254,136],[-90.39396,38.81256,136],[-90.39393,38.81258,136],[-90.39391,38.8126,135],[-90.39388,38.81262,135],[-90.39385,38.81264,135],[-90.39383,38.81266,135],[-90.39379,38.81268,134],[-90.39375,38.81271,134],[-90.39371,38.81273,134],[-90.39368,38.81276,134],[-90.39364,38.81278,133],[-90.39361,38.8128,133],[-90.39358,38.81282,133],[-90.39355,38.81284,133],[-90.39353,38.81286,133],[-90.3935,38.81287,133],[-90.39346,38.8129,133],[-90.39342,38.81292,133],[-90.39338,38.81294,133],[-90.39335,38.81296,133],[-90.39333,38.81298,133],[-90.39329,38.813,133],[-90.39327,38.81303,133],[-90.39323,38.81306,132],[-90.3932,38.81309,132],[-90.39317,38.81311,132],[-90.39315,38.81313,132],[-90.39313,38.81316,132],[-90.3931,38.81318,132],[-90.39307,38.81321,132],[-90.39303,38.81324,133],[-90.393,38.81326,133],[-90.39297,38.81329,133],[-90.39293,38.81331,133],[-90.3929,38.81333,134],[-90.39287,38.81337,134],[-90.39285,38.81339,135],[-90.39281,38.81342,135],[-90.39277,38.81344,136],[-90.39275,38.81346,136],[-90.39272,38.8135,137],[-90.39269,38.81352,137],[-90.39267,38.81355,137],[-90.39265,38.81358,138],[-90.39264,38.81361,138],[-90.39262,38.81363,138],[-90.3926,38.81367,138],[-90.39258,38.8137,138],[-90.39257,38.81373,138],[-90.39256,38.81376,138],[-90.39255,38.81378,138],[-90.39253,38.81382,138],[-90.39251,38.81385,138],[-90.3925,38.81388,138],[-90.39247,38.81391,138],[-90.39245,38.81393,139],[-90.39243,38.81395,139],[-90.39241,38.81398,140],[-90.39238,38.81401,142],[-90.39235,38.81404,143],[-90.39233,38.81406,144],[-90.39229,38.81408,145],[-90.39225,38.8141,146],[-90.39222,38.81411,147],[-90.39217,38.81412,148],[-90.39213,38.81413,149],[-90.39209,38.81413,149],[-90.39205,38.81414,150],[-90.39201,38.81415,150],[-90.39198,38.81416,151],[-90.39195,38.81418,152],[-90.39193,38.81421,153],[-90.3919,38.81424,155],[-90.3919,38.81427,155],[-90.39189,38.8143,156],[-90.39187,38.81432,157],[-90.39188,38.81435,158],[-90.39189,38.81438,158],[-90.39189,38.81442,159],[-90.39189,38.81445,160],[-90.3919,38.81448,160],[-90.3919,38.81451,161],[-90.39191,38.81454,161],[-90.39194,38.81457,161],[-90.39196,38.8146,161],[-90.39198,38.81463,161],[-90.39198,38.81466,161],[-90.39199,38.81469,161],[-90.39199,38.81472,162],[-90.39201,38.81475,162],[-90.39203,38.81479,162],[-90.39202,38.81482,162],[-90.392,38.81485,163],[-90.39198,38.81488,163],[-90.39196,38.81491,164],[-90.39197,38.81494,164],[-90.39198,38.81497,164],[-90.39199,38.81501,165],[-90.39203,38.81504,165],[-90.39205,38.81507,165],[-90.39206,38.8151,166],[-90.39205,38.81513,167],[-90.39204,38.81517,169],[-90.39202,38.8152,171],[-90.39201,38.81523,172],[-90.392,38.81526,173],[-90.392,38.81529,174],[-90.39201,38.81531,174],[-90.39202,38.81534,173],[-90.39203,38.81537,173],[-90.39205,38.81541,173],[-90.39205,38.81544,173],[-90.39205,38.81547,173],[-90.39204,38.8155,173],[-90.39202,38.81553,174],[-90.39202,38.81556,174],[-90.392,38.81558,175],[-90.39199,38.81561,174],[-90.39198,38.81564,174],[-90.39197,38.81567,174],[-90.39192,38.81568,175],[-90.39189,38.81568,176],[-90.39184,38.81567,177],[-90.3918,38.81569,178],[-90.39177,38.8157,179],[-90.39172,38.8157,180],[-90.39168,38.81568,181],[-90.39164,38.81566,182],[-90.39161,38.81564,182],[-90.39157,38.81561,183],[-90.39154,38.81559,183],[-90.3915,38.81556,184],[-90.39146,38.81554,184],[-90.39143,38.81552,184],[-90.39139,38.81549,185],[-90.39136,38.81547,185],[-90.39132,38.81546,185],[-90.39128,38.81545,185],[-90.39124,38.81545,185],[-90.39119,38.81545,186],[-90.39116,38.81545,186],[-90.39111,38.81545,186],[-90.39108,38.81548,186],[-90.39106,38.8155,186],[-90.39101,38.8155,185],[-90.39098,38.81552,185],[-90.39095,38.81552,185],[-90.3909,38.81552,185],[-90.39085,38.81553,185],[-90.39082,38.81554,185],[-90.39078,38.81555,184],[-90.39073,38.81554,184],[-90.39068,38.81554,183],[-90.39064,38.81553,183],[-90.3906,38.81552,182],[-90.39056,38.81551,182],[-90.39052,38.81551,181],[-90.39047,38.8155,181],[-90.39043,38.8155,180],[-90.39039,38.81548,180],[-90.39036,38.81547,180],[-90.39033,38.81545,180],[-90.39029,38.81543,179],[-90.39025,38.81542,179],[-90.39021,38.8154,180],[-90.39017,38.81538,180],[-90.39014,38.81537,180],[-90.3901,38.81537,180],[-90.39006,38.81535,180],[-90.39003,38.81533,181],[-90.38999,38.81531,181],[-90.38995,38.8153,181],[-90.38992,38.81527,182],[-90.38988,38.81526,182],[-90.38985,38.81523,183],[-90.38984,38.81521,184],[-90.38981,38.81519,184],[-90.38978,38.81517,185],[-90.38974,38.81515,185],[-90.3897,38.81513,186],[-90.38967,38.81511,186],[-90.38964,38.81508,187],[-90.38961,38.81506,187],[-90.38959,38.81503,188],[-90.38956,38.81501,188],[-90.38953,38.81498,188],[-90.38949,38.81495,188],[-90.38948,38.81493,188],[-90.38947,38.8149,189],[-90.38946,38.81486,189],[-90.38944,38.81483,189],[-90.38944,38.8148,190],[-90.38943,38.81477,190],[-90.38942,38.81473,190],[-90.38943,38.8147,190],[-90.38944,38.81467,190],[-90.38948,38.81464,190],[-90.3895,38.81462,190],[-90.3895,38.81459,190],[-90.38949,38.81456,190],[-90.38948,38.81453,190],[-90.38947,38.8145,190],[-90.38947,38.81447,190],[-90.38946,38.81443,189],[-90.38945,38.81441,189],[-90.38943,38.81438,189],[-90.38941,38.81436,189],[-90.38938,38.81433,189],[-90.38934,38.81431,190],[-90.38929,38.8143,190],[-90.38925,38.81428,191],[-90.38921,38.81427,191],[-90.38918,38.81425,192],[-90.38913,38.81423,192],[-90.38909,38.81421,192],[-90.38905,38.8142,192],[-90.38901,38.8142,192],[-90.38897,38.8142,192],[-90.38892,38.81421,192],[-90.38888,38.8142,193],[-90.38884,38.8142,193],[-90.38881,38.81419,194],[-90.38878,38.81417,194],[-90.38874,38.81415,195],[-90.3887,38.81414,195],[-90.38866,38.81413,196],[-90.38862,38.81412,196],[-90.38858,38.81411,196],[-90.38854,38.81409,197],[-90.38851,38.81408,197],[-90.38847,38.81406,197],[-90.38842,38.81405,197],[-90.38838,38.81404,198],[-90.38835,38.81402,198],[-90.38832,38.814,198],[-90.38828,38.81398,198],[-90.38824,38.81396,198],[-90.3882,38.81395,198],[-90.38816,38.81395,198],[-90.38812,38.81395,198],[-90.38807,38.81394,199],[-90.38803,38.81394,199],[-90.388,38.81395,199],[-90.38795,38.81396,199],[-90.38791,38.81397,199],[-90.38787,38.81398,199],[-90.38782,38.81398,199],[-90.38778,38.81397,199],[-90.38773,38.81396,200],[-90.38769,38.81396,200],[-90.38766,38.81395,200],[-90.38763,38.81393,200],[-90.38761,38.81391,200],[-90.38758,38.81389,199],[-90.38754,38.81387,199],[-90.38751,38.81385,199],[-90.38748,38.81381,198],[-90.38748,38.81379,198],[-90.38749,38.81376,198],[-90.38749,38.81373,197],[-90.3875,38.8137,197],[-90.3875,38.81367,196],[-90.3875,38.81364,196],[-90.38751,38.81361,196],[-90.38752,38.81358,195],[-90.38752,38.81355,195],[-90.38753,38.81352,195],[-90.38753,38.81349,195],[-90.38753,38.81347,195],[-90.38754,38.81344,195],[-90.38755,38.81341,194],[-90.38755,38.81338,194],[-90.38755,38.81334,194],[-90.38755,38.81331,194],[-90.38757,38.81328,194],[-90.38762,38.81327,194],[-90.38766,38.81327,194],[-90.3877,38.81327,194],[-90.38774,38.81327,195],[-90.38778,38.81327,195],[-90.38782,38.81327,195],[-90.38786,38.81327,195],[-90.38789,38.81325,194],[-90.38792,38.81323,194],[-90.38793,38.81321,194],[-90.38795,38.81318,193],[-90.38797,38.81316,193],[-90.38799,38.81313,192],[-90.388,38.8131,192],[-90.38801,38.81307,191],[-90.38802,38.81304,191],[-90.38803,38.81301,190],[-90.38804,38.81298,190],[-90.38803,38.81295,190],[-90.38801,38.81292,189],[-90.38802,38.81289,189],[-90.38803,38.81285,188],[-90.38803,38.81282,188],[-90.38803,38.81279,188],[-90.38805,38.81276,187],[-90.38809,38.81275,186],[-90.38813,38.81274,184],[-90.38816,38.81273,183],[-90.3882,38.81271,182],[-90.38823,38.8127,181],[-90.38827,38.81269,180],[-90.38831,38.8127,179],[-90.38835,38.8127,177],[-90.38837,38.81268,177],[-90.38841,38.81267,175],[-90.38845,38.81267,174],[-90.38847,38.81264,173],[-90.38849,38.81262,172],[-90.38851,38.8126,172],[-90.38854,38.81258,171],[-90.38855,38.81255,170],[-90.38855,38.81252,170],[-90.38857,38.8125,169],[-90.38858,38.81247,169],[-90.38859,38.81244,168],[-90.38856,38.81242,168],[-90.38855,38.81238,168],[-90.38856,38.81235,167],[-90.38858,38.81232,166],[-90.3886,38.81229,165],[-90.38862,38.81227,164],[-90.38865,38.81225,164],[-90.38869,38.81224,163],[-90.38873,38.81223,163],[-90.38875,38.81221,162],[-90.38876,38.81218,162],[-90.38878,38.81215,161],[-90.38878,38.81211,161],[-90.38877,38.81208,160],[-90.38875,38.81205,160],[-90.38872,38.81203,161],[-90.38868,38.81202,161],[-90.38864,38.812,161],[-90.38861,38.81197,162],[-90.38859,38.81195,162],[-90.38856,38.81192,163],[-90.38853,38.8119,163],[-90.38852,38.81187,164],[-90.38852,38.81184,164],[-90.38853,38.81181,164],[-90.38855,38.81178,164],[-90.38857,38.81175,164],[-90.3886,38.81172,164],[-90.38862,38.81169,164],[-90.38865,38.81166,164],[-90.38868,38.81164,163],[-90.38871,38.81162,163],[-90.38875,38.8116,162],[-90.38878,38.81158,161],[-90.38878,38.81154,161],[-90.38879,38.81151,161],[-90.38883,38.81151,160],[-90.38887,38.81152,159],[-90.38891,38.81152,158],[-90.38894,38.8115,157],[-90.38897,38.81148,156],[-90.38901,38.81147,155],[-90.38906,38.81146,154],[-90.38909,38.81145,153],[-90.38912,38.81143,153],[-90.38915,38.81141,152],[-90.38919,38.81138,152],[-90.38922,38.81136,152],[-90.38925,38.81133,152],[-90.3893,38.81133,152],[-90.38933,38.81134,152],[-90.38937,38.81135,152],[-90.38941,38.81134,152],[-90.38942,38.81131,152],[-90.38944,38.81128,152],[-90.38945,38.81125,151],[-90.38947,38.81122,151],[-90.38949,38.81119,151],[-90.3895,38.81116,151],[-90.38954,38.81114,151],[-90.38959,38.81114,151],[-90.38963,38.81114,151],[-90.38966,38.81115,151],[-90.3897,38.81116,150],[-90.38974,38.81117,150],[-90.38978,38.81117,149],[-90.38982,38.81116,149],[-90.38985,38.81115,149],[-90.3899,38.81113,148],[-90.38993,38.81112,147],[-90.38997,38.81112,147],[-90.39001,38.81113,146],[-90.39006,38.81114,145],[-90.3901,38.81114,145],[-90.39014,38.81115,144],[-90.39018,38.81116,144],[-90.39023,38.81116,143],[-90.39026,38.81116,143],[-90.39031,38.81115,142],[-90.39035,38.81115,142],[-90.39039,38.81116,142],[-90.39043,38.81117,142],[-90.39048,38.81119,142],[-90.39051,38.81121,142],[-90.39054,38.81122,142],[-90.39058,38.81123,142],[-90.39062,38.81123,142],[-90.39067,38.81122,142],[-90.3907,38.81123,142],[-90.39073,38.81125,142],[-90.39077,38.81127,142],[-90.3908,38.81129,142],[-90.39083,38.81132,142],[-90.39086,38.81134,142],[-90.39089,38.81135,142],[-90.39091,38.81138,142],[-90.39094,38.81139,142],[-90.39097,38.81141,142],[-90.391,38.81142,142],[-90.39104,38.81144,142],[-90.39106,38.81147,142],[-90.39107,38.8115,142],[-90.39106,38.81153,143],[-90.39107,38.81156,143],[-90.3911,38.81157,143],[-90.3911,38.8116,144],[-90.39107,38.81162,144],[-90.39104,38.81164,145],[-90.39102,38.81168,145],[-90.39099,38.81171,146],[-90.39098,38.81175,147],[-90.39096,38.81177,147],[-90.39095,38.8118,148],[-90.39095,38.81184,148],[-90.39097,38.81186,149],[-90.39098,38.8119,149],[-90.39098,38.81193,150],[-90.39098,38.81196,150],[-90.39097,38.812,150],[-90.39095,38.81204,150],[-90.39095,38.81207,149],[-90.39094,38.81211,149],[-90.39092,38.81214,149],[-90.39091,38.81217,149],[-90.39092,38.8122,149],[-90.39093,38.81223,149],[-90.39096,38.81225,148],[-90.39097,38.81228,148],[-90.39098,38.8123,147],[-90.39099,38.81233,146],[-90.391,38.81236,145],[-90.39101,38.81239,145],[-90.39102,38.81242,144],[-90.39102,38.81245,143],[-90.39101,38.81248,142],[-90.39101,38.81251,142],[-90.39101,38.81254,143],[-90.39102,38.81257,143],[-90.39102,38.8126,144],[-90.39105,38.81263,144],[-90.39106,38.81266,145],[-90.39107,38.8127,145],[-90.39107,38.81273,146],[-90.39108,38.81275,146],[-90.39108,38.81279,147],[-90.3911,38.81281,147],[-90.39113,38.81284,148],[-90.39115,38.81287,148],[-90.39116,38.8129,149],[-90.39117,38.81294,150],[-90.39119,38.81297,150],[-90.39121,38.81299,150],[-90.39123,38.81303,151],[-90.39125,38.81307,152],[-90.39126,38.8131,152],[-90.3913,38.81312,151],[-90.39135,38.81314,150],[-90.39139,38.81314,150],[-90.39141,38.81317,149],[-90.39142,38.81319,149],[-90.39142,38.81322,150],[-90.39144,38.81325,149],[-90.39147,38.81327,149],[-90.3915,38.81329,149],[-90.39154,38.8133,148],[-90.39157,38.81332,148],[-90.39161,38.81335,147],[-90.39164,38.81337,146],[-90.39165,38.8134,146],[-90.39166,38.81343,145],[-90.39168,38.81346,145],[-90.39169,38.81348,144],[-90.3917,38.81352,143],[-90.39171,38.81356,143],[-90.39172,38.81358,142],[-90.39174,38.81361,142],[-90.39176,38.81363,142],[-90.39178,38.81366,142],[-90.3918,38.81369,142],[-90.39183,38.81372,141],[-90.39187,38.81374,141],[-90.3919,38.81376,140],[-90.39194,38.81378,139],[-90.39196,38.81381,138],[-90.392,38.81383,137],[-90.39203,38.81386,136],[-90.39205,38.81388,136],[-90.39209,38.81391,136],[-90.39212,38.81393,137],[-90.39215,38.81396,138],[-90.39218,38.81398,139],[-90.39221,38.81401,141],[-90.39224,38.81402,141],[-90.39229,38.81401,141],[-90.39233,38.814,141],[-90.39236,38.81397,139],[-90.39238,38.81395,139],[-90.39239,38.81393,138],[-90.39242,38.81389,136],[-90.39244,38.81386,137],[-90.39245,38.81383,137],[-90.39246,38.81381,137],[-90.39249,38.81378,138],[-90.3925,38.81374,138],[-90.39251,38.81371,138],[-90.39252,38.81367,138],[-90.39253,38.81364,138],[-90.39254,38.81361,138],[-90.39256,38.81358,138],[-90.39258,38.81355,138],[-90.39259,38.81352,137],[-90.39261,38.81349,137],[-90.39263,38.81347,137],[-90.39265,38.81345,137],[-90.39267,38.81341,136],[-90.39269,38.81338,136],[-90.39273,38.81335,135],[-90.39276,38.81334,135],[-90.39278,38.81332,134],[-90.39281,38.8133,134],[-90.39283,38.81328,134],[-90.39286,38.81325,134],[-90.3929,38.81322,133],[-90.39294,38.81319,133],[-90.39297,38.81316,133],[-90.39301,38.81314,133],[-90.39304,38.8131,133],[-90.39307,38.81307,132],[-90.3931,38.81305,133],[-90.39313,38.81303,133],[-90.39316,38.813,133],[-90.39319,38.81298,133],[-90.39321,38.81296,133],[-90.39324,38.81294,133],[-90.39327,38.81292,133],[-90.3933,38.81291,134],[-90.39332,38.81289,134],[-90.39335,38.81287,134],[-90.3934,38.81285,134],[-90.39344,38.81283,134],[-90.39349,38.81281,134],[-90.39352,38.8128,134],[-90.39356,38.81278,134],[-90.3936,38.81275,134],[-90.39364,38.81273,134],[-90.39367,38.81271,134],[-90.3937,38.81269,134],[-90.39372,38.81267,134],[-90.39376,38.81264,135],[-90.3938,38.81261,135],[-90.39382,38.8126,135],[-90.39385,38.81258,136],[-90.39388,38.81256,136],[-90.39391,38.81253,136],[-90.39395,38.81251,136],[-90.39398,38.81248,137],[-90.39402,38.81246,137],[-90.39405,38.81243,137],[-90.39409,38.8124,137],[-90.39411,38.81238,137],[-90.39414,38.81236,137],[-90.39416,38.81234,137],[-90.39418,38.81232,137],[-90.39421,38.8123,137],[-90.39423,38.81228,137],[-90.39427,38.81225,137],[-90.3943,38.81222,138],[-90.39433,38.81219,138],[-90.39437,38.81216,138],[-90.39441,38.81214,138],[-90.39444,38.81211,138],[-90.39447,38.81209,137],[-90.39449,38.81207,137],[-90.39451,38.81205,137],[-90.39455,38.81202,137],[-90.39458,38.81199,137],[-90.39462,38.81196,137],[-90.39464,38.81194,137],[-90.39468,38.81191,136],[-90.3947,38.81189,136],[-90.39474,38.81186,135],[-90.39477,38.81184,135],[-90.39481,38.81181,135],[-90.39484,38.81178,134],[-90.39486,38.81176,134],[-90.3949,38.81173,133],[-90.39494,38.8117,133],[-90.39498,38.81168,133],[-90.39502,38.81165,132],[-90.39505,38.81163,132],[-90.39508,38.81161,132],[-90.39512,38.81159,132],[-90.39515,38.81157,132],[-90.39517,38.81154,132],[-90.39519,38.81151,132]]],
        "bbox": [
          -90.38748,
          38.8157,
          -90.39519,
          38.81112
        ]
      },
      "properties": {
        "name": "4.15.2022"
      }
    }
  ]
}