{
  "type": "FeatureCollection",
  "features": [
    {
      "type": "Feature",
      "geometry": {
        "type": "MultiLineString",
        "coordinates": [[[-90.39494,38.81158,132],[-90.3949,38.81156,132],[-90.39484,38.81158,133],[-90.3948,38.81161,133],[-90.39476,38.81164,133],[-90.39472,38.81168,134],[-90.39467,38.8117,134],[-90.39462,38.81173,135],[-90.39456,38.8118,135],[-90.39448,38.81191,137],[-90.39444,38.81199,138],[-90.3944,38.81204,138],[-90.39438,38.81209,138],[-90.39435,38.81214,138],[-90.39431,38.81219,138],[-90.39427,38.81223,137],[-90.39423,38.81226,137],[-90.39419,38.8123,137],[-90.39415,38.81234,137],[-90.39411,38.81238,137],[-90.39406,38.81242,137],[-90.39401,38.81246,137],[-90.39396,38.8125,137],[-90.39391,38.81254,136],[-90.39387,38.81257,136],[-90.39381,38.8126,135],[-90.39377,38.81263,135],[-90.39373,38.81267,134],[-90.39368,38.8127,134],[-90.39363,38.81273,134],[-90.39357,38.81276,134],[-90.39352,38.8128,134],[-90.39348,38.81284,134],[-90.39343,38.81286,134],[-90.39336,38.81289,134],[-90.39331,38.81292,133],[-90.39328,38.81291,134],[-90.39328,38.81297,133],[-90.39324,38.81301,133],[-90.39319,38.81304,133],[-90.39315,38.81309,132],[-90.3931,38.81313,132],[-90.39306,38.81316,132],[-90.39302,38.8132,133],[-90.39298,38.81324,133],[-90.39294,38.81328,133],[-90.3929,38.81332,134],[-90.39286,38.81336,134],[-90.39281,38.81339,135]],[[-90.39252,38.81365,138],[-90.3925,38.8137,138],[-90.39249,38.81373,138],[-90.3925,38.81373,138],[-90.3925,38.81374,138],[-90.39251,38.81375,138],[-90.39246,38.81382,137],[-90.39245,38.81383,137],[-90.39242,38.81385,136],[-90.39237,38.81386,136],[-90.39236,38.81391,136],[-90.3923,38.81395,138],[-90.39226,38.81398,139],[-90.39221,38.81401,141],[-90.39216,38.81405,143],[-90.39215,38.81407,145],[-90.3921,38.81407,145],[-90.39205,38.8141,147],[-90.39198,38.8141,148],[-90.39193,38.81413,150],[-90.3919,38.81416,152],[-90.39188,38.81417,153],[-90.39186,38.81421,155],[-90.39182,38.81424,157],[-90.39176,38.81425,158],[-90.39175,38.81425,159],[-90.3917,38.81426,160],[-90.39166,38.81428,162],[-90.39163,38.81428,162],[-90.39164,38.81429,163],[-90.39162,38.81427,162],[-90.39168,38.81435,163],[-90.39175,38.81445,164],[-90.39178,38.81458,165],[-90.39181,38.8147,166],[-90.39185,38.8148,166],[-90.39187,38.81489,167],[-90.39186,38.81494,168],[-90.39187,38.81499,168],[-90.3919,38.81504,168],[-90.39194,38.81507,168],[-90.39196,38.81512,169],[-90.39196,38.81518,172],[-90.39195,38.81522,173],[-90.39193,38.81527,175],[-90.39194,38.81531,176],[-90.39196,38.81537,176],[-90.39198,38.81541,175],[-90.39199,38.81546,175],[-90.39198,38.8155,176],[-90.39197,38.81552,176],[-90.39198,38.81556,176],[-90.39199,38.81555,175],[-90.39198,38.81555,176],[-90.39198,38.81557,175],[-90.39194,38.81557,177],[-90.39188,38.81555,179],[-90.39186,38.81556,179],[-90.39189,38.81564,177],[-90.39186,38.81566,177],[-90.39184,38.81567,177],[-90.3918,38.8157,178],[-90.39172,38.81574,179],[-90.39169,38.81574,180],[-90.39165,38.81577,180],[-90.39167,38.81583,179],[-90.3917,38.81586,178],[-90.3917,38.81587,178],[-90.39169,38.81592,177],[-90.39168,38.81597,176],[-90.39169,38.81602,175],[-90.3917,38.81605,174],[-90.39171,38.81608,173],[-90.39172,38.8161,172],[-90.39169,38.81611,173],[-90.39168,38.81611,173],[-90.39167,38.8161,174],[-90.39168,38.81611,173],[-90.39167,38.81613,173],[-90.39167,38.81614,172],[-90.39166,38.81613,173],[-90.39162,38.8161,174],[-90.3916,38.81608,175],[-90.39161,38.81609,174],[-90.39161,38.81606,175],[-90.39161,38.81608,175],[-90.39162,38.81608,175],[-90.39164,38.81608,174],[-90.39164,38.81607,175],[-90.39163,38.81607,175],[-90.39162,38.81608,175],[-90.39162,38.81609,174],[-90.39161,38.81611,174],[-90.3916,38.81611,174],[-90.39158,38.81608,175],[-90.39157,38.81607,175],[-90.39157,38.81605,175],[-90.39156,38.81605,175],[-90.39157,38.81606,175],[-90.39159,38.81606,175],[-90.39161,38.81607,175],[-90.39161,38.81605,175],[-90.39162,38.81608,175],[-90.39162,38.81609,174],[-90.39162,38.8161,174],[-90.39162,38.81612,174],[-90.39161,38.8161,174],[-90.3916,38.81607,175],[-90.39157,38.81604,176],[-90.39152,38.81601,177],[-90.39153,38.81602,176],[-90.39154,38.81603,176],[-90.39154,38.81605,176],[-90.39152,38.8161,175],[-90.39155,38.8162,172],[-90.39153,38.8163,169],[-90.39155,38.8164,166],[-90.39154,38.81641,166],[-90.39155,38.81641,166],[-90.39154,38.81642,166],[-90.39156,38.81647,164],[-90.39157,38.8165,163],[-90.39151,38.81651,164],[-90.3915,38.81652,164],[-90.39148,38.81652,164],[-90.39141,38.81652,166],[-90.39134,38.81653,166],[-90.39129,38.81657,166],[-90.39124,38.81658,166],[-90.39123,38.81658,166],[-90.3912,38.81657,167],[-90.39117,38.81657,167],[-90.39117,38.81656,168],[-90.39115,38.81659,167],[-90.39115,38.81667,165],[-90.39104,38.8167,165],[-90.39099,38.8167,165],[-90.39093,38.81669,166],[-90.39091,38.81668,166],[-90.39089,38.8167,166],[-90.39087,38.81671,166],[-90.39081,38.81671,166],[-90.39075,38.81673,166],[-90.39067,38.81674,166],[-90.3906,38.81674,166],[-90.39055,38.81672,167],[-90.39053,38.81671,167],[-90.39053,38.81672,167],[-90.39053,38.81683,166],[-90.39053,38.81691,165],[-90.39052,38.81692,165],[-90.39054,38.81696,164],[-90.3905,38.81693,165],[-90.39045,38.81689,166],[-90.3904,38.81685,166],[-90.39038,38.81681,167],[-90.39036,38.81676,167],[-90.39034,38.81674,168],[-90.39032,38.81673,168],[-90.39035,38.81671,168],[-90.39038,38.81669,168],[-90.39045,38.81667,168],[-90.39052,38.81667,168],[-90.3906,38.81668,167],[-90.39067,38.81669,167],[-90.39074,38.81671,166],[-90.39082,38.81671,166],[-90.39087,38.81673,165],[-90.39093,38.81675,164],[-90.391,38.81677,163],[-90.39106,38.81679,162],[-90.39112,38.81682,161],[-90.39118,38.81683,160],[-90.39123,38.8168,160],[-90.39127,38.81677,160],[-90.39132,38.81675,160],[-90.39133,38.81674,160],[-90.39135,38.81669,161],[-90.3914,38.81665,162],[-90.39143,38.81661,162],[-90.39145,38.81658,163],[-90.39147,38.81657,163],[-90.39147,38.81653,164],[-90.39148,38.81653,164],[-90.39147,38.81653,164],[-90.39146,38.81654,164],[-90.39143,38.81655,164],[-90.39147,38.81649,165],[-90.39151,38.81643,166],[-90.39153,38.81639,167],[-90.39155,38.81638,167],[-90.39156,38.81637,167],[-90.39156,38.81636,167],[-90.39157,38.81632,168],[-90.39156,38.81626,170],[-90.39155,38.8162,172],[-90.39156,38.81615,173],[-90.39158,38.8161,174],[-90.39161,38.81605,175],[-90.39162,38.816,176],[-90.39164,38.81595,177],[-90.39165,38.81589,178],[-90.39165,38.81584,179],[-90.39168,38.81578,180]],[[-90.39172,38.81575,179],[-90.39174,38.81576,178],[-90.39176,38.81577,178],[-90.39173,38.81575,179],[-90.39168,38.81571,181],[-90.39161,38.81568,181],[-90.39155,38.81566,182],[-90.39148,38.81566,182],[-90.39141,38.81563,183],[-90.39133,38.8156,184],[-90.39127,38.81558,185],[-90.39121,38.81557,185],[-90.39115,38.81559,185],[-90.39107,38.8156,185],[-90.391,38.81559,185],[-90.39094,38.81559,185],[-90.39087,38.81558,184],[-90.39081,38.81557,184],[-90.39074,38.81555,184],[-90.39067,38.81552,183],[-90.3906,38.81551,182],[-90.39053,38.81549,182],[-90.39048,38.81548,181],[-90.39045,38.81547,181],[-90.3904,38.81545,181],[-90.39034,38.81543,180],[-90.39027,38.81541,180],[-90.39022,38.81538,180],[-90.39016,38.81534,181],[-90.3901,38.81532,181],[-90.39004,38.8153,181],[-90.39,38.81526,182],[-90.38995,38.81522,183],[-90.3899,38.8152,184],[-90.38984,38.81517,185],[-90.38978,38.81513,186],[-90.38972,38.8151,186],[-90.38967,38.81507,187],[-90.38963,38.81503,188],[-90.38959,38.81499,188],[-90.38955,38.81495,188],[-90.38951,38.81493,188],[-90.38951,38.81488,189],[-90.38952,38.81483,190],[-90.38952,38.81478,190],[-90.38951,38.81473,191],[-90.38951,38.81469,191],[-90.3895,38.81463,190],[-90.3895,38.81457,190],[-90.38952,38.81452,190],[-90.38953,38.81447,189],[-90.3895,38.81441,189],[-90.38947,38.81438,189],[-90.3895,38.81433,188],[-90.38952,38.81431,188],[-90.38947,38.81433,188],[-90.3894,38.81431,189],[-90.38935,38.8143,190],[-90.38929,38.81428,190],[-90.38923,38.81426,191],[-90.38917,38.81424,192],[-90.3891,38.81421,192],[-90.38905,38.81419,192],[-90.38898,38.81418,192],[-90.38891,38.81418,192],[-90.38885,38.81418,193],[-90.3888,38.81415,194],[-90.38874,38.81414,194],[-90.38867,38.81414,195],[-90.38861,38.81414,196],[-90.38855,38.81413,197],[-90.38849,38.81411,197],[-90.38843,38.81408,197],[-90.38837,38.81406,198],[-90.38832,38.81404,198],[-90.38827,38.81401,198],[-90.38822,38.81399,198],[-90.38815,38.81397,198],[-90.38808,38.81396,199],[-90.38801,38.81396,199],[-90.38795,38.81396,199],[-90.38787,38.81395,199],[-90.3878,38.81395,199],[-90.38774,38.81396,200],[-90.38768,38.81396,200],[-90.38763,38.81394,200],[-90.38758,38.81391,200],[-90.38753,38.81388,199],[-90.3875,38.81382,198],[-90.38749,38.8138,198],[-90.3875,38.8138,198],[-90.3875,38.81379,198],[-90.38749,38.81377,198],[-90.3875,38.81372,197],[-90.38751,38.81367,196],[-90.38753,38.81362,196],[-90.38755,38.81358,196],[-90.38756,38.81353,195],[-90.38759,38.81349,195],[-90.3876,38.81349,195],[-90.38762,38.81349,195],[-90.38762,38.81348,195],[-90.38756,38.81347,195],[-90.38751,38.81345,194],[-90.3875,38.81341,194],[-90.38756,38.8134,194],[-90.38764,38.81339,195],[-90.38771,38.81339,195],[-90.38777,38.81336,196],[-90.3878,38.81332,195],[-90.38784,38.81329,195],[-90.38788,38.81325,194],[-90.38791,38.8132,194],[-90.38795,38.81316,193],[-90.38797,38.81312,192],[-90.38799,38.81308,191],[-90.388,38.81303,191],[-90.38801,38.81298,190],[-90.38803,38.81293,189],[-90.38805,38.81288,189],[-90.38809,38.81284,187],[-90.38814,38.81281,186],[-90.38818,38.81277,184],[-90.38823,38.81274,182],[-90.38828,38.81272,180],[-90.38831,38.81271,179],[-90.38837,38.8127,177],[-90.38844,38.81268,174],[-90.38849,38.81264,173],[-90.38853,38.81261,171],[-90.38857,38.81257,170],[-90.38861,38.81253,169],[-90.38862,38.81248,168],[-90.38863,38.81243,167],[-90.38863,38.81238,166],[-90.38866,38.81233,165],[-90.38871,38.8123,164],[-90.38874,38.81226,163],[-90.38877,38.81221,162],[-90.3888,38.81217,161],[-90.38878,38.81212,161],[-90.38873,38.81209,161],[-90.38869,38.81206,161],[-90.38864,38.81202,162],[-90.38861,38.81198,162],[-90.3886,38.81192,162],[-90.3886,38.81187,162],[-90.38861,38.81181,163],[-90.38863,38.81176,163],[-90.38867,38.81172,163],[-90.3887,38.81168,163],[-90.38874,38.81164,162],[-90.38876,38.81159,161],[-90.38877,38.81155,161],[-90.38882,38.81151,160],[-90.38889,38.81149,158],[-90.38896,38.81148,156],[-90.38902,38.81145,155],[-90.38908,38.81143,154],[-90.38914,38.81138,152],[-90.3892,38.81136,152],[-90.38927,38.81136,152],[-90.38933,38.81136,152],[-90.38939,38.81134,152],[-90.38943,38.8113,152],[-90.38946,38.81126,151],[-90.3895,38.81122,151],[-90.38955,38.81119,151],[-90.38961,38.81117,151],[-90.38965,38.81118,151],[-90.3897,38.81119,150],[-90.38969,38.81119,150],[-90.38969,38.81117,150],[-90.38967,38.81116,151],[-90.38972,38.81113,150],[-90.38975,38.81108,150],[-90.38982,38.81107,149],[-90.38988,38.81107,148],[-90.39,38.81109,146],[-90.39014,38.81109,144],[-90.39026,38.81114,143],[-90.39035,38.81118,142],[-90.39041,38.8112,142],[-90.39047,38.81122,142],[-90.39052,38.81125,142],[-90.39057,38.81128,142],[-90.39064,38.81126,142],[-90.39069,38.81124,142],[-90.39076,38.81122,141],[-90.39083,38.81122,141],[-90.39088,38.81122,141],[-90.39087,38.81122,141],[-90.39087,38.81121,141],[-90.39089,38.81122,141],[-90.39091,38.81123,141],[-90.3909,38.81123,141],[-90.3909,38.81126,141],[-90.39096,38.81129,141],[-90.39102,38.81133,141],[-90.39103,38.81138,141],[-90.391,38.81143,142],[-90.39096,38.81147,143],[-90.39093,38.81152,144],[-90.3909,38.81157,145],[-90.3909,38.81162,145],[-90.3909,38.81167,146],[-90.39087,38.81172,147],[-90.39084,38.81177,147],[-90.39083,38.81183,148],[-90.39081,38.81188,148],[-90.39079,38.81192,148],[-90.39078,38.81197,148],[-90.39081,38.81202,149],[-90.39085,38.81208,149],[-90.39092,38.81213,149],[-90.39096,38.81217,149],[-90.39098,38.81222,149],[-90.39098,38.81227,148],[-90.39098,38.81232,146],[-90.39099,38.81238,145],[-90.39103,38.81243,143],[-90.39105,38.81247,142],[-90.39107,38.81253,142],[-90.3911,38.81257,142],[-90.3911,38.81263,143],[-90.39113,38.81267,144],[-90.39117,38.81271,144],[-90.3912,38.81276,145],[-90.39122,38.81281,146],[-90.39125,38.81286,147],[-90.39127,38.81291,147],[-90.39127,38.81296,149],[-90.39127,38.81301,150],[-90.3913,38.81305,151],[-90.39132,38.81306,151],[-90.39138,38.81305,149],[-90.39136,38.81301,149],[-90.3914,38.81301,148],[-90.39145,38.81303,147],[-90.3915,38.81307,147],[-90.39152,38.81317,147],[-90.39158,38.81326,147],[-90.39166,38.81336,146],[-90.39174,38.8135,143],[-90.3918,38.81361,142],[-90.39186,38.8137,141],[-90.39193,38.81379,139],[-90.39202,38.81387,136],[-90.3921,38.81392,137],[-90.39214,38.81396,138],[-90.39218,38.814,140],[-90.39223,38.81403,142]],[[-90.39231,38.81406,144],[-90.39235,38.8141,146],[-90.39239,38.81413,148],[-90.39245,38.81417,150],[-90.39249,38.8142,150],[-90.39252,38.81424,151],[-90.39257,38.81427,151],[-90.39257,38.81425,151],[-90.39255,38.81426,151],[-90.39253,38.81426,151],[-90.39257,38.81422,150],[-90.39258,38.81423,150],[-90.39257,38.81423,150],[-90.39261,38.81426,150],[-90.39263,38.81427,150],[-90.39263,38.81428,151],[-90.39264,38.81429,151],[-90.39263,38.81429,151],[-90.39263,38.81428,151],[-90.39265,38.8143,151],[-90.39263,38.81431,151],[-90.39269,38.81434,151],[-90.39274,38.81443,153],[-90.39284,38.8145,151],[-90.39289,38.81453,150],[-90.39295,38.81455,148],[-90.39299,38.81459,147],[-90.39299,38.81465,147],[-90.393,38.8147,147],[-90.39304,38.81473,146],[-90.39306,38.81476,146],[-90.39312,38.81479,145],[-90.39316,38.81483,144],[-90.39317,38.81488,144],[-90.3932,38.81493,144],[-90.39319,38.81499,145],[-90.39315,38.81504,145],[-90.39311,38.81509,146],[-90.39308,38.81513,146],[-90.39303,38.81517,147],[-90.393,38.81521,147],[-90.39297,38.81526,148],[-90.39293,38.81531,148],[-90.3929,38.81535,147],[-90.39287,38.81539,147],[-90.39284,38.81544,146],[-90.39284,38.81545,146],[-90.39282,38.81545,146],[-90.39282,38.81546,146],[-90.39283,38.81547,145],[-90.39284,38.81545,146],[-90.39284,38.81547,145],[-90.39284,38.81546,146],[-90.39283,38.81547,145],[-90.39275,38.81554,146],[-90.39269,38.8156,147],[-90.39265,38.81565,148],[-90.39261,38.8157,148],[-90.39262,38.81575,147],[-90.39263,38.8158,145],[-90.39264,38.81586,144],[-90.39265,38.81591,144],[-90.39266,38.81596,143],[-90.39265,38.81601,144],[-90.39262,38.81607,145],[-90.39257,38.81612,146],[-90.39252,38.81616,147],[-90.39246,38.81618,148],[-90.39241,38.8162,149],[-90.39239,38.81621,150],[-90.39238,38.81626,148],[-90.39238,38.81631,147],[-90.39237,38.81635,146],[-90.39236,38.8164,145],[-90.39233,38.81644,146],[-90.39228,38.81648,146],[-90.39224,38.81651,147],[-90.3922,38.81655,147],[-90.39216,38.81659,148],[-90.39211,38.81662,148],[-90.39207,38.81667,148],[-90.39203,38.8167,149],[-90.39199,38.81674,149],[-90.39193,38.81676,150],[-90.39187,38.81677,151],[-90.39182,38.8168,150],[-90.39179,38.81684,150],[-90.39178,38.81688,149],[-90.39173,38.81692,148],[-90.39168,38.81694,148],[-90.39162,38.81696,148],[-90.39156,38.81699,147],[-90.39152,38.81702,147],[-90.39147,38.81706,146],[-90.39145,38.8171,145],[-90.3914,38.81714,144],[-90.39134,38.81717,144],[-90.39129,38.8172,143],[-90.39122,38.81722,144],[-90.39116,38.81723,144],[-90.39112,38.81726,144],[-90.39114,38.81729,143],[-90.39112,38.8173,143],[-90.39107,38.81733,143],[-90.39102,38.81737,143],[-90.39097,38.81741,143],[-90.39092,38.81744,142],[-90.39089,38.81748,142],[-90.39084,38.81753,141],[-90.3908,38.81756,141],[-90.39077,38.8176,141],[-90.39073,38.81764,140],[-90.39067,38.81766,141],[-90.39062,38.81768,141],[-90.39056,38.81769,141],[-90.39055,38.81769,141],[-90.39049,38.81771,142],[-90.39044,38.81774,142],[-90.39039,38.81777,142],[-90.39036,38.81781,141],[-90.39031,38.81785,141],[-90.39026,38.81784,142],[-90.39025,38.81784,142],[-90.39024,38.81784,142],[-90.39018,38.81786,143],[-90.39012,38.81788,144],[-90.39009,38.81784,145],[-90.39008,38.81784,145],[-90.39007,38.81784,145],[-90.39001,38.81784,146],[-90.38998,38.81788,146],[-90.38995,38.81792,146],[-90.38988,38.81794,146],[-90.38981,38.81796,147],[-90.38977,38.818,147],[-90.38971,38.81798,148],[-90.38966,38.81796,148],[-90.38959,38.81793,149],[-90.38953,38.81792,149],[-90.38947,38.81791,150],[-90.38941,38.81791,150],[-90.38935,38.81792,151],[-90.38928,38.81793,152],[-90.38921,38.81794,153],[-90.38916,38.81796,153],[-90.38911,38.81797,154],[-90.38906,38.818,154],[-90.38899,38.81801,155],[-90.38893,38.81804,156],[-90.38888,38.81808,156],[-90.38885,38.81812,155],[-90.38883,38.81817,153],[-90.3888,38.81822,152],[-90.38875,38.81825,151],[-90.3887,38.81827,151],[-90.38864,38.81828,152],[-90.3886,38.81832,150],[-90.38856,38.81836,148],[-90.3885,38.81836,148],[-90.38845,38.81839,147],[-90.3884,38.81843,145],[-90.38837,38.81847,144],[-90.38833,38.81853,141],[-90.38829,38.81857,140],[-90.38826,38.81862,139],[-90.38821,38.81867,139],[-90.3882,38.81871,139],[-90.38817,38.81871,139],[-90.38811,38.81872,140],[-90.38805,38.81873,140],[-90.38799,38.81872,141],[-90.38793,38.81874,142],[-90.38788,38.81877,142],[-90.38782,38.8188,142],[-90.38776,38.81882,143],[-90.3877,38.81884,142],[-90.38765,38.81886,142],[-90.3876,38.81889,141],[-90.38756,38.81893,140],[-90.38754,38.81897,139],[-90.3875,38.81902,137],[-90.38744,38.81906,136],[-90.38739,38.81909,135],[-90.38734,38.81911,134],[-90.38732,38.81912,134],[-90.38731,38.81912,134],[-90.38728,38.81913,133],[-90.38727,38.81913,133],[-90.38728,38.81912,134],[-90.38727,38.81913,133],[-90.38726,38.81914,133],[-90.38725,38.81914,133],[-90.38723,38.81913,133],[-90.38718,38.81911,134],[-90.38716,38.81912,134],[-90.38711,38.81915,133],[-90.38704,38.81917,132],[-90.38698,38.8192,132],[-90.38693,38.81925,132],[-90.38688,38.81928,133],[-90.38682,38.81931,133],[-90.38681,38.81936,132],[-90.3868,38.81936,132],[-90.38675,38.81939,132],[-90.38674,38.81944,132],[-90.3867,38.81947,131],[-90.38669,38.81948,131],[-90.3867,38.81949,131],[-90.38671,38.81948,131],[-90.38671,38.81949,131],[-90.38672,38.81951,131],[-90.38671,38.81951,131],[-90.3867,38.81951,131],[-90.38668,38.81951,131],[-90.38668,38.8195,131],[-90.38669,38.81948,131],[-90.38667,38.8195,131],[-90.38666,38.8195,131],[-90.38663,38.81953,131],[-90.38662,38.81957,131],[-90.38662,38.81956,131],[-90.38663,38.81957,131],[-90.38658,38.81956,131],[-90.38652,38.81956,131],[-90.38653,38.81956,131],[-90.38653,38.81955,131],[-90.38652,38.81955,131],[-90.38651,38.81952,131],[-90.38652,38.81953,131],[-90.38652,38.81954,131],[-90.38653,38.81954,131],[-90.38652,38.81953,131],[-90.38651,38.81953,131],[-90.38648,38.81957,131],[-90.3864,38.81959,131],[-90.38634,38.8196,131],[-90.38629,38.81963,131],[-90.38624,38.81966,131],[-90.38618,38.81967,132],[-90.38612,38.81968,132],[-90.3861,38.8197,131],[-90.3861,38.81971,131],[-90.38612,38.81972,131],[-90.38606,38.81971,131],[-90.386,38.81969,132],[-90.38593,38.81969,132],[-90.38586,38.8197,131],[-90.3858,38.81972,131],[-90.38574,38.81974,131],[-90.38568,38.81973,131],[-90.38564,38.81973,131],[-90.38564,38.81974,131],[-90.3856,38.81976,131],[-90.38559,38.81976,131],[-90.38557,38.81975,131],[-90.38555,38.81972,131],[-90.38551,38.81973,131],[-90.38556,38.8197,131],[-90.38566,38.81971,131],[-90.38582,38.8197,131],[-90.38596,38.81969,132],[-90.3861,38.81969,131],[-90.38622,38.81967,131],[-90.38627,38.81964,132],[-90.38632,38.8196,131],[-90.38637,38.81957,131],[-90.38643,38.81955,131],[-90.38649,38.81953,131],[-90.38655,38.81953,131],[-90.38661,38.81952,131],[-90.38665,38.81948,131],[-90.38668,38.81943,132],[-90.38672,38.8194,132],[-90.38677,38.81936,133],[-90.38683,38.81933,133],[-90.38689,38.81931,132],[-90.38694,38.81929,132],[-90.387,38.81927,132],[-90.38706,38.81926,132],[-90.38711,38.81923,132],[-90.38718,38.81921,132],[-90.38722,38.81917,132],[-90.38726,38.81913,133],[-90.3873,38.81909,135],[-90.38735,38.81906,136],[-90.3874,38.81903,137],[-90.38743,38.81898,139],[-90.38746,38.81893,140],[-90.3875,38.8189,141],[-90.38754,38.81886,142],[-90.38759,38.81882,143],[-90.38766,38.81881,143],[-90.38773,38.81879,143],[-90.38778,38.81877,143],[-90.38784,38.81874,143],[-90.38789,38.81871,143],[-90.38794,38.81866,143],[-90.38799,38.81864,142],[-90.38805,38.81863,141],[-90.38812,38.81862,140],[-90.38818,38.81859,140],[-90.38825,38.81858,140],[-90.3883,38.81854,141],[-90.38835,38.81852,141],[-90.38838,38.81847,144],[-90.38843,38.81843,145],[-90.38848,38.8184,147],[-90.38854,38.81837,148],[-90.38859,38.81833,150],[-90.38864,38.81829,151],[-90.38869,38.81828,151],[-90.38875,38.81827,150],[-90.38879,38.81822,152],[-90.38881,38.81817,154],[-90.38884,38.81813,154],[-90.38887,38.81808,156],[-90.38892,38.81804,156],[-90.38897,38.81801,156],[-90.38903,38.818,155],[-90.38909,38.81797,154],[-90.38914,38.81794,154],[-90.3892,38.81791,154],[-90.38927,38.8179,153],[-90.38935,38.81791,151],[-90.3894,38.81792,150],[-90.38947,38.81793,149],[-90.38953,38.81794,149],[-90.38958,38.81798,148],[-90.38965,38.81799,148],[-90.38971,38.81798,148],[-90.38976,38.81795,147],[-90.38981,38.81792,147],[-90.38987,38.8179,147],[-90.38993,38.81787,147],[-90.38996,38.81783,147],[-90.38998,38.8178,147],[-90.39003,38.81777,147],[-90.39003,38.81772,148],[-90.39,38.8177,149],[-90.38994,38.8177,149],[-90.38991,38.81768,150],[-90.3899,38.81767,150],[-90.38997,38.81768,149],[-90.39003,38.81769,148],[-90.39003,38.8177,148],[-90.39006,38.81772,147],[-90.39012,38.81774,146],[-90.39018,38.81775,145],[-90.39024,38.81774,144],[-90.3903,38.81774,143],[-90.39036,38.81772,143],[-90.39042,38.81771,142],[-90.39048,38.8177,142],[-90.39053,38.81769,142],[-90.39052,38.8177,142],[-90.39053,38.81773,141],[-90.39055,38.81772,141],[-90.39055,38.81774,140],[-90.39054,38.81773,141],[-90.3906,38.81771,140],[-90.39061,38.81771,140],[-90.39067,38.81773,139],[-90.39068,38.81773,139],[-90.39072,38.81768,140],[-90.39076,38.81761,140],[-90.39072,38.81758,142],[-90.39069,38.81753,143],[-90.39066,38.81748,145],[-90.39063,38.81744,146],[-90.39061,38.8174,148],[-90.39062,38.81737,149],[-90.39067,38.81739,148],[-90.39073,38.8174,146],[-90.3908,38.81739,146],[-90.39086,38.8174,144],[-90.39091,38.81738,144],[-90.39095,38.81737,144],[-90.39101,38.81734,144],[-90.39106,38.8173,144],[-90.3911,38.81726,145],[-90.39114,38.81722,145],[-90.39118,38.81717,147],[-90.39123,38.81713,147],[-90.39127,38.8171,148],[-90.39131,38.81707,148],[-90.39136,38.81703,149],[-90.3914,38.81699,150],[-90.39143,38.81694,152],[-90.39149,38.81692,151],[-90.39155,38.81691,151],[-90.39162,38.8169,150],[-90.39169,38.81689,149],[-90.39174,38.81685,150],[-90.39178,38.81682,150],[-90.39182,38.81678,151],[-90.39184,38.81673,151],[-90.39188,38.81669,151],[-90.39193,38.81666,151],[-90.39199,38.81664,150],[-90.39206,38.81662,149],[-90.39211,38.8166,148],[-90.39215,38.81656,148],[-90.39219,38.81651,148],[-90.39221,38.81646,148],[-90.39224,38.81641,148],[-90.39227,38.81636,148],[-90.39232,38.81634,148],[-90.39235,38.81629,148],[-90.39237,38.81624,149],[-90.39238,38.8162,150],[-90.39237,38.81618,151],[-90.39238,38.81618,151],[-90.39237,38.81618,151],[-90.39237,38.81617,151],[-90.3924,38.81616,150],[-90.3924,38.81612,151],[-90.39241,38.81611,151],[-90.39247,38.81612,149],[-90.39254,38.81612,147],[-90.3926,38.8161,145],[-90.39264,38.81605,144],[-90.39265,38.816,144],[-90.39264,38.81596,144],[-90.39262,38.81591,145],[-90.3926,38.81585,145],[-90.39259,38.81579,147],[-90.39258,38.81574,148],[-90.39258,38.81569,149],[-90.3926,38.81564,150],[-90.39261,38.81559,150],[-90.39263,38.81554,151],[-90.39266,38.81549,150],[-90.39271,38.81545,150],[-90.39275,38.81541,149],[-90.3928,38.81538,149],[-90.39287,38.81535,148],[-90.39292,38.81532,148],[-90.39298,38.81529,147],[-90.39303,38.81528,146],[-90.39303,38.81527,146],[-90.39305,38.81524,146],[-90.39309,38.81521,145],[-90.39311,38.81516,145],[-90.39314,38.81512,145],[-90.39315,38.81507,145],[-90.39314,38.81502,145],[-90.3931,38.81497,146],[-90.39307,38.81493,147],[-90.39301,38.8149,147],[-90.39297,38.81486,148],[-90.39296,38.81481,148],[-90.39296,38.81476,148],[-90.39295,38.81471,148],[-90.39292,38.81467,149],[-90.39289,38.81462,149],[-90.39286,38.81457,150],[-90.39281,38.81456,151],[-90.39276,38.81453,152],[-90.39273,38.81448,153],[-90.39269,38.81444,153],[-90.39263,38.81441,153],[-90.39257,38.81439,154],[-90.39251,38.81437,154],[-90.39246,38.81433,153],[-90.39242,38.8143,152],[-90.39238,38.81426,152],[-90.39233,38.81423,151],[-90.39229,38.81419,151],[-90.39226,38.81415,149],[-90.39226,38.8141,146],[-90.3923,38.81405,143],[-90.39233,38.81401,141],[-90.39237,38.81398,140],[-90.39236,38.81394,138],[-90.39236,38.81392,137],[-90.39231,38.81393,137],[-90.39231,38.81388,134],[-90.39234,38.81384,135],[-90.39238,38.81378,137],[-90.3924,38.81374,137],[-90.39244,38.81371,138],[-90.39248,38.81367,138],[-90.39252,38.81363,138],[-90.39254,38.81358,138],[-90.39259,38.81355,138],[-90.39264,38.81352,137],[-90.39268,38.81348,137],[-90.39272,38.81343,136],[-90.39275,38.81339,135],[-90.3928,38.81336,135],[-90.39285,38.81333,134],[-90.3929,38.8133,134],[-90.39294,38.81326,133],[-90.39298,38.81321,133],[-90.39303,38.81318,133],[-90.39308,38.81314,132],[-90.39313,38.8131,132],[-90.39318,38.81307,132],[-90.39323,38.81304,133],[-90.39328,38.81301,133],[-90.39333,38.81297,133],[-90.39338,38.81294,133],[-90.39342,38.81291,133],[-90.39347,38.81288,133],[-90.3935,38.81284,133],[-90.39357,38.81284,133],[-90.39363,38.81284,133],[-90.3937,38.81282,133],[-90.39375,38.8128,133],[-90.39381,38.81276,134],[-90.39385,38.81274,134],[-90.39391,38.81271,134],[-90.39395,38.81267,134],[-90.39398,38.81262,135],[-90.39401,38.81257,136],[-90.39405,38.81253,136],[-90.39409,38.81249,137],[-90.39412,38.81245,137],[-90.39416,38.81241,137],[-90.39421,38.81237,137],[-90.39426,38.81234,137],[-90.3943,38.8123,137],[-90.39435,38.81226,137],[-90.3944,38.81223,137],[-90.39445,38.81219,137],[-90.39448,38.81216,137],[-90.39453,38.81212,137],[-90.39456,38.81207,137],[-90.39459,38.81203,137],[-90.39465,38.812,137],[-90.39469,38.81196,137],[-90.39473,38.81192,136],[-90.39477,38.81189,136],[-90.39482,38.81186,135],[-90.39486,38.81182,134],[-90.3949,38.81178,134],[-90.39494,38.81175,133],[-90.39499,38.81171,133],[-90.39502,38.81167,133],[-90.39502,38.81162,132],[-90.39501,38.81162,132]]],
        "bbox": [
          -90.38551,
          38.81976,
          -90.39502,
          38.81107
        ]
      },
      "properties": {
        "name": "4.27.2018"
      }
    }
  ]
}