{
  "type": "FeatureCollection",
  "features": [
    {
      "type": "Feature",
      "geometry": {
        "type": "MultiLineString",
        "coordinates": [[[-90.39078,38.81083,138],[-90.39082,38.81083,138],[-90.39084,38.81086,138],[-90.39083,38.81089,138],[-90.39084,38.81092,138],[-90.39085,38.81094,139],[-90.39086,38.81097,139],[-90.39086,38.811,139],[-90.39085,38.81104,140],[-90.39085,38.81107,140],[-90.39084,38.81111,140],[-90.39083,38.81114,141],[-90.39082,38.81116,141],[-90.39079,38.81119,141],[-90.39075,38.8112,141],[-90.39072,38.81122,142],[-90.39069,38.81125,142],[-90.39065,38.81126,142],[-90.39061,38.81127,142],[-90.39056,38.81127,142],[-90.39052,38.81126,142],[-90.39048,38.81125,142],[-90.39044,38.81123,142],[-90.3904,38.81121,142],[-90.39037,38.8112,142],[-90.39033,38.81119,142],[-90.39029,38.81118,142],[-90.39026,38.8112,143],[-90.39022,38.8112,143],[-90.39018,38.81119,144],[-90.39015,38.81118,144],[-90.39011,38.81118,145],[-90.39007,38.81117,145],[-90.39002,38.81117,146],[-90.38998,38.81117,146],[-90.38994,38.81117,147],[-90.38991,38.81118,147],[-90.38989,38.8112,148],[-90.38985,38.81121,148],[-90.38981,38.81122,149],[-90.38976,38.81122,149],[-90.38973,38.81121,150],[-90.38969,38.81121,150],[-90.38964,38.8112,151],[-90.38959,38.81121,151],[-90.38957,38.81123,151],[-90.38954,38.81125,151],[-90.38952,38.81129,151],[-90.3895,38.81132,151],[-90.38949,38.81135,151],[-90.38948,38.81138,151],[-90.38945,38.8114,152],[-90.38941,38.81141,152],[-90.38938,38.8114,152],[-90.38934,38.8114,152],[-90.3893,38.8114,152],[-90.38927,38.81143,152],[-90.38924,38.81145,152],[-90.38922,38.81148,152],[-90.38919,38.81151,152],[-90.38916,38.81152,152],[-90.38912,38.81153,153],[-90.38908,38.81154,154],[-90.38905,38.81155,154],[-90.38902,38.81157,155],[-90.38898,38.81158,157],[-90.38894,38.81159,158],[-90.3889,38.81159,159],[-90.38888,38.81161,159],[-90.38886,38.81164,160],[-90.38883,38.81166,160],[-90.3888,38.81168,161],[-90.38877,38.8117,161],[-90.38874,38.81173,161],[-90.38871,38.81175,162],[-90.38869,38.81178,162],[-90.38868,38.81181,162],[-90.38866,38.81184,162],[-90.38865,38.81187,162],[-90.38867,38.8119,161],[-90.3887,38.81191,160],[-90.38872,38.81194,160],[-90.38874,38.81197,159],[-90.38876,38.81199,159],[-90.3888,38.812,159],[-90.38882,38.81203,159],[-90.38884,38.81205,159],[-90.38886,38.81208,159],[-90.38886,38.81212,160],[-90.38886,38.81215,160],[-90.38885,38.81218,161],[-90.38883,38.81222,162],[-90.38881,38.81225,162],[-90.38879,38.81228,163],[-90.38876,38.8123,163],[-90.38874,38.81233,164],[-90.38873,38.81236,164],[-90.38871,38.81238,165],[-90.38869,38.81241,166],[-90.38872,38.81243,166],[-90.38871,38.81247,166],[-90.3887,38.8125,167],[-90.38869,38.81253,167],[-90.38868,38.81256,168],[-90.38867,38.81258,168],[-90.38866,38.81261,168],[-90.38863,38.81263,169],[-90.3886,38.81265,169],[-90.38857,38.81267,170],[-90.38853,38.81269,172],[-90.3885,38.81271,173],[-90.38846,38.81272,174],[-90.38843,38.81273,175],[-90.38841,38.81276,176],[-90.38836,38.81277,178],[-90.38833,38.81277,180],[-90.38829,38.81279,181],[-90.38826,38.8128,182],[-90.38822,38.81282,183],[-90.38818,38.81282,184],[-90.38815,38.81283,185],[-90.38813,38.81286,186],[-90.38812,38.81289,187],[-90.38811,38.81292,188],[-90.38811,38.81295,188],[-90.38811,38.81298,188],[-90.38811,38.81301,189],[-90.3881,38.81304,189],[-90.38809,38.81307,190],[-90.38808,38.8131,191],[-90.38805,38.81312,192],[-90.38804,38.81315,192],[-90.38801,38.81318,193],[-90.38799,38.8132,193],[-90.38797,38.81323,194],[-90.38795,38.81326,194],[-90.38792,38.81328,195],[-90.3879,38.8133,195],[-90.38786,38.81332,195],[-90.38782,38.81333,195],[-90.38778,38.81333,195],[-90.38775,38.81333,195],[-90.38771,38.81334,195],[-90.38768,38.81334,195],[-90.38765,38.81336,195],[-90.38765,38.81339,195],[-90.38765,38.81342,195],[-90.38764,38.81345,195],[-90.38763,38.81348,195],[-90.38762,38.81351,196],[-90.38762,38.81354,196],[-90.38761,38.81357,196],[-90.38761,38.8136,196],[-90.38761,38.81363,197],[-90.3876,38.81366,197],[-90.38759,38.81369,197],[-90.38758,38.81372,197],[-90.38758,38.81374,198],[-90.38757,38.81377,198],[-90.38757,38.8138,198],[-90.38758,38.81383,199],[-90.38761,38.81385,199],[-90.38764,38.81387,199],[-90.38768,38.81389,199],[-90.38771,38.81391,200],[-90.38775,38.81392,200],[-90.3878,38.81392,199],[-90.38784,38.81392,199],[-90.38788,38.81391,199],[-90.38793,38.81391,199],[-90.38796,38.8139,199],[-90.388,38.81389,199],[-90.38804,38.81389,199],[-90.38807,38.81388,198],[-90.38812,38.81388,198],[-90.38816,38.81388,198],[-90.38819,38.81389,198],[-90.38824,38.81391,198],[-90.38829,38.81393,198],[-90.38832,38.81394,198],[-90.38837,38.81395,197],[-90.38841,38.81396,197],[-90.38845,38.81398,197],[-90.38849,38.814,196],[-90.38852,38.81402,196],[-90.38855,38.81403,196],[-90.38859,38.81404,196],[-90.38863,38.81405,195],[-90.38867,38.81406,195],[-90.38871,38.81407,194],[-90.38875,38.81408,194],[-90.3888,38.8141,193],[-90.38884,38.81411,193],[-90.38888,38.81413,192],[-90.38891,38.81415,192],[-90.38896,38.81416,192],[-90.38899,38.81417,192],[-90.38904,38.81417,192],[-90.38908,38.81417,192],[-90.38912,38.81417,192],[-90.38917,38.81418,192],[-90.38921,38.81421,192],[-90.38925,38.81422,191],[-90.3893,38.81424,190],[-90.38934,38.81425,190],[-90.38937,38.81427,189],[-90.3894,38.81428,189],[-90.38943,38.81429,189],[-90.38946,38.81431,188],[-90.3895,38.81434,188],[-90.38953,38.81437,188],[-90.38954,38.8144,189],[-90.38956,38.81442,189],[-90.38957,38.81446,189],[-90.38957,38.8145,189],[-90.38956,38.81453,190],[-90.38956,38.81457,190],[-90.38956,38.8146,190],[-90.38956,38.81464,190],[-90.38956,38.81467,191],[-90.38955,38.8147,191],[-90.38956,38.81474,191],[-90.38956,38.81478,190],[-90.38956,38.81481,190],[-90.38957,38.81484,190],[-90.38958,38.81488,189],[-90.38959,38.81491,189],[-90.38961,38.81493,189],[-90.38964,38.81496,189],[-90.38967,38.81498,189],[-90.3897,38.81501,188],[-90.38974,38.81504,188],[-90.38976,38.81506,187],[-90.38978,38.81509,186],[-90.38982,38.81511,186],[-90.38986,38.81514,185],[-90.38989,38.81517,184],[-90.38993,38.81519,184],[-90.38996,38.81521,183],[-90.38999,38.81523,183],[-90.39002,38.81525,182],[-90.39004,38.81527,182],[-90.39008,38.8153,181],[-90.39013,38.81532,181],[-90.39017,38.81533,181],[-90.39021,38.81535,180],[-90.39025,38.81536,180],[-90.39029,38.81537,180],[-90.39033,38.81539,180],[-90.39036,38.8154,181],[-90.3904,38.81541,181],[-90.39043,38.81541,181],[-90.39046,38.81543,181],[-90.39051,38.81543,182],[-90.39055,38.81543,182],[-90.39059,38.81544,183],[-90.39063,38.81545,183],[-90.39066,38.81545,183],[-90.3907,38.81544,184],[-90.39075,38.81544,184],[-90.3908,38.81544,185],[-90.39084,38.81545,185],[-90.39089,38.81544,185],[-90.39093,38.81543,186],[-90.39096,38.81543,186],[-90.391,38.81542,186],[-90.39104,38.8154,186],[-90.39109,38.81539,186],[-90.39112,38.81538,186],[-90.39116,38.81538,186],[-90.39121,38.81539,186],[-90.39125,38.81539,186],[-90.39129,38.81539,185],[-90.39134,38.81541,185],[-90.39139,38.81542,185],[-90.39144,38.81543,184],[-90.39148,38.81544,184],[-90.39151,38.81546,183],[-90.39153,38.81549,183],[-90.39156,38.81551,183],[-90.39158,38.81554,183],[-90.39161,38.81556,183],[-90.39164,38.81558,182],[-90.39166,38.8156,182],[-90.39169,38.81563,181],[-90.39172,38.81565,180],[-90.39176,38.81567,179],[-90.39179,38.81569,178],[-90.3918,38.81573,177],[-90.3918,38.81576,177],[-90.39181,38.81579,176],[-90.39181,38.81583,175],[-90.39181,38.81585,175],[-90.39181,38.81588,174],[-90.39182,38.81592,173],[-90.39181,38.81596,173],[-90.39181,38.81599,172],[-90.3918,38.81603,171],[-90.3918,38.81606,171],[-90.39179,38.81609,170],[-90.39178,38.81612,170],[-90.39177,38.81616,169],[-90.39177,38.81619,168],[-90.39176,38.81623,166],[-90.39175,38.81627,166],[-90.39173,38.8163,165],[-90.39172,38.81633,164],[-90.3917,38.81636,164],[-90.39167,38.81638,164],[-90.39165,38.81642,163],[-90.39164,38.81645,162],[-90.39162,38.81647,162],[-90.39159,38.8165,162],[-90.39157,38.81653,162],[-90.39156,38.81656,161],[-90.39155,38.81658,161],[-90.39152,38.81661,161],[-90.3915,38.81664,160],[-90.39147,38.81666,160],[-90.39143,38.81668,160],[-90.3914,38.8167,160],[-90.39138,38.81672,160],[-90.39135,38.81674,160],[-90.39133,38.81677,159],[-90.39131,38.81679,159],[-90.39128,38.81681,159],[-90.39126,38.81683,158],[-90.39123,38.81685,158],[-90.3912,38.81687,158],[-90.39116,38.81687,159],[-90.39112,38.81686,160],[-90.3911,38.81684,161],[-90.39107,38.81682,162],[-90.39103,38.81682,162],[-90.391,38.81681,162],[-90.39096,38.8168,163],[-90.39093,38.81679,163],[-90.39091,38.8168,163],[-90.39089,38.81683,163],[-90.39088,38.81686,163],[-90.39085,38.81688,163],[-90.39081,38.81688,163],[-90.39078,38.81689,163],[-90.39074,38.8169,163],[-90.39068,38.8169,164],[-90.39065,38.81692,164],[-90.39061,38.81694,164],[-90.39057,38.81696,164],[-90.39057,38.81699,163],[-90.39058,38.81702,162],[-90.3906,38.81704,161],[-90.39062,38.81708,159],[-90.39063,38.81711,158],[-90.39062,38.81714,157],[-90.39063,38.81717,156],[-90.39061,38.81719,156],[-90.39063,38.81722,154],[-90.3906,38.81724,154],[-90.39058,38.81726,154],[-90.39058,38.81729,153],[-90.39061,38.81731,151],[-90.39062,38.81735,150],[-90.39065,38.81737,149],[-90.39068,38.8174,147],[-90.39069,38.81743,146],[-90.39071,38.81745,145],[-90.39072,38.81748,144],[-90.3907,38.81752,143],[-90.39066,38.81754,143],[-90.39063,38.81755,143],[-90.39061,38.81758,143],[-90.39059,38.81761,143],[-90.39055,38.81762,143],[-90.39052,38.81764,143],[-90.39048,38.81766,143],[-90.39044,38.81768,143],[-90.39041,38.8177,143],[-90.3904,38.81773,142],[-90.39036,38.81774,142],[-90.39032,38.81775,143],[-90.3903,38.81778,142],[-90.39026,38.8178,143],[-90.39023,38.81782,143],[-90.3902,38.81783,143],[-90.39016,38.81785,144],[-90.39013,38.81786,144],[-90.39009,38.81787,144],[-90.39006,38.81788,145],[-90.39002,38.81789,145],[-90.39,38.81792,145],[-90.38998,38.81794,145],[-90.38995,38.81797,145],[-90.38991,38.81799,145],[-90.38988,38.81801,145],[-90.38985,38.81804,145],[-90.3898,38.81805,145],[-90.38977,38.81805,146],[-90.38973,38.81806,146],[-90.38968,38.81807,146],[-90.38963,38.81807,146],[-90.3896,38.81806,146],[-90.38956,38.81803,147],[-90.38951,38.81802,147],[-90.38947,38.81803,147],[-90.38942,38.81803,147],[-90.38939,38.81803,148],[-90.38935,38.81803,148],[-90.38932,38.81805,148],[-90.38927,38.81805,149],[-90.38923,38.81805,149],[-90.38918,38.81805,149],[-90.38915,38.81806,150],[-90.38911,38.81807,150],[-90.38907,38.81809,151],[-90.38903,38.8181,151],[-90.38899,38.8181,152],[-90.38897,38.81813,152],[-90.38896,38.81816,150],[-90.38894,38.8182,150],[-90.38891,38.81822,150],[-90.38888,38.81825,149],[-90.38884,38.81827,149],[-90.38881,38.81829,148],[-90.38877,38.8183,149],[-90.38874,38.81832,148],[-90.38871,38.81834,148],[-90.3887,38.81837,147],[-90.38867,38.81838,147],[-90.38868,38.81835,148],[-90.38869,38.81831,149],[-90.38869,38.81829,150],[-90.38871,38.81826,151],[-90.38875,38.81825,151],[-90.38879,38.81823,151],[-90.38882,38.8182,152],[-90.38885,38.81817,153],[-90.38887,38.81814,154],[-90.38888,38.81811,155],[-90.38888,38.81808,156],[-90.38889,38.81805,157],[-90.38892,38.81803,156],[-90.38896,38.81803,155],[-90.389,38.81802,155],[-90.38904,38.81799,155],[-90.38907,38.81798,154],[-90.3891,38.81797,154],[-90.38914,38.81795,154],[-90.38918,38.81794,153],[-90.38923,38.81795,152],[-90.38927,38.81796,151],[-90.3893,38.81795,151],[-90.38935,38.81795,150],[-90.3894,38.81795,149],[-90.38943,38.81795,149],[-90.38948,38.81795,149],[-90.38952,38.81797,148],[-90.38956,38.81799,148],[-90.38959,38.818,147],[-90.38964,38.818,147],[-90.38969,38.81799,148],[-90.38973,38.81797,148],[-90.38976,38.81795,147],[-90.38979,38.81793,147],[-90.38983,38.81792,147],[-90.38987,38.8179,147],[-90.38989,38.81788,147],[-90.38991,38.81785,147],[-90.38994,38.81783,147],[-90.38998,38.81782,147],[-90.39002,38.8178,147],[-90.39006,38.81778,146],[-90.39009,38.81776,146],[-90.39012,38.81774,146],[-90.39015,38.81772,146],[-90.39018,38.8177,146],[-90.39021,38.81767,146],[-90.39024,38.81765,146],[-90.39028,38.81763,146],[-90.3903,38.81761,146],[-90.39035,38.81759,146],[-90.39038,38.81757,146],[-90.39042,38.81755,146],[-90.39043,38.81752,146],[-90.39044,38.81749,147],[-90.39047,38.81747,147],[-90.3905,38.81746,147],[-90.39053,38.81744,148],[-90.39057,38.81743,148],[-90.39055,38.8174,149],[-90.39052,38.81738,150],[-90.39051,38.81735,151],[-90.3905,38.81732,152],[-90.3905,38.81729,153],[-90.39049,38.81727,154],[-90.39048,38.81724,155],[-90.39048,38.81721,156],[-90.39047,38.81718,157],[-90.39046,38.81715,158],[-90.39046,38.81712,159],[-90.39046,38.81709,160],[-90.39047,38.81706,161],[-90.39047,38.81703,162],[-90.39046,38.817,163],[-90.39046,38.81697,164],[-90.39047,38.81694,165],[-90.3905,38.81692,165],[-90.39053,38.8169,165],[-90.39055,38.81688,165],[-90.39058,38.81685,165],[-90.3906,38.81682,166],[-90.39064,38.8168,165],[-90.39068,38.81678,165],[-90.39071,38.81678,165],[-90.39075,38.81679,165],[-90.39079,38.81679,165],[-90.3908,38.81676,165],[-90.39083,38.81674,165],[-90.39086,38.81672,165],[-90.39088,38.8167,166],[-90.3909,38.81667,166],[-90.39094,38.81667,166],[-90.39098,38.81667,166],[-90.39102,38.81668,165],[-90.39106,38.8167,165],[-90.39109,38.81672,164],[-90.39111,38.81674,163],[-90.39114,38.81676,162],[-90.39118,38.81675,162],[-90.39122,38.81675,161],[-90.39125,38.81674,161],[-90.39127,38.81671,162],[-90.3913,38.81669,162],[-90.39133,38.81667,162],[-90.39135,38.81665,163],[-90.39139,38.81663,163],[-90.39143,38.8166,163],[-90.39145,38.81657,163],[-90.39146,38.81655,164],[-90.39149,38.81652,164],[-90.39152,38.81649,164],[-90.39153,38.81647,164],[-90.39155,38.81644,165],[-90.39158,38.81641,165],[-90.39159,38.81638,166],[-90.39162,38.81635,166],[-90.39164,38.81633,166],[-90.39165,38.8163,167],[-90.39166,38.81627,168],[-90.39167,38.81624,169],[-90.39167,38.8162,170],[-90.39168,38.81617,171],[-90.39168,38.81613,172],[-90.3917,38.81611,173],[-90.39171,38.81608,173],[-90.39172,38.81604,173],[-90.39172,38.81601,174],[-90.39172,38.81598,175],[-90.39173,38.81595,175],[-90.39173,38.81592,176],[-90.39173,38.8159,176],[-90.39173,38.81586,177],[-90.39172,38.81582,178],[-90.39171,38.81579,179],[-90.3917,38.81576,179],[-90.3917,38.81573,180],[-90.39168,38.8157,181],[-90.39165,38.81569,181],[-90.39162,38.81567,182],[-90.39159,38.81565,182],[-90.39156,38.81562,182],[-90.39154,38.8156,183],[-90.39151,38.81558,183],[-90.39148,38.81556,184],[-90.39145,38.81554,184],[-90.39142,38.81553,184],[-90.39137,38.81552,185],[-90.39133,38.81552,185],[-90.39129,38.81552,185],[-90.39124,38.81551,185],[-90.3912,38.81551,185],[-90.39117,38.81551,185],[-90.39113,38.81552,186],[-90.39109,38.81552,186],[-90.39105,38.81553,185],[-90.391,38.81554,185],[-90.39096,38.81555,185],[-90.39092,38.81556,185],[-90.39087,38.81556,185],[-90.39083,38.81556,184],[-90.39078,38.81556,184],[-90.39075,38.81556,184],[-90.39069,38.81556,183],[-90.39065,38.81554,183],[-90.3906,38.81553,182],[-90.39055,38.81553,182],[-90.39051,38.81552,181],[-90.39047,38.81551,181],[-90.39043,38.8155,180],[-90.3904,38.81548,180],[-90.39036,38.81547,180],[-90.39032,38.81546,179],[-90.39028,38.81545,179],[-90.39024,38.81544,179],[-90.39021,38.81543,179],[-90.39016,38.81541,179],[-90.39013,38.8154,180],[-90.39009,38.81539,180],[-90.39004,38.81538,180],[-90.39001,38.81537,180],[-90.38998,38.81535,180],[-90.38994,38.81532,181],[-90.38991,38.8153,181],[-90.38988,38.81528,182],[-90.38986,38.81526,182],[-90.38982,38.81523,183],[-90.3898,38.81521,184],[-90.38978,38.81519,184],[-90.38974,38.81517,185],[-90.38971,38.81514,186],[-90.38969,38.81512,186],[-90.38966,38.81509,187],[-90.38963,38.81506,187],[-90.3896,38.81504,187],[-90.38957,38.81502,188],[-90.38955,38.81499,188],[-90.38954,38.81496,188],[-90.38953,38.81493,189],[-90.38952,38.81491,189],[-90.3895,38.81488,189],[-90.38949,38.81485,189],[-90.38948,38.81482,190],[-90.38947,38.81479,190],[-90.38946,38.81476,190],[-90.38945,38.81473,190],[-90.38944,38.8147,190],[-90.38944,38.81467,190],[-90.38944,38.81464,190],[-90.38944,38.81461,190],[-90.38944,38.81458,190],[-90.38946,38.81455,190],[-90.38946,38.81452,190],[-90.38946,38.81449,190],[-90.38946,38.81446,190],[-90.38945,38.81443,189],[-90.38943,38.8144,189],[-90.38942,38.81438,189],[-90.38939,38.81435,189],[-90.38935,38.81434,190],[-90.38932,38.81433,190],[-90.38928,38.81431,191],[-90.38925,38.81429,191],[-90.38922,38.81427,191],[-90.38918,38.81425,192],[-90.38914,38.81424,192],[-90.3891,38.81423,192],[-90.38906,38.81423,192],[-90.38901,38.81423,192],[-90.38898,38.81423,192],[-90.38894,38.81423,192],[-90.3889,38.81422,192],[-90.38886,38.81421,193],[-90.38882,38.8142,194],[-90.38878,38.81418,194],[-90.38873,38.81417,195],[-90.38869,38.81416,195],[-90.38865,38.81415,196],[-90.38862,38.81414,196],[-90.38858,38.81412,196],[-90.38854,38.81411,197],[-90.3885,38.81409,197],[-90.38847,38.81407,197],[-90.38843,38.81406,197],[-90.38839,38.81404,198],[-90.38835,38.81403,198],[-90.38831,38.81401,198],[-90.38827,38.814,198],[-90.38824,38.81399,198],[-90.38819,38.81399,198],[-90.38814,38.81399,199],[-90.38811,38.81399,199],[-90.38807,38.81399,199],[-90.38802,38.81399,199],[-90.38798,38.81399,199],[-90.38794,38.814,199],[-90.38789,38.81401,199],[-90.38784,38.81402,199],[-90.38779,38.81401,199],[-90.38776,38.81401,200],[-90.38771,38.814,200],[-90.38767,38.81398,200],[-90.38763,38.81395,200],[-90.38759,38.81393,200],[-90.38755,38.8139,200],[-90.38753,38.81388,199],[-90.38752,38.81385,199],[-90.38751,38.81382,199],[-90.38751,38.8138,198],[-90.38751,38.81377,198],[-90.38751,38.81374,197],[-90.3875,38.81371,197],[-90.3875,38.81368,196],[-90.3875,38.81365,196],[-90.3875,38.81361,195],[-90.3875,38.81357,195],[-90.3875,38.81354,195],[-90.38751,38.8135,195],[-90.38752,38.81347,195],[-90.38753,38.81343,194],[-90.38753,38.8134,194],[-90.38753,38.81336,194],[-90.38752,38.81333,194],[-90.38754,38.8133,194],[-90.38757,38.81329,194],[-90.38761,38.81329,194],[-90.38766,38.81328,194],[-90.3877,38.81328,194],[-90.38774,38.81328,195],[-90.38778,38.81328,195],[-90.38782,38.81327,195],[-90.38785,38.81326,195],[-90.38788,38.81324,194],[-90.38789,38.81321,194],[-90.38792,38.81318,193],[-90.38794,38.81316,193],[-90.38795,38.81313,192],[-90.38796,38.8131,192],[-90.38797,38.81307,191],[-90.38799,38.81305,191],[-90.388,38.81301,190],[-90.38801,38.81299,190],[-90.38801,38.81296,190],[-90.38801,38.81293,189],[-90.38801,38.81289,189],[-90.38803,38.81286,188],[-90.38803,38.81283,188],[-90.38804,38.8128,188],[-90.38807,38.81278,187],[-90.38811,38.81277,186],[-90.38815,38.81275,184],[-90.38818,38.81273,183],[-90.38821,38.81272,182],[-90.38824,38.81271,181],[-90.38828,38.81271,180],[-90.38832,38.8127,178],[-90.38835,38.81269,177],[-90.38839,38.81269,176],[-90.38843,38.81268,175],[-90.38845,38.81266,174],[-90.38847,38.81263,173],[-90.3885,38.8126,172],[-90.38853,38.81258,171],[-90.38854,38.81255,170],[-90.38856,38.81252,170],[-90.38859,38.81249,169],[-90.3886,38.81246,168],[-90.38857,38.81244,168],[-90.38855,38.81241,168],[-90.38856,38.81238,167],[-90.38857,38.81234,166],[-90.38858,38.81231,166],[-90.38862,38.81229,165],[-90.38865,38.81228,164],[-90.38868,38.81226,164],[-90.3887,38.81223,163],[-90.38872,38.8122,162],[-90.38873,38.81216,162],[-90.38872,38.81212,162],[-90.38871,38.81209,161],[-90.38867,38.81207,162],[-90.38864,38.81205,162],[-90.38863,38.81202,162],[-90.38861,38.81199,162],[-90.3886,38.81196,162],[-90.38858,38.81193,162],[-90.38858,38.8119,162],[-90.38858,38.81186,163],[-90.38858,38.81183,163],[-90.38859,38.8118,163],[-90.3886,38.81177,163],[-90.38862,38.81174,164],[-90.38864,38.81172,163],[-90.38867,38.81169,163],[-90.38869,38.81165,163],[-90.38872,38.81163,162],[-90.38875,38.81161,162],[-90.38877,38.81158,161],[-90.38879,38.81156,161],[-90.38883,38.81156,160],[-90.38886,38.81155,159],[-90.38889,38.81153,158],[-90.38892,38.81151,158],[-90.38895,38.81149,157],[-90.38899,38.81148,156],[-90.38903,38.81146,155],[-90.38906,38.81144,154],[-90.3891,38.81141,153],[-90.38913,38.81139,152],[-90.38916,38.81136,152],[-90.3892,38.81135,152],[-90.38924,38.81135,152],[-90.38929,38.81136,152],[-90.38933,38.81137,152],[-90.38936,38.81136,152],[-90.38938,38.81134,152],[-90.38939,38.81131,152],[-90.38941,38.81128,152],[-90.38943,38.81126,152],[-90.38946,38.81124,151],[-90.38947,38.81121,151],[-90.38949,38.81118,151],[-90.38952,38.81116,151],[-90.38956,38.81114,151],[-90.38961,38.81114,151],[-90.38966,38.81114,151],[-90.3897,38.81116,150],[-90.38974,38.81116,150],[-90.38978,38.81116,149],[-90.38982,38.81115,149],[-90.38986,38.81112,148],[-90.3899,38.81111,148],[-90.38995,38.81112,147],[-90.38999,38.81113,146],[-90.39003,38.81113,146],[-90.39006,38.81113,146],[-90.3901,38.81114,145],[-90.39014,38.81115,144],[-90.39019,38.81115,144],[-90.39023,38.81115,143],[-90.39027,38.81115,143],[-90.39032,38.81114,142],[-90.39036,38.81115,142],[-90.3904,38.81117,142],[-90.39044,38.81119,142],[-90.39048,38.81121,142],[-90.39052,38.81122,142],[-90.39055,38.81123,142],[-90.39059,38.81122,142],[-90.39062,38.81121,142],[-90.39065,38.81119,142],[-90.39068,38.81117,141],[-90.39073,38.81116,141],[-90.39077,38.81114,141],[-90.39079,38.81111,141]]],
        "bbox": [
          -90.3875,
          38.81838,
          -90.39182,
          38.81083
        ]
      },
      "properties": {
        "name": "4.21.2022"
      }
    }
  ]
}