{
  "type": "FeatureCollection",
  "features": [
    {
      "type": "Feature",
      "geometry": {
        "type": "MultiLineString",
        "coordinates": [[[-90.39501,38.81159,132],[-90.39504,38.81159,132],[-90.39505,38.81162,132],[-90.39503,38.81165,132],[-90.395,38.81167,133],[-90.39497,38.81169,133],[-90.39494,38.81171,133],[-90.39491,38.81173,133],[-90.39488,38.81175,134],[-90.39485,38.81177,134],[-90.39483,38.81179,134],[-90.3948,38.81182,135],[-90.39477,38.81185,135],[-90.39474,38.81187,136],[-90.39471,38.81189,136],[-90.39468,38.81191,136],[-90.39465,38.81194,137],[-90.39461,38.81196,137],[-90.39459,38.81198,137],[-90.39456,38.81201,137],[-90.39453,38.81203,137],[-90.3945,38.81206,137],[-90.39448,38.81208,137],[-90.39445,38.8121,137],[-90.39442,38.81213,138],[-90.39438,38.81215,138],[-90.39435,38.81217,138],[-90.39432,38.8122,138],[-90.39429,38.81222,138],[-90.39427,38.81224,137],[-90.39424,38.81228,137],[-90.39422,38.81231,137],[-90.39419,38.81233,137],[-90.39417,38.81235,137],[-90.39414,38.81238,137],[-90.39411,38.8124,137],[-90.39408,38.81243,137],[-90.39406,38.81245,137],[-90.39403,38.81248,137],[-90.39399,38.8125,137],[-90.39395,38.81252,136],[-90.39392,38.81254,136],[-90.39388,38.81256,136],[-90.39385,38.81259,135],[-90.39382,38.81261,135],[-90.39379,38.81264,135],[-90.39376,38.81266,135],[-90.39373,38.81267,134],[-90.39371,38.81269,134],[-90.39367,38.81271,134],[-90.39363,38.81274,134],[-90.39361,38.81275,134],[-90.39357,38.81277,134],[-90.39354,38.81279,134],[-90.3935,38.81282,134],[-90.39347,38.81283,134],[-90.39344,38.81285,134],[-90.39341,38.81287,134],[-90.39337,38.81287,134],[-90.39333,38.81287,134],[-90.39329,38.81284,134],[-90.39325,38.81281,134],[-90.39322,38.8128,134],[-90.39319,38.81278,134],[-90.39315,38.81276,134],[-90.39312,38.81274,134],[-90.39309,38.81272,134],[-90.39306,38.8127,134],[-90.39302,38.81268,134],[-90.39299,38.81268,134],[-90.39296,38.81267,134],[-90.39293,38.81264,134],[-90.3929,38.81263,134],[-90.39286,38.81262,134],[-90.39282,38.81261,134],[-90.3928,38.81259,134],[-90.39278,38.81257,134],[-90.39275,38.81255,134],[-90.39272,38.81252,134],[-90.39269,38.81251,134],[-90.39265,38.8125,134],[-90.39261,38.81248,135],[-90.39258,38.81246,135],[-90.39255,38.81243,135],[-90.39252,38.81241,135],[-90.39249,38.81239,135],[-90.39246,38.81237,135],[-90.39244,38.81234,135],[-90.39242,38.81231,135],[-90.3924,38.81228,135],[-90.39236,38.81226,135],[-90.39232,38.81224,135],[-90.39229,38.81222,135],[-90.39225,38.8122,135],[-90.39221,38.81218,136],[-90.39218,38.81217,136],[-90.39214,38.81215,136],[-90.39211,38.81214,136],[-90.39207,38.81213,136],[-90.39203,38.81212,137],[-90.39198,38.81213,137],[-90.39195,38.81213,137],[-90.3919,38.81215,137],[-90.39187,38.81217,137],[-90.39185,38.8122,137],[-90.39183,38.81222,137],[-90.39182,38.81226,137],[-90.3918,38.81229,136],[-90.39178,38.81232,136],[-90.39175,38.81234,136],[-90.39173,38.81237,136],[-90.3917,38.8124,136],[-90.39168,38.81243,135],[-90.39166,38.81246,135],[-90.39163,38.81249,135],[-90.39161,38.81251,135],[-90.39158,38.81253,135],[-90.39155,38.81256,136],[-90.39154,38.81259,137],[-90.39152,38.81263,138],[-90.39151,38.81266,138],[-90.3915,38.8127,139],[-90.3915,38.81273,140],[-90.39152,38.81276,140],[-90.39155,38.81278,140],[-90.3916,38.8128,140],[-90.39163,38.81282,140],[-90.39165,38.81284,140],[-90.39169,38.81286,139],[-90.39173,38.81288,139],[-90.39176,38.8129,139],[-90.3918,38.81292,139],[-90.39183,38.81294,138],[-90.39187,38.81296,138],[-90.39191,38.81298,138],[-90.39194,38.81299,138],[-90.39198,38.81302,138],[-90.392,38.81304,138],[-90.39203,38.81306,138],[-90.39206,38.81308,138],[-90.3921,38.81311,138],[-90.39214,38.81312,138],[-90.39216,38.81314,138],[-90.39219,38.81316,138],[-90.39222,38.81317,137],[-90.39225,38.81319,137],[-90.39228,38.81322,137],[-90.39231,38.81324,137],[-90.39234,38.81326,137],[-90.39237,38.81327,137],[-90.39241,38.8133,137],[-90.39244,38.81331,137],[-90.39249,38.81333,137],[-90.39252,38.81335,137],[-90.39256,38.81337,136],[-90.3926,38.81339,136],[-90.39263,38.81341,136],[-90.39267,38.81343,136],[-90.39268,38.81347,137],[-90.39265,38.8135,137],[-90.39263,38.81352,137],[-90.3926,38.81355,138],[-90.39258,38.81358,138],[-90.39257,38.81361,138],[-90.39255,38.81364,138],[-90.39254,38.81367,138],[-90.39253,38.8137,138],[-90.39252,38.81374,138],[-90.3925,38.81377,138],[-90.39247,38.81381,137],[-90.39245,38.81384,137],[-90.39242,38.81387,136],[-90.3924,38.8139,136],[-90.39238,38.81392,137],[-90.39236,38.81395,138],[-90.39234,38.81398,140],[-90.39232,38.81401,141],[-90.39229,38.81403,142],[-90.39225,38.81405,143],[-90.39221,38.81405,143],[-90.39217,38.81403,142],[-90.39214,38.814,141],[-90.3921,38.81397,139],[-90.39207,38.81396,139],[-90.39203,38.81394,139],[-90.392,38.81392,138],[-90.39197,38.8139,138],[-90.39194,38.81387,138],[-90.3919,38.81385,139],[-90.39187,38.81383,140],[-90.39184,38.81381,141],[-90.39181,38.8138,142],[-90.39178,38.81378,143],[-90.39175,38.81376,143],[-90.39171,38.81373,144],[-90.39169,38.81371,144],[-90.39167,38.81368,144],[-90.39164,38.81365,144],[-90.39161,38.81362,144],[-90.39158,38.81359,145],[-90.39156,38.81357,146],[-90.39154,38.81353,146],[-90.39153,38.8135,147],[-90.39153,38.81346,147],[-90.39153,38.81343,148],[-90.39154,38.81339,148],[-90.39153,38.81336,148],[-90.39151,38.81334,149],[-90.39148,38.81331,149],[-90.39145,38.81329,149],[-90.39141,38.81328,150],[-90.39137,38.81327,151],[-90.39134,38.81325,151],[-90.39131,38.81323,151],[-90.39127,38.81321,152],[-90.39123,38.81319,152],[-90.3912,38.81315,153],[-90.39119,38.81312,153],[-90.39118,38.81309,153],[-90.39116,38.81306,153],[-90.39115,38.81302,152],[-90.39113,38.813,152],[-90.39112,38.81297,151],[-90.3911,38.81294,151],[-90.39108,38.8129,150],[-90.39107,38.81287,149],[-90.39105,38.81284,149],[-90.39103,38.81281,148],[-90.39101,38.81279,148],[-90.39099,38.81275,148],[-90.39099,38.81271,147],[-90.39099,38.81268,146],[-90.39098,38.81265,145],[-90.39096,38.81263,145],[-90.39095,38.8126,145],[-90.39095,38.81256,144],[-90.39095,38.81253,143],[-90.39095,38.81249,142],[-90.39095,38.81246,143],[-90.39096,38.81243,144],[-90.39094,38.8124,145],[-90.39092,38.81237,146],[-90.39091,38.81234,146],[-90.39091,38.8123,147],[-90.3909,38.81227,148],[-90.39089,38.81223,149],[-90.39088,38.8122,149],[-90.39087,38.81217,149],[-90.39087,38.81213,149],[-90.39086,38.8121,149],[-90.39087,38.81207,149],[-90.39088,38.81203,149],[-90.3909,38.81199,149],[-90.39091,38.81197,149],[-90.39091,38.81194,149],[-90.39091,38.8119,149],[-90.3909,38.81186,148],[-90.3909,38.81183,148],[-90.39091,38.81179,147],[-90.39091,38.81175,147],[-90.39093,38.81172,147],[-90.39095,38.81168,146],[-90.39098,38.81165,145],[-90.39101,38.81164,145],[-90.39104,38.81162,144],[-90.39106,38.81159,144],[-90.39107,38.81156,143],[-90.39107,38.81153,143],[-90.39107,38.81149,142],[-90.39106,38.81145,142],[-90.39104,38.81142,141],[-90.39102,38.8114,141],[-90.391,38.81138,141],[-90.39097,38.81135,141],[-90.39094,38.81132,141],[-90.39091,38.81129,141],[-90.39089,38.81126,141],[-90.39087,38.81123,141],[-90.39085,38.81121,141],[-90.39082,38.81119,141],[-90.39079,38.81117,141],[-90.39078,38.81114,141],[-90.39078,38.8111,141],[-90.39079,38.81106,140],[-90.39079,38.81103,140],[-90.39079,38.811,140],[-90.39079,38.81096,139],[-90.39078,38.81093,139],[-90.39075,38.81091,139],[-90.39071,38.81089,139],[-90.39068,38.81086,139],[-90.39063,38.81084,139],[-90.39059,38.81083,139],[-90.39055,38.81082,140],[-90.39051,38.81081,140],[-90.39047,38.8108,140],[-90.39044,38.81079,140],[-90.3904,38.81076,140],[-90.39036,38.81076,140],[-90.39032,38.81075,140],[-90.39028,38.81075,141],[-90.39023,38.81075,141],[-90.39019,38.81075,141],[-90.39015,38.81075,141],[-90.3901,38.81075,142],[-90.39006,38.81075,142],[-90.39001,38.81074,142],[-90.38997,38.81074,142],[-90.38993,38.81073,143],[-90.38988,38.81072,143],[-90.38984,38.81071,143],[-90.3898,38.8107,143],[-90.38976,38.8107,144],[-90.38973,38.8107,144],[-90.38969,38.8107,144],[-90.38966,38.81069,144],[-90.38962,38.81068,144],[-90.38958,38.81067,144],[-90.38954,38.81067,144],[-90.3895,38.81065,144],[-90.38946,38.81064,144],[-90.38943,38.81062,144],[-90.3894,38.8106,144],[-90.38936,38.81059,144],[-90.38934,38.81057,144],[-90.38931,38.81055,143],[-90.38928,38.81053,144],[-90.38926,38.81051,144],[-90.38924,38.81048,144],[-90.38923,38.81045,143],[-90.38921,38.81042,143],[-90.38919,38.81038,143],[-90.3892,38.81036,143],[-90.38923,38.81033,143],[-90.38922,38.8103,142],[-90.3892,38.81027,142],[-90.38919,38.81025,143],[-90.38918,38.81022,143],[-90.38917,38.81018,143],[-90.38916,38.81015,143],[-90.38914,38.81012,144],[-90.38913,38.81009,144],[-90.38912,38.81006,144],[-90.38912,38.81002,144],[-90.38911,38.80999,145],[-90.38911,38.80996,145],[-90.38909,38.80992,145],[-90.38908,38.80989,145],[-90.38906,38.80985,145],[-90.38905,38.80982,145],[-90.38902,38.80978,145],[-90.389,38.80975,145],[-90.38899,38.80972,145],[-90.38896,38.80968,145],[-90.38894,38.80966,145],[-90.38891,38.80964,145],[-90.38888,38.80961,145],[-90.38886,38.80957,145],[-90.38883,38.80954,145],[-90.3888,38.80951,145],[-90.38879,38.80948,145],[-90.38877,38.80944,145],[-90.38875,38.8094,144],[-90.38874,38.80938,144],[-90.38872,38.80935,144],[-90.38871,38.80932,143],[-90.38869,38.80929,143],[-90.38868,38.80926,143],[-90.38865,38.80922,142],[-90.38863,38.80919,142],[-90.38862,38.80916,141],[-90.38861,38.80913,141],[-90.3886,38.8091,141],[-90.3886,38.80905,141],[-90.3886,38.80902,141],[-90.38861,38.80899,141],[-90.38861,38.80896,141],[-90.3886,38.80892,141],[-90.3886,38.80889,141],[-90.3886,38.80886,141],[-90.38859,38.80883,141],[-90.38857,38.80879,141],[-90.38856,38.80876,142],[-90.38855,38.80873,142],[-90.38853,38.80869,142],[-90.38852,38.80865,142],[-90.38851,38.80861,143],[-90.38851,38.80858,143],[-90.3885,38.80854,143],[-90.38849,38.80851,143],[-90.38848,38.80847,143],[-90.38847,38.80843,143],[-90.38847,38.8084,143],[-90.38846,38.80837,143],[-90.38846,38.80833,143],[-90.38845,38.8083,143],[-90.38844,38.80827,143],[-90.38844,38.80825,142],[-90.38845,38.80822,142],[-90.38845,38.80818,142],[-90.38845,38.80816,142],[-90.38844,38.80813,142],[-90.38843,38.80809,141],[-90.38842,38.80806,141],[-90.38841,38.80803,141],[-90.3884,38.808,142],[-90.3884,38.80796,142],[-90.38838,38.80793,142],[-90.38837,38.80789,143],[-90.38841,38.8079,142],[-90.38838,38.80787,142],[-90.38837,38.80784,143],[-90.38835,38.8078,143],[-90.38834,38.80777,143],[-90.38833,38.80774,143],[-90.38832,38.80771,143],[-90.38832,38.80767,143],[-90.38831,38.80764,143],[-90.38831,38.80761,143],[-90.38829,38.80757,143],[-90.38828,38.80753,143],[-90.38827,38.8075,143],[-90.38826,38.80746,143],[-90.38826,38.80743,143],[-90.38825,38.80739,143],[-90.38824,38.80736,143],[-90.38824,38.80733,143],[-90.38823,38.80729,143],[-90.38822,38.80726,143],[-90.38821,38.80722,143],[-90.38821,38.80719,142],[-90.3882,38.80717,142],[-90.38819,38.80714,142],[-90.38817,38.80711,142],[-90.38816,38.80707,142],[-90.38816,38.80704,141],[-90.38816,38.80701,141],[-90.38815,38.80698,141],[-90.38814,38.80695,141],[-90.38813,38.80692,141],[-90.38813,38.80688,140],[-90.38812,38.80684,140],[-90.38812,38.80681,140],[-90.38811,38.80678,140],[-90.3881,38.80675,140],[-90.38809,38.80672,140],[-90.38809,38.80668,140],[-90.38809,38.80665,140],[-90.38811,38.80662,139],[-90.38809,38.8066,140],[-90.38808,38.80656,140],[-90.38807,38.80654,141],[-90.38807,38.8065,141],[-90.38807,38.80646,141],[-90.38808,38.80643,141],[-90.38807,38.8064,141],[-90.38806,38.80636,141],[-90.38805,38.80633,142],[-90.38805,38.8063,142],[-90.38805,38.80626,142],[-90.38805,38.80624,142],[-90.38804,38.80621,142],[-90.38803,38.80617,142],[-90.38802,38.80614,142],[-90.388,38.80611,143],[-90.38799,38.80607,143],[-90.38798,38.80604,144],[-90.38798,38.80601,144],[-90.38797,38.80598,144],[-90.38797,38.80595,144],[-90.38796,38.80592,144],[-90.38796,38.80588,144],[-90.38795,38.80585,144],[-90.38795,38.80582,144],[-90.38794,38.80578,144],[-90.38793,38.80576,143],[-90.38792,38.80573,143],[-90.38792,38.8057,143],[-90.38791,38.80567,143],[-90.38789,38.80565,142],[-90.38787,38.80562,142],[-90.38786,38.80558,142],[-90.38786,38.80555,141],[-90.38785,38.80552,142],[-90.38785,38.80548,142],[-90.38785,38.80545,142],[-90.38785,38.80541,142],[-90.38784,38.80538,142],[-90.38782,38.80534,143],[-90.38782,38.80531,143],[-90.3878,38.80528,143],[-90.38779,38.80526,143],[-90.38778,38.80522,144],[-90.38778,38.80519,144],[-90.38778,38.80516,144],[-90.38778,38.80514,144],[-90.38777,38.8051,144],[-90.38777,38.80506,144],[-90.38777,38.80503,144],[-90.38777,38.805,145],[-90.38777,38.80497,144],[-90.38777,38.80493,144],[-90.38776,38.8049,144],[-90.38776,38.80486,144],[-90.38776,38.80483,144],[-90.38775,38.8048,143],[-90.38775,38.80477,143],[-90.38776,38.80475,143],[-90.38777,38.80472,143],[-90.38776,38.80468,143],[-90.38774,38.80466,143],[-90.38773,38.80462,143],[-90.3877,38.8046,143],[-90.38768,38.80457,143],[-90.38765,38.80455,144],[-90.38764,38.80451,144],[-90.38764,38.80448,144],[-90.38766,38.80445,143],[-90.38766,38.80442,143],[-90.3877,38.80442,143],[-90.38772,38.80445,142],[-90.38772,38.80447,142],[-90.38771,38.8045,143],[-90.38772,38.80453,143],[-90.38774,38.80457,142],[-90.38775,38.8046,142],[-90.38775,38.80463,143],[-90.38775,38.80467,143],[-90.38775,38.8047,143],[-90.38776,38.80474,143],[-90.38776,38.80478,143],[-90.38776,38.80482,143],[-90.38777,38.80485,144],[-90.38777,38.80489,144],[-90.38778,38.80492,144],[-90.38778,38.80496,144],[-90.38778,38.80498,144],[-90.38779,38.80501,144],[-90.38779,38.80504,144],[-90.3878,38.80508,144],[-90.3878,38.80511,144],[-90.3878,38.80514,144],[-90.38781,38.80518,144],[-90.38781,38.80521,143],[-90.38781,38.80525,143],[-90.38782,38.80528,143],[-90.38783,38.80531,143],[-90.38783,38.80534,143],[-90.38784,38.80537,142],[-90.38785,38.80541,142],[-90.38786,38.80545,142],[-90.38787,38.80548,142],[-90.38788,38.80552,141],[-90.38789,38.80556,141],[-90.38789,38.80559,141],[-90.3879,38.80563,142],[-90.38791,38.80566,142],[-90.38792,38.80569,143],[-90.38793,38.80572,143],[-90.38794,38.80575,143],[-90.38796,38.80578,143],[-90.38797,38.80581,143],[-90.38798,38.80585,143],[-90.38799,38.80589,143],[-90.38799,38.80592,143],[-90.388,38.80596,143],[-90.388,38.80599,143],[-90.38801,38.80602,143],[-90.38802,38.80605,142],[-90.38802,38.80608,142],[-90.38803,38.80612,142],[-90.38802,38.80615,142],[-90.38801,38.80618,143],[-90.38801,38.80622,143],[-90.38802,38.80626,142],[-90.38803,38.80629,142],[-90.38804,38.80632,142],[-90.38804,38.80635,142],[-90.38804,38.80638,142],[-90.38805,38.80642,142],[-90.38807,38.80645,141],[-90.38807,38.80649,141],[-90.38808,38.80652,141],[-90.38808,38.80655,140],[-90.38809,38.80658,140],[-90.3881,38.80661,140],[-90.3881,38.80664,140],[-90.38811,38.80668,139],[-90.38812,38.80671,139],[-90.38812,38.80675,139],[-90.38813,38.80678,140],[-90.38814,38.80682,140],[-90.38816,38.80685,139],[-90.38816,38.80689,140],[-90.38817,38.80693,140],[-90.38818,38.80697,140],[-90.38818,38.807,140],[-90.38819,38.80702,140],[-90.38819,38.80706,141],[-90.3882,38.80709,141],[-90.3882,38.80711,141],[-90.38821,38.80715,142],[-90.38822,38.80718,142],[-90.38823,38.80721,142],[-90.38824,38.80725,142],[-90.38824,38.80728,143],[-90.38825,38.80732,142],[-90.38826,38.80735,142],[-90.38826,38.80739,143],[-90.38827,38.80743,143],[-90.38828,38.80746,142],[-90.38829,38.80749,142],[-90.38829,38.80753,143],[-90.3883,38.80756,143],[-90.3883,38.80759,143],[-90.38831,38.80763,143],[-90.38832,38.80767,143],[-90.38833,38.80771,143],[-90.38834,38.80773,143],[-90.38836,38.80776,143],[-90.38837,38.8078,143],[-90.38838,38.80783,143],[-90.3884,38.80787,142],[-90.3884,38.8079,142],[-90.38841,38.80793,142],[-90.38841,38.80797,142],[-90.38842,38.80801,141],[-90.38843,38.80805,141],[-90.38844,38.80808,141],[-90.38845,38.80812,141],[-90.38845,38.80816,142],[-90.38845,38.80819,142],[-90.38846,38.80823,142],[-90.38847,38.80825,142],[-90.38847,38.80829,142],[-90.38847,38.80832,142],[-90.38847,38.80835,143],[-90.38847,38.80839,143],[-90.38847,38.80843,143],[-90.38848,38.80846,143],[-90.38849,38.80849,143],[-90.38849,38.80852,143],[-90.3885,38.80855,143],[-90.38851,38.80859,143],[-90.38852,38.80862,142],[-90.38854,38.80866,142],[-90.38856,38.80869,142],[-90.38858,38.80872,141],[-90.38858,38.80875,141],[-90.38859,38.80878,141],[-90.38861,38.80882,141],[-90.38861,38.80885,141],[-90.38862,38.80888,140],[-90.38863,38.80892,140],[-90.38864,38.80896,141],[-90.38864,38.80899,141],[-90.38864,38.80903,141],[-90.38864,38.80906,141],[-90.38864,38.80909,141],[-90.38865,38.80913,141],[-90.38866,38.80916,141],[-90.38867,38.80919,142],[-90.38869,38.80922,142],[-90.38871,38.80926,143],[-90.38872,38.80929,143],[-90.38874,38.80932,143],[-90.38876,38.80935,144],[-90.38877,38.80938,144],[-90.38879,38.80941,144],[-90.3888,38.80945,144],[-90.38882,38.80949,145],[-90.38884,38.80952,145],[-90.38886,38.80955,145],[-90.38888,38.80958,145],[-90.3889,38.80961,145],[-90.38892,38.80963,145],[-90.38895,38.80966,145],[-90.38897,38.80969,145],[-90.389,38.80973,145],[-90.38903,38.80976,145],[-90.38906,38.80979,145],[-90.38907,38.80981,145],[-90.38909,38.80985,145],[-90.3891,38.80988,145],[-90.38911,38.80992,145],[-90.38912,38.80995,144],[-90.38912,38.80998,144],[-90.38913,38.81001,144],[-90.38914,38.81004,144],[-90.38915,38.81008,144],[-90.38916,38.81011,143],[-90.38918,38.81015,143],[-90.38919,38.81018,143],[-90.3892,38.81021,143],[-90.38921,38.81024,142],[-90.38922,38.81027,142],[-90.38923,38.8103,142],[-90.38924,38.81033,143],[-90.38925,38.81037,143],[-90.38925,38.8104,143],[-90.38925,38.81043,143],[-90.38926,38.81046,143],[-90.38928,38.81049,143],[-90.38929,38.81052,143],[-90.38932,38.81055,143],[-90.38936,38.81057,143],[-90.3894,38.8106,144],[-90.38944,38.81062,144],[-90.38948,38.81064,144],[-90.38952,38.81066,144],[-90.38956,38.81067,144],[-90.3896,38.81068,144],[-90.38964,38.81068,144],[-90.38968,38.81069,144],[-90.38972,38.8107,144],[-90.38975,38.81071,144],[-90.38979,38.81072,144],[-90.38984,38.81072,143],[-90.38988,38.81073,143],[-90.38993,38.81074,143],[-90.38997,38.81075,143],[-90.39001,38.81075,142],[-90.39005,38.81075,142],[-90.39008,38.81075,142],[-90.39012,38.81076,142],[-90.39017,38.81076,141],[-90.39022,38.81076,141],[-90.39027,38.81076,141],[-90.39032,38.81077,141],[-90.39037,38.81077,140],[-90.39041,38.81078,140],[-90.39045,38.81078,140],[-90.3905,38.81079,140],[-90.39053,38.8108,140],[-90.39058,38.81081,139],[-90.39061,38.81082,139],[-90.39066,38.81084,139],[-90.3907,38.81086,139],[-90.39074,38.81088,139],[-90.39077,38.8109,139],[-90.3908,38.81093,139],[-90.39083,38.81096,139],[-90.39084,38.81099,139],[-90.39083,38.81102,140],[-90.39081,38.81105,140],[-90.39081,38.81108,140],[-90.39082,38.81112,141],[-90.39082,38.81115,141],[-90.39081,38.81118,141],[-90.39077,38.81121,141],[-90.39073,38.81121,141],[-90.3907,38.81122,142],[-90.39066,38.81123,142],[-90.39062,38.81125,142],[-90.39058,38.81127,142],[-90.39054,38.81127,142],[-90.3905,38.81127,142],[-90.39047,38.81125,142],[-90.39044,38.81122,142],[-90.39041,38.81121,142],[-90.39038,38.81119,142],[-90.39034,38.81118,142],[-90.3903,38.81117,142],[-90.39025,38.81117,143],[-90.39022,38.81117,143],[-90.39018,38.81117,144],[-90.39014,38.81117,144],[-90.39009,38.81116,145],[-90.39005,38.81115,146],[-90.39002,38.81115,146],[-90.38998,38.81115,147],[-90.38994,38.81114,147],[-90.3899,38.81114,148],[-90.38986,38.81114,148],[-90.38983,38.81116,149],[-90.3898,38.81117,149],[-90.38976,38.81119,150],[-90.38972,38.81119,150],[-90.38968,38.81119,150],[-90.38964,38.81117,151],[-90.38961,38.81116,151],[-90.38957,38.81115,151],[-90.38953,38.81116,151],[-90.3895,38.81118,151],[-90.38948,38.8112,151],[-90.38946,38.81123,151],[-90.38945,38.81126,151],[-90.38942,38.81129,152],[-90.38941,38.81132,152],[-90.38939,38.81136,152],[-90.38937,38.81139,152],[-90.38934,38.81141,152],[-90.3893,38.81141,152],[-90.38925,38.81139,152],[-90.38921,38.81138,152],[-90.38917,38.8114,152],[-90.38916,38.81143,152],[-90.38913,38.81146,152],[-90.38909,38.81147,153],[-90.38907,38.8115,154],[-90.38904,38.81152,155],[-90.389,38.81152,156],[-90.38896,38.81153,157],[-90.38893,38.81153,157],[-90.38888,38.81154,159],[-90.38885,38.81155,160],[-90.38882,38.81156,160],[-90.38878,38.81157,161],[-90.38878,38.8116,161],[-90.38877,38.81163,161],[-90.38875,38.81165,162],[-90.38873,38.81167,162],[-90.3887,38.8117,163],[-90.38868,38.81172,163],[-90.38865,38.81174,163],[-90.38862,38.81177,163],[-90.3886,38.81179,163],[-90.38858,38.81182,163],[-90.38857,38.81185,163],[-90.38857,38.81188,163],[-90.38857,38.81192,162],[-90.3886,38.81194,162],[-90.38863,38.81196,161],[-90.38866,38.81198,161],[-90.38868,38.812,161],[-90.3887,38.81203,161],[-90.38873,38.81206,161],[-90.38878,38.81208,160],[-90.38881,38.81209,160],[-90.38883,38.81211,160],[-90.38885,38.81214,160],[-90.38885,38.81217,161],[-90.38884,38.8122,161],[-90.38881,38.81222,162],[-90.38878,38.81224,163],[-90.38875,38.81226,163],[-90.38871,38.81228,164],[-90.38868,38.8123,164],[-90.38864,38.81232,165],[-90.38862,38.81235,166],[-90.38862,38.81238,166],[-90.3886,38.81241,167],[-90.3886,38.81244,168],[-90.38862,38.81246,168],[-90.38864,38.81248,168],[-90.38863,38.81252,168],[-90.38861,38.81255,169],[-90.38859,38.81257,169],[-90.38857,38.8126,170],[-90.38856,38.81263,170],[-90.38855,38.81265,171],[-90.38852,38.81268,172],[-90.38848,38.81269,173],[-90.38844,38.81269,174],[-90.38841,38.81271,176],[-90.38838,38.81272,177],[-90.38835,38.81274,178],[-90.38832,38.81275,179],[-90.38828,38.81275,180],[-90.38825,38.81274,181],[-90.38821,38.81274,182],[-90.38818,38.81275,183],[-90.38815,38.81277,185],[-90.38811,38.81279,186],[-90.38807,38.81279,187],[-90.38805,38.81282,188],[-90.38805,38.81285,188],[-90.38806,38.81288,188],[-90.38805,38.81291,189],[-90.38804,38.81294,189],[-90.38805,38.81297,190],[-90.38806,38.813,190],[-90.38806,38.81303,190],[-90.38805,38.81306,191],[-90.38803,38.81309,191],[-90.38802,38.81312,192],[-90.388,38.81314,192],[-90.38798,38.81317,193],[-90.38796,38.8132,193],[-90.38794,38.81322,194],[-90.38792,38.81325,194],[-90.3879,38.81328,195],[-90.38786,38.81329,195],[-90.38782,38.8133,195],[-90.38778,38.81331,195],[-90.38775,38.81331,195],[-90.38771,38.81331,195],[-90.38767,38.81331,195],[-90.38763,38.81331,194],[-90.3876,38.81332,194],[-90.38758,38.81336,194],[-90.38759,38.81339,195],[-90.3876,38.81343,195],[-90.3876,38.81345,195],[-90.38759,38.81349,195],[-90.38757,38.81351,195],[-90.38756,38.81355,195],[-90.38756,38.81359,196],[-90.38756,38.81362,196],[-90.38756,38.81365,196],[-90.38755,38.81368,197],[-90.38754,38.81371,197],[-90.38753,38.81375,198],[-90.38752,38.81378,198],[-90.38752,38.81381,198],[-90.38752,38.81384,199],[-90.38753,38.81387,199],[-90.38756,38.81389,199],[-90.3876,38.8139,200],[-90.38764,38.81391,200],[-90.38768,38.81392,200],[-90.3877,38.81394,200],[-90.38774,38.81394,200],[-90.38779,38.81394,199],[-90.38783,38.81394,199],[-90.38788,38.81394,199],[-90.38792,38.81394,199],[-90.38796,38.81393,199],[-90.38801,38.81393,199],[-90.38805,38.81392,199],[-90.38809,38.81391,198],[-90.38812,38.8139,198],[-90.38816,38.8139,198],[-90.38821,38.81391,198],[-90.38826,38.81392,198],[-90.38829,38.81393,198],[-90.38833,38.81395,198],[-90.38837,38.81396,197],[-90.3884,38.81398,197],[-90.38844,38.814,197],[-90.38847,38.81401,197],[-90.38851,38.81403,196],[-90.38854,38.81405,196],[-90.38857,38.81407,196],[-90.38861,38.81408,196],[-90.38865,38.8141,195],[-90.38869,38.81411,195],[-90.38873,38.81412,194],[-90.38878,38.81413,194],[-90.38882,38.81414,193],[-90.38886,38.81415,193],[-90.3889,38.81416,192],[-90.38895,38.81417,192],[-90.38899,38.81418,192],[-90.38902,38.81419,192],[-90.38906,38.8142,192],[-90.38911,38.8142,192],[-90.38914,38.81421,192],[-90.38918,38.81422,192],[-90.38921,38.81423,192],[-90.38925,38.81424,191],[-90.38928,38.81426,191],[-90.38931,38.81428,190],[-90.38934,38.81429,190],[-90.38938,38.81431,189],[-90.38942,38.81433,189],[-90.38946,38.81435,189],[-90.38949,38.81437,189],[-90.38952,38.8144,189],[-90.38953,38.81442,189],[-90.38953,38.81445,189],[-90.38953,38.81449,189],[-90.38953,38.81452,190],[-90.38953,38.81455,190],[-90.38952,38.81458,190],[-90.38951,38.81462,190],[-90.38951,38.81465,190],[-90.3895,38.81468,190],[-90.38949,38.81471,191],[-90.38949,38.81474,190],[-90.3895,38.81478,190],[-90.3895,38.81481,190],[-90.38951,38.81484,189],[-90.38952,38.81487,189],[-90.38953,38.81489,189],[-90.38954,38.81492,189],[-90.38955,38.81495,188],[-90.38957,38.81498,188],[-90.38959,38.81502,188],[-90.38962,38.81504,187],[-90.38966,38.81506,187],[-90.38969,38.81508,187],[-90.38973,38.8151,186],[-90.38976,38.81511,186],[-90.3898,38.81514,185],[-90.38982,38.81516,185],[-90.38985,38.81519,184],[-90.38988,38.81521,184],[-90.3899,38.81524,183],[-90.38994,38.81526,182],[-90.38997,38.81527,182],[-90.38999,38.8153,181],[-90.39004,38.81531,181],[-90.39008,38.81533,181],[-90.39012,38.81534,181],[-90.39017,38.81535,180],[-90.39021,38.81536,180],[-90.39025,38.81537,180],[-90.39029,38.81538,180],[-90.39032,38.81538,180],[-90.39036,38.81539,181],[-90.39039,38.8154,181],[-90.39042,38.81542,181],[-90.39046,38.81543,181],[-90.3905,38.81544,182],[-90.39053,38.81545,182],[-90.39057,38.81545,182],[-90.39062,38.81545,183],[-90.39066,38.81545,183],[-90.3907,38.81546,184],[-90.39075,38.81546,184],[-90.39079,38.81547,185],[-90.39083,38.81549,185],[-90.39087,38.81549,185],[-90.39091,38.81549,185],[-90.39094,38.81549,185],[-90.39099,38.81548,185],[-90.39104,38.81546,186],[-90.39106,38.81545,186],[-90.39109,38.81543,186],[-90.39113,38.81541,186],[-90.39117,38.81541,186],[-90.39121,38.8154,186],[-90.39125,38.8154,186],[-90.3913,38.81541,185],[-90.39133,38.81542,185],[-90.39137,38.81542,185],[-90.39142,38.81543,185],[-90.39146,38.81544,184],[-90.39145,38.81548,184],[-90.39146,38.81551,184],[-90.39149,38.81552,184],[-90.39152,38.81554,184],[-90.39155,38.81555,183],[-90.39159,38.81557,183],[-90.39163,38.81559,182],[-90.39165,38.81563,182],[-90.39168,38.81565,181],[-90.39171,38.81567,180],[-90.39174,38.8157,179],[-90.39176,38.81572,178],[-90.39176,38.81575,178],[-90.39177,38.81579,177],[-90.39178,38.81582,177],[-90.39178,38.81585,176],[-90.39178,38.81589,175],[-90.39178,38.81593,174],[-90.39178,38.81596,174],[-90.39176,38.816,173],[-90.39175,38.81603,173],[-90.39173,38.81606,173],[-90.39173,38.81609,172],[-90.39172,38.81612,172],[-90.39172,38.81616,170],[-90.39171,38.81619,170],[-90.39171,38.81622,168],[-90.39171,38.81624,168],[-90.3917,38.81627,167],[-90.39168,38.8163,166],[-90.39167,38.81633,166],[-90.39166,38.81636,165],[-90.39163,38.81638,165],[-90.39166,38.81636,165],[-90.39163,38.81638,165],[-90.39162,38.81641,164],[-90.3916,38.81644,164],[-90.39158,38.81647,163],[-90.39155,38.8165,163],[-90.39152,38.8165,164],[-90.39151,38.81653,163],[-90.3915,38.81657,162],[-90.39148,38.81659,162],[-90.39145,38.81661,162],[-90.39141,38.81662,163],[-90.39138,38.81664,163],[-90.39136,38.81666,162],[-90.39134,38.81669,161],[-90.39131,38.81672,161],[-90.39129,38.81675,160],[-90.39126,38.81677,160],[-90.39122,38.81677,161],[-90.39119,38.81677,161],[-90.39115,38.81678,162],[-90.39114,38.81681,161],[-90.39114,38.81684,160],[-90.39111,38.81681,161],[-90.39108,38.81679,162],[-90.39107,38.81675,163],[-90.39105,38.81673,164],[-90.39101,38.81671,165],[-90.39097,38.81671,165],[-90.39093,38.8167,165],[-90.39091,38.81668,166],[-90.39087,38.81669,166],[-90.39087,38.81672,165],[-90.39087,38.81676,165],[-90.39086,38.8168,164],[-90.39089,38.81682,163],[-90.39086,38.81682,164],[-90.39083,38.81679,164],[-90.39079,38.8168,164],[-90.39076,38.81683,164],[-90.39072,38.81683,164],[-90.39069,38.81681,165],[-90.39065,38.81683,165],[-90.39063,38.81686,165],[-90.3906,38.81688,165],[-90.39057,38.8169,165],[-90.39053,38.81691,165],[-90.39049,38.81692,165],[-90.39049,38.81695,165],[-90.39051,38.81699,163],[-90.39052,38.81702,162],[-90.39053,38.81705,161],[-90.39055,38.81708,160],[-90.39056,38.81711,159],[-90.39055,38.81714,158],[-90.39052,38.81717,157],[-90.3905,38.8172,156],[-90.39049,38.81723,155],[-90.3905,38.81726,154],[-90.39051,38.81728,154],[-90.39051,38.81732,152],[-90.39052,38.81727,154],[-90.39053,38.8173,153],[-90.39057,38.81731,152],[-90.3906,38.81732,151],[-90.3906,38.81735,150],[-90.39063,38.81736,149],[-90.39063,38.81739,148],[-90.39062,38.81742,147],[-90.39063,38.81744,146],[-90.39066,38.81747,145],[-90.3907,38.81748,144],[-90.39071,38.81751,143],[-90.39072,38.81754,142],[-90.39074,38.81757,142],[-90.39076,38.8176,141],[-90.39076,38.81763,140],[-90.39074,38.81766,140],[-90.39071,38.81769,140],[-90.39068,38.8177,140],[-90.39063,38.81772,140],[-90.3906,38.81773,140],[-90.39055,38.81775,140],[-90.39052,38.81775,141],[-90.39048,38.81774,141],[-90.39044,38.81773,142],[-90.3904,38.81773,142],[-90.39035,38.81775,142],[-90.39031,38.81776,143],[-90.39027,38.81777,143],[-90.39023,38.81778,143],[-90.3902,38.81777,144],[-90.39016,38.81778,145],[-90.39013,38.8178,145],[-90.3901,38.81782,145],[-90.39007,38.81783,145],[-90.39002,38.81784,146],[-90.38998,38.81784,147],[-90.38994,38.81785,147],[-90.38991,38.81787,147],[-90.38987,38.81788,147],[-90.38983,38.81789,148],[-90.38979,38.8179,148],[-90.38975,38.8179,148],[-90.38971,38.8179,149],[-90.38967,38.8179,149],[-90.38964,38.81794,148],[-90.38962,38.81796,148],[-90.38958,38.81798,148],[-90.38955,38.81799,148],[-90.38951,38.818,148],[-90.38947,38.81801,147],[-90.38944,38.81801,148],[-90.38939,38.81801,148],[-90.38935,38.818,149],[-90.38931,38.818,149],[-90.38927,38.81801,150],[-90.38924,38.81801,150],[-90.3892,38.818,151],[-90.38916,38.81799,152],[-90.38911,38.81799,153],[-90.38908,38.81801,153],[-90.38905,38.81803,153],[-90.38902,38.81807,153],[-90.38898,38.81808,153],[-90.38895,38.81809,154],[-90.38891,38.81808,155],[-90.38887,38.81808,156],[-90.38883,38.81808,157],[-90.38878,38.81808,158],[-90.38874,38.81809,158],[-90.38871,38.8181,158],[-90.38868,38.81813,158],[-90.38864,38.81814,158],[-90.3886,38.81814,159],[-90.38856,38.81814,159],[-90.38854,38.81818,157],[-90.38853,38.81821,156],[-90.38852,38.81824,154],[-90.3885,38.81828,152],[-90.38847,38.8183,151],[-90.38844,38.8183,151],[-90.38841,38.81833,150],[-90.3884,38.81837,148],[-90.3884,38.81841,146],[-90.3884,38.81844,145],[-90.38838,38.81847,144],[-90.38837,38.8185,142],[-90.38836,38.81853,141],[-90.38833,38.81856,140],[-90.3883,38.81857,140],[-90.38827,38.8186,139],[-90.38824,38.81862,139],[-90.38821,38.81862,139],[-90.38817,38.81863,140],[-90.38814,38.81864,140],[-90.3881,38.81865,141],[-90.38808,38.81867,141],[-90.38805,38.81869,141],[-90.38802,38.81871,141],[-90.38798,38.81873,141],[-90.38794,38.81873,142],[-90.3879,38.81875,142],[-90.38788,38.81878,142],[-90.38786,38.8188,142],[-90.38782,38.81881,142],[-90.38778,38.81881,143],[-90.38774,38.81882,143],[-90.3877,38.81883,143],[-90.38767,38.81885,142],[-90.38763,38.81886,142],[-90.38759,38.81887,142],[-90.38755,38.81889,141],[-90.38753,38.81892,141],[-90.38751,38.81895,140],[-90.38749,38.81897,139],[-90.38747,38.819,138],[-90.38746,38.81903,137],[-90.38745,38.81905,136],[-90.38742,38.81908,135],[-90.38738,38.8191,135],[-90.38733,38.81911,134],[-90.3873,38.81912,134],[-90.38727,38.81914,133],[-90.38724,38.81916,132],[-90.3872,38.81917,132],[-90.38717,38.81919,132],[-90.38714,38.81922,132],[-90.38711,38.81924,132],[-90.38708,38.81925,132],[-90.38705,38.81927,132],[-90.38701,38.81929,132],[-90.38698,38.81929,132],[-90.38694,38.8193,132],[-90.3869,38.81931,132],[-90.38686,38.81933,132],[-90.38683,38.81935,132],[-90.3868,38.81937,132],[-90.38677,38.8194,132],[-90.38675,38.81943,132],[-90.38671,38.81944,132],[-90.38667,38.81945,131],[-90.38664,38.81946,131],[-90.38661,38.81948,131],[-90.38657,38.81949,131],[-90.38654,38.81949,131],[-90.38651,38.81951,131],[-90.38648,38.81953,131],[-90.38645,38.81954,131],[-90.38641,38.81955,131],[-90.38636,38.81956,131],[-90.38632,38.81957,132],[-90.38628,38.81957,132],[-90.38624,38.81958,133],[-90.38621,38.8196,133],[-90.38616,38.8196,133],[-90.38612,38.8196,134],[-90.38608,38.81961,134],[-90.38604,38.81962,134],[-90.386,38.81961,134],[-90.38596,38.81962,134],[-90.386,38.8196,135],[-90.38604,38.81959,135],[-90.38607,38.81958,135],[-90.38612,38.81958,134],[-90.38616,38.81957,134],[-90.3862,38.81958,133],[-90.38624,38.81958,133],[-90.38627,38.81956,133],[-90.38632,38.81954,132],[-90.38636,38.81954,131],[-90.3864,38.81953,131],[-90.38644,38.81951,131],[-90.38647,38.8195,131],[-90.38651,38.81951,131],[-90.38654,38.8195,131],[-90.38657,38.81948,131],[-90.38661,38.81946,131],[-90.38665,38.81945,131],[-90.38668,38.81943,132],[-90.38671,38.8194,132],[-90.38671,38.81943,132],[-90.38667,38.81945,131],[-90.38665,38.81947,131],[-90.38667,38.8195,131],[-90.38665,38.81952,131],[-90.38667,38.8195,131],[-90.38668,38.81947,131],[-90.3867,38.81944,132],[-90.38673,38.81941,132],[-90.38676,38.81939,132],[-90.38677,38.81935,133],[-90.38681,38.81933,133],[-90.38685,38.81933,132],[-90.38689,38.81933,132],[-90.38693,38.81931,132],[-90.38695,38.81929,132],[-90.387,38.81927,132],[-90.38703,38.81926,132],[-90.38707,38.81925,132],[-90.3871,38.81924,132],[-90.38712,38.81922,132],[-90.38715,38.81919,132],[-90.38719,38.81918,132],[-90.38722,38.81915,132],[-90.38726,38.81914,133],[-90.3873,38.81912,134],[-90.38733,38.8191,135],[-90.38737,38.81908,135],[-90.38741,38.81906,136],[-90.38744,38.81904,137],[-90.38746,38.81902,137],[-90.38745,38.81899,138],[-90.38745,38.81896,139],[-90.38747,38.81895,140],[-90.38751,38.81892,140],[-90.38753,38.81889,141],[-90.38756,38.81887,142],[-90.3876,38.81886,142],[-90.38764,38.81885,142],[-90.38768,38.81883,143],[-90.38771,38.81882,143],[-90.38775,38.81882,143],[-90.38779,38.81881,143],[-90.38782,38.81879,142],[-90.38785,38.81878,142],[-90.38789,38.81876,142],[-90.38792,38.81873,142],[-90.38796,38.8187,142],[-90.388,38.81869,141],[-90.38805,38.81868,141],[-90.38808,38.81866,141],[-90.38811,38.81865,140],[-90.38813,38.81863,140],[-90.38817,38.81862,140],[-90.38821,38.81862,139],[-90.38825,38.81861,139],[-90.38828,38.81859,139],[-90.3883,38.81856,140],[-90.38832,38.81853,141],[-90.38835,38.81851,142],[-90.38838,38.81848,143],[-90.38837,38.81845,144],[-90.38838,38.81841,146],[-90.38839,38.81839,147],[-90.38838,38.81836,148],[-90.38839,38.81834,149],[-90.38842,38.81831,151],[-90.38845,38.81829,152],[-90.38849,38.81827,153],[-90.3885,38.81824,154],[-90.38852,38.81821,156],[-90.38854,38.81817,158],[-90.38855,38.81815,158],[-90.38858,38.81813,159],[-90.38862,38.81811,160],[-90.38866,38.81811,159],[-90.38869,38.8181,159],[-90.38873,38.81809,158],[-90.38876,38.81807,159],[-90.38881,38.81807,158],[-90.38884,38.81806,157],[-90.38888,38.81805,157],[-90.38892,38.81805,156],[-90.38896,38.81804,155],[-90.38901,38.81804,154],[-90.38905,38.81804,153],[-90.38909,38.81802,153],[-90.38912,38.818,152],[-90.38915,38.81799,152],[-90.38919,38.81798,152],[-90.38925,38.81798,151],[-90.38929,38.81798,150],[-90.38933,38.81797,150],[-90.38938,38.81796,150],[-90.38942,38.81797,149],[-90.38946,38.81796,149],[-90.3895,38.81795,149],[-90.38954,38.81794,149],[-90.38958,38.81793,149],[-90.38962,38.81791,149],[-90.38965,38.8179,149],[-90.38969,38.81788,149],[-90.38973,38.81789,149],[-90.38977,38.8179,148],[-90.38981,38.81789,148],[-90.38984,38.81787,148],[-90.38987,38.81786,148],[-90.38991,38.81785,147],[-90.38994,38.81783,147],[-90.38999,38.81782,147],[-90.39002,38.81782,146],[-90.39006,38.81781,146],[-90.39009,38.8178,146],[-90.39013,38.81778,145],[-90.39016,38.81776,145],[-90.39018,38.81774,145],[-90.39021,38.81771,145],[-90.39024,38.81769,145],[-90.39027,38.81766,145],[-90.39031,38.81765,145],[-90.39035,38.81763,145],[-90.39038,38.81762,145],[-90.39041,38.81761,145],[-90.39044,38.81759,145],[-90.39048,38.81758,145],[-90.39052,38.81757,144],[-90.39055,38.81759,144],[-90.39058,38.81761,143],[-90.39061,38.81763,142],[-90.39065,38.81764,141],[-90.39069,38.81764,141],[-90.39072,38.81762,141],[-90.39074,38.81759,141],[-90.39077,38.81758,141],[-90.3908,38.81756,141],[-90.39082,38.81753,141],[-90.39084,38.81751,141],[-90.39087,38.81748,142],[-90.3909,38.81747,142],[-90.39092,38.81745,142],[-90.39093,38.81742,143],[-90.39094,38.81739,144],[-90.39096,38.81736,144],[-90.39099,38.81734,144],[-90.39101,38.81731,145],[-90.39104,38.81729,145],[-90.39107,38.81727,145],[-90.39109,38.81724,145],[-90.39111,38.81722,146],[-90.39114,38.8172,146],[-90.39118,38.81719,146],[-90.39122,38.81718,145],[-90.39126,38.81717,145],[-90.3913,38.81716,145],[-90.39133,38.81714,145],[-90.39136,38.81711,146],[-90.3914,38.81708,146],[-90.39144,38.81706,147],[-90.39146,38.81704,147],[-90.3915,38.81702,147],[-90.39154,38.81702,147],[-90.39158,38.81702,146],[-90.39161,38.81703,145],[-90.39158,38.81702,146],[-90.39157,38.81705,145],[-90.3916,38.81703,145],[-90.39163,38.81701,146],[-90.39167,38.81698,146],[-90.3917,38.81697,147],[-90.39174,38.81695,147],[-90.39177,38.81692,148],[-90.39181,38.81689,149],[-90.39183,38.81687,149],[-90.39184,38.81683,150],[-90.39186,38.8168,150],[-90.39189,38.81678,150],[-90.39192,38.81677,150],[-90.39195,38.81675,150],[-90.39195,38.81672,150],[-90.39198,38.8167,150],[-90.39202,38.8167,149],[-90.39204,38.81667,149],[-90.39206,38.81665,149],[-90.39209,38.81662,149],[-90.39211,38.81659,149],[-90.39214,38.81657,148],[-90.39217,38.81655,148],[-90.39219,38.81653,148],[-90.3922,38.8165,148],[-90.39222,38.81647,148],[-90.39224,38.81644,148],[-90.39227,38.81642,147],[-90.39228,38.81639,147],[-90.3923,38.81636,148],[-90.39229,38.81633,149],[-90.3923,38.8163,149],[-90.39232,38.81627,150],[-90.39235,38.81625,150],[-90.39236,38.81622,150],[-90.3924,38.81621,149],[-90.39242,38.81618,149],[-90.39244,38.81615,149],[-90.39248,38.81613,149],[-90.39252,38.81612,148],[-90.39256,38.81611,146],[-90.39258,38.81608,146],[-90.3926,38.81605,145],[-90.39263,38.81603,144],[-90.39265,38.816,144],[-90.39265,38.81597,144],[-90.39264,38.81594,144],[-90.39263,38.8159,144],[-90.39262,38.81588,145],[-90.39261,38.81584,145],[-90.39261,38.8158,146],[-90.3926,38.81578,146],[-90.39259,38.81574,148],[-90.39258,38.8157,149],[-90.39257,38.81568,150],[-90.39255,38.81565,151],[-90.39256,38.81561,152],[-90.39258,38.81558,152],[-90.39262,38.81555,151],[-90.39264,38.81552,151],[-90.39268,38.8155,150],[-90.39271,38.81547,149],[-90.39273,38.81544,149],[-90.39277,38.81543,148],[-90.3928,38.81542,148],[-90.39284,38.8154,147],[-90.39287,38.81539,147],[-90.39291,38.81537,146],[-90.39295,38.81536,146],[-90.393,38.81534,145],[-90.39304,38.81533,144],[-90.39306,38.8153,145],[-90.39309,38.81527,145],[-90.39311,38.81524,144],[-90.39313,38.81522,144],[-90.39316,38.8152,144],[-90.39315,38.81517,144],[-90.39315,38.81513,144],[-90.39314,38.81511,145],[-90.39311,38.81508,146],[-90.39309,38.81506,146],[-90.39306,38.81504,147],[-90.39305,38.81501,147],[-90.39303,38.81498,148],[-90.39301,38.81494,148],[-90.39299,38.81492,148],[-90.39298,38.81489,148],[-90.39296,38.81485,148],[-90.39295,38.81481,148],[-90.39295,38.81478,148],[-90.39295,38.81475,148],[-90.39294,38.81471,148],[-90.39294,38.81467,148],[-90.39294,38.81463,148],[-90.39294,38.8146,149],[-90.39291,38.81457,149],[-90.39288,38.81456,150],[-90.39286,38.81453,150],[-90.39283,38.81451,151],[-90.39279,38.8145,152],[-90.39275,38.81447,153],[-90.39271,38.81445,153],[-90.39268,38.81442,153],[-90.39267,38.81439,152],[-90.39264,38.81436,152],[-90.39262,38.81433,152],[-90.39259,38.81431,152],[-90.39255,38.8143,152],[-90.39251,38.81428,152],[-90.39247,38.81427,152],[-90.39242,38.81425,151],[-90.39239,38.81424,151],[-90.39235,38.81422,151],[-90.39232,38.81419,151],[-90.39229,38.81417,150],[-90.39226,38.81414,149],[-90.39225,38.81412,148],[-90.39224,38.81408,145],[-90.39221,38.81406,144],[-90.39221,38.81403,142],[-90.39223,38.814,140],[-90.39226,38.81399,140],[-90.3923,38.81398,139],[-90.39234,38.81396,139],[-90.39235,38.81392,136],[-90.39238,38.8139,136],[-90.39241,38.81387,136],[-90.39244,38.81384,137],[-90.39247,38.81382,137],[-90.39249,38.81379,138],[-90.39251,38.81376,138],[-90.39252,38.81374,138],[-90.39251,38.81371,138],[-90.39249,38.81368,138],[-90.39251,38.81365,138],[-90.39251,38.81362,138],[-90.39252,38.81359,138],[-90.39255,38.81357,138],[-90.39257,38.81354,138],[-90.39259,38.81352,137],[-90.39262,38.81349,137],[-90.39264,38.81346,137],[-90.39266,38.81343,136],[-90.39268,38.8134,136],[-90.39271,38.81338,135],[-90.39274,38.81336,135],[-90.39277,38.81333,135],[-90.3928,38.81331,134],[-90.39283,38.81329,134],[-90.39286,38.81327,134],[-90.39288,38.81324,134],[-90.3929,38.81321,133],[-90.39292,38.81318,133],[-90.39295,38.81315,133],[-90.39298,38.81313,133],[-90.39301,38.81311,133],[-90.39305,38.81308,133],[-90.39308,38.81305,133],[-90.39312,38.81303,133],[-90.39314,38.81301,133],[-90.39317,38.81298,133],[-90.3932,38.81296,133],[-90.39324,38.81294,133],[-90.39327,38.81293,133],[-90.39329,38.8129,134],[-90.39333,38.81288,134],[-90.39338,38.81287,134],[-90.39341,38.81286,134],[-90.39345,38.81284,134],[-90.39349,38.81282,134],[-90.39353,38.8128,134],[-90.39356,38.81277,134],[-90.3936,38.81275,134],[-90.39363,38.81273,134],[-90.39365,38.81271,134],[-90.39368,38.81269,134],[-90.39371,38.81266,134],[-90.39376,38.81264,135],[-90.39379,38.81262,135],[-90.39383,38.81259,135],[-90.39386,38.81257,136],[-90.39389,38.81255,136],[-90.39392,38.81252,136],[-90.39394,38.81249,137],[-90.39396,38.81247,137],[-90.394,38.81245,137],[-90.39404,38.81243,137],[-90.39407,38.8124,137],[-90.3941,38.81237,137],[-90.39413,38.81236,137],[-90.39416,38.81234,137],[-90.39418,38.81231,137],[-90.39421,38.8123,137],[-90.39425,38.81227,137],[-90.39428,38.81224,137],[-90.3943,38.81222,138],[-90.39434,38.81219,138],[-90.39437,38.81217,138],[-90.39439,38.81215,138],[-90.39441,38.81213,138],[-90.39445,38.8121,137],[-90.39449,38.81208,137],[-90.39452,38.81205,137],[-90.39455,38.81203,137],[-90.39457,38.812,137],[-90.39461,38.81198,137],[-90.39464,38.81195,137],[-90.39467,38.81192,136],[-90.3947,38.81189,136],[-90.39473,38.81186,136],[-90.39476,38.81183,135],[-90.39479,38.81181,135],[-90.39482,38.81179,134],[-90.39485,38.81176,134],[-90.39488,38.81174,134],[-90.39491,38.81171,133],[-90.39494,38.8117,133],[-90.39497,38.81168,133],[-90.395,38.81166,132],[-90.39503,38.81163,132],[-90.39505,38.8116,132]]],
        "bbox": [
          -90.38596,
          38.81962,
          -90.39505,
          38.80442
        ]
      },
      "properties": {
        "name": "11.24.2022"
      }
    }
  ]
}