{
  "type": "FeatureCollection",
  "features": [
    {
      "type": "Feature",
      "geometry": {
        "type": "MultiLineString",
        "coordinates": [[[-90.39084,38.81123,141],[-90.39081,38.81125,142],[-90.39077,38.81127,142],[-90.39073,38.81127,142],[-90.39068,38.81127,142],[-90.39063,38.81128,142],[-90.39056,38.81128,142],[-90.39052,38.81127,142],[-90.39048,38.81127,142],[-90.39046,38.81125,142],[-90.39043,38.81122,142],[-90.3904,38.8112,142],[-90.39037,38.81118,142],[-90.39032,38.81117,142],[-90.39028,38.81117,142],[-90.39025,38.81118,143],[-90.3902,38.81118,144],[-90.39017,38.81118,144],[-90.39013,38.81118,144],[-90.39008,38.81117,145],[-90.39004,38.81117,146],[-90.39,38.81117,146],[-90.38996,38.81116,147],[-90.38992,38.81116,147],[-90.38988,38.81116,148],[-90.38984,38.81117,149],[-90.38981,38.81119,149],[-90.38977,38.81121,149],[-90.38973,38.81122,150],[-90.38968,38.81121,150],[-90.38964,38.8112,151],[-90.38961,38.81119,151],[-90.38957,38.81117,151],[-90.38953,38.81116,151],[-90.38949,38.81117,151],[-90.38946,38.81119,151],[-90.38943,38.81122,152],[-90.3894,38.81125,152],[-90.38938,38.81127,152],[-90.38937,38.8113,152],[-90.38936,38.81132,152],[-90.38934,38.81135,152],[-90.38933,38.81139,152],[-90.3893,38.81142,152],[-90.38928,38.81144,152],[-90.38923,38.81143,152],[-90.3892,38.81142,152],[-90.38916,38.81141,152],[-90.38912,38.81142,153],[-90.38908,38.81144,154],[-90.38904,38.81146,155],[-90.38901,38.81148,155],[-90.38898,38.8115,156],[-90.38894,38.8115,157],[-90.38891,38.8115,158],[-90.38887,38.81151,159],[-90.38884,38.81153,160],[-90.38879,38.81153,161],[-90.38875,38.81154,162],[-90.38871,38.81155,162],[-90.38868,38.81155,163],[-90.38867,38.81158,163],[-90.38869,38.81163,163],[-90.38869,38.81166,163],[-90.38868,38.81168,163],[-90.38865,38.8117,163],[-90.38861,38.81172,164],[-90.38858,38.81173,164],[-90.38855,38.81176,164],[-90.38853,38.81178,164],[-90.38851,38.81182,164],[-90.38851,38.81185,164],[-90.38851,38.81189,164],[-90.38853,38.81191,163],[-90.38854,38.81194,163],[-90.38857,38.81196,162],[-90.38861,38.81198,162],[-90.38863,38.812,162],[-90.38865,38.81203,162],[-90.38867,38.81205,161],[-90.38868,38.81208,162],[-90.38871,38.81211,162],[-90.38875,38.81213,161],[-90.38878,38.81215,161],[-90.3888,38.81218,162],[-90.38881,38.81221,162],[-90.38882,38.81224,162],[-90.38882,38.81227,163],[-90.38881,38.8123,163],[-90.38878,38.81232,163],[-90.38875,38.81234,164],[-90.38872,38.81236,165],[-90.38867,38.81237,165],[-90.38863,38.81237,166],[-90.38859,38.81238,167],[-90.38856,38.81239,168],[-90.38853,38.81243,169],[-90.38853,38.81246,170],[-90.38853,38.81249,170],[-90.38855,38.81252,170],[-90.38857,38.81255,170],[-90.38858,38.81258,170],[-90.38856,38.8126,170],[-90.38854,38.81262,171],[-90.38853,38.81265,172],[-90.38851,38.81268,172],[-90.38848,38.8127,173],[-90.38844,38.81271,175],[-90.38841,38.81271,176],[-90.38837,38.81271,177],[-90.38833,38.81273,179],[-90.38829,38.81274,180],[-90.38826,38.81276,181],[-90.38822,38.81277,183],[-90.38818,38.81277,184],[-90.38815,38.81277,185],[-90.38811,38.81279,186],[-90.38807,38.8128,187],[-90.38804,38.8128,188],[-90.388,38.81281,188],[-90.38798,38.81282,188],[-90.38798,38.81286,189],[-90.388,38.81289,189],[-90.388,38.81292,189],[-90.388,38.81295,190],[-90.38799,38.81298,190],[-90.38799,38.81301,190],[-90.388,38.81305,191],[-90.388,38.81308,191],[-90.38798,38.81311,192],[-90.38798,38.81314,192],[-90.38797,38.81317,193],[-90.38795,38.8132,194],[-90.38793,38.81323,194],[-90.3879,38.81325,194],[-90.38787,38.81327,195],[-90.38785,38.81329,195],[-90.38782,38.81331,195],[-90.38778,38.81332,195],[-90.38775,38.81332,195],[-90.38771,38.81332,195],[-90.38767,38.81332,195],[-90.38763,38.81332,194],[-90.38759,38.81332,194],[-90.38755,38.81333,194],[-90.38753,38.81336,194],[-90.38753,38.81338,194],[-90.38753,38.81342,194],[-90.38754,38.81345,195],[-90.38755,38.81348,195],[-90.38754,38.81351,195],[-90.38754,38.81354,195],[-90.38753,38.81358,195],[-90.38754,38.81361,196],[-90.38753,38.81364,196],[-90.38752,38.81367,196],[-90.38751,38.8137,197],[-90.3875,38.81374,197],[-90.3875,38.81377,198],[-90.3875,38.8138,198],[-90.38749,38.81383,199],[-90.38748,38.81386,199],[-90.38749,38.81389,199],[-90.38752,38.81392,200],[-90.38755,38.81394,200],[-90.38758,38.81396,200],[-90.38762,38.81397,200],[-90.38766,38.81397,200],[-90.38771,38.81399,200],[-90.38775,38.814,200],[-90.38779,38.814,199],[-90.38784,38.814,199],[-90.38788,38.814,199],[-90.38792,38.814,199],[-90.38796,38.81399,199],[-90.38799,38.81397,199],[-90.38803,38.81396,199],[-90.38807,38.81396,199],[-90.38811,38.81396,199],[-90.38816,38.81395,198],[-90.38821,38.81394,198],[-90.38826,38.81395,198],[-90.3883,38.81397,198],[-90.38834,38.81399,198],[-90.38837,38.81401,198],[-90.3884,38.81402,197],[-90.38842,38.81404,197],[-90.38846,38.81405,197],[-90.38849,38.81407,197],[-90.38852,38.81408,197],[-90.38856,38.8141,196],[-90.38859,38.81411,196],[-90.38863,38.81412,196],[-90.38866,38.81414,196],[-90.38869,38.81415,195],[-90.38873,38.81416,195],[-90.38876,38.81417,194],[-90.38879,38.81418,194],[-90.38883,38.81419,193],[-90.38887,38.8142,193],[-90.38891,38.81421,192],[-90.38896,38.81423,192],[-90.389,38.81423,192],[-90.38904,38.81424,192],[-90.38908,38.81425,192],[-90.38912,38.81425,192],[-90.38916,38.81426,192],[-90.38921,38.81428,191],[-90.38924,38.81429,191],[-90.38927,38.81431,191]],[[-90.39178,38.81573,178],[-90.3918,38.8157,178],[-90.39183,38.81569,177],[-90.39188,38.81569,176],[-90.39191,38.81571,175],[-90.39196,38.81572,173],[-90.39193,38.8157,175],[-90.39194,38.81566,175],[-90.39193,38.81562,176],[-90.39194,38.81559,177],[-90.39196,38.81557,176],[-90.39197,38.81554,176],[-90.39198,38.81552,176],[-90.392,38.81548,175],[-90.392,38.81545,175],[-90.39198,38.81542,175],[-90.39196,38.81538,176],[-90.39195,38.81536,176],[-90.39194,38.81532,176],[-90.39195,38.81529,175],[-90.39197,38.81526,174],[-90.39199,38.81524,173],[-90.39201,38.8152,171],[-90.39203,38.81516,169],[-90.39204,38.81513,168],[-90.39204,38.8151,167],[-90.39204,38.81506,165],[-90.39202,38.81504,165],[-90.392,38.81501,164],[-90.39196,38.81498,165],[-90.39193,38.81499,166],[-90.39189,38.815,167],[-90.39186,38.81502,169],[-90.39183,38.81505,171],[-90.39186,38.81503,169],[-90.3919,38.81504,168],[-90.39194,38.81506,168],[-90.39196,38.81508,168],[-90.39197,38.81505,167],[-90.39201,38.81503,165],[-90.39202,38.81498,163],[-90.39201,38.81495,163],[-90.39199,38.81492,164],[-90.39197,38.81489,164],[-90.39199,38.81486,163],[-90.392,38.81483,163],[-90.39199,38.81479,162],[-90.39198,38.81476,162],[-90.39197,38.81472,162],[-90.39196,38.8147,162],[-90.39194,38.81466,162],[-90.39193,38.81462,161],[-90.39192,38.81459,161],[-90.3919,38.81456,161],[-90.39188,38.81453,162],[-90.39186,38.81451,162],[-90.39187,38.81448,161],[-90.39187,38.81445,161],[-90.39186,38.81441,160],[-90.39187,38.81438,159],[-90.39188,38.81435,158],[-90.39188,38.81432,157],[-90.39189,38.81428,156],[-90.39188,38.81425,155],[-90.39188,38.81422,155],[-90.39189,38.81419,153],[-90.39189,38.81416,152],[-90.39189,38.81414,152],[-90.39193,38.81415,151],[-90.39192,38.81412,150],[-90.39195,38.8141,148],[-90.39199,38.81409,147],[-90.39202,38.8141,148],[-90.39206,38.81411,148],[-90.39211,38.81411,148],[-90.39215,38.8141,147],[-90.39219,38.8141,146],[-90.39222,38.81408,145],[-90.39218,38.81408,145],[-90.39214,38.81406,144],[-90.39211,38.81403,143],[-90.39208,38.81401,142],[-90.39206,38.81398,141],[-90.39202,38.81396,140],[-90.39199,38.81395,140],[-90.39196,38.81393,139],[-90.39194,38.81391,139],[-90.39192,38.81388,138],[-90.3919,38.81386,139],[-90.39186,38.81385,141],[-90.39182,38.81383,142],[-90.39179,38.81382,143],[-90.39176,38.8138,143],[-90.39173,38.81377,144],[-90.39171,38.81374,144],[-90.39169,38.81371,144],[-90.39168,38.81369,144],[-90.39166,38.81365,143],[-90.39165,38.81363,143],[-90.39163,38.8136,144],[-90.39163,38.81357,144],[-90.39163,38.81354,144],[-90.39163,38.81351,145],[-90.39163,38.81347,145],[-90.39162,38.81345,146],[-90.39161,38.81342,146],[-90.39158,38.81339,147],[-90.39156,38.81337,148],[-90.39154,38.81335,148],[-90.39151,38.81333,149],[-90.39147,38.81333,149],[-90.39144,38.81332,150],[-90.3914,38.81331,150],[-90.39136,38.8133,151],[-90.39133,38.81329,151],[-90.39131,38.81327,151],[-90.39129,38.81324,152],[-90.39126,38.81322,152],[-90.39124,38.81319,152],[-90.39121,38.81317,152],[-90.39119,38.81315,153],[-90.39116,38.81312,153],[-90.39115,38.81309,153],[-90.39115,38.81306,153],[-90.39116,38.81303,152],[-90.39114,38.813,152],[-90.39112,38.81297,151],[-90.3911,38.81294,151],[-90.3911,38.81291,150],[-90.39109,38.81287,149],[-90.39106,38.81285,149],[-90.39104,38.81282,149],[-90.39103,38.81279,148],[-90.39103,38.81276,147],[-90.39103,38.81274,147],[-90.39103,38.8127,146],[-90.39103,38.81267,145],[-90.39102,38.81264,145],[-90.391,38.81261,144],[-90.39097,38.81264,145],[-90.39097,38.81267,146],[-90.39099,38.8127,146],[-90.39103,38.8127,146],[-90.39107,38.81269,145],[-90.3911,38.81267,144],[-90.39112,38.81264,143],[-90.39113,38.81261,143],[-90.39113,38.81258,142],[-90.39112,38.81254,141],[-90.39111,38.81251,141],[-90.39109,38.81248,141],[-90.39106,38.81244,143],[-90.39104,38.81242,143],[-90.39101,38.8124,144],[-90.39098,38.81237,145],[-90.39095,38.81235,146],[-90.39093,38.81232,147],[-90.39091,38.81229,148],[-90.39089,38.81225,149],[-90.39088,38.81222,149],[-90.39088,38.81219,149],[-90.39087,38.81216,149],[-90.39087,38.81213,149],[-90.39087,38.8121,149],[-90.39088,38.81206,149],[-90.39089,38.81202,149],[-90.3909,38.812,149],[-90.39092,38.81197,149],[-90.39093,38.81194,149],[-90.39093,38.8119,149],[-90.39093,38.81187,149],[-90.39093,38.81184,148],[-90.39094,38.81181,148],[-90.39093,38.81177,147],[-90.39094,38.81174,147],[-90.39096,38.81171,146],[-90.39098,38.81168,146],[-90.39102,38.81166,145],[-90.39104,38.81164,145],[-90.39107,38.81162,144],[-90.39111,38.8116,144],[-90.39113,38.81158,143],[-90.39113,38.81154,142],[-90.39113,38.8115,142],[-90.39113,38.81147,141],[-90.39113,38.81145,141],[-90.39111,38.81142,141],[-90.39109,38.81139,141],[-90.39106,38.81137,141],[-90.39102,38.81135,141],[-90.39099,38.81133,141],[-90.39094,38.81131,141],[-90.39091,38.8113,141],[-90.39087,38.81128,141],[-90.39084,38.81126,142]]],
        "bbox": [
          -90.38748,
          38.81573,
          -90.39222,
          38.81116
        ]
      },
      "properties": {
        "name": "2.7.2023"
      }
    }
  ]
}