{
  "type": "FeatureCollection",
  "features": [
    {
      "type": "Feature",
      "geometry": {
        "type": "MultiLineString",
        "coordinates": [[[-90.39505,38.81161,132],[-90.39508,38.81162,132],[-90.39508,38.81166,132],[-90.39506,38.81169,133],[-90.39502,38.8117,133],[-90.39499,38.81172,133],[-90.39496,38.81173,133],[-90.39491,38.81175,133],[-90.39488,38.81177,134],[-90.39484,38.8118,134],[-90.39481,38.81182,135],[-90.39478,38.81184,135],[-90.39475,38.81187,136],[-90.39473,38.81189,136],[-90.39471,38.81192,136],[-90.39468,38.81195,137],[-90.39464,38.81197,137],[-90.39461,38.81199,137],[-90.39458,38.81201,137],[-90.39456,38.81205,137],[-90.39454,38.81208,137],[-90.39451,38.8121,137],[-90.39448,38.81212,137],[-90.39446,38.81214,137],[-90.39443,38.81216,138],[-90.3944,38.81218,138],[-90.39436,38.81221,138],[-90.39433,38.81223,137],[-90.3943,38.81225,137],[-90.39428,38.81227,137],[-90.39425,38.8123,137],[-90.39421,38.81233,137],[-90.39419,38.81234,137],[-90.39416,38.81236,137],[-90.39413,38.81239,137],[-90.3941,38.81241,137],[-90.39406,38.81244,137],[-90.39404,38.81246,137],[-90.39401,38.81249,137],[-90.39399,38.81251,136],[-90.39395,38.81254,136],[-90.39391,38.81256,136],[-90.39388,38.81257,136],[-90.39385,38.8126,135],[-90.39381,38.81262,135],[-90.39378,38.81263,135],[-90.39375,38.81266,135],[-90.39372,38.81269,134],[-90.39368,38.81271,134],[-90.39365,38.81273,134],[-90.39362,38.81275,134],[-90.39358,38.81278,134],[-90.39355,38.81279,134],[-90.39351,38.81281,134],[-90.39348,38.81282,134],[-90.39344,38.81285,134],[-90.39341,38.81287,134],[-90.39337,38.8129,133],[-90.39334,38.81291,134],[-90.39333,38.81295,133],[-90.39331,38.81298,133],[-90.39328,38.81301,133],[-90.39326,38.81305,133],[-90.39323,38.81307,132],[-90.39319,38.81311,132],[-90.39315,38.81313,132],[-90.39311,38.81315,132],[-90.39308,38.81316,132],[-90.39305,38.81318,133],[-90.39302,38.8132,133],[-90.393,38.81323,133],[-90.39297,38.81326,133],[-90.39294,38.81329,133],[-90.39292,38.81332,133],[-90.39289,38.81334,134],[-90.39286,38.81334,134],[-90.39283,38.81336,134],[-90.3928,38.81339,135],[-90.39277,38.81341,135],[-90.39273,38.81343,136],[-90.39271,38.81345,136],[-90.39269,38.81348,137],[-90.39267,38.81351,137],[-90.39265,38.81354,137],[-90.39263,38.81357,138],[-90.39261,38.81359,138],[-90.39259,38.81363,138],[-90.39257,38.81366,138],[-90.39256,38.8137,138],[-90.39254,38.81373,138],[-90.39252,38.81375,138],[-90.3925,38.81379,138],[-90.39248,38.81383,137],[-90.39246,38.81386,137],[-90.39243,38.81388,136],[-90.39239,38.8139,136],[-90.39237,38.81393,137],[-90.39236,38.81391,136],[-90.39236,38.81388,135],[-90.39237,38.81385,136],[-90.39234,38.81387,135],[-90.39232,38.81389,134],[-90.3923,38.81393,136],[-90.39229,38.81397,138],[-90.39228,38.81399,140],[-90.39224,38.81402,141],[-90.3922,38.81403,142],[-90.39217,38.81405,143],[-90.39213,38.81407,145],[-90.3921,38.81408,146],[-90.39206,38.8141,147],[-90.39201,38.81412,149],[-90.39197,38.81413,149],[-90.39195,38.81416,151],[-90.39193,38.81418,152],[-90.39191,38.81421,154],[-90.39188,38.81421,154],[-90.39184,38.81422,156],[-90.39181,38.81424,157],[-90.39181,38.81427,158],[-90.3918,38.8143,159],[-90.39179,38.81432,159],[-90.39178,38.81436,161],[-90.39177,38.81438,162],[-90.39176,38.81442,163],[-90.39176,38.81444,164],[-90.39175,38.81448,165],[-90.39177,38.81452,165],[-90.3918,38.81455,164],[-90.39182,38.81457,164],[-90.39183,38.8146,164],[-90.39183,38.81463,164],[-90.39184,38.81466,165],[-90.39186,38.81469,164],[-90.39186,38.81472,165],[-90.39186,38.81475,165],[-90.39186,38.81478,166],[-90.39185,38.81481,166],[-90.39184,38.81484,167],[-90.39186,38.81487,167],[-90.39187,38.81489,167],[-90.39188,38.81492,167],[-90.39188,38.81495,167],[-90.39188,38.81498,168],[-90.39188,38.81501,168],[-90.39186,38.81504,170],[-90.39186,38.81507,171],[-90.39187,38.8151,171],[-90.39188,38.81513,172],[-90.39189,38.81516,172],[-90.39189,38.81519,173],[-90.3919,38.81522,174],[-90.3919,38.81525,175],[-90.3919,38.81529,176],[-90.39192,38.81531,176],[-90.39194,38.81534,176],[-90.39194,38.81537,176],[-90.39195,38.81541,176],[-90.39194,38.81546,177],[-90.39192,38.81549,177],[-90.39191,38.81552,178],[-90.39191,38.81556,178],[-90.39181,38.81519,175],[-90.39203,38.81576,169],[-90.39197,38.81579,171],[-90.39197,38.81576,172],[-90.39198,38.81573,172],[-90.39195,38.8157,174],[-90.39192,38.81569,175],[-90.39188,38.81569,176],[-90.39185,38.81571,176],[-90.39181,38.81572,177],[-90.39177,38.81572,178],[-90.39173,38.81572,179],[-90.3917,38.8157,180],[-90.39167,38.81568,181],[-90.39165,38.81566,182],[-90.39162,38.81563,182],[-90.39159,38.8156,183],[-90.39157,38.81557,183],[-90.39154,38.81555,183],[-90.39151,38.81552,184],[-90.39148,38.81551,184],[-90.39144,38.8155,184],[-90.39141,38.81548,185],[-90.39137,38.81547,185],[-90.39133,38.81547,185],[-90.39129,38.81547,185],[-90.39125,38.81546,185],[-90.39121,38.81546,185],[-90.39117,38.81547,186],[-90.39112,38.81548,186],[-90.39108,38.81548,186],[-90.39104,38.81548,186],[-90.39098,38.81548,185],[-90.39094,38.81549,185],[-90.39089,38.81549,185],[-90.39085,38.81549,185],[-90.3908,38.81548,185],[-90.39072,38.81547,184],[-90.39066,38.81546,183],[-90.39061,38.81544,183],[-90.39058,38.81543,183],[-90.39054,38.81541,182],[-90.39049,38.81541,182],[-90.39046,38.81539,182],[-90.39042,38.81538,181],[-90.39038,38.81536,181],[-90.39034,38.81534,181],[-90.39031,38.81533,181],[-90.39026,38.81531,181],[-90.39023,38.8153,181],[-90.39018,38.81528,181],[-90.39013,38.81527,182],[-90.3901,38.81527,182],[-90.39006,38.81525,182],[-90.39002,38.81523,183],[-90.38998,38.81521,183],[-90.38993,38.8152,184],[-90.38989,38.81519,184],[-90.38984,38.81516,185],[-90.3898,38.81513,186],[-90.38977,38.81509,186],[-90.38974,38.81506,187],[-90.3897,38.81503,188],[-90.38966,38.81499,188],[-90.38963,38.81496,189],[-90.3896,38.81492,189],[-90.38958,38.81488,189],[-90.38957,38.81484,190],[-90.38956,38.8148,190],[-90.38955,38.81476,190],[-90.38955,38.81473,191],[-90.38955,38.81468,191],[-90.38956,38.81463,190],[-90.38956,38.81459,190],[-90.38955,38.81455,190],[-90.38955,38.81451,190],[-90.38954,38.81446,189],[-90.38952,38.81443,189],[-90.38949,38.81439,189],[-90.38945,38.81436,189],[-90.3894,38.81433,189],[-90.38936,38.81431,190],[-90.38931,38.81428,190],[-90.38926,38.81426,191],[-90.38921,38.81424,192],[-90.38916,38.81422,192],[-90.38913,38.81421,192],[-90.38909,38.8142,192],[-90.38904,38.81419,192],[-90.389,38.81419,192],[-90.38896,38.81418,192],[-90.38891,38.81417,192],[-90.38888,38.81416,193],[-90.38884,38.81415,193],[-90.3888,38.81413,193],[-90.38876,38.81412,194],[-90.38873,38.8141,194],[-90.38869,38.81409,195],[-90.38866,38.81408,195],[-90.38861,38.81406,196],[-90.38858,38.81404,196],[-90.38855,38.81403,196],[-90.38852,38.81401,196],[-90.38849,38.814,196],[-90.38844,38.81399,197],[-90.3884,38.81398,197],[-90.38835,38.81397,198],[-90.38831,38.81395,198],[-90.38827,38.81394,198],[-90.38823,38.81393,198],[-90.38819,38.81393,198],[-90.38816,38.81393,198],[-90.38812,38.81393,198],[-90.38807,38.81393,199],[-90.38803,38.81394,199],[-90.38799,38.81395,199],[-90.38796,38.81396,199],[-90.3879,38.81396,199],[-90.38786,38.81396,199],[-90.38782,38.81396,199],[-90.38777,38.81395,200],[-90.38774,38.81395,200],[-90.3877,38.81394,200],[-90.38763,38.81387,199],[-90.3876,38.81389,199],[-90.38757,38.81387,199],[-90.38754,38.81384,199],[-90.38753,38.81381,198],[-90.38753,38.81378,198],[-90.38753,38.81375,198],[-90.38753,38.81372,197],[-90.38754,38.81369,197],[-90.38754,38.81366,196],[-90.38754,38.81362,196],[-90.38754,38.8136,196],[-90.38755,38.81354,195],[-90.38756,38.81352,195],[-90.38758,38.81349,195],[-90.38759,38.81344,195],[-90.38762,38.81341,195],[-90.38764,38.81339,195],[-90.38768,38.81337,195],[-90.38771,38.81335,195],[-90.38775,38.81331,195],[-90.38778,38.81329,195],[-90.3878,38.81327,195],[-90.38784,38.81324,194],[-90.38786,38.81321,194],[-90.38789,38.81319,194],[-90.3879,38.81316,193],[-90.38793,38.81314,193],[-90.38795,38.81311,192],[-90.38796,38.81308,192],[-90.38797,38.81305,191],[-90.38797,38.81302,191],[-90.38798,38.81298,190],[-90.388,38.81295,190],[-90.388,38.81292,189],[-90.38801,38.81288,189],[-90.38801,38.81286,189],[-90.38803,38.81283,188],[-90.38806,38.81281,188],[-90.38809,38.81279,187],[-90.38812,38.81278,186],[-90.38817,38.81276,184],[-90.38822,38.81274,182],[-90.38827,38.81271,180],[-90.3883,38.81269,179],[-90.38834,38.81267,177],[-90.38837,38.81265,176],[-90.3884,38.81264,175],[-90.38842,38.81261,174],[-90.38845,38.81259,173],[-90.38848,38.81257,172],[-90.3885,38.81255,171],[-90.38851,38.81252,171],[-90.38853,38.81248,170],[-90.38856,38.81246,169],[-90.38859,38.81243,168],[-90.38862,38.8124,167],[-90.38866,38.81237,166],[-90.38868,38.81235,165],[-90.3887,38.81231,164],[-90.38871,38.81228,164],[-90.38872,38.81226,163],[-90.38873,38.81223,163],[-90.38874,38.81219,162],[-90.38874,38.81216,162],[-90.38873,38.81212,161],[-90.38871,38.81209,161],[-90.38869,38.81205,161],[-90.38868,38.81201,161],[-90.38866,38.81199,161],[-90.38865,38.81196,161],[-90.38863,38.81192,161],[-90.38862,38.81189,162],[-90.38861,38.81186,162],[-90.3886,38.81183,163],[-90.38862,38.81179,163],[-90.38864,38.81176,163],[-90.38867,38.81174,163],[-90.38869,38.81171,163],[-90.38871,38.81167,163],[-90.38872,38.81164,163],[-90.38871,38.81161,163],[-90.38875,38.81159,162],[-90.38879,38.81158,161],[-90.38883,38.81157,160],[-90.38887,38.81155,159],[-90.3889,38.81154,158],[-90.38894,38.81153,157],[-90.38898,38.81152,156],[-90.38903,38.81151,155],[-90.38907,38.8115,154],[-90.3891,38.81148,153],[-90.38913,38.81146,152],[-90.38916,38.81144,152],[-90.38919,38.81142,152],[-90.38924,38.81141,152],[-90.38928,38.8114,152],[-90.38932,38.81138,152],[-90.38934,38.81136,152],[-90.38937,38.81133,152],[-90.3894,38.81131,152],[-90.38942,38.81128,152],[-90.38945,38.81125,151],[-90.38947,38.81123,151],[-90.38951,38.81121,151],[-90.38954,38.81119,151],[-90.38958,38.81119,151],[-90.38961,38.81119,151],[-90.38965,38.8112,151],[-90.38969,38.81121,150],[-90.38972,38.8112,150],[-90.38976,38.8112,150],[-90.38979,38.81119,149],[-90.38983,38.81118,149],[-90.38987,38.81116,148],[-90.38991,38.81116,148],[-90.38995,38.81116,147],[-90.38999,38.81117,146],[-90.39003,38.81118,146],[-90.39006,38.81119,145],[-90.39009,38.81122,145],[-90.39012,38.81124,144],[-90.39015,38.81125,144],[-90.3902,38.81126,143],[-90.39025,38.81127,143],[-90.39031,38.81126,142],[-90.39035,38.81124,142],[-90.3904,38.81122,142],[-90.39045,38.81121,142],[-90.39051,38.8112,142],[-90.39056,38.8112,142],[-90.39061,38.8112,142],[-90.39065,38.81122,142],[-90.39068,38.81123,142],[-90.39072,38.81126,142],[-90.39074,38.81128,142],[-90.39078,38.8113,142],[-90.39081,38.81132,142],[-90.39084,38.81134,142],[-90.39088,38.81136,142],[-90.3909,38.81138,142],[-90.39092,38.81141,142],[-90.39095,38.81143,142],[-90.39098,38.81146,142],[-90.39099,38.81149,143],[-90.391,38.81151,143],[-90.391,38.81155,144],[-90.391,38.81158,144],[-90.391,38.8116,144],[-90.39099,38.81163,145],[-90.39096,38.81165,145],[-90.39093,38.81167,146],[-90.39092,38.8117,146],[-90.39091,38.81173,147],[-90.3909,38.81176,147],[-90.3909,38.81179,147],[-90.3909,38.81182,148],[-90.3909,38.81186,148],[-90.3909,38.81189,149],[-90.3909,38.81192,149],[-90.39091,38.81196,149],[-90.39091,38.81199,149],[-90.39092,38.81203,149],[-90.39092,38.81206,149],[-90.39093,38.81209,149],[-90.39095,38.81211,149],[-90.39091,38.81214,149],[-90.39086,38.81214,149],[-90.39086,38.81218,149],[-90.39087,38.81222,149],[-90.39088,38.81224,149],[-90.39089,38.81227,148],[-90.3909,38.81231,147],[-90.39091,38.81234,146],[-90.39092,38.81237,146],[-90.39094,38.81241,145],[-90.39095,38.81243,144],[-90.39096,38.81246,143],[-90.39095,38.8125,142],[-90.39093,38.81252,143],[-90.39093,38.81256,144],[-90.39093,38.81259,145],[-90.39094,38.81263,145],[-90.39095,38.81266,146],[-90.39096,38.81269,147],[-90.39097,38.81272,147],[-90.39099,38.81276,148],[-90.39101,38.81279,148],[-90.39103,38.81282,149],[-90.39103,38.81284,149],[-90.39104,38.81287,150],[-90.39105,38.81291,150],[-90.39108,38.81293,151],[-90.39109,38.81297,152],[-90.3911,38.813,152],[-90.39111,38.81303,153],[-90.39112,38.81306,153],[-90.39114,38.81308,153],[-90.39118,38.81309,153],[-90.39121,38.81312,152],[-90.39122,38.81314,152],[-90.39125,38.81318,152],[-90.39127,38.81321,152],[-90.3913,38.81323,151],[-90.39133,38.81325,151],[-90.39138,38.81327,150],[-90.39142,38.8133,150],[-90.39145,38.81332,150],[-90.39147,38.81334,149],[-90.3915,38.81337,149],[-90.39151,38.8134,148],[-90.39152,38.81343,148],[-90.39154,38.81346,147],[-90.39156,38.81349,146],[-90.39156,38.81352,146],[-90.39157,38.81356,145],[-90.39157,38.81359,145],[-90.39159,38.81362,145],[-90.39161,38.81365,145],[-90.39164,38.81368,144],[-90.39166,38.81371,144],[-90.39168,38.81373,144],[-90.3917,38.81375,144],[-90.39175,38.81377,143],[-90.39179,38.81379,142],[-90.39182,38.8138,142],[-90.39186,38.81382,141],[-90.39191,38.81383,139],[-90.39194,38.81384,138],[-90.39198,38.81386,137],[-90.39203,38.81388,136],[-90.39206,38.8139,136],[-90.39209,38.81392,137],[-90.39213,38.81394,137],[-90.39215,38.81396,138],[-90.39217,38.814,140],[-90.39219,38.81405,143],[-90.3922,38.81409,146],[-90.39222,38.81412,148],[-90.39223,38.81415,150],[-90.39224,38.81418,151],[-90.39227,38.8142,151],[-90.3923,38.81423,151],[-90.39233,38.81426,152],[-90.39236,38.81428,152],[-90.39239,38.8143,152],[-90.39241,38.81432,153],[-90.39243,38.81435,153],[-90.39246,38.81437,154],[-90.39249,38.8144,155],[-90.39254,38.81442,155],[-90.39258,38.81443,154],[-90.39263,38.81445,154],[-90.39267,38.81447,154],[-90.39271,38.81449,153],[-90.39275,38.81451,153],[-90.39279,38.81453,152],[-90.39282,38.81455,151],[-90.39285,38.81457,150],[-90.39286,38.8146,150],[-90.39287,38.81463,150],[-90.39288,38.81466,149],[-90.39288,38.81469,149],[-90.39289,38.81472,149],[-90.39289,38.81478,149],[-90.39289,38.81481,149],[-90.39289,38.81483,149],[-90.3929,38.81487,149],[-90.39292,38.81489,148],[-90.39296,38.81494,148],[-90.39298,38.81497,148],[-90.39299,38.81502,148],[-90.39299,38.81505,148],[-90.39299,38.81509,148],[-90.39299,38.81513,148],[-90.39299,38.81515,148],[-90.39298,38.81519,148],[-90.39296,38.81522,148],[-90.39294,38.81525,148],[-90.39291,38.81528,149],[-90.39288,38.81531,149],[-90.39286,38.81533,149],[-90.39283,38.81535,149],[-90.3928,38.81537,149],[-90.39277,38.81539,149],[-90.39274,38.8154,150],[-90.3927,38.81542,151],[-90.39267,38.81545,151],[-90.39264,38.81547,152],[-90.39261,38.81549,152],[-90.39259,38.81552,152],[-90.39258,38.81554,153],[-90.39257,38.81557,152],[-90.39258,38.81561,151],[-90.39258,38.81564,150],[-90.39258,38.81568,149],[-90.39257,38.81571,149],[-90.39257,38.81575,148],[-90.39257,38.81578,147],[-90.39258,38.81581,146],[-90.39258,38.81584,146],[-90.39259,38.81587,145],[-90.3926,38.8159,145],[-90.39261,38.81592,145],[-90.39261,38.81595,145],[-90.3926,38.81598,145],[-90.39256,38.816,146],[-90.39255,38.81602,147],[-90.39254,38.81605,147],[-90.39251,38.81607,148],[-90.39253,38.81611,147],[-90.39252,38.81614,147],[-90.39246,38.81616,149],[-90.39243,38.81618,149],[-90.3924,38.8162,149],[-90.39237,38.81621,150],[-90.39233,38.81622,151],[-90.3923,38.81624,151],[-90.39229,38.81627,151],[-90.39229,38.8163,150],[-90.39228,38.81633,149],[-90.39227,38.81637,148],[-90.39225,38.81639,148],[-90.39223,38.81641,148],[-90.39222,38.81644,148],[-90.3922,38.81647,148],[-90.39218,38.81649,148],[-90.39215,38.81652,149],[-90.39213,38.81656,149],[-90.39211,38.81658,149],[-90.39209,38.81661,149],[-90.39204,38.81662,150],[-90.392,38.81663,150],[-90.39196,38.81665,151],[-90.39194,38.81668,151],[-90.39191,38.8167,151],[-90.39189,38.81672,151],[-90.39186,38.81674,151],[-90.39183,38.81675,151],[-90.39181,38.81678,151],[-90.39179,38.81681,150],[-90.39176,38.81683,150],[-90.39173,38.81685,150],[-90.39171,38.81687,150],[-90.39169,38.8169,149],[-90.39165,38.81691,149],[-90.39161,38.81692,149],[-90.39157,38.81692,150],[-90.39153,38.81694,150],[-90.39149,38.81696,150],[-90.39147,38.81698,150],[-90.39146,38.817,149],[-90.39142,38.81703,148],[-90.39139,38.81705,148],[-90.39136,38.81708,147],[-90.39132,38.81708,148],[-90.39129,38.81709,148],[-90.39125,38.81711,148],[-90.39121,38.81714,147],[-90.39118,38.81715,147],[-90.39114,38.81717,147],[-90.39112,38.81719,147],[-90.3911,38.81722,146],[-90.39108,38.81724,146],[-90.39104,38.81726,146],[-90.39101,38.81728,146],[-90.39098,38.81731,145],[-90.39095,38.81733,145],[-90.3909,38.81734,146],[-90.39087,38.81735,146],[-90.39082,38.81736,146],[-90.39078,38.81736,147],[-90.39075,38.81737,147],[-90.39071,38.81737,148],[-90.39067,38.81736,149],[-90.39063,38.81737,149],[-90.3906,38.8174,148],[-90.39057,38.81742,148],[-90.39054,38.81743,148],[-90.3905,38.81743,149],[-90.39046,38.81743,149],[-90.39043,38.81745,148],[-90.39041,38.81748,148],[-90.39037,38.8175,147],[-90.39033,38.8175,148],[-90.39029,38.8175,148],[-90.39027,38.81754,148],[-90.39026,38.81756,147],[-90.39023,38.81759,147],[-90.3902,38.8176,147],[-90.39017,38.81762,147],[-90.39014,38.81764,148],[-90.39011,38.81766,148],[-90.39008,38.81766,148],[-90.39004,38.81766,149],[-90.39,38.81768,149],[-90.38995,38.8177,149],[-90.38992,38.81772,149],[-90.38988,38.81772,150],[-90.38984,38.81774,150],[-90.38982,38.81776,150],[-90.3898,38.81779,149],[-90.38979,38.81782,149],[-90.38977,38.81784,149],[-90.38974,38.81786,149],[-90.3897,38.81788,149],[-90.38966,38.81789,149],[-90.38962,38.81791,149],[-90.38958,38.8179,149],[-90.38954,38.81791,149],[-90.38951,38.81793,149],[-90.38947,38.81793,149],[-90.38943,38.81793,150],[-90.3894,38.81794,150],[-90.38936,38.81796,150],[-90.38934,38.81798,149],[-90.3893,38.81799,150],[-90.38926,38.81799,150],[-90.38922,38.81798,151],[-90.38917,38.81799,152],[-90.38913,38.81799,153],[-90.38909,38.81799,153],[-90.38903,38.81799,155],[-90.389,38.81797,156],[-90.38895,38.81797,158],[-90.38891,38.81798,158],[-90.38889,38.818,158],[-90.38886,38.81804,158],[-90.38884,38.81807,157],[-90.38882,38.81811,156],[-90.3888,38.81814,155],[-90.38877,38.81816,155],[-90.38874,38.81819,154],[-90.38871,38.8182,154],[-90.38867,38.8182,155],[-90.38865,38.81823,154],[-90.38863,38.81826,153],[-90.38861,38.81828,152],[-90.3886,38.81831,151],[-90.38857,38.81832,150],[-90.38853,38.81833,150],[-90.3885,38.81835,149],[-90.38847,38.81837,148],[-90.38844,38.8184,147],[-90.38841,38.81842,146],[-90.38837,38.81845,144],[-90.38834,38.81846,144],[-90.3883,38.81845,145],[-90.38827,38.81845,145],[-90.38823,38.81845,145],[-90.38821,38.81847,144],[-90.38821,38.8185,143],[-90.3882,38.81853,142],[-90.38817,38.81856,142],[-90.38814,38.81857,142],[-90.3881,38.81857,142],[-90.38806,38.81859,142],[-90.38804,38.81862,142],[-90.38801,38.81864,142],[-90.38798,38.81866,142],[-90.38796,38.81869,142],[-90.38794,38.81872,142],[-90.38791,38.81874,142],[-90.38787,38.81876,142],[-90.38784,38.81878,142],[-90.3878,38.81879,143],[-90.38776,38.81879,143],[-90.38772,38.8188,143],[-90.38768,38.81882,143],[-90.38764,38.81885,142],[-90.38761,38.81887,142],[-90.38759,38.81889,141],[-90.38755,38.81891,141],[-90.38752,38.81892,141],[-90.38749,38.81894,140],[-90.38745,38.81896,139],[-90.38743,38.81899,139],[-90.3874,38.81901,138],[-90.38737,38.81903,137],[-90.38734,38.81905,136],[-90.38731,38.81907,136],[-90.3873,38.81912,134],[-90.38726,38.81914,133],[-90.38721,38.81915,132],[-90.38718,38.81916,132],[-90.38714,38.81916,132],[-90.38711,38.81917,132],[-90.38707,38.81919,132],[-90.38704,38.81921,132],[-90.38701,38.81923,132],[-90.38698,38.81925,132],[-90.38695,38.81926,132],[-90.38693,38.81929,132],[-90.3869,38.81931,132],[-90.38686,38.81932,132],[-90.38683,38.81934,132],[-90.38679,38.81935,133],[-90.38677,38.81937,132],[-90.38675,38.8194,132],[-90.38672,38.81941,132],[-90.38668,38.81941,132],[-90.38664,38.81941,132],[-90.38662,38.81943,132],[-90.38659,38.81945,131],[-90.38655,38.81946,131],[-90.38651,38.81948,131],[-90.38648,38.8195,131],[-90.38645,38.81952,131],[-90.38642,38.81953,131],[-90.38638,38.81954,131],[-90.38634,38.81955,131],[-90.3863,38.81956,132],[-90.38627,38.81956,133],[-90.38623,38.81957,133],[-90.38618,38.81957,134],[-90.38615,38.81957,134],[-90.38611,38.81959,134],[-90.38607,38.8196,134],[-90.38604,38.8196,134],[-90.386,38.81961,134],[-90.38596,38.81962,134],[-90.386,38.81962,134],[-90.38603,38.8196,134],[-90.38606,38.81957,135],[-90.38609,38.81956,135],[-90.38615,38.81954,135],[-90.38619,38.81954,134],[-90.38622,38.81954,134],[-90.38626,38.81954,133],[-90.3863,38.81954,132],[-90.38634,38.81953,132],[-90.38637,38.81951,131],[-90.38641,38.81952,131],[-90.38644,38.81952,131],[-90.38648,38.81952,131],[-90.3865,38.81955,131],[-90.38654,38.81954,131],[-90.38657,38.81955,131],[-90.38657,38.81958,131],[-90.38654,38.81959,131],[-90.3865,38.81959,131],[-90.38646,38.8196,131],[-90.38642,38.81961,131],[-90.38638,38.81962,131],[-90.38634,38.81962,131],[-90.3863,38.81963,131],[-90.38627,38.81964,132],[-90.38623,38.81964,132],[-90.38619,38.81965,132],[-90.38615,38.81966,132],[-90.3861,38.81966,132],[-90.38606,38.81966,132],[-90.38602,38.81967,132],[-90.38599,38.81968,132],[-90.38595,38.8197,131],[-90.38591,38.81971,131],[-90.38588,38.81971,131],[-90.38585,38.81972,131],[-90.38581,38.81973,131],[-90.38577,38.81973,131],[-90.3858,38.81975,131],[-90.38583,38.81975,131],[-90.38587,38.81974,131],[-90.38591,38.81974,131],[-90.38594,38.81974,131],[-90.38598,38.81973,131],[-90.38601,38.81971,131],[-90.38605,38.8197,131],[-90.38609,38.81969,131],[-90.38613,38.81968,132],[-90.38617,38.81967,132],[-90.38621,38.81966,132],[-90.38625,38.81965,132],[-90.38629,38.81963,131],[-90.38633,38.81963,131],[-90.38636,38.81962,131],[-90.3864,38.81961,131],[-90.38643,38.81959,131],[-90.38645,38.81957,131],[-90.38649,38.81956,131],[-90.38652,38.81955,131],[-90.38656,38.81954,131],[-90.38657,38.81951,131],[-90.38659,38.81949,131],[-90.38661,38.81946,131],[-90.38664,38.81944,132],[-90.38666,38.81941,132],[-90.38668,38.81938,133],[-90.38671,38.81937,133],[-90.38674,38.81935,133],[-90.38678,38.81934,133],[-90.38682,38.81933,133],[-90.38686,38.81933,132],[-90.3869,38.81933,132],[-90.38694,38.81932,132],[-90.38698,38.81931,132],[-90.38702,38.81929,132],[-90.38704,38.81926,132],[-90.38707,38.81925,132],[-90.3871,38.81923,132],[-90.38714,38.81921,132],[-90.38718,38.81919,132],[-90.38721,38.81917,132],[-90.38724,38.81915,132],[-90.38727,38.81914,133],[-90.3873,38.81913,133],[-90.38734,38.81912,134],[-90.38737,38.81909,135],[-90.3874,38.81908,135],[-90.38743,38.81906,136],[-90.38747,38.81904,137],[-90.3875,38.81903,137],[-90.3875,38.819,138],[-90.38749,38.81897,139],[-90.38746,38.81895,140],[-90.38745,38.81892,141],[-90.38748,38.81889,142],[-90.38751,38.81887,142],[-90.38755,38.81886,142],[-90.38759,38.81886,142],[-90.38763,38.81886,142],[-90.38766,38.81884,142],[-90.38767,38.81882,143],[-90.38772,38.81882,143],[-90.38775,38.81881,143],[-90.38779,38.81879,143],[-90.38781,38.81877,143],[-90.38784,38.81874,143],[-90.38787,38.81873,143],[-90.38792,38.81872,142],[-90.38795,38.81871,142],[-90.38798,38.8187,142],[-90.38802,38.81869,141],[-90.38806,38.81868,141],[-90.3881,38.81867,140],[-90.38814,38.81866,140],[-90.38821,38.81864,139],[-90.38825,38.81862,139],[-90.38829,38.81861,138],[-90.38834,38.81861,138],[-90.38836,38.81859,138],[-90.38837,38.81856,140],[-90.38838,38.81852,141],[-90.38838,38.81849,143],[-90.3884,38.81847,144],[-90.38844,38.81845,144],[-90.38848,38.81843,145],[-90.38851,38.8184,147],[-90.38853,38.81838,148],[-90.38856,38.81835,149],[-90.38859,38.81833,150],[-90.38864,38.81832,150],[-90.38869,38.8183,150],[-90.38874,38.81828,150],[-90.38878,38.81826,150],[-90.3888,38.81822,152],[-90.38882,38.81817,153],[-90.38883,38.81813,155],[-90.38884,38.8181,156],[-90.38887,38.81808,156],[-90.3889,38.81806,156],[-90.38893,38.81802,156],[-90.38898,38.81802,155],[-90.38901,38.81801,155],[-90.38904,38.818,154],[-90.38909,38.81799,153],[-90.38912,38.81797,153],[-90.38916,38.81797,152],[-90.3892,38.81797,152],[-90.38923,38.81796,152],[-90.38926,38.81794,152],[-90.3893,38.81793,152],[-90.38934,38.81792,151],[-90.38937,38.81792,151],[-90.3894,38.8179,151],[-90.38944,38.81789,150],[-90.38948,38.8179,150],[-90.38952,38.8179,150],[-90.38956,38.8179,149],[-90.3896,38.81789,149],[-90.38965,38.81789,149],[-90.38969,38.81788,149],[-90.38973,38.81786,149],[-90.38979,38.81785,149],[-90.38984,38.81782,149],[-90.38987,38.8178,149],[-90.3899,38.81778,149],[-90.38993,38.81776,149],[-90.38997,38.81774,148],[-90.39001,38.81772,148],[-90.39004,38.8177,148],[-90.39008,38.81768,148],[-90.39012,38.81766,147],[-90.39015,38.81765,147],[-90.39018,38.81764,147],[-90.3902,38.81762,147],[-90.39024,38.81761,147],[-90.39027,38.8176,146],[-90.3903,38.81759,146],[-90.39034,38.81757,146],[-90.39035,38.81754,147],[-90.39037,38.81751,147],[-90.39039,38.81749,148],[-90.39042,38.81746,148],[-90.39044,38.81744,149],[-90.39046,38.81742,149],[-90.3905,38.8174,149],[-90.39049,38.81737,151],[-90.39045,38.81737,151],[-90.39041,38.81737,151],[-90.39038,38.81736,152],[-90.39034,38.81735,152],[-90.39033,38.81732,153],[-90.39034,38.81735,152],[-90.39037,38.81739,151],[-90.3904,38.8174,150],[-90.39044,38.81741,150],[-90.39047,38.81743,149],[-90.39051,38.81744,148],[-90.39055,38.81742,148],[-90.39059,38.81741,148],[-90.39063,38.81741,148],[-90.3906,38.81739,149],[-90.39059,38.81735,150],[-90.39056,38.81734,151],[-90.39055,38.81731,152],[-90.39054,38.81728,154],[-90.39053,38.81724,155],[-90.39054,38.81722,156],[-90.39055,38.81719,157],[-90.39051,38.81717,157],[-90.39048,38.81714,159],[-90.39047,38.81711,160],[-90.39046,38.81708,161],[-90.39047,38.81705,162],[-90.39047,38.81702,163],[-90.39047,38.81699,164],[-90.39045,38.81697,164],[-90.39045,38.81694,165],[-90.39048,38.81693,165],[-90.39051,38.81692,165],[-90.39055,38.81689,165],[-90.39057,38.81687,165],[-90.39061,38.81685,165],[-90.39065,38.81683,165],[-90.39068,38.8168,165],[-90.39072,38.8168,165],[-90.39075,38.81679,165],[-90.39076,38.81676,165],[-90.39081,38.81676,165],[-90.39084,38.81675,165],[-90.39086,38.81672,165],[-90.39088,38.8167,166],[-90.39091,38.8167,166],[-90.39095,38.8167,165],[-90.39098,38.81671,165],[-90.39101,38.81674,164],[-90.39105,38.81674,164],[-90.39107,38.81676,163],[-90.39111,38.81678,162],[-90.39115,38.81676,162],[-90.39118,38.81675,162],[-90.3912,38.81672,163],[-90.39123,38.81671,162],[-90.39127,38.8167,162],[-90.39129,38.81668,162],[-90.39132,38.81666,163],[-90.39136,38.81666,162],[-90.39139,38.81664,162],[-90.39142,38.81661,163],[-90.39144,38.81659,163],[-90.39147,38.81657,163],[-90.39145,38.81655,164],[-90.39144,38.81652,165],[-90.39148,38.81652,164],[-90.39151,38.8165,164],[-90.39153,38.81649,164],[-90.39156,38.81647,164],[-90.39157,38.81644,164],[-90.39159,38.8164,165],[-90.39159,38.81637,166],[-90.39158,38.81634,167],[-90.39159,38.81631,168],[-90.39162,38.81629,168],[-90.39163,38.81626,169],[-90.39164,38.81623,170],[-90.39165,38.81621,170],[-90.39167,38.81618,171],[-90.39168,38.81615,172],[-90.39168,38.81611,173],[-90.39169,38.81607,174],[-90.39169,38.81603,175],[-90.39169,38.81601,175],[-90.39172,38.81597,175],[-90.39172,38.81593,176],[-90.39172,38.81589,177],[-90.39171,38.81586,178],[-90.39172,38.81583,178],[-90.39173,38.8158,178],[-90.39175,38.81578,178],[-90.39174,38.81574,179],[-90.39172,38.81572,179],[-90.39168,38.81571,181],[-90.39166,38.81568,181],[-90.39163,38.81566,182],[-90.3916,38.81563,182],[-90.39157,38.81561,183],[-90.39154,38.81558,183],[-90.39152,38.81556,184],[-90.39149,38.81554,184],[-90.39148,38.8155,184],[-90.39145,38.81547,184],[-90.39142,38.81545,185],[-90.39138,38.81543,185],[-90.39135,38.81541,185],[-90.39132,38.8154,185],[-90.39129,38.81539,185],[-90.39124,38.81539,186],[-90.39121,38.8154,186],[-90.39117,38.81541,186],[-90.39113,38.81541,186],[-90.39108,38.81542,186],[-90.39102,38.81543,186],[-90.39097,38.81543,186],[-90.39093,38.81544,186],[-90.39089,38.81545,185],[-90.39084,38.81546,185],[-90.3908,38.81546,185],[-90.39076,38.81545,185],[-90.39073,38.81545,184],[-90.39067,38.81544,184],[-90.39063,38.81543,183],[-90.39059,38.81542,183],[-90.39056,38.81544,182],[-90.39051,38.81543,182],[-90.39048,38.81542,182],[-90.39044,38.81541,181],[-90.39038,38.8154,181],[-90.39033,38.81538,181],[-90.3903,38.81536,180],[-90.39024,38.81535,180],[-90.3902,38.81534,181],[-90.39015,38.81533,181],[-90.39011,38.81531,181],[-90.39008,38.81529,181],[-90.39005,38.81527,182],[-90.39001,38.81525,182],[-90.38998,38.81523,183],[-90.38994,38.81522,183],[-90.3899,38.81521,184],[-90.38987,38.81519,184],[-90.38984,38.81516,185],[-90.3898,38.81514,185],[-90.38977,38.81512,186],[-90.38975,38.81509,187],[-90.38972,38.81506,187],[-90.3897,38.81504,188],[-90.38968,38.81502,188],[-90.38965,38.81499,188],[-90.38962,38.81497,188],[-90.3896,38.81494,189],[-90.38958,38.81492,189],[-90.38955,38.8149,189],[-90.38953,38.81486,189],[-90.38951,38.81481,190],[-90.3895,38.81477,190],[-90.38949,38.81473,191],[-90.38949,38.8147,191],[-90.38948,38.81467,190],[-90.38947,38.81464,190],[-90.38945,38.81462,190],[-90.38943,38.81459,190],[-90.38942,38.81456,190],[-90.38941,38.81454,190],[-90.38939,38.81449,190],[-90.38938,38.81445,190],[-90.38937,38.81442,190],[-90.38937,38.8144,190],[-90.38939,38.81437,190],[-90.38937,38.81434,190],[-90.38935,38.81432,190],[-90.38933,38.81429,190],[-90.38929,38.81426,190],[-90.38924,38.81424,191],[-90.3892,38.81422,192],[-90.38917,38.81421,192],[-90.38913,38.8142,192],[-90.38908,38.8142,192],[-90.38905,38.8142,192],[-90.38901,38.8142,192],[-90.38897,38.81419,192],[-90.38893,38.81418,192],[-90.38888,38.81416,193],[-90.38884,38.81414,193],[-90.3888,38.81413,193],[-90.38877,38.81411,194],[-90.38873,38.81409,194],[-90.38869,38.81408,195],[-90.38865,38.81407,195],[-90.38861,38.81406,196],[-90.38857,38.81405,196],[-90.38852,38.81402,196],[-90.38848,38.814,197],[-90.38844,38.81399,197],[-90.3884,38.81398,197],[-90.38836,38.81397,198],[-90.38832,38.81397,198],[-90.38828,38.81396,198],[-90.38824,38.81396,198],[-90.38821,38.81396,198],[-90.38816,38.81395,198],[-90.38812,38.81395,198],[-90.38807,38.81395,199],[-90.38803,38.81395,199],[-90.38799,38.81394,199],[-90.38795,38.81394,199],[-90.3879,38.81395,199],[-90.38785,38.81396,199],[-90.38781,38.81394,199],[-90.38776,38.81393,200],[-90.38772,38.81391,200],[-90.38768,38.8139,200],[-90.38764,38.81388,199],[-90.38761,38.81386,199],[-90.38757,38.81383,199],[-90.38756,38.8138,198],[-90.38756,38.81377,198],[-90.38755,38.81374,198],[-90.38755,38.81371,197],[-90.38755,38.81368,197],[-90.38756,38.81365,196],[-90.38756,38.81362,196],[-90.38756,38.81359,196],[-90.38756,38.81356,196],[-90.38755,38.81353,195],[-90.38755,38.8135,195],[-90.38755,38.81347,195],[-90.38755,38.81344,195],[-90.38754,38.81341,194],[-90.38755,38.81338,194],[-90.38757,38.81336,194],[-90.3876,38.81334,194],[-90.38763,38.81332,194],[-90.38767,38.81331,195],[-90.38772,38.81331,195],[-90.38776,38.81332,195],[-90.3878,38.81332,195],[-90.38784,38.81331,195],[-90.38788,38.81329,195],[-90.3879,38.81326,194],[-90.38792,38.81323,194],[-90.38792,38.81319,193],[-90.38794,38.81315,193],[-90.38795,38.81311,192],[-90.38797,38.81307,191],[-90.38798,38.81303,191],[-90.38798,38.813,190],[-90.388,38.81295,190],[-90.38802,38.81292,189],[-90.38806,38.81288,188],[-90.38808,38.81286,188],[-90.38811,38.81284,187],[-90.38814,38.81282,186],[-90.3882,38.81281,184],[-90.38823,38.8128,183],[-90.38828,38.81279,181],[-90.38831,38.81277,180],[-90.38835,38.81274,178],[-90.38839,38.81273,177],[-90.38844,38.81271,175],[-90.3885,38.81269,173],[-90.38854,38.81266,171],[-90.38857,38.81262,170],[-90.3886,38.81258,169],[-90.38864,38.81256,168],[-90.38864,38.81251,168],[-90.38862,38.81247,168],[-90.38861,38.81243,167],[-90.38861,38.81241,167],[-90.38862,38.81237,166],[-90.38864,38.81234,165],[-90.38867,38.81231,164],[-90.3887,38.81228,164],[-90.38874,38.81227,163],[-90.38876,38.81224,163],[-90.38875,38.81221,162],[-90.38873,38.81218,162],[-90.3887,38.81214,162],[-90.38868,38.81211,162],[-90.38866,38.81207,162],[-90.38864,38.81203,162],[-90.38863,38.81198,161],[-90.38861,38.81195,162],[-90.38859,38.81192,162],[-90.3886,38.81188,162],[-90.38862,38.81184,162],[-90.38864,38.8118,163],[-90.38867,38.81177,162],[-90.3887,38.81172,162],[-90.38873,38.81169,162],[-90.38877,38.81167,162],[-90.3888,38.81163,161],[-90.3888,38.81159,161],[-90.38885,38.81157,160],[-90.38889,38.81156,159],[-90.38896,38.81156,157],[-90.389,38.81155,156],[-90.38905,38.81154,154],[-90.38909,38.81151,153],[-90.38914,38.81148,152],[-90.38917,38.81145,152],[-90.3892,38.81142,152],[-90.38925,38.81139,152],[-90.38929,38.81138,152],[-90.38933,38.81136,152],[-90.38937,38.81133,152],[-90.3894,38.8113,152],[-90.38943,38.81126,152],[-90.38946,38.81122,151],[-90.3895,38.81119,151],[-90.38956,38.81118,151],[-90.38961,38.81118,151],[-90.38966,38.81118,151],[-90.38972,38.81118,150],[-90.38977,38.81117,150],[-90.38983,38.81116,149],[-90.38987,38.81115,148],[-90.38994,38.81113,147],[-90.39,38.81113,146],[-90.39005,38.81113,146],[-90.39011,38.81114,145],[-90.39016,38.81114,144],[-90.39021,38.81115,143],[-90.39028,38.81117,142],[-90.39032,38.81119,142],[-90.39037,38.81121,142],[-90.39042,38.81123,142],[-90.39047,38.81123,142],[-90.39052,38.81123,142],[-90.39058,38.81122,142],[-90.39064,38.81121,142],[-90.39068,38.8112,142],[-90.39073,38.81119,141],[-90.39078,38.81119,141],[-90.39081,38.8112,141],[-90.39084,38.81123,141],[-90.39086,38.81125,141],[-90.39089,38.81127,141],[-90.39091,38.81129,141],[-90.39093,38.81132,141],[-90.39095,38.81135,141],[-90.39098,38.81137,141],[-90.39101,38.81139,141],[-90.39103,38.81142,142],[-90.39105,38.81145,142],[-90.39105,38.81148,142],[-90.39104,38.8115,143],[-90.39103,38.81154,143],[-90.39102,38.81157,144],[-90.39101,38.81159,144],[-90.39098,38.81162,145],[-90.39096,38.81165,145],[-90.39093,38.81167,146],[-90.39091,38.8117,146],[-90.39092,38.81174,147],[-90.39092,38.81177,147],[-90.39092,38.81179,147],[-90.39093,38.81183,148],[-90.39093,38.81186,148],[-90.39092,38.8119,149],[-90.39091,38.81194,149],[-90.3909,38.81197,149],[-90.39087,38.81202,149],[-90.39086,38.81206,149],[-90.39084,38.81211,149],[-90.39086,38.81216,149],[-90.39088,38.8122,149],[-90.39088,38.81225,149],[-90.3909,38.8123,147],[-90.39092,38.81234,146],[-90.39091,38.81238,145],[-90.39093,38.81244,144],[-90.39094,38.81248,143],[-90.39096,38.81253,143],[-90.39097,38.81259,144],[-90.39099,38.81263,145],[-90.391,38.81267,146],[-90.391,38.81273,147],[-90.39102,38.81277,148],[-90.39104,38.8128,148],[-90.39106,38.81283,149],[-90.39108,38.81288,149],[-90.3911,38.81291,150],[-90.39112,38.81295,151],[-90.39113,38.81299,152],[-90.39115,38.81304,153],[-90.39116,38.81308,153],[-90.39121,38.81312,152],[-90.39125,38.81314,152],[-90.39129,38.81318,151],[-90.39131,38.81321,151],[-90.39134,38.81325,151],[-90.39138,38.81327,150],[-90.39142,38.81329,150],[-90.39146,38.81331,149],[-90.3915,38.81333,149],[-90.39153,38.81336,148],[-90.39155,38.8134,148],[-90.39156,38.81344,147],[-90.39156,38.81348,146],[-90.39158,38.81353,146],[-90.3916,38.81358,145],[-90.39162,38.81361,144],[-90.39165,38.81364,144],[-90.39168,38.81368,144],[-90.39172,38.81372,143],[-90.39176,38.81375,143],[-90.39181,38.81377,142],[-90.39184,38.8138,141],[-90.39187,38.81383,140],[-90.3919,38.81386,139],[-90.39195,38.81388,137],[-90.39198,38.81391,138],[-90.39201,38.81395,140],[-90.39206,38.81398,141],[-90.3921,38.814,141],[-90.39215,38.81401,141],[-90.3922,38.81401,141],[-90.39224,38.814,140],[-90.39228,38.81399,140],[-90.39231,38.81397,139],[-90.39234,38.81395,138],[-90.39234,38.81392,136],[-90.39235,38.81388,135],[-90.39233,38.81391,136],[-90.39237,38.8139,136],[-90.3924,38.81387,136],[-90.39243,38.81384,137],[-90.39245,38.81381,137],[-90.39247,38.81378,138],[-90.39248,38.81375,138],[-90.39247,38.81371,138],[-90.39246,38.81367,138],[-90.39248,38.81363,138],[-90.39251,38.8136,138],[-90.39253,38.81358,138],[-90.39256,38.81355,138],[-90.39258,38.81352,137],[-90.3926,38.8135,137],[-90.39263,38.81347,137],[-90.39266,38.81346,137],[-90.3927,38.81344,136],[-90.39273,38.81343,136],[-90.39277,38.81341,135],[-90.3928,38.81339,135],[-90.39283,38.81337,134],[-90.39286,38.81335,134],[-90.3929,38.81333,134],[-90.39294,38.81331,133],[-90.39297,38.81328,133],[-90.393,38.81325,133],[-90.39305,38.81321,133],[-90.39308,38.81318,132],[-90.39312,38.81315,132],[-90.39315,38.81313,132],[-90.39319,38.8131,132],[-90.39323,38.81307,132],[-90.39326,38.81305,133],[-90.39332,38.81302,133],[-90.39336,38.81301,133],[-90.39339,38.81299,133],[-90.39342,38.81297,133],[-90.39345,38.81294,133],[-90.39348,38.81291,133],[-90.39351,38.81289,133],[-90.39354,38.81286,133],[-90.39357,38.81284,133],[-90.39358,38.8128,133],[-90.39359,38.81277,134],[-90.39356,38.81277,134],[-90.3936,38.81276,134],[-90.39363,38.81274,134],[-90.39366,38.81272,134],[-90.39368,38.8127,134],[-90.39373,38.81268,134],[-90.39376,38.81266,135],[-90.39379,38.81263,135],[-90.39381,38.8126,135],[-90.39383,38.81257,136],[-90.39386,38.81254,136],[-90.3939,38.81252,136],[-90.39393,38.8125,137],[-90.39396,38.81249,137],[-90.39399,38.81247,137],[-90.39402,38.81245,137],[-90.39405,38.81242,137],[-90.39409,38.81239,137],[-90.39413,38.81237,137],[-90.39416,38.81234,137],[-90.39419,38.81232,137],[-90.39423,38.81231,137],[-90.39427,38.81229,137],[-90.3943,38.81227,137],[-90.39426,38.81227,137],[-90.39427,38.81225,137],[-90.3943,38.81222,138],[-90.39433,38.81219,138],[-90.39435,38.81216,138],[-90.39437,38.81214,138],[-90.3944,38.81211,138],[-90.39443,38.81209,138],[-90.39447,38.81206,137],[-90.3945,38.81204,137],[-90.39454,38.81201,137],[-90.39458,38.81199,137],[-90.39461,38.81197,137],[-90.39464,38.81195,137],[-90.39467,38.81193,137],[-90.3947,38.81191,136],[-90.39473,38.81189,136],[-90.39479,38.81186,135],[-90.39484,38.81184,135],[-90.39488,38.81182,134],[-90.39491,38.81181,134],[-90.39494,38.81179,134],[-90.3949,38.81177,134],[-90.39485,38.81177,134],[-90.39481,38.81178,134],[-90.39483,38.81175,134],[-90.39487,38.81174,134],[-90.3949,38.81172,133],[-90.39493,38.8117,133],[-90.39494,38.81167,133],[-90.39495,38.81164,133],[-90.39497,38.81162,132],[-90.39501,38.81161,132],[-90.39504,38.81159,132],[-90.39507,38.81161,132],[-90.39507,38.81158,132],[-90.39505,38.81156,132]],[[-90.39501,38.81159,132],[-90.39505,38.8116,132],[-90.39508,38.81162,132],[-90.3951,38.81164,132],[-90.39515,38.81163,132],[-90.3952,38.81159,132],[-90.39524,38.81157,132],[-90.39529,38.81153,133],[-90.39536,38.8115,133],[-90.3954,38.81146,133]]],
        "bbox": [
          -90.38577,
          38.81975,
          -90.3954,
          38.81113
        ]
      },
      "properties": {
        "name": "2.28.2021B"
      }
    }
  ]
}