{
  "type": "FeatureCollection",
  "features": [
    {
      "type": "Feature",
      "geometry": {
        "type": "MultiLineString",
        "coordinates": [[[-90.39502,38.81161,132],[-90.395,38.81163,132],[-90.39501,38.81166,132],[-90.39504,38.81165,132],[-90.39506,38.81163,132],[-90.39503,38.81164,132],[-90.395,38.81166,132],[-90.39497,38.81168,133],[-90.39494,38.81171,133],[-90.39492,38.81173,133],[-90.39489,38.81175,134],[-90.39486,38.81177,134],[-90.39484,38.81179,134],[-90.39482,38.81182,135],[-90.39479,38.81185,135],[-90.39476,38.81187,135],[-90.39473,38.8119,136],[-90.3947,38.81192,136],[-90.39468,38.81194,137],[-90.39465,38.81197,137],[-90.39462,38.81199,137],[-90.39459,38.81202,137],[-90.39455,38.81205,137],[-90.39452,38.81208,137],[-90.39449,38.81211,137],[-90.39446,38.81213,137],[-90.39442,38.81216,138],[-90.39439,38.81219,138],[-90.39435,38.8122,138],[-90.39432,38.81222,138],[-90.39429,38.81224,137],[-90.39426,38.81226,137],[-90.39422,38.81229,137],[-90.3942,38.81231,137],[-90.39418,38.81234,137],[-90.39415,38.81236,137],[-90.39412,38.81238,137],[-90.39408,38.81239,137],[-90.39404,38.81242,137],[-90.39401,38.81245,137],[-90.39398,38.81247,137],[-90.39395,38.8125,137],[-90.39392,38.81253,136],[-90.3939,38.81255,136],[-90.39387,38.81258,136],[-90.39384,38.8126,135],[-90.3938,38.81262,135],[-90.39377,38.81265,135],[-90.39374,38.81267,134],[-90.39371,38.8127,134],[-90.39369,38.81271,134],[-90.39367,38.81274,134],[-90.39363,38.81276,134],[-90.39361,38.81278,134],[-90.39357,38.81278,134],[-90.39353,38.81277,134],[-90.3935,38.81279,134],[-90.39346,38.81279,134],[-90.39342,38.81281,134],[-90.39338,38.81282,134],[-90.39334,38.81283,134],[-90.3933,38.81285,134],[-90.39327,38.81284,134],[-90.39323,38.81281,134],[-90.3932,38.81279,134],[-90.39317,38.81278,134],[-90.39313,38.81276,134],[-90.3931,38.81275,134],[-90.39306,38.81273,134],[-90.39303,38.81271,134],[-90.393,38.81269,134],[-90.39298,38.81267,134],[-90.39295,38.81264,134],[-90.39292,38.81262,134],[-90.39288,38.81259,134],[-90.39285,38.81257,134],[-90.39282,38.81255,134],[-90.39279,38.81253,134],[-90.39277,38.81251,134],[-90.39273,38.81248,134],[-90.3927,38.81247,134],[-90.39267,38.81245,134],[-90.39265,38.81243,134],[-90.39261,38.8124,134],[-90.39258,38.81238,135],[-90.39254,38.81236,135],[-90.39251,38.81234,135],[-90.39248,38.81232,135],[-90.39245,38.8123,135],[-90.39243,38.81228,135],[-90.3924,38.81226,135],[-90.39236,38.81224,135],[-90.39232,38.81222,135],[-90.39228,38.81219,135],[-90.39224,38.81217,135],[-90.3922,38.81216,136],[-90.39216,38.81214,136],[-90.39211,38.81213,136],[-90.39206,38.81213,136],[-90.39203,38.81214,137],[-90.39199,38.81215,137],[-90.39195,38.81216,137],[-90.39191,38.81217,137],[-90.39186,38.81219,137],[-90.39183,38.81221,137],[-90.39181,38.81223,137],[-90.39179,38.81227,137],[-90.39175,38.8123,136],[-90.39172,38.81232,136],[-90.3917,38.81236,136],[-90.39167,38.81238,136],[-90.39164,38.81242,136],[-90.39161,38.81245,135],[-90.39159,38.81247,135],[-90.39156,38.8125,135],[-90.39154,38.81253,136],[-90.39152,38.81256,136],[-90.39151,38.81259,137],[-90.39149,38.81261,138],[-90.39147,38.81265,138],[-90.39147,38.81269,139],[-90.39147,38.81271,140],[-90.39149,38.81274,140],[-90.39152,38.81277,141],[-90.39156,38.81279,140],[-90.39159,38.81281,140],[-90.39163,38.81283,140],[-90.39165,38.81285,140],[-90.39168,38.81287,140],[-90.39172,38.81289,139],[-90.39174,38.81291,139],[-90.39177,38.81294,139],[-90.39181,38.81296,139],[-90.39184,38.81298,139],[-90.39187,38.813,139],[-90.3919,38.81301,139],[-90.39193,38.81301,138],[-90.39196,38.81303,138],[-90.39199,38.81305,138],[-90.39203,38.81308,138],[-90.39206,38.81309,138],[-90.39209,38.81311,138],[-90.39212,38.81313,138],[-90.39215,38.81315,138],[-90.39218,38.81317,138],[-90.39221,38.81319,138],[-90.39224,38.81321,137],[-90.39227,38.81323,137],[-90.3923,38.81326,137],[-90.39233,38.81328,137],[-90.39236,38.8133,137],[-90.39239,38.81332,137],[-90.39243,38.81334,137],[-90.39247,38.81335,137],[-90.3925,38.81336,137],[-90.39253,38.81337,137],[-90.39258,38.81339,136],[-90.39261,38.81341,136],[-90.39263,38.81343,136],[-90.39264,38.81346,137],[-90.39263,38.8135,137],[-90.39261,38.81352,137],[-90.39259,38.81355,138],[-90.39256,38.81358,138],[-90.39254,38.81361,138],[-90.39252,38.81364,138],[-90.39251,38.81367,138],[-90.3925,38.8137,138],[-90.39249,38.81373,138],[-90.39247,38.81376,138],[-90.39245,38.81379,137],[-90.39246,38.81382,137],[-90.39244,38.81385,137],[-90.39242,38.81388,136],[-90.3924,38.8139,136],[-90.39237,38.81392,137],[-90.39235,38.81395,138],[-90.39234,38.81398,140],[-90.39232,38.81401,141],[-90.39229,38.81402,141],[-90.39224,38.81401,141],[-90.39221,38.81399,139],[-90.39217,38.81397,138],[-90.39214,38.81397,139],[-90.3921,38.81396,139],[-90.39207,38.81394,138],[-90.39204,38.81392,138],[-90.39201,38.8139,137],[-90.39198,38.81387,137],[-90.39197,38.81384,138],[-90.39194,38.81382,138],[-90.3919,38.8138,140],[-90.39187,38.81378,141],[-90.39183,38.81376,141],[-90.3918,38.81374,142],[-90.39177,38.81371,142],[-90.39176,38.81368,142],[-90.39174,38.81365,142],[-90.39172,38.81362,142],[-90.3917,38.8136,142],[-90.39168,38.81357,143],[-90.39167,38.81353,144],[-90.39166,38.8135,144],[-90.39166,38.81347,145],[-90.39164,38.81345,145],[-90.39163,38.81342,146],[-90.39162,38.81338,147],[-90.39159,38.81336,147],[-90.39156,38.81334,148],[-90.39151,38.81332,149],[-90.39148,38.8133,149],[-90.39143,38.81328,150],[-90.39141,38.81326,150],[-90.39138,38.81324,150],[-90.39135,38.81322,151],[-90.39132,38.81319,151],[-90.39131,38.81317,151],[-90.39128,38.81313,151],[-90.39126,38.81311,152],[-90.39123,38.81311,152],[-90.39122,38.81308,152],[-90.39121,38.81305,152],[-90.39121,38.81302,151],[-90.39119,38.81299,151],[-90.39117,38.81295,150],[-90.39114,38.81293,150],[-90.39111,38.81291,150],[-90.39109,38.81288,149],[-90.39107,38.81285,149],[-90.39106,38.81282,148],[-90.39106,38.81278,147],[-90.39105,38.81275,147],[-90.39105,38.81272,146],[-90.39104,38.81269,146],[-90.39103,38.81266,145],[-90.39104,38.81263,144],[-90.39103,38.8126,144],[-90.39102,38.81257,143],[-90.39102,38.81254,142],[-90.39101,38.81251,142],[-90.39101,38.81248,142],[-90.39102,38.81246,142],[-90.39101,38.81242,144],[-90.39099,38.81238,145],[-90.39097,38.81235,146],[-90.39095,38.81231,147],[-90.39094,38.81228,148],[-90.39092,38.81225,149],[-90.39091,38.81222,149],[-90.3909,38.81219,149],[-90.39089,38.81216,149],[-90.39089,38.81213,149],[-90.3909,38.8121,149],[-90.39092,38.81207,149],[-90.39093,38.81204,149],[-90.39093,38.812,149],[-90.39093,38.81197,150],[-90.39093,38.81194,149],[-90.39092,38.81191,149],[-90.39091,38.81187,148],[-90.39091,38.81184,148],[-90.39092,38.81181,148],[-90.39093,38.81178,147],[-90.39095,38.81174,147],[-90.39098,38.81172,146],[-90.39102,38.8117,146],[-90.39107,38.81168,145],[-90.39109,38.81164,144],[-90.39109,38.81159,144],[-90.39107,38.81155,143],[-90.39107,38.81152,143],[-90.39105,38.81149,142],[-90.39104,38.81145,142],[-90.39102,38.81142,142],[-90.39099,38.8114,142],[-90.39096,38.81138,141],[-90.39094,38.81136,141],[-90.39091,38.81133,141],[-90.39089,38.8113,141],[-90.39087,38.81126,141],[-90.39085,38.81123,141],[-90.39084,38.8112,141],[-90.39083,38.81117,141],[-90.39083,38.81113,141],[-90.39084,38.8111,140],[-90.39085,38.81107,140],[-90.39085,38.81103,140],[-90.39084,38.811,139],[-90.39084,38.81097,139],[-90.39083,38.81093,139],[-90.3908,38.8109,138],[-90.39077,38.81087,138],[-90.39073,38.81085,138],[-90.39069,38.81083,139],[-90.39065,38.81082,139],[-90.39062,38.81081,139],[-90.39057,38.81079,139],[-90.39053,38.81079,139],[-90.39048,38.81078,140],[-90.39044,38.81078,140],[-90.3904,38.81077,140],[-90.39036,38.81077,140],[-90.39031,38.81076,141],[-90.39026,38.81076,141],[-90.39022,38.81075,141],[-90.39017,38.81075,141],[-90.39013,38.81075,141],[-90.39009,38.81075,142],[-90.39005,38.81074,142],[-90.39002,38.81074,142],[-90.38997,38.81073,142],[-90.38993,38.81073,143],[-90.38988,38.81072,143],[-90.38984,38.81071,143],[-90.38979,38.8107,143],[-90.38974,38.8107,144],[-90.38969,38.81069,144],[-90.38965,38.81068,144],[-90.3896,38.81067,144],[-90.38957,38.81066,144],[-90.38953,38.81065,144],[-90.38949,38.81064,144],[-90.38946,38.81062,144],[-90.38942,38.8106,144],[-90.38938,38.81057,143],[-90.38935,38.81055,143],[-90.38934,38.81052,143],[-90.38932,38.81049,143],[-90.38929,38.81046,143],[-90.38928,38.81042,143],[-90.38927,38.8104,143],[-90.38926,38.81037,143],[-90.38925,38.81034,143],[-90.38924,38.81031,142],[-90.38923,38.81028,142],[-90.38921,38.81024,142],[-90.38919,38.81021,143],[-90.38918,38.81019,143],[-90.38916,38.81015,143],[-90.38915,38.81012,143],[-90.38915,38.81009,144],[-90.38914,38.81006,144],[-90.38913,38.81003,144],[-90.38911,38.80999,145],[-90.3891,38.80996,145],[-90.38909,38.80993,145],[-90.38909,38.80989,145],[-90.38908,38.80986,145],[-90.38907,38.80983,145],[-90.38906,38.80981,145],[-90.38903,38.80977,145],[-90.38901,38.80974,145],[-90.38898,38.8097,145],[-90.38897,38.80967,145],[-90.38895,38.80965,145],[-90.3889,38.80963,145],[-90.38886,38.80959,145],[-90.38884,38.80956,145],[-90.38882,38.80951,145],[-90.3888,38.80947,145],[-90.38878,38.80943,144],[-90.38876,38.8094,144],[-90.38875,38.80936,144],[-90.38874,38.80933,143],[-90.38872,38.80929,143],[-90.38871,38.80926,143],[-90.3887,38.80923,142],[-90.38869,38.80921,142],[-90.38867,38.80918,142],[-90.38866,38.80916,141],[-90.38865,38.80913,141],[-90.38864,38.8091,141],[-90.38864,38.80907,141],[-90.38864,38.80905,141],[-90.38863,38.80902,141],[-90.38863,38.80899,141],[-90.38862,38.80896,141],[-90.3886,38.80892,141],[-90.38859,38.80889,141],[-90.38858,38.80886,141],[-90.38858,38.80883,141],[-90.38857,38.80879,141],[-90.38856,38.80876,142],[-90.38856,38.80873,142],[-90.38856,38.8087,142],[-90.38855,38.80867,142],[-90.38854,38.80863,142],[-90.38852,38.8086,142],[-90.38852,38.80857,142],[-90.38852,38.80854,142],[-90.38851,38.80851,142],[-90.38851,38.80848,142],[-90.38849,38.80844,143],[-90.38849,38.80841,142],[-90.3885,38.80839,142],[-90.38849,38.80836,142],[-90.38848,38.80833,142],[-90.38848,38.8083,142],[-90.38848,38.80827,142],[-90.38848,38.80823,142],[-90.38848,38.80818,141],[-90.38847,38.80815,141],[-90.38846,38.80812,141],[-90.38845,38.80808,141],[-90.38844,38.80804,141],[-90.38843,38.80801,141],[-90.38842,38.80798,142],[-90.3884,38.80794,142],[-90.38839,38.8079,142],[-90.38839,38.80787,142],[-90.38838,38.80785,143],[-90.38838,38.80782,143],[-90.38837,38.80779,143],[-90.38836,38.80775,143],[-90.38835,38.80771,143],[-90.38834,38.80768,143],[-90.38833,38.80766,143],[-90.38832,38.80762,143],[-90.38831,38.80758,142],[-90.38831,38.80755,142],[-90.3883,38.80752,142],[-90.38829,38.8075,142],[-90.38829,38.80747,142],[-90.38828,38.80744,142],[-90.38827,38.80741,143],[-90.38827,38.80739,142],[-90.38826,38.80735,142],[-90.38825,38.80731,142],[-90.38825,38.80728,142],[-90.38824,38.80725,142],[-90.38824,38.80722,142],[-90.38824,38.8072,142],[-90.38823,38.80716,142],[-90.38822,38.80713,141],[-90.38822,38.8071,141],[-90.38821,38.80707,141],[-90.3882,38.80705,141],[-90.38819,38.80702,140],[-90.38819,38.80699,140],[-90.38819,38.80696,140],[-90.38818,38.80692,140],[-90.38817,38.80689,140],[-90.38816,38.80685,139],[-90.38815,38.80682,139],[-90.38814,38.80678,139],[-90.38814,38.80675,139],[-90.38813,38.80673,139],[-90.38813,38.8067,139],[-90.38812,38.80667,139],[-90.38811,38.80664,139],[-90.38811,38.80661,140],[-90.38811,38.80658,140],[-90.3881,38.80656,140],[-90.3881,38.80653,140],[-90.3881,38.8065,140],[-90.38809,38.80647,141],[-90.38808,38.80643,141],[-90.38807,38.80641,141],[-90.38807,38.80638,141],[-90.38807,38.80635,141],[-90.38806,38.80632,141],[-90.38805,38.80629,142],[-90.38805,38.80626,142],[-90.38804,38.80623,142],[-90.38803,38.80619,142],[-90.38802,38.80617,142],[-90.38801,38.80614,143],[-90.38801,38.80611,143],[-90.388,38.80607,143],[-90.388,38.80604,143],[-90.38799,38.80601,143],[-90.38799,38.80599,143],[-90.38798,38.80595,144],[-90.38797,38.80591,144],[-90.38796,38.80587,144],[-90.38796,38.80584,144],[-90.38795,38.8058,144],[-90.38794,38.80577,143],[-90.38793,38.80573,143],[-90.38793,38.80569,142],[-90.38792,38.80566,142],[-90.38792,38.80563,142],[-90.38791,38.80561,142],[-90.38791,38.80558,141],[-90.3879,38.80555,141],[-90.38789,38.80552,141],[-90.38788,38.80548,141],[-90.38787,38.80546,142],[-90.38787,38.80542,142],[-90.38785,38.80538,142],[-90.38784,38.80535,143],[-90.38783,38.80531,143],[-90.38782,38.80529,143],[-90.38782,38.80526,143],[-90.38782,38.80523,143],[-90.38781,38.8052,143],[-90.38781,38.80517,144],[-90.3878,38.80513,144],[-90.3878,38.80511,144],[-90.3878,38.80508,144],[-90.38779,38.80504,144],[-90.38779,38.80501,144],[-90.38779,38.80497,144],[-90.38778,38.80494,144],[-90.38778,38.80491,144],[-90.38777,38.80489,144],[-90.38777,38.80485,144],[-90.38777,38.80481,143],[-90.38778,38.80478,143],[-90.38777,38.80474,143],[-90.38777,38.80471,143],[-90.38776,38.80468,143],[-90.38775,38.80464,143],[-90.38773,38.80461,143],[-90.38771,38.80457,143],[-90.3877,38.80455,143],[-90.38769,38.80452,143],[-90.38766,38.80449,143],[-90.38763,38.80447,144],[-90.3876,38.80445,144],[-90.38756,38.80443,145],[-90.38752,38.80441,145],[-90.38748,38.80439,146],[-90.38745,38.80438,147],[-90.38741,38.80437,147],[-90.38737,38.80436,148],[-90.38735,38.80433,148],[-90.38734,38.8043,149],[-90.38735,38.80427,148],[-90.38738,38.80424,148],[-90.38739,38.80421,148],[-90.38742,38.80419,148],[-90.38744,38.80417,147],[-90.38745,38.80413,147],[-90.38745,38.80411,147],[-90.38745,38.80407,148],[-90.38745,38.80404,148],[-90.38744,38.80401,148],[-90.38744,38.80398,148],[-90.38743,38.80395,149],[-90.38742,38.80391,149],[-90.38742,38.80387,149],[-90.38741,38.80385,150],[-90.3874,38.80381,152],[-90.38739,38.80378,153],[-90.38738,38.80375,154],[-90.38736,38.80372,155],[-90.38734,38.8037,156],[-90.38731,38.80368,156],[-90.38733,38.80371,155],[-90.38734,38.80374,154],[-90.38736,38.80376,154],[-90.38737,38.80379,153],[-90.38738,38.80382,152],[-90.38738,38.80385,151],[-90.3874,38.80389,149],[-90.38742,38.80392,149],[-90.38744,38.80396,148],[-90.38745,38.80398,148],[-90.38746,38.80401,148],[-90.38745,38.80405,148],[-90.38745,38.80408,148],[-90.38743,38.80411,148],[-90.38741,38.80413,148],[-90.38739,38.80416,148],[-90.38737,38.80418,148],[-90.38736,38.80422,148],[-90.38733,38.80425,149],[-90.38732,38.80428,149],[-90.38732,38.8043,149],[-90.38733,38.80434,149],[-90.38736,38.80436,148],[-90.3874,38.80437,148],[-90.38744,38.80438,147],[-90.38748,38.80439,146],[-90.38752,38.8044,145],[-90.38756,38.80441,145],[-90.38761,38.80443,144],[-90.38764,38.80445,143],[-90.38766,38.80447,143],[-90.38767,38.80451,143],[-90.38768,38.80454,143],[-90.38769,38.80458,143],[-90.38768,38.80461,144],[-90.38768,38.80465,144],[-90.38768,38.80468,144],[-90.38769,38.8047,144],[-90.38769,38.80473,144],[-90.38769,38.80476,144],[-90.38771,38.80479,144],[-90.38771,38.80481,144],[-90.38772,38.80484,144],[-90.38772,38.80487,144],[-90.38772,38.80491,145],[-90.38772,38.80495,145],[-90.38773,38.80498,145],[-90.38774,38.80501,145],[-90.38774,38.80504,145],[-90.38774,38.80508,145],[-90.38774,38.80511,144],[-90.38774,38.80514,144],[-90.38775,38.80518,144],[-90.38775,38.80521,144],[-90.38776,38.80524,144],[-90.38777,38.80528,144],[-90.38778,38.80532,143],[-90.38779,38.80534,143],[-90.3878,38.80537,143],[-90.38781,38.80541,143],[-90.38781,38.80544,143],[-90.38782,38.80547,142],[-90.38782,38.8055,142],[-90.38783,38.80552,142],[-90.38783,38.80555,142],[-90.38784,38.80559,142],[-90.38784,38.80562,143],[-90.38785,38.80566,143],[-90.38785,38.80569,144],[-90.38786,38.80572,144],[-90.38787,38.80575,145],[-90.38787,38.80578,145],[-90.38788,38.80581,146],[-90.3879,38.80584,145],[-90.38791,38.80588,145],[-90.38792,38.8059,145],[-90.38793,38.80594,145],[-90.38792,38.80598,145],[-90.38793,38.80601,145],[-90.38793,38.80605,145],[-90.38793,38.80609,145],[-90.38793,38.80613,145],[-90.38794,38.80617,145],[-90.38794,38.80621,145],[-90.38795,38.80625,145],[-90.38796,38.80628,144],[-90.38797,38.80631,144],[-90.38799,38.80634,143],[-90.388,38.80636,143],[-90.38801,38.8064,143],[-90.38802,38.80643,142],[-90.38802,38.80646,142],[-90.38803,38.80649,142],[-90.38803,38.80652,142],[-90.38803,38.80655,142],[-90.38804,38.80658,141],[-90.38804,38.80661,141],[-90.38805,38.80663,141],[-90.38806,38.80666,140],[-90.38807,38.80669,140],[-90.38807,38.80674,141],[-90.38807,38.80676,141],[-90.38807,38.8068,141],[-90.38807,38.80683,141],[-90.38807,38.80686,142],[-90.38807,38.80689,142],[-90.38808,38.80692,142],[-90.38809,38.80695,142],[-90.3881,38.80699,142],[-90.38811,38.80702,142],[-90.38812,38.80705,142],[-90.38813,38.80708,142],[-90.38815,38.80711,142],[-90.38815,38.80714,143],[-90.38816,38.80718,143],[-90.38817,38.80722,143],[-90.38817,38.80724,144],[-90.38818,38.80728,144],[-90.38819,38.80732,144],[-90.38821,38.80735,143],[-90.38822,38.80738,143],[-90.38824,38.8074,143],[-90.38826,38.80744,143],[-90.38827,38.80747,143],[-90.38828,38.8075,143],[-90.38829,38.80753,143],[-90.3883,38.80756,143],[-90.38831,38.80759,143],[-90.38832,38.80763,143],[-90.38834,38.80767,143],[-90.38834,38.80769,143],[-90.38835,38.80772,143],[-90.38837,38.80776,143],[-90.38838,38.80779,143],[-90.38839,38.80782,143],[-90.3884,38.80785,142],[-90.38841,38.80787,142],[-90.38842,38.80791,142],[-90.38842,38.80794,142],[-90.38843,38.80798,141],[-90.38844,38.80801,141],[-90.38845,38.80804,141],[-90.38846,38.80808,141],[-90.38846,38.80811,141],[-90.38847,38.80815,141],[-90.38847,38.80818,141],[-90.38847,38.80822,142],[-90.38846,38.80825,142],[-90.38845,38.80828,143],[-90.38845,38.80831,143],[-90.38844,38.80835,143],[-90.38845,38.80839,143],[-90.38845,38.80842,143],[-90.38845,38.80845,143],[-90.38846,38.80848,143],[-90.38846,38.8085,143],[-90.38847,38.80854,143],[-90.38848,38.80857,143],[-90.38848,38.80859,143],[-90.38848,38.80863,143],[-90.38849,38.80866,143],[-90.38849,38.8087,143],[-90.3885,38.80874,143],[-90.3885,38.80877,143],[-90.38851,38.8088,142],[-90.38851,38.80882,142],[-90.38852,38.80885,142],[-90.38853,38.80889,142],[-90.38854,38.80892,142],[-90.38854,38.80895,142],[-90.38855,38.80898,142],[-90.38856,38.80901,142],[-90.38858,38.80904,142],[-90.38859,38.80908,142],[-90.3886,38.80911,141],[-90.3886,38.80914,142],[-90.38862,38.80916,141],[-90.38864,38.80919,142],[-90.38864,38.80922,142],[-90.38865,38.80925,143],[-90.38866,38.80928,143],[-90.38868,38.80931,144],[-90.3887,38.80935,144],[-90.38871,38.80937,144],[-90.38873,38.8094,145],[-90.38874,38.80944,145],[-90.38876,38.80947,145],[-90.38877,38.8095,146],[-90.38879,38.80954,146],[-90.38882,38.80957,146],[-90.38884,38.80959,146],[-90.38887,38.80962,146],[-90.38891,38.80966,146],[-90.38893,38.80968,146],[-90.38895,38.8097,146],[-90.38898,38.80974,146],[-90.38898,38.80976,146],[-90.389,38.8098,146],[-90.38901,38.80983,146],[-90.38903,38.80986,146],[-90.38904,38.80989,146],[-90.38905,38.80991,146],[-90.38905,38.80995,146],[-90.38905,38.80998,146],[-90.38906,38.81002,146],[-90.38907,38.81004,146],[-90.38908,38.81007,145],[-90.38909,38.8101,145],[-90.3891,38.81013,145],[-90.38911,38.81016,144],[-90.38912,38.81019,144],[-90.38912,38.81023,144],[-90.38914,38.81027,143],[-90.38914,38.81029,143],[-90.38915,38.81032,143],[-90.38916,38.81036,143],[-90.38918,38.81039,143],[-90.3892,38.81043,143],[-90.38921,38.81046,144],[-90.38923,38.81048,144],[-90.38925,38.8105,144],[-90.38928,38.81053,144],[-90.3893,38.81056,144],[-90.38933,38.81058,144],[-90.38937,38.81059,144],[-90.38939,38.81061,144],[-90.38943,38.81063,144],[-90.38947,38.81065,144],[-90.38951,38.81067,145],[-90.38956,38.81068,145],[-90.38959,38.81069,145],[-90.38963,38.8107,145],[-90.38968,38.81071,145],[-90.38972,38.81072,144],[-90.38976,38.81073,144],[-90.3898,38.81073,144],[-90.38984,38.81073,144],[-90.38988,38.81074,143],[-90.38991,38.81074,143],[-90.38995,38.81075,143],[-90.38998,38.81076,143],[-90.39003,38.81077,142],[-90.39008,38.81077,142],[-90.39013,38.81078,142],[-90.39017,38.81078,142],[-90.39021,38.81078,141],[-90.39025,38.81079,141],[-90.3903,38.81079,141],[-90.39034,38.81079,141],[-90.39038,38.8108,140],[-90.39042,38.8108,140],[-90.39045,38.81081,140],[-90.39049,38.81081,140],[-90.39053,38.81082,140],[-90.39056,38.81083,139],[-90.3906,38.81084,139],[-90.39063,38.81085,139],[-90.39067,38.81087,139],[-90.39071,38.81089,139],[-90.39074,38.81091,139],[-90.39078,38.81092,139],[-90.39081,38.81094,139],[-90.39083,38.81097,139],[-90.39083,38.81101,139],[-90.39082,38.81104,140],[-90.39082,38.81108,140],[-90.39081,38.81111,141],[-90.39079,38.81113,141],[-90.39077,38.81115,141],[-90.39074,38.81117,141],[-90.3907,38.81118,141],[-90.39067,38.81119,141],[-90.39063,38.81121,142],[-90.3906,38.81122,142],[-90.39056,38.81124,142],[-90.39052,38.81123,142],[-90.3905,38.81121,142],[-90.39046,38.8112,142],[-90.39042,38.81118,142],[-90.39038,38.81118,142],[-90.39035,38.81118,142],[-90.39031,38.81119,142],[-90.39026,38.81118,143],[-90.39022,38.81117,143],[-90.39017,38.81116,144],[-90.39014,38.81115,144],[-90.39011,38.81114,145],[-90.39007,38.81113,145],[-90.39002,38.81112,146],[-90.38999,38.81111,147],[-90.38995,38.8111,147],[-90.38991,38.81111,148],[-90.38987,38.81113,148],[-90.38983,38.81114,149],[-90.3898,38.81116,149],[-90.38976,38.81116,150],[-90.38971,38.81116,150],[-90.38968,38.81115,151],[-90.38964,38.81114,151],[-90.3896,38.81114,151],[-90.38956,38.81116,151],[-90.38953,38.81117,151],[-90.3895,38.81119,151],[-90.38948,38.81122,151],[-90.38945,38.81124,151],[-90.38942,38.81127,152],[-90.38939,38.81129,152],[-90.38937,38.81132,152],[-90.38934,38.81134,152],[-90.3893,38.81134,152],[-90.38926,38.81134,152],[-90.38922,38.81136,152],[-90.38919,38.81139,152],[-90.38915,38.81141,152],[-90.38911,38.81144,153],[-90.38908,38.81146,154],[-90.38904,38.81147,155],[-90.389,38.81148,156],[-90.38896,38.81148,156],[-90.38892,38.81149,157],[-90.38889,38.8115,158],[-90.38885,38.81151,159],[-90.38881,38.81152,160],[-90.38879,38.81155,161],[-90.38877,38.81158,161],[-90.38874,38.81161,162],[-90.38871,38.81163,163],[-90.38868,38.81165,163],[-90.38865,38.81167,164],[-90.38862,38.81169,164],[-90.3886,38.81171,164],[-90.38858,38.81174,164],[-90.38856,38.81176,164],[-90.38854,38.81179,164],[-90.38854,38.81182,164],[-90.38854,38.81186,163],[-90.38856,38.81189,163],[-90.38858,38.81192,162],[-90.3886,38.81195,162],[-90.38862,38.81198,162],[-90.38864,38.812,161],[-90.38867,38.81202,161],[-90.3887,38.81203,161],[-90.38873,38.81206,161],[-90.38875,38.81209,161],[-90.38875,38.81212,161],[-90.38875,38.81215,162],[-90.38874,38.81218,162],[-90.38872,38.81221,163],[-90.3887,38.81224,163],[-90.38867,38.81226,164],[-90.38864,38.81227,164],[-90.38861,38.8123,165],[-90.38858,38.81232,166],[-90.38856,38.81234,167],[-90.38855,38.81237,167],[-90.38857,38.81241,168],[-90.38858,38.81244,168],[-90.38856,38.81247,169],[-90.38853,38.81248,170],[-90.38854,38.81251,170],[-90.38859,38.81249,169],[-90.38857,38.81252,169],[-90.38854,38.81256,170],[-90.38851,38.81258,171],[-90.38848,38.81259,172],[-90.38845,38.81261,173],[-90.38848,38.81264,173],[-90.38846,38.81266,174],[-90.38841,38.81268,175],[-90.38837,38.81269,177],[-90.38834,38.81271,178],[-90.38834,38.81274,178],[-90.38831,38.81272,179]],[[-90.38832,38.81396,198],[-90.38836,38.81398,198],[-90.3884,38.81399,197],[-90.38845,38.81402,197],[-90.3885,38.81407,197],[-90.38853,38.81409,197],[-90.38857,38.81411,196],[-90.38863,38.81412,196],[-90.38867,38.81413,195],[-90.38871,38.81414,195],[-90.38875,38.81415,194],[-90.38879,38.81416,194],[-90.38883,38.81419,193],[-90.38887,38.8142,193],[-90.38891,38.81421,192],[-90.38894,38.81422,192],[-90.38898,38.81424,192],[-90.38902,38.81425,192],[-90.38906,38.81426,192],[-90.3891,38.81427,192],[-90.38914,38.81428,192],[-90.38917,38.81429,192],[-90.38922,38.81429,191],[-90.38926,38.81429,191],[-90.3893,38.8143,190],[-90.38935,38.81432,190],[-90.38937,38.81434,190],[-90.3894,38.81437,189],[-90.38943,38.81438,189],[-90.38947,38.8144,189],[-90.3895,38.81442,189],[-90.38952,38.81445,189],[-90.38953,38.81448,189],[-90.38951,38.81451,190],[-90.3895,38.81454,190],[-90.38949,38.81457,190],[-90.38947,38.81459,190],[-90.38944,38.81462,190],[-90.38943,38.81466,190],[-90.38943,38.81471,190],[-90.38944,38.81474,190],[-90.38945,38.81477,190],[-90.38945,38.8148,190],[-90.38946,38.81483,189],[-90.38948,38.81485,189],[-90.38951,38.81487,189],[-90.38953,38.81485,189],[-90.38957,38.81484,190],[-90.3896,38.81483,190],[-90.38961,38.81486,190],[-90.38959,38.81488,189],[-90.38956,38.81491,189],[-90.38956,38.81494,189],[-90.38959,38.81496,188],[-90.38963,38.81497,189],[-90.38966,38.81499,188],[-90.38968,38.81501,188],[-90.38972,38.81503,188],[-90.38975,38.81505,187],[-90.38977,38.81507,187],[-90.3898,38.81509,186],[-90.38984,38.81511,186],[-90.38986,38.81514,185],[-90.38989,38.81516,185],[-90.38992,38.81518,184],[-90.38995,38.8152,184],[-90.38999,38.81522,183],[-90.39003,38.81524,182],[-90.39007,38.81526,182],[-90.3901,38.81528,181],[-90.39013,38.8153,181],[-90.39017,38.81531,181],[-90.39021,38.81532,181],[-90.39025,38.81534,181],[-90.39029,38.81535,181],[-90.39032,38.81536,181],[-90.39037,38.81538,181],[-90.3904,38.81539,181],[-90.39043,38.8154,181],[-90.39047,38.81542,182],[-90.39051,38.81542,182],[-90.39055,38.81543,182],[-90.39059,38.81544,183],[-90.39063,38.81545,183],[-90.39067,38.81546,183],[-90.39071,38.81548,184],[-90.39075,38.81549,184],[-90.3908,38.8155,185],[-90.39083,38.81551,185],[-90.39087,38.81551,185],[-90.39091,38.81552,185],[-90.39095,38.81551,185],[-90.391,38.81551,185],[-90.39103,38.8155,185],[-90.39106,38.81548,186],[-90.3911,38.81546,186],[-90.39113,38.81545,186],[-90.39118,38.81544,186],[-90.39121,38.81544,186],[-90.39126,38.81545,185],[-90.3913,38.81546,185],[-90.39134,38.81546,185],[-90.39137,38.81547,185],[-90.39141,38.81549,185],[-90.39144,38.8155,184],[-90.39146,38.81552,184],[-90.39149,38.81555,184],[-90.39151,38.81558,183],[-90.39154,38.8156,183],[-90.39157,38.81564,182],[-90.3916,38.81565,182],[-90.39165,38.81567,181],[-90.39169,38.81568,181],[-90.39171,38.8157,180],[-90.39172,38.81573,179],[-90.39173,38.81577,178],[-90.39173,38.8158,178],[-90.39172,38.81584,178],[-90.39172,38.81588,177],[-90.39171,38.8159,177],[-90.39171,38.81594,176],[-90.3917,38.81597,176],[-90.3917,38.81601,175],[-90.39169,38.81604,174],[-90.39168,38.81608,174],[-90.39167,38.81612,173],[-90.39166,38.81615,172],[-90.39166,38.81618,171],[-90.39165,38.81621,170],[-90.39163,38.81624,169],[-90.39162,38.81627,169],[-90.3916,38.81629,168],[-90.39159,38.81632,168],[-90.39157,38.81635,167],[-90.39155,38.81638,167],[-90.39153,38.8164,167],[-90.39152,38.81643,166],[-90.39151,38.81646,165],[-90.3915,38.81649,165],[-90.39149,38.81652,164],[-90.39146,38.81654,164],[-90.39142,38.81655,165],[-90.39141,38.81658,164],[-90.39144,38.81656,164],[-90.39143,38.81659,163],[-90.3914,38.81658,164],[-90.39136,38.8166,164],[-90.39134,38.81662,164],[-90.39131,38.81664,163],[-90.39128,38.81666,163],[-90.39126,38.81668,163],[-90.39127,38.81671,162],[-90.39125,38.81673,162],[-90.39122,38.81676,161],[-90.3912,38.81679,161],[-90.39117,38.81681,160],[-90.39118,38.81683,160],[-90.39114,38.81682,161],[-90.39112,38.81679,162],[-90.39111,38.81676,163],[-90.39108,38.81675,163],[-90.39105,38.81674,164],[-90.39101,38.81673,164],[-90.39098,38.81672,165],[-90.39095,38.81671,165],[-90.39091,38.81673,165],[-90.39088,38.81675,165],[-90.39086,38.81678,164],[-90.39083,38.8168,164],[-90.39084,38.81682,164],[-90.39087,38.81681,164],[-90.39085,38.81683,163],[-90.39084,38.8168,164],[-90.3908,38.81681,164],[-90.39077,38.81682,164],[-90.39077,38.81678,165],[-90.39073,38.81679,165],[-90.39071,38.81681,165],[-90.39068,38.81679,165],[-90.39065,38.81679,166],[-90.39061,38.81681,166],[-90.39057,38.81682,166],[-90.39054,38.81685,166],[-90.3905,38.81687,166],[-90.39047,38.81688,166],[-90.39045,38.8169,166],[-90.39043,38.81693,166],[-90.39044,38.81696,165],[-90.39046,38.81699,164],[-90.39048,38.81702,163],[-90.3905,38.81705,161],[-90.39052,38.81707,161],[-90.39054,38.8171,160],[-90.39055,38.81712,159],[-90.39055,38.81715,158],[-90.39053,38.81717,157],[-90.39052,38.8172,156],[-90.39055,38.81722,156],[-90.39057,38.81724,155],[-90.39058,38.81727,153],[-90.39058,38.8173,152],[-90.39058,38.81733,151],[-90.39058,38.81737,150],[-90.39055,38.81739,149],[-90.39053,38.81741,149],[-90.39056,38.8174,149],[-90.39059,38.81742,148],[-90.39061,38.81745,146],[-90.39064,38.81746,146],[-90.39069,38.81747,145],[-90.39073,38.81748,144],[-90.39076,38.8175,143],[-90.3908,38.81752,142],[-90.39077,38.81755,141],[-90.39073,38.81757,142],[-90.39072,38.8176,141],[-90.3907,38.81764,141],[-90.39066,38.81766,141],[-90.39062,38.81768,141],[-90.39059,38.81769,141],[-90.39054,38.8177,141],[-90.3905,38.8177,142],[-90.39048,38.81767,143],[-90.39046,38.81765,143],[-90.39044,38.81764,144],[-90.39039,38.81763,144],[-90.39036,38.81764,145],[-90.39033,38.81765,145],[-90.39029,38.81768,144],[-90.39026,38.8177,144],[-90.39023,38.81771,145],[-90.3902,38.81774,145],[-90.39016,38.81776,145],[-90.39011,38.81777,146],[-90.39007,38.81778,146],[-90.39003,38.8178,147],[-90.38998,38.81781,147],[-90.38994,38.81781,148],[-90.3899,38.81782,148],[-90.38985,38.81782,148],[-90.38981,38.81783,149],[-90.38977,38.81783,149],[-90.38974,38.81784,149],[-90.3897,38.81785,150],[-90.38965,38.81787,150],[-90.38963,38.81789,149],[-90.3896,38.81791,149],[-90.38957,38.81793,149],[-90.38953,38.81795,149],[-90.3895,38.81797,148],[-90.38945,38.81797,148],[-90.38941,38.81797,149],[-90.38936,38.81797,150],[-90.38933,38.81798,150],[-90.38929,38.81799,150],[-90.38925,38.81798,151],[-90.38921,38.81798,151],[-90.38917,38.81798,152],[-90.38914,38.81799,152],[-90.3891,38.818,153],[-90.38906,38.81802,153],[-90.38903,38.81804,153],[-90.389,38.81806,153],[-90.38896,38.81807,154],[-90.38892,38.81808,155],[-90.38888,38.81808,156],[-90.38884,38.81809,156],[-90.3888,38.8181,157],[-90.38875,38.81809,158],[-90.38871,38.81809,159],[-90.38868,38.81809,160],[-90.38864,38.81811,159],[-90.3886,38.81811,160],[-90.38856,38.81813,159],[-90.38853,38.81815,159],[-90.38851,38.81818,157],[-90.38848,38.81821,156],[-90.38846,38.81823,155],[-90.38843,38.81825,154],[-90.3884,38.81826,153],[-90.38838,38.81829,152],[-90.38837,38.81832,150],[-90.38837,38.81835,149],[-90.38836,38.81839,147],[-90.38834,38.81841,146],[-90.38833,38.81845,144],[-90.38831,38.81848,143],[-90.38829,38.8185,143],[-90.38826,38.81853,142],[-90.38824,38.81856,141],[-90.38821,38.81858,140],[-90.38817,38.8186,140],[-90.38814,38.81861,140],[-90.3881,38.81862,141],[-90.38806,38.81864,141],[-90.38803,38.81865,141],[-90.38799,38.81866,142],[-90.38795,38.81868,142],[-90.38792,38.81869,142],[-90.3879,38.81871,142],[-90.38787,38.81873,143],[-90.38784,38.81876,143],[-90.3878,38.81877,143],[-90.38776,38.81878,143],[-90.38772,38.81879,143],[-90.38767,38.8188,143],[-90.38763,38.81881,143],[-90.38759,38.81882,143],[-90.38754,38.81884,143],[-90.38752,38.81887,142],[-90.3875,38.81889,141],[-90.38748,38.81892,141],[-90.38746,38.81894,140],[-90.38744,38.81898,139],[-90.38744,38.81901,138],[-90.38741,38.81904,137],[-90.38738,38.81906,136],[-90.38734,38.81908,135],[-90.38731,38.8191,134],[-90.38729,38.81912,134],[-90.38725,38.81912,134],[-90.38721,38.81914,133],[-90.38717,38.81915,132],[-90.38714,38.81917,132],[-90.38711,38.81919,132],[-90.38708,38.81922,132],[-90.38704,38.81925,132],[-90.38699,38.81926,132],[-90.38695,38.81925,132],[-90.38691,38.81927,132],[-90.38688,38.81929,133],[-90.38684,38.81931,133],[-90.38681,38.81932,133],[-90.38678,38.81934,133],[-90.38675,38.81936,133],[-90.38672,38.81939,132],[-90.38668,38.81941,132],[-90.38666,38.81943,132],[-90.38663,38.81944,131],[-90.38659,38.81946,131],[-90.38656,38.81947,131],[-90.38652,38.81948,131],[-90.38648,38.81949,131],[-90.38645,38.8195,131],[-90.38641,38.81951,131],[-90.38638,38.81952,131],[-90.38634,38.81952,132],[-90.38631,38.81951,132],[-90.38627,38.81952,133],[-90.38623,38.81953,134],[-90.38619,38.81954,134],[-90.38616,38.81955,135],[-90.38612,38.81956,135],[-90.38608,38.81957,135],[-90.38604,38.81957,135],[-90.38599,38.81958,135],[-90.38595,38.81958,135],[-90.3859,38.81958,136],[-90.38586,38.81958,136],[-90.38583,38.8196,135],[-90.3858,38.81962,135],[-90.38585,38.81962,135],[-90.38588,38.81961,135],[-90.38593,38.81961,134],[-90.38597,38.81961,134],[-90.386,38.81961,134],[-90.38605,38.8196,134],[-90.38609,38.81959,134],[-90.38613,38.81958,134],[-90.38618,38.81958,134],[-90.38623,38.81958,133],[-90.38627,38.81958,132],[-90.38631,38.81957,132],[-90.38636,38.81956,131],[-90.38639,38.81956,131],[-90.38643,38.81955,131],[-90.38646,38.81953,131],[-90.38649,38.81951,131],[-90.38653,38.8195,131],[-90.38656,38.81948,131],[-90.3866,38.81946,131],[-90.38662,38.81944,131],[-90.38665,38.81942,132],[-90.38668,38.8194,132],[-90.38672,38.81938,132],[-90.38674,38.81936,133],[-90.38677,38.81934,133],[-90.3868,38.81932,133],[-90.38684,38.8193,133],[-90.38688,38.81928,133],[-90.38691,38.81926,133],[-90.38696,38.81925,132],[-90.387,38.81924,132],[-90.38704,38.81922,132],[-90.38707,38.81921,132],[-90.38711,38.81919,132],[-90.38715,38.81917,132],[-90.38718,38.81915,132],[-90.38722,38.81914,133],[-90.38725,38.81911,134],[-90.38729,38.81909,135],[-90.38732,38.81907,136],[-90.38735,38.81905,136],[-90.38738,38.81903,137],[-90.38738,38.819,138],[-90.38739,38.81897,139],[-90.38742,38.81894,140],[-90.38744,38.81891,141],[-90.38747,38.81888,142],[-90.3875,38.81885,142],[-90.38754,38.81884,143],[-90.38758,38.81882,143],[-90.38762,38.81882,143],[-90.38766,38.8188,143],[-90.3877,38.81879,143],[-90.38775,38.81877,143],[-90.38779,38.81875,143],[-90.38781,38.81873,143],[-90.38785,38.8187,143],[-90.38788,38.81868,143],[-90.38792,38.81866,143],[-90.38796,38.81864,142],[-90.38799,38.81863,142],[-90.38803,38.81861,142],[-90.38806,38.8186,142],[-90.3881,38.81859,142],[-90.38814,38.81858,141],[-90.38818,38.81857,141],[-90.38821,38.81855,142],[-90.38824,38.81853,142],[-90.38827,38.81851,143],[-90.38829,38.81848,143],[-90.38832,38.81844,145],[-90.38833,38.81841,146],[-90.38834,38.81837,148],[-90.38835,38.81834,149],[-90.38836,38.81831,151],[-90.38837,38.81828,152],[-90.3884,38.81826,153],[-90.38843,38.81824,154],[-90.38844,38.81821,156],[-90.38846,38.81817,158],[-90.38847,38.81814,159],[-90.3885,38.81811,161],[-90.38853,38.8181,161],[-90.38858,38.8181,161],[-90.38862,38.81809,161],[-90.38865,38.81807,161],[-90.38869,38.81806,161],[-90.38873,38.81805,160],[-90.38877,38.81805,159],[-90.3888,38.81804,159],[-90.38884,38.81804,158],[-90.38887,38.81804,157],[-90.38891,38.81804,156],[-90.38895,38.81804,156],[-90.38899,38.81802,155],[-90.38904,38.81801,154],[-90.38907,38.818,154],[-90.38911,38.81799,153],[-90.38916,38.81799,152],[-90.38922,38.81798,151],[-90.38925,38.81797,151],[-90.38929,38.81796,151],[-90.38933,38.81796,150],[-90.38937,38.81795,150],[-90.38942,38.81794,149],[-90.38946,38.81793,149],[-90.3895,38.81792,149],[-90.38954,38.8179,149],[-90.38957,38.81788,150],[-90.38961,38.81787,150],[-90.38965,38.81785,150],[-90.38968,38.81785,150],[-90.38972,38.81785,150],[-90.38976,38.81785,149],[-90.3898,38.81784,149],[-90.38984,38.81783,148],[-90.38987,38.81782,148],[-90.38992,38.8178,148],[-90.38997,38.8178,147],[-90.39,38.81779,147],[-90.39004,38.81777,147],[-90.39007,38.81775,147],[-90.3901,38.81772,147],[-90.39012,38.8177,147],[-90.39016,38.81767,147],[-90.39019,38.81765,147],[-90.39023,38.81763,146],[-90.39027,38.81761,146],[-90.39032,38.81761,146],[-90.39037,38.81762,145],[-90.3904,38.81764,144],[-90.39044,38.81765,143],[-90.39048,38.81766,143],[-90.39052,38.81765,143],[-90.39056,38.81764,143],[-90.39059,38.81762,143],[-90.39062,38.8176,143],[-90.39065,38.81758,143],[-90.39068,38.81756,143],[-90.39071,38.81754,143],[-90.39074,38.81752,142],[-90.39078,38.81749,143],[-90.3908,38.81746,143],[-90.39083,38.81744,143],[-90.39086,38.81742,144],[-90.39088,38.8174,144],[-90.3909,38.81737,145],[-90.39093,38.81734,145],[-90.39095,38.81731,146],[-90.39097,38.81728,146],[-90.39099,38.81725,147],[-90.39101,38.81722,148],[-90.39104,38.8172,148],[-90.39107,38.81719,148],[-90.3911,38.8172,147],[-90.39114,38.81719,146],[-90.39117,38.81718,146],[-90.3912,38.81716,147],[-90.39123,38.81714,147],[-90.39128,38.81712,147],[-90.39131,38.8171,147],[-90.39133,38.81707,148],[-90.39137,38.81705,148],[-90.3914,38.81704,148],[-90.39144,38.81703,148],[-90.39148,38.81701,148],[-90.39153,38.817,148],[-90.39156,38.81699,147],[-90.3916,38.81697,148],[-90.39164,38.81696,147],[-90.39167,38.81693,148],[-90.3917,38.81691,149],[-90.39173,38.8169,149],[-90.39175,38.81687,149],[-90.39178,38.81686,150],[-90.39182,38.81683,150],[-90.39185,38.8168,150],[-90.39189,38.81679,150],[-90.39192,38.81677,150],[-90.39194,38.81675,150],[-90.39197,38.81674,150],[-90.392,38.81672,149],[-90.39198,38.81669,150],[-90.39201,38.81667,149],[-90.39205,38.81668,149],[-90.39208,38.81666,148],[-90.3921,38.81663,148],[-90.39213,38.81661,148],[-90.39217,38.8166,147],[-90.39219,38.81658,147],[-90.39222,38.81656,147],[-90.39223,38.81653,147],[-90.39224,38.81649,147],[-90.39225,38.81646,147],[-90.39227,38.81643,147],[-90.39228,38.8164,147],[-90.39231,38.81638,147],[-90.39232,38.81635,148],[-90.39232,38.81632,148],[-90.39231,38.81629,149],[-90.39232,38.81626,150],[-90.39235,38.81625,150],[-90.39237,38.81621,150],[-90.39239,38.81619,150],[-90.39241,38.81616,150],[-90.39244,38.81614,150],[-90.39247,38.81613,149],[-90.39251,38.81611,148],[-90.39254,38.81608,147],[-90.39257,38.81606,146],[-90.39259,38.81604,145],[-90.39261,38.816,145],[-90.39261,38.81597,145],[-90.39261,38.81594,145],[-90.3926,38.81591,145],[-90.39259,38.81588,145],[-90.39259,38.81585,145],[-90.39259,38.81582,146],[-90.39258,38.81578,147],[-90.39257,38.81574,148],[-90.39256,38.81572,149],[-90.39257,38.81569,150],[-90.39257,38.81565,150],[-90.39258,38.81562,151],[-90.3926,38.81558,151],[-90.39263,38.81556,150],[-90.39265,38.81553,150],[-90.39268,38.81551,149],[-90.39271,38.8155,149],[-90.39275,38.81548,148],[-90.39278,38.81547,147],[-90.39281,38.81545,147],[-90.39284,38.81542,147],[-90.39287,38.81544,145],[-90.39289,38.81543,145],[-90.39293,38.81542,144],[-90.39297,38.8154,144],[-90.393,38.81537,144],[-90.39302,38.81534,144],[-90.39305,38.81532,144],[-90.39308,38.81529,144],[-90.3931,38.81526,145],[-90.39312,38.81522,144],[-90.39313,38.81519,144],[-90.39313,38.81516,145],[-90.39313,38.81512,145],[-90.39311,38.8151,145],[-90.3931,38.81506,146],[-90.39309,38.81503,147],[-90.39307,38.815,147],[-90.39305,38.81498,147],[-90.39304,38.81494,147],[-90.39303,38.81491,147],[-90.39302,38.81488,147],[-90.39302,38.81485,147],[-90.39302,38.81481,147],[-90.39302,38.81478,147],[-90.39301,38.81474,147],[-90.393,38.81471,147],[-90.39299,38.81468,147],[-90.39298,38.81465,147],[-90.39295,38.81462,148],[-90.39293,38.81459,149],[-90.3929,38.81456,149],[-90.39287,38.81453,150],[-90.39283,38.81451,151],[-90.39279,38.81449,152],[-90.39276,38.81447,153],[-90.39273,38.81444,153],[-90.39271,38.81441,153],[-90.39269,38.81439,152],[-90.39266,38.81436,152],[-90.39261,38.81434,152],[-90.39257,38.81432,152],[-90.39254,38.81431,152],[-90.39249,38.81429,152],[-90.39246,38.81428,152],[-90.39242,38.81426,152],[-90.39238,38.81424,151],[-90.39235,38.81422,151],[-90.39233,38.81419,151],[-90.39231,38.81416,150],[-90.3923,38.81413,148],[-90.39228,38.8141,146],[-90.3923,38.81407,145],[-90.39233,38.81405,143],[-90.39235,38.81402,142],[-90.39238,38.81399,141],[-90.39239,38.81396,139],[-90.39241,38.81393,138],[-90.39242,38.8139,137],[-90.39245,38.81388,137],[-90.39247,38.81385,137],[-90.39248,38.81382,137],[-90.3925,38.81378,138],[-90.39252,38.81376,138],[-90.39253,38.81373,138],[-90.39254,38.8137,138],[-90.39256,38.81368,138],[-90.39257,38.81365,138],[-90.39259,38.81361,138],[-90.39262,38.81358,138],[-90.39264,38.81355,137],[-90.39266,38.81353,137],[-90.39269,38.81349,137],[-90.39271,38.81347,136],[-90.39274,38.81344,136],[-90.39277,38.81341,135],[-90.39279,38.81339,135],[-90.39283,38.81336,134],[-90.39287,38.81333,134],[-90.3929,38.81331,134],[-90.39292,38.81329,133],[-90.39296,38.81325,133],[-90.39298,38.81323,133],[-90.39301,38.81321,133],[-90.39304,38.81318,133],[-90.39306,38.81316,132],[-90.3931,38.81313,132],[-90.39313,38.8131,132],[-90.39316,38.81308,132],[-90.39319,38.81306,132],[-90.39323,38.81303,133],[-90.39326,38.813,133],[-90.3933,38.81298,133],[-90.39333,38.81296,133],[-90.39337,38.81293,133],[-90.39341,38.81291,133],[-90.39345,38.81289,133],[-90.39348,38.81287,133],[-90.39349,38.81285,133],[-90.39349,38.81281,134],[-90.3935,38.81277,134],[-90.3935,38.81274,134],[-90.39354,38.81274,134],[-90.39358,38.81273,134],[-90.39361,38.81272,134],[-90.39365,38.81269,134],[-90.39368,38.81267,134],[-90.39371,38.81264,135],[-90.39375,38.81262,135],[-90.39378,38.8126,135],[-90.39382,38.81258,135],[-90.39387,38.81257,136],[-90.39391,38.81256,136],[-90.39395,38.81253,136],[-90.39397,38.81251,136],[-90.394,38.81249,137],[-90.39403,38.81247,137],[-90.39406,38.81245,137],[-90.39409,38.81242,137],[-90.39413,38.81239,137],[-90.39416,38.81237,137],[-90.39419,38.81234,137],[-90.39423,38.81231,137],[-90.39426,38.81228,137],[-90.39429,38.81226,137],[-90.39432,38.81224,137],[-90.39435,38.81221,138],[-90.39439,38.81219,138],[-90.39442,38.81216,138],[-90.39446,38.81213,137],[-90.39448,38.81211,137],[-90.39451,38.81209,137],[-90.39455,38.81206,137],[-90.39457,38.81203,137],[-90.3946,38.81201,137],[-90.39464,38.81198,137],[-90.39467,38.81195,137],[-90.3947,38.81193,136],[-90.39474,38.8119,136],[-90.39476,38.81188,136],[-90.3948,38.81185,135],[-90.39483,38.81183,135],[-90.39485,38.8118,134],[-90.39487,38.81177,134],[-90.39489,38.81174,134],[-90.39492,38.81172,133],[-90.39492,38.81169,133],[-90.39493,38.81166,133],[-90.39494,38.81163,133],[-90.39496,38.81161,132],[-90.39499,38.8116,132],[-90.39499,38.81157,132],[-90.39502,38.81157,132],[-90.39505,38.81159,132]]],
        "bbox": [
          -90.3858,
          38.81962,
          -90.39506,
          38.80368
        ]
      },
      "properties": {
        "name": "10.16.2022"
      }
    }
  ]
}