{
  "type": "FeatureCollection",
  "features": [
    {
      "type": "Feature",
      "geometry": {
        "type": "MultiLineString",
        "coordinates": [[[-90.39504,38.81163,132],[-90.395,38.81165,132],[-90.39496,38.81168,133],[-90.39493,38.81171,133],[-90.39491,38.81174,133],[-90.39488,38.81176,134],[-90.39485,38.81178,134],[-90.39482,38.81181,135],[-90.3948,38.81183,135],[-90.39476,38.81187,135],[-90.39474,38.8119,136],[-90.3947,38.81191,136],[-90.39467,38.81194,137],[-90.39463,38.81196,137],[-90.3946,38.81199,137],[-90.39456,38.81202,137],[-90.39453,38.81205,137],[-90.3945,38.81207,137],[-90.39447,38.81209,137],[-90.39445,38.81212,137],[-90.39443,38.81214,138],[-90.3944,38.81216,138],[-90.39438,38.81219,138],[-90.39435,38.81221,138],[-90.39431,38.81223,137],[-90.39428,38.81225,137],[-90.39426,38.81228,137],[-90.39423,38.81231,137],[-90.3942,38.81233,137],[-90.39417,38.81234,137],[-90.39413,38.81237,137],[-90.39411,38.8124,137],[-90.39408,38.81242,137],[-90.39405,38.81244,137],[-90.39403,38.81246,137],[-90.394,38.81249,137],[-90.39396,38.81252,136],[-90.39393,38.81254,136],[-90.39391,38.81255,136],[-90.39388,38.81257,136],[-90.39386,38.8126,135],[-90.39383,38.81262,135],[-90.3938,38.81264,135],[-90.39376,38.81267,134],[-90.39372,38.81269,134],[-90.39369,38.81271,134],[-90.39366,38.81273,134],[-90.39362,38.81274,134],[-90.39357,38.81274,134],[-90.39354,38.81274,134],[-90.3935,38.81273,134],[-90.39347,38.81276,134],[-90.39344,38.81279,134],[-90.39342,38.81282,134],[-90.39341,38.81284,134],[-90.3934,38.81287,134],[-90.39338,38.81289,134],[-90.39335,38.81291,134],[-90.39333,38.81294,133],[-90.39329,38.81296,133],[-90.39326,38.81297,133],[-90.39322,38.81299,133],[-90.39319,38.81301,133],[-90.39316,38.81304,133],[-90.39313,38.81306,132],[-90.3931,38.81308,132],[-90.39306,38.81311,132],[-90.39303,38.81313,133],[-90.393,38.81315,133],[-90.39298,38.81318,133],[-90.39295,38.8132,133],[-90.39292,38.81323,133],[-90.3929,38.81325,133],[-90.39286,38.81328,134],[-90.39283,38.81331,134],[-90.39281,38.81333,134],[-90.39278,38.81337,135],[-90.39274,38.81339,135],[-90.39271,38.8134,136],[-90.39267,38.81338,136],[-90.39264,38.81337,136],[-90.3926,38.81336,136],[-90.39256,38.81335,136],[-90.39252,38.81333,136],[-90.39248,38.81333,137],[-90.39251,38.81335,137],[-90.39254,38.81336,136],[-90.39257,38.81338,136],[-90.3926,38.8134,136],[-90.3926,38.81343,137],[-90.39258,38.81346,137],[-90.39257,38.81349,137],[-90.39255,38.81352,138],[-90.39253,38.81355,138],[-90.39251,38.81358,138],[-90.3925,38.81362,138],[-90.39248,38.81365,138],[-90.39247,38.81368,138],[-90.39247,38.81371,138],[-90.39247,38.81374,138],[-90.39246,38.81376,138],[-90.39245,38.8138,137],[-90.39245,38.81383,137],[-90.39245,38.81386,137],[-90.39243,38.81389,136],[-90.39242,38.81392,138],[-90.39239,38.81394,138],[-90.39235,38.81396,139],[-90.39232,38.81398,139],[-90.39227,38.81399,140],[-90.39224,38.81397,138],[-90.39222,38.81394,136],[-90.39219,38.81392,135],[-90.39218,38.8139,134],[-90.39213,38.8139,135],[-90.3921,38.81389,135],[-90.39207,38.81387,136],[-90.39205,38.81384,136],[-90.39201,38.81383,137],[-90.39196,38.81382,138],[-90.39192,38.81381,139],[-90.39189,38.8138,140],[-90.39186,38.81378,141],[-90.39184,38.81374,141],[-90.39181,38.81372,142],[-90.39179,38.81369,142],[-90.39177,38.81366,142],[-90.39173,38.81364,142],[-90.3917,38.81364,143],[-90.39166,38.81362,143],[-90.39164,38.81359,143],[-90.39164,38.81356,144],[-90.39164,38.81353,144],[-90.39165,38.8135,145],[-90.39166,38.81347,145],[-90.39166,38.81345,145],[-90.39164,38.81342,146],[-90.39163,38.8134,146],[-90.39166,38.81338,146],[-90.39168,38.81335,146],[-90.39167,38.81332,146],[-90.39162,38.81331,147],[-90.39158,38.81331,147],[-90.39154,38.8133,148],[-90.39151,38.81328,148],[-90.39148,38.81326,149],[-90.39146,38.81323,149],[-90.39145,38.8132,149],[-90.39142,38.81319,149],[-90.3914,38.81316,150],[-90.39136,38.81316,150],[-90.39134,38.81313,150],[-90.39131,38.8131,151],[-90.39128,38.81308,151],[-90.39126,38.81305,151],[-90.39125,38.81302,151],[-90.39124,38.81298,150],[-90.39122,38.81295,149],[-90.3912,38.81292,149],[-90.39118,38.81289,148],[-90.39117,38.81286,148],[-90.39115,38.81282,147],[-90.39112,38.8128,147],[-90.3911,38.81276,146],[-90.3911,38.81273,146],[-90.39108,38.8127,145],[-90.39107,38.81267,145],[-90.39107,38.81264,144],[-90.39107,38.81261,143],[-90.39107,38.81258,143],[-90.39106,38.81255,142],[-90.39105,38.81251,141],[-90.39105,38.81248,142],[-90.39104,38.81244,143],[-90.39104,38.8124,144],[-90.39102,38.81237,145],[-90.39099,38.81235,146],[-90.39097,38.81232,147],[-90.39096,38.81229,147],[-90.39095,38.81226,148],[-90.39094,38.81223,149],[-90.3909,38.81221,149],[-90.39087,38.81218,149],[-90.39088,38.81215,149],[-90.3909,38.81211,149],[-90.39091,38.81208,149],[-90.39091,38.81205,149],[-90.39092,38.81201,149],[-90.39094,38.81198,150],[-90.39096,38.81196,150],[-90.39097,38.81193,150],[-90.39098,38.8119,149],[-90.39098,38.81187,149],[-90.39096,38.81184,148],[-90.39097,38.81181,148],[-90.39097,38.81177,147],[-90.39097,38.81175,147],[-90.39099,38.81172,146],[-90.39102,38.81168,145],[-90.39104,38.81165,145],[-90.39107,38.81162,144],[-90.3911,38.81161,144],[-90.39111,38.81158,143],[-90.39112,38.81155,143],[-90.39115,38.81153,142],[-90.39116,38.81149,141],[-90.39114,38.81146,141],[-90.39112,38.81143,141],[-90.39109,38.81142,141],[-90.39105,38.8114,141],[-90.39101,38.81137,141],[-90.391,38.81134,141],[-90.39097,38.81131,141],[-90.39094,38.81128,141],[-90.39092,38.81125,141],[-90.39089,38.81123,141],[-90.39088,38.8112,141],[-90.39086,38.81117,141],[-90.39084,38.81114,141],[-90.39085,38.81111,140],[-90.39086,38.81108,140],[-90.39087,38.81104,139],[-90.39088,38.81101,139],[-90.39088,38.81097,139],[-90.39091,38.81094,138],[-90.39092,38.81091,138],[-90.39088,38.81089,138],[-90.39084,38.81087,138],[-90.39082,38.8109,138],[-90.39084,38.81093,138],[-90.39085,38.81096,139],[-90.39085,38.81099,139],[-90.39086,38.81103,139],[-90.39085,38.81106,140],[-90.39085,38.81109,140],[-90.39085,38.81112,140],[-90.39081,38.81114,141],[-90.39078,38.81116,141],[-90.39074,38.81118,141],[-90.39071,38.8112,141],[-90.39067,38.81122,142],[-90.39065,38.81124,142],[-90.39062,38.81125,142],[-90.39057,38.81126,142],[-90.39053,38.81124,142],[-90.3905,38.81122,142],[-90.39048,38.8112,142],[-90.39045,38.81118,142],[-90.39041,38.81117,142],[-90.39037,38.81117,142],[-90.39033,38.81118,142],[-90.3903,38.81119,142],[-90.39025,38.81119,143],[-90.39021,38.81118,143],[-90.39018,38.81116,144],[-90.3902,38.81119,143],[-90.39016,38.81119,144],[-90.39012,38.81118,144],[-90.39008,38.81117,145],[-90.39004,38.81117,146],[-90.39,38.81116,146],[-90.38996,38.81116,147],[-90.38992,38.81117,147],[-90.38989,38.81119,148],[-90.38986,38.81121,148],[-90.38982,38.81122,149],[-90.38978,38.81122,149],[-90.38974,38.81122,150],[-90.3897,38.81122,150],[-90.38966,38.81122,150],[-90.38961,38.81122,151],[-90.38957,38.81121,151],[-90.38955,38.81124,151],[-90.38954,38.81126,151],[-90.38952,38.8113,151],[-90.3895,38.81132,151],[-90.38946,38.81135,151],[-90.38942,38.81137,152],[-90.38938,38.81137,152],[-90.38935,38.81138,152],[-90.38931,38.8114,152],[-90.38928,38.81142,152],[-90.38925,38.81143,152],[-90.38921,38.81144,152],[-90.38917,38.81146,152],[-90.38914,38.81147,152],[-90.3891,38.81148,153],[-90.38906,38.81149,154],[-90.38902,38.8115,155],[-90.38897,38.81151,156],[-90.38893,38.81152,157],[-90.38889,38.81152,158],[-90.38886,38.8115,159],[-90.38882,38.81151,160],[-90.3888,38.81153,160],[-90.38879,38.81156,161],[-90.38877,38.81159,161],[-90.38873,38.8116,162],[-90.3887,38.81162,163],[-90.38867,38.81163,163],[-90.38865,38.81166,164],[-90.38863,38.81168,164],[-90.3886,38.81171,164],[-90.38858,38.81174,164],[-90.38857,38.81177,164],[-90.38855,38.81179,164],[-90.38854,38.81182,164],[-90.38855,38.81186,163],[-90.38856,38.81188,163],[-90.38856,38.81191,163],[-90.38858,38.81194,162],[-90.38858,38.81197,162],[-90.38861,38.81199,162],[-90.38866,38.812,161],[-90.38868,38.81202,161],[-90.38872,38.81202,160],[-90.38871,38.81205,161],[-90.38874,38.81207,161],[-90.38878,38.81209,161],[-90.38881,38.81212,161],[-90.38883,38.81215,161],[-90.38882,38.81219,162],[-90.3888,38.81222,162],[-90.38878,38.81225,163],[-90.38874,38.81226,163],[-90.3887,38.81227,164],[-90.38866,38.81228,164],[-90.38865,38.81231,165],[-90.38862,38.81235,166],[-90.38862,38.81238,166],[-90.38863,38.81242,167],[-90.38863,38.81246,167],[-90.38862,38.81248,168],[-90.38858,38.81251,169],[-90.38856,38.81254,170],[-90.38855,38.81257,170],[-90.38854,38.81259,171],[-90.38852,38.81261,171],[-90.38849,38.81264,173],[-90.38844,38.81265,174],[-90.38841,38.81267,175],[-90.38837,38.81268,177],[-90.38833,38.8127,178],[-90.3883,38.81272,179],[-90.38826,38.81273,181],[-90.38822,38.81274,182],[-90.38818,38.81276,183],[-90.38814,38.81278,185],[-90.3881,38.81279,186],[-90.38806,38.8128,188],[-90.38807,38.81283,188],[-90.38807,38.81286,188],[-90.38807,38.81289,188],[-90.38805,38.81292,189],[-90.38805,38.81296,190],[-90.38805,38.813,190],[-90.38805,38.81303,190],[-90.38804,38.81306,191],[-90.38802,38.81309,191],[-90.38802,38.81312,192],[-90.388,38.81315,192],[-90.38797,38.81318,193],[-90.38794,38.81319,193],[-90.38791,38.81321,194],[-90.38789,38.81324,194],[-90.38785,38.81327,195],[-90.38782,38.81328,195],[-90.38779,38.81329,195],[-90.38775,38.8133,195],[-90.38772,38.81331,195],[-90.38769,38.8133,195],[-90.38765,38.81329,194],[-90.38761,38.81329,194],[-90.38759,38.81332,194],[-90.3876,38.81335,194],[-90.3876,38.81339,195],[-90.38759,38.81342,195],[-90.38758,38.81345,195],[-90.3876,38.81343,195],[-90.38757,38.81345,195],[-90.38756,38.81348,195],[-90.38754,38.81352,195],[-90.38753,38.81355,195],[-90.38753,38.81358,195],[-90.38753,38.81361,196],[-90.38751,38.81364,196],[-90.3875,38.81368,196],[-90.38748,38.81372,197],[-90.38748,38.81375,197],[-90.38747,38.81378,198],[-90.38746,38.81382,198],[-90.38747,38.81386,199],[-90.3875,38.81388,199],[-90.38754,38.8139,200],[-90.38758,38.81391,200],[-90.38761,38.81393,200],[-90.38761,38.81396,200],[-90.38765,38.81396,200],[-90.38769,38.81396,200],[-90.38773,38.81395,200],[-90.38777,38.81395,200],[-90.38781,38.81395,199],[-90.38785,38.81395,199],[-90.38789,38.81395,199],[-90.38793,38.81394,199],[-90.38796,38.81392,199],[-90.38801,38.81391,199],[-90.38805,38.8139,199],[-90.38809,38.8139,198],[-90.38813,38.81391,198],[-90.38817,38.81391,198],[-90.3882,38.81392,198],[-90.38823,38.81394,198],[-90.38827,38.81396,198],[-90.38831,38.81398,198],[-90.38836,38.814,198],[-90.3884,38.81403,197],[-90.38844,38.81404,197],[-90.38847,38.81406,197],[-90.38852,38.81406,197],[-90.38856,38.81407,196],[-90.3886,38.81408,196],[-90.38864,38.81409,196],[-90.38869,38.8141,195],[-90.38873,38.81411,194],[-90.38877,38.81413,194],[-90.38882,38.81415,193],[-90.38886,38.81416,193],[-90.3889,38.81417,192],[-90.38895,38.81417,192],[-90.38899,38.81417,192],[-90.38902,38.81417,192],[-90.38906,38.81417,192],[-90.3891,38.81419,192],[-90.38915,38.81421,192],[-90.38918,38.81422,192],[-90.38922,38.81423,191],[-90.38926,38.81424,191],[-90.38929,38.81426,190],[-90.38933,38.81427,190],[-90.38937,38.81429,189],[-90.3894,38.81432,189],[-90.38942,38.81434,189],[-90.38945,38.81436,189],[-90.38948,38.81439,189],[-90.3895,38.81441,189],[-90.38952,38.81444,189],[-90.38953,38.81447,189],[-90.38952,38.81451,190],[-90.3895,38.81454,190],[-90.38949,38.81457,190],[-90.3895,38.81461,190],[-90.3895,38.81464,190],[-90.3895,38.81467,190],[-90.38949,38.81471,191],[-90.38949,38.81474,190],[-90.38949,38.81478,190],[-90.38949,38.81481,190],[-90.3895,38.81484,189],[-90.38952,38.81487,189],[-90.38953,38.81491,189],[-90.38953,38.81494,188],[-90.38954,38.81497,188],[-90.38956,38.815,188],[-90.38959,38.81503,188],[-90.38962,38.81504,187],[-90.38966,38.81507,187],[-90.38969,38.81509,187],[-90.38971,38.81513,186],[-90.38974,38.81515,185],[-90.38976,38.81517,185],[-90.38979,38.81519,184],[-90.38981,38.81522,184],[-90.38984,38.81525,183],[-90.38988,38.81526,182],[-90.38991,38.81527,182],[-90.38996,38.81528,182],[-90.39,38.8153,181],[-90.39004,38.81532,181],[-90.39008,38.81534,180],[-90.39012,38.81536,180],[-90.39016,38.81536,180],[-90.3902,38.81537,180],[-90.39025,38.81537,180],[-90.39029,38.81538,180],[-90.39032,38.8154,180],[-90.39036,38.81541,180],[-90.3904,38.81542,181],[-90.39043,38.81544,181],[-90.39046,38.81545,181],[-90.3905,38.81545,182],[-90.39054,38.81546,182],[-90.39058,38.81546,182],[-90.39062,38.81548,183],[-90.39067,38.81547,183],[-90.3907,38.81548,184],[-90.39074,38.81549,184],[-90.39078,38.8155,184],[-90.39082,38.8155,185],[-90.39086,38.8155,185],[-90.39091,38.81549,185],[-90.39095,38.81548,185],[-90.391,38.81547,186],[-90.39103,38.81545,186],[-90.39106,38.81544,186],[-90.3911,38.81543,186],[-90.39114,38.81543,186],[-90.39118,38.81542,186],[-90.39123,38.81543,186],[-90.39127,38.81542,185],[-90.39131,38.81541,185],[-90.39135,38.81542,185],[-90.39139,38.81544,185],[-90.39142,38.81547,184],[-90.39144,38.81549,184],[-90.39146,38.81552,184],[-90.3915,38.81553,184],[-90.39152,38.81555,184],[-90.39156,38.81557,183],[-90.39159,38.81559,183],[-90.39161,38.81562,182],[-90.39165,38.81564,182],[-90.39169,38.81565,181],[-90.39173,38.81568,180],[-90.39175,38.8157,179],[-90.39175,38.81573,179],[-90.39176,38.81577,178],[-90.39177,38.81581,177],[-90.39177,38.81585,176],[-90.39176,38.81589,176],[-90.39176,38.81592,175],[-90.39176,38.81595,174],[-90.39175,38.81597,174],[-90.39176,38.816,173],[-90.39176,38.81603,173],[-90.39177,38.81606,172],[-90.3918,38.81608,170],[-90.39177,38.8161,171],[-90.39174,38.81611,171],[-90.39172,38.81616,170],[-90.39172,38.81619,169],[-90.39171,38.81622,168],[-90.3917,38.81626,167],[-90.39168,38.81629,167],[-90.39167,38.81632,166],[-90.39167,38.81635,165],[-90.3917,38.81633,165],[-90.39167,38.81636,164],[-90.39165,38.81639,164],[-90.39163,38.81641,164],[-90.39162,38.81644,163],[-90.3916,38.81647,163],[-90.39157,38.81649,163],[-90.39154,38.81652,163],[-90.39151,38.81654,163],[-90.39148,38.81657,163],[-90.39147,38.81659,162],[-90.39145,38.81662,162],[-90.39142,38.81661,163],[-90.39142,38.81665,161],[-90.39139,38.81667,161],[-90.39135,38.81668,162],[-90.39132,38.81669,162],[-90.3913,38.81671,161],[-90.39129,38.81674,161],[-90.39126,38.81676,160],[-90.39122,38.81678,161],[-90.39119,38.8168,160],[-90.39117,38.81682,160],[-90.39111,38.81686,160],[-90.39109,38.81683,161],[-90.39105,38.81682,162],[-90.39104,38.81679,163],[-90.39101,38.81676,164],[-90.39097,38.81674,164],[-90.39095,38.81671,165],[-90.39091,38.81668,166],[-90.3909,38.81671,165],[-90.3909,38.81675,165],[-90.39089,38.81678,164],[-90.39086,38.8168,164],[-90.39082,38.81682,164],[-90.39079,38.81682,164],[-90.39075,38.81684,164],[-90.39072,38.81682,165],[-90.39068,38.81682,165],[-90.39064,38.81683,165],[-90.3906,38.81685,165],[-90.39056,38.81687,165],[-90.39053,38.81689,165],[-90.39049,38.8169,165],[-90.39046,38.81689,166],[-90.39044,38.81686,166],[-90.39042,38.81683,167],[-90.39042,38.81681,167],[-90.39038,38.8168,167],[-90.39039,38.81683,167],[-90.39042,38.81687,166],[-90.39044,38.81689,166],[-90.39048,38.81691,165],[-90.39049,38.81694,165],[-90.39051,38.81696,164],[-90.39052,38.817,163],[-90.39054,38.81702,162],[-90.39054,38.81705,161],[-90.39052,38.81708,160],[-90.39051,38.81711,159],[-90.3905,38.81714,158],[-90.3905,38.81717,157],[-90.3905,38.8172,156],[-90.3905,38.81723,155],[-90.39049,38.81726,154],[-90.39051,38.81728,154],[-90.39054,38.81727,154],[-90.39057,38.8173,152],[-90.39061,38.81731,151],[-90.39058,38.81733,151],[-90.39055,38.81734,151],[-90.39059,38.81736,150],[-90.39061,38.81738,149],[-90.39058,38.8174,149],[-90.39055,38.81741,149],[-90.39052,38.81743,148],[-90.3905,38.81746,147],[-90.3905,38.8175,146],[-90.3905,38.81753,145],[-90.3905,38.81755,145],[-90.39052,38.81758,144],[-90.39053,38.81761,143],[-90.39054,38.81765,142],[-90.39056,38.81767,142],[-90.3906,38.81768,141],[-90.3906,38.81771,140],[-90.39059,38.81773,140],[-90.39056,38.81777,140],[-90.39053,38.8178,140],[-90.3905,38.81781,140],[-90.39047,38.81784,140],[-90.39046,38.81787,140],[-90.39046,38.8179,139],[-90.39042,38.81788,140],[-90.3904,38.81786,140],[-90.39036,38.81786,141],[-90.39032,38.81787,141],[-90.39029,38.81787,141],[-90.39024,38.81787,142],[-90.39021,38.81787,143],[-90.39016,38.81787,143],[-90.39012,38.81787,144],[-90.39008,38.81787,145],[-90.39004,38.81788,145],[-90.39001,38.8179,145],[-90.38998,38.81792,145],[-90.38993,38.81792,146],[-90.3899,38.81793,146],[-90.38986,38.81793,147],[-90.38982,38.81794,147],[-90.38978,38.81796,147],[-90.38975,38.81798,147],[-90.38972,38.81799,147],[-90.38967,38.818,147],[-90.38963,38.81801,147],[-90.3896,38.81802,147],[-90.38956,38.81802,147],[-90.38953,38.81803,147],[-90.38948,38.81804,147],[-90.38945,38.81805,147],[-90.38945,38.81808,145],[-90.38944,38.8181,145],[-90.3894,38.81809,146],[-90.38937,38.81809,146],[-90.38939,38.81811,145],[-90.38936,38.81809,146],[-90.38932,38.81807,147],[-90.38928,38.81807,148],[-90.38925,38.81806,148],[-90.38921,38.81807,148],[-90.38916,38.81808,149],[-90.38912,38.81808,150],[-90.38909,38.81811,149],[-90.38905,38.81811,150],[-90.38901,38.81811,151],[-90.38897,38.81813,152],[-90.38894,38.81813,152],[-90.3889,38.81812,154],[-90.38892,38.81809,154],[-90.38894,38.81807,155],[-90.38892,38.81804,156],[-90.38896,38.81805,155],[-90.389,38.81803,154],[-90.38903,38.81802,154],[-90.38907,38.818,154],[-90.3891,38.81799,153],[-90.38914,38.81797,153],[-90.38918,38.81796,152],[-90.38921,38.81796,152],[-90.38925,38.81797,151],[-90.38929,38.81796,151],[-90.38932,38.81798,150],[-90.38936,38.81798,149],[-90.3894,38.81797,149],[-90.38942,38.818,148],[-90.38945,38.81802,147],[-90.38949,38.81802,147],[-90.38952,38.81802,147],[-90.38956,38.81802,147],[-90.38961,38.81802,147],[-90.38964,38.81801,147],[-90.38967,38.81799,148],[-90.3897,38.81799,147],[-90.38974,38.81798,147],[-90.38979,38.81796,147],[-90.38983,38.81794,147],[-90.38987,38.81794,146],[-90.38991,38.81793,146],[-90.38995,38.81793,145],[-90.38999,38.81791,145],[-90.39002,38.8179,145],[-90.39006,38.81789,145],[-90.39009,38.81787,144],[-90.39013,38.81786,144],[-90.39016,38.81786,143],[-90.3902,38.81786,143],[-90.39024,38.81785,142],[-90.39027,38.81784,142],[-90.39031,38.81785,141],[-90.39034,38.81783,141],[-90.39034,38.8178,142],[-90.39038,38.81779,141],[-90.39041,38.81778,141],[-90.39046,38.81776,141],[-90.3905,38.81775,141],[-90.39053,38.81772,141],[-90.39056,38.8177,141],[-90.39059,38.81767,141],[-90.39059,38.81764,142],[-90.39063,38.81763,142],[-90.39066,38.81762,142],[-90.3907,38.81761,141],[-90.39072,38.81759,141],[-90.39075,38.81756,142],[-90.39077,38.81754,142],[-90.39081,38.81751,142],[-90.39083,38.81749,142],[-90.39083,38.81745,143],[-90.39088,38.81744,143],[-90.39092,38.81742,143],[-90.39095,38.8174,143],[-90.39097,38.81738,144],[-90.39101,38.81736,144],[-90.39105,38.81734,143],[-90.39105,38.81731,144],[-90.39106,38.81728,145],[-90.39108,38.81726,145],[-90.3911,38.81723,146],[-90.39112,38.8172,146],[-90.39113,38.81716,148],[-90.39116,38.81714,148],[-90.39121,38.81713,148],[-90.39125,38.81711,148],[-90.39128,38.8171,148],[-90.39133,38.81707,148],[-90.39138,38.81705,148],[-90.39142,38.81702,149],[-90.39145,38.81701,149],[-90.3915,38.81699,149],[-90.39153,38.81698,149],[-90.39157,38.81696,149],[-90.39161,38.81696,148],[-90.39165,38.81695,148],[-90.39169,38.81694,148],[-90.39172,38.81692,148],[-90.39175,38.81691,149],[-90.39179,38.81689,149],[-90.39182,38.81686,149],[-90.39185,38.81684,150],[-90.39188,38.81682,150],[-90.3919,38.8168,150],[-90.39193,38.81679,150],[-90.39196,38.81677,150],[-90.39196,38.81674,150],[-90.39197,38.81671,150],[-90.39198,38.81668,150],[-90.392,38.81665,150],[-90.39204,38.81665,149],[-90.39208,38.81665,148],[-90.3921,38.81663,148],[-90.39212,38.8166,148],[-90.39213,38.81658,148],[-90.39216,38.81655,148],[-90.3922,38.81653,148],[-90.39224,38.8165,147],[-90.39225,38.81647,147],[-90.39227,38.81644,147],[-90.39229,38.81641,147],[-90.3923,38.81638,147],[-90.39234,38.81637,146],[-90.39237,38.81634,147],[-90.39236,38.81632,148],[-90.39234,38.81629,149],[-90.39237,38.81627,148],[-90.3924,38.81625,148],[-90.39244,38.81624,147],[-90.39245,38.81622,148],[-90.39244,38.81619,149],[-90.39246,38.81616,149],[-90.39248,38.81613,149],[-90.39252,38.8161,148],[-90.39257,38.8161,146],[-90.3926,38.81609,145],[-90.39263,38.81607,144],[-90.39267,38.81605,143],[-90.3927,38.81603,142],[-90.39272,38.81601,141],[-90.39274,38.81598,141],[-90.39274,38.81595,141],[-90.39274,38.81592,141],[-90.39275,38.81588,140],[-90.39273,38.81585,141],[-90.39272,38.81583,141],[-90.39272,38.8158,142],[-90.39272,38.81577,143],[-90.39272,38.81574,143],[-90.39272,38.81571,144],[-90.3927,38.81569,145],[-90.39268,38.81566,146],[-90.39267,38.81563,147],[-90.39264,38.81561,149],[-90.3926,38.81563,150],[-90.39262,38.8156,150],[-90.39265,38.81558,149],[-90.39268,38.81556,148],[-90.39273,38.81554,147],[-90.39274,38.8155,148],[-90.39277,38.81547,147],[-90.3928,38.81546,147],[-90.39284,38.81545,146],[-90.39288,38.81543,145],[-90.39292,38.81543,144],[-90.39296,38.81542,144],[-90.393,38.81541,143],[-90.39304,38.8154,142],[-90.39306,38.81537,142],[-90.39307,38.81533,144],[-90.39308,38.8153,144],[-90.39309,38.81527,145],[-90.39311,38.81524,144],[-90.39312,38.8152,144],[-90.39314,38.81517,144],[-90.39315,38.81514,144],[-90.39319,38.81513,143],[-90.39322,38.8151,143],[-90.39322,38.81507,143],[-90.39322,38.81504,144],[-90.39319,38.81501,145],[-90.39315,38.81499,145],[-90.39312,38.81497,146],[-90.3931,38.81493,146],[-90.39308,38.8149,146],[-90.39308,38.81485,146],[-90.39306,38.81481,146],[-90.39304,38.81478,146],[-90.39303,38.81476,146],[-90.39302,38.81473,146],[-90.39299,38.8147,147],[-90.39297,38.81468,148],[-90.39294,38.81464,148],[-90.39291,38.81461,149],[-90.39289,38.81459,150],[-90.39286,38.81458,150],[-90.39284,38.81456,151],[-90.39282,38.81453,151],[-90.3928,38.8145,152],[-90.39278,38.81448,152],[-90.39276,38.81445,153],[-90.39273,38.81441,152],[-90.3927,38.81438,152],[-90.39266,38.81436,152],[-90.39262,38.81434,152],[-90.39259,38.81431,152],[-90.39255,38.81428,151],[-90.39252,38.81427,152],[-90.39248,38.81425,151],[-90.39246,38.81423,151],[-90.39243,38.81421,151],[-90.3924,38.81418,150],[-90.39238,38.81416,150],[-90.39235,38.81413,148],[-90.39234,38.81411,147],[-90.39236,38.81408,145],[-90.39238,38.81406,144],[-90.3924,38.81403,143],[-90.39241,38.814,141],[-90.39242,38.81397,140],[-90.39243,38.81395,139],[-90.39244,38.81391,138],[-90.39246,38.81389,137],[-90.39247,38.81386,137],[-90.39247,38.81383,137],[-90.39248,38.81379,138],[-90.39252,38.81379,138],[-90.39253,38.81376,138],[-90.39255,38.81373,138],[-90.39255,38.8137,138],[-90.39255,38.81367,138],[-90.39255,38.81364,138],[-90.39257,38.8136,138],[-90.39256,38.81356,138],[-90.3926,38.81354,138],[-90.39263,38.81352,137],[-90.39266,38.81349,137],[-90.39268,38.81347,137],[-90.39269,38.81344,136],[-90.3927,38.81341,136],[-90.39273,38.81339,135],[-90.39275,38.81336,135],[-90.39279,38.81333,134],[-90.39282,38.81331,134],[-90.39287,38.81328,134],[-90.39289,38.81325,134],[-90.39292,38.81323,133],[-90.39294,38.8132,133],[-90.39295,38.81317,133],[-90.39299,38.81315,133],[-90.39302,38.81313,133],[-90.39306,38.81309,132],[-90.39309,38.81307,132],[-90.39312,38.81303,133],[-90.39314,38.81301,133],[-90.39317,38.81299,133],[-90.39321,38.81298,133],[-90.39325,38.81296,133],[-90.39328,38.81294,133],[-90.39331,38.81293,133],[-90.39335,38.81292,133],[-90.3934,38.81292,133],[-90.39344,38.81291,133],[-90.39348,38.81288,133],[-90.39351,38.81285,133],[-90.39355,38.81283,133],[-90.39358,38.8128,133],[-90.39361,38.81279,133],[-90.39366,38.81278,133],[-90.3937,38.81275,134],[-90.39373,38.81273,134],[-90.39376,38.81271,134],[-90.39381,38.81269,134],[-90.39383,38.81267,135],[-90.39387,38.81265,135],[-90.39389,38.81262,135],[-90.3939,38.8126,135],[-90.39393,38.81257,136],[-90.39395,38.81254,136],[-90.39396,38.81251,136],[-90.39399,38.81249,137],[-90.39401,38.81247,137],[-90.39405,38.81245,137],[-90.39409,38.81243,137],[-90.39412,38.8124,137],[-90.39415,38.81238,137],[-90.39417,38.81236,137],[-90.39419,38.81233,137],[-90.39421,38.81232,137],[-90.39424,38.8123,137],[-90.39427,38.81228,137],[-90.3943,38.81225,137],[-90.39432,38.81222,138],[-90.39435,38.81219,138],[-90.39438,38.81216,138],[-90.39441,38.81215,138],[-90.39444,38.81212,138],[-90.39447,38.8121,137],[-90.39451,38.81208,137],[-90.39454,38.81206,137],[-90.39457,38.81204,137],[-90.3946,38.81202,137],[-90.39462,38.81199,137],[-90.39465,38.81197,137],[-90.39467,38.81194,137],[-90.3947,38.81192,136],[-90.39473,38.81189,136],[-90.39475,38.81187,136],[-90.39477,38.81184,135],[-90.39481,38.81183,135],[-90.39484,38.8118,134],[-90.39487,38.81177,134],[-90.3949,38.81175,134]]],
        "bbox": [
          -90.38746,
          38.81813,
          -90.39504,
          38.81087
        ]
      },
      "properties": {
        "name": "5.23.2020"
      }
    }
  ]
}