{
  "type": "FeatureCollection",
  "features": [
    {
      "type": "Feature",
      "geometry": {
        "type": "MultiLineString",
        "coordinates": [[[-90.3907,38.81064,139],[-90.39068,38.81065,139],[-90.39068,38.81069,139],[-90.39068,38.81072,139],[-90.39069,38.81075,139],[-90.39069,38.81078,139],[-90.3907,38.81081,138],[-90.39072,38.81084,138],[-90.39075,38.81086,138],[-90.39077,38.81088,138],[-90.39079,38.8109,138],[-90.39082,38.81092,139],[-90.39086,38.81094,138],[-90.39087,38.81097,139],[-90.39087,38.81099,139],[-90.39086,38.81103,139],[-90.39086,38.81106,140],[-90.39086,38.81109,140],[-90.39085,38.81112,140],[-90.39085,38.81115,141],[-90.39086,38.81118,141],[-90.39087,38.81122,141],[-90.39089,38.81124,141],[-90.39091,38.81126,141],[-90.39094,38.81129,141],[-90.39095,38.81131,141],[-90.39097,38.81134,141],[-90.39099,38.81136,141],[-90.39102,38.81138,141],[-90.39105,38.8114,141],[-90.39108,38.81142,141],[-90.3911,38.81144,141],[-90.39113,38.81147,141],[-90.39114,38.8115,142],[-90.39114,38.81153,142],[-90.39112,38.81156,143],[-90.39111,38.81158,143],[-90.39109,38.81161,144],[-90.39105,38.81163,144],[-90.39102,38.81165,145],[-90.39099,38.81166,145],[-90.39097,38.81169,146],[-90.39095,38.81172,146],[-90.39092,38.81174,147],[-90.3909,38.81176,147],[-90.39087,38.81179,147],[-90.39086,38.81182,148],[-90.39085,38.81185,148],[-90.39085,38.81188,148],[-90.39087,38.81191,149],[-90.39086,38.81194,149],[-90.39087,38.81197,149],[-90.39087,38.812,149],[-90.39087,38.81203,149],[-90.39086,38.81207,149],[-90.39086,38.81209,149],[-90.39084,38.81212,149],[-90.39084,38.81215,149],[-90.39085,38.81219,149],[-90.39086,38.81222,149],[-90.39087,38.81224,149],[-90.39088,38.81228,148],[-90.39089,38.81231,147],[-90.39091,38.81233,147],[-90.39092,38.81236,146],[-90.39093,38.8124,145],[-90.39095,38.81243,144],[-90.39097,38.81245,143],[-90.39093,38.81246,143],[-90.39092,38.81249,143],[-90.39092,38.81252,143],[-90.39095,38.81256,144],[-90.39096,38.81258,144],[-90.39096,38.81262,145],[-90.39097,38.81265,146],[-90.39098,38.81267,146],[-90.39098,38.8127,146],[-90.39099,38.81274,147],[-90.39099,38.81277,148],[-90.39099,38.8128,149],[-90.39099,38.81283,149],[-90.391,38.81286,150],[-90.39102,38.81288,150],[-90.39104,38.81291,151],[-90.39106,38.81294,151],[-90.39108,38.81297,152],[-90.3911,38.81299,152],[-90.39112,38.81302,152],[-90.39114,38.81304,153],[-90.39116,38.81307,153],[-90.39119,38.81309,152],[-90.39121,38.81312,152],[-90.39122,38.81314,152],[-90.39124,38.81317,152],[-90.39127,38.81319,152],[-90.39128,38.81322,152],[-90.3913,38.81325,152],[-90.39132,38.81328,151],[-90.39134,38.8133,151],[-90.39138,38.81332,151],[-90.39141,38.81334,150],[-90.39144,38.81335,150],[-90.39147,38.81336,149],[-90.3915,38.81339,148],[-90.39154,38.8134,148],[-90.39157,38.81341,147],[-90.3916,38.81344,146],[-90.39161,38.81347,146],[-90.39162,38.8135,145],[-90.39162,38.81353,145],[-90.39163,38.81357,144],[-90.39164,38.81359,143],[-90.39165,38.81362,143],[-90.39165,38.81365,144],[-90.39167,38.81369,144],[-90.39169,38.81371,144],[-90.39171,38.81374,144],[-90.39174,38.81376,144],[-90.39177,38.81379,143],[-90.39179,38.81382,143],[-90.39181,38.81384,142],[-90.39185,38.81387,141],[-90.39188,38.81389,140],[-90.39191,38.8139,139],[-90.39194,38.81392,139],[-90.39197,38.81394,140],[-90.392,38.81396,140],[-90.39202,38.81398,141],[-90.39204,38.81401,143],[-90.39206,38.81403,143],[-90.39209,38.81405,144],[-90.39212,38.81407,145],[-90.3921,38.81405,144],[-90.3921,38.81408,146],[-90.39213,38.81409,146],[-90.39216,38.8141,147],[-90.3922,38.81412,148],[-90.39216,38.8141,147],[-90.39221,38.81411,147],[-90.39225,38.81412,148],[-90.39227,38.81414,149],[-90.39229,38.81416,150],[-90.39227,38.81414,149],[-90.39225,38.81411,147],[-90.39222,38.81408,145],[-90.39219,38.81406,144],[-90.39216,38.81408,145],[-90.39212,38.81409,146],[-90.3921,38.81411,148],[-90.39206,38.81413,149],[-90.39203,38.81414,150],[-90.39199,38.81415,151],[-90.39195,38.81415,151],[-90.39191,38.81415,152],[-90.39191,38.81417,153],[-90.39191,38.81414,151],[-90.39193,38.81417,152],[-90.39191,38.81421,154],[-90.39187,38.81422,155],[-90.39183,38.81423,156],[-90.39182,38.81425,157],[-90.39181,38.81428,158],[-90.39182,38.81431,158],[-90.39181,38.81434,160],[-90.3918,38.81437,161],[-90.3918,38.8144,161],[-90.3918,38.81443,162],[-90.39182,38.81445,162],[-90.39185,38.81448,162],[-90.39185,38.81451,162],[-90.39186,38.81454,162],[-90.39185,38.81456,163],[-90.39187,38.81459,163],[-90.39189,38.81461,162],[-90.39189,38.81464,163],[-90.39189,38.81467,163],[-90.39189,38.8147,164],[-90.39189,38.81473,164],[-90.3919,38.81475,164],[-90.39192,38.81478,164],[-90.39194,38.8148,164],[-90.39195,38.81483,164],[-90.39195,38.81486,164],[-90.39194,38.81488,164],[-90.39191,38.81491,166],[-90.3919,38.81494,166],[-90.39191,38.81496,166],[-90.39193,38.81499,166],[-90.39196,38.81502,166],[-90.39199,38.81502,165],[-90.39202,38.81504,165],[-90.39203,38.81507,166],[-90.39203,38.8151,167],[-90.39201,38.81512,168],[-90.39199,38.81515,170],[-90.39198,38.81518,171],[-90.39197,38.81521,172],[-90.39196,38.81524,174],[-90.39195,38.81527,175],[-90.39194,38.81529,176],[-90.39193,38.81532,176],[-90.39195,38.81535,176],[-90.39196,38.81538,176],[-90.39196,38.81541,176],[-90.39196,38.81544,176],[-90.39197,38.81547,176],[-90.39196,38.8155,176],[-90.39196,38.81553,177],[-90.39195,38.81556,177],[-90.39196,38.81558,176],[-90.39194,38.81561,176],[-90.39192,38.81563,176],[-90.3919,38.81566,176],[-90.39191,38.81569,175],[-90.39192,38.81572,175],[-90.39191,38.81569,175],[-90.39189,38.81567,176],[-90.39185,38.81565,177],[-90.39181,38.81564,179],[-90.39177,38.81564,179],[-90.39174,38.81564,180],[-90.39171,38.81566,180],[-90.39167,38.81565,181],[-90.39164,38.81564,182],[-90.39162,38.81562,182],[-90.39159,38.81559,183],[-90.39157,38.81557,183],[-90.39156,38.81554,183],[-90.39153,38.81552,183],[-90.3915,38.8155,184],[-90.39148,38.81548,184],[-90.39146,38.81545,184],[-90.39142,38.81544,185],[-90.39138,38.81542,185],[-90.39134,38.81541,185],[-90.3913,38.8154,185],[-90.39126,38.8154,186],[-90.39122,38.8154,186],[-90.39118,38.8154,186],[-90.39114,38.81542,186],[-90.3911,38.81541,186],[-90.39106,38.81542,186],[-90.39103,38.81543,186],[-90.39099,38.81544,186],[-90.39096,38.81545,186],[-90.39092,38.81546,185],[-90.39088,38.81547,185],[-90.39084,38.81549,185],[-90.3908,38.81549,185],[-90.39076,38.81548,184],[-90.39072,38.81548,184],[-90.39069,38.81547,184],[-90.39065,38.81547,183],[-90.39062,38.81545,183],[-90.39059,38.81543,183],[-90.39056,38.81542,182],[-90.39053,38.81541,182],[-90.39049,38.81541,182],[-90.39045,38.8154,182],[-90.39041,38.81538,181],[-90.39038,38.81537,181],[-90.39035,38.81535,181],[-90.39032,38.81535,181],[-90.39028,38.81535,181],[-90.39024,38.81535,180],[-90.3902,38.81534,181],[-90.39017,38.81533,181],[-90.39014,38.81532,181],[-90.3901,38.81531,181],[-90.39008,38.81529,181],[-90.39005,38.81527,182],[-90.39001,38.81524,182],[-90.38998,38.81523,183],[-90.38994,38.81522,183],[-90.38991,38.8152,184],[-90.38988,38.81519,184],[-90.38984,38.81519,184],[-90.38981,38.81516,185],[-90.38979,38.81514,185],[-90.38976,38.81511,186],[-90.38974,38.81509,187],[-90.38972,38.81506,187],[-90.3897,38.81504,188],[-90.38968,38.81502,188],[-90.38966,38.81499,188],[-90.38962,38.81498,188],[-90.38959,38.81496,188],[-90.38957,38.81494,189],[-90.38955,38.81491,189],[-90.38954,38.81489,189],[-90.38953,38.81486,189],[-90.38954,38.81483,190],[-90.38954,38.8148,190],[-90.38954,38.81477,190],[-90.38954,38.81474,191],[-90.38954,38.81471,191],[-90.38954,38.81468,191],[-90.38955,38.81465,190],[-90.38956,38.81463,190],[-90.38957,38.8146,190],[-90.38957,38.81457,190],[-90.38957,38.81454,190],[-90.38957,38.81451,189],[-90.38957,38.81448,189],[-90.38956,38.81445,189],[-90.38954,38.81442,189],[-90.38952,38.81439,189],[-90.38951,38.81437,188],[-90.38948,38.81434,188],[-90.38945,38.81433,189],[-90.38942,38.81432,189],[-90.38938,38.81432,189],[-90.38935,38.8143,190],[-90.38932,38.81429,190],[-90.38929,38.81428,190],[-90.38926,38.81426,191],[-90.38922,38.81424,191],[-90.38919,38.81423,192],[-90.38915,38.81421,192],[-90.38912,38.81419,192],[-90.38908,38.81418,192],[-90.38904,38.81417,192],[-90.389,38.81418,192],[-90.38896,38.81418,192],[-90.38893,38.81417,192],[-90.38889,38.81416,192],[-90.38885,38.81416,193],[-90.38881,38.81415,194],[-90.38877,38.81414,194],[-90.38873,38.81414,195],[-90.3887,38.81412,195],[-90.38866,38.81412,196],[-90.38862,38.81412,196],[-90.38859,38.81411,196],[-90.38855,38.8141,197],[-90.38852,38.81409,197],[-90.38848,38.81407,197],[-90.38845,38.81405,197],[-90.38842,38.81403,197],[-90.38839,38.81402,197],[-90.38836,38.814,198],[-90.38832,38.81399,198],[-90.38829,38.81397,198],[-90.38825,38.81396,198],[-90.38823,38.81394,198],[-90.38819,38.81392,198],[-90.38815,38.81392,198],[-90.38811,38.81392,198],[-90.38806,38.81393,199],[-90.38803,38.81393,199],[-90.38798,38.81394,199],[-90.38795,38.81394,199],[-90.38791,38.81395,199],[-90.38787,38.81396,199],[-90.38783,38.81397,199],[-90.38779,38.81398,199],[-90.38776,38.81398,200],[-90.38772,38.81398,200],[-90.38768,38.81398,200],[-90.38765,38.81397,200],[-90.38763,38.81394,200],[-90.38761,38.81392,200],[-90.38758,38.81389,199],[-90.38756,38.81387,199],[-90.38752,38.81385,199],[-90.3875,38.81383,199],[-90.3875,38.81379,198],[-90.38751,38.81376,198],[-90.38752,38.81374,197],[-90.38753,38.8137,197],[-90.38755,38.81367,197],[-90.38756,38.81364,196],[-90.38758,38.81361,196],[-90.38758,38.81358,196],[-90.38759,38.81355,196],[-90.3876,38.81351,196],[-90.38761,38.81348,195],[-90.38762,38.81345,195],[-90.38763,38.81342,195],[-90.38764,38.81339,195],[-90.38763,38.81336,195],[-90.38764,38.81333,195],[-90.38766,38.81331,194],[-90.38769,38.8133,195],[-90.38773,38.81329,195],[-90.38776,38.81331,195],[-90.38778,38.81328,195],[-90.38782,38.8133,195],[-90.38785,38.81331,195],[-90.38789,38.81332,195],[-90.38792,38.8133,195],[-90.38796,38.8133,195],[-90.38798,38.81327,194],[-90.388,38.81325,194],[-90.38802,38.81322,194],[-90.38801,38.81319,193],[-90.38801,38.81316,193],[-90.38801,38.81313,192],[-90.38801,38.8131,192],[-90.38801,38.81307,191],[-90.38802,38.81305,191],[-90.38805,38.81307,191],[-90.38807,38.81305,190],[-90.38809,38.81302,189],[-90.38809,38.81299,189],[-90.38807,38.81297,189],[-90.38808,38.81294,189],[-90.38809,38.81291,188],[-90.3881,38.81288,187],[-90.38811,38.81285,187],[-90.38811,38.81282,187],[-90.38813,38.81279,186],[-90.38816,38.81278,184],[-90.3882,38.81277,183],[-90.38823,38.81276,182],[-90.38827,38.81275,181],[-90.38829,38.81273,180],[-90.38832,38.81272,179],[-90.38836,38.81273,178],[-90.3884,38.81274,177],[-90.38843,38.81273,175],[-90.38846,38.81271,174],[-90.3885,38.8127,173],[-90.38853,38.81268,172],[-90.38855,38.81266,171],[-90.38858,38.81264,170],[-90.38861,38.81263,169],[-90.38864,38.81261,168],[-90.38865,38.81259,168],[-90.38865,38.81256,168],[-90.38866,38.81253,168],[-90.38868,38.81251,167],[-90.3887,38.81248,167],[-90.38871,38.81245,166],[-90.38869,38.81243,166],[-90.38868,38.81239,166],[-90.38868,38.81236,165],[-90.38869,38.81233,165],[-90.38865,38.81232,165],[-90.38868,38.8123,164],[-90.38872,38.81229,164],[-90.38875,38.81229,163],[-90.38879,38.81228,163],[-90.38882,38.81227,163],[-90.38885,38.81225,162],[-90.38887,38.81223,162],[-90.38889,38.81221,161],[-90.3889,38.81218,161],[-90.38889,38.81215,160],[-90.38888,38.81212,160],[-90.38886,38.81209,159],[-90.38883,38.81206,159],[-90.38879,38.81205,160],[-90.38876,38.81204,160],[-90.38874,38.81202,160],[-90.38871,38.812,160],[-90.3887,38.81197,160],[-90.38867,38.81196,161],[-90.38865,38.81194,161],[-90.38862,38.81192,162],[-90.3886,38.81189,162],[-90.3886,38.81186,163],[-90.3886,38.81184,163],[-90.38862,38.81181,163],[-90.38864,38.81178,163],[-90.38866,38.81175,163],[-90.38868,38.81173,163],[-90.38871,38.8117,162],[-90.38875,38.81168,162],[-90.38877,38.81166,162],[-90.3888,38.81165,161],[-90.38883,38.81162,160],[-90.38885,38.8116,160],[-90.38887,38.81158,159],[-90.38889,38.81155,159],[-90.38892,38.81154,158],[-90.38894,38.81156,157],[-90.38898,38.81156,156],[-90.38901,38.81155,156],[-90.38904,38.81153,155],[-90.38907,38.81151,154],[-90.3891,38.81151,153],[-90.38914,38.8115,152],[-90.38917,38.81148,152],[-90.38921,38.81146,152],[-90.38924,38.81144,152],[-90.38926,38.81142,152],[-90.38928,38.81139,152],[-90.38932,38.81139,152],[-90.38935,38.8114,152],[-90.38939,38.8114,152],[-90.38942,38.81138,152],[-90.38944,38.81135,152],[-90.38946,38.81132,151],[-90.38948,38.8113,151],[-90.38951,38.81128,151],[-90.38954,38.81125,151],[-90.38955,38.81123,151],[-90.38956,38.8112,151],[-90.3896,38.81119,151],[-90.38964,38.81119,151],[-90.38967,38.81121,150],[-90.38971,38.81121,150],[-90.38975,38.81122,150],[-90.38979,38.81122,149],[-90.38982,38.8112,149],[-90.38986,38.81119,148],[-90.3899,38.81118,148],[-90.38994,38.81117,147],[-90.38997,38.81118,146],[-90.39001,38.81119,146],[-90.39005,38.81118,145],[-90.39009,38.81119,145],[-90.39012,38.81119,144],[-90.39017,38.8112,144],[-90.39021,38.8112,143],[-90.39025,38.8112,143],[-90.39029,38.81119,142],[-90.39033,38.81119,142],[-90.39036,38.81121,142],[-90.3904,38.81122,142],[-90.39043,38.81123,142],[-90.39046,38.81125,142],[-90.39049,38.81128,142],[-90.39052,38.8113,142],[-90.39056,38.81131,142],[-90.3906,38.81131,142],[-90.39064,38.8113,142],[-90.39067,38.81128,142],[-90.39069,38.81126,142],[-90.39072,38.81124,142],[-90.39076,38.81122,141],[-90.39079,38.81121,141],[-90.39083,38.81118,141],[-90.39086,38.81116,141],[-90.39084,38.81114,141],[-90.39082,38.81111,141],[-90.39083,38.81108,140],[-90.39084,38.81105,140],[-90.39084,38.81101,139],[-90.39085,38.81098,139],[-90.39085,38.81095,139],[-90.39085,38.81092,138],[-90.39085,38.81089,138],[-90.39083,38.81085,138],[-90.39081,38.81082,138],[-90.39079,38.81078,138],[-90.39078,38.81076,138],[-90.39076,38.81073,138],[-90.39074,38.81071,139],[-90.39072,38.81067,139],[-90.3907,38.81064,139],[-90.39071,38.81062,139],[-90.39068,38.81061,139],[-90.39072,38.81062,139],[-90.39072,38.81061,139]]],
        "bbox": [
          -90.3875,
          38.81572,
          -90.39229,
          38.81061
        ]
      },
      "properties": {
        "name": "10.16.2024"
      }
    }
  ]
}