{
  "type": "FeatureCollection",
  "features": [
    {
      "type": "Feature",
      "geometry": {
        "type": "MultiLineString",
        "coordinates": [[[-90.39439,38.81213,138],[-90.39437,38.81216,138],[-90.39434,38.81218,138],[-90.39432,38.8122,138],[-90.3943,38.81223,137],[-90.39427,38.81225,137],[-90.39425,38.81228,137],[-90.39423,38.8123,137],[-90.39422,38.81233,137],[-90.39421,38.81236,137],[-90.39419,38.81239,137],[-90.39417,38.81242,137],[-90.39413,38.81243,137],[-90.39409,38.81244,137],[-90.39405,38.81245,137],[-90.39403,38.81247,137],[-90.394,38.8125,137],[-90.39397,38.81249,137],[-90.39393,38.8125,137],[-90.3939,38.81251,136],[-90.39387,38.81253,136],[-90.39384,38.81255,136],[-90.39382,38.81257,136],[-90.3938,38.8126,135],[-90.39377,38.81262,135],[-90.39375,38.81264,135],[-90.39373,38.81267,134],[-90.3937,38.81268,134],[-90.39368,38.8127,134],[-90.39367,38.81273,134],[-90.39365,38.81276,134],[-90.39363,38.81278,133],[-90.3936,38.8128,133],[-90.39357,38.81282,133],[-90.39354,38.81284,133],[-90.39351,38.81285,133],[-90.39348,38.81287,133],[-90.39345,38.81289,133],[-90.39342,38.81291,133],[-90.39338,38.81292,133],[-90.39335,38.81293,133],[-90.39332,38.81295,133],[-90.39329,38.81296,133],[-90.39326,38.81298,133],[-90.39323,38.813,133],[-90.3932,38.81303,133],[-90.39317,38.81305,133],[-90.39315,38.81306,132],[-90.39312,38.81308,132],[-90.39309,38.81311,132],[-90.39307,38.81313,132],[-90.39305,38.81315,133],[-90.39302,38.81317,133],[-90.393,38.81319,133],[-90.39297,38.81322,133],[-90.39295,38.81323,133],[-90.39292,38.81325,133],[-90.39289,38.81327,134],[-90.39286,38.81329,134],[-90.39284,38.81331,134],[-90.39281,38.81334,134],[-90.39278,38.81336,135],[-90.39275,38.81338,135],[-90.39273,38.8134,136],[-90.39271,38.81342,136],[-90.39268,38.81344,136],[-90.39266,38.81347,137],[-90.39263,38.81349,137],[-90.39262,38.81352,137],[-90.3926,38.81354,138],[-90.39258,38.81357,138],[-90.39257,38.8136,138],[-90.39255,38.81362,138],[-90.39254,38.81365,138],[-90.39254,38.81368,138],[-90.39253,38.81371,138],[-90.39253,38.81373,138],[-90.39252,38.81376,138],[-90.39251,38.81379,138],[-90.39248,38.81381,138],[-90.39246,38.81383,137],[-90.39243,38.81386,137],[-90.39242,38.81389,136],[-90.3924,38.81391,137],[-90.39238,38.81394,138],[-90.39236,38.81396,139],[-90.39234,38.81399,140],[-90.39233,38.81401,141],[-90.39232,38.81404,143],[-90.39231,38.81407,145],[-90.39228,38.81409,146],[-90.39224,38.8141,146],[-90.3922,38.81409,146],[-90.39217,38.81408,145],[-90.39213,38.81406,144],[-90.39211,38.81403,143],[-90.39208,38.81401,142],[-90.39205,38.81399,141],[-90.39203,38.81397,140],[-90.392,38.81395,140],[-90.39199,38.81392,138],[-90.39197,38.8139,138],[-90.39195,38.81388,137],[-90.39193,38.81385,138],[-90.3919,38.81383,139],[-90.39187,38.81381,140],[-90.39184,38.81379,141],[-90.39181,38.81377,142],[-90.39179,38.81374,142],[-90.39177,38.81372,143],[-90.39175,38.81369,143],[-90.39173,38.81367,143],[-90.39171,38.81364,143],[-90.39169,38.81361,142],[-90.39166,38.81359,143],[-90.39165,38.81356,144],[-90.39164,38.81353,144],[-90.39164,38.8135,145],[-90.39163,38.81347,145],[-90.39162,38.81344,146],[-90.39161,38.81341,146],[-90.39161,38.81338,147],[-90.39159,38.81335,147],[-90.39156,38.81333,148],[-90.39153,38.81331,148],[-90.3915,38.8133,149],[-90.39145,38.81329,149],[-90.39142,38.81329,150],[-90.39138,38.81327,150],[-90.39135,38.81326,151],[-90.39134,38.81323,151],[-90.39131,38.81321,151],[-90.39129,38.81318,151],[-90.39125,38.81317,152],[-90.39123,38.81315,152],[-90.39121,38.81312,152],[-90.39119,38.8131,153],[-90.39118,38.81307,153],[-90.39117,38.81304,152],[-90.39117,38.81301,152],[-90.39117,38.81298,151],[-90.39116,38.81296,150],[-90.39115,38.81293,150],[-90.39114,38.8129,149],[-90.39112,38.81287,149],[-90.39111,38.81284,148],[-90.3911,38.81282,148],[-90.39108,38.81279,147],[-90.39106,38.81277,147],[-90.39105,38.81274,147],[-90.39104,38.81271,146],[-90.39104,38.81268,145],[-90.39104,38.81265,145],[-90.39103,38.81262,144],[-90.39103,38.81259,143],[-90.39103,38.81256,143],[-90.39102,38.81254,142],[-90.39101,38.81251,142],[-90.39101,38.81248,142],[-90.39099,38.81245,143],[-90.39099,38.81242,144],[-90.391,38.8124,144],[-90.39099,38.81237,145],[-90.39097,38.81234,146],[-90.39095,38.81231,147],[-90.39093,38.81229,148],[-90.39092,38.81226,148],[-90.3909,38.81223,149],[-90.39089,38.81221,149],[-90.39088,38.81218,149],[-90.39088,38.81215,149],[-90.39087,38.81212,149],[-90.39088,38.81209,149],[-90.39089,38.81206,149],[-90.39091,38.81204,149],[-90.39092,38.81201,149],[-90.39092,38.81197,149],[-90.39094,38.81194,150],[-90.39095,38.81192,149],[-90.39095,38.81188,149],[-90.39094,38.81186,148],[-90.39093,38.81182,148],[-90.39093,38.81179,147],[-90.39092,38.81176,147],[-90.39093,38.81174,147],[-90.39094,38.81171,146],[-90.39096,38.81168,146],[-90.39099,38.81166,145],[-90.39101,38.81163,145],[-90.39103,38.81161,144],[-90.39106,38.81159,144],[-90.3911,38.81158,143],[-90.39112,38.81156,143],[-90.39114,38.81153,142],[-90.39115,38.8115,142],[-90.39115,38.81148,141],[-90.39113,38.81145,141],[-90.39111,38.81142,141],[-90.39108,38.8114,141],[-90.39105,38.81138,141],[-90.39102,38.81136,141],[-90.39099,38.81135,141],[-90.39097,38.81133,141],[-90.39094,38.81131,141],[-90.39092,38.81128,141],[-90.39089,38.81126,141],[-90.39087,38.81124,141],[-90.39085,38.81121,141],[-90.39082,38.81119,141],[-90.39079,38.81118,141]],[[-90.39075,38.8112,141],[-90.39071,38.81121,142],[-90.39068,38.81122,142],[-90.39065,38.81124,142],[-90.39063,38.81126,142],[-90.3906,38.81128,142],[-90.39055,38.81128,142],[-90.39051,38.81127,142],[-90.39047,38.81126,142],[-90.39044,38.81124,142],[-90.39043,38.81121,142],[-90.3904,38.81119,142],[-90.39037,38.81118,142],[-90.39033,38.81117,142],[-90.39029,38.81116,142],[-90.39026,38.81116,143],[-90.39022,38.81117,143],[-90.39019,38.81118,144],[-90.39015,38.81117,144],[-90.39012,38.81117,145],[-90.39008,38.81116,145],[-90.39005,38.81115,146],[-90.39001,38.81115,146],[-90.38997,38.81115,147],[-90.38993,38.81114,147],[-90.3899,38.81113,148],[-90.38986,38.81115,148],[-90.38983,38.81116,149],[-90.38979,38.81118,149],[-90.38976,38.81118,150],[-90.38972,38.81118,150],[-90.38968,38.81117,150],[-90.38965,38.81116,151],[-90.38962,38.81115,151],[-90.38958,38.81115,151],[-90.38954,38.81115,151],[-90.38951,38.81117,151],[-90.38949,38.81119,151],[-90.38947,38.81122,151],[-90.38945,38.81125,151],[-90.38942,38.81127,152],[-90.3894,38.81129,152],[-90.38938,38.81132,152],[-90.38937,38.81134,152],[-90.38935,38.81137,152],[-90.38932,38.81139,152],[-90.38928,38.81139,152],[-90.38924,38.81137,152],[-90.38921,38.81137,152],[-90.38918,38.81139,152],[-90.38916,38.81142,152],[-90.38914,38.81145,152],[-90.38911,38.81147,153],[-90.38908,38.81149,154],[-90.38905,38.81151,154],[-90.38902,38.81152,155],[-90.38899,38.81153,156],[-90.38895,38.81154,157],[-90.38891,38.81155,158],[-90.38887,38.81156,159],[-90.38883,38.81157,160],[-90.38879,38.81157,161],[-90.38876,38.81156,161],[-90.38872,38.81155,162],[-90.38868,38.81154,163],[-90.38866,38.81157,164],[-90.38867,38.81159,163],[-90.38869,38.81162,163],[-90.38869,38.81165,163],[-90.38866,38.81167,164],[-90.38864,38.81169,164],[-90.38861,38.81171,164],[-90.38858,38.81173,164],[-90.38855,38.81175,164],[-90.38853,38.81178,164],[-90.38852,38.81181,164],[-90.38851,38.81184,164],[-90.38851,38.81187,164],[-90.38851,38.8119,164],[-90.38853,38.81193,163],[-90.38855,38.81195,163],[-90.38858,38.81196,162],[-90.38862,38.81197,162],[-90.38864,38.81199,161],[-90.38866,38.81202,161],[-90.38868,38.81204,161],[-90.38871,38.81206,161],[-90.38873,38.81209,161],[-90.38877,38.8121,161],[-90.3888,38.81211,161],[-90.38882,38.81214,161],[-90.38882,38.81217,161],[-90.38882,38.8122,162],[-90.38881,38.81223,162],[-90.38879,38.81225,163],[-90.38876,38.81228,163],[-90.38873,38.81229,164],[-90.3887,38.81231,164],[-90.38867,38.81232,165],[-90.38863,38.81232,165],[-90.3886,38.81233,166],[-90.38857,38.81235,167],[-90.38856,38.81238,167],[-90.38855,38.81241,168],[-90.38856,38.81245,169],[-90.38858,38.81247,169],[-90.38859,38.8125,169],[-90.38859,38.81253,169],[-90.38856,38.81256,170],[-90.38855,38.81258,170],[-90.38852,38.81261,171],[-90.3885,38.81263,172],[-90.38847,38.81265,173],[-90.38845,38.81267,174],[-90.38842,38.81269,175],[-90.38839,38.8127,176],[-90.38835,38.81271,178],[-90.38832,38.81273,179],[-90.38829,38.81274,180],[-90.38825,38.81274,181],[-90.38825,38.81271,180],[-90.38821,38.81272,182],[-90.38818,38.81274,183],[-90.38814,38.81276,185],[-90.38811,38.81278,186],[-90.38808,38.81279,187],[-90.38804,38.8128,188],[-90.388,38.8128,188],[-90.38802,38.81282,188],[-90.38805,38.81285,188],[-90.38805,38.81288,189],[-90.38805,38.81291,189],[-90.38804,38.81293,189],[-90.38803,38.81296,190],[-90.38803,38.81299,190],[-90.38804,38.81301,190],[-90.38804,38.81305,191],[-90.38803,38.81308,191],[-90.38802,38.81311,192],[-90.38801,38.81314,192],[-90.388,38.81316,193],[-90.38798,38.81319,193],[-90.38796,38.81321,194],[-90.38793,38.81323,194],[-90.3879,38.81325,194],[-90.38788,38.81327,195],[-90.38786,38.81329,195],[-90.38783,38.81331,195],[-90.38779,38.81331,195],[-90.38776,38.81331,195],[-90.38772,38.81331,195],[-90.38768,38.8133,195],[-90.38765,38.81329,194],[-90.38761,38.81329,194],[-90.38759,38.81331,194],[-90.38758,38.81334,194],[-90.38758,38.81337,194],[-90.3876,38.81335,194],[-90.3876,38.81332,194]],[[-90.3876,38.8133,194],[-90.38759,38.81333,194],[-90.38759,38.81336,194],[-90.38759,38.81338,194],[-90.38758,38.81341,195],[-90.38758,38.81344,195],[-90.38758,38.81347,195],[-90.38759,38.81351,195],[-90.38758,38.81354,196],[-90.38757,38.81357,196],[-90.38755,38.8136,196],[-90.38754,38.81362,196],[-90.38752,38.81365,196],[-90.38751,38.81368,197],[-90.38751,38.81371,197],[-90.38752,38.81374,197],[-90.38752,38.81377,198],[-90.38751,38.8138,198],[-90.38751,38.81383,199],[-90.38751,38.81386,199],[-90.38753,38.81389,199],[-90.38756,38.8139,200],[-90.3876,38.81391,200],[-90.38764,38.81392,200],[-90.38767,38.81394,200],[-90.3877,38.81396,200],[-90.38773,38.81398,200],[-90.38777,38.81398,200],[-90.38781,38.81397,199],[-90.38784,38.81397,199],[-90.38788,38.81396,199],[-90.38792,38.81395,199],[-90.38796,38.81394,199],[-90.388,38.81394,199],[-90.38804,38.81393,199],[-90.38807,38.81393,199],[-90.38811,38.81392,198],[-90.38814,38.81391,198],[-90.38818,38.81391,198],[-90.38822,38.8139,198],[-90.38826,38.81391,198],[-90.38829,38.81391,198],[-90.38833,38.81392,198],[-90.38836,38.81394,197],[-90.3884,38.81395,197],[-90.38843,38.81397,197],[-90.38846,38.81398,197],[-90.3885,38.81399,196],[-90.38853,38.814,196],[-90.38857,38.81401,196],[-90.3886,38.81402,196],[-90.38863,38.81404,195],[-90.38866,38.81406,195],[-90.38869,38.81408,195],[-90.38872,38.81409,194],[-90.38876,38.8141,194],[-90.3888,38.81411,193],[-90.38883,38.81412,193],[-90.38887,38.81413,192],[-90.3889,38.81414,192],[-90.38894,38.81415,192],[-90.38898,38.81416,192],[-90.38901,38.81417,192],[-90.38905,38.81418,192],[-90.38908,38.81419,192],[-90.38912,38.81419,192],[-90.38916,38.81419,192],[-90.3892,38.8142,192],[-90.38923,38.8142,191],[-90.38927,38.81421,191],[-90.3893,38.81422,190],[-90.38933,38.81425,190],[-90.38934,38.81427,190],[-90.38937,38.8143,189],[-90.38939,38.81432,189],[-90.38942,38.81433,189],[-90.38946,38.81434,189],[-90.38949,38.81435,188],[-90.38952,38.81437,188],[-90.38955,38.81439,188],[-90.38957,38.81442,189],[-90.38957,38.81445,189],[-90.38957,38.81447,189],[-90.38956,38.8145,189],[-90.38955,38.81453,190],[-90.38955,38.81456,190],[-90.38955,38.81459,190],[-90.38955,38.81462,190],[-90.38954,38.81465,190],[-90.38953,38.81468,191],[-90.38953,38.81471,191],[-90.38953,38.81474,191],[-90.38952,38.81477,190],[-90.38952,38.8148,190],[-90.38952,38.81483,190],[-90.38952,38.81486,189],[-90.38952,38.81489,189],[-90.38953,38.81492,189],[-90.38954,38.81495,188],[-90.38956,38.81497,188],[-90.38957,38.81501,188],[-90.38959,38.81503,188],[-90.38961,38.81506,187],[-90.38964,38.81508,187],[-90.38968,38.81509,187],[-90.38971,38.8151,186],[-90.38973,38.81513,186],[-90.38977,38.81514,185],[-90.3898,38.81515,185],[-90.38983,38.81516,185],[-90.38986,38.81518,184],[-90.38989,38.8152,184],[-90.38992,38.81522,183],[-90.38994,38.81525,182],[-90.38996,38.81528,182],[-90.38997,38.8153,181],[-90.39,38.81532,181],[-90.39004,38.81533,181],[-90.39008,38.81534,180],[-90.39012,38.81535,180],[-90.39015,38.81536,180],[-90.39018,38.81538,180],[-90.39021,38.81539,180],[-90.39025,38.81539,180],[-90.39028,38.8154,180],[-90.39032,38.81541,180],[-90.39035,38.81542,180],[-90.39039,38.81542,181],[-90.39043,38.81544,181],[-90.39046,38.81545,181],[-90.39049,38.81547,181],[-90.39052,38.81548,182],[-90.39055,38.81549,182],[-90.39059,38.81549,182],[-90.39063,38.81549,183],[-90.39067,38.81549,183],[-90.3907,38.81549,184],[-90.39074,38.8155,184],[-90.39076,38.81552,184],[-90.3908,38.81553,184],[-90.39084,38.81554,185],[-90.39088,38.81553,185],[-90.39091,38.81552,185],[-90.39094,38.81551,185],[-90.39097,38.81549,185],[-90.391,38.81547,186],[-90.39103,38.81546,186],[-90.39106,38.81544,186],[-90.3911,38.81542,186],[-90.39113,38.81541,186],[-90.39117,38.8154,186],[-90.39121,38.8154,186],[-90.39125,38.8154,186],[-90.39128,38.8154,185],[-90.39132,38.81539,185],[-90.39137,38.81539,185],[-90.3914,38.81539,185],[-90.39144,38.8154,184],[-90.39147,38.81541,184],[-90.39151,38.81542,183],[-90.39154,38.81544,183],[-90.39157,38.81545,183],[-90.3916,38.81548,182],[-90.39162,38.8155,182],[-90.39163,38.81553,183],[-90.39164,38.81556,183],[-90.39166,38.81559,182],[-90.39167,38.81562,182],[-90.39169,38.81564,181],[-90.39171,38.81566,180],[-90.39174,38.81568,179],[-90.39178,38.81569,178],[-90.39181,38.81569,178],[-90.39185,38.81568,177],[-90.39189,38.81566,176],[-90.39192,38.81566,176],[-90.39196,38.81566,175],[-90.392,38.81567,173],[-90.39203,38.81567,171],[-90.39205,38.81565,171],[-90.39206,38.81562,171],[-90.39206,38.81559,172],[-90.39203,38.81557,174],[-90.39204,38.81555,174],[-90.39203,38.81552,174],[-90.39203,38.81549,174],[-90.39203,38.81546,174],[-90.39203,38.81543,173],[-90.39202,38.8154,174],[-90.39202,38.81537,174],[-90.39201,38.81534,174],[-90.392,38.81531,174],[-90.39199,38.81528,174],[-90.39197,38.81525,174],[-90.39196,38.81522,173],[-90.39196,38.81519,172],[-90.39198,38.81516,170],[-90.39198,38.81514,169],[-90.39199,38.81511,168],[-90.39199,38.81508,167],[-90.392,38.81505,166],[-90.392,38.81502,165],[-90.39198,38.81499,164],[-90.39196,38.81497,165],[-90.39195,38.81494,165],[-90.39193,38.81491,165],[-90.39192,38.81488,165],[-90.39192,38.81485,165],[-90.39194,38.81483,164],[-90.39196,38.81481,163],[-90.39197,38.81477,163],[-90.39196,38.81475,163],[-90.39194,38.81472,163],[-90.39193,38.8147,163],[-90.39192,38.81467,162],[-90.39191,38.81464,162],[-90.39192,38.81462,162],[-90.39193,38.81458,161],[-90.39191,38.81456,161],[-90.39188,38.81454,162],[-90.39185,38.81453,162],[-90.39182,38.8145,163],[-90.3918,38.81448,163],[-90.39179,38.81445,163],[-90.39181,38.81443,162],[-90.39182,38.8144,161],[-90.39183,38.81437,160],[-90.39183,38.81434,159],[-90.39183,38.81432,158],[-90.39184,38.81429,157],[-90.39184,38.81426,157],[-90.39185,38.81423,156],[-90.39183,38.8142,155],[-90.39183,38.81417,154],[-90.39182,38.81415,154],[-90.39185,38.81413,152],[-90.3919,38.81415,152],[-90.39194,38.81415,151],[-90.39197,38.81416,151],[-90.39201,38.81416,151],[-90.39202,38.81413,149],[-90.39201,38.81411,148],[-90.39198,38.81409,147],[-90.39199,38.81406,146],[-90.39202,38.81405,145],[-90.39206,38.81405,144],[-90.3921,38.81405,144],[-90.39214,38.81405,144],[-90.39217,38.81404,143],[-90.39221,38.81404,142],[-90.39225,38.81404,143],[-90.39229,38.81404,143],[-90.39232,38.81404,143],[-90.39235,38.81407,145],[-90.39235,38.81409,146],[-90.39236,38.81412,148],[-90.39237,38.81415,149],[-90.39238,38.81418,150],[-90.3924,38.81421,151],[-90.39243,38.81422,151],[-90.39246,38.81424,151],[-90.3925,38.81425,151],[-90.39253,38.81427,151],[-90.39255,38.81428,151],[-90.39259,38.8143,151],[-90.39262,38.81432,152],[-90.39265,38.81434,152],[-90.39267,38.81437,152],[-90.3927,38.81438,152],[-90.39273,38.81441,152],[-90.39274,38.81444,153],[-90.39276,38.81446,153],[-90.39278,38.81449,152],[-90.39281,38.8145,152],[-90.39284,38.81452,151],[-90.39288,38.81453,150],[-90.39291,38.81454,149],[-90.39293,38.81457,149],[-90.39294,38.8146,149],[-90.39296,38.81463,148],[-90.39297,38.81466,148],[-90.39298,38.81468,147],[-90.39298,38.81471,147],[-90.39298,38.81474,147],[-90.39297,38.81477,148],[-90.39296,38.81479,148],[-90.39297,38.81482,148],[-90.39298,38.81485,148],[-90.393,38.81488,147],[-90.39301,38.8149,147],[-90.39304,38.81493,147],[-90.39306,38.81495,147],[-90.39309,38.81497,147],[-90.39311,38.81499,146],[-90.39313,38.81501,146],[-90.39315,38.81504,145],[-90.39317,38.81506,144],[-90.39317,38.8151,144],[-90.39317,38.81513,144],[-90.39314,38.81515,144],[-90.39312,38.81517,145],[-90.39311,38.8152,145],[-90.39309,38.81522,145],[-90.39306,38.81524,146],[-90.39303,38.81526,146],[-90.39301,38.81529,146],[-90.39298,38.81532,146],[-90.39295,38.81534,146],[-90.39292,38.81536,146],[-90.39289,38.81538,147],[-90.39285,38.8154,147],[-90.39282,38.81541,147],[-90.39279,38.81542,148],[-90.39276,38.81544,148],[-90.39273,38.81546,149],[-90.3927,38.81548,149],[-90.39268,38.8155,150],[-90.39265,38.81552,150],[-90.39262,38.81554,151],[-90.3926,38.81556,151],[-90.39258,38.81559,152],[-90.39258,38.81562,151],[-90.39258,38.81565,150],[-90.39259,38.81568,149],[-90.39261,38.81571,148],[-90.39262,38.81573,147],[-90.39263,38.81576,146],[-90.39263,38.8158,145],[-90.39264,38.81582,144],[-90.39265,38.81585,144],[-90.39265,38.81588,144],[-90.39265,38.81591,144],[-90.39264,38.81594,144],[-90.39263,38.81598,144],[-90.39263,38.816,144],[-90.39262,38.81603,145],[-90.3926,38.81605,145],[-90.39257,38.81607,146],[-90.39254,38.81609,147],[-90.3925,38.8161,148],[-90.39246,38.81611,150],[-90.39242,38.81612,151],[-90.39239,38.81613,152],[-90.39236,38.81615,152],[-90.39235,38.81618,151],[-90.39233,38.8162,152],[-90.3923,38.81622,152],[-90.39229,38.81625,151],[-90.39229,38.81628,150],[-90.39227,38.81631,150],[-90.39225,38.81633,150],[-90.39226,38.81636,149],[-90.39228,38.81638,148],[-90.39229,38.81641,147],[-90.39229,38.81644,147],[-90.39226,38.81646,147],[-90.39223,38.81648,147],[-90.39222,38.81651,147],[-90.3922,38.81654,147],[-90.39219,38.81656,147],[-90.39218,38.81659,147],[-90.39215,38.81661,148],[-90.39211,38.81662,148],[-90.39207,38.81662,149],[-90.39206,38.81665,149],[-90.39206,38.81667,148],[-90.39204,38.8167,149],[-90.39201,38.81672,149],[-90.39199,38.81675,149],[-90.39198,38.81678,149],[-90.39195,38.8168,149],[-90.39192,38.81681,150],[-90.39189,38.81683,150],[-90.39187,38.81686,149],[-90.39184,38.81688,149],[-90.39181,38.8169,149],[-90.39179,38.81692,148],[-90.39177,38.81694,148],[-90.39173,38.81695,147],[-90.39169,38.81696,147],[-90.39166,38.81696,147],[-90.39163,38.81699,146],[-90.39162,38.81701,146],[-90.39159,38.81702,146],[-90.39155,38.81702,147],[-90.39151,38.81702,147],[-90.39148,38.81703,147],[-90.39146,38.81701,149],[-90.39145,38.81698,150],[-90.39141,38.81698,151],[-90.39138,38.81699,151],[-90.39135,38.81701,150],[-90.39132,38.81703,150],[-90.39133,38.81706,149],[-90.39134,38.81709,147],[-90.39133,38.81712,146],[-90.39132,38.81714,145],[-90.3913,38.81717,144],[-90.39128,38.8172,143],[-90.39124,38.81721,144],[-90.39121,38.81722,144],[-90.39117,38.81723,144],[-90.39113,38.81724,145],[-90.3911,38.81724,145],[-90.39106,38.81725,146],[-90.39105,38.81728,145],[-90.39104,38.81731,144],[-90.39103,38.81734,144],[-90.39101,38.81737,143],[-90.39099,38.81739,143],[-90.39096,38.81741,143],[-90.39092,38.81742,143],[-90.39088,38.81742,144],[-90.39085,38.81741,144],[-90.39081,38.8174,145],[-90.39078,38.8174,146],[-90.39074,38.81741,146],[-90.39072,38.81743,146],[-90.39069,38.81745,145],[-90.39065,38.81746,146],[-90.39062,38.81747,146]],[[-90.39058,38.81743,148],[-90.39055,38.81741,149],[-90.39055,38.81738,150],[-90.39055,38.81735,151],[-90.39055,38.81732,152],[-90.39056,38.81729,153],[-90.39055,38.81727,154],[-90.39052,38.81725,155],[-90.39049,38.81724,155],[-90.39049,38.81721,156],[-90.39052,38.81719,157],[-90.39055,38.81718,157],[-90.39059,38.81717,157],[-90.3906,38.81714,157],[-90.39059,38.81711,159],[-90.39059,38.81708,160],[-90.3906,38.81705,160],[-90.39062,38.81703,161],[-90.39062,38.817,162],[-90.39059,38.81698,163],[-90.39055,38.81699,163],[-90.39054,38.81696,164],[-90.39055,38.81692,165],[-90.39055,38.81689,165],[-90.39055,38.81686,165],[-90.39054,38.81683,166],[-90.39052,38.81681,166],[-90.39049,38.81679,167],[-90.39046,38.81678,167],[-90.39044,38.81675,167],[-90.39044,38.81673,167],[-90.39041,38.8167,168],[-90.39038,38.8167,168],[-90.39034,38.81669,168],[-90.39032,38.81666,168],[-90.39032,38.81663,169],[-90.39032,38.81661,169],[-90.39033,38.81657,169],[-90.39031,38.81654,170],[-90.39029,38.81652,170],[-90.39026,38.81651,170],[-90.39022,38.81652,170],[-90.39018,38.81651,170],[-90.39015,38.81649,170],[-90.39012,38.81648,170],[-90.39009,38.81646,170],[-90.39006,38.81645,170],[-90.39003,38.81643,170],[-90.39,38.81641,170],[-90.39,38.81638,171],[-90.38997,38.81639,170],[-90.38993,38.81641,170],[-90.38989,38.81642,170],[-90.38991,38.81644,170],[-90.38995,38.81646,170],[-90.38998,38.81647,170],[-90.39001,38.81648,170],[-90.39002,38.81651,170],[-90.39002,38.81654,169],[-90.39004,38.81657,169],[-90.39007,38.81659,169],[-90.3901,38.8166,169],[-90.39014,38.81659,169],[-90.39018,38.81658,169],[-90.39021,38.81658,169],[-90.39022,38.81655,170],[-90.39021,38.81652,170],[-90.39019,38.8165,170],[-90.39016,38.81649,170],[-90.39013,38.81647,170],[-90.39012,38.81644,170],[-90.39009,38.81642,171],[-90.39005,38.81642,170],[-90.39002,38.81642,170],[-90.38997,38.81642,170],[-90.38994,38.8164,170],[-90.3899,38.81638,170],[-90.38987,38.81637,170],[-90.38983,38.81636,170],[-90.3898,38.81635,170],[-90.38977,38.81633,170],[-90.38976,38.8163,171],[-90.38973,38.81627,171],[-90.38971,38.81625,171],[-90.38968,38.81623,171],[-90.38965,38.81622,171],[-90.38961,38.81622,171],[-90.38958,38.81621,171],[-90.38954,38.81623,171],[-90.38953,38.81625,170],[-90.38955,38.81628,170],[-90.38958,38.8163,170],[-90.38956,38.81632,170],[-90.38953,38.81634,169],[-90.3895,38.81635,169],[-90.38947,38.81636,169],[-90.38943,38.81637,169],[-90.38941,38.8164,168],[-90.38942,38.81643,168],[-90.38945,38.81645,168],[-90.38949,38.81645,168],[-90.38953,38.81644,168],[-90.38956,38.81644,169],[-90.3896,38.81645,169],[-90.38963,38.81647,169],[-90.38966,38.81649,169],[-90.38969,38.81651,169],[-90.38971,38.81654,168],[-90.38971,38.81656,168],[-90.38971,38.81659,168],[-90.38971,38.81662,168],[-90.38971,38.81665,168],[-90.38972,38.81668,167],[-90.38972,38.8167,167],[-90.38973,38.81673,167],[-90.38975,38.81676,166],[-90.38979,38.81677,166],[-90.38983,38.81677,166],[-90.38986,38.81678,166],[-90.3899,38.81679,166],[-90.38993,38.81681,166],[-90.38994,38.81683,166],[-90.38996,38.81686,166],[-90.38996,38.81689,165],[-90.38996,38.81692,165],[-90.38996,38.81695,164],[-90.38996,38.81698,164],[-90.38997,38.817,163],[-90.38998,38.81703,162],[-90.38994,38.81704,162],[-90.38991,38.81707,162],[-90.38993,38.8171,161],[-90.38996,38.81711,161],[-90.39,38.81713,160],[-90.39003,38.81715,159],[-90.39005,38.81717,159],[-90.39007,38.81719,158],[-90.39009,38.81722,157],[-90.3901,38.81725,156],[-90.39012,38.81728,156],[-90.39014,38.8173,155],[-90.39015,38.81733,154],[-90.39018,38.81735,154],[-90.3902,38.81737,153],[-90.39023,38.8174,152],[-90.39024,38.81743,151],[-90.39024,38.81746,150],[-90.39025,38.81748,149],[-90.39028,38.8175,148],[-90.39032,38.81749,148],[-90.39034,38.81747,149],[-90.39036,38.81745,149],[-90.39041,38.81746,148],[-90.39045,38.81747,148],[-90.39048,38.81747,147],[-90.39052,38.81747,147],[-90.39056,38.81748,146],[-90.39056,38.8175,145],[-90.39053,38.81753,145],[-90.39057,38.81754,144],[-90.3906,38.81754,144],[-90.39064,38.81754,143],[-90.39062,38.81752,144],[-90.39062,38.81749,145],[-90.39064,38.81746,146],[-90.39067,38.81744,146],[-90.3907,38.81743,146],[-90.39074,38.81742,146],[-90.39077,38.81741,145],[-90.39081,38.8174,145],[-90.39084,38.81739,145],[-90.39087,38.81737,145],[-90.39091,38.81737,145],[-90.39095,38.81737,144],[-90.39099,38.81737,143],[-90.39102,38.81737,143],[-90.39106,38.81735,143],[-90.39108,38.81733,143],[-90.3911,38.8173,144],[-90.39112,38.81727,144],[-90.39114,38.81725,144],[-90.39117,38.81723,144],[-90.39119,38.81721,145],[-90.39121,38.81718,145],[-90.39124,38.81717,145],[-90.39127,38.81715,146],[-90.3913,38.81714,146],[-90.39134,38.81713,145],[-90.39138,38.81712,145],[-90.39141,38.8171,145],[-90.39144,38.81708,146],[-90.39147,38.81707,146],[-90.3915,38.81705,146],[-90.39153,38.81703,146],[-90.39156,38.81702,146],[-90.39159,38.817,147],[-90.39162,38.81698,147],[-90.39165,38.81697,147],[-90.39169,38.81696,147],[-90.39172,38.81695,147],[-90.39175,38.81695,147],[-90.39179,38.81694,148],[-90.3918,38.81691,149],[-90.39183,38.81688,149],[-90.39186,38.81687,149],[-90.3919,38.81685,149],[-90.39193,38.81684,149],[-90.39195,38.81682,149],[-90.39197,38.81679,149],[-90.392,38.81677,149],[-90.39201,38.81674,149],[-90.39203,38.81672,149],[-90.39205,38.81669,148],[-90.39206,38.81667,148],[-90.39207,38.81664,149],[-90.3921,38.81662,148],[-90.39214,38.81661,148],[-90.39215,38.81658,148],[-90.39215,38.81655,148],[-90.39218,38.81653,148],[-90.39221,38.81652,147],[-90.39223,38.81649,147],[-90.39223,38.81646,148],[-90.39225,38.81644,147],[-90.39226,38.81641,148],[-90.39228,38.81639,147],[-90.39231,38.81637,147],[-90.39232,38.81634,148],[-90.39231,38.81631,149],[-90.3923,38.81628,150],[-90.39229,38.81625,151],[-90.39233,38.81623,151],[-90.39235,38.81621,151],[-90.39236,38.81618,151],[-90.39238,38.81615,151],[-90.39241,38.81613,151],[-90.39243,38.81611,151],[-90.39246,38.81609,150],[-90.39249,38.8161,149],[-90.39253,38.8161,147],[-90.39257,38.81609,146],[-90.3926,38.81608,145],[-90.39262,38.81606,145],[-90.39264,38.81603,144],[-90.39265,38.816,144],[-90.39265,38.81597,144],[-90.39265,38.81595,144],[-90.39264,38.81592,144],[-90.39264,38.81589,144],[-90.39263,38.81586,144],[-90.39264,38.81583,144],[-90.39264,38.8158,145],[-90.39263,38.81577,146],[-90.39262,38.81574,147],[-90.39261,38.81571,148],[-90.3926,38.81568,149],[-90.3926,38.81566,149],[-90.39261,38.81562,150],[-90.39263,38.8156,149],[-90.39266,38.81558,149],[-90.39269,38.81556,148],[-90.3927,38.81553,148],[-90.39272,38.8155,148],[-90.39275,38.81548,148],[-90.39278,38.81546,147],[-90.39281,38.81545,147],[-90.39284,38.81544,146],[-90.39287,38.81542,146],[-90.3929,38.81541,145],[-90.39294,38.81539,145],[-90.39297,38.81537,145],[-90.393,38.81535,145],[-90.39303,38.81533,144],[-90.39305,38.81531,145],[-90.39308,38.81529,144],[-90.3931,38.81527,145],[-90.39313,38.81524,144],[-90.39315,38.81522,144],[-90.39316,38.81519,144],[-90.39316,38.81516,144],[-90.39315,38.81513,144],[-90.39314,38.8151,145],[-90.39313,38.81508,145],[-90.39312,38.81505,146],[-90.3931,38.81502,146],[-90.39309,38.815,147],[-90.39307,38.81497,147],[-90.39305,38.81495,147],[-90.39303,38.81492,147],[-90.39302,38.81489,147],[-90.393,38.81486,147],[-90.39299,38.81484,147],[-90.39299,38.81481,147],[-90.393,38.81478,147],[-90.393,38.81475,147],[-90.39299,38.81472,147],[-90.39298,38.81469,147],[-90.39297,38.81466,148],[-90.39295,38.81464,148],[-90.39293,38.81461,149],[-90.39291,38.81458,149],[-90.39289,38.81456,150],[-90.39286,38.81455,150],[-90.39283,38.81454,151],[-90.39279,38.81452,152],[-90.39277,38.8145,152],[-90.39275,38.81447,153],[-90.39272,38.81445,153],[-90.3927,38.81443,153],[-90.39268,38.81441,153],[-90.39265,38.81439,153],[-90.39261,38.81437,153],[-90.39258,38.81436,153],[-90.39255,38.81434,153],[-90.39252,38.81432,153],[-90.39248,38.81431,153],[-90.39245,38.8143,152],[-90.39242,38.81429,152],[-90.39239,38.81427,152],[-90.39236,38.81425,152],[-90.39234,38.81422,151],[-90.39232,38.8142,151],[-90.3923,38.81417,150],[-90.39228,38.81415,149],[-90.39228,38.81412,148],[-90.3923,38.81409,146],[-90.39231,38.81407,145],[-90.39233,38.81404,143],[-90.39234,38.81401,141],[-90.39236,38.81399,141],[-90.39238,38.81396,139],[-90.3924,38.81393,138],[-90.39241,38.81391,137],[-90.39243,38.81388,136],[-90.39245,38.81385,137],[-90.39247,38.81383,137],[-90.39249,38.8138,138],[-90.3925,38.81377,138],[-90.39252,38.81375,138],[-90.39253,38.81372,138],[-90.39253,38.81369,138],[-90.39254,38.81366,138],[-90.39256,38.81363,138],[-90.39258,38.81361,138],[-90.3926,38.81358,138],[-90.39262,38.81356,138],[-90.39264,38.81353,137],[-90.39265,38.81351,137],[-90.39267,38.81348,137],[-90.3927,38.81346,136],[-90.39272,38.81344,136],[-90.39274,38.81341,136],[-90.39277,38.81339,135],[-90.3928,38.81337,135],[-90.39282,38.81334,134],[-90.39285,38.81332,134],[-90.39287,38.8133,134],[-90.3929,38.81328,134],[-90.39292,38.81326,133],[-90.39294,38.81323,133],[-90.39296,38.81321,133],[-90.39299,38.81319,133],[-90.39301,38.81317,133],[-90.39304,38.81315,133],[-90.39306,38.81312,132],[-90.39309,38.81311,132],[-90.39312,38.81309,132],[-90.39314,38.81307,132],[-90.39316,38.81305,133],[-90.39319,38.81302,133],[-90.39321,38.813,133],[-90.39324,38.81298,133],[-90.39327,38.81296,133],[-90.3933,38.81294,133],[-90.39333,38.81292,133],[-90.39336,38.8129,134],[-90.39339,38.81288,134],[-90.39342,38.81286,134],[-90.39345,38.81285,134],[-90.39348,38.81283,134],[-90.39351,38.81282,134],[-90.39353,38.8128,134],[-90.39356,38.81278,134],[-90.39359,38.81276,134],[-90.39362,38.81274,134],[-90.39365,38.81273,134],[-90.39368,38.81271,134],[-90.39371,38.81269,134],[-90.39374,38.81267,134],[-90.39377,38.81265,135],[-90.39379,38.81263,135],[-90.39382,38.81261,135],[-90.39384,38.81259,135],[-90.39388,38.81257,136],[-90.39391,38.81255,136],[-90.39394,38.81253,136],[-90.39396,38.81251,136],[-90.39399,38.81249,137],[-90.39402,38.81248,137],[-90.39405,38.81246,137],[-90.39408,38.81244,137],[-90.3941,38.81242,137],[-90.39413,38.81239,137],[-90.39415,38.81237,137],[-90.39418,38.81235,137],[-90.39421,38.81233,137],[-90.39423,38.8123,137],[-90.39426,38.81228,137],[-90.39429,38.81226,137],[-90.39431,38.81224,137],[-90.39434,38.81222,138],[-90.39436,38.8122,138],[-90.39439,38.81218,138],[-90.39441,38.81215,138],[-90.39444,38.81214,138],[-90.39447,38.81212,137],[-90.3945,38.8121,137],[-90.39453,38.81208,137],[-90.39455,38.81206,137],[-90.39458,38.81204,137],[-90.3946,38.81202,137],[-90.39463,38.812,137],[-90.39466,38.81197,137],[-90.39468,38.81195,137],[-90.39471,38.81193,136],[-90.39473,38.8119,136],[-90.39476,38.81188,136],[-90.39479,38.81186,135],[-90.39481,38.81184,135],[-90.39484,38.81182,135],[-90.39487,38.81179,134],[-90.39489,38.81177,134],[-90.39492,38.81175,133],[-90.39494,38.81173,133],[-90.39497,38.81171,133],[-90.395,38.81169,133],[-90.39503,38.81167,133],[-90.39506,38.81165,132],[-90.39505,38.81162,132],[-90.39502,38.8116,132],[-90.39502,38.81163,132],[-90.39501,38.81166,132]]],
        "bbox": [
          -90.38751,
          38.81754,
          -90.39506,
          38.81113
        ]
      },
      "properties": {
        "name": "2.4.2025"
      }
    }
  ]
}