{
  "type": "FeatureCollection",
  "features": [
    {
      "type": "Feature",
      "geometry": {
        "type": "MultiLineString",
        "coordinates": [[[-90.38192,38.80062,155],[-90.38189,38.80065,155],[-90.38186,38.80068,155],[-90.38189,38.80069,156],[-90.38185,38.8007,155],[-90.38182,38.80073,156],[-90.38178,38.80074,156],[-90.38174,38.80074,155],[-90.3817,38.80075,155],[-90.38166,38.80075,155],[-90.38161,38.80075,155],[-90.38158,38.80076,155],[-90.38154,38.80077,155],[-90.38151,38.8008,155],[-90.38149,38.80084,155],[-90.38149,38.80088,156],[-90.38148,38.80092,157],[-90.38146,38.80095,157],[-90.38144,38.80097,157],[-90.38141,38.801,158],[-90.38139,38.80103,158],[-90.38139,38.80106,159],[-90.38139,38.80109,159],[-90.3814,38.80113,160],[-90.3814,38.80116,160],[-90.38142,38.80119,160],[-90.38145,38.80122,161],[-90.38146,38.80125,161],[-90.38147,38.80128,161],[-90.38148,38.8013,161],[-90.38151,38.80133,162],[-90.38154,38.80136,162],[-90.38158,38.80138,163],[-90.38161,38.8014,163],[-90.38165,38.80142,164],[-90.38168,38.80143,164],[-90.38172,38.80144,164],[-90.38176,38.80145,165],[-90.38181,38.80146,165],[-90.38185,38.80147,166],[-90.38188,38.80148,166],[-90.38193,38.8015,167],[-90.38197,38.80151,168],[-90.38201,38.80153,168],[-90.38204,38.80154,168],[-90.38208,38.80156,169],[-90.38211,38.80158,169],[-90.38215,38.80161,170],[-90.38218,38.80164,170],[-90.3822,38.80166,170],[-90.38222,38.8017,170],[-90.38224,38.80174,170],[-90.38225,38.80177,170],[-90.38223,38.80181,170],[-90.38219,38.80185,170],[-90.38217,38.80187,170],[-90.38215,38.8019,170],[-90.38213,38.80192,170],[-90.3821,38.80195,169],[-90.38208,38.80198,169],[-90.38208,38.80201,169],[-90.3821,38.80204,169],[-90.38213,38.80206,169],[-90.38215,38.80209,169],[-90.38217,38.80212,168],[-90.38218,38.80215,168],[-90.3822,38.80219,168],[-90.3822,38.80221,168],[-90.38219,38.80224,168],[-90.38218,38.80227,168],[-90.38217,38.8023,169],[-90.38215,38.80233,169],[-90.38211,38.80234,169],[-90.38208,38.80235,169],[-90.38204,38.80236,169],[-90.382,38.80239,169],[-90.38198,38.80241,170],[-90.38195,38.80243,170],[-90.38193,38.80246,170],[-90.3819,38.80249,170],[-90.38187,38.80251,170],[-90.38184,38.80253,170],[-90.38182,38.80256,170],[-90.38181,38.80259,170],[-90.38182,38.80262,170],[-90.38184,38.80265,170],[-90.38185,38.80267,170],[-90.38189,38.8027,171],[-90.38193,38.80271,171],[-90.38197,38.80272,171],[-90.38201,38.80274,171],[-90.38205,38.80275,172],[-90.3821,38.80276,172],[-90.38214,38.80278,172],[-90.38218,38.8028,172],[-90.38221,38.80282,173],[-90.38225,38.80283,173],[-90.38228,38.80285,173],[-90.38231,38.80287,173],[-90.38234,38.8029,173],[-90.38239,38.80291,174],[-90.38242,38.80292,174],[-90.38244,38.80295,174],[-90.38248,38.80297,174],[-90.3825,38.80301,175],[-90.38253,38.80304,175],[-90.38255,38.80306,175],[-90.38258,38.8031,175],[-90.38262,38.80311,175],[-90.38267,38.80312,176],[-90.38272,38.80313,176],[-90.38276,38.80314,176],[-90.3828,38.80315,176],[-90.38285,38.80317,176],[-90.38289,38.80318,176],[-90.38292,38.80319,176],[-90.38296,38.8032,176],[-90.38301,38.80322,176],[-90.38304,38.80323,176],[-90.38309,38.80323,175],[-90.38314,38.80323,175],[-90.38319,38.80323,174],[-90.38325,38.80323,174],[-90.3833,38.80322,174],[-90.38335,38.80322,173],[-90.3834,38.80322,173],[-90.38344,38.80322,173],[-90.38348,38.80322,173],[-90.38351,38.8032,173],[-90.38355,38.80319,173],[-90.38359,38.80318,173],[-90.38364,38.80317,173],[-90.38368,38.80316,173],[-90.38372,38.80316,172],[-90.38376,38.80317,172],[-90.3838,38.80316,172],[-90.38383,38.80314,172],[-90.38385,38.80312,172],[-90.38388,38.8031,172],[-90.38392,38.80309,172],[-90.38396,38.80307,172],[-90.38399,38.80305,172],[-90.38401,38.80303,172],[-90.38404,38.803,172],[-90.38406,38.80297,172],[-90.38408,38.80294,173],[-90.3841,38.80291,173],[-90.38413,38.80288,173],[-90.38415,38.80285,173],[-90.38417,38.80282,173],[-90.3842,38.8028,173],[-90.38425,38.80278,173],[-90.38429,38.80275,174],[-90.38432,38.80273,174],[-90.38435,38.80271,174],[-90.38438,38.80269,174],[-90.38442,38.80268,174],[-90.38445,38.80266,174],[-90.38448,38.80264,174],[-90.38452,38.80263,174],[-90.38457,38.80264,174],[-90.38461,38.80264,174],[-90.38465,38.80264,174],[-90.38469,38.80264,174],[-90.38474,38.80265,174],[-90.38479,38.80265,174],[-90.38483,38.80265,174],[-90.38488,38.80265,174],[-90.38492,38.80266,174],[-90.38496,38.80266,174],[-90.385,38.80266,174],[-90.38504,38.80266,174],[-90.38508,38.80266,173],[-90.38512,38.80267,173],[-90.38516,38.80268,173],[-90.3852,38.80269,172],[-90.38524,38.80269,172],[-90.38529,38.8027,172],[-90.38534,38.8027,171],[-90.38539,38.80269,170],[-90.38543,38.80269,170],[-90.38547,38.8027,169],[-90.38551,38.80271,169],[-90.38555,38.80271,168],[-90.38559,38.8027,168],[-90.38562,38.80268,168],[-90.38565,38.80266,168],[-90.3857,38.80265,168],[-90.38574,38.80264,168],[-90.38578,38.80262,168],[-90.38582,38.80262,168],[-90.38587,38.80261,167],[-90.38592,38.80261,167],[-90.38595,38.80258,167],[-90.38598,38.80256,167],[-90.38603,38.80255,166],[-90.38607,38.80255,166],[-90.38612,38.80255,166],[-90.38615,38.80254,166],[-90.38619,38.80254,165],[-90.38623,38.80254,165],[-90.38627,38.80254,164],[-90.38623,38.80255,165],[-90.38618,38.80256,165],[-90.38613,38.80257,166],[-90.38609,38.80258,166],[-90.38604,38.80259,167],[-90.386,38.8026,167],[-90.38597,38.80262,167],[-90.38597,38.80265,167],[-90.38598,38.80268,167],[-90.38601,38.80271,168],[-90.38606,38.80271,168],[-90.38611,38.8027,168],[-90.38614,38.8027,167],[-90.38618,38.8027,167],[-90.38624,38.80271,165],[-90.38627,38.80272,165],[-90.38632,38.80273,164],[-90.38637,38.80274,163],[-90.3864,38.80275,162],[-90.38645,38.80276,161],[-90.38649,38.80277,160],[-90.38653,38.80278,159],[-90.38656,38.8028,159],[-90.38659,38.80281,158],[-90.38662,38.80283,157],[-90.38667,38.80283,156],[-90.3867,38.80284,156],[-90.38674,38.80286,155],[-90.38676,38.80288,155],[-90.38675,38.80291,155],[-90.38674,38.80295,155],[-90.38674,38.80298,155],[-90.38677,38.80301,155],[-90.38679,38.80304,155],[-90.38682,38.80305,155],[-90.38686,38.80308,155],[-90.38689,38.80312,156],[-90.38691,38.80315,156],[-90.38693,38.80318,157],[-90.38696,38.80321,157],[-90.38699,38.80323,158],[-90.38701,38.80327,158],[-90.38702,38.8033,159],[-90.38702,38.80334,159],[-90.38702,38.80337,159],[-90.38703,38.80341,159],[-90.38706,38.80345,159],[-90.38709,38.80347,159],[-90.38712,38.8035,159],[-90.38715,38.80352,159],[-90.3872,38.80354,159],[-90.38723,38.80356,159],[-90.38726,38.80359,158],[-90.38728,38.80361,158],[-90.3873,38.80365,157],[-90.38731,38.80368,156],[-90.38733,38.80371,155],[-90.38735,38.80374,154],[-90.38737,38.80377,153],[-90.38738,38.8038,152],[-90.38739,38.80384,151],[-90.3874,38.80388,150],[-90.38741,38.80391,149],[-90.38741,38.80395,149],[-90.38741,38.80398,149],[-90.38741,38.80402,148],[-90.38741,38.80405,148],[-90.3874,38.80408,148],[-90.38736,38.80411,149],[-90.38733,38.80415,149],[-90.3873,38.80418,149],[-90.38728,38.80421,150],[-90.38728,38.80425,150],[-90.3873,38.80429,149],[-90.38733,38.80434,149],[-90.38737,38.80436,148],[-90.38742,38.80437,147],[-90.38745,38.80439,147],[-90.38749,38.8044,146],[-90.38752,38.80442,145],[-90.38756,38.80443,145],[-90.38759,38.80444,144],[-90.38762,38.80446,144],[-90.38767,38.80448,143],[-90.3877,38.8045,143],[-90.38772,38.80453,143],[-90.38775,38.80456,142],[-90.38777,38.80458,142],[-90.38777,38.80461,142],[-90.38778,38.80465,142],[-90.38778,38.80468,142],[-90.38777,38.80471,143],[-90.38779,38.80477,143],[-90.38781,38.80483,143],[-90.3878,38.80488,143],[-90.38779,38.80493,144],[-90.38779,38.80496,144],[-90.38779,38.805,144],[-90.38779,38.80503,144],[-90.3878,38.80508,144],[-90.3878,38.80511,144],[-90.3878,38.80514,144],[-90.3878,38.80518,144],[-90.38781,38.80521,143],[-90.38781,38.80524,143],[-90.38782,38.80527,143],[-90.38783,38.80531,143],[-90.38784,38.80534,143],[-90.38785,38.80537,142],[-90.38786,38.80541,142],[-90.38788,38.80544,142],[-90.38788,38.80547,141],[-90.38787,38.80551,141],[-90.38786,38.80555,141],[-90.38787,38.80559,142],[-90.38788,38.80562,142],[-90.38789,38.80566,143],[-90.38791,38.80569,143],[-90.38792,38.80572,143],[-90.38793,38.80575,143],[-90.38794,38.80577,143],[-90.38796,38.8058,143],[-90.38796,38.80583,144],[-90.38796,38.80586,144],[-90.38796,38.80589,144],[-90.38797,38.80592,144],[-90.38797,38.80595,144],[-90.38798,38.80598,144],[-90.38798,38.80602,144],[-90.38799,38.80605,143],[-90.388,38.80608,143],[-90.388,38.80611,143],[-90.388,38.80615,143],[-90.388,38.80618,143],[-90.388,38.80621,143],[-90.388,38.80624,143],[-90.38802,38.80628,142],[-90.38803,38.8063,142],[-90.38804,38.80634,142],[-90.38805,38.80637,142],[-90.38806,38.8064,141],[-90.38807,38.80643,141],[-90.38807,38.80646,141],[-90.38807,38.8065,141],[-90.38808,38.80653,141],[-90.38808,38.80656,140],[-90.38809,38.80659,140],[-90.3881,38.80663,140],[-90.3881,38.80667,139],[-90.38811,38.8067,139],[-90.38812,38.80674,139],[-90.38812,38.80678,140],[-90.38812,38.80682,140],[-90.38813,38.80686,140],[-90.38814,38.80689,140],[-90.38814,38.80693,141],[-90.38815,38.80697,141],[-90.38816,38.807,141],[-90.38817,38.80703,141],[-90.38817,38.80707,142],[-90.38818,38.8071,142],[-90.38819,38.80713,142],[-90.3882,38.80716,142],[-90.38822,38.8072,142],[-90.38823,38.80723,142],[-90.38824,38.80726,142],[-90.38825,38.80729,142],[-90.38825,38.80732,142],[-90.38826,38.80736,142],[-90.38826,38.80739,143],[-90.38827,38.80743,143],[-90.38828,38.80746,142],[-90.38828,38.8075,143],[-90.38828,38.80753,143],[-90.38828,38.80756,143],[-90.38829,38.80758,143],[-90.3883,38.80762,143],[-90.38831,38.80764,143],[-90.38832,38.80767,143],[-90.38833,38.80771,143],[-90.38833,38.80774,143],[-90.38834,38.80777,143],[-90.38836,38.8078,143],[-90.38837,38.80783,143],[-90.38838,38.80786,142],[-90.3884,38.80789,142],[-90.38841,38.80792,142],[-90.38841,38.80796,142],[-90.38842,38.80799,141],[-90.38843,38.80803,141],[-90.38843,38.80805,141],[-90.38843,38.80808,141],[-90.38844,38.80812,141],[-90.38844,38.80815,142],[-90.38845,38.80817,142],[-90.38845,38.8082,142],[-90.38845,38.80823,142],[-90.38846,38.80826,142],[-90.38846,38.80829,142],[-90.38847,38.80833,142],[-90.38847,38.80836,143],[-90.38847,38.80839,143],[-90.38847,38.80843,143],[-90.38847,38.80846,143],[-90.38847,38.80849,143],[-90.38847,38.80853,143],[-90.38848,38.80856,143],[-90.38849,38.80859,143],[-90.38851,38.80863,143],[-90.38852,38.80866,142],[-90.38853,38.80869,142],[-90.38854,38.80872,142],[-90.38855,38.80875,142],[-90.38856,38.80879,142],[-90.38858,38.80882,141],[-90.38859,38.80884,141],[-90.38861,38.80888,141],[-90.38862,38.80891,141],[-90.38862,38.80894,141],[-90.38863,38.80898,141],[-90.38863,38.80901,141],[-90.38863,38.80904,141],[-90.38864,38.80907,141],[-90.38865,38.8091,141],[-90.38866,38.80913,141],[-90.38865,38.80917,141],[-90.38865,38.80919,142],[-90.38866,38.80922,142],[-90.38868,38.80925,143],[-90.38871,38.80928,143],[-90.38874,38.8093,143],[-90.38876,38.80933,143],[-90.38877,38.80936,144],[-90.38879,38.8094,144],[-90.38881,38.80943,144],[-90.38883,38.80946,144],[-90.38884,38.80949,145],[-90.38886,38.80952,145],[-90.38888,38.80955,145],[-90.38891,38.80958,145],[-90.38894,38.80961,145],[-90.38897,38.80964,145],[-90.389,38.80967,145],[-90.38901,38.8097,145],[-90.38902,38.80973,145],[-90.38903,38.80976,145],[-90.38905,38.8098,145],[-90.38907,38.80983,145],[-90.38908,38.80986,145],[-90.3891,38.80989,145],[-90.38912,38.80992,144],[-90.38915,38.80994,144],[-90.38916,38.80997,144],[-90.38917,38.81,143],[-90.38918,38.81003,143],[-90.38919,38.81006,143],[-90.38918,38.81009,143],[-90.38918,38.81013,143],[-90.38918,38.81016,143],[-90.38918,38.81019,143],[-90.38919,38.81022,143],[-90.3892,38.81025,142],[-90.3892,38.81028,142],[-90.38921,38.81031,143],[-90.38921,38.81034,143],[-90.38922,38.81037,143],[-90.38923,38.81041,143],[-90.38925,38.81044,143],[-90.38927,38.81047,143],[-90.38929,38.81049,143],[-90.38932,38.81051,143],[-90.38936,38.81054,143],[-90.38939,38.81057,143],[-90.38941,38.8106,144],[-90.38945,38.81062,144],[-90.38949,38.81065,144],[-90.38952,38.81066,144],[-90.38956,38.81067,144],[-90.3896,38.81068,144],[-90.38964,38.81069,144],[-90.38969,38.8107,144],[-90.38973,38.81071,144],[-90.38977,38.81071,144],[-90.38981,38.81072,144],[-90.38985,38.81073,143],[-90.38989,38.81073,143],[-90.38994,38.81074,143],[-90.38999,38.81075,142],[-90.39003,38.81075,142],[-90.39007,38.81075,142],[-90.39011,38.81075,142],[-90.39014,38.81076,142],[-90.39019,38.81077,141],[-90.39023,38.81077,141],[-90.39027,38.81077,141],[-90.39031,38.81077,141],[-90.39036,38.81078,140],[-90.3904,38.81078,140],[-90.39043,38.81078,140],[-90.39048,38.81079,140],[-90.39051,38.81079,140],[-90.39056,38.8108,139],[-90.3906,38.81081,139],[-90.39064,38.81082,139],[-90.39068,38.81083,139],[-90.39072,38.81084,138],[-90.39076,38.81086,138],[-90.39079,38.81088,138],[-90.39082,38.8109,138],[-90.39084,38.81093,138],[-90.39084,38.81096,139],[-90.39085,38.81099,139],[-90.39084,38.81102,139],[-90.39084,38.81105,140],[-90.39083,38.81108,140],[-90.39084,38.81112,141],[-90.39084,38.81115,141],[-90.39084,38.81119,141],[-90.3908,38.81122,141],[-90.39075,38.81123,142],[-90.39071,38.81124,142],[-90.39068,38.81125,142],[-90.39064,38.81126,142],[-90.3906,38.81127,142],[-90.39057,38.81127,142],[-90.39053,38.81126,142],[-90.39049,38.81124,142],[-90.39045,38.81122,142],[-90.3904,38.81122,142],[-90.39035,38.81122,142],[-90.39029,38.81122,142],[-90.39024,38.81122,143],[-90.3902,38.81122,143],[-90.39016,38.81121,144],[-90.3901,38.8112,145],[-90.39007,38.8112,145],[-90.39003,38.81119,146],[-90.38998,38.8112,146],[-90.38993,38.81121,147],[-90.3899,38.81122,147],[-90.38985,38.81122,148],[-90.3898,38.81123,149],[-90.38976,38.81123,149],[-90.38971,38.81123,150],[-90.38967,38.81124,150],[-90.38962,38.81125,151],[-90.38959,38.81128,151],[-90.38956,38.8113,151],[-90.38953,38.81131,151],[-90.38949,38.81134,151],[-90.38943,38.81135,152],[-90.38939,38.81135,152],[-90.38935,38.81135,152],[-90.38931,38.81136,152],[-90.38927,38.81137,152],[-90.38923,38.81138,152],[-90.38919,38.8114,152],[-90.38916,38.81142,152],[-90.3891,38.81143,153],[-90.38905,38.81144,154],[-90.38902,38.81146,155],[-90.38898,38.81148,156],[-90.38894,38.8115,157],[-90.38891,38.81153,158],[-90.38887,38.81155,159],[-90.38884,38.81158,160],[-90.38882,38.81161,161],[-90.38879,38.81163,161],[-90.38876,38.81164,162],[-90.38872,38.81166,163],[-90.38869,38.81168,163],[-90.38866,38.8117,163],[-90.38864,38.81173,163],[-90.38863,38.81177,163],[-90.38862,38.8118,163],[-90.38864,38.81182,162],[-90.38864,38.81185,162],[-90.38864,38.81188,162],[-90.38866,38.81191,161],[-90.38868,38.81194,160],[-90.38871,38.81196,160],[-90.38873,38.81199,160],[-90.38876,38.81201,160],[-90.38879,38.81203,160],[-90.3888,38.81206,160],[-90.38877,38.81209,161],[-90.38873,38.81211,161],[-90.38869,38.81212,162],[-90.38866,38.81214,162],[-90.38863,38.81217,163],[-90.38861,38.8122,163],[-90.38859,38.81223,164],[-90.38858,38.81226,165],[-90.38858,38.8123,165],[-90.38858,38.81234,166],[-90.38857,38.81237,167],[-90.38855,38.81241,168],[-90.38854,38.81246,169],[-90.38851,38.81251,171],[-90.38849,38.81254,172],[-90.38847,38.81258,172],[-90.38846,38.81261,173],[-90.38843,38.81263,174],[-90.3884,38.81265,175],[-90.38837,38.81267,177],[-90.38833,38.81268,178],[-90.38829,38.8127,179],[-90.38825,38.81271,180],[-90.38822,38.81273,182],[-90.38817,38.81275,184],[-90.38814,38.81276,185],[-90.38811,38.81278,186],[-90.38809,38.81281,187],[-90.38809,38.81284,187],[-90.38807,38.81287,188],[-90.38806,38.81291,189],[-90.38806,38.81294,189],[-90.38805,38.81297,190],[-90.38805,38.81301,190],[-90.38805,38.81304,190],[-90.38803,38.81306,191],[-90.38799,38.81309,192],[-90.38797,38.81311,192],[-90.38795,38.81315,193],[-90.38794,38.81318,193],[-90.38792,38.81321,194],[-90.3879,38.81324,194],[-90.38786,38.81326,195],[-90.38783,38.81327,195],[-90.3878,38.81329,195],[-90.38777,38.81331,195],[-90.38773,38.81332,195],[-90.38769,38.81333,195],[-90.38765,38.81333,195],[-90.38762,38.81336,195],[-90.3876,38.81338,195],[-90.38758,38.81341,195],[-90.38757,38.81344,195],[-90.38756,38.81346,195],[-90.38755,38.8135,195],[-90.38754,38.81353,195],[-90.38754,38.81357,195],[-90.38754,38.81361,196],[-90.38754,38.81364,196],[-90.38754,38.81367,197],[-90.38754,38.8137,197],[-90.38753,38.81373,197],[-90.38753,38.81376,198],[-90.38752,38.81379,198],[-90.38752,38.81382,199],[-90.38755,38.81385,199],[-90.38759,38.81387,199],[-90.38762,38.81389,199],[-90.38767,38.81391,200],[-90.3877,38.81392,200],[-90.38774,38.81393,200],[-90.38777,38.81393,200],[-90.38781,38.81394,199],[-90.38785,38.81394,199],[-90.38789,38.81394,199],[-90.38794,38.81394,199],[-90.38799,38.81395,199],[-90.38804,38.81395,199],[-90.38807,38.81395,199],[-90.38811,38.81395,199],[-90.38815,38.81394,198],[-90.3882,38.81394,198],[-90.38824,38.81395,198],[-90.38828,38.81395,198],[-90.38831,38.81396,198],[-90.38835,38.81397,198],[-90.38839,38.81398,197],[-90.38842,38.814,197],[-90.38846,38.81401,197],[-90.38849,38.81401,197],[-90.38853,38.81402,196],[-90.38857,38.81403,196],[-90.38862,38.81404,195],[-90.38866,38.81404,195],[-90.3887,38.81405,194],[-90.38874,38.81405,194],[-90.38878,38.81406,193],[-90.38882,38.81406,193],[-90.38887,38.81407,192],[-90.38892,38.81407,192],[-90.38896,38.81408,192],[-90.38901,38.81408,191],[-90.38905,38.81408,191],[-90.38909,38.81408,191],[-90.38913,38.8141,191],[-90.38916,38.81412,192],[-90.38919,38.81414,192],[-90.38922,38.81417,192],[-90.38925,38.8142,191],[-90.38928,38.81422,190],[-90.38932,38.81424,190],[-90.38937,38.81427,189],[-90.38939,38.81431,189],[-90.3894,38.81434,189],[-90.3894,38.81437,189],[-90.3894,38.81441,190],[-90.38942,38.81444,190],[-90.38944,38.81446,190],[-90.38945,38.8145,190],[-90.38945,38.81453,190],[-90.38946,38.81455,190],[-90.38947,38.81459,190],[-90.38946,38.81462,190],[-90.38945,38.81465,190],[-90.38945,38.81468,190],[-90.38947,38.81471,191],[-90.38949,38.81474,190],[-90.38951,38.81477,190],[-90.38953,38.8148,190],[-90.38955,38.81484,190],[-90.38957,38.81488,189],[-90.38959,38.8149,189],[-90.38961,38.81493,189],[-90.38965,38.81495,189],[-90.38969,38.81499,188],[-90.38973,38.81502,188],[-90.38975,38.81505,187],[-90.38978,38.81508,187],[-90.38982,38.81512,186],[-90.38985,38.81515,185],[-90.38989,38.81517,184],[-90.38993,38.81518,184],[-90.38996,38.81519,184],[-90.39001,38.81521,183],[-90.39004,38.81523,183],[-90.39008,38.81525,182],[-90.39013,38.81526,182],[-90.39017,38.81527,182],[-90.39022,38.81528,181],[-90.39027,38.81529,181],[-90.39032,38.81531,181],[-90.39037,38.81532,182],[-90.39042,38.81533,182],[-90.39046,38.81534,182],[-90.39051,38.81535,183],[-90.39055,38.81535,183],[-90.39061,38.81537,183],[-90.39065,38.81538,184],[-90.39069,38.81539,184],[-90.39074,38.81539,185],[-90.39079,38.8154,185],[-90.39083,38.81541,186],[-90.39088,38.81541,186],[-90.39091,38.8154,186],[-90.39095,38.8154,186],[-90.39099,38.81539,186],[-90.39104,38.81538,186],[-90.39108,38.81537,186],[-90.39111,38.81537,186],[-90.39117,38.81537,186],[-90.39121,38.81537,186],[-90.39126,38.81538,186],[-90.3913,38.81537,186],[-90.39133,38.81537,185],[-90.39137,38.81538,185],[-90.39141,38.81538,185],[-90.39145,38.81541,184],[-90.39147,38.81544,184],[-90.39149,38.81547,184],[-90.3915,38.81549,184],[-90.39154,38.81551,183],[-90.39156,38.81554,183],[-90.39158,38.81556,183],[-90.39161,38.81559,183],[-90.39164,38.81561,182],[-90.39168,38.81561,182],[-90.39173,38.81561,181],[-90.39178,38.81561,180],[-90.39181,38.81563,179],[-90.39185,38.81564,178],[-90.39188,38.81563,177],[-90.39191,38.81561,177],[-90.39193,38.81557,177],[-90.39195,38.81554,177],[-90.39196,38.81549,176],[-90.39197,38.81546,176],[-90.39197,38.81543,176],[-90.39197,38.8154,176],[-90.39197,38.81537,175],[-90.39197,38.81533,175],[-90.39197,38.8153,175],[-90.39197,38.81527,175],[-90.39197,38.81524,173],[-90.39197,38.8152,172],[-90.39196,38.81516,171],[-90.39195,38.81513,170],[-90.39193,38.81509,169],[-90.39192,38.81506,168],[-90.3919,38.81502,168],[-90.39191,38.81498,167],[-90.39192,38.81495,166],[-90.39192,38.81492,165],[-90.39192,38.81488,165],[-90.39191,38.81484,165],[-90.39189,38.81481,165],[-90.39188,38.81477,165],[-90.39187,38.81474,165],[-90.39186,38.81472,165],[-90.39183,38.81469,165],[-90.3918,38.81467,166],[-90.39178,38.81463,166],[-90.39177,38.8146,166],[-90.39177,38.81457,165],[-90.39177,38.81453,165],[-90.39177,38.8145,164],[-90.39176,38.81448,164],[-90.39176,38.81443,163],[-90.39176,38.81439,162],[-90.39175,38.81437,162],[-90.39176,38.81434,161],[-90.39178,38.81431,160],[-90.39179,38.81428,158],[-90.39182,38.81425,157],[-90.39185,38.81423,156],[-90.39188,38.8142,154],[-90.39191,38.81419,153],[-90.39196,38.81417,152],[-90.392,38.81416,151],[-90.39204,38.81415,150],[-90.39208,38.81414,149],[-90.39213,38.81414,149],[-90.39219,38.81413,148],[-90.39224,38.81413,148],[-90.39228,38.81413,148],[-90.39232,38.81414,149],[-90.39234,38.81416,150],[-90.39237,38.8142,151],[-90.39239,38.81422,151],[-90.39243,38.81424,151],[-90.39247,38.81426,152],[-90.39251,38.81428,152],[-90.39254,38.81431,152],[-90.39257,38.81432,152],[-90.39259,38.8143,151],[-90.39262,38.81428,151],[-90.39267,38.81426,150],[-90.39273,38.81425,149],[-90.39277,38.81428,149],[-90.39274,38.8143,150],[-90.39272,38.81432,150],[-90.39268,38.81432,151],[-90.39264,38.81431,151],[-90.39266,38.81434,151],[-90.39268,38.8144,153],[-90.39274,38.81444,153],[-90.39278,38.81448,152],[-90.39282,38.81451,151],[-90.39286,38.81454,150],[-90.39289,38.81456,150],[-90.39293,38.81459,149],[-90.39296,38.81461,148],[-90.39298,38.81464,147],[-90.39297,38.81467,148],[-90.39297,38.8147,147],[-90.39298,38.81473,147],[-90.39298,38.81475,147],[-90.39299,38.81478,147],[-90.39299,38.81481,147],[-90.393,38.81484,147],[-90.39301,38.81487,147],[-90.39303,38.8149,147],[-90.39305,38.81493,147],[-90.39308,38.81496,147],[-90.3931,38.81499,147],[-90.39312,38.81503,146],[-90.39314,38.81506,145],[-90.39315,38.81509,145],[-90.39317,38.81512,144],[-90.39317,38.81516,144],[-90.39317,38.81519,143],[-90.39316,38.81521,144],[-90.39313,38.81524,144],[-90.39311,38.81527,144],[-90.39308,38.81529,144],[-90.39306,38.81532,144],[-90.39304,38.81535,143],[-90.39301,38.81537,144],[-90.39297,38.81539,144],[-90.39293,38.8154,145],[-90.39291,38.81543,145],[-90.39287,38.81545,145],[-90.39283,38.81546,146],[-90.3928,38.81547,146],[-90.39276,38.81548,147],[-90.39272,38.8155,148],[-90.39269,38.81552,149],[-90.39266,38.81554,149],[-90.39263,38.81557,150],[-90.39261,38.8156,150],[-90.39259,38.81563,150],[-90.39259,38.81567,149],[-90.39259,38.8157,148],[-90.3926,38.81574,147],[-90.39259,38.81577,147],[-90.39258,38.81579,147],[-90.39259,38.81582,146],[-90.39263,38.81582,145],[-90.39264,38.8158,145],[-90.39262,38.81578,146],[-90.39258,38.81577,147],[-90.39258,38.81573,148],[-90.39258,38.8157,149],[-90.39259,38.81567,149],[-90.3926,38.81565,149],[-90.39261,38.81562,150],[-90.39266,38.81561,148],[-90.3927,38.81559,147],[-90.39271,38.81557,147],[-90.39274,38.81554,146],[-90.39277,38.81552,146],[-90.39281,38.81549,146],[-90.39284,38.81547,145],[-90.39288,38.81545,145],[-90.39292,38.81544,144],[-90.39295,38.81542,144],[-90.39301,38.81537,144],[-90.39305,38.81534,144],[-90.39308,38.81531,144],[-90.3931,38.81529,144],[-90.39312,38.81526,144],[-90.39314,38.81523,144],[-90.39316,38.8152,144],[-90.39316,38.81517,144],[-90.39316,38.81513,144],[-90.39315,38.8151,145],[-90.39314,38.81507,145],[-90.39312,38.81504,146],[-90.39311,38.815,146],[-90.39309,38.81497,147],[-90.39306,38.81495,147],[-90.39303,38.81493,147],[-90.39302,38.8149,147],[-90.39302,38.81487,147],[-90.39302,38.81484,147],[-90.39303,38.8148,147],[-90.39303,38.81476,146],[-90.39302,38.81473,146],[-90.393,38.8147,147],[-90.39298,38.81467,147],[-90.39296,38.81465,148],[-90.39294,38.81462,148],[-90.39291,38.8146,149],[-90.39287,38.81458,150],[-90.39284,38.81456,151],[-90.3928,38.81455,152],[-90.39277,38.81453,152],[-90.39272,38.81453,153],[-90.39267,38.81453,153],[-90.39261,38.81452,154],[-90.39259,38.8145,154],[-90.39256,38.81448,155],[-90.39254,38.81445,155],[-90.39251,38.81443,155],[-90.39248,38.8144,154],[-90.39245,38.81438,154],[-90.39241,38.81436,154],[-90.39238,38.81435,153],[-90.39234,38.81433,153],[-90.39231,38.81432,153],[-90.39228,38.81429,152],[-90.39225,38.81425,152],[-90.39223,38.81422,151],[-90.39222,38.81419,151],[-90.39222,38.81416,150],[-90.39225,38.81412,148],[-90.39228,38.8141,146],[-90.39232,38.81407,145],[-90.39235,38.81404,143],[-90.39239,38.81401,142],[-90.39242,38.81398,141],[-90.39245,38.81395,139],[-90.39248,38.81393,139],[-90.3925,38.8139,138],[-90.39252,38.81387,138],[-90.39253,38.81384,138],[-90.39254,38.8138,138],[-90.39255,38.81377,138],[-90.39256,38.81373,138],[-90.39257,38.81371,138],[-90.39258,38.81368,138],[-90.3926,38.81365,138],[-90.39261,38.81362,138],[-90.39263,38.81359,138],[-90.39265,38.81357,138],[-90.39268,38.81354,137],[-90.39271,38.81351,137],[-90.39273,38.81349,136],[-90.39269,38.81349,137],[-90.39266,38.81349,137],[-90.39263,38.81351,137],[-90.39261,38.81354,138],[-90.39259,38.81357,138],[-90.39258,38.8136,138],[-90.39257,38.81363,138],[-90.39256,38.81366,138],[-90.39255,38.8137,138],[-90.39253,38.81374,138],[-90.3925,38.81376,138],[-90.39248,38.81379,138],[-90.39245,38.81382,137],[-90.39242,38.81386,136],[-90.3924,38.81389,136],[-90.39238,38.81391,137],[-90.39235,38.81393,137],[-90.39232,38.81396,138],[-90.39229,38.814,140],[-90.39225,38.81403,142],[-90.39222,38.81405,143],[-90.39217,38.81405,143],[-90.39212,38.81404,143],[-90.39208,38.81404,144],[-90.39202,38.81403,144],[-90.39199,38.81402,143],[-90.39195,38.814,143],[-90.39191,38.81399,144],[-90.39187,38.81398,145],[-90.39184,38.81396,145],[-90.39181,38.81394,145],[-90.39178,38.81392,145],[-90.39176,38.8139,145],[-90.39172,38.81388,145],[-90.39169,38.81386,146],[-90.39167,38.81383,146],[-90.39164,38.8138,147],[-90.39163,38.81378,146],[-90.39162,38.81375,146],[-90.39159,38.81372,146],[-90.39158,38.81369,146],[-90.39158,38.81366,146],[-90.39158,38.81363,145],[-90.39157,38.8136,145],[-90.39156,38.81356,146],[-90.39154,38.81354,146],[-90.39152,38.81351,147],[-90.3915,38.81348,148],[-90.39146,38.81345,149],[-90.39142,38.81344,150],[-90.39139,38.81343,150],[-90.39135,38.8134,151],[-90.39132,38.81337,151],[-90.39129,38.81335,152],[-90.39125,38.81333,152],[-90.39122,38.8133,153],[-90.3912,38.81328,153],[-90.39117,38.81324,153],[-90.39115,38.8132,153],[-90.39114,38.81317,153],[-90.39113,38.81313,154],[-90.3911,38.8131,154],[-90.39108,38.81306,154],[-90.39105,38.81304,154],[-90.39101,38.81302,153],[-90.39099,38.813,153],[-90.39097,38.81297,153],[-90.39095,38.81293,152],[-90.39095,38.81289,151],[-90.39094,38.81286,151],[-90.39093,38.81283,150],[-90.39093,38.8128,150],[-90.39092,38.81277,149],[-90.39092,38.81273,148],[-90.39093,38.8127,147],[-90.39093,38.81266,146],[-90.39094,38.81261,145],[-90.39094,38.81258,144],[-90.39093,38.81255,144],[-90.39091,38.81252,143],[-90.3909,38.81249,143],[-90.39089,38.81245,144],[-90.39088,38.81242,145],[-90.39086,38.81239,146],[-90.39086,38.81235,147],[-90.39087,38.81232,147],[-90.39089,38.81228,148],[-90.39091,38.81224,149],[-90.39093,38.8122,149],[-90.39095,38.81217,149],[-90.39095,38.81214,149],[-90.39095,38.8121,149],[-90.39095,38.81207,149],[-90.39095,38.81204,150],[-90.39095,38.81201,150],[-90.39096,38.81198,150],[-90.39097,38.81195,150],[-90.39099,38.8119,149],[-90.39102,38.81187,149],[-90.39105,38.81184,149],[-90.39108,38.8118,148],[-90.39111,38.81178,147],[-90.39113,38.81175,146],[-90.39115,38.81172,145],[-90.39115,38.81168,144],[-90.39115,38.81165,144],[-90.39112,38.81162,144],[-90.3911,38.8116,144],[-90.39107,38.81158,144],[-90.39103,38.81155,143],[-90.39101,38.81153,143],[-90.39099,38.8115,143],[-90.39096,38.81147,143],[-90.39092,38.81143,142],[-90.3909,38.8114,142],[-90.39088,38.81138,142],[-90.39087,38.81134,142],[-90.39086,38.8113,142],[-90.39086,38.81127,141],[-90.39086,38.81123,141],[-90.39088,38.81119,141],[-90.39089,38.81115,140],[-90.39089,38.81111,140],[-90.39089,38.81107,139],[-90.39089,38.81104,139],[-90.39088,38.81101,139],[-90.39086,38.81098,139],[-90.39083,38.81096,139],[-90.3908,38.81094,139],[-90.39077,38.81091,139],[-90.39073,38.81089,139],[-90.3907,38.81087,139],[-90.39065,38.81085,139],[-90.39061,38.81084,139],[-90.39057,38.81083,139],[-90.39054,38.81082,140],[-90.3905,38.81082,140],[-90.39046,38.81082,140],[-90.39042,38.81081,140],[-90.39039,38.81082,141],[-90.39035,38.81081,141],[-90.39031,38.8108,141],[-90.39026,38.81079,141],[-90.39023,38.81078,141],[-90.39018,38.81077,141],[-90.39014,38.81077,142],[-90.3901,38.81076,142],[-90.39006,38.81076,142],[-90.39002,38.81075,142],[-90.38999,38.81075,142],[-90.38993,38.81075,143],[-90.38989,38.81074,143],[-90.38985,38.81074,144],[-90.38982,38.81073,144],[-90.38977,38.81073,144],[-90.38973,38.81073,145],[-90.38969,38.81072,145],[-90.38965,38.81072,145],[-90.38961,38.81071,145],[-90.38957,38.8107,145],[-90.38953,38.8107,145],[-90.38949,38.81068,145],[-90.38945,38.81068,145],[-90.38941,38.81067,145],[-90.38937,38.81067,145],[-90.38933,38.81065,145],[-90.3893,38.81063,145],[-90.38928,38.81059,144],[-90.38927,38.81056,144],[-90.38926,38.81052,144],[-90.38925,38.81049,143],[-90.38924,38.81047,143],[-90.38923,38.81044,143],[-90.38921,38.8104,143],[-90.3892,38.81036,143],[-90.3892,38.81033,143],[-90.3892,38.81029,142],[-90.38919,38.81026,142],[-90.38919,38.81023,143],[-90.38918,38.8102,143],[-90.38917,38.81016,143],[-90.38916,38.81012,143],[-90.38915,38.81009,144],[-90.38914,38.81005,144],[-90.38913,38.81002,144],[-90.38913,38.80999,144],[-90.38912,38.80996,144],[-90.38911,38.80993,145],[-90.3891,38.8099,145],[-90.38907,38.80986,145],[-90.38905,38.80983,145],[-90.38903,38.80981,145],[-90.389,38.80979,146],[-90.38897,38.80976,146],[-90.38895,38.80974,146],[-90.38893,38.80971,146],[-90.3889,38.80968,146],[-90.38888,38.80965,146],[-90.38887,38.80963,146],[-90.38885,38.80959,146],[-90.38883,38.80957,146],[-90.38882,38.80954,146],[-90.3888,38.80951,145],[-90.38878,38.80947,145],[-90.38877,38.80944,145],[-90.38876,38.80941,144],[-90.38874,38.80938,144],[-90.38871,38.80935,144],[-90.38868,38.80933,144],[-90.38866,38.8093,144],[-90.38864,38.80927,143],[-90.38863,38.80923,143],[-90.38862,38.8092,142],[-90.38862,38.80916,141],[-90.38861,38.80913,141],[-90.38861,38.8091,141],[-90.3886,38.80906,141],[-90.38859,38.80903,141],[-90.38858,38.809,141],[-90.38857,38.80897,141],[-90.38857,38.80894,141],[-90.38856,38.80891,142],[-90.38856,38.80888,141],[-90.38855,38.80885,142],[-90.38854,38.80882,142],[-90.38854,38.80878,142],[-90.38853,38.80874,142],[-90.38853,38.80871,142],[-90.38852,38.80868,142],[-90.38852,38.80865,142],[-90.38851,38.80861,143],[-90.38851,38.80857,143],[-90.3885,38.80854,143],[-90.3885,38.80851,143],[-90.38849,38.80847,143],[-90.38849,38.80844,143],[-90.38848,38.80841,143],[-90.38848,38.80837,142],[-90.38847,38.80834,142],[-90.38847,38.8083,142],[-90.38847,38.80827,142],[-90.38847,38.80824,142],[-90.38847,38.80821,142],[-90.38846,38.80817,142],[-90.38846,38.80814,141],[-90.38846,38.8081,141],[-90.38845,38.80806,141],[-90.38844,38.80803,141],[-90.38842,38.808,141],[-90.38842,38.80797,142],[-90.38841,38.80794,142],[-90.38839,38.80791,142],[-90.38839,38.80788,142],[-90.38838,38.80785,143],[-90.38838,38.80783,143],[-90.38836,38.80779,143],[-90.38836,38.80776,143],[-90.38835,38.80773,143],[-90.38834,38.8077,143],[-90.38834,38.80766,143],[-90.38832,38.80763,143],[-90.38831,38.80759,143],[-90.3883,38.80756,143],[-90.38829,38.80752,143],[-90.38827,38.80749,143],[-90.38826,38.80745,143],[-90.38825,38.80742,143],[-90.38825,38.80739,143],[-90.38824,38.80736,143],[-90.38823,38.80733,143],[-90.38823,38.80729,143],[-90.38822,38.80726,143],[-90.38822,38.80722,142],[-90.38823,38.80718,142],[-90.38823,38.80715,141],[-90.38824,38.80712,141],[-90.38824,38.80709,141],[-90.38823,38.80706,140],[-90.38822,38.80704,140],[-90.38821,38.80701,140],[-90.3882,38.80698,140],[-90.38819,38.80695,140],[-90.38818,38.80691,139],[-90.38816,38.80688,140],[-90.38815,38.80685,140],[-90.38813,38.80682,140],[-90.38811,38.8068,140],[-90.38811,38.80677,140],[-90.3881,38.80674,140],[-90.3881,38.80671,140],[-90.3881,38.80667,139],[-90.3881,38.80664,140],[-90.3881,38.80661,140],[-90.3881,38.80658,140],[-90.3881,38.80655,140],[-90.38809,38.80652,140],[-90.38808,38.80649,141],[-90.38808,38.80647,141],[-90.38807,38.80644,141],[-90.38806,38.8064,141],[-90.38806,38.80637,141],[-90.38805,38.80634,142],[-90.38805,38.80631,142],[-90.38803,38.80628,142],[-90.38802,38.80625,142],[-90.38801,38.80621,143],[-90.388,38.80618,143],[-90.38799,38.80614,143],[-90.38798,38.80611,144],[-90.38797,38.80608,144],[-90.38796,38.80605,144],[-90.38795,38.80601,144],[-90.38795,38.80598,144],[-90.38794,38.80594,145],[-90.38794,38.8059,145],[-90.38793,38.80588,145],[-90.38792,38.80585,145],[-90.38791,38.80581,145],[-90.3879,38.80577,144],[-90.3879,38.80574,144],[-90.3879,38.80571,143],[-90.38789,38.80568,143],[-90.38789,38.80565,142],[-90.38788,38.80562,142],[-90.38787,38.80559,142],[-90.38786,38.80556,141],[-90.38785,38.80553,142],[-90.38784,38.8055,142],[-90.38784,38.80546,142],[-90.38783,38.80543,142],[-90.38783,38.80539,142],[-90.38782,38.80537,143],[-90.38782,38.80534,143],[-90.38781,38.80531,143],[-90.38781,38.80528,143],[-90.38781,38.80525,143],[-90.38781,38.80522,143],[-90.3878,38.80519,144],[-90.3878,38.80515,144],[-90.3878,38.80512,144],[-90.3878,38.80509,144],[-90.38781,38.80506,144],[-90.38781,38.80503,144],[-90.38781,38.805,144],[-90.38781,38.80497,144],[-90.3878,38.80493,144],[-90.3878,38.8049,144],[-90.38779,38.80487,143],[-90.38778,38.80484,143],[-90.38778,38.8048,143],[-90.38777,38.80477,143],[-90.38776,38.80474,143],[-90.38775,38.80471,143],[-90.38774,38.80468,143],[-90.38771,38.80464,143],[-90.3877,38.80461,143],[-90.38767,38.80458,144],[-90.38763,38.80455,144],[-90.38759,38.80454,145],[-90.38755,38.80453,145],[-90.38752,38.80451,145],[-90.38748,38.8045,146],[-90.38745,38.80448,146],[-90.38741,38.80447,147],[-90.38737,38.80444,148],[-90.38734,38.80442,148],[-90.3873,38.80441,149],[-90.38724,38.80441,150],[-90.3872,38.8044,151],[-90.38717,38.80438,152],[-90.38714,38.80435,152],[-90.38713,38.80432,152],[-90.38712,38.80429,152],[-90.38712,38.80425,153],[-90.38712,38.80421,153],[-90.38712,38.80417,153],[-90.38712,38.80413,153],[-90.38713,38.8041,153],[-90.38713,38.80407,153],[-90.38715,38.80404,152],[-90.38717,38.80401,152],[-90.38719,38.80398,152],[-90.38721,38.80395,152],[-90.38723,38.80391,152],[-90.38721,38.80388,153],[-90.38719,38.80386,153],[-90.38718,38.80382,154],[-90.38716,38.80378,155],[-90.38714,38.80375,156],[-90.38713,38.80372,156],[-90.38713,38.80369,157],[-90.38711,38.80365,158],[-90.3871,38.80362,158],[-90.38708,38.80358,159],[-90.38708,38.80355,159],[-90.38707,38.80351,159],[-90.38704,38.80348,159],[-90.38702,38.80345,159],[-90.387,38.80342,159],[-90.38699,38.80339,159],[-90.38697,38.80335,159],[-90.38693,38.80333,159],[-90.38688,38.80331,159],[-90.38685,38.80329,159],[-90.38682,38.80328,158],[-90.38677,38.80326,158],[-90.38673,38.80323,157],[-90.38672,38.80319,157],[-90.38672,38.80316,157],[-90.38673,38.80314,156],[-90.38674,38.8031,156],[-90.38675,38.80307,155],[-90.38674,38.80305,155],[-90.3867,38.80303,155],[-90.38665,38.80302,156],[-90.38662,38.803,157],[-90.38658,38.80299,157],[-90.38655,38.80297,158],[-90.38651,38.80296,159],[-90.38647,38.80295,160],[-90.38643,38.80294,161],[-90.38639,38.80292,161],[-90.38635,38.80291,162],[-90.3863,38.8029,163],[-90.38627,38.80289,164],[-90.38622,38.80288,165],[-90.38623,38.80286,165],[-90.38625,38.80283,165],[-90.38622,38.80281,166],[-90.38619,38.8028,166],[-90.38616,38.80278,167],[-90.38613,38.80277,168],[-90.3861,38.80274,168],[-90.38607,38.80273,168],[-90.38602,38.80273,168],[-90.38598,38.80272,168],[-90.38595,38.8027,168],[-90.38593,38.80266,167],[-90.3859,38.80263,167],[-90.38586,38.80261,167],[-90.38583,38.8026,167],[-90.38579,38.8026,168],[-90.38575,38.8026,168],[-90.38571,38.80262,168],[-90.38567,38.80264,168],[-90.38563,38.80265,169],[-90.38559,38.80267,169],[-90.38555,38.80268,169],[-90.38552,38.80268,169],[-90.38548,38.80269,169],[-90.38543,38.80271,170],[-90.38539,38.80271,170],[-90.38533,38.80271,171],[-90.38529,38.80271,172],[-90.38525,38.80271,172],[-90.38521,38.8027,172],[-90.38517,38.80268,173],[-90.38512,38.80268,173],[-90.38507,38.80268,173],[-90.38503,38.80268,174],[-90.38499,38.80268,174],[-90.38494,38.80267,174],[-90.3849,38.80266,174],[-90.38486,38.80266,174],[-90.38482,38.80265,174],[-90.38479,38.80265,174],[-90.38474,38.80265,174],[-90.38471,38.80264,174],[-90.38467,38.80263,174],[-90.38463,38.80262,174],[-90.38459,38.80261,174],[-90.38455,38.80261,174],[-90.38451,38.80263,174],[-90.38448,38.80265,174],[-90.38445,38.80266,174],[-90.38441,38.80266,174],[-90.38437,38.80266,174],[-90.38434,38.80267,174],[-90.38428,38.80268,174],[-90.38425,38.80269,174],[-90.38421,38.80271,174],[-90.38417,38.80272,174],[-90.38414,38.80275,174],[-90.38412,38.80277,174],[-90.38409,38.80279,174],[-90.38406,38.80283,173],[-90.38404,38.80285,173],[-90.38401,38.80288,173],[-90.38398,38.80291,173],[-90.38396,38.80295,173],[-90.38394,38.80298,173],[-90.38391,38.80301,173],[-90.38388,38.80304,173],[-90.38386,38.80306,173],[-90.38384,38.80308,173],[-90.3838,38.80311,173],[-90.38375,38.80312,173],[-90.38371,38.80313,173],[-90.38367,38.80315,173],[-90.38362,38.80316,173],[-90.38359,38.80318,173],[-90.38354,38.8032,173],[-90.3835,38.80322,173],[-90.38347,38.80323,173],[-90.38344,38.80325,173],[-90.3834,38.80327,173],[-90.38337,38.80329,173],[-90.38333,38.8033,173],[-90.3833,38.80331,173],[-90.38326,38.80332,173],[-90.38321,38.80333,174],[-90.38316,38.80334,174],[-90.38312,38.80334,175],[-90.38308,38.80333,175],[-90.38304,38.80332,176],[-90.383,38.80331,176],[-90.38296,38.80329,176],[-90.38292,38.80328,176],[-90.38288,38.80327,176],[-90.38284,38.80325,176],[-90.38281,38.80324,176],[-90.38277,38.80322,176],[-90.38273,38.80319,176],[-90.3827,38.80317,176],[-90.38267,38.80315,176],[-90.38263,38.80313,175],[-90.38259,38.8031,175],[-90.38257,38.80308,175],[-90.38253,38.80305,175],[-90.3825,38.80303,175],[-90.38247,38.80301,175],[-90.38244,38.80299,174],[-90.3824,38.80298,174],[-90.38237,38.80296,174],[-90.38233,38.80295,174],[-90.3823,38.80294,173],[-90.38226,38.80293,173],[-90.38221,38.80292,173],[-90.38218,38.8029,173],[-90.38214,38.80289,172],[-90.38209,38.80287,172],[-90.38206,38.80284,172],[-90.38203,38.80282,172],[-90.382,38.80281,172],[-90.38195,38.80279,172],[-90.38191,38.80277,171],[-90.38188,38.80276,171],[-90.38185,38.80274,170],[-90.38183,38.80271,170],[-90.38182,38.80268,170],[-90.38183,38.80264,170],[-90.38186,38.80262,170],[-90.38188,38.80259,170],[-90.38192,38.80257,170],[-90.38196,38.80255,170],[-90.382,38.80253,170],[-90.38202,38.8025,170],[-90.38204,38.80246,170],[-90.38206,38.80243,170],[-90.38207,38.80239,169],[-90.3821,38.80236,169],[-90.38215,38.80235,169],[-90.38218,38.80233,169],[-90.38221,38.80232,169],[-90.38223,38.80228,168],[-90.38223,38.80225,168],[-90.38222,38.80222,168],[-90.38222,38.80218,168],[-90.38221,38.80216,168],[-90.38219,38.80213,168],[-90.38216,38.8021,169],[-90.38215,38.80207,169],[-90.38215,38.80204,169],[-90.38216,38.80201,169],[-90.38217,38.80198,169],[-90.38219,38.80196,169],[-90.38222,38.80193,170],[-90.38224,38.80191,170],[-90.38227,38.80188,170],[-90.38228,38.80184,170],[-90.38227,38.80182,170],[-90.38227,38.80178,170],[-90.38226,38.80175,170],[-90.38225,38.80172,170],[-90.38223,38.8017,170],[-90.38221,38.80167,170],[-90.38219,38.80165,170],[-90.38216,38.80162,170],[-90.38214,38.80158,169],[-90.3821,38.80155,169],[-90.38206,38.80153,168],[-90.38201,38.80151,168],[-90.38198,38.80149,167],[-90.38193,38.80147,167],[-90.38188,38.80146,166],[-90.38184,38.80146,166],[-90.3818,38.80145,165],[-90.38176,38.80145,165],[-90.38172,38.80144,164],[-90.38167,38.80143,164],[-90.38163,38.80142,163],[-90.38159,38.8014,163],[-90.38154,38.80139,163],[-90.3815,38.80137,162],[-90.38147,38.80135,162],[-90.38144,38.80132,161],[-90.38142,38.80129,161],[-90.3814,38.80126,161],[-90.3814,38.80123,160],[-90.38139,38.8012,160],[-90.38138,38.80117,160],[-90.38136,38.80114,160],[-90.38134,38.80111,159],[-90.38133,38.80108,159],[-90.38134,38.80105,158],[-90.38137,38.80103,158],[-90.38139,38.80101,158],[-90.38142,38.80098,157],[-90.38143,38.80094,157],[-90.38144,38.80091,156],[-90.38144,38.80087,156],[-90.38146,38.80084,155],[-90.3815,38.80082,155],[-90.38155,38.80081,155],[-90.38159,38.80081,156],[-90.38163,38.8008,156],[-90.38168,38.80079,156],[-90.38173,38.80079,156],[-90.38176,38.80079,156],[-90.3818,38.80078,157],[-90.38185,38.80077,157],[-90.38189,38.80075,157],[-90.38194,38.80072,156],[-90.38197,38.8007,156],[-90.38199,38.80069,156],[-90.38203,38.80066,156],[-90.38206,38.80064,157],[-90.38209,38.80061,156],[-90.38212,38.80059,157],[-90.38214,38.80057,157],[-90.38216,38.80055,156],[-90.38219,38.80053,157],[-90.38222,38.8005,157],[-90.38226,38.80047,157],[-90.3823,38.80044,157],[-90.38233,38.80041,157],[-90.38236,38.8004,157],[-90.38239,38.80037,157],[-90.38241,38.80035,157],[-90.38244,38.80033,157],[-90.38247,38.80031,157],[-90.3825,38.80029,158],[-90.38253,38.80028,158],[-90.38257,38.80026,158],[-90.3826,38.80024,157],[-90.38262,38.80022,157],[-90.38265,38.8002,157],[-90.38269,38.80018,157],[-90.38272,38.80015,157],[-90.38274,38.80013,157],[-90.38277,38.8001,157],[-90.3828,38.80006,156],[-90.38282,38.80003,156],[-90.38283,38.79999,156],[-90.3828,38.79996,155],[-90.38276,38.79995,155],[-90.38272,38.79995,155],[-90.38269,38.79994,155],[-90.38264,38.79994,155],[-90.38259,38.79993,154],[-90.38255,38.79992,154],[-90.38251,38.79991,154],[-90.38248,38.79991,154],[-90.38244,38.7999,154],[-90.3824,38.79989,154],[-90.38237,38.79988,154],[-90.38233,38.79987,154],[-90.3823,38.79985,154],[-90.38226,38.79984,154],[-90.38222,38.79983,154],[-90.38218,38.79982,154],[-90.38214,38.79982,154],[-90.38209,38.7998,154],[-90.38205,38.79979,154],[-90.38202,38.79978,154],[-90.38197,38.79976,154],[-90.38192,38.79975,154],[-90.38189,38.79974,154],[-90.38185,38.79973,154],[-90.38181,38.79972,155],[-90.38177,38.79971,155],[-90.38173,38.79971,155],[-90.3817,38.79973,154],[-90.38166,38.79975,155],[-90.38162,38.79977,155],[-90.38159,38.79979,155],[-90.38156,38.79982,155],[-90.38152,38.79984,155],[-90.38148,38.79986,156],[-90.38144,38.79989,156],[-90.38141,38.79991,156],[-90.38136,38.79993,156],[-90.38133,38.79994,157],[-90.38129,38.79995,157],[-90.38126,38.79995,157],[-90.38122,38.79996,157],[-90.38117,38.79997,157]]],
        "bbox": [
          -90.38117,
          38.81582,
          -90.39317,
          38.79971
        ]
      },
      "properties": {
        "name": "11.28.2021"
      }
    }
  ]
}