{
  "type": "FeatureCollection",
  "features": [
    {
      "type": "Feature",
      "geometry": {
        "type": "MultiLineString",
        "coordinates": [[[-90.39124,38.81231,143],[-90.39097,38.81238,145],[-90.39098,38.81234,146],[-90.39102,38.81234,146],[-90.39099,38.81235,146],[-90.39101,38.81287,150],[-90.39104,38.81301,153],[-90.39102,38.81303,154],[-90.39106,38.81302,153],[-90.39109,38.81304,153],[-90.39115,38.81308,153],[-90.39122,38.81311,152],[-90.39125,38.81312,152],[-90.39161,38.81367,145],[-90.39165,38.81371,145],[-90.39214,38.81385,135],[-90.39209,38.814,141],[-90.39203,38.81401,143],[-90.39201,38.81403,144],[-90.39235,38.81388,135],[-90.39236,38.81391,136],[-90.39238,38.81393,138],[-90.39239,38.81396,139],[-90.39241,38.81401,142],[-90.39238,38.814,141],[-90.39234,38.814,141],[-90.39229,38.81405,143],[-90.39189,38.81418,153],[-90.3919,38.81421,154],[-90.39178,38.81431,160],[-90.39178,38.81433,160],[-90.39178,38.8144,162],[-90.39173,38.81446,165],[-90.39177,38.81451,164],[-90.39181,38.81455,164],[-90.39179,38.8146,165],[-90.3917,38.81463,168],[-90.39172,38.81467,168],[-90.39181,38.81477,167],[-90.39178,38.81482,169],[-90.39175,38.81485,170],[-90.39176,38.81488,170],[-90.39182,38.81487,168],[-90.39182,38.8149,168],[-90.39188,38.81496,167],[-90.3919,38.8151,170],[-90.39192,38.81513,171],[-90.39195,38.8154,176],[-90.39195,38.81543,176],[-90.39191,38.81545,177],[-90.39188,38.81548,178],[-90.39187,38.8155,178],[-90.39184,38.81552,179],[-90.39185,38.81555,179],[-90.39183,38.81557,179],[-90.39184,38.81559,179],[-90.39179,38.81566,179],[-90.39165,38.81605,175],[-90.39162,38.81611,174],[-90.39157,38.8162,172],[-90.39153,38.81628,170],[-90.39158,38.81633,168],[-90.39161,38.81632,167],[-90.39158,38.81637,166],[-90.39156,38.81639,166],[-90.39155,38.81642,165],[-90.39151,38.81648,165],[-90.39146,38.8165,165],[-90.39139,38.81655,165],[-90.3914,38.81658,164],[-90.39135,38.81662,164],[-90.3913,38.81667,163],[-90.39114,38.81665,165],[-90.39108,38.81663,166],[-90.39095,38.81665,166],[-90.39094,38.81668,166],[-90.39087,38.81667,166],[-90.39079,38.81665,167],[-90.39072,38.81671,166],[-90.39062,38.81674,166],[-90.39056,38.81676,166],[-90.39053,38.81677,167],[-90.39052,38.81679,166],[-90.39052,38.81717,157],[-90.3905,38.81721,156],[-90.39062,38.81739,148],[-90.39065,38.81739,148],[-90.39068,38.81743,146],[-90.3907,38.81746,145],[-90.39073,38.81749,143],[-90.39075,38.8175,143],[-90.3908,38.8175,142],[-90.39074,38.8175,143],[-90.39058,38.81758,143],[-90.39051,38.81764,143],[-90.39047,38.81767,143],[-90.39039,38.81767,144],[-90.39041,38.81774,142],[-90.39033,38.81779,142],[-90.3903,38.81778,142],[-90.39026,38.81783,142],[-90.39022,38.81785,143],[-90.39018,38.81779,144],[-90.38946,38.81783,151],[-90.38941,38.81785,152],[-90.38936,38.81786,152],[-90.38928,38.81783,155],[-90.38926,38.8181,147],[-90.38929,38.81811,146],[-90.38924,38.81814,145],[-90.38898,38.81823,147],[-90.38867,38.81827,151],[-90.38864,38.81829,151],[-90.38861,38.81831,151],[-90.38857,38.81834,149],[-90.38853,38.81837,148],[-90.38846,38.81836,148],[-90.38845,38.81831,151],[-90.38844,38.81827,153],[-90.3884,38.81824,154],[-90.38834,38.81829,152],[-90.38828,38.81834,149],[-90.38824,38.8184,147],[-90.38819,38.81845,145],[-90.38814,38.81848,145],[-90.38816,38.81851,144],[-90.3882,38.81854,142],[-90.38822,38.81856,141],[-90.38825,38.81858,140],[-90.38822,38.81859,140],[-90.38801,38.81865,142],[-90.38796,38.81867,142],[-90.38766,38.81873,145],[-90.38757,38.81873,145],[-90.38752,38.81876,145],[-90.3874,38.81894,140],[-90.38726,38.81905,137],[-90.38725,38.81908,135],[-90.38725,38.81917,132],[-90.38721,38.81915,132],[-90.38717,38.81918,132],[-90.38712,38.8192,132],[-90.38708,38.81922,132],[-90.38706,38.81924,132],[-90.38702,38.81926,132],[-90.38691,38.81928,132],[-90.38682,38.8193,133],[-90.3868,38.81935,133],[-90.38679,38.81937,132],[-90.38677,38.8194,132],[-90.38679,38.81946,131],[-90.38678,38.8195,131],[-90.38678,38.81953,131],[-90.38678,38.81955,131],[-90.3867,38.81954,131],[-90.38666,38.81949,131],[-90.38663,38.81952,131],[-90.38662,38.81954,131],[-90.38658,38.81956,131],[-90.38635,38.81955,131],[-90.38619,38.81963,132],[-90.3861,38.8196,134],[-90.38603,38.81961,134],[-90.38597,38.81967,132],[-90.38594,38.81969,132],[-90.38592,38.81967,132],[-90.38588,38.81968,132],[-90.38585,38.81969,132],[-90.38582,38.81969,132],[-90.38575,38.81971,131],[-90.3857,38.81967,133],[-90.38567,38.81967,133],[-90.38564,38.81968,132],[-90.38557,38.81962,135],[-90.38555,38.81963,134],[-90.3855,38.81963,134],[-90.38546,38.81968,132],[-90.38543,38.81968,132],[-90.38537,38.81966,133],[-90.38534,38.81967,133],[-90.38532,38.81969,132],[-90.38527,38.81971,131],[-90.38522,38.81971,131],[-90.3852,38.81973,131],[-90.38513,38.81976,131],[-90.38509,38.81973,131],[-90.38476,38.81967,140],[-90.38473,38.81969,140],[-90.38466,38.81974,140],[-90.3846,38.81979,138],[-90.38458,38.81981,137],[-90.38446,38.81993,133],[-90.38444,38.81994,132],[-90.38449,38.81988,134],[-90.38453,38.81981,137],[-90.38455,38.81979,138],[-90.38462,38.81973,140],[-90.38463,38.81976,139],[-90.38466,38.81975,139],[-90.38468,38.81973,140],[-90.3847,38.81971,140],[-90.38473,38.81972,140],[-90.38475,38.81967,140],[-90.3848,38.81968,138],[-90.38485,38.81968,137],[-90.38495,38.81969,133],[-90.38498,38.81972,131],[-90.38508,38.81973,131],[-90.3851,38.81971,131],[-90.38516,38.81973,131],[-90.38521,38.81973,131],[-90.38526,38.81971,131],[-90.38532,38.81972,131],[-90.38535,38.81972,131],[-90.38539,38.81975,131],[-90.3854,38.81972,131],[-90.38545,38.81972,131],[-90.38553,38.81973,131],[-90.38554,38.8197,131],[-90.38559,38.81969,132],[-90.38562,38.81968,132],[-90.38574,38.81967,133],[-90.38585,38.81967,132],[-90.38596,38.81967,132],[-90.38617,38.81966,132],[-90.38625,38.81965,132],[-90.38632,38.81964,131],[-90.38638,38.81961,131],[-90.38667,38.8195,131],[-90.38672,38.81946,131],[-90.38674,38.81941,132],[-90.38674,38.81936,133],[-90.3868,38.81933,133],[-90.38689,38.81929,133],[-90.38713,38.81892,143],[-90.38758,38.81879,144],[-90.38761,38.81879,144],[-90.38765,38.81881,143],[-90.38772,38.81879,143],[-90.38779,38.81875,143],[-90.38787,38.81873,143],[-90.38794,38.81868,142],[-90.38805,38.81866,141],[-90.38812,38.81866,140],[-90.38817,38.81861,140],[-90.38823,38.8186,139],[-90.38829,38.81851,142],[-90.38832,38.81842,146],[-90.3884,38.81841,146],[-90.38846,38.81836,148],[-90.3886,38.8183,151],[-90.38866,38.81829,151],[-90.38874,38.81826,151],[-90.38878,38.81821,152],[-90.38881,38.81818,153],[-90.38881,38.81814,155],[-90.38884,38.81814,154],[-90.38891,38.81813,153],[-90.38895,38.81808,154],[-90.38901,38.81802,155],[-90.3892,38.81795,152],[-90.38923,38.81797,151],[-90.3893,38.81798,150],[-90.38941,38.81797,149],[-90.38963,38.81799,148],[-90.38965,38.81795,148],[-90.38975,38.81794,148],[-90.38983,38.81793,147],[-90.38989,38.81793,146],[-90.38992,38.8179,146],[-90.38998,38.8179,146],[-90.39006,38.81789,145],[-90.39015,38.81788,143],[-90.39011,38.81788,144],[-90.39039,38.81777,142],[-90.39048,38.81774,141],[-90.39061,38.81769,141],[-90.3906,38.81763,142],[-90.39055,38.81756,144],[-90.39051,38.81751,146],[-90.39051,38.81748,147],[-90.39064,38.81752,144],[-90.39074,38.81752,142],[-90.39082,38.81747,143],[-90.3908,38.81744,144],[-90.39074,38.81743,145],[-90.39071,38.81745,145],[-90.39061,38.81742,148],[-90.39056,38.81741,149],[-90.39054,38.81737,150],[-90.3905,38.81732,152],[-90.39051,38.81729,153],[-90.3905,38.81727,154],[-90.39049,38.81715,158],[-90.39049,38.81712,159],[-90.39048,38.81694,165],[-90.39049,38.81688,166],[-90.39047,38.8168,167],[-90.39054,38.81684,166],[-90.3906,38.81681,166],[-90.39063,38.81678,166],[-90.39066,38.81677,166],[-90.39069,38.81674,166],[-90.39078,38.81677,165],[-90.39086,38.81675,165],[-90.3908,38.81671,166],[-90.39082,38.81663,167],[-90.39081,38.81659,168],[-90.39087,38.8167,166],[-90.39096,38.81669,166],[-90.39093,38.8167,165],[-90.39106,38.81661,167],[-90.39102,38.8166,167],[-90.39107,38.81664,166],[-90.39104,38.81664,166],[-90.39105,38.81666,166],[-90.39107,38.81669,165],[-90.39109,38.81672,164],[-90.39135,38.81663,163],[-90.39141,38.81664,162],[-90.39144,38.8166,162],[-90.39146,38.81658,163],[-90.39148,38.81656,163],[-90.39153,38.81651,163],[-90.39158,38.81645,164],[-90.39163,38.81641,164],[-90.39167,38.81636,164],[-90.39168,38.81633,165],[-90.3917,38.81628,166],[-90.3917,38.81616,171],[-90.39173,38.8162,168],[-90.39173,38.81614,171],[-90.39176,38.81611,171],[-90.39176,38.81606,172],[-90.39175,38.81604,173],[-90.39167,38.81604,175],[-90.39159,38.81602,176],[-90.39155,38.81599,177],[-90.39154,38.81597,177],[-90.39161,38.81598,177],[-90.3917,38.81597,176],[-90.39174,38.81593,175],[-90.39177,38.8159,175],[-90.39177,38.81586,176],[-90.39175,38.81583,177],[-90.39175,38.81576,178],[-90.39174,38.81573,179],[-90.39174,38.81571,179],[-90.39181,38.81571,177],[-90.39183,38.81573,177],[-90.39184,38.8157,177],[-90.39185,38.81568,177],[-90.39179,38.81567,178],[-90.39175,38.81567,179],[-90.39172,38.81564,180],[-90.39167,38.8156,182],[-90.39158,38.81558,183],[-90.39151,38.81555,184],[-90.3915,38.81553,184],[-90.39153,38.81555,183],[-90.39121,38.81535,186],[-90.39119,38.81539,186],[-90.39118,38.81541,186],[-90.39113,38.81541,186],[-90.39107,38.81546,186],[-90.39099,38.81551,185],[-90.39095,38.81545,186],[-90.39085,38.81553,185],[-90.39083,38.81551,185],[-90.3908,38.81549,185],[-90.39066,38.81545,183],[-90.39063,38.81545,183],[-90.39057,38.81546,182],[-90.39047,38.81542,182],[-90.39044,38.81539,182],[-90.39041,38.81541,181],[-90.39036,38.81535,181],[-90.39024,38.81524,182],[-90.39014,38.81525,182],[-90.39004,38.81522,183],[-90.38997,38.81517,184],[-90.38986,38.81511,186],[-90.38981,38.81516,185],[-90.38985,38.81513,186],[-90.38975,38.81511,186],[-90.38973,38.81508,187],[-90.38969,38.81507,187],[-90.38974,38.81506,187],[-90.38977,38.81507,187],[-90.38977,38.81505,187],[-90.38976,38.81487,190],[-90.38977,38.81489,190],[-90.38975,38.81492,189],[-90.38971,38.81498,189],[-90.38968,38.81499,188],[-90.38968,38.81501,188],[-90.38967,38.81498,189],[-90.38961,38.81495,189],[-90.38954,38.81493,189],[-90.38956,38.81484,190],[-90.38953,38.81481,190],[-90.3895,38.81479,190],[-90.38941,38.81479,190],[-90.38935,38.81481,189],[-90.38935,38.81477,189],[-90.38938,38.81469,190],[-90.38933,38.81469,190],[-90.38938,38.8147,190],[-90.38941,38.81469,190],[-90.38944,38.81468,190],[-90.38947,38.81468,190],[-90.38949,38.81444,189],[-90.38948,38.81442,189],[-90.38944,38.81438,189],[-90.38938,38.81433,189],[-90.38936,38.8143,190],[-90.38939,38.81428,189],[-90.38938,38.81422,189],[-90.38935,38.8142,189],[-90.38931,38.8142,190],[-90.38907,38.81418,192],[-90.38902,38.81415,192],[-90.38899,38.81413,192],[-90.38899,38.81409,192],[-90.38902,38.81413,192],[-90.38905,38.81415,192],[-90.38901,38.81421,192],[-90.38896,38.81424,192],[-90.38893,38.81416,192],[-90.38875,38.8141,194],[-90.38869,38.8141,195],[-90.38863,38.8141,196],[-90.3886,38.8141,196],[-90.38857,38.81408,196],[-90.38847,38.81409,197],[-90.38808,38.81392,199],[-90.38798,38.81394,199],[-90.38789,38.81392,199],[-90.38784,38.8139,199],[-90.38786,38.81393,199],[-90.38783,38.81396,199],[-90.38773,38.81396,200],[-90.38767,38.81394,200],[-90.38772,38.81397,200],[-90.38781,38.81396,199],[-90.38786,38.81395,199],[-90.3879,38.81394,199],[-90.38798,38.81397,199],[-90.38813,38.81393,198],[-90.38817,38.81394,198],[-90.3882,38.81392,198],[-90.38824,38.81392,198],[-90.38827,38.81395,198],[-90.38834,38.814,198],[-90.38834,38.81403,198],[-90.38865,38.81413,196],[-90.38869,38.81413,195],[-90.38878,38.81414,194],[-90.38905,38.81428,192],[-90.38909,38.81426,192],[-90.38915,38.81429,192],[-90.38925,38.81431,191],[-90.38929,38.81436,191],[-90.38934,38.81434,190],[-90.38938,38.81438,190],[-90.38942,38.81442,190],[-90.38945,38.81446,190],[-90.38943,38.81454,190],[-90.38948,38.81454,190],[-90.38943,38.81452,190],[-90.38945,38.81456,190],[-90.38946,38.81458,190],[-90.38954,38.81479,190],[-90.38954,38.81482,190],[-90.38955,38.81484,190],[-90.38961,38.8149,189],[-90.38965,38.81494,189],[-90.38968,38.81498,189],[-90.38966,38.81502,188],[-90.3897,38.81508,187],[-90.38975,38.81511,186],[-90.38971,38.81512,186],[-90.38974,38.81513,186],[-90.38971,38.8151,186],[-90.38976,38.81513,186],[-90.38982,38.81517,185],[-90.38991,38.81521,183],[-90.38999,38.81524,183],[-90.39006,38.81526,182],[-90.39011,38.81531,181],[-90.39016,38.81535,180],[-90.3902,38.81536,180],[-90.39027,38.81538,180],[-90.39036,38.81541,180],[-90.3904,38.81541,181],[-90.39043,38.81543,181],[-90.39054,38.81547,182],[-90.39062,38.81549,183],[-90.39072,38.8155,184],[-90.39082,38.8155,185],[-90.39086,38.81551,185],[-90.39104,38.81548,186],[-90.39109,38.81548,186],[-90.39114,38.81549,186],[-90.39124,38.81539,186],[-90.39129,38.81542,185],[-90.39143,38.81557,184],[-90.39187,38.81565,177],[-90.39191,38.8156,177],[-90.39193,38.81556,178],[-90.39196,38.81552,177],[-90.39199,38.81549,175],[-90.39199,38.81546,175],[-90.39198,38.81543,175],[-90.39197,38.81538,175],[-90.39195,38.81525,174],[-90.39197,38.8152,172],[-90.39199,38.81518,171],[-90.39199,38.81515,170],[-90.392,38.81509,167],[-90.39196,38.81503,166],[-90.39193,38.81498,166],[-90.39193,38.81495,165],[-90.39198,38.8149,164],[-90.39183,38.81445,162],[-90.39184,38.81438,160],[-90.3918,38.81434,160],[-90.39176,38.81428,159],[-90.3918,38.81429,158],[-90.3918,38.81426,158],[-90.39181,38.81423,157],[-90.39184,38.81424,156],[-90.39188,38.81424,155],[-90.39188,38.8142,154],[-90.3919,38.81418,153],[-90.39212,38.81412,148],[-90.39225,38.81398,139],[-90.39219,38.81395,137],[-90.392,38.81387,137],[-90.39192,38.81384,139],[-90.39183,38.81379,142],[-90.39182,38.81377,142],[-90.3917,38.81366,143],[-90.39167,38.81362,143],[-90.39163,38.81359,144],[-90.39161,38.81354,145],[-90.39162,38.8135,145],[-90.39162,38.81348,145],[-90.3916,38.81343,146],[-90.3916,38.81339,147],[-90.39154,38.81335,148],[-90.3915,38.81331,149],[-90.39144,38.81329,149],[-90.3914,38.81329,150],[-90.39134,38.81326,151],[-90.39132,38.81319,151],[-90.39127,38.81315,151],[-90.39122,38.81312,152],[-90.39117,38.81308,153],[-90.39113,38.81306,153],[-90.39115,38.813,152],[-90.39111,38.81293,150],[-90.39106,38.81289,150],[-90.39107,38.81284,149],[-90.39102,38.81279,148],[-90.39106,38.81278,147],[-90.39104,38.81271,146],[-90.39104,38.81265,145],[-90.391,38.81261,144],[-90.39099,38.81255,143],[-90.39097,38.81251,142],[-90.39095,38.81254,143],[-90.39093,38.81258,144],[-90.391,38.81257,143],[-90.39098,38.81251,142],[-90.39085,38.81236,146],[-90.39083,38.8123,148],[-90.39083,38.81225,149],[-90.39085,38.81219,149],[-90.39089,38.81214,149],[-90.39092,38.81208,149],[-90.39093,38.81205,149],[-90.39093,38.81198,149],[-90.39094,38.81193,149],[-90.39087,38.81187,148],[-90.39089,38.8118,148],[-90.39092,38.81175,147],[-90.39096,38.8117,146],[-90.391,38.81166,145],[-90.39105,38.81161,144],[-90.39109,38.81155,143],[-90.39104,38.81143,142],[-90.39101,38.8114,141],[-90.39082,38.8112,141],[-90.3908,38.81117,141],[-90.39081,38.81113,141],[-90.39084,38.81107,140],[-90.39088,38.811,139],[-90.39085,38.81094,139],[-90.39082,38.81089,138],[-90.39082,38.81081,138],[-90.39084,38.81074,138],[-90.39086,38.81068,138],[-90.39087,38.81066,139],[-90.39088,38.81063,139],[-90.39091,38.81064,139],[-90.39088,38.81065,139]]],
        "bbox": [
          -90.38444,
          38.81994,
          -90.39241,
          38.81063
        ]
      },
      "properties": {
        "name": "10.18.2015"
      }
    }
  ]
}