{
  "type": "FeatureCollection",
  "features": [
    {
      "type": "Feature",
      "geometry": {
        "type": "MultiLineString",
        "coordinates": [[[-90.395,38.81159,132],[-90.39501,38.81162,132],[-90.395,38.81165,132],[-90.39497,38.81167,133],[-90.39495,38.81169,133],[-90.39492,38.81172,133],[-90.39489,38.81173,133],[-90.39486,38.81175,134],[-90.39484,38.81177,134],[-90.39483,38.8118,134],[-90.39482,38.81182,135],[-90.39479,38.81185,135],[-90.39476,38.81186,135],[-90.39474,38.81188,136],[-90.39471,38.8119,136],[-90.39468,38.81192,136],[-90.39465,38.81194,137],[-90.39463,38.81197,137],[-90.3946,38.81199,137],[-90.39458,38.81201,137],[-90.39456,38.81204,137],[-90.39453,38.81206,137],[-90.39451,38.81209,137],[-90.39448,38.81211,137],[-90.39446,38.81213,137],[-90.39444,38.81215,138],[-90.39442,38.81218,138],[-90.3944,38.81215,138],[-90.39436,38.81216,138],[-90.39434,38.81219,138],[-90.39432,38.81221,138],[-90.39429,38.81224,137],[-90.39427,38.81226,137],[-90.39424,38.81228,137],[-90.39422,38.81231,137],[-90.3942,38.81233,137],[-90.39417,38.81235,137],[-90.39414,38.81237,137],[-90.39412,38.81239,137],[-90.39409,38.81242,137],[-90.39407,38.81244,137],[-90.39404,38.81246,137],[-90.39401,38.81248,137],[-90.39398,38.8125,137],[-90.39395,38.81252,136],[-90.39392,38.81254,136],[-90.39389,38.81256,136],[-90.39387,38.81258,136],[-90.39384,38.81261,135],[-90.39382,38.81263,135],[-90.39379,38.81265,135],[-90.39376,38.81267,134],[-90.39373,38.81269,134],[-90.39371,38.81271,134],[-90.39368,38.81273,134],[-90.39364,38.81275,134],[-90.3936,38.81275,134],[-90.39357,38.81274,134],[-90.39353,38.81274,134],[-90.3935,38.81273,134],[-90.39346,38.81274,134],[-90.39343,38.81276,134],[-90.3934,38.81278,134],[-90.39337,38.81279,134],[-90.39333,38.8128,134],[-90.39329,38.8128,134],[-90.39325,38.8128,134],[-90.39321,38.81279,134],[-90.39318,38.81277,134],[-90.39315,38.81275,134],[-90.39311,38.81273,134],[-90.39308,38.81272,134],[-90.39305,38.8127,134],[-90.39302,38.81269,134],[-90.39299,38.81267,134],[-90.39295,38.81265,134],[-90.39291,38.81264,134],[-90.39288,38.81263,134],[-90.39286,38.81261,134],[-90.39283,38.81259,134],[-90.3928,38.81257,134],[-90.39277,38.81256,134],[-90.39274,38.81253,134],[-90.39272,38.81251,134],[-90.39269,38.81249,134],[-90.39266,38.81247,134],[-90.39263,38.81245,134],[-90.39261,38.81244,134],[-90.39258,38.81241,135],[-90.39255,38.8124,135],[-90.39252,38.81237,135],[-90.39249,38.81235,135],[-90.39246,38.81233,135],[-90.39244,38.81231,135],[-90.3924,38.81229,135],[-90.39237,38.81227,135],[-90.39237,38.81225,135],[-90.39235,38.81222,135],[-90.39232,38.8122,135],[-90.39229,38.81218,135],[-90.39225,38.81217,135],[-90.39221,38.81216,136],[-90.39218,38.81215,136],[-90.39215,38.81214,136],[-90.39212,38.81212,136],[-90.39208,38.81211,136],[-90.39204,38.81209,137],[-90.39201,38.81209,137],[-90.39196,38.81208,137],[-90.39193,38.81208,138],[-90.39189,38.8121,138],[-90.39186,38.81212,138],[-90.39184,38.81214,138],[-90.39182,38.81216,138],[-90.3918,38.81219,137],[-90.39178,38.81222,137],[-90.39177,38.81224,137],[-90.39175,38.81227,137],[-90.39173,38.8123,136],[-90.3917,38.81232,136],[-90.39167,38.81235,136],[-90.39165,38.81238,136],[-90.39162,38.8124,136],[-90.3916,38.81243,136],[-90.39158,38.81246,135],[-90.39156,38.81249,135],[-90.39154,38.81252,135],[-90.39152,38.81255,136],[-90.3915,38.81258,137],[-90.39148,38.81261,138],[-90.39146,38.81263,138],[-90.39145,38.81267,139],[-90.39144,38.8127,140],[-90.39145,38.81273,141],[-90.3914,38.81273,141],[-90.39136,38.81272,142],[-90.3914,38.81272,141],[-90.39144,38.81272,140],[-90.39147,38.81272,140],[-90.3915,38.81275,140],[-90.39153,38.81276,140],[-90.39157,38.81277,140],[-90.3916,38.81278,139],[-90.39163,38.81279,139],[-90.39166,38.81281,139],[-90.3917,38.81282,139],[-90.39173,38.81284,138],[-90.39176,38.81285,138],[-90.3918,38.81287,138],[-90.39183,38.81288,138],[-90.39186,38.81289,137],[-90.3919,38.81291,137],[-90.39193,38.81292,137],[-90.39196,38.81294,137],[-90.39199,38.81296,137],[-90.39202,38.81298,137],[-90.39205,38.81299,137],[-90.39208,38.81301,137],[-90.39212,38.81302,137],[-90.39215,38.81304,137],[-90.39219,38.81305,137],[-90.39222,38.81306,137],[-90.39226,38.81307,136],[-90.39229,38.81309,136],[-90.39228,38.81311,137],[-90.39229,38.81314,137],[-90.39232,38.81315,137],[-90.39236,38.81318,137],[-90.3924,38.81321,137],[-90.39244,38.81323,136],[-90.39248,38.81325,136],[-90.39252,38.81327,136],[-90.39257,38.81328,136],[-90.39261,38.81329,136],[-90.39265,38.81331,135],[-90.39269,38.81332,135],[-90.39273,38.81334,135],[-90.39277,38.81335,135],[-90.39277,38.81338,135],[-90.39274,38.8134,135],[-90.39272,38.81343,136],[-90.3927,38.81345,136],[-90.39268,38.81348,137],[-90.39267,38.81351,137],[-90.39265,38.81354,137],[-90.39263,38.81357,138],[-90.39262,38.8136,138],[-90.39262,38.81363,138],[-90.39261,38.81366,138],[-90.3926,38.81368,138],[-90.39258,38.81371,138],[-90.39256,38.81373,138],[-90.39255,38.81376,138],[-90.39255,38.81379,138],[-90.39252,38.81378,138],[-90.39249,38.81381,138],[-90.39246,38.81384,137],[-90.39244,38.81387,137],[-90.39243,38.8139,137],[-90.39242,38.81392,138],[-90.39242,38.81395,139],[-90.39241,38.81398,140],[-90.3924,38.81401,142],[-90.39237,38.81403,143],[-90.39234,38.81406,144],[-90.3923,38.81406,144],[-90.39227,38.81404,143],[-90.39223,38.81404,142],[-90.39221,38.81406,144],[-90.39221,38.81409,146],[-90.39222,38.81412,148],[-90.39223,38.81415,150],[-90.39224,38.81418,151],[-90.39226,38.81421,151],[-90.39229,38.81423,151],[-90.39233,38.81425,152],[-90.39237,38.81426,152],[-90.3924,38.81427,152],[-90.39244,38.81429,152],[-90.39248,38.81431,153],[-90.39251,38.81432,153],[-90.39255,38.81433,153],[-90.39259,38.81432,152],[-90.39264,38.81431,151],[-90.39266,38.81429,150],[-90.39266,38.81425,150],[-90.39263,38.81426,150],[-90.3926,38.81428,151],[-90.39264,38.81425,150],[-90.39261,38.81426,150],[-90.39261,38.8143,151],[-90.39263,38.81432,151],[-90.39266,38.81434,151],[-90.39268,38.81437,152],[-90.3927,38.81439,152],[-90.39272,38.81442,153],[-90.39269,38.81443,153],[-90.39266,38.81444,154],[-90.39262,38.81443,154],[-90.3926,38.81441,154],[-90.39257,38.81439,154],[-90.39254,38.81437,153],[-90.39251,38.81435,153],[-90.39248,38.81433,153],[-90.39246,38.81431,153],[-90.39243,38.81429,152],[-90.3924,38.81427,152],[-90.39237,38.81426,152],[-90.39234,38.81423,151],[-90.39231,38.81421,151],[-90.39229,38.81419,151],[-90.39227,38.81416,150],[-90.39225,38.81414,149],[-90.39222,38.81411,147],[-90.39222,38.81409,146],[-90.39222,38.81405,143],[-90.39228,38.81408,145],[-90.39232,38.81411,147],[-90.39234,38.81414,149],[-90.39237,38.81417,150],[-90.39239,38.8142,151],[-90.39242,38.81423,151],[-90.39245,38.81425,151],[-90.39249,38.81427,152],[-90.39252,38.81429,152],[-90.39255,38.81432,152],[-90.39259,38.81433,152],[-90.39263,38.81435,152],[-90.39266,38.81438,152],[-90.39269,38.81441,153],[-90.39272,38.81443,153],[-90.39274,38.81446,153],[-90.39277,38.81448,152],[-90.3928,38.8145,152],[-90.39284,38.81451,151],[-90.39287,38.81453,150],[-90.39289,38.81455,150],[-90.3929,38.81458,149],[-90.39291,38.81461,149],[-90.39293,38.81464,149],[-90.39294,38.81466,148],[-90.39295,38.81469,148],[-90.39296,38.81472,148],[-90.39296,38.81475,148],[-90.39297,38.81478,148],[-90.39297,38.81482,148],[-90.39297,38.81484,148],[-90.39297,38.81488,148],[-90.39297,38.81491,148],[-90.39298,38.81493,148],[-90.39298,38.81496,148],[-90.39301,38.81498,148],[-90.39304,38.81497,147],[-90.39307,38.81496,147],[-90.39309,38.81494,146],[-90.39319,38.81494,144],[-90.39315,38.81494,145],[-90.3932,38.81494,144],[-90.39323,38.81495,143],[-90.39324,38.81498,143],[-90.3932,38.81499,144],[-90.39317,38.81501,145],[-90.39316,38.81504,145],[-90.39316,38.81507,145],[-90.39316,38.8151,144],[-90.39318,38.81513,144],[-90.3932,38.81516,143],[-90.39323,38.81519,142],[-90.39325,38.81522,141],[-90.39325,38.81525,141],[-90.39322,38.81528,141],[-90.39319,38.8153,141],[-90.39317,38.81532,141],[-90.39313,38.81534,142],[-90.3931,38.81536,142],[-90.39308,38.81538,142],[-90.39306,38.8154,141],[-90.39304,38.81543,141],[-90.393,38.81544,142],[-90.39297,38.81546,142],[-90.39293,38.81546,143],[-90.3929,38.81546,144],[-90.39287,38.81547,144],[-90.39283,38.81547,145],[-90.39279,38.81546,147],[-90.39276,38.81545,148],[-90.39272,38.81544,149],[-90.39268,38.81544,151],[-90.39264,38.81544,152],[-90.39261,38.81546,153],[-90.39259,38.81549,153],[-90.39258,38.81552,153],[-90.39258,38.81555,152],[-90.3926,38.81558,151],[-90.39261,38.81561,150],[-90.39262,38.81564,149],[-90.39264,38.81567,148],[-90.39267,38.81569,146],[-90.39269,38.81571,145],[-90.39272,38.81573,143],[-90.39275,38.81575,142],[-90.39275,38.81578,141],[-90.39273,38.8158,142],[-90.39271,38.81582,142],[-90.3927,38.81585,142],[-90.39269,38.81588,142],[-90.39269,38.81591,142],[-90.39268,38.81594,143],[-90.39267,38.81597,143],[-90.39267,38.816,143],[-90.39266,38.81602,143],[-90.39263,38.81605,144],[-90.3926,38.81607,145],[-90.39257,38.81609,146],[-90.39254,38.81611,147],[-90.39251,38.81613,148],[-90.39247,38.81614,149],[-90.39244,38.81616,149],[-90.39242,38.81618,149],[-90.3924,38.81622,149],[-90.39238,38.81625,149],[-90.39234,38.81628,149],[-90.39237,38.81631,147],[-90.39237,38.81635,146],[-90.39237,38.81637,146],[-90.39236,38.8164,145],[-90.39236,38.81643,145],[-90.39237,38.81646,144],[-90.39238,38.81649,144],[-90.39239,38.81651,144],[-90.39238,38.81654,143],[-90.39236,38.81656,144],[-90.39234,38.81659,144],[-90.39233,38.81662,144],[-90.39232,38.81665,144],[-90.39231,38.81667,144],[-90.3923,38.8167,144],[-90.39228,38.81673,144],[-90.39225,38.81675,145],[-90.39221,38.81676,146],[-90.39218,38.81677,146],[-90.39215,38.8168,147],[-90.39211,38.81681,147],[-90.39207,38.81682,148],[-90.39206,38.81685,148],[-90.39203,38.81687,148],[-90.392,38.81689,148],[-90.39199,38.81686,149],[-90.39196,38.81688,149],[-90.39193,38.8169,149],[-90.3919,38.81693,149],[-90.39188,38.81695,148],[-90.39186,38.81697,147],[-90.39184,38.817,146],[-90.39181,38.81701,145],[-90.39177,38.81702,145],[-90.39174,38.81703,144],[-90.39171,38.81705,143],[-90.39168,38.81706,143],[-90.39164,38.81707,143],[-90.39161,38.81708,143],[-90.39157,38.81709,143],[-90.39153,38.81711,143],[-90.3915,38.81712,143],[-90.39146,38.81713,143],[-90.39143,38.81714,143],[-90.39139,38.81715,144],[-90.39136,38.81717,143],[-90.39133,38.81719,143],[-90.3913,38.81721,143],[-90.39127,38.81723,142],[-90.39125,38.81725,142],[-90.39122,38.81728,142],[-90.39119,38.81729,142],[-90.39116,38.81731,142],[-90.39113,38.81732,143],[-90.3911,38.81735,143],[-90.39108,38.81738,142],[-90.39105,38.81741,142],[-90.39102,38.81743,141],[-90.391,38.81746,141],[-90.39098,38.81748,140],[-90.39094,38.8175,140],[-90.39093,38.81752,140],[-90.3909,38.81754,140],[-90.39087,38.81756,140],[-90.39084,38.81758,140],[-90.39086,38.8176,139],[-90.39089,38.8176,139],[-90.39085,38.81761,139],[-90.39082,38.81762,139],[-90.39078,38.81762,140],[-90.39076,38.81765,140],[-90.39075,38.81768,139],[-90.39074,38.8177,139],[-90.39075,38.81774,138],[-90.39079,38.81773,138],[-90.39078,38.81771,138],[-90.39074,38.81772,139],[-90.39071,38.81773,139],[-90.39068,38.81775,139],[-90.39066,38.81777,139],[-90.39062,38.81778,139],[-90.39058,38.81779,139],[-90.39055,38.81779,139],[-90.39051,38.81781,140],[-90.39048,38.81782,140],[-90.39044,38.81782,140],[-90.3904,38.81782,141],[-90.39036,38.81782,141],[-90.39032,38.81784,141],[-90.3903,38.81786,141],[-90.39027,38.81788,142],[-90.39023,38.81789,142],[-90.3902,38.81791,142],[-90.39016,38.81792,143],[-90.39012,38.81792,143],[-90.39008,38.8179,144],[-90.39006,38.81787,145],[-90.39004,38.81785,146],[-90.39001,38.81783,146],[-90.38997,38.81783,147],[-90.38993,38.81783,147],[-90.38989,38.81783,148],[-90.38985,38.81784,148],[-90.38982,38.81785,148],[-90.38979,38.81786,148],[-90.38976,38.81788,149],[-90.38973,38.81789,149],[-90.3897,38.8179,149],[-90.38966,38.8179,149],[-90.38962,38.81789,149],[-90.38961,38.81792,149],[-90.38959,38.81794,149],[-90.38956,38.81796,148],[-90.38952,38.81797,148],[-90.38949,38.81799,148],[-90.38946,38.818,148],[-90.38943,38.81802,147],[-90.38939,38.81803,148],[-90.38935,38.81803,148],[-90.38932,38.81802,149],[-90.38929,38.81804,149],[-90.38926,38.81806,148],[-90.38921,38.81805,149],[-90.38918,38.81804,150],[-90.38914,38.81804,151],[-90.38911,38.81806,151],[-90.38908,38.81808,151],[-90.38905,38.8181,151],[-90.38903,38.81812,150],[-90.38901,38.81814,150],[-90.38896,38.81815,151],[-90.38892,38.81815,152],[-90.38888,38.81813,154],[-90.38884,38.81813,154],[-90.3888,38.81812,156],[-90.38877,38.81813,156],[-90.38873,38.81815,156],[-90.38872,38.81818,155],[-90.38868,38.81819,155],[-90.38866,38.8182,155],[-90.38862,38.81819,156],[-90.3886,38.81821,155],[-90.38858,38.81823,154],[-90.38854,38.81823,155],[-90.38855,38.81826,153],[-90.38859,38.81826,153],[-90.38863,38.81826,153],[-90.38864,38.81829,151],[-90.38864,38.81831,150],[-90.38861,38.81832,150],[-90.38857,38.81831,151],[-90.38853,38.8183,151],[-90.3885,38.8183,151],[-90.38846,38.8183,151],[-90.38844,38.81832,150],[-90.38843,38.81835,149],[-90.38841,38.81838,148],[-90.38839,38.81841,146],[-90.38838,38.81843,145],[-90.38837,38.81846,144],[-90.38835,38.81849,143],[-90.38835,38.81852,141],[-90.38835,38.81854,141],[-90.38835,38.81857,139],[-90.38836,38.81861,138],[-90.38839,38.81863,138],[-90.38833,38.81864,138],[-90.38831,38.81861,138],[-90.38827,38.81862,138],[-90.38824,38.81862,139],[-90.3882,38.81863,139],[-90.38817,38.81864,140],[-90.38814,38.81865,140],[-90.3881,38.81867,140],[-90.38807,38.81869,140],[-90.38804,38.81871,141],[-90.38802,38.81873,141],[-90.388,38.81877,140],[-90.38799,38.81879,140],[-90.38797,38.81882,140],[-90.38794,38.81884,140],[-90.38791,38.81886,140],[-90.38788,38.81887,141],[-90.38785,38.81889,141],[-90.38781,38.8189,141],[-90.38777,38.81891,141],[-90.38773,38.81892,141],[-90.38768,38.81893,140],[-90.38765,38.81896,140],[-90.38762,38.81899,139],[-90.38759,38.819,138],[-90.38756,38.81902,137],[-90.38753,38.81903,137],[-90.38751,38.81906,136],[-90.38748,38.81907,136],[-90.38744,38.81907,136],[-90.3874,38.81907,136],[-90.38736,38.81908,135],[-90.38733,38.81909,135],[-90.38729,38.8191,134],[-90.38726,38.81912,134],[-90.38724,38.81915,132],[-90.3872,38.81915,132],[-90.38717,38.81915,132],[-90.38713,38.81914,133],[-90.38711,38.81917,132],[-90.38711,38.8192,132],[-90.38711,38.81923,132],[-90.38711,38.81926,132],[-90.3871,38.81929,132],[-90.38707,38.81931,132],[-90.38703,38.81933,132],[-90.387,38.81934,132],[-90.38697,38.81936,132],[-90.38693,38.81938,132],[-90.3869,38.81938,132],[-90.38686,38.81939,132],[-90.38683,38.81941,132],[-90.38681,38.81943,132],[-90.38679,38.81946,131],[-90.38677,38.81948,131],[-90.38675,38.81951,131],[-90.38672,38.81953,131],[-90.3867,38.81955,131],[-90.38671,38.81953,131],[-90.38673,38.8195,131],[-90.38669,38.8195,131],[-90.38665,38.8195,131],[-90.38661,38.81951,131],[-90.38657,38.81952,131],[-90.38653,38.81952,131],[-90.3865,38.81953,131],[-90.38646,38.81955,131],[-90.38642,38.81955,131],[-90.38638,38.81956,131],[-90.38634,38.81956,131],[-90.38631,38.81958,132],[-90.38628,38.81959,132],[-90.38626,38.81961,132],[-90.38623,38.81963,132],[-90.3862,38.81961,133],[-90.38616,38.81961,133],[-90.38613,38.81961,133],[-90.38609,38.81962,134],[-90.38605,38.81962,134],[-90.38602,38.81963,134],[-90.38598,38.81964,133],[-90.38594,38.81963,134],[-90.38591,38.81964,133],[-90.38588,38.81966,133],[-90.38585,38.81966,133],[-90.38584,38.81963,134],[-90.38582,38.81961,135],[-90.38578,38.81962,135],[-90.38575,38.81963,134],[-90.38572,38.81965,133],[-90.38568,38.81966,133],[-90.38567,38.81963,134],[-90.38565,38.81961,135],[-90.38563,38.81959,136],[-90.38561,38.81956,137],[-90.38557,38.81954,138],[-90.38555,38.81952,139],[-90.38552,38.8195,139],[-90.38548,38.8195,139],[-90.38544,38.81949,140],[-90.3854,38.81948,140],[-90.38536,38.81947,141],[-90.38532,38.81946,141],[-90.38531,38.81943,142],[-90.3853,38.8194,142],[-90.38528,38.81937,142],[-90.38526,38.81934,142],[-90.38525,38.81931,142],[-90.38526,38.81928,143],[-90.38528,38.81926,143],[-90.3853,38.81923,143],[-90.38531,38.8192,143],[-90.38533,38.81917,144],[-90.38535,38.81914,144],[-90.38536,38.81912,145],[-90.38538,38.81909,145],[-90.3854,38.81907,145],[-90.38542,38.81905,146],[-90.3854,38.81903,146],[-90.38543,38.81901,146],[-90.38546,38.819,146],[-90.38547,38.81897,147],[-90.38548,38.81894,147],[-90.3855,38.81891,147],[-90.38552,38.81888,148],[-90.38555,38.81887,148],[-90.38559,38.81889,147],[-90.38561,38.81887,148],[-90.38565,38.81886,148],[-90.3857,38.81885,148],[-90.38573,38.81884,149],[-90.38577,38.81884,149],[-90.3858,38.81884,148],[-90.38584,38.81885,148],[-90.38588,38.81884,148],[-90.38594,38.81883,148],[-90.38597,38.81882,148],[-90.38594,38.81883,148],[-90.38596,38.8188,148],[-90.38599,38.81879,148],[-90.38602,38.81878,148],[-90.38606,38.81877,148],[-90.38609,38.81875,148],[-90.38613,38.81873,148],[-90.38616,38.81872,148],[-90.38618,38.81869,149],[-90.3862,38.81867,149],[-90.38619,38.81863,149],[-90.38619,38.8186,149],[-90.38618,38.81857,149],[-90.38618,38.81854,150],[-90.38618,38.81851,150],[-90.38618,38.81848,150],[-90.38615,38.81847,150],[-90.38616,38.81844,150],[-90.38618,38.81841,150],[-90.38619,38.81838,150],[-90.38619,38.81835,150],[-90.3862,38.81832,151],[-90.3862,38.81829,152],[-90.3862,38.81825,153],[-90.38621,38.81823,153],[-90.38621,38.8182,154],[-90.38621,38.81817,155],[-90.38623,38.81814,156],[-90.38626,38.81812,157],[-90.38624,38.8181,158],[-90.38621,38.81807,158],[-90.38619,38.81805,159],[-90.38617,38.81803,160],[-90.38617,38.81805,159],[-90.38618,38.81809,158],[-90.38618,38.81811,157],[-90.38622,38.81811,157],[-90.38624,38.81809,158],[-90.38628,38.81807,159],[-90.38631,38.81806,159],[-90.38635,38.81804,160],[-90.38639,38.81803,161],[-90.38643,38.81802,161],[-90.38646,38.81801,162],[-90.3865,38.818,162],[-90.38654,38.81798,163],[-90.38657,38.81795,165],[-90.38659,38.81793,166],[-90.3866,38.81789,169],[-90.38661,38.81786,171],[-90.38664,38.81784,172],[-90.38666,38.81782,174],[-90.38669,38.8178,175],[-90.38672,38.81778,176],[-90.38675,38.81776,176],[-90.38678,38.81775,176],[-90.38681,38.81774,176],[-90.38685,38.81775,176],[-90.38688,38.81776,175],[-90.38691,38.81777,175],[-90.38694,38.81779,174],[-90.38697,38.8178,173],[-90.38698,38.81783,171],[-90.387,38.81786,169],[-90.38702,38.81788,168],[-90.38704,38.81791,166],[-90.38705,38.81793,165],[-90.38707,38.81796,163],[-90.38708,38.81799,161],[-90.3871,38.81801,160],[-90.38712,38.81803,159],[-90.38714,38.81806,157],[-90.38717,38.81807,157],[-90.3872,38.81807,157],[-90.38724,38.81807,158],[-90.38727,38.81806,158],[-90.38731,38.81805,159],[-90.38734,38.81804,160],[-90.38737,38.81806,159],[-90.3874,38.81805,160],[-90.38745,38.81806,160],[-90.38743,38.81809,159],[-90.38744,38.81812,159],[-90.38747,38.81811,159],[-90.38747,38.81808,160],[-90.38746,38.81806,160],[-90.38747,38.81803,161],[-90.38749,38.818,163],[-90.38753,38.81802,162],[-90.38757,38.81802,163],[-90.3876,38.81804,162],[-90.38764,38.81805,162],[-90.38767,38.81807,162],[-90.3877,38.81808,162],[-90.38774,38.81806,163],[-90.3878,38.818,166],[-90.38777,38.81802,165],[-90.38782,38.81798,166],[-90.38782,38.81801,166],[-90.38785,38.81803,165],[-90.38785,38.81805,164],[-90.38787,38.81808,163],[-90.38788,38.8181,163],[-90.38792,38.8181,163],[-90.38795,38.8181,163],[-90.38799,38.8181,163],[-90.38802,38.81808,165],[-90.38806,38.81807,166],[-90.38809,38.81806,166],[-90.38813,38.81805,166],[-90.38816,38.81805,166],[-90.3882,38.81805,166],[-90.38824,38.81806,165],[-90.38827,38.81806,165],[-90.38829,38.81808,163],[-90.38833,38.81809,163],[-90.38837,38.81809,163],[-90.38841,38.8181,162],[-90.38844,38.81811,161],[-90.38848,38.81811,161],[-90.38851,38.81812,160],[-90.38855,38.81812,160],[-90.38858,38.81812,160],[-90.38862,38.81812,159],[-90.38865,38.81812,159],[-90.38869,38.81811,158],[-90.38871,38.81809,159],[-90.38872,38.81806,160],[-90.38875,38.81804,160],[-90.3888,38.81805,159],[-90.38884,38.81806,157],[-90.38888,38.81806,156],[-90.38891,38.81806,156],[-90.38895,38.81806,155],[-90.389,38.81806,153],[-90.38904,38.81806,152],[-90.38908,38.81806,152],[-90.3891,38.81804,152],[-90.38912,38.81801,152],[-90.38914,38.81799,152],[-90.38918,38.81799,151],[-90.38921,38.818,151],[-90.38924,38.81801,150],[-90.38928,38.81799,150],[-90.38931,38.81797,150],[-90.38934,38.81796,150],[-90.38938,38.81797,149],[-90.38942,38.81797,149],[-90.38946,38.81797,148],[-90.38949,38.81797,148],[-90.38953,38.81796,148],[-90.38957,38.81795,148],[-90.38961,38.81794,149],[-90.38965,38.81793,149],[-90.38968,38.81792,149],[-90.38972,38.81792,148],[-90.38976,38.81791,148],[-90.3898,38.81791,148],[-90.38984,38.81791,147],[-90.38987,38.8179,147],[-90.38991,38.81789,147],[-90.38994,38.81787,147],[-90.38998,38.81786,146],[-90.39001,38.81785,146],[-90.39005,38.81785,145],[-90.39008,38.81784,145],[-90.39011,38.81781,145],[-90.39014,38.81779,145],[-90.39017,38.81777,145],[-90.39019,38.81775,145],[-90.39021,38.81773,145],[-90.39023,38.8177,145],[-90.39026,38.81768,145],[-90.39029,38.81766,145],[-90.39032,38.81764,145],[-90.39036,38.81763,145],[-90.39039,38.81763,144],[-90.39043,38.81761,144],[-90.39045,38.81759,145],[-90.39048,38.81757,145],[-90.39045,38.81759,145],[-90.39045,38.81756,145],[-90.39043,38.81753,146],[-90.39041,38.8175,147],[-90.39039,38.81748,148],[-90.3904,38.81745,149],[-90.39039,38.81742,150],[-90.39037,38.81739,151],[-90.39035,38.81737,152],[-90.39033,38.81734,153],[-90.39032,38.81732,153],[-90.39029,38.8173,154],[-90.39026,38.8173,154],[-90.39022,38.81731,154],[-90.39019,38.8173,155],[-90.3902,38.81733,154],[-90.39023,38.81735,153],[-90.39027,38.81737,152],[-90.3903,38.81738,152],[-90.39033,38.8174,151],[-90.39036,38.81742,150],[-90.39039,38.81744,149],[-90.39043,38.81745,148],[-90.39039,38.81745,149],[-90.39036,38.81747,149],[-90.39035,38.81749,148],[-90.39031,38.81751,148],[-90.39028,38.81749,149],[-90.39024,38.81749,149],[-90.39022,38.81747,150],[-90.39022,38.81744,151],[-90.39019,38.81742,152],[-90.39016,38.8174,152],[-90.39014,38.81737,153],[-90.39013,38.81734,154],[-90.39012,38.81731,155],[-90.39011,38.81728,156],[-90.39011,38.81725,156],[-90.39013,38.81723,157],[-90.39014,38.8172,158],[-90.39013,38.81718,158],[-90.3901,38.81716,159],[-90.39006,38.81715,159],[-90.39003,38.81714,160],[-90.39001,38.81712,160],[-90.39001,38.81709,161],[-90.39002,38.81706,162],[-90.39001,38.81703,162],[-90.39001,38.817,163],[-90.38999,38.81698,164],[-90.38997,38.81695,164],[-90.38997,38.81692,165],[-90.38997,38.81689,165],[-90.38997,38.81687,165],[-90.38994,38.81685,166],[-90.38991,38.81683,166],[-90.38988,38.81682,166],[-90.38986,38.81679,166],[-90.38985,38.81676,167],[-90.38986,38.81679,166],[-90.38988,38.81677,167],[-90.38989,38.81674,167],[-90.38989,38.81671,167],[-90.38987,38.81668,168],[-90.38985,38.81666,168],[-90.38982,38.81665,168],[-90.3898,38.81663,168],[-90.38978,38.8166,168],[-90.38982,38.81659,168],[-90.38982,38.81656,169],[-90.38979,38.81655,169],[-90.38976,38.81653,169],[-90.38975,38.81651,169],[-90.38975,38.81648,169],[-90.38976,38.81645,169],[-90.38977,38.81642,169],[-90.38977,38.8164,170],[-90.38976,38.81637,170],[-90.38975,38.81634,170],[-90.38971,38.81633,170],[-90.38969,38.81631,170],[-90.38968,38.81628,171],[-90.38971,38.81626,171],[-90.38973,38.81624,171],[-90.38977,38.81622,171],[-90.38977,38.8162,172],[-90.38977,38.81617,172],[-90.38978,38.81614,172],[-90.38977,38.81617,172],[-90.38981,38.81617,172],[-90.38984,38.81618,172],[-90.38988,38.81618,172],[-90.38991,38.81619,172],[-90.38994,38.8162,172],[-90.38997,38.81622,172],[-90.39001,38.81623,172],[-90.39004,38.81621,172],[-90.39004,38.81618,172],[-90.39006,38.81621,172],[-90.39009,38.81622,172],[-90.39012,38.81623,172],[-90.39014,38.81626,172],[-90.39013,38.81628,172],[-90.39013,38.81632,171],[-90.39016,38.81633,171],[-90.39019,38.81633,172],[-90.39023,38.81633,172],[-90.39026,38.81634,172],[-90.39029,38.81635,172],[-90.3903,38.81638,172],[-90.39029,38.81641,171],[-90.39026,38.81642,171],[-90.39029,38.81644,171],[-90.39028,38.81646,171],[-90.39028,38.81649,170],[-90.39032,38.81648,171],[-90.39034,38.81646,171],[-90.39037,38.81645,171],[-90.39041,38.81645,171],[-90.39045,38.81644,171],[-90.39049,38.81643,172],[-90.3905,38.81641,172],[-90.39052,38.81639,172],[-90.39051,38.81636,173],[-90.39048,38.81634,173],[-90.39047,38.81632,173],[-90.3905,38.81633,173],[-90.39053,38.81635,173],[-90.39055,38.81632,173],[-90.39058,38.81631,173],[-90.3906,38.81629,174],[-90.3906,38.81626,174],[-90.39063,38.81624,174],[-90.39064,38.81627,174],[-90.39068,38.81626,174],[-90.39071,38.81625,175],[-90.39069,38.81628,174],[-90.39067,38.8163,174],[-90.39065,38.81632,174],[-90.39061,38.81634,173],[-90.39059,38.81636,173],[-90.39056,38.81639,172],[-90.39054,38.81641,172],[-90.39053,38.81644,172],[-90.39052,38.81647,171],[-90.39052,38.81651,170],[-90.3905,38.81653,170],[-90.39047,38.81655,170],[-90.39044,38.81657,169],[-90.3904,38.81657,169],[-90.39041,38.8166,169],[-90.39044,38.81662,169],[-90.39045,38.81664,168],[-90.39048,38.81666,168],[-90.39049,38.81669,168],[-90.39048,38.81671,167],[-90.39048,38.81674,167],[-90.39049,38.81677,167],[-90.3905,38.81679,166],[-90.39053,38.81681,166],[-90.39056,38.81682,166],[-90.39057,38.81684,165],[-90.39057,38.81687,165],[-90.39058,38.8169,165],[-90.39062,38.81689,164],[-90.39064,38.81687,165],[-90.39066,38.81684,165],[-90.39068,38.81682,165],[-90.3907,38.81679,165],[-90.39074,38.8168,165],[-90.39076,38.81682,164],[-90.3908,38.81681,164],[-90.39081,38.81678,165],[-90.3908,38.81676,165],[-90.39083,38.81677,165],[-90.39087,38.81678,164],[-90.3909,38.81677,164],[-90.39093,38.81676,164],[-90.39097,38.81675,164],[-90.391,38.81676,164],[-90.39104,38.81677,163],[-90.39108,38.81675,163],[-90.39111,38.81674,163],[-90.39109,38.81676,163],[-90.39112,38.81679,162],[-90.39112,38.81682,161],[-90.39113,38.81685,160],[-90.39116,38.81685,159],[-90.39119,38.81682,160],[-90.39121,38.8168,160],[-90.39123,38.81677,161],[-90.39126,38.81675,161],[-90.39128,38.81673,161],[-90.39129,38.81671,162],[-90.39131,38.81668,162],[-90.39132,38.81665,163],[-90.39136,38.81664,163],[-90.39139,38.81663,163],[-90.39142,38.81664,162],[-90.39146,38.81663,161],[-90.39147,38.8166,162],[-90.3915,38.81659,161],[-90.39149,38.81656,163],[-90.39145,38.81656,164],[-90.39141,38.81656,164],[-90.39146,38.81655,164],[-90.39149,38.81653,164],[-90.39151,38.81651,164],[-90.39152,38.81648,164],[-90.39153,38.81646,165],[-90.39155,38.81643,165],[-90.39157,38.81641,165],[-90.39158,38.81638,166],[-90.39159,38.81636,166],[-90.3916,38.81633,167],[-90.39161,38.8163,168],[-90.39162,38.81625,169],[-90.39163,38.81622,170],[-90.39164,38.81619,171],[-90.39164,38.81616,172],[-90.39165,38.81614,173],[-90.39166,38.81611,174],[-90.39168,38.81608,174],[-90.39171,38.81606,173],[-90.39173,38.81603,173],[-90.39174,38.816,174],[-90.39176,38.81597,174],[-90.39176,38.81594,174],[-90.39175,38.81592,175],[-90.39175,38.81589,176],[-90.39175,38.81586,177],[-90.39175,38.81583,177],[-90.39174,38.8158,178],[-90.39174,38.81577,178],[-90.39174,38.81574,179],[-90.39177,38.81572,178],[-90.3918,38.81571,178],[-90.39184,38.81572,177],[-90.39189,38.81573,175],[-90.39192,38.81574,174],[-90.39196,38.81574,173],[-90.39192,38.81573,174],[-90.39195,38.8157,174],[-90.39195,38.81567,175],[-90.39192,38.81567,176],[-90.39188,38.81566,177],[-90.39184,38.81565,178],[-90.3918,38.81566,178],[-90.39177,38.81567,179],[-90.39173,38.81567,180],[-90.3917,38.81565,181],[-90.39167,38.81563,182],[-90.39165,38.81561,182],[-90.39162,38.81559,182],[-90.39159,38.81558,183],[-90.39156,38.81555,183],[-90.39153,38.81553,183],[-90.39151,38.81551,184],[-90.39149,38.81548,184],[-90.39146,38.81546,184],[-90.39143,38.81544,184],[-90.3914,38.81543,185],[-90.39136,38.81541,185],[-90.39133,38.81541,185],[-90.39129,38.8154,185],[-90.39126,38.8154,186],[-90.39122,38.81539,186],[-90.39118,38.81539,186],[-90.39113,38.81539,186],[-90.3911,38.8154,186],[-90.39106,38.81542,186],[-90.39104,38.81544,186],[-90.39102,38.81547,186],[-90.391,38.81549,185],[-90.39096,38.81549,185],[-90.39092,38.8155,185],[-90.39088,38.8155,185],[-90.39083,38.81549,185],[-90.3908,38.81548,185],[-90.39076,38.81547,184],[-90.39072,38.81547,184],[-90.39068,38.81546,184],[-90.39064,38.81546,183],[-90.39061,38.81545,183],[-90.39057,38.81544,182],[-90.39054,38.81544,182],[-90.3905,38.81543,182],[-90.39046,38.81542,181],[-90.39043,38.81541,181],[-90.39039,38.8154,181],[-90.39036,38.81539,181],[-90.39032,38.81538,180],[-90.39028,38.81537,180],[-90.39025,38.81535,180],[-90.39022,38.81534,181],[-90.39018,38.81533,181],[-90.39015,38.81532,181],[-90.39011,38.81531,181],[-90.39007,38.8153,181],[-90.39004,38.81529,181],[-90.39001,38.81527,182],[-90.38997,38.81526,182],[-90.38993,38.81524,183],[-90.3899,38.81522,183],[-90.38987,38.81521,184],[-90.38984,38.8152,184],[-90.3898,38.81518,184],[-90.38978,38.81516,185],[-90.38976,38.81513,186],[-90.38974,38.81511,186],[-90.38971,38.81509,187],[-90.38968,38.81507,187],[-90.38965,38.81504,188],[-90.38963,38.81502,188],[-90.38961,38.815,188],[-90.38959,38.81497,188],[-90.38958,38.81495,189],[-90.38956,38.81492,189],[-90.38954,38.8149,189],[-90.38952,38.81486,189],[-90.38952,38.81483,190],[-90.38951,38.81481,190],[-90.3895,38.81478,190],[-90.38951,38.81475,190],[-90.38951,38.81472,191],[-90.38952,38.8147,191],[-90.38952,38.81467,190],[-90.38953,38.81463,190],[-90.38952,38.8146,190],[-90.38951,38.81458,190],[-90.38951,38.81455,190],[-90.3895,38.81452,190],[-90.3895,38.81449,190],[-90.38949,38.81446,189],[-90.38948,38.81443,189],[-90.38947,38.81441,189],[-90.38945,38.81438,189],[-90.38943,38.81435,189],[-90.3894,38.81433,189],[-90.38937,38.81431,189],[-90.38934,38.81429,190],[-90.3893,38.81427,190],[-90.38927,38.81426,191],[-90.38924,38.81425,191],[-90.3892,38.81424,192],[-90.38917,38.81423,192],[-90.38913,38.81421,192],[-90.38909,38.81421,192],[-90.38905,38.8142,192],[-90.38902,38.8142,192],[-90.38898,38.8142,192],[-90.38895,38.81419,192],[-90.38891,38.81418,192],[-90.38888,38.81416,193],[-90.38885,38.81415,193],[-90.38881,38.81413,193],[-90.38877,38.81412,194],[-90.38874,38.81411,194],[-90.3887,38.8141,195],[-90.38866,38.81409,195],[-90.38863,38.81408,196],[-90.38859,38.81407,196],[-90.38856,38.81406,196],[-90.38852,38.81405,196],[-90.38849,38.81404,197],[-90.38845,38.81403,197],[-90.38842,38.81402,197],[-90.38838,38.81401,197],[-90.38835,38.814,198],[-90.38833,38.81397,198],[-90.3883,38.81395,198],[-90.38828,38.81393,198],[-90.38825,38.81391,198],[-90.38821,38.8139,198],[-90.38817,38.8139,198],[-90.38813,38.8139,198],[-90.3881,38.81391,198],[-90.38806,38.81392,199],[-90.38803,38.81394,199],[-90.388,38.81395,199],[-90.38797,38.81397,199],[-90.38793,38.81398,199],[-90.38793,38.81395,199],[-90.38789,38.81395,199],[-90.38785,38.81396,199],[-90.38781,38.81396,199],[-90.38777,38.81396,200],[-90.38773,38.81396,200],[-90.3877,38.81396,200],[-90.38767,38.81398,200],[-90.38764,38.81396,200],[-90.38764,38.81393,200],[-90.38761,38.81391,200],[-90.38758,38.81389,199],[-90.38755,38.81387,199],[-90.38752,38.81385,199],[-90.38749,38.81383,199],[-90.38748,38.81381,198],[-90.38748,38.81377,198],[-90.38749,38.81375,197],[-90.38749,38.81372,197],[-90.3875,38.81369,197],[-90.38753,38.81367,197],[-90.38754,38.81364,196],[-90.38755,38.81361,196],[-90.38758,38.81359,196],[-90.38759,38.81356,196],[-90.3876,38.81353,196],[-90.38761,38.8135,195],[-90.38758,38.81349,195],[-90.38757,38.81346,195],[-90.38757,38.81342,195],[-90.38757,38.81339,194],[-90.38758,38.81337,194],[-90.38759,38.81334,194],[-90.38762,38.81333,194],[-90.38765,38.81333,195],[-90.38769,38.81334,195],[-90.38772,38.81334,195],[-90.38776,38.81333,195],[-90.38778,38.81331,195],[-90.38782,38.81331,195],[-90.38786,38.81331,195],[-90.38788,38.81329,195],[-90.38792,38.81327,195],[-90.38794,38.81325,194],[-90.38794,38.81322,194],[-90.38796,38.81319,193],[-90.38797,38.81316,193],[-90.38795,38.81314,193],[-90.38796,38.81311,192],[-90.388,38.81311,192],[-90.38801,38.81308,191],[-90.38802,38.81305,191],[-90.38802,38.81302,190],[-90.38803,38.81299,190],[-90.38803,38.81296,190],[-90.38803,38.81293,189],[-90.38802,38.8129,189],[-90.38803,38.81287,189],[-90.38804,38.81285,188],[-90.38803,38.81282,188],[-90.38802,38.81279,188],[-90.38806,38.81277,187],[-90.38809,38.81278,186],[-90.38813,38.81278,185],[-90.38817,38.81277,184],[-90.3882,38.81276,183],[-90.38823,38.81274,182],[-90.38827,38.81274,181],[-90.3883,38.81276,180],[-90.38833,38.81275,179],[-90.38836,38.81274,178],[-90.38837,38.8127,177],[-90.38838,38.81268,176],[-90.38842,38.81268,175],[-90.38845,38.81269,174],[-90.38849,38.8127,173],[-90.38852,38.81269,172],[-90.38855,38.81268,171],[-90.38857,38.81265,170],[-90.38859,38.81262,170],[-90.3886,38.8126,169],[-90.38861,38.81257,169],[-90.38863,38.81254,168],[-90.38863,38.81252,168],[-90.38863,38.81248,168],[-90.3886,38.81246,168],[-90.38858,38.81243,168],[-90.38858,38.81241,167],[-90.38857,38.81238,167],[-90.38856,38.81235,167],[-90.38858,38.81232,166],[-90.38859,38.81229,165],[-90.3886,38.81226,164],[-90.38864,38.81226,164],[-90.38867,38.81227,164],[-90.38871,38.81227,163],[-90.38874,38.81225,163],[-90.38876,38.81223,162],[-90.38879,38.81221,162],[-90.38881,38.81218,161],[-90.38878,38.81216,161],[-90.38877,38.81213,161],[-90.38876,38.8121,161],[-90.38875,38.81208,161],[-90.38873,38.81205,161],[-90.38871,38.81202,161],[-90.38867,38.81202,161],[-90.38864,38.81204,162],[-90.38862,38.81201,162],[-90.38861,38.81198,162],[-90.38858,38.81196,162],[-90.38855,38.81195,163],[-90.38852,38.81193,163],[-90.38851,38.8119,164],[-90.38852,38.81187,164],[-90.38854,38.81185,163],[-90.38855,38.81182,164],[-90.38857,38.81179,164],[-90.38859,38.81176,164],[-90.38861,38.81174,164],[-90.38864,38.81171,163],[-90.38866,38.81169,163],[-90.38868,38.81166,163],[-90.3887,38.81164,163],[-90.38872,38.81162,162],[-90.38875,38.8116,162],[-90.38876,38.81158,161],[-90.38876,38.81155,161],[-90.38878,38.81153,161],[-90.38882,38.81155,160],[-90.38884,38.81157,160],[-90.38887,38.81157,159],[-90.38891,38.81156,158],[-90.38894,38.81155,157],[-90.38897,38.81153,156],[-90.389,38.81152,156],[-90.38903,38.8115,155],[-90.38907,38.81152,154],[-90.38911,38.81151,153],[-90.38914,38.81149,152],[-90.38916,38.81146,152],[-90.38918,38.81143,152],[-90.3892,38.81141,152],[-90.38923,38.81138,152],[-90.38926,38.81138,152],[-90.38928,38.81141,152],[-90.38931,38.81142,152],[-90.38935,38.81141,152],[-90.38937,38.81139,152],[-90.3894,38.81137,152],[-90.38942,38.81134,152],[-90.38943,38.81132,152],[-90.38945,38.81129,151],[-90.38948,38.81127,151],[-90.38949,38.81124,151],[-90.38947,38.81122,151],[-90.38948,38.81119,151],[-90.38951,38.81118,151],[-90.38955,38.81117,151],[-90.38958,38.81116,151],[-90.38962,38.81117,151],[-90.38965,38.81119,151],[-90.38968,38.8112,150],[-90.38971,38.81121,150],[-90.38975,38.81123,150],[-90.38979,38.81122,149],[-90.38982,38.8112,149],[-90.38986,38.81118,148],[-90.38988,38.81117,148],[-90.38992,38.81116,147],[-90.38997,38.81117,147],[-90.39,38.81117,146],[-90.39003,38.81116,146],[-90.39007,38.81117,145],[-90.39012,38.81118,144],[-90.39015,38.81119,144],[-90.39019,38.81119,144],[-90.39023,38.8112,143],[-90.39027,38.81119,143],[-90.39031,38.81118,142],[-90.39035,38.81119,142],[-90.39039,38.81121,142],[-90.39042,38.81121,142],[-90.39045,38.81123,142],[-90.39048,38.81125,142],[-90.39051,38.81127,142],[-90.39054,38.81128,142],[-90.39058,38.81128,142],[-90.39061,38.81128,142],[-90.39063,38.81126,142],[-90.39066,38.81124,142],[-90.3907,38.81124,142],[-90.39073,38.81123,142],[-90.39077,38.81122,141],[-90.3908,38.8112,141],[-90.39081,38.81123,141],[-90.39083,38.81126,142],[-90.39085,38.81128,142],[-90.39087,38.81131,142],[-90.3909,38.81133,142],[-90.39092,38.81136,142],[-90.39095,38.81137,141],[-90.39097,38.8114,142],[-90.39101,38.81141,142],[-90.39103,38.81143,142],[-90.39106,38.81145,142],[-90.39108,38.81148,142],[-90.3911,38.8115,142],[-90.3911,38.81153,143],[-90.3911,38.81156,143],[-90.3911,38.81159,143],[-90.39109,38.81162,144],[-90.39107,38.81164,144],[-90.39103,38.81165,145],[-90.39099,38.81166,145],[-90.39097,38.81168,146],[-90.39095,38.81171,146],[-90.39094,38.81174,147],[-90.39093,38.81177,147],[-90.39092,38.81179,147],[-90.39092,38.81182,148],[-90.39093,38.81185,148],[-90.39093,38.81189,149],[-90.39093,38.81191,149],[-90.39093,38.81195,150],[-90.39092,38.81197,149],[-90.3909,38.812,149],[-90.39088,38.81202,149],[-90.39087,38.81205,149],[-90.39087,38.81208,149],[-90.39088,38.81211,149],[-90.3909,38.81214,149],[-90.39092,38.81216,149],[-90.39093,38.81213,149],[-90.39092,38.81216,149],[-90.39092,38.81219,149],[-90.39091,38.81222,149],[-90.39091,38.81225,149],[-90.39092,38.81228,148],[-90.39093,38.81231,147],[-90.39094,38.81234,146],[-90.39095,38.81237,145],[-90.39096,38.8124,145],[-90.39098,38.81242,144],[-90.39099,38.81245,143],[-90.39099,38.81248,142],[-90.39099,38.81251,142],[-90.391,38.81254,143],[-90.39104,38.81255,142],[-90.39106,38.81257,143],[-90.39106,38.8126,143],[-90.39107,38.81263,144],[-90.39107,38.81266,145],[-90.39105,38.81268,145],[-90.39104,38.81271,146],[-90.39106,38.81274,146],[-90.39106,38.81276,147],[-90.39106,38.81279,148],[-90.39108,38.81282,148],[-90.3911,38.81285,149],[-90.39111,38.81287,149],[-90.39113,38.8129,149],[-90.39114,38.81293,150],[-90.39115,38.81296,151],[-90.39114,38.81299,151],[-90.39115,38.81302,152],[-90.39117,38.81304,152],[-90.39119,38.81307,152],[-90.3912,38.8131,152],[-90.3912,38.81313,153],[-90.39121,38.81316,152],[-90.39123,38.81318,152],[-90.39124,38.81321,152],[-90.39126,38.81324,152],[-90.39129,38.81326,152],[-90.39132,38.81327,151],[-90.39136,38.81329,151],[-90.39137,38.81332,151],[-90.3914,38.81334,150],[-90.39143,38.81336,150],[-90.39147,38.81336,149],[-90.3915,38.81338,148],[-90.39153,38.8134,148],[-90.39156,38.81342,147],[-90.39158,38.81345,146],[-90.3916,38.81347,146],[-90.39162,38.8135,145],[-90.39162,38.81353,145],[-90.39162,38.81356,144],[-90.39164,38.81359,143],[-90.39165,38.81361,143],[-90.39166,38.81364,143],[-90.39164,38.81367,144],[-90.39165,38.8137,145],[-90.39165,38.81373,145],[-90.39167,38.81376,145],[-90.3917,38.81378,145],[-90.39173,38.8138,144],[-90.39175,38.81382,144],[-90.39179,38.81383,143],[-90.39183,38.81385,142],[-90.39186,38.81385,141],[-90.3919,38.81387,139],[-90.39193,38.81389,138],[-90.39195,38.81392,139],[-90.39199,38.81393,139],[-90.39202,38.81395,139],[-90.39205,38.81397,140],[-90.39209,38.81398,140],[-90.39212,38.814,141],[-90.39215,38.81402,142],[-90.39218,38.81405,143],[-90.39222,38.81405,143],[-90.39226,38.81404,143],[-90.39229,38.81405,143],[-90.39232,38.81403,142],[-90.39234,38.814,141],[-90.39236,38.81398,140],[-90.39238,38.81395,139],[-90.39241,38.81394,138],[-90.39242,38.81391,137],[-90.39243,38.81388,136],[-90.39244,38.81385,137],[-90.39246,38.81383,137],[-90.39248,38.8138,138],[-90.39251,38.81378,138],[-90.39252,38.81375,138],[-90.39252,38.81372,138],[-90.39252,38.81369,138],[-90.39252,38.81366,138],[-90.39252,38.81363,138],[-90.39253,38.81361,138],[-90.39254,38.81358,138],[-90.39256,38.81355,138],[-90.39258,38.81353,138],[-90.39259,38.8135,137],[-90.39262,38.81347,137],[-90.39263,38.81344,136],[-90.39266,38.81342,136],[-90.39269,38.8134,136],[-90.39272,38.81338,135],[-90.39275,38.81336,135],[-90.39277,38.81334,135],[-90.39279,38.81332,134],[-90.39282,38.81329,134],[-90.39283,38.81326,134],[-90.39286,38.81324,134],[-90.3929,38.81323,133],[-90.39294,38.81323,133],[-90.39296,38.8132,133],[-90.39298,38.81318,133],[-90.39299,38.81315,133],[-90.39299,38.81312,133],[-90.393,38.81309,133],[-90.393,38.81307,133],[-90.39297,38.81305,133],[-90.39295,38.81302,133],[-90.39298,38.81304,133],[-90.39314,38.81306,132],[-90.39318,38.81305,133],[-90.39322,38.81304,133],[-90.39325,38.81302,133],[-90.39327,38.813,133],[-90.3933,38.81298,133],[-90.39333,38.81296,133],[-90.39335,38.81294,133],[-90.39338,38.81291,133],[-90.3934,38.81289,133],[-90.39343,38.81287,133],[-90.39346,38.81285,134],[-90.39349,38.81283,134],[-90.39352,38.81281,134],[-90.39355,38.81279,134],[-90.39357,38.81276,134],[-90.39359,38.81274,134],[-90.39362,38.81273,134],[-90.39366,38.81271,134],[-90.39369,38.81269,134],[-90.39372,38.81267,134],[-90.39375,38.81265,135],[-90.39378,38.81263,135],[-90.39382,38.81262,135],[-90.39385,38.8126,135],[-90.39388,38.81258,136],[-90.3939,38.81256,136],[-90.39394,38.81255,136],[-90.39397,38.81253,136],[-90.39399,38.8125,137],[-90.39401,38.81248,137],[-90.39404,38.81246,137],[-90.39407,38.81244,137],[-90.39409,38.81242,137],[-90.39411,38.81239,137],[-90.39414,38.81237,137],[-90.39417,38.81236,137],[-90.39421,38.81234,137],[-90.39423,38.81232,137],[-90.39425,38.81229,137],[-90.39428,38.81227,137],[-90.3943,38.81225,137],[-90.39432,38.81223,137],[-90.39434,38.8122,138],[-90.39436,38.81217,138],[-90.39438,38.81215,138],[-90.39441,38.81213,138],[-90.39444,38.81211,138],[-90.39448,38.81209,137],[-90.3945,38.81207,137],[-90.39453,38.81204,137],[-90.39456,38.81202,137],[-90.39458,38.812,137],[-90.39461,38.81197,137],[-90.39464,38.81195,137],[-90.39466,38.81193,137],[-90.39469,38.81191,136],[-90.39472,38.81189,136],[-90.39475,38.81187,136],[-90.39477,38.81184,135],[-90.3948,38.81182,135],[-90.39483,38.81179,134],[-90.39485,38.81177,134],[-90.39488,38.81174,134],[-90.3949,38.81172,133],[-90.39494,38.81171,133],[-90.39497,38.81169,133],[-90.395,38.81168,133],[-90.39503,38.81167,133],[-90.39507,38.81166,132],[-90.39505,38.81163,132],[-90.39505,38.81166,132],[-90.39502,38.81168,133],[-90.39501,38.81166,132]]],
        "bbox": [
          -90.38525,
          38.81966,
          -90.39507,
          38.81116
        ]
      },
      "properties": {
        "name": "2.4.2023"
      }
    }
  ]
}