{
  "type": "FeatureCollection",
  "features": [
    {
      "type": "Feature",
      "geometry": {
        "type": "MultiLineString",
        "coordinates": [[[-90.39519,38.81156,132],[-90.39516,38.81159,132],[-90.39513,38.81162,132],[-90.3951,38.81164,132],[-90.39508,38.81166,132],[-90.39505,38.81168,133],[-90.39501,38.8117,133],[-90.39498,38.81172,133],[-90.39494,38.81173,133],[-90.3949,38.81174,134],[-90.39487,38.81176,134],[-90.39484,38.81178,134],[-90.39481,38.8118,134],[-90.39478,38.81183,135],[-90.39474,38.81185,135],[-90.39471,38.81188,136],[-90.39467,38.81191,136],[-90.39465,38.81193,137],[-90.39462,38.81196,137],[-90.39459,38.81198,137],[-90.39457,38.812,137],[-90.39454,38.81202,137],[-90.39451,38.81204,137],[-90.39449,38.81207,137],[-90.39447,38.8121,137],[-90.39444,38.81212,138],[-90.39441,38.81214,138],[-90.39438,38.81217,138],[-90.39435,38.8122,138],[-90.39432,38.81222,138],[-90.39429,38.81225,137],[-90.39427,38.81228,137],[-90.39424,38.81231,137],[-90.39421,38.81233,137],[-90.39418,38.81236,137],[-90.39415,38.81238,137],[-90.39412,38.8124,137],[-90.39409,38.81243,137],[-90.39406,38.81245,137],[-90.39403,38.81248,137],[-90.394,38.81251,136],[-90.39396,38.81253,136],[-90.39392,38.81255,136],[-90.39388,38.81257,136],[-90.39385,38.8126,135],[-90.39382,38.81263,135],[-90.39379,38.81265,135],[-90.39377,38.81267,134],[-90.39374,38.8127,134],[-90.39371,38.81272,134],[-90.39368,38.81274,134],[-90.39364,38.81276,134],[-90.3936,38.81278,134],[-90.39356,38.81277,134],[-90.39353,38.81275,134],[-90.39353,38.81273,134],[-90.39353,38.81276,134],[-90.39353,38.81279,134],[-90.3935,38.81282,134],[-90.39347,38.81284,134],[-90.39344,38.81287,133],[-90.39341,38.8129,133],[-90.39339,38.81292,133],[-90.39335,38.81294,133],[-90.39333,38.81296,133],[-90.39329,38.81297,133],[-90.39326,38.81299,133],[-90.39324,38.81302,133],[-90.39321,38.81304,133],[-90.39318,38.81307,132],[-90.39314,38.81309,132],[-90.39311,38.8131,132],[-90.39307,38.81312,132],[-90.39305,38.81314,133],[-90.39302,38.81317,133],[-90.39299,38.81319,133],[-90.39297,38.81322,133],[-90.39295,38.81325,133],[-90.39292,38.81327,133],[-90.39289,38.81329,134],[-90.39286,38.81331,134],[-90.39284,38.81334,134],[-90.39281,38.81336,135],[-90.39278,38.81338,135],[-90.39275,38.8134,135],[-90.39272,38.81342,136],[-90.39269,38.81345,136],[-90.39266,38.81347,137],[-90.39263,38.81349,137],[-90.3926,38.81352,137],[-90.39258,38.81355,138],[-90.39256,38.81358,138],[-90.39253,38.81362,138],[-90.39252,38.81364,138],[-90.3925,38.81368,138],[-90.39248,38.81372,138],[-90.39247,38.81375,138],[-90.39245,38.81377,137],[-90.39243,38.8138,137],[-90.39241,38.81383,136],[-90.3924,38.81386,136],[-90.39238,38.81389,135],[-90.39236,38.8139,136],[-90.39233,38.81393,137],[-90.39232,38.81396,138],[-90.39231,38.81398,139],[-90.39228,38.81401,141],[-90.39225,38.81403,142],[-90.3922,38.81403,142],[-90.39218,38.814,140],[-90.39216,38.81398,139],[-90.39212,38.81396,139],[-90.39209,38.81394,138],[-90.39206,38.81391,137],[-90.39204,38.81389,136],[-90.39201,38.81386,137],[-90.39198,38.81384,137],[-90.39194,38.81382,138],[-90.39191,38.81379,140],[-90.39188,38.81378,140],[-90.39183,38.81376,141],[-90.39181,38.81375,142],[-90.39178,38.81372,142],[-90.39177,38.8137,142],[-90.39175,38.81367,143],[-90.39173,38.81364,142],[-90.39171,38.8136,142],[-90.3917,38.81357,143],[-90.39168,38.81355,143],[-90.39167,38.81352,144],[-90.39167,38.81349,144],[-90.39166,38.81346,145],[-90.39166,38.81343,145],[-90.39166,38.8134,146],[-90.39164,38.81337,146],[-90.39161,38.81334,147],[-90.39158,38.81332,148],[-90.39153,38.81331,148],[-90.39149,38.8133,149],[-90.39146,38.81328,149],[-90.39142,38.81327,150],[-90.39139,38.81325,150],[-90.39137,38.81322,150],[-90.39137,38.81319,150],[-90.39134,38.81316,151],[-90.39131,38.81314,151],[-90.39128,38.81312,151],[-90.39126,38.8131,152],[-90.39123,38.81308,152],[-90.39122,38.81304,152],[-90.39121,38.81301,151],[-90.3912,38.81298,150],[-90.39118,38.81295,150],[-90.39116,38.81293,150],[-90.39115,38.8129,149],[-90.39114,38.81286,148],[-90.39113,38.81283,148],[-90.39111,38.81281,147],[-90.39109,38.81278,147],[-90.39108,38.81275,146],[-90.39107,38.81273,146],[-90.39106,38.81269,145],[-90.39105,38.81266,145],[-90.39104,38.81263,144],[-90.39104,38.8126,144],[-90.39104,38.81256,143],[-90.39103,38.81253,142],[-90.39103,38.8125,141],[-90.39103,38.81247,142],[-90.39102,38.81244,143],[-90.39101,38.81241,144],[-90.391,38.81237,145],[-90.39099,38.81235,146],[-90.39097,38.81232,147],[-90.39096,38.81228,148],[-90.39095,38.81226,148],[-90.39092,38.81223,149],[-90.39091,38.8122,149],[-90.39091,38.81217,149],[-90.39092,38.81214,149],[-90.39095,38.81212,149],[-90.39094,38.81215,149],[-90.39096,38.81212,149],[-90.39095,38.81209,149],[-90.39116,38.81223,147],[-90.39092,38.81218,149],[-90.39083,38.81214,149],[-90.39082,38.81209,149],[-90.39083,38.81207,149],[-90.39086,38.81205,149],[-90.3909,38.81203,149],[-90.39092,38.81201,149],[-90.39094,38.81199,150],[-90.39096,38.81195,150],[-90.39097,38.81192,150],[-90.39097,38.81189,149],[-90.39097,38.81186,149],[-90.39097,38.81183,148],[-90.39097,38.8118,148],[-90.39097,38.81177,147],[-90.39098,38.81173,146],[-90.391,38.8117,146],[-90.39103,38.81168,145],[-90.39107,38.81167,145],[-90.39109,38.81165,144],[-90.39111,38.81161,144],[-90.39113,38.81157,143],[-90.39114,38.81154,142],[-90.39114,38.81151,142],[-90.39112,38.81149,142],[-90.39109,38.81145,142],[-90.39107,38.81142,141],[-90.39105,38.8114,141],[-90.39103,38.81137,141],[-90.39101,38.81134,141],[-90.39098,38.81131,141],[-90.39096,38.81128,141],[-90.39093,38.81125,141],[-90.39089,38.81122,141],[-90.39087,38.8112,141],[-90.39084,38.81118,141],[-90.3908,38.81119,141],[-90.39076,38.81121,141],[-90.39072,38.81122,142],[-90.39069,38.81123,142],[-90.39065,38.81124,142],[-90.39061,38.81125,142],[-90.39057,38.81125,142],[-90.39053,38.81123,142],[-90.3905,38.81121,142],[-90.39048,38.81119,142],[-90.39044,38.81118,142],[-90.39041,38.81117,142],[-90.39037,38.81116,142],[-90.39033,38.81116,142],[-90.39029,38.81117,142],[-90.39025,38.81117,143],[-90.39021,38.81116,143],[-90.39017,38.81115,144],[-90.39013,38.81115,144],[-90.39009,38.81114,145],[-90.39005,38.81114,146],[-90.39001,38.81114,146],[-90.38998,38.81113,147],[-90.38994,38.81114,147],[-90.3899,38.81115,148],[-90.38986,38.81117,148],[-90.38982,38.81117,149],[-90.38977,38.81117,150],[-90.38974,38.81117,150],[-90.3897,38.81116,150],[-90.38966,38.81115,151],[-90.38962,38.81116,151],[-90.38958,38.81117,151],[-90.38954,38.81118,151],[-90.3895,38.81119,151],[-90.38947,38.81121,151],[-90.38944,38.81123,152],[-90.38941,38.81125,152],[-90.38939,38.81128,152],[-90.38937,38.81131,152],[-90.38935,38.81134,152],[-90.38932,38.81135,152],[-90.38927,38.81135,152],[-90.38924,38.81136,152],[-90.38919,38.81137,152],[-90.38916,38.81139,152],[-90.38912,38.81141,152],[-90.38908,38.81142,154],[-90.38905,38.81143,154],[-90.38901,38.81143,155],[-90.38897,38.81145,156],[-90.38893,38.81146,157],[-90.3889,38.81147,158],[-90.38886,38.81147,159],[-90.38883,38.81149,160],[-90.38881,38.81152,160],[-90.38879,38.81155,161],[-90.38876,38.81158,161],[-90.38872,38.8116,162],[-90.38869,38.81161,163],[-90.38865,38.81163,164],[-90.38863,38.81165,164],[-90.3886,38.81168,164],[-90.38857,38.8117,164],[-90.38855,38.81174,164],[-90.38854,38.81177,164],[-90.38854,38.8118,164],[-90.38854,38.81184,164],[-90.38855,38.81187,163],[-90.38858,38.8119,162],[-90.38861,38.81192,162],[-90.38863,38.81195,161],[-90.38865,38.81197,161],[-90.38867,38.81201,161],[-90.3887,38.81204,161],[-90.38873,38.81205,161],[-90.38874,38.81208,161],[-90.38875,38.81211,161],[-90.38875,38.81214,162],[-90.38874,38.81218,162],[-90.38873,38.8122,162],[-90.3887,38.81222,163],[-90.38867,38.81224,163],[-90.38864,38.81226,164],[-90.38863,38.81229,165],[-90.3886,38.81233,166],[-90.38859,38.81236,166],[-90.38858,38.81238,167],[-90.38859,38.81243,168],[-90.3886,38.81245,168],[-90.38859,38.81248,169],[-90.38857,38.81251,169],[-90.38854,38.81254,170],[-90.38852,38.81257,171],[-90.3885,38.8126,172],[-90.38847,38.81261,173],[-90.38844,38.81262,174],[-90.3884,38.81262,175],[-90.38837,38.81264,176],[-90.38834,38.81265,177],[-90.3883,38.81266,178],[-90.38826,38.81267,180],[-90.38822,38.81267,180],[-90.38819,38.81269,182],[-90.38815,38.8127,183],[-90.38811,38.81272,185],[-90.38808,38.81274,186],[-90.38806,38.81277,187],[-90.38805,38.81281,188],[-90.38804,38.81284,188],[-90.38803,38.81287,189],[-90.38803,38.8129,189],[-90.38803,38.81294,189],[-90.38804,38.81298,190],[-90.38804,38.81301,190],[-90.38803,38.81305,191],[-90.38802,38.81308,191],[-90.388,38.81311,192],[-90.38798,38.81313,192],[-90.38796,38.81316,193],[-90.38793,38.81318,193],[-90.3879,38.81321,194],[-90.38788,38.81323,194],[-90.38786,38.81325,194],[-90.38781,38.81326,195],[-90.38777,38.81326,195],[-90.38774,38.81327,195],[-90.38769,38.81327,194],[-90.38766,38.81327,194],[-90.38763,38.81329,194],[-90.3876,38.81331,194],[-90.38759,38.81334,194],[-90.38758,38.81337,194],[-90.38757,38.81339,194],[-90.38756,38.81343,195],[-90.38755,38.81345,195],[-90.38753,38.81348,195],[-90.38751,38.81352,195],[-90.3875,38.81355,195],[-90.38749,38.81358,195],[-90.38748,38.81361,195],[-90.38747,38.81365,196],[-90.38747,38.81368,196],[-90.38747,38.81371,197],[-90.38747,38.81374,197],[-90.38747,38.81377,198],[-90.38747,38.8138,198],[-90.38748,38.81383,199],[-90.38751,38.81386,199],[-90.38754,38.81388,199],[-90.38757,38.81391,200],[-90.3876,38.81393,200],[-90.38763,38.81395,200],[-90.38766,38.81397,200],[-90.38772,38.81397,200],[-90.38776,38.81397,200],[-90.3878,38.81397,199],[-90.38784,38.81399,199],[-90.38788,38.814,199],[-90.38791,38.814,199],[-90.38796,38.81397,199],[-90.38799,38.81396,199],[-90.38803,38.81395,199],[-90.38807,38.81394,199],[-90.3881,38.81394,199],[-90.38815,38.81396,198],[-90.38818,38.81396,198],[-90.38822,38.81398,198],[-90.38826,38.814,198],[-90.3883,38.81402,198],[-90.38833,38.81405,198],[-90.38837,38.81406,198],[-90.38841,38.81409,198],[-90.38846,38.8141,197],[-90.3885,38.81412,197],[-90.38854,38.81413,197],[-90.38858,38.81414,197],[-90.38861,38.81415,196],[-90.38865,38.81416,196],[-90.38868,38.81416,195],[-90.38872,38.81419,195],[-90.38875,38.8142,195],[-90.38879,38.81421,194],[-90.38884,38.81422,193],[-90.38888,38.81423,193],[-90.38892,38.81424,192],[-90.38897,38.81425,192],[-90.38901,38.81425,192],[-90.38905,38.81425,192],[-90.38909,38.81426,192],[-90.38912,38.81428,192],[-90.38916,38.81429,192],[-90.3892,38.8143,192],[-90.38925,38.81431,191],[-90.38928,38.81433,191],[-90.38931,38.81434,190],[-90.38935,38.81437,190],[-90.38938,38.81439,190],[-90.38941,38.81441,190],[-90.38944,38.81444,189],[-90.38946,38.81446,190],[-90.38947,38.81449,190],[-90.38946,38.81452,190],[-90.38946,38.81455,190],[-90.38946,38.81458,190],[-90.38946,38.81462,190],[-90.38945,38.81465,190],[-90.38945,38.81468,190],[-90.38945,38.81472,191],[-90.38945,38.81474,190],[-90.38945,38.81478,190],[-90.38945,38.81481,190],[-90.38945,38.81485,189],[-90.38945,38.81489,189],[-90.38946,38.81492,188],[-90.38947,38.81495,188],[-90.38951,38.81497,188],[-90.38953,38.815,188],[-90.38955,38.81502,188],[-90.38958,38.81505,187],[-90.38961,38.81508,187],[-90.38964,38.8151,186],[-90.38967,38.81511,186],[-90.38971,38.81514,186],[-90.38974,38.81516,185],[-90.38977,38.81519,184],[-90.38979,38.81522,184],[-90.38981,38.81524,183],[-90.38983,38.81527,182],[-90.38986,38.81529,182],[-90.38989,38.81531,181],[-90.38992,38.81533,181],[-90.38996,38.81534,181],[-90.39001,38.81536,180],[-90.39004,38.81538,180],[-90.39007,38.8154,179],[-90.3901,38.81542,179],[-90.39014,38.81542,179],[-90.39013,38.81539,180],[-90.3901,38.81536,180],[-90.39014,38.81537,180],[-90.39017,38.81539,180],[-90.39021,38.81538,180],[-90.39025,38.81539,180],[-90.39028,38.81541,180],[-90.39031,38.81542,180],[-90.39035,38.81544,180],[-90.39038,38.81546,180],[-90.39041,38.81548,180],[-90.39043,38.8155,180],[-90.39047,38.81551,181],[-90.39052,38.81552,181],[-90.39056,38.81552,182],[-90.3906,38.81553,182],[-90.39064,38.81554,183],[-90.39068,38.81554,183],[-90.39073,38.81555,183],[-90.39077,38.81556,184],[-90.39082,38.81556,184],[-90.39086,38.81556,185],[-90.39091,38.81556,185],[-90.39095,38.81556,185],[-90.391,38.81554,185],[-90.39105,38.81553,185],[-90.39109,38.81551,186],[-90.39113,38.8155,186],[-90.39117,38.81549,186],[-90.39121,38.8155,185],[-90.39125,38.81551,185],[-90.39129,38.81551,185],[-90.39132,38.81552,185],[-90.39136,38.81554,185],[-90.3914,38.81556,184],[-90.39144,38.81556,184],[-90.39149,38.81556,184],[-90.39153,38.81557,183],[-90.39158,38.81558,183],[-90.39161,38.8156,182],[-90.39165,38.81561,182],[-90.39169,38.81563,181],[-90.39172,38.81565,180],[-90.39174,38.81568,179],[-90.39175,38.81571,179],[-90.39175,38.81575,178],[-90.39175,38.81578,178],[-90.39174,38.81582,178],[-90.39173,38.81586,177],[-90.39173,38.81589,176],[-90.39172,38.81593,176],[-90.39171,38.81596,176],[-90.39171,38.81599,175],[-90.39171,38.81602,174],[-90.3917,38.81605,174],[-90.3917,38.81608,173],[-90.39169,38.81611,173],[-90.39169,38.81614,172],[-90.39169,38.81617,171],[-90.39169,38.8162,170],[-90.39169,38.81623,168],[-90.39171,38.81625,167],[-90.39169,38.81623,168],[-90.39166,38.81625,169],[-90.39165,38.81628,168],[-90.39164,38.81632,167],[-90.39163,38.81635,166],[-90.3916,38.81637,166],[-90.39157,38.81639,166],[-90.39154,38.81642,166],[-90.39153,38.81646,165],[-90.39154,38.81649,164],[-90.39151,38.81651,164],[-90.39149,38.81653,164],[-90.39146,38.81655,164],[-90.39142,38.81654,165],[-90.39139,38.81655,165],[-90.39139,38.81658,164],[-90.39138,38.81661,163],[-90.39135,38.81662,164],[-90.39133,38.81665,163],[-90.3913,38.81666,163],[-90.39127,38.81669,162],[-90.39125,38.81672,162],[-90.39123,38.81674,162],[-90.3912,38.81676,161],[-90.39117,38.81677,162],[-90.39113,38.81678,162],[-90.39111,38.81676,163],[-90.39109,38.81673,164],[-90.39107,38.8167,165],[-90.39104,38.81669,165],[-90.39101,38.81667,166],[-90.39098,38.81664,167],[-90.39094,38.81664,167],[-90.39091,38.81664,167],[-90.39088,38.81666,166],[-90.39086,38.81669,166],[-90.39084,38.81672,166],[-90.39081,38.81674,165],[-90.39078,38.81675,165],[-90.39076,38.81678,165],[-90.39077,38.81681,164],[-90.39073,38.8168,165],[-90.39071,38.81678,165],[-90.39075,38.81678,165],[-90.39079,38.81679,165],[-90.39079,38.81676,165],[-90.39076,38.81677,165],[-90.3908,38.81677,165],[-90.39078,38.8168,165],[-90.39076,38.81683,164],[-90.39073,38.8168,165],[-90.39073,38.81677,165],[-90.39069,38.81677,166],[-90.39066,38.81679,165],[-90.39062,38.81681,165],[-90.39059,38.81683,165],[-90.39054,38.81685,166],[-90.39051,38.81687,166],[-90.39049,38.8169,165],[-90.39045,38.81688,166],[-90.39041,38.81687,166],[-90.39039,38.81685,167],[-90.39036,38.81683,167],[-90.39036,38.8168,167],[-90.39039,38.81678,167],[-90.39038,38.81681,167],[-90.39038,38.81684,167],[-90.39038,38.81687,166],[-90.3904,38.81689,166],[-90.39043,38.81691,166],[-90.39045,38.81694,165],[-90.39044,38.81697,164],[-90.39043,38.817,163],[-90.39043,38.81703,162],[-90.39045,38.81706,161],[-90.39048,38.81708,160],[-90.39047,38.81711,160],[-90.39045,38.81714,159],[-90.39044,38.81717,158],[-90.39045,38.8172,157],[-90.39045,38.81723,156],[-90.39044,38.81726,155],[-90.39048,38.81726,154],[-90.39051,38.81725,155],[-90.39049,38.81728,154],[-90.39048,38.81731,153],[-90.39051,38.81733,152],[-90.39051,38.81735,151],[-90.39048,38.81737,151],[-90.39051,38.81735,151],[-90.39054,38.81733,152],[-90.39054,38.81737,150],[-90.39051,38.81739,150],[-90.39048,38.8174,150],[-90.39044,38.81741,150],[-90.3904,38.81741,150],[-90.39036,38.81741,150],[-90.39035,38.81743,150],[-90.39036,38.81746,149],[-90.39037,38.81749,148],[-90.39038,38.81746,149],[-90.39039,38.81743,150],[-90.39039,38.8174,150],[-90.3904,38.81737,151],[-90.39036,38.81738,151],[-90.39033,38.8174,151],[-90.39032,38.81743,150],[-90.39031,38.81746,149],[-90.3903,38.81749,149],[-90.39027,38.81751,148],[-90.39024,38.81752,148],[-90.39023,38.81755,148],[-90.39027,38.81753,148],[-90.39023,38.81755,148],[-90.3902,38.81756,148],[-90.39016,38.81757,148],[-90.39012,38.81756,149],[-90.3901,38.81755,150],[-90.39013,38.81755,149],[-90.39016,38.81756,149],[-90.3902,38.81757,148],[-90.39024,38.81756,148],[-90.39027,38.81758,147],[-90.3903,38.8176,146],[-90.39034,38.81761,145],[-90.39034,38.81764,145],[-90.39031,38.81766,145],[-90.39027,38.81767,145],[-90.39023,38.81768,145],[-90.39019,38.81769,146],[-90.39016,38.81768,146],[-90.39014,38.81765,147],[-90.39018,38.81765,147],[-90.39022,38.81764,146],[-90.39025,38.81762,146],[-90.39029,38.81762,146],[-90.39033,38.81761,146],[-90.39036,38.8176,145],[-90.39039,38.81758,146],[-90.39043,38.81758,145],[-90.39047,38.81757,145],[-90.39049,38.81754,145],[-90.39049,38.81751,146],[-90.39052,38.81748,147],[-90.39056,38.81747,147],[-90.39059,38.81745,147],[-90.39062,38.81743,147],[-90.39066,38.81742,147],[-90.3907,38.81742,146],[-90.39073,38.81744,145],[-90.39077,38.81745,144],[-90.39079,38.81748,143],[-90.39079,38.81751,142],[-90.39082,38.81752,141],[-90.39085,38.81754,141],[-90.39088,38.81755,140],[-90.39091,38.81757,139],[-90.39093,38.81759,139],[-90.39095,38.81762,138],[-90.39095,38.81759,138],[-90.39093,38.81756,139],[-90.39089,38.81755,140],[-90.39087,38.81758,140],[-90.39086,38.81761,139],[-90.39085,38.81764,139],[-90.39081,38.81764,139],[-90.39077,38.81764,140],[-90.39074,38.81766,140],[-90.39071,38.81769,140],[-90.39067,38.8177,140],[-90.39065,38.81772,140],[-90.39063,38.81774,139],[-90.3906,38.81776,139],[-90.39057,38.81778,139],[-90.39053,38.81778,140],[-90.39049,38.81778,140],[-90.39046,38.81776,141],[-90.39042,38.81775,142],[-90.39039,38.81774,142],[-90.39035,38.81776,142],[-90.39032,38.81777,142],[-90.39028,38.81777,143],[-90.39024,38.81778,143],[-90.39021,38.8178,143],[-90.39018,38.81783,144],[-90.39015,38.81785,144],[-90.39011,38.81786,144],[-90.39007,38.81786,145],[-90.39002,38.81786,146],[-90.38998,38.81786,146],[-90.38995,38.81788,146],[-90.38991,38.81789,147],[-90.38987,38.8179,147],[-90.38982,38.8179,148],[-90.38978,38.81792,148],[-90.38975,38.81793,148],[-90.38972,38.81795,148],[-90.38968,38.81796,148],[-90.38964,38.81796,148],[-90.3896,38.81796,148],[-90.38955,38.81796,148],[-90.38952,38.81794,149],[-90.38949,38.81793,149],[-90.38946,38.81792,149],[-90.38942,38.81792,150],[-90.38938,38.81793,150],[-90.38934,38.81793,151],[-90.3893,38.81793,152],[-90.38926,38.81793,152],[-90.38922,38.81794,152],[-90.38918,38.81794,153],[-90.38914,38.81795,154],[-90.3891,38.81796,154],[-90.38907,38.81798,154],[-90.38905,38.818,154],[-90.38901,38.818,155],[-90.38899,38.81799,156],[-90.38895,38.81799,157],[-90.38891,38.818,158],[-90.38887,38.81802,158],[-90.38884,38.81804,158],[-90.38881,38.81803,159],[-90.38877,38.81803,160],[-90.38873,38.81804,160],[-90.38871,38.81806,160],[-90.38868,38.81808,160],[-90.38866,38.81811,159],[-90.38867,38.81814,157],[-90.38868,38.81817,156],[-90.38868,38.8182,155],[-90.38864,38.8182,155],[-90.3886,38.8182,156],[-90.38859,38.81822,155],[-90.38858,38.81825,154],[-90.38855,38.81828,152],[-90.38853,38.8183,151],[-90.3885,38.81833,150],[-90.38847,38.81833,150],[-90.38843,38.81834,149],[-90.38839,38.81835,149],[-90.38837,38.81838,148],[-90.38836,38.81841,146],[-90.38835,38.81844,145],[-90.38834,38.81847,144],[-90.38831,38.81849,143],[-90.38829,38.81851,142],[-90.38826,38.81853,142],[-90.38824,38.81856,141],[-90.38822,38.81859,140],[-90.3882,38.81861,139],[-90.38817,38.81864,140],[-90.38814,38.81865,140],[-90.3881,38.81866,140],[-90.38806,38.81866,141],[-90.38802,38.81867,141],[-90.38798,38.81867,142],[-90.38795,38.81868,142],[-90.38791,38.8187,142],[-90.38788,38.81872,143],[-90.38785,38.81874,143],[-90.38781,38.81876,143],[-90.38778,38.81878,143],[-90.38773,38.81879,143],[-90.3877,38.81879,143],[-90.38766,38.81881,143],[-90.38762,38.81882,143],[-90.38759,38.81883,143],[-90.38755,38.81886,142],[-90.38753,38.81888,142],[-90.3875,38.81891,141],[-90.38748,38.81893,140],[-90.38745,38.81896,139],[-90.38743,38.81899,139],[-90.38741,38.81903,137],[-90.38739,38.81906,136],[-90.38737,38.81908,135],[-90.38733,38.8191,135],[-90.3873,38.81912,134],[-90.38726,38.81913,133],[-90.38722,38.81914,133],[-90.38718,38.81915,132],[-90.38715,38.81917,132],[-90.38712,38.81918,132],[-90.3871,38.8192,132],[-90.38707,38.81923,132],[-90.38704,38.81925,132],[-90.387,38.81927,132],[-90.38697,38.81928,132],[-90.38693,38.81929,132],[-90.38689,38.81931,132],[-90.38686,38.81932,132],[-90.38683,38.81934,132],[-90.38679,38.81936,133],[-90.38677,38.81939,132],[-90.38674,38.81942,132],[-90.38671,38.81944,132],[-90.38668,38.81946,131],[-90.38666,38.81949,131],[-90.38666,38.81952,131],[-90.38665,38.81955,131],[-90.38661,38.81955,131],[-90.38664,38.81957,131],[-90.38666,38.8196,131],[-90.38663,38.81958,131],[-90.38667,38.81958,131],[-90.38667,38.81956,131],[-90.38663,38.81957,131],[-90.38664,38.8196,131],[-90.38661,38.8196,131],[-90.38657,38.81961,131],[-90.38653,38.81961,131],[-90.38653,38.81958,131],[-90.38653,38.81955,131],[-90.38649,38.81955,131],[-90.38646,38.81956,131],[-90.38641,38.81955,131],[-90.38638,38.81955,131],[-90.38634,38.81955,131],[-90.3863,38.81956,132],[-90.38627,38.81957,132],[-90.38623,38.81958,133],[-90.38619,38.8196,133],[-90.38615,38.8196,134],[-90.38611,38.81961,134],[-90.38607,38.81962,134],[-90.38603,38.81962,134],[-90.38599,38.81961,134],[-90.38595,38.81962,134],[-90.38591,38.81963,134],[-90.38587,38.81963,134],[-90.38583,38.81964,134],[-90.3858,38.81965,133],[-90.38577,38.81963,134],[-90.38574,38.81962,135],[-90.3857,38.81961,135],[-90.38566,38.81962,135],[-90.38564,38.81964,134],[-90.38562,38.81966,133],[-90.38558,38.81967,133],[-90.38554,38.81968,132],[-90.38551,38.81969,132],[-90.38547,38.8197,131],[-90.38543,38.8197,131],[-90.38539,38.81969,132],[-90.38536,38.8197,131],[-90.38532,38.81969,132],[-90.3853,38.81967,133],[-90.38526,38.81967,132],[-90.38522,38.81967,132],[-90.38519,38.81968,132],[-90.38516,38.8197,131],[-90.38513,38.8197,131],[-90.3851,38.81972,131],[-90.38514,38.81971,131],[-90.38518,38.8197,131],[-90.38522,38.81969,132],[-90.38525,38.81969,132],[-90.38529,38.81969,132],[-90.38532,38.8197,131],[-90.38536,38.81972,131],[-90.3854,38.81972,131],[-90.38543,38.81972,131],[-90.38547,38.81971,131],[-90.38551,38.8197,131],[-90.38554,38.81969,132],[-90.38558,38.81967,133],[-90.38561,38.81965,133],[-90.38565,38.81966,133],[-90.38569,38.81967,133],[-90.38572,38.81968,132],[-90.38576,38.81967,133],[-90.3858,38.81967,133],[-90.38584,38.81967,132],[-90.38588,38.81966,133],[-90.38592,38.81965,133],[-90.38596,38.81964,133],[-90.38599,38.81963,134],[-90.38603,38.81962,134],[-90.38608,38.81962,134],[-90.38612,38.81962,133],[-90.38617,38.81962,133],[-90.38621,38.81962,132],[-90.38625,38.81961,132],[-90.38628,38.8196,132],[-90.38632,38.81959,131],[-90.38636,38.81958,131],[-90.3864,38.81958,131],[-90.38643,38.81956,131],[-90.38646,38.81955,131],[-90.3865,38.81954,131],[-90.38654,38.81953,131],[-90.38657,38.81952,131],[-90.38659,38.81949,131],[-90.38663,38.81951,131],[-90.38666,38.81949,131],[-90.38668,38.81947,131],[-90.38672,38.81946,131],[-90.38675,38.81945,131],[-90.38677,38.81941,132],[-90.3868,38.81939,132],[-90.38683,38.81937,132],[-90.38687,38.81936,132],[-90.3869,38.81935,132],[-90.38694,38.81934,132],[-90.38698,38.81932,132],[-90.38702,38.81931,132],[-90.38705,38.81931,132],[-90.38708,38.81929,132],[-90.38711,38.81926,132],[-90.38716,38.81925,132],[-90.3872,38.81925,132],[-90.38724,38.81925,132],[-90.38727,38.81923,132],[-90.3873,38.8192,132],[-90.38733,38.81917,132],[-90.38735,38.81915,133],[-90.38734,38.81912,134],[-90.38735,38.81909,135],[-90.38737,38.81906,136],[-90.3874,38.81905,136],[-90.38739,38.81903,137],[-90.38735,38.81902,138],[-90.38731,38.81902,138],[-90.3873,38.81905,136],[-90.38731,38.81909,135],[-90.38733,38.81912,134],[-90.38736,38.81912,134],[-90.3874,38.81912,134],[-90.38744,38.81912,134],[-90.38746,38.81909,135],[-90.38747,38.81906,136],[-90.38748,38.81904,137],[-90.38751,38.81901,138],[-90.38754,38.81899,138],[-90.38756,38.81897,139],[-90.38758,38.81894,140],[-90.38762,38.81891,141],[-90.38766,38.8189,141],[-90.3877,38.81889,141],[-90.38773,38.81888,142],[-90.38777,38.81886,142],[-90.38781,38.81885,142],[-90.38784,38.81884,141],[-90.38787,38.81882,141],[-90.38791,38.8188,141],[-90.38794,38.81878,141],[-90.38799,38.81875,141],[-90.38802,38.81873,141],[-90.38806,38.81871,140],[-90.3881,38.8187,140],[-90.38814,38.81869,140],[-90.38818,38.81868,139],[-90.38821,38.81866,139],[-90.38824,38.81864,139],[-90.38827,38.81862,138],[-90.3883,38.8186,138],[-90.38833,38.81858,139],[-90.38836,38.81856,140],[-90.38839,38.81854,141],[-90.38842,38.81852,141],[-90.38844,38.81849,143],[-90.38846,38.81846,144],[-90.38848,38.81843,145],[-90.38851,38.8184,147],[-90.38855,38.81839,147],[-90.38858,38.81838,148],[-90.38862,38.81836,148],[-90.38864,38.81833,149],[-90.38866,38.8183,150],[-90.3887,38.81828,151],[-90.38873,38.81829,150],[-90.38876,38.81826,150],[-90.38875,38.81823,152],[-90.38874,38.8182,153],[-90.38876,38.81816,155],[-90.38878,38.81814,155],[-90.38882,38.81814,155],[-90.38887,38.81814,154],[-90.3889,38.81812,154],[-90.38894,38.81812,153],[-90.38898,38.81813,151],[-90.38901,38.81814,150],[-90.38905,38.81813,149],[-90.38909,38.81813,148],[-90.38913,38.81811,148],[-90.38916,38.81809,148],[-90.3892,38.81809,148],[-90.38924,38.81808,148],[-90.38926,38.81806,148],[-90.38931,38.81806,148],[-90.38936,38.81806,147],[-90.3894,38.81806,147],[-90.38945,38.81805,147],[-90.3895,38.81805,147],[-90.38954,38.81805,147],[-90.38957,38.81808,146],[-90.38959,38.8181,145],[-90.38963,38.8181,145],[-90.38967,38.8181,145],[-90.38972,38.8181,145],[-90.38976,38.8181,144],[-90.3898,38.8181,144],[-90.38984,38.81808,144],[-90.38987,38.81807,144],[-90.3899,38.81806,144],[-90.38993,38.81803,144],[-90.38997,38.81802,144],[-90.39001,38.81801,143],[-90.39004,38.818,143],[-90.39007,38.81798,143],[-90.39011,38.81797,143],[-90.39015,38.81797,142],[-90.39019,38.81797,142],[-90.39023,38.81795,141],[-90.39027,38.81794,141],[-90.3903,38.81793,141],[-90.39033,38.81791,141],[-90.39036,38.81789,140],[-90.39038,38.81786,141],[-90.39041,38.81785,140],[-90.39045,38.81784,140],[-90.39048,38.81783,140],[-90.39052,38.81781,140],[-90.39055,38.8178,139],[-90.39059,38.81778,139],[-90.39063,38.81777,139],[-90.39066,38.81775,139],[-90.39068,38.81772,139],[-90.39071,38.8177,139],[-90.39073,38.81768,139],[-90.39077,38.81766,139],[-90.3908,38.81764,139],[-90.39083,38.81762,139],[-90.39085,38.8176,140],[-90.39087,38.81757,140],[-90.3909,38.81754,140],[-90.39093,38.81753,140],[-90.39097,38.81751,140],[-90.391,38.81749,140],[-90.39102,38.81747,140],[-90.39104,38.81744,141],[-90.39106,38.81741,141],[-90.39108,38.81739,142],[-90.39111,38.81737,142],[-90.39113,38.81734,142],[-90.39115,38.81731,143],[-90.39118,38.81729,142],[-90.3912,38.81726,143],[-90.39122,38.81724,143],[-90.39125,38.81722,143],[-90.39128,38.81722,143],[-90.39132,38.81722,142],[-90.39136,38.81721,142],[-90.39139,38.81721,141],[-90.39143,38.81719,141],[-90.39147,38.81718,141],[-90.39151,38.81717,141],[-90.39154,38.81715,141],[-90.39157,38.81714,141],[-90.39159,38.81712,142],[-90.39162,38.81709,143],[-90.39165,38.81707,143],[-90.39169,38.81706,143],[-90.39173,38.81706,143],[-90.39176,38.81704,144],[-90.39179,38.81701,145],[-90.39182,38.81698,147],[-90.39184,38.81694,148],[-90.39187,38.81692,149],[-90.3919,38.8169,149],[-90.39194,38.8169,149],[-90.39197,38.81688,149],[-90.392,38.81686,148],[-90.392,38.81683,149],[-90.39202,38.8168,148],[-90.39203,38.81678,148],[-90.39203,38.81674,149],[-90.39205,38.81672,148],[-90.39209,38.81671,148],[-90.39213,38.81669,147],[-90.39214,38.81666,147],[-90.39216,38.81663,147],[-90.39219,38.81661,147],[-90.39223,38.81659,146],[-90.39225,38.81657,146],[-90.39228,38.81654,146],[-90.3923,38.81651,145],[-90.39233,38.81648,145],[-90.39235,38.81645,145],[-90.39236,38.81642,145],[-90.39237,38.8164,145],[-90.39238,38.81637,146],[-90.39237,38.81634,147],[-90.39237,38.81631,147],[-90.39239,38.81629,147],[-90.39241,38.81626,148],[-90.39245,38.81624,147],[-90.39247,38.81622,147],[-90.39248,38.8162,147],[-90.39252,38.81618,146],[-90.39255,38.81617,146],[-90.39257,38.81614,146],[-90.39258,38.81611,146],[-90.39259,38.81608,145],[-90.3926,38.81605,145],[-90.39261,38.81602,145],[-90.39262,38.81599,145],[-90.39262,38.81596,145],[-90.39263,38.81593,144],[-90.39263,38.8159,144],[-90.39264,38.81587,144],[-90.39267,38.81585,143],[-90.39269,38.81582,143],[-90.3927,38.81579,143],[-90.39268,38.81576,144],[-90.39268,38.81572,145],[-90.39268,38.81569,146],[-90.39268,38.81566,146],[-90.39269,38.81563,146],[-90.39272,38.8156,146],[-90.39275,38.81558,145],[-90.39278,38.81557,144],[-90.39282,38.81555,143],[-90.39285,38.81553,143],[-90.39288,38.81552,142],[-90.39291,38.81551,142],[-90.39294,38.81548,142],[-90.39296,38.81545,143],[-90.393,38.81544,142],[-90.39303,38.81542,142],[-90.39305,38.8154,142],[-90.39309,38.81538,141],[-90.39312,38.81536,141],[-90.39315,38.81533,141],[-90.39317,38.8153,142],[-90.39318,38.81527,142],[-90.39319,38.81523,143],[-90.39321,38.81521,142],[-90.39321,38.81516,143],[-90.39321,38.81513,143],[-90.3932,38.8151,143],[-90.39318,38.81507,144],[-90.39316,38.81504,145],[-90.39315,38.81502,145],[-90.39313,38.81499,146],[-90.3931,38.81496,146],[-90.39307,38.81494,147],[-90.39305,38.81491,147],[-90.39304,38.81488,147],[-90.39303,38.81486,147],[-90.39302,38.81483,147],[-90.39303,38.8148,147],[-90.39303,38.81476,146],[-90.39303,38.81473,146],[-90.39303,38.8147,146],[-90.39303,38.81466,146],[-90.39302,38.81464,147],[-90.39299,38.81461,147],[-90.39296,38.81459,148],[-90.39294,38.81456,149],[-90.39291,38.81453,149],[-90.39287,38.81451,150],[-90.39284,38.8145,151],[-90.39281,38.81448,152],[-90.39278,38.81445,152],[-90.39275,38.81443,152],[-90.39272,38.81441,152],[-90.3927,38.81438,152],[-90.39267,38.81436,152],[-90.39265,38.81434,152],[-90.39265,38.81431,151],[-90.39265,38.81427,150],[-90.39269,38.81426,149],[-90.39268,38.81423,149],[-90.39264,38.81423,149],[-90.3926,38.81424,150],[-90.39256,38.81424,150],[-90.39253,38.81424,151],[-90.39249,38.81424,151],[-90.39244,38.81423,151],[-90.3924,38.81421,151],[-90.39237,38.81418,150],[-90.39234,38.81417,150],[-90.39233,38.81414,149],[-90.39232,38.81412,148],[-90.3923,38.81408,145],[-90.39231,38.81405,143],[-90.39235,38.81404,143],[-90.39238,38.81403,143],[-90.39241,38.814,141],[-90.39242,38.81397,140],[-90.39244,38.81395,139],[-90.39245,38.81391,138],[-90.39247,38.81388,137],[-90.39249,38.81386,137],[-90.3925,38.81383,138],[-90.39251,38.8138,138],[-90.39252,38.81377,138],[-90.39253,38.81374,138],[-90.39255,38.81372,138],[-90.39257,38.8137,138],[-90.39258,38.81367,138],[-90.3926,38.81364,138],[-90.39256,38.81364,138],[-90.39259,38.8136,138],[-90.39262,38.81357,138],[-90.39264,38.81354,137],[-90.39266,38.81351,137],[-90.39267,38.81348,137],[-90.39269,38.81345,136],[-90.3927,38.81342,136],[-90.39266,38.81341,136],[-90.39261,38.81338,136],[-90.39258,38.81336,136],[-90.39254,38.81334,136],[-90.39251,38.81333,136],[-90.39247,38.81332,137],[-90.39251,38.81334,136],[-90.39253,38.81337,137],[-90.39257,38.81339,136],[-90.3926,38.81342,137],[-90.39263,38.81343,136],[-90.39268,38.81344,136],[-90.39272,38.81342,136],[-90.39275,38.8134,135],[-90.39277,38.81338,135],[-90.3928,38.81336,135],[-90.39283,38.81335,134],[-90.39286,38.81333,134],[-90.39288,38.81331,134],[-90.39291,38.81328,133],[-90.39295,38.81326,133],[-90.39299,38.81323,133],[-90.39302,38.8132,133],[-90.39304,38.81318,133],[-90.39307,38.81315,132],[-90.39311,38.81313,132],[-90.39313,38.8131,132],[-90.39316,38.81308,132],[-90.3932,38.81306,132],[-90.39322,38.81303,133],[-90.39326,38.81301,133],[-90.39329,38.81299,133],[-90.39333,38.81298,133],[-90.39336,38.81296,133],[-90.3934,38.81293,133],[-90.39343,38.81291,133],[-90.39345,38.81289,133],[-90.39347,38.81286,133],[-90.3935,38.81285,133],[-90.39354,38.81283,133],[-90.39357,38.81281,133],[-90.39361,38.81279,133],[-90.39365,38.81277,134],[-90.39367,38.81275,134],[-90.39371,38.81273,134],[-90.39374,38.81271,134],[-90.39377,38.81269,134],[-90.3938,38.81266,135],[-90.39383,38.81263,135],[-90.39386,38.81261,135],[-90.3939,38.81258,136],[-90.39394,38.81256,136],[-90.39397,38.81254,136],[-90.39399,38.81252,136],[-90.39403,38.8125,137],[-90.39407,38.81248,137],[-90.3941,38.81245,137],[-90.39413,38.81242,137],[-90.39416,38.8124,137],[-90.39419,38.81238,137],[-90.39422,38.81235,137],[-90.39424,38.81232,137],[-90.39427,38.8123,137],[-90.39431,38.81228,137],[-90.39434,38.81226,137],[-90.39437,38.81224,137],[-90.3944,38.81221,138],[-90.39443,38.81218,138],[-90.39446,38.81216,137],[-90.39448,38.81213,137],[-90.3945,38.8121,137],[-90.39453,38.81207,137],[-90.39457,38.81205,137],[-90.3946,38.81202,137],[-90.39464,38.812,137],[-90.39468,38.81198,137],[-90.39472,38.81196,136],[-90.39476,38.81193,136],[-90.39479,38.8119,136],[-90.39482,38.81187,135],[-90.39484,38.81184,135],[-90.39487,38.81181,134],[-90.39489,38.81179,134],[-90.39493,38.81177,134],[-90.39496,38.81175,133],[-90.39499,38.81174,133],[-90.39502,38.81172,133],[-90.39506,38.8117,133],[-90.39508,38.81168,133],[-90.39511,38.81166,132],[-90.39515,38.81164,132],[-90.39518,38.81162,132],[-90.3952,38.81159,132],[-90.39521,38.81157,132],[-90.39519,38.81154,132]]],
        "bbox": [
          -90.3851,
          38.81972,
          -90.39521,
          38.81113
        ]
      },
      "properties": {
        "name": "4.25.2021"
      }
    }
  ]
}