{
  "type": "FeatureCollection",
  "features": [
    {
      "type": "Feature",
      "geometry": {
        "type": "MultiLineString",
        "coordinates": [[[-90.39352,38.81285,133],[-90.39348,38.81286,133],[-90.39345,38.81288,133],[-90.39344,38.81291,133],[-90.39345,38.81295,133],[-90.39348,38.81297,133],[-90.39351,38.813,132],[-90.3935,38.81302,132],[-90.39352,38.81305,132],[-90.39355,38.81307,132],[-90.39357,38.8131,132],[-90.39359,38.81313,132],[-90.39362,38.81315,132],[-90.39365,38.81317,132],[-90.39367,38.81319,132],[-90.39369,38.81322,132],[-90.39371,38.81324,132],[-90.39374,38.81327,132],[-90.39377,38.8133,132],[-90.3938,38.81331,132],[-90.39384,38.81334,132],[-90.39386,38.81336,132],[-90.3939,38.81338,132],[-90.39394,38.8134,132],[-90.39398,38.81341,132],[-90.39402,38.81343,132],[-90.39406,38.81346,132],[-90.39408,38.81348,132],[-90.39411,38.8135,132],[-90.39413,38.81352,132],[-90.39417,38.81353,133],[-90.39419,38.81356,133],[-90.39423,38.81357,133],[-90.39427,38.81357,133],[-90.3943,38.81358,133],[-90.39434,38.8136,133],[-90.39437,38.81362,133],[-90.3944,38.81364,133],[-90.39443,38.81366,133],[-90.39446,38.81367,134],[-90.39449,38.81369,134],[-90.39453,38.81371,134],[-90.39457,38.81371,134],[-90.3946,38.81372,134],[-90.39464,38.81375,135],[-90.39467,38.81378,135],[-90.39469,38.8138,135],[-90.39472,38.81381,135],[-90.39477,38.81383,135],[-90.39481,38.81384,135],[-90.39484,38.81387,135],[-90.39487,38.81389,135],[-90.3949,38.81391,134],[-90.39493,38.81392,134],[-90.39497,38.81394,134],[-90.39499,38.81396,134],[-90.39502,38.81397,135],[-90.395,38.81395,134],[-90.39496,38.81396,134],[-90.39493,38.81398,134],[-90.39491,38.814,134],[-90.3949,38.81403,134],[-90.39488,38.81406,134],[-90.39484,38.81407,134],[-90.3948,38.81408,134],[-90.39477,38.81409,134],[-90.39473,38.81408,134],[-90.39469,38.81408,134],[-90.39466,38.81409,134],[-90.39462,38.8141,133],[-90.39465,38.81408,134],[-90.39469,38.8141,134],[-90.39472,38.81411,134],[-90.39476,38.81411,134],[-90.3948,38.81411,134],[-90.39483,38.8141,134],[-90.39487,38.81407,134],[-90.39489,38.81406,134],[-90.39493,38.81404,134],[-90.39493,38.81401,134],[-90.39496,38.814,134],[-90.39499,38.81396,134],[-90.39498,38.81394,134],[-90.39496,38.81391,134],[-90.39493,38.81388,135],[-90.3949,38.81386,135],[-90.39486,38.81384,135],[-90.39483,38.81381,135],[-90.3948,38.81379,135],[-90.39478,38.81377,135],[-90.39474,38.81375,135],[-90.3947,38.81373,135],[-90.39467,38.81372,135],[-90.39464,38.81371,135],[-90.39461,38.81369,135],[-90.39458,38.81367,134],[-90.39455,38.81366,134],[-90.39451,38.81363,134],[-90.39447,38.81361,134],[-90.39443,38.81359,133],[-90.39442,38.81357,133],[-90.39438,38.81355,133],[-90.39434,38.81354,133],[-90.3943,38.81353,133],[-90.39428,38.81351,133],[-90.39424,38.81349,133],[-90.3942,38.81346,133],[-90.39416,38.81344,132],[-90.39412,38.81344,132],[-90.39408,38.81342,132],[-90.39404,38.81341,132],[-90.39401,38.81339,132],[-90.39397,38.81337,132],[-90.39393,38.81335,132],[-90.3939,38.81332,132],[-90.39387,38.8133,132],[-90.39383,38.81328,132],[-90.3938,38.81327,132],[-90.39376,38.81324,132],[-90.39373,38.81322,132],[-90.39369,38.8132,132],[-90.39367,38.81318,132],[-90.39364,38.81315,132],[-90.39363,38.81313,132],[-90.39361,38.8131,132],[-90.39359,38.81307,132],[-90.39357,38.81304,132],[-90.39355,38.81302,132],[-90.39353,38.813,132],[-90.3935,38.81296,133],[-90.39347,38.81293,133],[-90.39344,38.8129,133],[-90.3934,38.81289,133],[-90.39336,38.81289,134],[-90.39333,38.81289,134],[-90.3933,38.8129,134],[-90.39327,38.81293,133],[-90.39325,38.81295,133],[-90.39324,38.81298,133],[-90.39321,38.813,133],[-90.39316,38.81301,133],[-90.39313,38.81302,133],[-90.39309,38.81304,133],[-90.39306,38.81306,132],[-90.39303,38.81309,133],[-90.39301,38.81312,133],[-90.39299,38.81315,133],[-90.39297,38.81317,133],[-90.39294,38.81319,133],[-90.39291,38.81323,133],[-90.39289,38.81325,134],[-90.39286,38.81328,134],[-90.39283,38.8133,134],[-90.3928,38.81332,134],[-90.39277,38.81333,135],[-90.39274,38.81336,135],[-90.39271,38.81338,135],[-90.39268,38.8134,136],[-90.39265,38.81342,136],[-90.39264,38.81345,137],[-90.39262,38.81348,137],[-90.3926,38.8135,137],[-90.39257,38.81352,137],[-90.39254,38.81355,138],[-90.39252,38.81359,138],[-90.3925,38.81362,138],[-90.39248,38.81364,138],[-90.39247,38.81366,138],[-90.39246,38.81369,138],[-90.39245,38.81372,138],[-90.39245,38.81375,138],[-90.39244,38.81379,137],[-90.39243,38.81381,137],[-90.3924,38.81384,136],[-90.39239,38.81387,136],[-90.39237,38.8139,136],[-90.39235,38.81392,136],[-90.39233,38.81395,138],[-90.39232,38.81398,139],[-90.39229,38.814,140],[-90.39226,38.81402,141],[-90.39223,38.81406,144],[-90.39222,38.81408,145],[-90.39223,38.81412,148],[-90.39226,38.81414,149],[-90.39227,38.81417,150],[-90.3923,38.8142,151],[-90.39233,38.81423,151],[-90.39236,38.81425,152],[-90.3924,38.81427,152],[-90.39244,38.81429,152],[-90.39248,38.81431,153],[-90.39251,38.81432,153],[-90.39256,38.81432,152],[-90.3926,38.81432,152],[-90.39259,38.81429,151],[-90.39255,38.8143,152],[-90.39257,38.81433,152],[-90.3926,38.81436,153],[-90.39263,38.81438,153],[-90.39266,38.81436,152],[-90.39266,38.81439,153],[-90.39269,38.81442,153],[-90.39271,38.81445,153],[-90.39273,38.81448,153],[-90.39276,38.8145,152],[-90.39279,38.81452,152],[-90.39282,38.81455,151],[-90.39286,38.81457,150],[-90.39289,38.81459,150],[-90.39291,38.81461,149],[-90.39292,38.81464,149],[-90.39293,38.81466,148],[-90.39293,38.81469,148],[-90.39294,38.81473,148],[-90.39295,38.81476,148],[-90.39298,38.81478,147],[-90.39301,38.81478,147],[-90.39298,38.81477,147],[-90.39296,38.8148,148],[-90.39296,38.81484,148],[-90.39297,38.81487,148],[-90.39299,38.81489,148],[-90.393,38.81492,148],[-90.39303,38.81495,147],[-90.39305,38.81498,147],[-90.39307,38.81501,147],[-90.39309,38.81504,146],[-90.3931,38.81507,146],[-90.39312,38.81509,145],[-90.39314,38.81512,145],[-90.39317,38.81515,144],[-90.39321,38.81517,143],[-90.39323,38.8152,142],[-90.39325,38.81522,141],[-90.39327,38.81525,140],[-90.3933,38.81528,139],[-90.39333,38.81528,138],[-90.3933,38.81527,139],[-90.39326,38.81526,141],[-90.39328,38.81523,140],[-90.39331,38.81521,140],[-90.39329,38.81523,140],[-90.39326,38.81522,141],[-90.39323,38.8152,142],[-90.3932,38.81519,143],[-90.39316,38.81519,144],[-90.39312,38.8152,144],[-90.39309,38.81523,145],[-90.39308,38.81525,145],[-90.39304,38.81528,146],[-90.39302,38.81531,145],[-90.39299,38.81533,145],[-90.39295,38.81535,146],[-90.39291,38.81536,147],[-90.39287,38.81537,148],[-90.39284,38.81538,148],[-90.39278,38.8154,149],[-90.39275,38.81541,149],[-90.39272,38.81544,149],[-90.39269,38.81545,150],[-90.39264,38.81547,152],[-90.39261,38.81549,152],[-90.39258,38.81552,153],[-90.39255,38.81554,154],[-90.39252,38.81558,154],[-90.3925,38.8156,154],[-90.39249,38.81563,154],[-90.3925,38.81566,153],[-90.39251,38.81569,152],[-90.39254,38.81571,150],[-90.39257,38.81574,148],[-90.39258,38.81577,147],[-90.3926,38.8158,146],[-90.39261,38.81584,145],[-90.39261,38.81587,145],[-90.39262,38.8159,145],[-90.39262,38.81593,145],[-90.39261,38.81596,145],[-90.39261,38.816,145],[-90.39261,38.81603,145],[-90.39259,38.81606,145],[-90.39255,38.81607,147],[-90.3925,38.81608,148],[-90.39247,38.8161,149],[-90.39244,38.81611,150],[-90.39241,38.81613,151],[-90.39238,38.81617,151],[-90.39236,38.81619,151],[-90.39234,38.81621,151],[-90.39232,38.81624,151],[-90.3923,38.81627,150],[-90.39227,38.81629,150],[-90.39227,38.81632,150],[-90.39228,38.81635,148],[-90.39228,38.81638,148],[-90.39227,38.81641,147],[-90.39223,38.81643,148],[-90.3922,38.81644,149],[-90.39218,38.81647,149],[-90.39215,38.81648,149],[-90.39212,38.8165,150],[-90.3921,38.81653,150],[-90.39208,38.81655,150],[-90.39205,38.81657,150],[-90.39204,38.8166,150],[-90.39201,38.81662,150],[-90.39198,38.81664,150],[-90.39197,38.81667,150],[-90.39196,38.8167,150],[-90.39194,38.81672,150],[-90.39191,38.81674,150],[-90.39188,38.81676,151],[-90.39189,38.8168,150],[-90.3919,38.81684,149],[-90.39186,38.81684,150],[-90.39182,38.81684,150],[-90.39178,38.81685,150],[-90.39175,38.81687,149],[-90.39172,38.8169,149],[-90.39169,38.81692,148],[-90.39165,38.81692,149],[-90.3916,38.81691,150],[-90.39156,38.81693,150],[-90.39155,38.81696,149],[-90.39152,38.81698,149],[-90.39149,38.81699,149],[-90.39145,38.817,149],[-90.39142,38.81701,149],[-90.39138,38.81703,149],[-90.39134,38.81704,149],[-90.39131,38.81707,148],[-90.3913,38.8171,147],[-90.39126,38.81711,148],[-90.39122,38.81712,148],[-90.39119,38.81714,148],[-90.39116,38.81716,147],[-90.39112,38.81718,147],[-90.39109,38.8172,147],[-90.39106,38.81721,147],[-90.39104,38.81724,146],[-90.39103,38.81728,145],[-90.39101,38.8173,145],[-90.39097,38.81732,145],[-90.39094,38.81735,145],[-90.39093,38.81737,144],[-90.39092,38.8174,143],[-90.39089,38.81742,143],[-90.39087,38.81745,143],[-90.39086,38.81748,142],[-90.39088,38.8175,141],[-90.3909,38.81748,141],[-90.39093,38.81745,142],[-90.39095,38.81742,143],[-90.39096,38.81739,143],[-90.39093,38.81736,145],[-90.39089,38.81735,146],[-90.39086,38.81734,146],[-90.39082,38.81734,147],[-90.39078,38.81736,147],[-90.39075,38.81737,147],[-90.39072,38.81738,147],[-90.39067,38.81739,148],[-90.39063,38.8174,148],[-90.3906,38.81741,148],[-90.39056,38.81743,148],[-90.39052,38.81743,148],[-90.39051,38.81741,149],[-90.39047,38.8174,150],[-90.39044,38.81741,150],[-90.39042,38.81744,149],[-90.39041,38.81746,148],[-90.39039,38.81744,149],[-90.3904,38.81741,150],[-90.39041,38.81738,151],[-90.39037,38.81737,151],[-90.39033,38.81738,152],[-90.3903,38.81738,152],[-90.39028,38.81741,151],[-90.39025,38.81743,151],[-90.39023,38.81741,152],[-90.39028,38.8174,151],[-90.39028,38.81736,153],[-90.39024,38.81734,153],[-90.3902,38.81733,154],[-90.39017,38.81732,154],[-90.39017,38.81729,155],[-90.39015,38.81726,156],[-90.39013,38.81724,157],[-90.39011,38.81721,157],[-90.39013,38.81719,158],[-90.39014,38.81716,159],[-90.39011,38.81717,159],[-90.3901,38.81721,157],[-90.3901,38.81724,157],[-90.39007,38.81725,157],[-90.39006,38.81728,156],[-90.39005,38.81725,157],[-90.39009,38.81723,157],[-90.3901,38.8172,158],[-90.39009,38.81717,159],[-90.39009,38.81713,160],[-90.39008,38.8171,161],[-90.39006,38.81707,161],[-90.39003,38.81705,162],[-90.39001,38.81702,163],[-90.39005,38.817,163],[-90.39001,38.81701,163],[-90.38998,38.817,163],[-90.38999,38.81697,164],[-90.39003,38.81697,164],[-90.39,38.81699,163],[-90.38997,38.81698,164],[-90.38999,38.81695,164],[-90.39002,38.81694,165],[-90.39003,38.81697,164],[-90.39007,38.81697,164],[-90.39003,38.81699,164],[-90.38997,38.81699,163],[-90.38993,38.817,163],[-90.38989,38.817,163],[-90.38991,38.81702,163],[-90.3899,38.81705,162],[-90.38993,38.81703,162],[-90.38996,38.81701,163],[-90.38998,38.81698,164],[-90.39,38.81696,164],[-90.39001,38.81693,165],[-90.38999,38.8169,165],[-90.38999,38.81687,166],[-90.39,38.81684,166],[-90.38998,38.81682,166],[-90.38996,38.81678,167],[-90.38993,38.81677,167],[-90.38987,38.81676,167],[-90.38984,38.81674,167],[-90.38989,38.81675,167],[-90.38985,38.81675,167],[-90.38981,38.81677,166],[-90.38989,38.8168,166],[-90.38992,38.81683,166],[-90.38993,38.8168,166],[-90.38989,38.81679,166],[-90.38979,38.81677,166],[-90.3898,38.81674,167],[-90.38983,38.81675,167],[-90.3898,38.81675,167],[-90.38977,38.81677,166],[-90.38976,38.8168,166],[-90.38975,38.81682,165],[-90.38974,38.81679,166],[-90.38978,38.81679,166],[-90.38986,38.81679,166],[-90.38985,38.81677,166],[-90.38983,38.81674,167],[-90.38979,38.81673,167],[-90.38976,38.81671,167],[-90.38972,38.81672,167],[-90.38969,38.81675,166],[-90.38972,38.81675,166],[-90.38975,38.81673,167],[-90.38973,38.81671,167],[-90.38971,38.81668,167],[-90.3897,38.81672,167],[-90.3897,38.81668,167],[-90.38967,38.81666,167],[-90.38964,38.81664,167],[-90.38962,38.81661,168],[-90.38963,38.81659,168],[-90.38964,38.81656,168],[-90.38966,38.81659,168],[-90.38965,38.81662,168],[-90.38963,38.81664,167],[-90.38963,38.81667,167],[-90.38967,38.81669,167],[-90.3897,38.81671,167],[-90.38972,38.81669,167],[-90.38971,38.81671,167],[-90.38975,38.81671,167],[-90.38972,38.8167,167],[-90.38969,38.8167,167],[-90.38969,38.81673,167],[-90.3897,38.81676,166],[-90.38972,38.81679,166],[-90.38973,38.81674,167],[-90.38971,38.81671,167],[-90.38971,38.81668,167],[-90.38969,38.81666,167],[-90.38972,38.81667,167],[-90.38972,38.81664,168],[-90.3897,38.81661,168],[-90.38969,38.81658,168],[-90.3897,38.81655,168],[-90.3897,38.81652,168],[-90.3897,38.81649,169],[-90.38967,38.81647,169],[-90.38964,38.81645,169],[-90.38964,38.81642,169],[-90.38963,38.81639,169],[-90.38963,38.81635,170],[-90.38964,38.81633,170],[-90.38961,38.81633,170],[-90.38957,38.81633,170],[-90.38961,38.81633,170],[-90.38964,38.81631,170],[-90.3896,38.81632,170],[-90.38964,38.81631,170],[-90.38965,38.81629,170],[-90.38962,38.81627,170],[-90.38961,38.81625,171],[-90.38963,38.81623,171],[-90.38965,38.81625,171],[-90.38967,38.81622,171],[-90.38967,38.81619,171],[-90.38963,38.81618,171],[-90.38959,38.81617,171],[-90.38956,38.81616,171],[-90.38958,38.81613,172],[-90.38955,38.81612,172],[-90.38954,38.81615,171],[-90.38958,38.81616,171],[-90.38956,38.81618,171],[-90.38957,38.81621,171],[-90.38955,38.81624,171],[-90.38956,38.81621,171],[-90.38957,38.81618,171],[-90.38956,38.81615,171],[-90.38956,38.81612,172],[-90.38955,38.81609,172],[-90.38951,38.81609,172],[-90.38947,38.8161,172],[-90.38947,38.81613,171],[-90.38951,38.81612,172],[-90.38951,38.81609,172],[-90.38948,38.81607,172],[-90.38948,38.81604,172],[-90.38947,38.81602,173],[-90.38947,38.81599,173],[-90.38946,38.81596,173],[-90.38944,38.81594,173],[-90.38941,38.81592,174],[-90.38938,38.8159,174],[-90.38935,38.81588,174],[-90.38935,38.81585,174],[-90.38935,38.81582,175],[-90.38936,38.81579,176],[-90.38935,38.81576,176],[-90.38933,38.81573,177],[-90.38932,38.8157,178],[-90.3893,38.81569,178],[-90.38926,38.81567,179],[-90.38923,38.81566,179],[-90.38925,38.81563,180],[-90.38926,38.81561,180],[-90.38924,38.81558,181],[-90.38922,38.81555,182],[-90.38921,38.81552,183],[-90.38919,38.81549,183],[-90.38916,38.81547,184],[-90.38913,38.81547,184],[-90.38909,38.81548,184],[-90.38906,38.81546,184],[-90.38905,38.81544,184],[-90.38903,38.81541,185],[-90.38901,38.81538,185],[-90.38899,38.81536,185],[-90.38896,38.81534,186],[-90.38894,38.81531,186],[-90.38893,38.81528,186],[-90.38893,38.81526,187],[-90.38894,38.81523,187],[-90.38895,38.8152,187],[-90.38892,38.81518,187],[-90.38892,38.81515,187],[-90.38895,38.81516,187],[-90.38893,38.81513,187],[-90.38893,38.8151,187],[-90.38892,38.81506,187],[-90.38891,38.81503,187],[-90.3889,38.815,188],[-90.38889,38.81497,188],[-90.38893,38.81497,188],[-90.38897,38.81497,188],[-90.389,38.81495,188],[-90.38901,38.81492,188],[-90.38902,38.81489,188],[-90.38901,38.81487,188],[-90.389,38.81483,188],[-90.38897,38.81481,188],[-90.38895,38.81478,188],[-90.38892,38.81476,188],[-90.38889,38.81475,188],[-90.38885,38.81474,189],[-90.38881,38.81474,189],[-90.38877,38.81474,189],[-90.38875,38.81472,189],[-90.38872,38.81471,189],[-90.3887,38.81469,190],[-90.38866,38.81468,190],[-90.38864,38.8147,190],[-90.3887,38.81473,189],[-90.38866,38.81473,189],[-90.38865,38.8147,190],[-90.38869,38.8147,190],[-90.38865,38.8147,190],[-90.38861,38.81469,190],[-90.38857,38.81468,191],[-90.38859,38.8147,190],[-90.38862,38.8147,190],[-90.38868,38.8147,190],[-90.38868,38.81473,189],[-90.38868,38.81469,190],[-90.3887,38.81472,189],[-90.38866,38.81472,189],[-90.38868,38.81469,190],[-90.38871,38.81471,189],[-90.38872,38.81474,189],[-90.38869,38.81475,189],[-90.3887,38.81472,189],[-90.38867,38.81471,190],[-90.3887,38.8147,190],[-90.38873,38.81471,189],[-90.38876,38.81469,190],[-90.38863,38.81467,191],[-90.38867,38.81467,190],[-90.38863,38.81468,190],[-90.3886,38.81469,190],[-90.38855,38.81469,191],[-90.38852,38.81468,192],[-90.38855,38.8147,191],[-90.38859,38.81468,191],[-90.38862,38.81468,191],[-90.38866,38.81467,191],[-90.3887,38.81467,190],[-90.38869,38.81464,191],[-90.38866,38.81466,191],[-90.38863,38.81467,191],[-90.38861,38.8147,190],[-90.3886,38.81467,191],[-90.38858,38.81471,190],[-90.38856,38.81474,190],[-90.38852,38.81475,191],[-90.38849,38.81475,191],[-90.38845,38.81476,192],[-90.38842,38.81474,193],[-90.38839,38.81474,193],[-90.38835,38.81475,193],[-90.38836,38.81477,193],[-90.38839,38.81479,192],[-90.38843,38.81479,192],[-90.38846,38.81477,191],[-90.38845,38.8148,191],[-90.38842,38.81478,192],[-90.38839,38.81477,192],[-90.38836,38.81475,193],[-90.38833,38.81478,193],[-90.3883,38.81477,194],[-90.38826,38.81475,194],[-90.38824,38.81477,194],[-90.38819,38.81477,194],[-90.38815,38.81477,195],[-90.38813,38.81475,195],[-90.38815,38.81477,195],[-90.38818,38.81479,194],[-90.38816,38.81477,195],[-90.38812,38.81477,195],[-90.38809,38.81478,195],[-90.38806,38.81478,195],[-90.38802,38.81478,195],[-90.38798,38.81479,196],[-90.38794,38.81479,196],[-90.38791,38.81478,196],[-90.38787,38.81478,197],[-90.38782,38.81478,197],[-90.38778,38.81478,197],[-90.38774,38.81478,198],[-90.38771,38.81478,198],[-90.38767,38.81478,198],[-90.38763,38.81478,199],[-90.38761,38.81476,199],[-90.38758,38.81474,200],[-90.38755,38.81472,200],[-90.38752,38.81475,200],[-90.38748,38.81476,200],[-90.38742,38.81476,201],[-90.38748,38.81476,200],[-90.38752,38.81474,200],[-90.38754,38.81472,200],[-90.38755,38.81469,200],[-90.38754,38.81467,200],[-90.38751,38.81466,200],[-90.38747,38.81465,201],[-90.38742,38.81464,201],[-90.38738,38.81466,201],[-90.38734,38.81467,202],[-90.38731,38.81466,202],[-90.38728,38.81464,202],[-90.38726,38.81462,202],[-90.38722,38.81461,202],[-90.38718,38.8146,203],[-90.38714,38.81459,203],[-90.3871,38.81459,203],[-90.38706,38.81458,203],[-90.38702,38.81458,203],[-90.38698,38.81458,203],[-90.38694,38.81456,203],[-90.38693,38.81454,203],[-90.38693,38.81451,203],[-90.3869,38.81449,203],[-90.38686,38.81449,203],[-90.38682,38.81449,203],[-90.38678,38.81447,203],[-90.38676,38.81445,203],[-90.38673,38.81443,202],[-90.38669,38.8144,202],[-90.38666,38.81438,202],[-90.38662,38.81437,202],[-90.38659,38.81435,202],[-90.38658,38.81432,201],[-90.38657,38.81428,201],[-90.38656,38.81425,201],[-90.38655,38.81423,200],[-90.38652,38.81421,200],[-90.3865,38.81418,199],[-90.38646,38.81417,199],[-90.38643,38.81417,199],[-90.38639,38.81418,199],[-90.38642,38.81416,199],[-90.38646,38.81414,199],[-90.3865,38.81413,199],[-90.38654,38.81413,199],[-90.38658,38.81413,199],[-90.38662,38.81413,200],[-90.38666,38.81413,200],[-90.38671,38.81412,200],[-90.38675,38.81412,200],[-90.38679,38.81411,200],[-90.38683,38.8141,200],[-90.38687,38.8141,200],[-90.38691,38.81409,201],[-90.38694,38.81408,201],[-90.38695,38.81406,200],[-90.38693,38.81403,200],[-90.38696,38.81401,200],[-90.38693,38.81399,200],[-90.38694,38.81396,199],[-90.38697,38.81397,199],[-90.38699,38.81399,200],[-90.387,38.81402,200],[-90.38699,38.81399,200],[-90.38699,38.81402,200],[-90.38698,38.81405,200],[-90.38702,38.81405,200],[-90.38706,38.81405,200],[-90.38709,38.81404,200],[-90.38712,38.81402,200],[-90.38716,38.81403,200],[-90.38719,38.81403,200],[-90.38723,38.81402,200],[-90.38727,38.81402,200],[-90.3873,38.81401,200],[-90.38734,38.81401,200],[-90.38738,38.814,200],[-90.38742,38.814,200],[-90.38745,38.81398,200],[-90.38749,38.81399,200],[-90.38748,38.81402,200],[-90.38749,38.81399,200],[-90.3875,38.81402,200],[-90.3875,38.81399,200],[-90.38747,38.81397,200],[-90.38746,38.814,200],[-90.38749,38.81401,200],[-90.38752,38.814,200],[-90.38756,38.81399,200],[-90.38759,38.81398,200],[-90.38763,38.81398,200],[-90.38765,38.81395,200],[-90.38764,38.81392,200],[-90.38763,38.81389,199],[-90.3876,38.81389,199],[-90.38757,38.81387,199],[-90.38756,38.81385,199],[-90.38752,38.81382,199],[-90.3875,38.8138,198],[-90.38751,38.81377,198],[-90.38752,38.81374,197],[-90.38754,38.81371,197],[-90.38755,38.81368,197],[-90.38756,38.81365,196],[-90.38757,38.81361,196],[-90.38757,38.81358,196],[-90.38758,38.81356,196],[-90.38758,38.81353,195],[-90.38759,38.8135,195],[-90.3876,38.81347,195],[-90.3876,38.81344,195],[-90.3876,38.81341,195],[-90.3876,38.81338,195],[-90.3876,38.81335,194],[-90.3876,38.81331,194],[-90.38765,38.81332,194],[-90.38768,38.81331,195],[-90.38773,38.81331,195],[-90.38776,38.81331,195],[-90.3878,38.8133,195],[-90.38784,38.8133,195],[-90.38787,38.81329,195],[-90.3879,38.81327,195],[-90.38792,38.81324,194],[-90.38791,38.81321,194],[-90.38796,38.8132,193],[-90.38798,38.81317,193],[-90.38799,38.81314,192],[-90.38801,38.81311,192],[-90.38802,38.81309,191],[-90.38805,38.81306,191],[-90.38807,38.81303,190],[-90.38808,38.81299,189],[-90.38806,38.81296,189],[-90.38805,38.81293,189],[-90.38806,38.8129,189],[-90.38808,38.81288,188],[-90.3881,38.81285,187],[-90.3881,38.81282,187],[-90.38808,38.8128,187],[-90.38807,38.81277,187],[-90.3881,38.81279,186],[-90.38813,38.8128,186],[-90.38817,38.81278,184],[-90.3882,38.81276,183],[-90.38821,38.81274,182],[-90.38822,38.81277,183],[-90.38822,38.81274,182],[-90.38825,38.81272,181],[-90.38829,38.81274,180],[-90.38832,38.81275,179],[-90.38836,38.81274,178],[-90.38839,38.81273,177],[-90.38842,38.81271,175],[-90.38846,38.81271,174],[-90.38848,38.81269,173],[-90.38851,38.81267,172],[-90.38855,38.81266,171],[-90.38858,38.81264,170],[-90.38859,38.81261,170],[-90.3886,38.81258,169],[-90.38862,38.81255,169],[-90.38864,38.81252,168],[-90.38865,38.81249,168],[-90.38867,38.81247,167],[-90.38866,38.81244,167],[-90.38864,38.81241,166],[-90.3886,38.8124,167],[-90.38859,38.81237,167],[-90.38862,38.81234,166],[-90.38865,38.81233,165],[-90.38867,38.8123,164],[-90.38871,38.81229,164],[-90.38874,38.81229,163],[-90.38877,38.81226,163],[-90.38879,38.81224,162],[-90.38881,38.81222,162],[-90.38882,38.81219,162],[-90.38883,38.81216,161],[-90.38883,38.81213,160],[-90.38883,38.8121,160],[-90.38879,38.8121,161],[-90.38879,38.81214,161],[-90.3888,38.81217,161],[-90.38877,38.81215,161],[-90.3888,38.81217,161],[-90.38881,38.8122,162],[-90.3888,38.81217,161],[-90.3888,38.81214,161],[-90.38881,38.81211,160],[-90.38879,38.81208,160],[-90.38878,38.81205,160],[-90.38876,38.81203,160],[-90.38873,38.81201,160],[-90.3887,38.81199,160],[-90.38868,38.81196,160],[-90.38868,38.81194,160],[-90.38864,38.81192,161],[-90.38861,38.8119,162],[-90.3886,38.81186,163],[-90.38859,38.81183,163],[-90.38859,38.8118,163],[-90.38862,38.81179,163],[-90.38865,38.81177,163],[-90.38867,38.81174,163],[-90.38869,38.81172,163],[-90.38871,38.8117,162],[-90.38874,38.81168,162],[-90.38877,38.81166,162],[-90.38878,38.81163,161],[-90.3888,38.8116,161],[-90.38881,38.81157,160],[-90.38878,38.81159,161],[-90.38875,38.81157,162],[-90.38874,38.81154,162],[-90.38879,38.81154,161],[-90.38882,38.81156,160],[-90.38887,38.81156,159],[-90.3889,38.81155,158],[-90.38893,38.81154,157],[-90.38897,38.81152,156],[-90.389,38.81151,156],[-90.38903,38.8115,155],[-90.38907,38.8115,154],[-90.38911,38.8115,153],[-90.38914,38.81148,152],[-90.38916,38.81146,152],[-90.38919,38.81144,152],[-90.38922,38.81142,152],[-90.38925,38.81141,152],[-90.38926,38.81138,152],[-90.38929,38.81138,152],[-90.38933,38.81137,152],[-90.38932,38.81134,152],[-90.38935,38.81136,152],[-90.38938,38.81137,152],[-90.38937,38.8114,152],[-90.38941,38.81139,152],[-90.38944,38.81137,152],[-90.38946,38.81134,151],[-90.38946,38.81132,151],[-90.38947,38.81128,151],[-90.38951,38.81126,151],[-90.38953,38.81123,151],[-90.3895,38.81121,151],[-90.3895,38.81119,151],[-90.38954,38.81117,151],[-90.3895,38.81118,151],[-90.38953,38.81115,151],[-90.38957,38.81114,151],[-90.3896,38.81114,151],[-90.38964,38.81115,151],[-90.38968,38.81117,150],[-90.38971,38.81119,150],[-90.38975,38.81119,150],[-90.38979,38.81118,149],[-90.38982,38.81117,149],[-90.38985,38.81115,149],[-90.38988,38.81114,148],[-90.38992,38.81113,147],[-90.38997,38.81113,147],[-90.39,38.81114,146],[-90.39004,38.81114,146],[-90.39009,38.81114,145],[-90.39012,38.81116,145],[-90.39017,38.81116,144],[-90.39021,38.81117,143],[-90.39025,38.81117,143],[-90.39028,38.81117,142],[-90.39032,38.81116,142],[-90.39035,38.81116,142],[-90.3904,38.81117,142],[-90.39043,38.81119,142],[-90.39046,38.81121,142],[-90.39049,38.81123,142],[-90.39051,38.81126,142],[-90.39054,38.81128,142],[-90.39058,38.81128,142],[-90.39063,38.81128,142],[-90.39067,38.81127,142],[-90.39069,38.81124,142],[-90.39072,38.81122,142],[-90.39076,38.8112,141],[-90.3908,38.8112,141],[-90.39084,38.81121,141],[-90.39086,38.81123,141],[-90.39087,38.81127,141],[-90.3909,38.81129,141],[-90.39092,38.81132,141],[-90.39095,38.81135,141],[-90.39098,38.81137,141],[-90.391,38.81139,141],[-90.39102,38.81142,142],[-90.39105,38.81145,142],[-90.39106,38.81147,142],[-90.39108,38.8115,142],[-90.39108,38.81153,143],[-90.39107,38.81156,143],[-90.39105,38.81158,144],[-90.39103,38.81161,144],[-90.391,38.81163,145],[-90.39096,38.81164,145],[-90.39094,38.81166,146],[-90.39093,38.8117,146],[-90.39092,38.81172,147],[-90.39091,38.81175,147],[-90.3909,38.81178,147],[-90.3909,38.81181,148],[-90.3909,38.81184,148],[-90.39091,38.81188,149],[-90.39091,38.8119,149],[-90.39091,38.81193,149],[-90.3909,38.81197,149],[-90.39089,38.812,149],[-90.39088,38.81203,149],[-90.39087,38.81206,149],[-90.39085,38.81208,149],[-90.39084,38.81212,149],[-90.39084,38.81214,149],[-90.39085,38.81217,149],[-90.39086,38.81221,149],[-90.39086,38.81224,149],[-90.39087,38.81227,148],[-90.39088,38.81229,148],[-90.3909,38.81232,147],[-90.39091,38.81235,146],[-90.39092,38.81238,145],[-90.39094,38.8124,145],[-90.39095,38.81243,144],[-90.39095,38.81246,143],[-90.39095,38.81249,142],[-90.39095,38.81252,143],[-90.39095,38.81255,143],[-90.39096,38.81259,144],[-90.39098,38.81262,145],[-90.39098,38.81265,145],[-90.39099,38.81268,146],[-90.391,38.81271,147],[-90.391,38.81274,147],[-90.391,38.81277,148],[-90.39101,38.8128,149],[-90.39104,38.81282,149],[-90.39106,38.81284,149],[-90.39107,38.81288,150],[-90.39108,38.81291,150],[-90.3911,38.81294,151],[-90.39113,38.81296,151],[-90.39114,38.81299,151],[-90.39115,38.81302,152],[-90.39116,38.81305,153],[-90.39117,38.81308,153],[-90.39119,38.81311,153],[-90.39121,38.81313,152],[-90.39124,38.81316,152],[-90.39127,38.81318,152],[-90.39128,38.81321,152],[-90.39132,38.81323,151],[-90.39135,38.81325,151],[-90.39137,38.81328,151],[-90.3914,38.8133,150],[-90.39143,38.81332,150],[-90.39146,38.81335,149],[-90.39149,38.81337,149],[-90.39153,38.81338,148],[-90.39155,38.81339,148],[-90.39157,38.81342,147],[-90.39159,38.81345,146],[-90.3916,38.81349,146],[-90.3916,38.81351,145],[-90.39161,38.81354,145],[-90.3916,38.81357,145],[-90.39159,38.8136,145],[-90.3916,38.81363,144],[-90.39162,38.81366,145],[-90.39166,38.81368,144],[-90.3917,38.81369,143],[-90.39173,38.8137,143],[-90.39175,38.81373,143],[-90.39178,38.81376,143],[-90.3918,38.81379,142],[-90.39183,38.81381,142],[-90.39186,38.81383,141],[-90.3919,38.81385,139],[-90.39193,38.81387,138],[-90.39196,38.8139,138],[-90.39198,38.81392,138],[-90.39201,38.81394,139],[-90.39205,38.81396,140],[-90.39209,38.81399,141],[-90.39211,38.81401,142],[-90.39213,38.81403,143],[-90.39214,38.81406,144],[-90.39213,38.81403,143],[-90.3921,38.81403,143],[-90.39206,38.81405,144],[-90.39206,38.81408,146],[-90.39203,38.81406,145],[-90.39199,38.81405,145],[-90.39195,38.81406,146],[-90.39192,38.81407,147],[-90.39188,38.81408,149],[-90.39187,38.81411,151],[-90.39186,38.81414,152],[-90.39184,38.81415,153],[-90.39181,38.81418,155],[-90.39179,38.8142,156],[-90.39177,38.81422,157],[-90.39177,38.81425,158],[-90.39177,38.81428,159],[-90.39179,38.81431,159],[-90.39181,38.81433,159],[-90.39179,38.81436,161],[-90.39178,38.81439,162],[-90.39179,38.81442,162],[-90.39181,38.81445,163],[-90.3918,38.81448,163],[-90.39182,38.81452,163],[-90.39184,38.81455,163],[-90.39186,38.81457,163],[-90.39187,38.8146,163],[-90.39188,38.81463,163],[-90.39188,38.81466,164],[-90.39188,38.81469,164],[-90.39189,38.81472,164],[-90.39192,38.81475,163],[-90.39193,38.81478,164],[-90.39193,38.8148,164],[-90.39192,38.81483,164],[-90.3919,38.81485,165],[-90.39188,38.81487,166],[-90.39189,38.81491,166],[-90.39191,38.81494,166],[-90.39194,38.81496,165],[-90.39196,38.815,165],[-90.39198,38.81503,166],[-90.39199,38.81507,167],[-90.39199,38.81509,168],[-90.39197,38.81512,169],[-90.39196,38.81515,171],[-90.39195,38.81518,172],[-90.39194,38.81521,173],[-90.39192,38.81523,174],[-90.39192,38.81526,175],[-90.39193,38.81529,176],[-90.39194,38.81533,176],[-90.39195,38.81536,176],[-90.39196,38.81539,176],[-90.39197,38.81542,176],[-90.39197,38.81545,176],[-90.39197,38.81548,176],[-90.39196,38.81551,177],[-90.39195,38.81553,177],[-90.39193,38.81556,178],[-90.39193,38.81559,177],[-90.39193,38.81562,176],[-90.39193,38.81565,176],[-90.39197,38.81566,174],[-90.392,38.81567,173],[-90.39197,38.81569,174],[-90.39194,38.81567,175],[-90.39192,38.81565,176],[-90.39194,38.81567,175],[-90.39192,38.8157,175],[-90.39194,38.81567,175],[-90.39197,38.81567,174],[-90.39193,38.81567,175],[-90.3919,38.81565,176],[-90.39186,38.81564,177],[-90.39182,38.81563,178],[-90.39177,38.81564,179],[-90.39173,38.81565,180],[-90.39169,38.81564,181],[-90.39168,38.81561,182],[-90.39168,38.81558,182],[-90.39165,38.81556,183],[-90.39161,38.81554,183],[-90.39158,38.81552,183],[-90.39155,38.8155,183],[-90.39152,38.81553,183],[-90.39153,38.81555,183],[-90.39155,38.81558,183],[-90.39158,38.81558,183],[-90.39162,38.81559,182],[-90.39158,38.81558,183],[-90.39156,38.81555,183],[-90.39153,38.81553,183],[-90.39151,38.81551,184],[-90.39149,38.81548,184],[-90.39146,38.81545,184],[-90.39142,38.81543,185],[-90.39139,38.81542,185],[-90.39135,38.81541,185],[-90.39131,38.81539,185],[-90.39128,38.81539,185],[-90.39124,38.81538,186],[-90.39119,38.81538,186],[-90.39115,38.81538,186],[-90.39111,38.81539,186],[-90.39108,38.81539,186],[-90.39104,38.8154,186],[-90.39101,38.81542,186],[-90.39097,38.81543,186],[-90.39093,38.81545,185],[-90.39089,38.81546,185],[-90.39086,38.81546,185],[-90.39082,38.81548,185],[-90.39079,38.81549,185],[-90.39075,38.81547,184],[-90.39072,38.81546,184],[-90.39069,38.81544,184],[-90.39065,38.81543,183],[-90.39062,38.81543,183],[-90.39058,38.81543,183],[-90.39054,38.81542,182],[-90.3905,38.81542,182],[-90.39046,38.81541,181],[-90.39043,38.8154,181],[-90.3904,38.81538,181],[-90.39037,38.81538,181],[-90.39032,38.81539,180],[-90.39029,38.81537,180],[-90.39026,38.81535,180],[-90.39022,38.81534,181],[-90.39018,38.81534,181],[-90.39013,38.81534,181],[-90.39009,38.81532,181],[-90.39007,38.8153,181],[-90.39004,38.81528,181],[-90.39001,38.81526,182],[-90.38999,38.81523,183],[-90.38995,38.81523,183],[-90.38992,38.81522,183],[-90.3899,38.81519,184],[-90.38987,38.81517,184],[-90.38985,38.81515,185],[-90.38983,38.81513,186],[-90.38981,38.8151,186],[-90.38979,38.81508,187],[-90.38976,38.81506,187],[-90.38973,38.81504,188],[-90.3897,38.81502,188],[-90.38967,38.815,188],[-90.38965,38.81498,188],[-90.38962,38.81496,189],[-90.38959,38.81494,189],[-90.38956,38.81492,189],[-90.38955,38.81489,189],[-90.38957,38.81485,190],[-90.38958,38.81489,189],[-90.38956,38.81486,189],[-90.38954,38.81484,190],[-90.38953,38.81481,190],[-90.38954,38.81478,190],[-90.38955,38.81474,191],[-90.38954,38.81472,191],[-90.38954,38.81468,191],[-90.38954,38.81464,190],[-90.38955,38.81461,190],[-90.38956,38.81458,190],[-90.38955,38.81454,190],[-90.38954,38.81452,190],[-90.38954,38.81449,189],[-90.38953,38.81446,189],[-90.38954,38.81442,189],[-90.38953,38.81439,189],[-90.38951,38.81436,188],[-90.38949,38.81434,188],[-90.38947,38.81432,188],[-90.38943,38.81432,189],[-90.38943,38.81435,189],[-90.38945,38.81432,189],[-90.38942,38.81431,189],[-90.38938,38.81429,189],[-90.38935,38.81428,190],[-90.38931,38.81426,190],[-90.38929,38.81424,190],[-90.38924,38.81423,191],[-90.38921,38.8142,192],[-90.38919,38.81418,192],[-90.38915,38.81417,192],[-90.38912,38.81415,192],[-90.38911,38.81418,192],[-90.38914,38.81418,192],[-90.38917,38.8142,192],[-90.38915,38.81418,192],[-90.38912,38.81416,192],[-90.38912,38.81419,192],[-90.38913,38.81422,192],[-90.38911,38.8142,192],[-90.38908,38.81418,192],[-90.38905,38.81416,192],[-90.38901,38.81416,192],[-90.38899,38.81418,192],[-90.38895,38.81416,192],[-90.38892,38.81415,192],[-90.38888,38.81413,192],[-90.38884,38.81413,193],[-90.38881,38.81411,193],[-90.38879,38.81414,194],[-90.38877,38.81411,194],[-90.38873,38.81409,194],[-90.38869,38.81409,195],[-90.38865,38.81408,195],[-90.38861,38.81407,196],[-90.38858,38.81407,196],[-90.38855,38.81405,196],[-90.38852,38.81403,196],[-90.38849,38.81402,197],[-90.38846,38.814,197],[-90.38843,38.81401,197],[-90.3884,38.81399,197],[-90.38843,38.81399,197],[-90.38845,38.81402,197],[-90.38848,38.81404,197],[-90.38844,38.81403,197],[-90.38841,38.81401,197],[-90.38838,38.814,197],[-90.38834,38.81398,198],[-90.38832,38.814,198],[-90.38829,38.81399,198],[-90.3883,38.81396,198],[-90.38827,38.81393,198],[-90.38825,38.81391,198],[-90.38821,38.81389,198],[-90.38818,38.81388,198],[-90.38813,38.81388,198],[-90.38809,38.81388,198],[-90.38805,38.81388,199],[-90.38802,38.81388,199],[-90.38798,38.81389,199],[-90.38794,38.81389,199],[-90.38789,38.81389,199],[-90.38784,38.81391,199],[-90.38779,38.81391,199],[-90.38776,38.81391,200],[-90.38772,38.81392,200],[-90.38768,38.81392,200],[-90.38764,38.81391,200],[-90.38762,38.81388,199],[-90.3876,38.81385,199],[-90.38756,38.81383,199],[-90.38753,38.81381,198],[-90.38751,38.81378,198],[-90.38748,38.81376,198],[-90.38744,38.81376,197],[-90.3874,38.81377,197],[-90.38738,38.81379,197],[-90.38736,38.81381,198],[-90.38732,38.81382,198],[-90.38729,38.81384,198],[-90.38726,38.81383,198],[-90.38722,38.81384,198],[-90.38719,38.81386,198],[-90.38717,38.81389,198],[-90.38714,38.81387,198],[-90.38711,38.81386,198],[-90.38708,38.81387,198],[-90.38705,38.81389,198],[-90.38701,38.81389,198],[-90.38697,38.81389,198],[-90.38694,38.8139,199],[-90.38691,38.81391,199],[-90.38686,38.81392,199],[-90.38682,38.81391,198],[-90.38679,38.81391,198],[-90.38675,38.81392,198],[-90.38673,38.81394,198],[-90.3867,38.81396,198],[-90.38666,38.81396,198],[-90.38664,38.81399,198],[-90.38662,38.81401,198],[-90.38658,38.81402,198],[-90.38655,38.81401,198],[-90.38651,38.81401,198],[-90.38647,38.81402,197],[-90.38646,38.81405,198],[-90.38645,38.81408,198],[-90.38643,38.81411,198],[-90.38644,38.81414,199],[-90.38647,38.81415,199],[-90.3865,38.81418,199],[-90.3865,38.8142,200],[-90.38651,38.81423,200],[-90.38652,38.81426,200],[-90.38654,38.81429,201],[-90.38657,38.8143,201],[-90.3866,38.81432,201],[-90.38663,38.81435,202],[-90.38666,38.81436,202],[-90.38668,38.81439,202],[-90.38672,38.8144,202],[-90.38674,38.81443,202],[-90.38677,38.81445,203],[-90.3868,38.81447,203],[-90.38683,38.8145,203],[-90.38687,38.81451,203],[-90.3869,38.81452,203],[-90.38693,38.81455,203],[-90.38695,38.81458,203],[-90.38699,38.81458,203],[-90.38703,38.81458,203],[-90.38708,38.81459,203],[-90.38709,38.81456,203],[-90.38711,38.81458,203],[-90.38715,38.8146,203],[-90.38719,38.81461,203],[-90.38722,38.81463,202],[-90.38726,38.81465,202],[-90.38728,38.81467,202],[-90.3873,38.8147,202],[-90.38734,38.81471,202],[-90.38738,38.81471,201],[-90.38742,38.81471,201],[-90.38745,38.81469,201],[-90.3875,38.81469,201],[-90.38753,38.81471,200],[-90.38755,38.81473,200],[-90.38756,38.81476,200],[-90.38759,38.81477,199],[-90.38763,38.81479,199],[-90.38767,38.8148,198],[-90.3877,38.81481,198],[-90.38774,38.81482,197],[-90.38777,38.81483,197],[-90.38784,38.81485,196],[-90.38788,38.81487,195],[-90.38791,38.81487,195],[-90.38795,38.81486,194],[-90.38799,38.81484,195],[-90.38801,38.81481,195],[-90.38805,38.81482,194],[-90.38809,38.81483,194],[-90.38813,38.81482,194],[-90.38817,38.81481,194],[-90.38821,38.81481,193],[-90.38825,38.8148,193],[-90.38828,38.8148,193],[-90.38832,38.8148,193],[-90.38836,38.8148,192],[-90.38839,38.81479,192],[-90.38843,38.81478,192],[-90.38847,38.81476,191],[-90.3885,38.81475,191],[-90.38854,38.81476,190],[-90.38859,38.81475,190],[-90.38862,38.81473,189],[-90.38865,38.81471,190],[-90.38867,38.81468,190],[-90.38867,38.81465,191],[-90.3887,38.81467,190],[-90.38872,38.81471,189],[-90.38875,38.81473,189],[-90.38877,38.81475,189],[-90.3888,38.81477,189],[-90.38884,38.81479,188],[-90.38886,38.81482,188],[-90.38889,38.81484,188],[-90.38892,38.81486,188],[-90.38893,38.81489,188],[-90.38892,38.81492,188],[-90.38889,38.81495,188],[-90.38886,38.81496,188],[-90.38883,38.81497,188],[-90.3888,38.81501,187],[-90.3888,38.81504,187],[-90.38879,38.81509,187],[-90.38878,38.81512,187],[-90.3888,38.81514,187],[-90.38885,38.81515,187],[-90.38888,38.81517,187],[-90.38886,38.81519,187],[-90.38886,38.81522,187],[-90.38886,38.81525,187],[-90.38885,38.81529,186],[-90.38884,38.81532,186],[-90.38888,38.81535,185],[-90.38891,38.81536,185],[-90.38895,38.81534,186],[-90.38897,38.81537,185],[-90.38899,38.8154,185],[-90.389,38.81544,184],[-90.38902,38.81547,184],[-90.38903,38.8155,183],[-90.38907,38.81551,183],[-90.38911,38.81552,183],[-90.38916,38.81552,183],[-90.38919,38.81555,182],[-90.38922,38.81557,182],[-90.38922,38.81561,181],[-90.38922,38.81565,179],[-90.38923,38.81569,178],[-90.38924,38.81572,178],[-90.38926,38.81574,177],[-90.38928,38.81577,176],[-90.3893,38.81579,176],[-90.3893,38.81582,175],[-90.38931,38.81585,174],[-90.38932,38.81588,174],[-90.38934,38.81591,174],[-90.38935,38.81594,173],[-90.38989,38.81675,167],[-90.3899,38.81666,168],[-90.38992,38.81647,170],[-90.38995,38.81645,170],[-90.38999,38.81643,170],[-90.39002,38.81642,170],[-90.39006,38.81641,171],[-90.3901,38.81642,171],[-90.39014,38.81641,171],[-90.39016,38.81643,171],[-90.39018,38.81645,171],[-90.39016,38.81648,170],[-90.39015,38.81651,170],[-90.39018,38.81654,170],[-90.3902,38.81656,170],[-90.39023,38.81658,169],[-90.39026,38.81659,169],[-90.39029,38.81661,169],[-90.39029,38.81665,169],[-90.3903,38.81668,168],[-90.39033,38.8167,168],[-90.39035,38.81673,168],[-90.39035,38.81676,167],[-90.39034,38.81678,167],[-90.39035,38.81681,167],[-90.39038,38.81683,167],[-90.39041,38.81686,166],[-90.39043,38.81688,166],[-90.39046,38.81689,166],[-90.3905,38.81689,165],[-90.39053,38.81688,165],[-90.39058,38.81688,165],[-90.39062,38.81686,165],[-90.39064,38.81684,165],[-90.39068,38.81683,165],[-90.39071,38.81681,165],[-90.39074,38.81679,165],[-90.39077,38.81682,164],[-90.39081,38.8168,164],[-90.39083,38.81678,164],[-90.39081,38.81676,165],[-90.39078,38.81676,165],[-90.39082,38.81678,165],[-90.39085,38.81675,165],[-90.39086,38.81673,165],[-90.39089,38.8167,166],[-90.3909,38.81667,166],[-90.3909,38.81664,167],[-90.39094,38.81663,167],[-90.39098,38.81664,167],[-90.391,38.81667,166],[-90.39101,38.81669,165],[-90.39104,38.81671,165],[-90.39107,38.81674,164],[-90.39106,38.81676,163],[-90.39106,38.8168,162],[-90.3911,38.81681,161],[-90.39114,38.81682,161],[-90.39117,38.8168,161],[-90.39117,38.81677,162],[-90.39114,38.81675,163],[-90.39113,38.81678,162],[-90.39117,38.81679,161],[-90.39121,38.81678,161],[-90.39124,38.81677,160],[-90.39127,38.81674,161],[-90.39129,38.81671,162],[-90.39132,38.8167,161],[-90.39133,38.81667,162],[-90.39136,38.81665,162],[-90.39138,38.81662,163],[-90.39141,38.81661,163],[-90.39145,38.8166,162],[-90.39148,38.81657,163],[-90.39151,38.81656,162],[-90.3915,38.81659,161],[-90.3915,38.81656,162],[-90.39151,38.81653,163],[-90.39152,38.8165,164],[-90.39155,38.81647,164],[-90.39157,38.81645,164],[-90.3916,38.81643,164],[-90.39161,38.8164,165],[-90.39163,38.81637,165],[-90.39166,38.81635,165],[-90.39168,38.81632,166],[-90.3917,38.81629,166],[-90.3917,38.81626,167],[-90.39172,38.81623,168],[-90.39172,38.8162,169],[-90.39173,38.81617,170],[-90.39174,38.81614,170],[-90.39175,38.81612,171],[-90.39175,38.81609,172],[-90.39175,38.81606,172],[-90.39177,38.81603,172],[-90.39177,38.816,173],[-90.39177,38.81597,174],[-90.39175,38.81595,175],[-90.39171,38.81593,176],[-90.39166,38.81593,177],[-90.39163,38.81595,177],[-90.3916,38.81595,177],[-90.39156,38.81595,178],[-90.39158,38.81597,177],[-90.39155,38.81596,177],[-90.39152,38.81597,177],[-90.39156,38.81599,177],[-90.39159,38.816,176],[-90.39163,38.81599,176],[-90.39169,38.81596,176],[-90.39173,38.81595,175],[-90.39176,38.81596,174],[-90.39179,38.81594,174],[-90.39179,38.8159,174],[-90.39179,38.81587,175],[-90.39179,38.81584,176],[-90.39179,38.81581,176],[-90.3918,38.81578,177],[-90.3918,38.81576,177],[-90.39178,38.81573,178],[-90.39177,38.8157,179],[-90.39177,38.81566,179],[-90.3918,38.81565,179],[-90.39184,38.81565,178],[-90.39187,38.81566,177],[-90.39191,38.81566,176],[-90.39193,38.81564,176],[-90.39193,38.81561,177],[-90.39195,38.81558,177],[-90.39196,38.81555,177],[-90.39196,38.81552,177],[-90.39197,38.81549,176],[-90.39199,38.81546,175],[-90.392,38.81544,175],[-90.39198,38.8154,175],[-90.39197,38.81536,175],[-90.39197,38.81533,175],[-90.39197,38.8153,175],[-90.39196,38.81527,175],[-90.39195,38.81524,174],[-90.39193,38.81521,173],[-90.39196,38.81518,172],[-90.39198,38.81516,170],[-90.39198,38.81513,169],[-90.39198,38.8151,168],[-90.39199,38.81507,167],[-90.392,38.81504,166],[-90.39198,38.81501,165],[-90.39197,38.81499,165],[-90.39195,38.81496,165],[-90.39194,38.81493,165],[-90.39192,38.8149,165],[-90.39191,38.81487,165],[-90.39194,38.81485,164],[-90.39195,38.81482,163],[-90.39195,38.81479,163],[-90.39193,38.81476,163],[-90.39192,38.81472,163],[-90.39191,38.81469,163],[-90.3919,38.81466,163],[-90.3919,38.81463,162],[-90.39191,38.8146,162],[-90.39189,38.81457,162],[-90.39187,38.81453,162],[-90.39184,38.8145,162],[-90.39182,38.81448,163],[-90.39183,38.81444,162],[-90.39184,38.81442,161],[-90.39184,38.81439,160],[-90.39181,38.81437,160],[-90.39182,38.81434,159],[-90.39182,38.81431,158],[-90.3918,38.81429,158],[-90.3918,38.81425,157],[-90.3918,38.81423,157],[-90.3918,38.81419,156],[-90.39182,38.81417,155],[-90.39185,38.81416,153],[-90.39189,38.81414,152],[-90.3919,38.81412,150],[-90.3919,38.81409,149],[-90.39194,38.81409,148],[-90.39198,38.81409,147],[-90.39202,38.81409,147],[-90.39206,38.81409,147],[-90.3921,38.81409,147],[-90.39214,38.81409,146],[-90.39218,38.81408,145],[-90.39222,38.81407,144],[-90.39225,38.81406,144],[-90.39229,38.81405,143],[-90.39233,38.81403,142],[-90.39234,38.814,141],[-90.39236,38.81397,139],[-90.39237,38.81393,137],[-90.39239,38.8139,136],[-90.39242,38.81387,136],[-90.39243,38.81384,137],[-90.39245,38.81382,137],[-90.39248,38.81379,138],[-90.39251,38.81376,138],[-90.39252,38.81374,138],[-90.39251,38.81371,138],[-90.39253,38.81367,138],[-90.39254,38.81365,138],[-90.39256,38.81362,138],[-90.39258,38.81359,138],[-90.39261,38.81356,138],[-90.39265,38.81354,137],[-90.39267,38.81352,137],[-90.3927,38.81349,137],[-90.39273,38.81347,136],[-90.39275,38.81344,136],[-90.39278,38.81342,135],[-90.39279,38.81339,135],[-90.39281,38.81337,135],[-90.39284,38.81335,134],[-90.39286,38.81332,134],[-90.39288,38.8133,134],[-90.39291,38.81327,133],[-90.39294,38.81325,133],[-90.39298,38.81322,133],[-90.39301,38.8132,133],[-90.39304,38.81317,133],[-90.39306,38.81314,132],[-90.39307,38.81311,132],[-90.3931,38.8131,132],[-90.39313,38.81308,132],[-90.39316,38.81306,132],[-90.39318,38.81303,133],[-90.39322,38.81301,133],[-90.39325,38.813,133],[-90.39328,38.81297,133],[-90.39332,38.81295,133],[-90.39336,38.81292,133],[-90.3934,38.81292,133],[-90.39345,38.81293,133],[-90.39348,38.81296,133],[-90.3935,38.81298,132],[-90.39352,38.813,132],[-90.39353,38.81303,132],[-90.39355,38.81305,132],[-90.39356,38.81308,132],[-90.39359,38.81311,132],[-90.39359,38.81314,132],[-90.3936,38.81316,132],[-90.39361,38.8132,132],[-90.39364,38.81322,132],[-90.39368,38.81323,132],[-90.39371,38.81325,132],[-90.39374,38.81327,132],[-90.39377,38.81329,132],[-90.39381,38.81332,132],[-90.39383,38.81335,132],[-90.39387,38.81337,132],[-90.39391,38.81338,132],[-90.39394,38.81339,132],[-90.39397,38.81341,132],[-90.394,38.81343,132],[-90.39403,38.81345,132],[-90.39406,38.81348,132],[-90.39409,38.8135,132],[-90.39412,38.81353,132],[-90.39416,38.81354,132],[-90.39421,38.81354,133],[-90.39424,38.81355,133],[-90.39427,38.81357,133],[-90.39431,38.81358,133],[-90.39435,38.81361,133],[-90.39438,38.81362,133],[-90.39442,38.81364,133],[-90.39445,38.81366,134],[-90.39449,38.81368,134],[-90.39452,38.81369,134],[-90.39456,38.8137,134],[-90.3946,38.81372,134],[-90.39463,38.81374,135],[-90.39467,38.81377,135],[-90.3947,38.8138,135],[-90.39473,38.81382,135],[-90.39476,38.81384,135],[-90.3948,38.81385,135],[-90.39484,38.81386,135],[-90.39487,38.81388,135],[-90.3949,38.81389,135],[-90.39492,38.81392,134],[-90.39495,38.81394,134],[-90.39498,38.81396,134],[-90.39502,38.81399,135],[-90.39505,38.814,135],[-90.39508,38.81398,135],[-90.39505,38.81397,135],[-90.39507,38.81399,135],[-90.39505,38.81397,135],[-90.39501,38.81395,135],[-90.39498,38.81392,134],[-90.39494,38.81389,135],[-90.39492,38.81388,135],[-90.39488,38.81386,135],[-90.39485,38.81384,135],[-90.39481,38.81382,135],[-90.39478,38.8138,135],[-90.39475,38.81378,135],[-90.39471,38.81376,135],[-90.39468,38.81374,135],[-90.39465,38.81373,135],[-90.39462,38.81371,135],[-90.39459,38.81369,134],[-90.39456,38.81368,134],[-90.39451,38.81366,134],[-90.39448,38.81364,134],[-90.39445,38.81362,134],[-90.39442,38.8136,133],[-90.39438,38.81358,133],[-90.39434,38.81356,133],[-90.3943,38.81354,133],[-90.39427,38.81353,133],[-90.39424,38.81351,133],[-90.39421,38.81349,133],[-90.39418,38.81347,133],[-90.39415,38.81345,132],[-90.39412,38.81343,132],[-90.39408,38.81341,132],[-90.39404,38.81339,132],[-90.39401,38.81337,132],[-90.39398,38.81337,132],[-90.39401,38.81337,132],[-90.39401,38.81334,132],[-90.39398,38.81333,132],[-90.39392,38.8133,132],[-90.39388,38.81329,132],[-90.39384,38.81326,132],[-90.39381,38.81324,132],[-90.39378,38.81322,132],[-90.39376,38.8132,132],[-90.39374,38.81318,132],[-90.39371,38.81315,132],[-90.39369,38.81313,132],[-90.39366,38.81311,132],[-90.39364,38.81308,132],[-90.39362,38.81306,132],[-90.39358,38.81304,132],[-90.39355,38.81301,132],[-90.39353,38.81298,132],[-90.39353,38.81294,133],[-90.39353,38.81291,133],[-90.39354,38.81287,133],[-90.39355,38.81284,133],[-90.39358,38.81281,133],[-90.3936,38.81279,133],[-90.39362,38.81276,134],[-90.39364,38.81273,134],[-90.39367,38.81271,134],[-90.39369,38.81269,134],[-90.39373,38.81267,134],[-90.39376,38.81265,135],[-90.39379,38.81263,135],[-90.39382,38.8126,135],[-90.39386,38.81258,136],[-90.39389,38.81256,136],[-90.39392,38.81254,136],[-90.39395,38.81252,136],[-90.39399,38.81249,137],[-90.39402,38.81247,137],[-90.39404,38.81244,137],[-90.39407,38.81241,137],[-90.39409,38.81239,137],[-90.39411,38.81237,137],[-90.39413,38.81233,137],[-90.39416,38.81231,137],[-90.39419,38.81228,137],[-90.39422,38.81226,137],[-90.39426,38.81224,137],[-90.39428,38.81223,137],[-90.39431,38.81221,138],[-90.39433,38.81218,138],[-90.39435,38.81216,138],[-90.39439,38.81214,138],[-90.39442,38.81212,138],[-90.39446,38.8121,137],[-90.39449,38.81208,137],[-90.39453,38.81207,137],[-90.39456,38.81205,137],[-90.3946,38.81203,137],[-90.39463,38.81201,137],[-90.39465,38.81199,137],[-90.39468,38.81197,137],[-90.3947,38.81194,137],[-90.39472,38.81191,136],[-90.39474,38.81188,136],[-90.39477,38.81186,135],[-90.3948,38.81183,135],[-90.39482,38.8118,134],[-90.39485,38.81178,134],[-90.39489,38.81176,134],[-90.39493,38.81175,133],[-90.39496,38.81174,133],[-90.39499,38.81171,133],[-90.39501,38.81167,133],[-90.39503,38.81165,132],[-90.39504,38.81162,132],[-90.39503,38.81164,132],[-90.39504,38.81166,132]]],
        "bbox": [
          -90.38639,
          38.8175,
          -90.39508,
          38.81113
        ]
      },
      "properties": {
        "name": "4.27.2024"
      }
    }
  ]
}