{
  "type": "FeatureCollection",
  "features": [
    {
      "type": "Feature",
      "geometry": {
        "type": "MultiLineString",
        "coordinates": [[[-90.39499,38.81173,133],[-90.39496,38.81175,133],[-90.39492,38.81176,134],[-90.39488,38.81178,134],[-90.39485,38.8118,134],[-90.39483,38.81183,135],[-90.39481,38.81185,135],[-90.39479,38.81188,135],[-90.39476,38.81191,136],[-90.39472,38.81193,136],[-90.39468,38.81196,137],[-90.39465,38.81198,137],[-90.39462,38.81201,137],[-90.39458,38.81203,137],[-90.39454,38.81205,137],[-90.3945,38.81206,137],[-90.39448,38.81209,137],[-90.39445,38.81211,137],[-90.39442,38.81214,138],[-90.39439,38.81217,138],[-90.39436,38.81219,138],[-90.39434,38.81222,138],[-90.39431,38.81225,137],[-90.39428,38.81228,137],[-90.39426,38.8123,137],[-90.39423,38.81233,137],[-90.39421,38.81235,137],[-90.39418,38.81237,137],[-90.39415,38.81239,137],[-90.39411,38.81242,137],[-90.39409,38.81245,137],[-90.39406,38.81247,137],[-90.39403,38.8125,137],[-90.394,38.81251,136],[-90.39397,38.81254,136],[-90.39394,38.81256,136],[-90.39391,38.81259,135],[-90.39387,38.81262,135],[-90.39384,38.81264,135],[-90.39381,38.81266,135],[-90.39378,38.81268,134],[-90.39374,38.8127,134],[-90.39371,38.81272,134],[-90.39368,38.81274,134],[-90.39363,38.81275,134],[-90.3936,38.81276,134],[-90.39356,38.81278,134],[-90.39354,38.8128,134],[-90.39351,38.81282,134],[-90.39348,38.81284,134],[-90.39345,38.81286,134],[-90.39342,38.81288,133],[-90.3934,38.8129,133],[-90.39337,38.81292,133],[-90.39334,38.81294,133],[-90.39331,38.81296,133],[-90.39329,38.81298,133],[-90.39326,38.813,133],[-90.39324,38.81302,133],[-90.39321,38.81304,133],[-90.39318,38.81305,133],[-90.39315,38.81308,132],[-90.39311,38.8131,132],[-90.39306,38.81314,132],[-90.39302,38.81317,133],[-90.39298,38.8132,133],[-90.39294,38.81322,133],[-90.39291,38.81323,133],[-90.39287,38.81325,134],[-90.39284,38.81328,134],[-90.39281,38.81329,134],[-90.39281,38.81332,134],[-90.39281,38.81336,135],[-90.39281,38.81339,135],[-90.3928,38.81342,135],[-90.39278,38.81344,136],[-90.39277,38.81348,136],[-90.39274,38.81351,137],[-90.39272,38.81354,137],[-90.39271,38.81357,137],[-90.39269,38.8136,138],[-90.39268,38.81362,138],[-90.39266,38.81366,138],[-90.39263,38.81368,138],[-90.39261,38.81371,138],[-90.39257,38.81373,138],[-90.39254,38.81376,138],[-90.3925,38.8138,138],[-90.39247,38.81382,137],[-90.39245,38.81385,137],[-90.39243,38.81388,136],[-90.39241,38.81391,137],[-90.39239,38.81394,138],[-90.39237,38.81397,139],[-90.39233,38.81399,140],[-90.39229,38.81402,141],[-90.39227,38.81404,143],[-90.39225,38.81406,144],[-90.39223,38.81409,146],[-90.3922,38.81411,147],[-90.39216,38.81413,148],[-90.39216,38.81416,150],[-90.39219,38.81418,151],[-90.39222,38.8142,151],[-90.39225,38.81423,151],[-90.39226,38.81425,152],[-90.3923,38.81424,151],[-90.39233,38.81423,151],[-90.39237,38.81424,151],[-90.39241,38.81426,152],[-90.39244,38.81428,152],[-90.39248,38.81429,152],[-90.39252,38.81429,152],[-90.39256,38.8143,152],[-90.39259,38.81431,152],[-90.39263,38.81432,151],[-90.39267,38.81433,151],[-90.39269,38.81437,152],[-90.3927,38.8144,152],[-90.39272,38.81442,153],[-90.39276,38.81444,153],[-90.39279,38.81446,152],[-90.39282,38.81448,151],[-90.39283,38.81451,151],[-90.39286,38.81453,150],[-90.39289,38.81454,150],[-90.39291,38.81457,149],[-90.39292,38.81461,149],[-90.39294,38.81463,148],[-90.39295,38.81466,148],[-90.39295,38.81469,148],[-90.39293,38.81472,148],[-90.39292,38.81475,148],[-90.39292,38.81478,148],[-90.39293,38.81481,148],[-90.39294,38.81486,148],[-90.39296,38.81489,148],[-90.393,38.81493,148],[-90.39302,38.81496,148],[-90.39305,38.815,148],[-90.39307,38.81504,147],[-90.39309,38.81508,146],[-90.39312,38.81513,145],[-90.39314,38.81516,144],[-90.39315,38.8152,144],[-90.39314,38.81523,144],[-90.39314,38.81526,143],[-90.39312,38.81528,144],[-90.39311,38.81531,143],[-90.39311,38.81534,142],[-90.39309,38.81536,142],[-90.39306,38.81538,142],[-90.39303,38.81539,143],[-90.39299,38.81539,144],[-90.39294,38.8154,145],[-90.3929,38.81541,145],[-90.39287,38.81543,146],[-90.39284,38.81545,146],[-90.39281,38.81547,146],[-90.39278,38.81549,146],[-90.39275,38.81551,147],[-90.39272,38.81553,147],[-90.3927,38.81556,147],[-90.39268,38.81558,148],[-90.39267,38.81556,149],[-90.39267,38.81553,149],[-90.39266,38.81549,150],[-90.39268,38.81546,150],[-90.39271,38.81543,150],[-90.39274,38.81541,150],[-90.39276,38.81539,150],[-90.39279,38.81537,150],[-90.39283,38.81536,149],[-90.39287,38.81536,148],[-90.39291,38.81537,146],[-90.39295,38.81539,145],[-90.39299,38.81539,144],[-90.39303,38.81539,143],[-90.39307,38.81537,142],[-90.3931,38.81535,142],[-90.39311,38.81532,143],[-90.39312,38.81528,144],[-90.39311,38.81524,144],[-90.3931,38.81521,145],[-90.3931,38.81517,145],[-90.39314,38.81513,145],[-90.39314,38.81509,145],[-90.39311,38.81505,146],[-90.39308,38.81503,147],[-90.39304,38.815,148],[-90.39302,38.81496,148],[-90.393,38.81492,148],[-90.39296,38.81488,148],[-90.39295,38.81484,148],[-90.39294,38.8148,148],[-90.39294,38.81476,148],[-90.39294,38.81472,148],[-90.39296,38.81469,148],[-90.39297,38.81467,148],[-90.39295,38.81464,148],[-90.39293,38.81462,149],[-90.3929,38.81459,149],[-90.39287,38.81456,150],[-90.39284,38.81455,151],[-90.3928,38.81454,152],[-90.39275,38.81452,152],[-90.39273,38.8145,153],[-90.39269,38.81447,153],[-90.39266,38.81444,154],[-90.39263,38.81441,153],[-90.3926,38.81437,153],[-90.39257,38.81434,152],[-90.39253,38.81433,153],[-90.39248,38.81433,153],[-90.39246,38.81431,153],[-90.39243,38.81428,152],[-90.3924,38.81427,152],[-90.39236,38.81426,152],[-90.39232,38.81425,152],[-90.39229,38.81423,151],[-90.39228,38.8142,151],[-90.39228,38.81417,150],[-90.39227,38.81414,149],[-90.39225,38.81411,147],[-90.39222,38.81409,146],[-90.39217,38.81408,145],[-90.39212,38.81408,146],[-90.39208,38.81408,146],[-90.39205,38.81409,147],[-90.392,38.81409,147],[-90.39195,38.8141,148],[-90.39192,38.81412,150],[-90.39189,38.81413,151],[-90.39189,38.81416,152],[-90.39191,38.81419,153],[-90.3919,38.81422,154],[-90.39187,38.81423,155],[-90.39183,38.81424,156],[-90.39179,38.81425,158],[-90.39179,38.8143,159],[-90.39179,38.81434,160],[-90.39179,38.81436,161],[-90.39179,38.81439,161],[-90.39176,38.81442,163],[-90.39176,38.81445,164],[-90.39177,38.81448,164],[-90.39178,38.8145,164],[-90.39181,38.81452,164],[-90.39185,38.81454,163],[-90.39188,38.81456,162],[-90.39189,38.8146,162],[-90.39189,38.81463,163],[-90.3919,38.81466,163],[-90.39192,38.81469,163],[-90.39194,38.81472,163],[-90.39197,38.81474,162],[-90.39197,38.81478,163],[-90.39196,38.81481,163],[-90.39194,38.81484,164],[-90.39194,38.81488,164],[-90.39197,38.81492,164],[-90.39198,38.81495,164],[-90.39199,38.815,164],[-90.39202,38.81503,165],[-90.39204,38.81507,166],[-90.39204,38.81512,167],[-90.39202,38.81515,169],[-90.39201,38.81519,170],[-90.39199,38.81522,172],[-90.392,38.81526,173],[-90.39201,38.8153,174],[-90.39201,38.81535,174],[-90.39203,38.81538,173],[-90.39203,38.81543,173],[-90.39201,38.81546,174],[-90.39197,38.81549,176],[-90.39194,38.81553,177],[-90.39193,38.81557,177],[-90.39192,38.8156,177],[-90.39191,38.81563,177],[-90.39192,38.81566,176],[-90.39195,38.81567,175],[-90.39191,38.81565,176],[-90.39187,38.81565,177],[-90.39183,38.81565,178],[-90.39179,38.81565,179],[-90.39175,38.81566,180],[-90.39173,38.81568,180],[-90.39173,38.81571,179],[-90.39174,38.81574,179],[-90.39178,38.81576,177],[-90.39179,38.8158,176],[-90.39178,38.81583,176],[-90.3918,38.81586,175],[-90.3918,38.81589,174],[-90.3918,38.81592,174],[-90.3918,38.81595,173],[-90.3918,38.81598,173],[-90.3918,38.81601,172],[-90.3918,38.81604,171],[-90.39178,38.81607,171],[-90.39177,38.8161,171],[-90.39177,38.81613,170],[-90.39176,38.81616,169],[-90.39175,38.81619,168],[-90.39173,38.81622,168],[-90.39171,38.81624,168],[-90.3917,38.81627,167],[-90.39169,38.81631,166],[-90.39168,38.81633,165],[-90.39166,38.81636,165],[-90.39164,38.81639,164],[-90.39162,38.81643,164],[-90.39159,38.81645,164],[-90.39158,38.81648,163],[-90.39157,38.81651,162],[-90.39156,38.81654,162],[-90.39154,38.81656,162],[-90.39152,38.81659,161],[-90.39149,38.81662,161],[-90.39146,38.81664,161],[-90.39142,38.81664,162],[-90.39139,38.81666,162],[-90.39139,38.81669,161],[-90.39138,38.81672,160],[-90.39134,38.81674,160],[-90.39132,38.81676,160],[-90.3913,38.81679,159],[-90.39127,38.81681,159],[-90.39125,38.81683,159],[-90.39122,38.81685,158],[-90.3912,38.81688,158],[-90.39117,38.81689,158],[-90.39114,38.81689,158],[-90.3911,38.81688,160],[-90.39107,38.81686,160],[-90.39104,38.81683,162],[-90.39102,38.81681,162],[-90.39097,38.81681,163],[-90.39094,38.81681,163],[-90.39093,38.81679,163],[-90.39091,38.81676,164],[-90.39089,38.81679,164],[-90.39086,38.8168,164],[-90.39082,38.81682,164],[-90.39078,38.81683,164],[-90.39075,38.81685,164],[-90.39071,38.81684,164],[-90.39068,38.81685,165],[-90.39065,38.81687,164],[-90.39063,38.8169,164],[-90.39061,38.81692,164],[-90.39057,38.81694,164],[-90.39053,38.81696,164],[-90.39049,38.81696,164],[-90.39052,38.81699,163],[-90.39054,38.817,163],[-90.39055,38.81703,162],[-90.39053,38.81706,161],[-90.39052,38.81709,160],[-90.39055,38.81711,159],[-90.39054,38.81714,158],[-90.39053,38.81717,157],[-90.39055,38.81719,157],[-90.39051,38.81719,157],[-90.39053,38.81723,155],[-90.39054,38.81727,154],[-90.39055,38.81729,153],[-90.39054,38.81732,152],[-90.39055,38.81735,151],[-90.39057,38.81738,150],[-90.39059,38.81741,148],[-90.39061,38.81743,147],[-90.39061,38.81746,146],[-90.3906,38.81749,145],[-90.39058,38.81752,145],[-90.39057,38.81755,144],[-90.39056,38.81757,144],[-90.39053,38.81759,144],[-90.3905,38.81761,144],[-90.39047,38.81763,144],[-90.39043,38.81765,144],[-90.39039,38.81766,144],[-90.39036,38.81766,144],[-90.39033,38.81764,145],[-90.39029,38.81763,146],[-90.39025,38.81763,146],[-90.39021,38.81762,147],[-90.39018,38.81761,147],[-90.39015,38.81759,148],[-90.39012,38.81758,149],[-90.39008,38.81757,149],[-90.39005,38.81756,150],[-90.39001,38.81756,151],[-90.38998,38.81756,151],[-90.38994,38.81757,151],[-90.3899,38.81758,152],[-90.38987,38.81757,153],[-90.38984,38.81759,153],[-90.3898,38.8176,153],[-90.38977,38.8176,154],[-90.38974,38.81759,154],[-90.3897,38.81757,155],[-90.38967,38.81756,156],[-90.38968,38.81753,157],[-90.38972,38.81752,156],[-90.38976,38.81751,156],[-90.38981,38.81749,155],[-90.38985,38.81748,155],[-90.3899,38.81746,154],[-90.38995,38.81746,153],[-90.39,38.81746,152],[-90.39005,38.81746,152],[-90.3901,38.81747,151],[-90.39015,38.81747,151],[-90.39017,38.8175,150],[-90.39021,38.81753,149],[-90.39024,38.81754,148],[-90.39027,38.81756,147],[-90.3903,38.81758,147],[-90.39034,38.81759,146],[-90.39038,38.81758,146],[-90.3904,38.81756,146],[-90.39042,38.81754,146],[-90.39044,38.81751,147],[-90.39047,38.81749,147],[-90.39048,38.81746,148],[-90.39049,38.81744,148],[-90.39048,38.81741,149],[-90.39052,38.81741,149],[-90.39055,38.8174,149],[-90.39056,38.81737,150],[-90.39054,38.81735,151],[-90.3905,38.81733,152],[-90.39047,38.81731,153],[-90.39044,38.8173,153],[-90.39042,38.81728,154],[-90.39042,38.81725,155],[-90.39043,38.81722,156],[-90.39043,38.81719,157],[-90.39043,38.81716,158],[-90.39044,38.81712,159],[-90.39044,38.81708,161],[-90.39043,38.81704,162],[-90.39042,38.817,164],[-90.39043,38.81696,165],[-90.39044,38.81692,166],[-90.39046,38.8169,166],[-90.3905,38.81688,166],[-90.39052,38.81687,166],[-90.39054,38.81684,166],[-90.39056,38.81682,166],[-90.39058,38.81679,166],[-90.39061,38.81678,166],[-90.39065,38.81677,166],[-90.39069,38.81677,166],[-90.39072,38.81679,165],[-90.39072,38.81676,166],[-90.39075,38.81676,165],[-90.39079,38.81676,165],[-90.39083,38.81676,165],[-90.39083,38.81673,165],[-90.39086,38.81672,165],[-90.39089,38.81668,166],[-90.39094,38.81668,166],[-90.39097,38.81672,165],[-90.391,38.81674,164],[-90.39103,38.81673,164],[-90.39107,38.81673,164],[-90.3911,38.81674,164],[-90.39115,38.81674,163],[-90.39118,38.81673,163],[-90.39122,38.81672,162],[-90.39125,38.81671,162],[-90.39128,38.81668,163],[-90.39132,38.81666,163],[-90.39134,38.81664,163],[-90.39136,38.81662,163],[-90.39138,38.8166,164],[-90.39141,38.81658,164],[-90.39144,38.81655,164],[-90.39146,38.81652,165],[-90.39147,38.81649,165],[-90.39148,38.81646,166],[-90.3915,38.81642,167],[-90.39153,38.8164,167],[-90.39156,38.81638,166],[-90.39159,38.81635,167],[-90.39162,38.81634,166],[-90.39164,38.81631,167],[-90.39166,38.81628,167],[-90.39167,38.81625,168],[-90.39169,38.81621,169],[-90.39171,38.81619,170],[-90.39172,38.81616,170],[-90.39174,38.81613,171],[-90.39175,38.81611,171],[-90.39174,38.81608,172],[-90.39173,38.81605,173],[-90.39173,38.81601,174],[-90.39171,38.81599,175],[-90.39171,38.81595,176],[-90.39173,38.81592,176],[-90.39173,38.81589,176],[-90.39173,38.81585,177],[-90.39172,38.81583,178],[-90.39171,38.8158,179],[-90.3917,38.81576,179],[-90.39169,38.81573,180],[-90.39169,38.81571,180],[-90.39166,38.81568,181],[-90.39163,38.81566,182],[-90.3916,38.81563,182],[-90.39157,38.81561,183],[-90.39154,38.81558,183],[-90.3915,38.81557,183],[-90.39147,38.81556,184],[-90.39143,38.81555,184],[-90.3914,38.81552,184],[-90.39137,38.81549,185],[-90.39133,38.81547,185],[-90.3913,38.81546,185],[-90.39125,38.81546,185],[-90.39121,38.81547,185],[-90.39116,38.81546,186],[-90.39112,38.81546,186],[-90.39107,38.81546,186],[-90.39104,38.81549,186],[-90.391,38.81551,185],[-90.39095,38.81553,185],[-90.39091,38.81554,185],[-90.39086,38.81554,185],[-90.39082,38.81554,185],[-90.39078,38.81554,184],[-90.39074,38.81553,184],[-90.39071,38.81553,183],[-90.39066,38.81552,183],[-90.39062,38.81553,182],[-90.39058,38.81553,182],[-90.39054,38.81552,182],[-90.39049,38.81552,181],[-90.39045,38.8155,181],[-90.39043,38.81548,180],[-90.39041,38.81546,180],[-90.39037,38.81543,180],[-90.39034,38.81541,180],[-90.39031,38.8154,180],[-90.39028,38.81539,180],[-90.39024,38.81538,180],[-90.39019,38.81538,180],[-90.39015,38.81537,180],[-90.39012,38.81536,180],[-90.39009,38.81534,180],[-90.39004,38.81532,181],[-90.38999,38.81529,181],[-90.38997,38.81527,182],[-90.38993,38.81525,182],[-90.38989,38.81523,183],[-90.38985,38.81521,184],[-90.38982,38.8152,184],[-90.38979,38.81518,184],[-90.38976,38.81515,185],[-90.38973,38.81514,185],[-90.3897,38.81512,186],[-90.38967,38.81509,187],[-90.38964,38.81507,187],[-90.38962,38.81505,187],[-90.38959,38.81501,188],[-90.38955,38.81498,188],[-90.38953,38.81495,188],[-90.38951,38.81492,189],[-90.3895,38.81488,189],[-90.38949,38.81485,189],[-90.38948,38.81482,190],[-90.38948,38.81478,190],[-90.38948,38.81475,190],[-90.38948,38.81471,191],[-90.38949,38.81468,190],[-90.38948,38.81466,190],[-90.38948,38.81462,190],[-90.38949,38.81459,190],[-90.3895,38.81456,190],[-90.3895,38.81452,190],[-90.3895,38.81449,190],[-90.3895,38.81445,189],[-90.38948,38.81442,189],[-90.38946,38.81438,189],[-90.38943,38.81436,189],[-90.3894,38.81434,189],[-90.38936,38.81433,190],[-90.38933,38.81433,190],[-90.38928,38.81431,191],[-90.38923,38.81429,191],[-90.38917,38.81427,192],[-90.38914,38.81426,192],[-90.3891,38.81426,192],[-90.38907,38.81424,192],[-90.38903,38.81423,192],[-90.38899,38.81423,192],[-90.38895,38.81422,192],[-90.38891,38.81421,192],[-90.38887,38.81421,193],[-90.38883,38.81421,193],[-90.38879,38.8142,194],[-90.38875,38.81418,195],[-90.38872,38.81417,195],[-90.38868,38.81414,195],[-90.38865,38.81413,196],[-90.38861,38.81412,196],[-90.38857,38.81411,196],[-90.38854,38.8141,197],[-90.3885,38.81409,197],[-90.38847,38.81407,197],[-90.38843,38.81406,197],[-90.38839,38.81404,198],[-90.38834,38.81403,198],[-90.38831,38.81401,198],[-90.38828,38.81399,198],[-90.38824,38.81398,198],[-90.3882,38.81397,198],[-90.38816,38.81395,198],[-90.38811,38.81394,198],[-90.38808,38.81394,199],[-90.38805,38.81396,199],[-90.38803,38.81399,199],[-90.38798,38.814,199],[-90.38794,38.814,199],[-90.3879,38.81401,199],[-90.38785,38.81401,199],[-90.38782,38.814,199],[-90.38777,38.814,200],[-90.38772,38.814,200],[-90.38769,38.81401,200],[-90.38765,38.814,200],[-90.38762,38.81397,200],[-90.38759,38.81394,200],[-90.38755,38.81393,200],[-90.38751,38.81391,200],[-90.38749,38.81388,199],[-90.38749,38.81385,199],[-90.38749,38.81381,198],[-90.38749,38.81378,198],[-90.3875,38.81374,197],[-90.38752,38.81372,197],[-90.38753,38.81369,197],[-90.38752,38.81366,196],[-90.38752,38.81363,196],[-90.38753,38.81359,196],[-90.38751,38.81357,195],[-90.38752,38.81353,195],[-90.38754,38.8135,195],[-90.38757,38.81347,195],[-90.38758,38.81343,195],[-90.38758,38.8134,195],[-90.38758,38.81337,194],[-90.38757,38.81334,194],[-90.38757,38.81332,194],[-90.3876,38.81329,194],[-90.38763,38.81328,194],[-90.38767,38.81327,194],[-90.38771,38.81328,195],[-90.38775,38.81328,195],[-90.38779,38.81327,195],[-90.38782,38.81326,195],[-90.38786,38.81325,194],[-90.38789,38.81323,194],[-90.38788,38.8132,194],[-90.38791,38.81317,193],[-90.38794,38.81314,193],[-90.38795,38.81312,192],[-90.38797,38.81308,191],[-90.38799,38.81305,191],[-90.38798,38.81302,191],[-90.38798,38.81298,190],[-90.38798,38.81295,190],[-90.38799,38.81292,189],[-90.38797,38.81288,189],[-90.38799,38.81284,188],[-90.38802,38.81281,188],[-90.38807,38.81279,187],[-90.38811,38.81276,186],[-90.38815,38.81272,183],[-90.3882,38.8127,182],[-90.38823,38.81268,180],[-90.38825,38.81271,180],[-90.3883,38.81272,179],[-90.38833,38.81269,178],[-90.38837,38.81267,177],[-90.38839,38.81264,175],[-90.38842,38.81262,174],[-90.38847,38.81259,172],[-90.38849,38.81257,172],[-90.38851,38.81254,171],[-90.38855,38.81253,170],[-90.38858,38.81252,169],[-90.38859,38.81249,169],[-90.38858,38.81246,168],[-90.38854,38.81245,169],[-90.38852,38.81247,170],[-90.3885,38.81245,170],[-90.3885,38.81242,169],[-90.38852,38.81239,168],[-90.38854,38.81237,167],[-90.38857,38.81234,166],[-90.38859,38.8123,165],[-90.38863,38.81228,164],[-90.38866,38.81224,163],[-90.38867,38.8122,163],[-90.38866,38.81216,163],[-90.38864,38.81212,162],[-90.38862,38.8121,163],[-90.38861,38.81206,162],[-90.3886,38.81203,162],[-90.38859,38.81199,162],[-90.38856,38.81196,163],[-90.38856,38.81193,163],[-90.38855,38.8119,163],[-90.38853,38.81187,164],[-90.38854,38.81185,163],[-90.38854,38.81181,164],[-90.38854,38.81179,164],[-90.38855,38.81176,164],[-90.38857,38.81172,164],[-90.38858,38.8117,164],[-90.38861,38.81167,164],[-90.38863,38.81164,164],[-90.38865,38.81162,164],[-90.38867,38.81159,163],[-90.38869,38.81156,163],[-90.38872,38.81154,162],[-90.38876,38.81152,161],[-90.38881,38.81151,160],[-90.38885,38.81152,159],[-90.3889,38.81151,158],[-90.38895,38.81149,157],[-90.38899,38.81147,156],[-90.38904,38.81145,154],[-90.38906,38.81141,154],[-90.3891,38.81138,153],[-90.38916,38.81136,152],[-90.3892,38.81136,152],[-90.38925,38.81134,152],[-90.3893,38.81133,152],[-90.38933,38.8113,152],[-90.38936,38.81126,152],[-90.3894,38.81123,152],[-90.38944,38.81121,152],[-90.38951,38.81119,151],[-90.38955,38.81119,151],[-90.3896,38.81119,151],[-90.38966,38.81118,151],[-90.3897,38.81117,150],[-90.38972,38.81115,150],[-90.38976,38.81113,150],[-90.3898,38.81113,149],[-90.38984,38.81113,149],[-90.38988,38.81114,148],[-90.38992,38.81115,147],[-90.38995,38.81115,147],[-90.38999,38.81115,146],[-90.39004,38.81115,146],[-90.39008,38.81116,145],[-90.39011,38.81117,145],[-90.39015,38.81117,144],[-90.3902,38.81117,144],[-90.39024,38.81116,143],[-90.39028,38.81115,142],[-90.39032,38.81116,142],[-90.39037,38.81117,142],[-90.39042,38.81117,142],[-90.39046,38.81117,142],[-90.3905,38.81119,142],[-90.39053,38.8112,142],[-90.39057,38.81121,142],[-90.3906,38.81123,142],[-90.39064,38.81123,142],[-90.39067,38.81122,142],[-90.39071,38.81121,142],[-90.39076,38.8112,141],[-90.3908,38.81119,141],[-90.39082,38.81116,141],[-90.39085,38.81118,141],[-90.39089,38.81121,141],[-90.39092,38.81124,141],[-90.39093,38.81129,141],[-90.39095,38.81132,141],[-90.39097,38.81135,141],[-90.39099,38.81137,141],[-90.39103,38.81139,141],[-90.39105,38.81141,141],[-90.39107,38.81144,142],[-90.39107,38.81147,142],[-90.39108,38.8115,142],[-90.39109,38.81153,143],[-90.39108,38.81156,143],[-90.39107,38.81159,144],[-90.39105,38.81162,144],[-90.39103,38.81166,145],[-90.39102,38.81168,145],[-90.391,38.81171,146],[-90.39098,38.81174,147],[-90.39098,38.81177,147],[-90.39098,38.8118,148],[-90.39099,38.81183,148],[-90.39098,38.81186,149],[-90.39097,38.8119,149],[-90.39097,38.81193,150],[-90.39097,38.81196,150],[-90.39096,38.81199,150],[-90.39095,38.81202,150],[-90.39094,38.81205,149],[-90.39093,38.81208,149],[-90.39094,38.81211,149],[-90.39095,38.81214,149],[-90.39094,38.81217,149],[-90.39093,38.81221,149],[-90.39092,38.81223,149],[-90.39095,38.81224,149],[-90.39098,38.81226,148],[-90.39099,38.81229,147],[-90.39099,38.81232,146],[-90.391,38.81235,146],[-90.391,38.81239,145],[-90.391,38.81242,144],[-90.391,38.81245,143],[-90.391,38.81248,142],[-90.39101,38.81252,142],[-90.39103,38.81255,143],[-90.39104,38.81257,143],[-90.39104,38.8126,144],[-90.39105,38.81263,144],[-90.39105,38.81266,145],[-90.39105,38.81269,145],[-90.39105,38.81271,146],[-90.39105,38.81274,147],[-90.39106,38.81278,147],[-90.39108,38.8128,147],[-90.3911,38.81283,148],[-90.39112,38.81287,149],[-90.39113,38.8129,149],[-90.39114,38.81293,150],[-90.39115,38.81296,151],[-90.39116,38.813,151],[-90.39119,38.81302,151],[-90.39122,38.81304,152],[-90.39125,38.81306,152],[-90.39128,38.81308,151],[-90.39131,38.81311,151],[-90.39131,38.81314,151],[-90.39133,38.81317,151],[-90.39135,38.81319,151],[-90.39138,38.81322,150],[-90.39142,38.81324,150],[-90.39146,38.81326,149],[-90.3915,38.81328,148],[-90.39153,38.8133,148],[-90.39157,38.81333,148],[-90.39159,38.81336,147],[-90.39159,38.8134,147],[-90.39159,38.81343,147],[-90.39161,38.81347,146],[-90.39162,38.8135,145],[-90.39164,38.81353,144],[-90.39166,38.81355,143],[-90.39168,38.81358,143],[-90.39171,38.81361,142],[-90.39173,38.81364,142],[-90.39175,38.81367,143],[-90.39177,38.81369,142],[-90.3918,38.81373,142],[-90.39183,38.81375,141],[-90.39186,38.81377,141],[-90.39189,38.8138,140],[-90.39193,38.81382,139],[-90.39197,38.81384,138],[-90.392,38.81386,137],[-90.39203,38.81389,136],[-90.39206,38.81391,137],[-90.3921,38.81392,137],[-90.39213,38.81394,137],[-90.39216,38.81397,139],[-90.39218,38.81399,140],[-90.39222,38.814,140],[-90.39225,38.81398,139],[-90.39228,38.81396,138],[-90.39231,38.81395,138],[-90.39234,38.81392,136],[-90.39237,38.81389,135],[-90.39239,38.81386,136],[-90.39241,38.81383,136],[-90.39243,38.8138,137],[-90.39245,38.81378,137],[-90.39248,38.81375,138],[-90.3925,38.81373,138],[-90.39251,38.81369,138],[-90.39251,38.81365,138],[-90.39252,38.81362,138],[-90.39254,38.81358,138],[-90.39255,38.81355,138],[-90.39257,38.81353,138],[-90.39259,38.8135,137],[-90.39261,38.81348,137],[-90.39264,38.81346,137],[-90.39265,38.81342,136],[-90.39266,38.81339,136],[-90.39268,38.81336,135],[-90.39272,38.81334,135],[-90.39275,38.8133,135],[-90.39278,38.81327,134],[-90.3928,38.81325,134],[-90.39282,38.81322,134],[-90.39286,38.81319,134],[-90.39289,38.81315,133],[-90.39292,38.81313,133],[-90.39295,38.81311,133],[-90.39298,38.81308,133],[-90.39301,38.81306,133],[-90.39304,38.81304,133],[-90.39308,38.81302,133],[-90.39311,38.81301,133],[-90.39314,38.81299,133],[-90.39318,38.81298,133],[-90.39321,38.81296,133],[-90.39325,38.81295,133],[-90.3933,38.81295,133],[-90.39334,38.81295,133],[-90.39339,38.81297,133],[-90.39343,38.813,133],[-90.39345,38.81301,132],[-90.39349,38.81304,132],[-90.39353,38.81307,132],[-90.39357,38.81309,132],[-90.3936,38.81311,132],[-90.39363,38.81313,132],[-90.39366,38.81315,132],[-90.3937,38.81317,132],[-90.39373,38.81319,132],[-90.39377,38.81321,132],[-90.3938,38.81323,132],[-90.39384,38.81325,132],[-90.39388,38.81327,132],[-90.39391,38.81329,132],[-90.39394,38.81332,132],[-90.39398,38.81334,132],[-90.39402,38.81336,132],[-90.39405,38.81338,132],[-90.39408,38.8134,132],[-90.39412,38.81341,132],[-90.39416,38.81343,132],[-90.3942,38.81345,133],[-90.39424,38.81346,133],[-90.39427,38.81348,133],[-90.39431,38.8135,133],[-90.39434,38.81351,133],[-90.39437,38.81353,133],[-90.3944,38.81356,133],[-90.39444,38.81358,133],[-90.39446,38.81361,134],[-90.39449,38.81363,134],[-90.39451,38.81365,134],[-90.39455,38.81368,134],[-90.39458,38.8137,134],[-90.39462,38.81372,135],[-90.39466,38.81374,135],[-90.39469,38.81376,135],[-90.39472,38.81378,135],[-90.39475,38.81379,135],[-90.39478,38.81381,135],[-90.39481,38.81383,135],[-90.39484,38.81385,135],[-90.39488,38.81386,135],[-90.3949,38.81388,135],[-90.39486,38.81388,135],[-90.39482,38.81387,135],[-90.39478,38.81386,135],[-90.39474,38.81385,135],[-90.3947,38.81383,135],[-90.39466,38.81381,135],[-90.39461,38.81379,134],[-90.39458,38.81378,134],[-90.39453,38.81376,134],[-90.3945,38.81374,134],[-90.39446,38.81371,134],[-90.39443,38.8137,133],[-90.39439,38.81369,133],[-90.39437,38.81367,133],[-90.39433,38.81366,133],[-90.3943,38.81365,133],[-90.39427,38.81363,133],[-90.39424,38.81362,133],[-90.39421,38.8136,133],[-90.39417,38.81357,133],[-90.39414,38.81355,132],[-90.39409,38.81353,132],[-90.39405,38.81351,132],[-90.39401,38.81348,132],[-90.39397,38.81345,132],[-90.39392,38.81342,132],[-90.39386,38.81339,132],[-90.39381,38.81337,132],[-90.39377,38.81335,132],[-90.39374,38.81332,132],[-90.39371,38.81328,132],[-90.39368,38.81324,132],[-90.39366,38.8132,132],[-90.39363,38.81318,132],[-90.39361,38.81316,132],[-90.39359,38.81313,132],[-90.39355,38.81312,132],[-90.39352,38.81309,132],[-90.39351,38.81307,132],[-90.39349,38.81304,132],[-90.39347,38.81302,132],[-90.39345,38.81299,133],[-90.39342,38.81296,133],[-90.39338,38.81293,133],[-90.39334,38.81291,134],[-90.3933,38.81291,134],[-90.39327,38.81294,133],[-90.39323,38.81297,133],[-90.3932,38.813,133],[-90.39317,38.81302,133],[-90.39315,38.81305,133],[-90.39313,38.81309,132],[-90.39311,38.81312,132],[-90.39308,38.81314,132],[-90.39306,38.81318,132],[-90.39305,38.81321,133],[-90.39303,38.81324,133],[-90.393,38.81325,133],[-90.39297,38.81326,133],[-90.39294,38.81328,133],[-90.39291,38.8133,134],[-90.39288,38.81333,134],[-90.39286,38.81336,134],[-90.39283,38.81339,135],[-90.39279,38.81341,135],[-90.39274,38.81343,136],[-90.3927,38.81345,136],[-90.39265,38.81346,137],[-90.39262,38.81347,137],[-90.39258,38.81347,137],[-90.39254,38.81345,137],[-90.3925,38.81343,137],[-90.39246,38.81341,137],[-90.39242,38.81339,137],[-90.39238,38.81336,137],[-90.39234,38.81334,138],[-90.39231,38.81332,138],[-90.39228,38.8133,138],[-90.39225,38.81327,138],[-90.39223,38.81324,138],[-90.3922,38.81322,138],[-90.39215,38.8132,138],[-90.39212,38.81317,138],[-90.39207,38.81314,138],[-90.39204,38.81312,138],[-90.39202,38.8131,138],[-90.39199,38.81308,138],[-90.39197,38.81306,138],[-90.39192,38.81302,138],[-90.39188,38.813,139],[-90.39186,38.81297,138],[-90.39182,38.81295,139],[-90.39179,38.81293,139],[-90.39175,38.81292,139],[-90.39171,38.81291,140],[-90.39168,38.81288,140],[-90.39164,38.81286,140],[-90.3916,38.81285,141],[-90.39155,38.81284,141],[-90.39151,38.81283,142],[-90.39147,38.81281,142],[-90.39146,38.81278,142],[-90.39145,38.81275,141],[-90.39145,38.81272,140],[-90.39145,38.81269,140],[-90.39145,38.81266,139],[-90.39147,38.81263,138],[-90.39149,38.8126,137],[-90.39151,38.81258,137],[-90.39154,38.81255,136],[-90.39157,38.81252,135],[-90.39159,38.81248,135],[-90.39161,38.81246,135],[-90.39164,38.81243,135],[-90.39166,38.8124,136],[-90.39169,38.81237,136],[-90.39171,38.81234,136],[-90.39173,38.8123,136],[-90.39176,38.81228,137],[-90.39179,38.81225,137],[-90.39182,38.81222,137],[-90.39185,38.81219,137],[-90.39188,38.81216,137],[-90.39192,38.81214,137],[-90.39196,38.81213,137],[-90.392,38.81212,137],[-90.39204,38.81211,137],[-90.39208,38.81211,136],[-90.39212,38.81211,136],[-90.39216,38.81211,136],[-90.3922,38.81212,136],[-90.39223,38.81214,135],[-90.39228,38.81218,135],[-90.3923,38.8122,135],[-90.39233,38.81222,135],[-90.39236,38.81224,135],[-90.39239,38.81226,135],[-90.39241,38.81228,135],[-90.39246,38.81231,135],[-90.39249,38.81234,135],[-90.39253,38.81236,135],[-90.39254,38.81239,135],[-90.39253,38.81242,135],[-90.39251,38.81245,135],[-90.39249,38.81248,135],[-90.39248,38.81251,136],[-90.39246,38.81254,136],[-90.39242,38.81254,136],[-90.39244,38.81251,136],[-90.39246,38.81249,135],[-90.39249,38.81248,135],[-90.39252,38.81247,135],[-90.39253,38.81244,135],[-90.39256,38.81241,135],[-90.39261,38.8124,134],[-90.39264,38.81241,134],[-90.39267,38.81244,134],[-90.39269,38.81248,134],[-90.39273,38.81251,134],[-90.39276,38.81252,134],[-90.3928,38.81252,134],[-90.39285,38.81255,134],[-90.39288,38.81256,134],[-90.39291,38.81259,134],[-90.39295,38.8126,134],[-90.39298,38.81262,134],[-90.39301,38.81264,134],[-90.39305,38.81267,134],[-90.39309,38.81269,134],[-90.39312,38.81271,134],[-90.39315,38.81273,134],[-90.3932,38.81274,134],[-90.39326,38.81274,134],[-90.39329,38.81273,134],[-90.39332,38.81272,134],[-90.39337,38.81271,134],[-90.3934,38.81271,134],[-90.39344,38.81272,134],[-90.39348,38.81273,134],[-90.39351,38.81274,134],[-90.39355,38.81276,134],[-90.39359,38.81276,134],[-90.39364,38.81276,134],[-90.39368,38.81275,134],[-90.39372,38.81273,134],[-90.39375,38.8127,134],[-90.39377,38.81267,134],[-90.3938,38.81264,135],[-90.39384,38.81261,135],[-90.39387,38.81259,135],[-90.39392,38.81256,136],[-90.39396,38.81255,136],[-90.39399,38.81253,136],[-90.39401,38.81251,136],[-90.39405,38.8125,137],[-90.39408,38.81248,137],[-90.39411,38.81246,137],[-90.39414,38.81244,137],[-90.39417,38.81242,137],[-90.39419,38.81239,137],[-90.39421,38.81236,137],[-90.39424,38.81233,137],[-90.39428,38.8123,137],[-90.39431,38.81227,137],[-90.39433,38.81225,137],[-90.39436,38.81223,137],[-90.39438,38.81221,138],[-90.39441,38.81219,138],[-90.39444,38.81216,138],[-90.39447,38.81215,137],[-90.39451,38.81213,137],[-90.39453,38.81211,137],[-90.39454,38.81208,137],[-90.39456,38.81206,137],[-90.39459,38.81204,137],[-90.39462,38.81202,137],[-90.39465,38.81199,137],[-90.39469,38.81197,137],[-90.39471,38.81195,137],[-90.39473,38.81193,136],[-90.39475,38.8119,136],[-90.39477,38.81188,135],[-90.39479,38.81186,135],[-90.39481,38.81184,135],[-90.39484,38.81181,134],[-90.39486,38.81179,134],[-90.39489,38.81177,134],[-90.39491,38.81174,133],[-90.39494,38.81172,133],[-90.39497,38.81171,133],[-90.39501,38.81169,133],[-90.39504,38.81167,133]]],
        "bbox": [
          -90.38749,
          38.81766,
          -90.39504,
          38.81113
        ]
      },
      "properties": {
        "name": "10.17.2018"
      }
    }
  ]
}