{
  "type": "FeatureCollection",
  "features": [
    {
      "type": "Feature",
      "geometry": {
        "type": "MultiLineString",
        "coordinates": [[[-90.39491,38.8117,133],[-90.39489,38.81174,134],[-90.39488,38.81177,134],[-90.39486,38.81179,134],[-90.39482,38.81182,135],[-90.39478,38.81186,135],[-90.39475,38.81188,136],[-90.39472,38.8119,136],[-90.39469,38.81193,136],[-90.39466,38.81195,137],[-90.39462,38.81198,137],[-90.39458,38.81201,137],[-90.39455,38.81205,137],[-90.39451,38.81208,137],[-90.39448,38.81211,137],[-90.39443,38.81215,138],[-90.39439,38.81219,138],[-90.39434,38.81222,138],[-90.3943,38.81226,137],[-90.39425,38.8123,137],[-90.39409,38.81242,137],[-90.39406,38.81245,137],[-90.39399,38.81251,136],[-90.39388,38.81261,135],[-90.391,38.81267,146],[-90.39102,38.8127,146],[-90.39101,38.81266,145],[-90.391,38.81262,144],[-90.391,38.81259,144],[-90.39099,38.81256,143],[-90.39099,38.81253,143],[-90.39099,38.81249,142],[-90.39099,38.81247,143],[-90.39098,38.81244,143],[-90.39097,38.8124,145],[-90.39094,38.81238,145],[-90.39092,38.81236,146],[-90.39089,38.81234,147],[-90.39086,38.81231,147],[-90.39085,38.81228,148],[-90.39086,38.81225,149],[-90.39088,38.81221,149],[-90.3909,38.81218,149],[-90.39091,38.81215,149],[-90.39093,38.81211,149],[-90.39094,38.81208,149],[-90.39095,38.81204,150],[-90.39096,38.81199,150],[-90.39096,38.81193,150],[-90.39095,38.81189,149],[-90.39094,38.81186,148],[-90.39095,38.81182,148],[-90.39096,38.81178,147],[-90.39098,38.81175,147],[-90.391,38.81172,146],[-90.39103,38.8117,146],[-90.39107,38.81167,145],[-90.3911,38.81164,144],[-90.39112,38.81161,144],[-90.39114,38.81159,143],[-90.39114,38.81153,142],[-90.39112,38.81148,142],[-90.3911,38.81143,141],[-90.39106,38.81139,141],[-90.39102,38.81135,141],[-90.39097,38.81131,141],[-90.39093,38.81128,141],[-90.3909,38.81125,141],[-90.39088,38.81122,141],[-90.39085,38.8112,141],[-90.3908,38.8112,141],[-90.39073,38.81122,141],[-90.39068,38.81124,142],[-90.39064,38.81125,142],[-90.3906,38.81125,142],[-90.39055,38.81123,142],[-90.39046,38.81122,142],[-90.39041,38.81123,142],[-90.39035,38.81123,142],[-90.3903,38.81122,142],[-90.39025,38.81122,143],[-90.39021,38.81122,143],[-90.39017,38.81122,144],[-90.39014,38.81123,144],[-90.3901,38.81123,145],[-90.39006,38.81123,145],[-90.39003,38.81123,145],[-90.38999,38.81123,146],[-90.38995,38.81124,146],[-90.38991,38.81124,147],[-90.38987,38.81125,148],[-90.38983,38.81126,148],[-90.38978,38.81127,149],[-90.38971,38.81126,150],[-90.38965,38.81126,150],[-90.38962,38.81127,151],[-90.38958,38.81128,151],[-90.38955,38.8113,151],[-90.38951,38.81131,151],[-90.38946,38.81132,151],[-90.38942,38.81133,152],[-90.38939,38.81134,152],[-90.38935,38.81134,152],[-90.38931,38.81134,152],[-90.38925,38.81137,152],[-90.38921,38.8114,152],[-90.38917,38.81142,152],[-90.38913,38.81144,152],[-90.38909,38.81145,153],[-90.38904,38.81145,154],[-90.38901,38.81146,155],[-90.38898,38.81148,156],[-90.38894,38.8115,157],[-90.38889,38.8115,158],[-90.38886,38.8115,159],[-90.38882,38.8115,160],[-90.3888,38.81152,160],[-90.38879,38.81155,161],[-90.38877,38.81157,161],[-90.38874,38.81159,162],[-90.38872,38.81162,162],[-90.38871,38.81165,163],[-90.38868,38.81169,163],[-90.38867,38.81172,163],[-90.38866,38.81176,163],[-90.38866,38.8118,162],[-90.38866,38.81183,162],[-90.38867,38.81187,161],[-90.38868,38.81192,161],[-90.3887,38.81195,160],[-90.38874,38.812,160],[-90.38875,38.81204,160],[-90.38875,38.81207,161],[-90.38875,38.8121,161],[-90.38876,38.81213,161],[-90.38877,38.81216,162],[-90.38873,38.81219,162],[-90.3887,38.81223,163],[-90.38868,38.81226,164],[-90.38865,38.81229,164],[-90.38862,38.81231,165],[-90.38862,38.81234,166],[-90.38862,38.81237,166],[-90.38862,38.81241,167],[-90.38862,38.81243,167],[-90.38862,38.81246,168],[-90.38861,38.81249,168],[-90.38859,38.81251,169],[-90.38857,38.81254,170],[-90.38856,38.81257,170],[-90.38855,38.8126,170],[-90.38852,38.81261,171],[-90.38848,38.81262,173],[-90.38846,38.81264,173],[-90.38842,38.81266,175],[-90.38838,38.81267,176],[-90.38834,38.81266,177],[-90.3883,38.81268,179],[-90.38826,38.81269,180],[-90.38823,38.8127,181],[-90.38819,38.81271,182],[-90.38816,38.81273,183],[-90.38813,38.81278,185],[-90.38811,38.81283,187],[-90.38808,38.81287,188],[-90.38806,38.81291,189],[-90.38804,38.81296,190],[-90.38802,38.813,190],[-90.38801,38.81303,191],[-90.38799,38.81305,191],[-90.38796,38.81308,192],[-90.38795,38.81312,192],[-90.38794,38.81315,193],[-90.38792,38.81317,193],[-90.38789,38.81319,194],[-90.38786,38.81322,194],[-90.38784,38.81324,194],[-90.3878,38.81326,195],[-90.38777,38.81326,195],[-90.38773,38.81327,195],[-90.38769,38.8133,195],[-90.38768,38.81333,195],[-90.38767,38.81336,195],[-90.38767,38.8134,195],[-90.38765,38.81344,195],[-90.38763,38.81348,195],[-90.38761,38.81352,196],[-90.3876,38.81357,196],[-90.38757,38.81364,196],[-90.38756,38.81368,197],[-90.38755,38.81373,197],[-90.38753,38.81376,198],[-90.38753,38.8138,198],[-90.38754,38.81382,199],[-90.38758,38.81384,199],[-90.38762,38.81386,199],[-90.38765,38.81389,199],[-90.3877,38.8139,200],[-90.38774,38.81391,200],[-90.38777,38.81393,200],[-90.3878,38.81393,199],[-90.38785,38.81392,199],[-90.38788,38.81393,199],[-90.38793,38.81393,199],[-90.388,38.81393,199],[-90.38804,38.81394,199],[-90.38807,38.81395,199],[-90.38811,38.81397,199],[-90.38815,38.81398,198],[-90.38818,38.814,198],[-90.38821,38.81401,198],[-90.38826,38.81402,198],[-90.38832,38.81405,198],[-90.38835,38.81406,198],[-90.38839,38.81408,198],[-90.38844,38.81409,197],[-90.38849,38.81411,197],[-90.38855,38.81412,197],[-90.38859,38.81414,196],[-90.38864,38.81416,196],[-90.38872,38.81418,195],[-90.38879,38.8142,194],[-90.38884,38.81421,193],[-90.38889,38.81422,192],[-90.38894,38.81426,192],[-90.38898,38.81428,192],[-90.38903,38.81431,192],[-90.38907,38.81433,192],[-90.38913,38.81436,192],[-90.38925,38.81444,191],[-90.38934,38.8145,190],[-90.38939,38.81456,190],[-90.38942,38.81462,190],[-90.38943,38.81467,190],[-90.38943,38.81473,190],[-90.38941,38.81479,190],[-90.3894,38.81483,189],[-90.3894,38.81488,189],[-90.38941,38.81493,188],[-90.38944,38.81497,188],[-90.38947,38.81501,188],[-90.38949,38.81505,187],[-90.38952,38.81508,187],[-90.38957,38.81512,186],[-90.38963,38.81517,185],[-90.38968,38.81522,184],[-90.38973,38.81526,183],[-90.38979,38.8153,182],[-90.38987,38.81533,181],[-90.38994,38.81537,180],[-90.39001,38.8154,179],[-90.39009,38.81544,179],[-90.39017,38.81547,178],[-90.39026,38.81549,178],[-90.39034,38.8155,179],[-90.39043,38.81552,180],[-90.39051,38.81554,181],[-90.39064,38.81557,182],[-90.39078,38.81559,184],[-90.39087,38.81558,184],[-90.39092,38.81556,185],[-90.39098,38.81553,185],[-90.39104,38.81551,185],[-90.39109,38.81551,186],[-90.39113,38.81551,186],[-90.39117,38.81548,186],[-90.39123,38.81546,185],[-90.3913,38.8155,185],[-90.39133,38.81552,185],[-90.39136,38.81554,185],[-90.39141,38.81557,184],[-90.39147,38.81559,183],[-90.39152,38.8156,183],[-90.39158,38.81561,182],[-90.39161,38.81562,182],[-90.39166,38.81564,182],[-90.39169,38.81565,181],[-90.39173,38.81565,180],[-90.39176,38.81567,179],[-90.39181,38.81565,178],[-90.39184,38.81562,178],[-90.39185,38.81559,179],[-90.39187,38.81556,179],[-90.39189,38.81559,178],[-90.39189,38.81562,177],[-90.39189,38.81566,176],[-90.39188,38.81568,176],[-90.39187,38.81566,177],[-90.39186,38.81563,178],[-90.39183,38.81565,178],[-90.39179,38.81565,179],[-90.39174,38.81568,179],[-90.39172,38.81571,179],[-90.39171,38.81574,179],[-90.39169,38.81577,179],[-90.39168,38.81581,179],[-90.39167,38.81584,179],[-90.39166,38.81588,179],[-90.39165,38.81591,178],[-90.39164,38.81596,177],[-90.39163,38.816,176],[-90.39162,38.81604,175],[-90.3916,38.81608,175],[-90.3916,38.81613,173],[-90.39159,38.81617,172],[-90.39158,38.81621,171],[-90.39158,38.81625,170],[-90.39157,38.81628,169],[-90.39154,38.81633,168],[-90.39153,38.81636,168],[-90.39153,38.8164,167],[-90.39152,38.81644,166],[-90.39149,38.81648,165],[-90.39147,38.81651,165],[-90.39144,38.81654,164],[-90.39132,38.81665,163],[-90.3913,38.81669,162],[-90.39129,38.81671,162],[-90.39125,38.81672,162],[-90.39102,38.81676,163],[-90.39098,38.81676,164],[-90.39095,38.81673,165],[-90.39094,38.8167,165],[-90.39092,38.81667,166],[-90.39089,38.81668,166],[-90.39088,38.81671,165],[-90.39085,38.81672,165],[-90.39081,38.81673,165],[-90.39078,38.81675,165],[-90.39075,38.81677,165],[-90.39073,38.8168,165],[-90.3907,38.81683,165],[-90.39065,38.81685,165],[-90.39053,38.81702,162],[-90.39049,38.81703,162],[-90.39052,38.81705,161],[-90.39054,38.81708,160],[-90.39054,38.81711,159],[-90.39056,38.81714,158],[-90.39056,38.81723,155],[-90.39057,38.81733,151],[-90.39058,38.81736,150],[-90.39056,38.81739,149],[-90.39055,38.81741,149],[-90.39052,38.81744,148],[-90.39052,38.81741,149],[-90.39055,38.81743,148],[-90.39059,38.81744,147],[-90.39063,38.81744,146],[-90.39066,38.81746,145],[-90.39069,38.81749,144],[-90.39071,38.81751,143],[-90.39075,38.8175,143],[-90.39077,38.81747,143],[-90.39081,38.81746,143],[-90.39084,38.81745,143],[-90.39087,38.81743,143],[-90.39088,38.8174,144],[-90.3909,38.81738,144],[-90.39093,38.81735,145],[-90.39097,38.81732,145],[-90.39101,38.81728,146],[-90.39104,38.81724,146],[-90.39108,38.8172,147],[-90.3911,38.81718,148],[-90.39112,38.8172,146],[-90.39116,38.81718,146],[-90.39121,38.81716,146],[-90.39125,38.81714,147],[-90.39128,38.81712,147],[-90.39131,38.81711,147],[-90.39134,38.81709,147],[-90.39138,38.81708,147],[-90.39142,38.81707,147],[-90.39146,38.81706,146],[-90.3915,38.81705,146],[-90.39154,38.81704,146],[-90.39157,38.81703,146],[-90.39163,38.81701,146],[-90.39166,38.817,145],[-90.39168,38.81697,146],[-90.39171,38.81696,147],[-90.39174,38.81694,148],[-90.39178,38.81691,149],[-90.39181,38.81688,149],[-90.39184,38.81686,149],[-90.39187,38.81682,150],[-90.39189,38.81679,150],[-90.39191,38.81674,150],[-90.39194,38.81672,150],[-90.39197,38.8167,150],[-90.39201,38.81666,149],[-90.39204,38.81662,150],[-90.39207,38.8166,149],[-90.3921,38.8166,149],[-90.39213,38.81657,148],[-90.39215,38.81654,148],[-90.39216,38.81652,148],[-90.39218,38.81649,148],[-90.3922,38.81646,148],[-90.39219,38.81643,149],[-90.39219,38.8164,149],[-90.39221,38.81637,149],[-90.39224,38.81635,149],[-90.39227,38.81633,149],[-90.39232,38.81629,149],[-90.39235,38.81624,150],[-90.39239,38.81619,150],[-90.39244,38.81617,149],[-90.39249,38.81613,148],[-90.39251,38.81608,148],[-90.39252,38.81601,148],[-90.39251,38.81596,148],[-90.39252,38.81591,148],[-90.39253,38.8158,148],[-90.39257,38.81572,149],[-90.39263,38.81566,148],[-90.39268,38.8156,148],[-90.39273,38.81555,146],[-90.39279,38.8155,146],[-90.39285,38.81546,145],[-90.39292,38.81543,144],[-90.39299,38.81539,144],[-90.39305,38.81534,144],[-90.39308,38.81529,144],[-90.39309,38.81521,145],[-90.3931,38.81513,146],[-90.39307,38.81506,147],[-90.39302,38.81499,148],[-90.39298,38.81493,148],[-90.39294,38.81488,148],[-90.39292,38.81482,148],[-90.39291,38.81474,149],[-90.39289,38.8147,149],[-90.39288,38.81466,149],[-90.39285,38.81462,150],[-90.3928,38.81455,152],[-90.39274,38.81451,153],[-90.39273,38.81444,153],[-90.39256,38.81428,151],[-90.39251,38.81426,151],[-90.39246,38.81424,151],[-90.39237,38.8142,151],[-90.3923,38.81415,149],[-90.39227,38.8141,146],[-90.39233,38.81404,143],[-90.39239,38.81398,140],[-90.39245,38.81391,138],[-90.3925,38.81384,138],[-90.39254,38.81377,138],[-90.39258,38.81369,138],[-90.39263,38.81363,138],[-90.39293,38.81329,133],[-90.39298,38.81326,133],[-90.39307,38.81321,132],[-90.39312,38.81318,132],[-90.39318,38.81313,132],[-90.39324,38.81308,132],[-90.39331,38.81303,133],[-90.39338,38.81299,133],[-90.39346,38.81294,133],[-90.39354,38.8129,133],[-90.39363,38.81284,133],[-90.39369,38.8128,133],[-90.39377,38.81275,134],[-90.39385,38.81269,134],[-90.39394,38.81262,135],[-90.39401,38.81255,136],[-90.39409,38.81247,137],[-90.39418,38.81239,137],[-90.39427,38.8123,137],[-90.39435,38.81223,137],[-90.39443,38.81215,138],[-90.39451,38.81207,137],[-90.39456,38.81203,137],[-90.39463,38.81197,137],[-90.39471,38.81192,136],[-90.39478,38.81186,135],[-90.39484,38.81181,134],[-90.3949,38.81177,134],[-90.39496,38.81173,133],[-90.39501,38.81171,133],[-90.39506,38.8117,133],[-90.39512,38.81169,133],[-90.39507,38.81171,133],[-90.39503,38.81168,133],[-90.395,38.81166,132]]],
        "bbox": [
          -90.38753,
          38.81751,
          -90.39512,
          38.8112
        ]
      },
      "properties": {
        "name": "7.22.2020"
      }
    }
  ]
}