{
  "type": "FeatureCollection",
  "features": [
    {
      "type": "Feature",
      "geometry": {
        "type": "MultiLineString",
        "coordinates": [[[-90.39085,38.8111,140],[-90.39084,38.81113,141],[-90.39084,38.81116,141],[-90.39091,38.81119,140],[-90.39094,38.81123,140],[-90.39094,38.81128,141],[-90.39095,38.81132,141],[-90.39097,38.81137,141],[-90.39103,38.81137,141],[-90.39107,38.8114,141],[-90.39109,38.81144,141],[-90.39112,38.81147,142],[-90.39114,38.81151,142],[-90.39114,38.81155,142],[-90.3911,38.81157,143],[-90.39106,38.81159,144],[-90.39104,38.81161,144],[-90.39102,38.81164,145],[-90.39101,38.81167,145],[-90.391,38.8117,146],[-90.39095,38.81172,146],[-90.39093,38.81175,147],[-90.39092,38.81178,147],[-90.39091,38.81182,148],[-90.3909,38.81185,148],[-90.3909,38.81188,148],[-90.3909,38.81191,149],[-90.39091,38.81195,149],[-90.39091,38.81199,149],[-90.3909,38.81203,149],[-90.39089,38.81206,149],[-90.39089,38.8121,149],[-90.39088,38.81213,149],[-90.39087,38.81217,149],[-90.39087,38.81219,149],[-90.39088,38.81223,149],[-90.39089,38.81227,148],[-90.3909,38.8123,147],[-90.3909,38.81233,147],[-90.39091,38.81236,146],[-90.39092,38.81239,145],[-90.39095,38.81242,144],[-90.39098,38.81243,144],[-90.391,38.81245,143],[-90.391,38.81249,142],[-90.391,38.81252,142],[-90.39101,38.81255,143],[-90.391,38.81258,144],[-90.391,38.81262,144],[-90.39098,38.81266,146],[-90.39098,38.81268,146],[-90.39099,38.81271,147],[-90.391,38.81274,147],[-90.391,38.81277,148],[-90.39101,38.8128,149],[-90.39105,38.81282,148],[-90.39108,38.81284,148],[-90.3911,38.81287,149],[-90.39113,38.81289,149],[-90.39115,38.81292,149],[-90.39117,38.81295,150],[-90.39119,38.81298,150],[-90.39121,38.81301,151],[-90.39123,38.81304,151],[-90.39125,38.81307,152],[-90.39127,38.81309,151],[-90.39129,38.81312,151],[-90.3913,38.81315,151],[-90.39132,38.81318,151],[-90.39133,38.81315,151],[-90.39126,38.81312,152],[-90.39131,38.81311,151],[-90.39135,38.81311,150],[-90.39138,38.81313,150],[-90.39139,38.81317,150],[-90.39138,38.8132,150],[-90.3914,38.81322,150],[-90.39142,38.81324,150],[-90.39144,38.81327,149],[-90.39147,38.8133,149],[-90.39151,38.81332,149],[-90.39154,38.81334,148],[-90.39157,38.81335,148],[-90.39161,38.81336,147],[-90.39163,38.81338,146],[-90.39163,38.81341,146],[-90.39163,38.81345,145],[-90.39164,38.81348,145],[-90.39165,38.81351,144],[-90.39166,38.81354,144],[-90.39168,38.81357,143],[-90.39169,38.8136,142],[-90.39171,38.81363,142],[-90.39172,38.81365,143],[-90.39174,38.81369,143],[-90.39176,38.81372,143],[-90.39177,38.81375,143],[-90.3918,38.81377,142],[-90.39183,38.81379,142],[-90.39187,38.81381,140],[-90.3919,38.81382,140],[-90.39194,38.81382,138],[-90.39197,38.81384,138],[-90.39201,38.81385,137],[-90.39206,38.81387,136],[-90.39208,38.81389,135],[-90.39209,38.81392,137],[-90.39212,38.81394,137],[-90.39215,38.81397,139],[-90.39218,38.814,140],[-90.3922,38.81402,141],[-90.39224,38.81404,142],[-90.39227,38.81405,143],[-90.39229,38.81407,145],[-90.39233,38.81407,145],[-90.3923,38.81409,146],[-90.39227,38.81408,145],[-90.39226,38.81405,143],[-90.39228,38.81403,142],[-90.3923,38.81405,143],[-90.39232,38.81409,146],[-90.39232,38.81412,148],[-90.39234,38.81415,149],[-90.39236,38.81417,150],[-90.39239,38.81419,150],[-90.39244,38.81422,151],[-90.39246,38.81424,151],[-90.39249,38.81426,152],[-90.39252,38.81428,152],[-90.39255,38.81431,152],[-90.39259,38.81433,152],[-90.39265,38.81434,152],[-90.39268,38.81434,151],[-90.39271,38.81436,151],[-90.39272,38.81439,152],[-90.39277,38.8144,152],[-90.39278,38.81443,152],[-90.39281,38.81445,152],[-90.39285,38.81446,151],[-90.39289,38.81448,150],[-90.39291,38.81451,149],[-90.39292,38.81454,149],[-90.39294,38.81456,149],[-90.39297,38.81459,148],[-90.39298,38.81462,147],[-90.39299,38.81465,147],[-90.39301,38.81469,147],[-90.39301,38.81472,146],[-90.39303,38.81475,146],[-90.39303,38.81478,146],[-90.39304,38.81482,146],[-90.39305,38.81485,146],[-90.39306,38.81488,147],[-90.39307,38.81491,147],[-90.39308,38.81494,147],[-90.39311,38.81497,146],[-90.39313,38.81499,146],[-90.39315,38.81503,145],[-90.39316,38.81505,145],[-90.39316,38.81508,145],[-90.39317,38.81511,144],[-90.39318,38.81515,143],[-90.39318,38.81518,143],[-90.39318,38.81521,143],[-90.39316,38.81525,143],[-90.39315,38.81529,143],[-90.39312,38.81532,143],[-90.39309,38.81535,142],[-90.39307,38.81538,142],[-90.39305,38.8154,142],[-90.39301,38.81542,142],[-90.39296,38.81542,144],[-90.39292,38.81543,144],[-90.39288,38.81543,145],[-90.39282,38.81545,146],[-90.39279,38.81548,146],[-90.39276,38.8155,147],[-90.39273,38.81552,147],[-90.39272,38.81555,147],[-90.3927,38.81559,147],[-90.39268,38.81561,147],[-90.39265,38.81564,148],[-90.39265,38.81567,147],[-90.39266,38.8157,146],[-90.39267,38.81573,145],[-90.39269,38.81576,144],[-90.3927,38.81579,143],[-90.3927,38.81583,142],[-90.3927,38.81586,142],[-90.39271,38.8159,142],[-90.39271,38.81593,142],[-90.3927,38.81596,142],[-90.39269,38.81599,142],[-90.39268,38.81602,143],[-90.39268,38.81605,143],[-90.39265,38.81607,144],[-90.39262,38.81609,145],[-90.39258,38.8161,146],[-90.39255,38.81611,147],[-90.39251,38.81613,148],[-90.39249,38.81616,148],[-90.39247,38.81618,148],[-90.39243,38.81619,149],[-90.39241,38.81622,149],[-90.39238,38.81625,149],[-90.39236,38.81628,149],[-90.39235,38.81631,148],[-90.39234,38.81634,147],[-90.39233,38.81637,147],[-90.39232,38.8164,146],[-90.39231,38.81643,146],[-90.39229,38.81646,146],[-90.39228,38.81649,146],[-90.39226,38.81652,146],[-90.39225,38.81655,146],[-90.39225,38.81658,146],[-90.39222,38.81662,146],[-90.3922,38.81664,146],[-90.39216,38.81666,147],[-90.39211,38.81667,147],[-90.39207,38.81667,148],[-90.39205,38.81669,148],[-90.39203,38.81673,149],[-90.39199,38.81675,149],[-90.39196,38.81677,150],[-90.39193,38.81679,150],[-90.3919,38.81681,150],[-90.39187,38.81683,150],[-90.39185,38.81687,149],[-90.39183,38.81689,149],[-90.3918,38.81692,148],[-90.39178,38.81695,148],[-90.39175,38.81697,147],[-90.39175,38.817,146],[-90.39172,38.81698,146],[-90.3917,38.81695,147],[-90.3917,38.81693,148],[-90.39172,38.8169,149],[-90.39176,38.81689,149],[-90.39173,38.81691,149],[-90.3917,38.81693,148],[-90.39168,38.81697,146],[-90.39166,38.81699,146],[-90.39161,38.81701,146],[-90.39158,38.81701,146],[-90.39154,38.81701,147],[-90.39151,38.81704,146],[-90.39146,38.81706,146],[-90.39142,38.81707,147],[-90.39137,38.81706,148],[-90.39134,38.81705,149],[-90.3913,38.81703,150],[-90.39125,38.81702,152],[-90.39123,38.81699,153],[-90.39123,38.81695,155],[-90.39124,38.81684,158],[-90.39123,38.81687,158],[-90.39122,38.8169,157],[-90.39124,38.81693,156],[-90.39127,38.81697,153],[-90.39126,38.81701,152],[-90.39126,38.81705,150],[-90.39127,38.81708,149],[-90.3913,38.8171,147],[-90.3913,38.81713,146],[-90.3913,38.81716,145],[-90.39127,38.81718,144],[-90.39124,38.81719,145],[-90.39123,38.81722,144],[-90.39115,38.81722,145],[-90.39111,38.81724,145],[-90.39109,38.81726,145],[-90.39106,38.8173,144],[-90.39104,38.81733,144],[-90.39102,38.81735,144],[-90.39098,38.81736,144],[-90.39094,38.81737,144],[-90.39089,38.81738,145],[-90.39086,38.81739,145],[-90.39082,38.81741,145],[-90.39079,38.81742,145],[-90.39075,38.81744,145],[-90.39071,38.81745,145],[-90.39067,38.81745,146],[-90.39063,38.81747,145],[-90.3906,38.81747,146],[-90.39058,38.81749,146],[-90.39061,38.81752,144],[-90.3906,38.81755,144],[-90.39059,38.81758,143],[-90.39061,38.81764,142],[-90.39056,38.81756,144],[-90.39041,38.81762,144],[-90.39026,38.81766,145],[-90.39011,38.81767,147],[-90.39006,38.81736,154],[-90.38885,38.8171,170],[-90.38968,38.81642,169],[-90.38977,38.81648,169],[-90.38983,38.81657,169],[-90.38983,38.81668,168],[-90.38952,38.8159,174],[-90.38739,38.8146,201],[-90.38734,38.81458,202],[-90.38732,38.81462,202],[-90.38729,38.81465,202],[-90.38725,38.81464,202],[-90.38722,38.81464,202],[-90.38722,38.81461,202],[-90.38717,38.81462,203],[-90.38712,38.81468,203],[-90.3871,38.81458,203],[-90.38705,38.8146,203],[-90.38703,38.81456,203],[-90.38691,38.81436,202],[-90.3868,38.81419,201],[-90.38681,38.814,199],[-90.38679,38.81378,197],[-90.38684,38.81351,194],[-90.39081,38.81528,186],[-90.39084,38.81537,186],[-90.39082,38.8154,186],[-90.3909,38.81538,186],[-90.39095,38.81538,186],[-90.39099,38.81539,186],[-90.39103,38.81539,186],[-90.39107,38.81538,186],[-90.39111,38.81537,186],[-90.39115,38.81537,186],[-90.39118,38.81536,186],[-90.39123,38.81537,186],[-90.39127,38.81538,186],[-90.3913,38.81539,185],[-90.39135,38.8154,185],[-90.39139,38.81541,185],[-90.39143,38.81542,184],[-90.39147,38.81544,184],[-90.3915,38.81546,183],[-90.39154,38.81549,183],[-90.39159,38.81553,183],[-90.39173,38.81561,181],[-90.3919,38.81576,174],[-90.39177,38.81571,178],[-90.39175,38.81574,179],[-90.39176,38.81577,178],[-90.39178,38.8158,177],[-90.39178,38.81583,176],[-90.39179,38.81587,175],[-90.39179,38.8159,174],[-90.39177,38.81594,174],[-90.39175,38.81598,174],[-90.39175,38.81601,173],[-90.39174,38.81604,173],[-90.39174,38.81607,172],[-90.39174,38.8161,172],[-90.39174,38.81614,170],[-90.39173,38.81617,170],[-90.39172,38.81621,168],[-90.39171,38.81624,168],[-90.39169,38.81628,167],[-90.39168,38.81631,166],[-90.39165,38.81632,166],[-90.39163,38.81635,166],[-90.39161,38.81637,166],[-90.39158,38.8164,165],[-90.39157,38.81643,165],[-90.39156,38.81646,164],[-90.39153,38.81647,164],[-90.3915,38.8165,164],[-90.39149,38.81653,164],[-90.39148,38.81655,163],[-90.39146,38.81658,163],[-90.39141,38.8166,163],[-90.39139,38.81662,163],[-90.3914,38.81666,161],[-90.39141,38.81669,160],[-90.39142,38.81672,159],[-90.39144,38.81675,158],[-90.39147,38.81679,156],[-90.39148,38.8169,152],[-90.39148,38.81694,151],[-90.39104,38.81743,141],[-90.391,38.81701,156],[-90.39097,38.81675,164],[-90.39083,38.81706,157],[-90.38734,38.81914,133],[-90.38727,38.81915,132],[-90.38724,38.81913,133],[-90.38723,38.81916,132],[-90.38719,38.81916,132],[-90.38715,38.81915,133],[-90.38711,38.81917,132],[-90.38707,38.81919,132],[-90.38702,38.81921,132],[-90.38699,38.81922,132],[-90.38694,38.81924,132],[-90.38689,38.81926,133],[-90.38685,38.81927,133],[-90.38681,38.81927,133],[-90.38677,38.81928,134],[-90.38672,38.8193,134],[-90.38669,38.81932,134],[-90.38665,38.81933,134],[-90.38661,38.81933,134],[-90.38664,38.81936,133],[-90.38664,38.8194,132],[-90.38662,38.81943,132],[-90.38661,38.81946,131],[-90.38658,38.81945,131],[-90.38654,38.81945,131],[-90.38651,38.81947,131],[-90.38649,38.81944,131],[-90.38646,38.81943,131],[-90.38642,38.81941,132],[-90.38638,38.81944,131],[-90.38635,38.81946,131],[-90.38632,38.81948,132],[-90.38628,38.81946,134],[-90.38626,38.81955,133],[-90.38623,38.81954,134],[-90.3862,38.81956,134],[-90.38618,38.81958,134],[-90.38614,38.81958,134],[-90.38609,38.81957,135],[-90.38604,38.81957,135],[-90.38601,38.8196,135],[-90.38597,38.81963,134],[-90.38589,38.81968,132],[-90.38556,38.81973,131],[-90.38558,38.82001,131],[-90.38621,38.81995,131],[-90.38603,38.81972,131],[-90.38596,38.81967,132],[-90.38594,38.81969,132],[-90.38595,38.81967,132],[-90.38595,38.81964,133],[-90.38594,38.8196,135],[-90.38595,38.81957,136],[-90.38597,38.81953,137],[-90.38599,38.8195,138],[-90.38602,38.81948,138],[-90.38607,38.81946,138],[-90.38613,38.81945,138],[-90.38621,38.81947,135],[-90.38631,38.81946,133],[-90.38692,38.81909,136],[-90.38673,38.81937,133],[-90.38876,38.81809,158],[-90.38877,38.81804,159],[-90.3888,38.81804,159],[-90.38885,38.81805,158],[-90.38889,38.81806,156],[-90.38893,38.81806,155],[-90.38897,38.81805,155],[-90.389,38.81803,154],[-90.38903,38.81801,154],[-90.38905,38.81799,154],[-90.38909,38.81798,154],[-90.38912,38.81798,153],[-90.38917,38.81796,153],[-90.38921,38.81797,152],[-90.38926,38.81797,151],[-90.3893,38.81797,150],[-90.38934,38.81796,150],[-90.38938,38.81796,150],[-90.38942,38.81796,149],[-90.38946,38.81795,149],[-90.3895,38.81794,149],[-90.38954,38.81793,149],[-90.38957,38.81792,149],[-90.38961,38.81791,149],[-90.38964,38.8179,149],[-90.38967,38.81788,149],[-90.3897,38.81786,149],[-90.38973,38.81785,149],[-90.38978,38.81784,149],[-90.38982,38.81783,149],[-90.38985,38.81782,148],[-90.3899,38.81781,148],[-90.38993,38.81779,148],[-90.38996,38.81778,148],[-90.39,38.81777,148],[-90.39005,38.81778,147],[-90.39009,38.81778,146],[-90.39012,38.81776,146],[-90.39015,38.81775,145],[-90.39019,38.81773,145],[-90.39021,38.8177,145],[-90.39023,38.81768,145],[-90.39026,38.81765,146],[-90.39029,38.81763,146],[-90.39032,38.81762,145],[-90.39036,38.81761,145],[-90.39039,38.81759,145],[-90.3904,38.81756,146],[-90.39043,38.81754,146],[-90.39046,38.81752,146],[-90.3905,38.8175,146],[-90.39051,38.81747,147],[-90.39051,38.81744,148],[-90.39051,38.8174,149],[-90.39054,38.81736,151],[-90.39059,38.81736,150],[-90.39065,38.81735,149],[-90.39108,38.81737,142],[-90.38944,38.81433,189],[-90.38949,38.81428,188],[-90.38954,38.81427,187],[-90.38957,38.81426,186],[-90.38961,38.81427,186],[-90.38964,38.81428,186],[-90.38968,38.8143,185],[-90.38971,38.81431,185],[-90.38975,38.81432,185],[-90.38978,38.81435,186],[-90.38981,38.81437,186],[-90.38983,38.81439,186],[-90.38987,38.81441,186],[-90.3899,38.81442,186],[-90.38993,38.81444,187],[-90.38997,38.81446,187],[-90.39,38.81447,187],[-90.39004,38.81448,187],[-90.39008,38.8145,187],[-90.39009,38.81453,187],[-90.39013,38.81454,187],[-90.39017,38.81455,186],[-90.3902,38.81453,186],[-90.39034,38.81452,184],[-90.39038,38.81448,183],[-90.3904,38.81446,183],[-90.39043,38.81444,182],[-90.39044,38.81439,181],[-90.3905,38.81436,179],[-90.39055,38.81433,178],[-90.39059,38.81429,177],[-90.39064,38.81425,176],[-90.39071,38.8142,174],[-90.39078,38.81417,173],[-90.39082,38.81412,171],[-90.3909,38.8141,170],[-90.39051,38.81363,166],[-90.39122,38.81361,154],[-90.39118,38.81382,158],[-90.39119,38.81394,160],[-90.3912,38.814,162],[-90.39123,38.81406,164],[-90.39122,38.81403,163],[-90.39128,38.81407,163],[-90.39133,38.81405,161],[-90.39132,38.814,160],[-90.39131,38.81395,158],[-90.39132,38.81391,157],[-90.39135,38.81388,155],[-90.3914,38.81388,154],[-90.39145,38.81385,152],[-90.39147,38.81381,151],[-90.39147,38.81375,150],[-90.39141,38.81369,150],[-90.39151,38.8138,150],[-90.39158,38.81388,150],[-90.39161,38.8138,147],[-90.39161,38.8137,146],[-90.39168,38.81357,143],[-90.39167,38.81397,151],[-90.39153,38.81396,154],[-90.39156,38.8139,151],[-90.39158,38.81395,152],[-90.3916,38.81401,154],[-90.39175,38.81404,151],[-90.3918,38.81399,147],[-90.39181,38.81394,145],[-90.3918,38.81384,142],[-90.39186,38.81383,141],[-90.39183,38.81379,142],[-90.39197,38.81372,139],[-90.39204,38.81364,139],[-90.39176,38.81361,142],[-90.39172,38.81349,144],[-90.39166,38.81338,146],[-90.39162,38.81334,147],[-90.39164,38.8133,146],[-90.39159,38.81327,147],[-90.39154,38.81327,148],[-90.39152,38.81323,148],[-90.3915,38.8132,148],[-90.39148,38.81315,148],[-90.39147,38.81311,148],[-90.39146,38.81307,148],[-90.39139,38.81305,149],[-90.39133,38.81303,150],[-90.39127,38.81301,150],[-90.39123,38.81299,150],[-90.3912,38.81301,151],[-90.39118,38.81298,151],[-90.39116,38.81296,150],[-90.39112,38.81294,150],[-90.39109,38.81291,150],[-90.39107,38.81288,150],[-90.39107,38.81285,149],[-90.39108,38.81282,148],[-90.39107,38.81278,147],[-90.39109,38.81273,146],[-90.39111,38.81271,145],[-90.39112,38.81268,144],[-90.3911,38.81264,144],[-90.39111,38.81261,143],[-90.39112,38.81258,142],[-90.39111,38.81254,141],[-90.39108,38.8125,141],[-90.39103,38.81246,142],[-90.391,38.81242,144],[-90.39076,38.81171,147],[-90.39074,38.81159,145],[-90.39066,38.81147,143],[-90.39053,38.81137,142],[-90.39062,38.81134,142],[-90.3907,38.81132,142],[-90.39074,38.81123,142],[-90.39078,38.81118,141],[-90.39081,38.81112,141],[-90.39084,38.81108,140],[-90.39085,38.81104,140],[-90.39086,38.811,139]]],
        "bbox": [
          -90.38556,
          38.82001,
          -90.39318,
          38.811
        ]
      },
      "properties": {
        "name": "6.2.2025"
      }
    }
  ]
}