{
  "type": "FeatureCollection",
  "features": [
    {
      "type": "Feature",
      "geometry": {
        "type": "MultiLineString",
        "coordinates": [[[-90.39087,38.81086,138],[-90.39083,38.81086,138],[-90.39083,38.81088,138],[-90.39084,38.81091,138],[-90.39085,38.81094,139],[-90.39087,38.81097,139],[-90.39088,38.81101,139],[-90.39088,38.81104,139],[-90.39087,38.81107,140],[-90.39087,38.8111,140],[-90.39086,38.81113,140],[-90.39085,38.81115,141],[-90.39083,38.81118,141],[-90.3908,38.8112,141],[-90.39076,38.81121,141],[-90.39073,38.81123,142],[-90.39069,38.81125,142],[-90.39066,38.81126,142],[-90.39063,38.81128,142],[-90.39058,38.81128,142],[-90.39054,38.81128,142],[-90.39051,38.81127,142],[-90.39047,38.81126,142],[-90.39044,38.81125,142],[-90.39041,38.81124,142],[-90.39037,38.81123,142],[-90.39033,38.81122,142],[-90.3903,38.81121,142],[-90.39026,38.81121,143],[-90.39022,38.81121,143],[-90.39017,38.81121,144],[-90.39013,38.81121,144],[-90.39009,38.81121,145],[-90.39005,38.81119,145],[-90.39001,38.81118,146],[-90.38997,38.81118,146],[-90.38994,38.81118,147],[-90.3899,38.81119,147],[-90.38987,38.8112,148],[-90.38983,38.81121,148],[-90.38978,38.81121,149],[-90.38973,38.81121,150],[-90.38968,38.81121,150],[-90.38965,38.81121,151],[-90.38961,38.81121,151],[-90.38957,38.81122,151],[-90.38956,38.81119,151],[-90.38953,38.8112,151],[-90.38951,38.81124,151],[-90.38949,38.81126,151],[-90.38947,38.81129,151],[-90.38946,38.81132,151],[-90.38945,38.81135,151],[-90.38942,38.81137,152],[-90.38937,38.81138,152],[-90.38933,38.81138,152],[-90.3893,38.81138,152],[-90.38926,38.8114,152],[-90.38923,38.81142,152],[-90.3892,38.81144,152],[-90.38917,38.81146,152],[-90.38914,38.81148,152],[-90.38911,38.8115,153],[-90.38907,38.81151,154],[-90.38903,38.81152,155],[-90.38899,38.81154,156],[-90.38896,38.81155,157],[-90.38893,38.81156,158],[-90.3889,38.81157,158],[-90.38886,38.81158,159],[-90.38885,38.81161,160],[-90.38885,38.81164,160],[-90.38881,38.81166,161],[-90.38878,38.81167,161],[-90.38875,38.8117,162],[-90.38872,38.81172,162],[-90.3887,38.81175,162],[-90.38868,38.81177,162],[-90.38866,38.8118,162],[-90.38866,38.81183,162],[-90.38866,38.81186,162],[-90.38867,38.81189,161],[-90.3887,38.81191,160],[-90.38872,38.81193,160],[-90.38874,38.81196,159],[-90.38871,38.81198,160],[-90.38874,38.812,160],[-90.38878,38.81201,159],[-90.38881,38.81203,159],[-90.38883,38.81206,159],[-90.38885,38.81209,160],[-90.38885,38.81212,160],[-90.38885,38.81216,161],[-90.38884,38.81218,161],[-90.38883,38.81221,162],[-90.38882,38.81224,162],[-90.38879,38.81226,163],[-90.38875,38.81227,163],[-90.38872,38.81229,164],[-90.38871,38.81232,164],[-90.3887,38.81235,165],[-90.38869,38.81238,165],[-90.38869,38.81241,166],[-90.38871,38.81243,166],[-90.38871,38.81247,166],[-90.38869,38.8125,167],[-90.38867,38.81252,167],[-90.38866,38.81255,168],[-90.38865,38.81259,168],[-90.38862,38.81262,169],[-90.38859,38.81263,170],[-90.38855,38.81265,171],[-90.38853,38.81267,172],[-90.3885,38.81269,173],[-90.38847,38.8127,174],[-90.38844,38.81271,175],[-90.3884,38.81273,176],[-90.38838,38.81275,177],[-90.38834,38.81276,179],[-90.38831,38.81278,180],[-90.38827,38.81278,181],[-90.38823,38.81279,183],[-90.38819,38.8128,184],[-90.38815,38.81281,185],[-90.38813,38.81282,186],[-90.38812,38.81286,187],[-90.38813,38.81288,187],[-90.38811,38.81292,188],[-90.38812,38.81295,188],[-90.38812,38.81298,188],[-90.38811,38.81301,189],[-90.3881,38.81304,189],[-90.38809,38.81306,190],[-90.38808,38.8131,191],[-90.38807,38.81312,191],[-90.38804,38.81315,192],[-90.38801,38.81317,193],[-90.38798,38.8132,193],[-90.38797,38.81323,194],[-90.38794,38.81325,194],[-90.38791,38.81327,195],[-90.38788,38.81329,195],[-90.38783,38.8133,195],[-90.3878,38.81331,195],[-90.38776,38.81332,195],[-90.38772,38.81332,195],[-90.38768,38.81332,195],[-90.38765,38.81333,195],[-90.38765,38.81336,195],[-90.38766,38.81339,195],[-90.38767,38.81342,195],[-90.38765,38.81345,195],[-90.38764,38.81347,195],[-90.38762,38.8135,196],[-90.38762,38.81353,196],[-90.38762,38.81356,196],[-90.38762,38.8136,196],[-90.38761,38.81362,196],[-90.3876,38.81365,197],[-90.38759,38.81368,197],[-90.38758,38.81371,197],[-90.38756,38.81375,198],[-90.38755,38.81378,198],[-90.38756,38.81381,198],[-90.38758,38.81383,199],[-90.38761,38.81385,199],[-90.38765,38.81387,199],[-90.38768,38.81389,199],[-90.38771,38.8139,200],[-90.38775,38.81391,200],[-90.38778,38.81391,199],[-90.38783,38.81391,199],[-90.38787,38.81391,199],[-90.38791,38.81391,199],[-90.38794,38.8139,199],[-90.38799,38.81389,199],[-90.38802,38.81389,199],[-90.38806,38.81389,198],[-90.38809,38.81389,198],[-90.38815,38.81389,198],[-90.38819,38.8139,198],[-90.38824,38.81391,198],[-90.38827,38.81392,198],[-90.38831,38.81393,198],[-90.38835,38.81393,197],[-90.38838,38.81394,197],[-90.38841,38.81395,197],[-90.38845,38.81397,197],[-90.38849,38.81398,196],[-90.38852,38.814,196],[-90.38855,38.81401,196],[-90.38859,38.81402,196],[-90.38863,38.81404,195],[-90.38867,38.81406,195],[-90.38871,38.81407,194],[-90.38876,38.81408,194],[-90.38881,38.81409,193],[-90.38885,38.81411,193],[-90.38889,38.81412,192],[-90.38893,38.81414,192],[-90.38898,38.81414,192],[-90.38902,38.81414,192],[-90.38906,38.81414,192],[-90.38911,38.81415,192],[-90.38915,38.81416,192],[-90.38918,38.81417,192],[-90.38921,38.81419,192],[-90.38924,38.81421,191],[-90.38927,38.81423,191],[-90.38931,38.81424,190],[-90.38934,38.81425,190],[-90.38938,38.81427,189],[-90.38942,38.81429,189],[-90.38946,38.8143,188],[-90.38948,38.81432,188],[-90.38952,38.81433,188],[-90.38955,38.81435,188],[-90.38958,38.81438,188],[-90.38959,38.81441,188],[-90.3896,38.81445,189],[-90.3896,38.81448,189],[-90.38959,38.81451,189],[-90.38958,38.81454,190],[-90.38957,38.81457,190],[-90.38957,38.8146,190],[-90.38957,38.81463,190],[-90.38956,38.81467,191],[-90.38956,38.8147,191],[-90.38956,38.81473,191],[-90.38958,38.81476,191],[-90.38958,38.8148,190],[-90.38959,38.81483,190],[-90.38961,38.81487,190],[-90.38962,38.8149,189],[-90.38965,38.81493,189],[-90.38969,38.81496,189],[-90.38971,38.81498,189],[-90.38973,38.815,189],[-90.38976,38.81502,188],[-90.38979,38.81504,188],[-90.38982,38.81507,187],[-90.38985,38.8151,186],[-90.38988,38.81512,186],[-90.3899,38.81515,185],[-90.38993,38.81517,184],[-90.38996,38.81519,184],[-90.38999,38.81521,183],[-90.39003,38.81524,182],[-90.39007,38.81526,182],[-90.3901,38.81527,182],[-90.39014,38.81528,181],[-90.39018,38.81529,181],[-90.39021,38.81531,181],[-90.39025,38.81532,181],[-90.39028,38.81533,181],[-90.39032,38.81535,181],[-90.39036,38.81536,181],[-90.3904,38.81537,181],[-90.39044,38.81539,182],[-90.39048,38.81541,182],[-90.39052,38.81542,182],[-90.39056,38.81543,182],[-90.3906,38.81543,183],[-90.39063,38.81543,183],[-90.39067,38.81544,184],[-90.39071,38.81545,184],[-90.39075,38.81545,184],[-90.39079,38.81546,185],[-90.39084,38.81546,185],[-90.39089,38.81546,185],[-90.39093,38.81544,186],[-90.39097,38.81544,186],[-90.39101,38.81543,186],[-90.39104,38.81544,186],[-90.39107,38.81541,186],[-90.39111,38.8154,186],[-90.39114,38.8154,186],[-90.39118,38.8154,186],[-90.39123,38.81541,186],[-90.39126,38.8154,186],[-90.3913,38.8154,185],[-90.39134,38.81541,185],[-90.39137,38.81541,185],[-90.39142,38.81541,185],[-90.39145,38.81542,184],[-90.39148,38.81544,184],[-90.39152,38.81546,183],[-90.39155,38.81549,183],[-90.39159,38.81551,183],[-90.39162,38.81553,183],[-90.39165,38.81556,183],[-90.39167,38.81558,182],[-90.3917,38.8156,181],[-90.39173,38.81562,180],[-90.39177,38.81564,179],[-90.3918,38.81563,179],[-90.39185,38.81563,178],[-90.39189,38.81563,177],[-90.39192,38.81564,176],[-90.39193,38.81561,177],[-90.39193,38.81558,177],[-90.39194,38.81555,178],[-90.39195,38.81552,177],[-90.39195,38.8155,177],[-90.39195,38.81546,177],[-90.39195,38.81543,176],[-90.39194,38.8154,176],[-90.39194,38.81536,176],[-90.39193,38.81534,176],[-90.39192,38.8153,176],[-90.39192,38.81527,176],[-90.39193,38.81523,174],[-90.39194,38.8152,173],[-90.39195,38.81516,171],[-90.39195,38.81514,170],[-90.39196,38.8151,169],[-90.39196,38.81507,168],[-90.39195,38.81504,167],[-90.39193,38.81501,166],[-90.39191,38.81498,167],[-90.3919,38.81495,167],[-90.3919,38.81491,166],[-90.39191,38.81488,165],[-90.39191,38.81485,165],[-90.39191,38.81482,165],[-90.3919,38.81479,165],[-90.3919,38.81476,164],[-90.39189,38.81472,164],[-90.39189,38.81469,164],[-90.39188,38.81466,164],[-90.39187,38.81463,163],[-90.39185,38.81459,163],[-90.39183,38.81457,164],[-90.39182,38.81454,163],[-90.39181,38.81451,163],[-90.39181,38.81448,163],[-90.3918,38.81445,163],[-90.39179,38.81442,162],[-90.39178,38.81439,162],[-90.39178,38.81436,161],[-90.39177,38.81433,160],[-90.39178,38.8143,159],[-90.39179,38.81428,158],[-90.39179,38.81425,158],[-90.3918,38.81422,157],[-90.39181,38.8142,156],[-90.39185,38.81418,154],[-90.39188,38.81416,153],[-90.39188,38.81413,151],[-90.3919,38.8141,149],[-90.39194,38.8141,148],[-90.39198,38.81409,147],[-90.39203,38.81408,146],[-90.39207,38.81407,146],[-90.39211,38.81406,145],[-90.39215,38.81406,144],[-90.39219,38.81406,144],[-90.39218,38.81403,142],[-90.39214,38.81401,141],[-90.3921,38.814,141],[-90.39207,38.81399,141],[-90.39204,38.81396,140],[-90.39201,38.81394,139],[-90.39197,38.81392,139],[-90.39194,38.81391,139],[-90.39191,38.81389,139],[-90.39187,38.81387,140],[-90.39184,38.81385,141],[-90.39181,38.81383,142],[-90.39177,38.81381,143],[-90.39175,38.81378,144],[-90.39172,38.81375,144],[-90.3917,38.81372,144],[-90.39168,38.8137,144],[-90.39165,38.81367,144],[-90.39163,38.81363,144],[-90.39162,38.81359,144],[-90.39161,38.81355,145],[-90.3916,38.81352,145],[-90.39158,38.81349,146],[-90.39157,38.81346,147],[-90.39155,38.81343,147],[-90.39152,38.81341,148],[-90.39149,38.8134,149],[-90.39145,38.81339,149],[-90.39141,38.81337,150],[-90.39138,38.81335,151],[-90.39136,38.81332,151],[-90.39135,38.81328,151],[-90.39134,38.81325,151],[-90.39132,38.81322,151],[-90.39128,38.81321,152],[-90.39124,38.81319,152],[-90.39121,38.81317,152],[-90.3912,38.81314,153],[-90.39119,38.8131,153],[-90.39117,38.81307,153],[-90.39115,38.81304,153],[-90.39113,38.81301,152],[-90.39111,38.81298,152],[-90.3911,38.81294,151],[-90.39108,38.81291,150],[-90.39107,38.81289,150],[-90.39105,38.81286,149],[-90.39103,38.81283,149],[-90.39102,38.8128,148],[-90.39102,38.81277,148],[-90.39101,38.81273,147],[-90.391,38.8127,146],[-90.39099,38.81268,146],[-90.39098,38.81265,145],[-90.39097,38.81261,145],[-90.39097,38.81257,144],[-90.39096,38.81254,143],[-90.39095,38.81251,142],[-90.39094,38.81248,143],[-90.39094,38.81245,144],[-90.39093,38.81241,145],[-90.39091,38.81239,145],[-90.3909,38.81236,146],[-90.39089,38.81233,147],[-90.39088,38.81229,148],[-90.39086,38.81227,148],[-90.39084,38.81224,149],[-90.39084,38.8122,149],[-90.39084,38.81218,149],[-90.39084,38.81215,149],[-90.39086,38.81212,149],[-90.39086,38.81208,149],[-90.39087,38.81205,149],[-90.39088,38.81201,149],[-90.39089,38.81198,149],[-90.39089,38.81194,149],[-90.39088,38.81191,149],[-90.39088,38.81188,148],[-90.39088,38.81184,148],[-90.39088,38.81181,148],[-90.39088,38.81178,147],[-90.39089,38.81174,147],[-90.39091,38.81171,146],[-90.39093,38.81167,146],[-90.39095,38.81164,145],[-90.39099,38.81162,145],[-90.39102,38.8116,144],[-90.39104,38.81158,144],[-90.39106,38.81154,143],[-90.39107,38.81151,143],[-90.39106,38.81148,142],[-90.39103,38.81145,142],[-90.39101,38.81142,142],[-90.39098,38.8114,142],[-90.39095,38.81137,141],[-90.39093,38.81135,141],[-90.3909,38.81133,142],[-90.39088,38.8113,141],[-90.39086,38.81127,141],[-90.39084,38.81124,141],[-90.39083,38.8112,141],[-90.39082,38.81117,141],[-90.39082,38.81114,141],[-90.39082,38.81111,141],[-90.39082,38.81108,140],[-90.39082,38.81105,140],[-90.39083,38.81102,140],[-90.39083,38.81099,139],[-90.39082,38.81095,139],[-90.39081,38.81093,139],[-90.3908,38.81089,138],[-90.3908,38.81087,138],[-90.3908,38.81084,138],[-90.39082,38.81082,138]]],
        "bbox": [
          -90.38755,
          38.81564,
          -90.39219,
          38.81082
        ]
      },
      "properties": {
        "name": "5.11.2022"
      }
    }
  ]
}