{
  "type": "FeatureCollection",
  "features": [
    {
      "type": "Feature",
      "geometry": {
        "type": "MultiLineString",
        "coordinates": [[[-90.39498,38.81173,133],[-90.39495,38.81174,133],[-90.39492,38.81177,134],[-90.39488,38.81179,134],[-90.39485,38.8118,134],[-90.3948,38.81183,135],[-90.39477,38.81185,135],[-90.39475,38.81187,136],[-90.39473,38.8119,136],[-90.39471,38.81193,136],[-90.39468,38.81195,137],[-90.39466,38.81198,137],[-90.39464,38.812,137],[-90.39462,38.81203,137],[-90.39459,38.81205,137],[-90.39456,38.81206,137],[-90.39453,38.81209,137],[-90.3945,38.81211,137],[-90.39446,38.81213,137],[-90.39443,38.81216,138],[-90.3944,38.81218,138],[-90.39438,38.81221,138],[-90.39435,38.81224,137],[-90.39433,38.81226,137],[-90.3943,38.81229,137],[-90.39427,38.8123,137],[-90.39424,38.81233,137],[-90.39422,38.81235,137],[-90.39419,38.81238,137],[-90.39414,38.81241,137],[-90.3941,38.81243,137],[-90.39408,38.81245,137],[-90.39404,38.81247,137],[-90.39402,38.8125,137],[-90.39399,38.81252,136],[-90.39395,38.81254,136],[-90.39392,38.81257,136],[-90.39389,38.8126,135],[-90.39387,38.81261,135],[-90.39383,38.81264,135],[-90.39379,38.81267,135],[-90.39376,38.81269,134],[-90.39374,38.81271,134],[-90.3937,38.81273,134],[-90.39367,38.81275,134],[-90.39365,38.81277,134],[-90.39362,38.81279,133],[-90.39359,38.81281,133],[-90.39355,38.81283,133],[-90.39352,38.81285,133],[-90.39346,38.81289,133],[-90.39339,38.81292,133],[-90.39334,38.81294,133],[-90.39331,38.81296,133],[-90.39327,38.81298,133],[-90.39324,38.81301,133],[-90.39321,38.81303,133],[-90.39318,38.81305,133],[-90.39315,38.81307,132],[-90.39312,38.8131,132],[-90.39309,38.81312,132],[-90.39306,38.81314,132],[-90.39304,38.81316,133],[-90.393,38.81318,133],[-90.39297,38.8132,133],[-90.39295,38.81323,133],[-90.39292,38.81325,133],[-90.3929,38.81327,134],[-90.39288,38.81329,134],[-90.39286,38.81332,134],[-90.39283,38.81334,134],[-90.39279,38.81335,135],[-90.39275,38.81337,135],[-90.39272,38.81338,135],[-90.39267,38.8134,136],[-90.39263,38.81342,136],[-90.3926,38.81344,137],[-90.39257,38.81346,137],[-90.39256,38.81349,137],[-90.39255,38.81352,138],[-90.39253,38.81355,138],[-90.39252,38.81358,138],[-90.39252,38.81361,138],[-90.39251,38.81364,138],[-90.39251,38.81367,138],[-90.39251,38.81371,138],[-90.3925,38.81374,138],[-90.3925,38.81377,138],[-90.39249,38.81381,138],[-90.3925,38.81383,138],[-90.3925,38.81386,138],[-90.39249,38.81389,137],[-90.39247,38.81386,137],[-90.39245,38.81389,137],[-90.39247,38.81387,137],[-90.39246,38.8139,137],[-90.39242,38.81395,139],[-90.39235,38.81402,142],[-90.39232,38.81403,142],[-90.39228,38.81404,143],[-90.39227,38.81406,144],[-90.39229,38.81409,146],[-90.3923,38.81412,148],[-90.39232,38.81415,149],[-90.39234,38.8142,151],[-90.39238,38.81425,151],[-90.39243,38.81428,152],[-90.39249,38.8143,152],[-90.39256,38.81431,152],[-90.39264,38.81432,151],[-90.39271,38.81432,151],[-90.39275,38.81432,150],[-90.39279,38.81434,150],[-90.39281,38.81436,150],[-90.39283,38.81439,150],[-90.39285,38.81441,150],[-90.39288,38.81443,150],[-90.3929,38.81446,150],[-90.39292,38.81449,149],[-90.39295,38.81452,148],[-90.39298,38.81454,148],[-90.39301,38.81457,147],[-90.393,38.81466,147],[-90.39301,38.81469,147],[-90.393,38.81472,147],[-90.393,38.81475,147],[-90.39299,38.81479,147],[-90.39298,38.81483,147],[-90.39298,38.81487,148],[-90.39299,38.8149,148],[-90.39302,38.81493,147],[-90.39305,38.81496,147],[-90.39307,38.81498,147],[-90.39308,38.815,147],[-90.39309,38.81503,147],[-90.39309,38.81506,146],[-90.39309,38.81509,146],[-90.39311,38.81512,145],[-90.39312,38.81515,145],[-90.39313,38.81518,144],[-90.39313,38.81522,144],[-90.39311,38.81525,144],[-90.39308,38.81528,145],[-90.39305,38.81532,144],[-90.39303,38.81534,144],[-90.393,38.81537,144],[-90.39297,38.81539,144],[-90.39288,38.81542,146],[-90.39281,38.81544,147],[-90.39277,38.81545,148],[-90.39273,38.81547,148],[-90.3927,38.81549,149],[-90.39267,38.81551,150],[-90.39265,38.81553,150],[-90.39262,38.81556,151],[-90.3926,38.81559,151],[-90.39259,38.81562,150],[-90.39258,38.81565,150],[-90.39258,38.81568,149],[-90.39259,38.81571,148],[-90.3926,38.81573,148],[-90.39262,38.81576,146],[-90.39263,38.81579,145],[-90.39264,38.81582,144],[-90.39264,38.81585,144],[-90.39264,38.81588,144],[-90.39263,38.81591,144],[-90.39263,38.81595,144],[-90.39263,38.81597,144],[-90.39262,38.816,145],[-90.39262,38.81603,145],[-90.3926,38.81605,145],[-90.39258,38.81608,146],[-90.39257,38.8161,146],[-90.39255,38.81613,147],[-90.39253,38.81616,146],[-90.3925,38.81618,147],[-90.39246,38.81619,148],[-90.39243,38.81621,148],[-90.3924,38.81623,149],[-90.39237,38.81624,149],[-90.39235,38.81627,149],[-90.39234,38.81629,149],[-90.39234,38.81632,148],[-90.39238,38.81633,147],[-90.39235,38.81635,147],[-90.39231,38.81635,148],[-90.3923,38.81637,147],[-90.39228,38.81639,147],[-90.39226,38.81642,147],[-90.39224,38.81645,147],[-90.39223,38.81648,147],[-90.39222,38.81651,147],[-90.3922,38.81654,147],[-90.39217,38.81657,148],[-90.39215,38.8166,148],[-90.39212,38.81661,148],[-90.39209,38.81663,148],[-90.39207,38.81666,148],[-90.39206,38.81669,148],[-90.39204,38.81671,149],[-90.392,38.81671,149],[-90.39197,38.81672,150],[-90.39195,38.81674,150],[-90.39192,38.81677,150],[-90.39189,38.81679,150],[-90.39187,38.81682,150],[-90.39184,38.81685,150],[-90.39175,38.81688,149],[-90.39169,38.8169,149],[-90.39166,38.81691,149],[-90.39162,38.81692,149],[-90.39159,38.81694,149],[-90.39157,38.81697,148],[-90.39154,38.817,147],[-90.39151,38.81703,147],[-90.39147,38.81705,147],[-90.39143,38.81706,147],[-90.39139,38.81707,147],[-90.39135,38.81709,147],[-90.39132,38.81711,147],[-90.39129,38.81712,147],[-90.39126,38.81715,146],[-90.39123,38.81717,146],[-90.3912,38.8172,145],[-90.39118,38.81722,144],[-90.39114,38.81723,145],[-90.39111,38.81725,145],[-90.39107,38.81727,145],[-90.39104,38.81729,145],[-90.39101,38.81731,145],[-90.39099,38.81734,144],[-90.39096,38.81736,144],[-90.39094,38.81738,144],[-90.39093,38.81741,143],[-90.39091,38.81743,143],[-90.39089,38.81746,142],[-90.39086,38.81749,142],[-90.39083,38.8175,142],[-90.39079,38.8175,142],[-90.39075,38.8175,143],[-90.39071,38.81749,144],[-90.39067,38.81747,145],[-90.39064,38.81746,146],[-90.39062,38.81743,147],[-90.39058,38.81742,148],[-90.39055,38.81743,148],[-90.39052,38.81744,148],[-90.39048,38.81745,148],[-90.39045,38.81746,148],[-90.39044,38.81749,147],[-90.39042,38.81752,147],[-90.3904,38.81754,146],[-90.39037,38.81756,146],[-90.39034,38.81758,146],[-90.39031,38.8176,146],[-90.39027,38.81762,146],[-90.39024,38.81764,146],[-90.3902,38.81765,146],[-90.39017,38.81766,147],[-90.39014,38.81768,147],[-90.3901,38.81769,147],[-90.39006,38.8177,148],[-90.39003,38.81772,148],[-90.39,38.81774,148],[-90.38996,38.81776,148],[-90.38993,38.81777,148],[-90.38991,38.8178,148],[-90.38989,38.81783,148],[-90.38986,38.81785,148],[-90.38984,38.81788,148],[-90.38981,38.8179,148],[-90.38976,38.81791,148],[-90.38973,38.81792,148],[-90.3897,38.81793,148],[-90.38966,38.81794,148],[-90.38963,38.81795,148],[-90.38959,38.81797,148],[-90.38956,38.81798,148],[-90.38952,38.81799,148],[-90.38948,38.81799,148],[-90.38944,38.81799,148],[-90.38941,38.818,148],[-90.38937,38.81799,149],[-90.38933,38.81798,150],[-90.3893,38.81797,150],[-90.38926,38.81797,151],[-90.38922,38.81797,151],[-90.38918,38.81798,152],[-90.38914,38.81799,152],[-90.38911,38.818,153],[-90.38908,38.81802,153],[-90.38904,38.81803,153],[-90.38901,38.81805,154],[-90.38897,38.81805,155],[-90.38894,38.81807,155],[-90.38891,38.81809,155],[-90.38888,38.81811,155],[-90.38886,38.81814,154],[-90.38883,38.81816,153],[-90.38881,38.81818,153],[-90.38878,38.8182,153],[-90.38875,38.81821,153],[-90.38871,38.81822,153],[-90.38868,38.81824,153],[-90.38865,38.81826,152],[-90.38861,38.81828,152],[-90.38858,38.81829,152],[-90.38856,38.81831,151],[-90.38853,38.81833,150],[-90.38851,38.81835,149],[-90.38849,38.81838,148],[-90.38846,38.8184,147],[-90.38843,38.81842,146],[-90.38839,38.81843,145],[-90.38836,38.81843,145],[-90.38832,38.81845,144],[-90.3883,38.81848,143],[-90.3883,38.81851,142],[-90.3883,38.81853,141],[-90.38829,38.81856,140],[-90.38826,38.81858,140],[-90.38822,38.81859,140],[-90.38819,38.8186,140],[-90.38816,38.81862,140],[-90.38812,38.81863,140],[-90.38809,38.81865,141],[-90.38805,38.81867,141],[-90.38801,38.81869,141],[-90.38799,38.81871,141],[-90.38795,38.81872,142],[-90.38792,38.81873,142],[-90.38789,38.81875,142],[-90.38786,38.81877,142],[-90.38783,38.81879,142],[-90.3878,38.81881,142],[-90.38776,38.81883,142],[-90.38773,38.81885,142],[-90.3877,38.81886,142],[-90.38767,38.81888,142],[-90.38763,38.8189,141],[-90.38759,38.81891,141],[-90.38756,38.81892,141],[-90.38752,38.81894,140],[-90.38749,38.81897,139],[-90.38747,38.81899,138],[-90.38745,38.81901,138],[-90.38744,38.81904,137],[-90.38741,38.81906,136],[-90.38739,38.81909,135],[-90.38737,38.81911,134],[-90.38734,38.81914,133],[-90.3873,38.81915,132],[-90.38727,38.81916,132],[-90.38723,38.81917,132],[-90.3872,38.81918,132],[-90.38716,38.81919,132],[-90.38713,38.81921,132],[-90.3871,38.81923,132],[-90.38707,38.81925,132],[-90.38704,38.81927,132],[-90.38702,38.81929,132],[-90.38699,38.81932,132],[-90.38696,38.81933,132],[-90.38693,38.81935,132],[-90.38689,38.81935,132],[-90.38685,38.81935,132],[-90.38682,38.81936,132],[-90.38679,38.81938,132],[-90.38676,38.81939,132],[-90.38673,38.81941,132],[-90.3867,38.81943,132],[-90.38667,38.81944,132],[-90.38663,38.81945,131],[-90.3866,38.81946,131],[-90.38657,38.81947,131],[-90.38655,38.8195,131],[-90.38652,38.81952,131],[-90.38648,38.81952,131],[-90.38645,38.81953,131],[-90.38641,38.81954,131],[-90.38638,38.81955,131],[-90.38635,38.81957,131],[-90.38635,38.81954,131],[-90.38637,38.81952,131],[-90.3864,38.81951,131],[-90.38644,38.8195,131],[-90.38648,38.81949,131],[-90.38651,38.81949,131],[-90.38655,38.81949,131],[-90.38658,38.81948,131],[-90.38661,38.81949,131],[-90.38665,38.81949,131],[-90.38669,38.81948,131],[-90.38672,38.81947,131],[-90.38676,38.81947,131],[-90.3868,38.81945,131],[-90.38683,38.81943,132],[-90.38687,38.81942,132],[-90.38691,38.8194,132],[-90.38695,38.81938,132],[-90.38697,38.81936,132],[-90.38701,38.81934,132],[-90.38705,38.81932,132],[-90.38708,38.81931,132],[-90.38712,38.81929,132],[-90.38715,38.81927,132],[-90.38719,38.81926,132],[-90.38727,38.81924,132],[-90.38732,38.81922,132],[-90.38735,38.81919,132],[-90.38738,38.81916,132],[-90.38742,38.81912,134],[-90.38746,38.81909,135],[-90.3875,38.81907,136],[-90.38752,38.81905,136],[-90.38752,38.81902,137],[-90.38752,38.81899,138],[-90.38752,38.81896,139],[-90.38753,38.81893,140],[-90.38755,38.81889,141],[-90.38758,38.81887,142],[-90.38762,38.81885,142],[-90.38766,38.81884,142],[-90.38773,38.81884,142],[-90.38782,38.81883,142],[-90.38791,38.81879,141],[-90.38798,38.81875,141],[-90.38795,38.81873,142],[-90.38798,38.8187,142],[-90.38801,38.81867,142],[-90.38804,38.81866,141],[-90.38807,38.81864,141],[-90.3881,38.81863,141],[-90.38814,38.81861,140],[-90.38819,38.8186,140],[-90.38823,38.81859,140],[-90.38827,38.81857,140],[-90.38831,38.81855,140],[-90.38836,38.8185,142],[-90.38838,38.81848,143],[-90.3884,38.81844,145],[-90.38843,38.81842,146],[-90.38846,38.8184,147],[-90.3885,38.81839,147],[-90.38854,38.81839,147],[-90.38858,38.81839,147],[-90.38862,38.81838,147],[-90.38866,38.81835,148],[-90.38867,38.81832,149],[-90.38868,38.81829,150],[-90.3887,38.81826,151],[-90.38874,38.81825,151],[-90.38877,38.81824,151],[-90.38881,38.81822,151],[-90.38883,38.81819,152],[-90.38885,38.81816,153],[-90.38887,38.81814,154],[-90.38888,38.81811,155],[-90.38889,38.81808,155],[-90.3889,38.81805,156],[-90.38892,38.81803,156],[-90.38897,38.81803,155],[-90.38901,38.81803,154],[-90.38904,38.81802,154],[-90.38907,38.81799,154],[-90.3891,38.81798,154],[-90.38914,38.81798,153],[-90.38918,38.81798,152],[-90.38922,38.81799,151],[-90.38926,38.81799,150],[-90.38929,38.81797,151],[-90.38932,38.81796,150],[-90.38936,38.81795,150],[-90.3894,38.81796,149],[-90.38943,38.81796,149],[-90.38948,38.81796,148],[-90.38952,38.81795,149],[-90.38956,38.81794,149],[-90.38959,38.81793,149],[-90.38962,38.81791,149],[-90.38965,38.81789,149],[-90.38968,38.81788,149],[-90.38972,38.81787,149],[-90.38976,38.81786,149],[-90.3898,38.81785,149],[-90.38984,38.81783,148],[-90.38987,38.81782,148],[-90.3899,38.8178,148],[-90.38992,38.81778,148],[-90.38995,38.81777,148],[-90.38999,38.81775,148],[-90.39002,38.81774,148],[-90.39006,38.81773,147],[-90.3901,38.81772,147],[-90.39013,38.81771,146],[-90.39017,38.81769,146],[-90.39021,38.81768,146],[-90.39024,38.81767,145],[-90.39028,38.81766,145],[-90.39032,38.81765,145],[-90.39035,38.81763,145],[-90.39037,38.81762,145],[-90.39041,38.8176,145],[-90.39044,38.81757,145],[-90.39045,38.81755,146],[-90.39044,38.81752,146],[-90.39044,38.81749,147],[-90.39045,38.81746,148],[-90.39047,38.81744,148],[-90.39051,38.81744,148],[-90.39054,38.81744,148],[-90.39058,38.81744,147],[-90.39061,38.81743,147],[-90.3906,38.81741,148],[-90.39059,38.81737,150],[-90.39059,38.81735,150],[-90.39057,38.81732,152],[-90.39054,38.8173,153],[-90.39052,38.81728,154],[-90.3905,38.81726,154],[-90.3905,38.81723,155],[-90.3905,38.8172,156],[-90.3905,38.81717,157],[-90.3905,38.81714,158],[-90.3905,38.81711,159],[-90.3905,38.81709,160],[-90.3905,38.81706,161],[-90.3905,38.81703,162],[-90.3905,38.817,163],[-90.3905,38.81697,164],[-90.39051,38.81694,165],[-90.39053,38.81692,165],[-90.39057,38.81689,165],[-90.3906,38.81688,165],[-90.39063,38.81686,165],[-90.39067,38.81685,165],[-90.3907,38.81683,165],[-90.39074,38.81681,165],[-90.39078,38.81681,164],[-90.39082,38.8168,164],[-90.39084,38.81678,164],[-90.39088,38.81679,164],[-90.39089,38.81676,164],[-90.39089,38.81673,165],[-90.39092,38.81671,165],[-90.39096,38.81672,165],[-90.391,38.81673,164],[-90.39104,38.81674,164],[-90.39107,38.81675,163],[-90.3911,38.81677,163],[-90.39112,38.81679,162],[-90.39115,38.81681,161],[-90.39118,38.81683,160],[-90.39121,38.81682,159],[-90.39124,38.81681,159],[-90.39126,38.81678,160],[-90.39129,38.81676,160],[-90.3913,38.81673,161],[-90.39132,38.8167,161],[-90.39135,38.81668,162],[-90.39138,38.81666,162],[-90.3914,38.81663,162],[-90.39143,38.81661,162],[-90.39146,38.8166,162],[-90.39148,38.81658,162],[-90.3915,38.81656,162],[-90.39148,38.81658,162],[-90.39152,38.8166,161],[-90.39152,38.81657,162],[-90.39154,38.81654,162],[-90.3915,38.81654,163],[-90.39146,38.81655,164],[-90.39149,38.81657,162],[-90.39151,38.81659,161],[-90.39147,38.81658,162],[-90.39144,38.81657,163],[-90.39141,38.81655,165],[-90.39133,38.81651,167],[-90.39132,38.81644,169],[-90.39132,38.8164,171],[-90.39138,38.81645,169],[-90.39139,38.81649,167],[-90.39135,38.81655,166],[-90.39133,38.81659,165],[-90.39137,38.81663,163],[-90.3914,38.8166,163],[-90.39143,38.81658,163],[-90.39148,38.81657,163],[-90.39152,38.81656,162],[-90.39154,38.81653,162],[-90.39156,38.8165,163],[-90.39158,38.81647,163],[-90.3916,38.81644,164],[-90.39162,38.81641,164],[-90.39165,38.81638,164],[-90.39167,38.81635,165],[-90.39169,38.81631,166],[-90.39171,38.81629,166],[-90.39172,38.81625,167],[-90.39173,38.81622,168],[-90.39173,38.81619,169],[-90.39173,38.81616,170],[-90.39173,38.81612,171],[-90.39174,38.81609,172],[-90.39174,38.81606,173],[-90.39175,38.81603,173],[-90.39175,38.81599,174],[-90.39176,38.81596,174],[-90.39176,38.81592,175],[-90.39176,38.81589,176],[-90.39176,38.81586,176],[-90.39176,38.81583,177],[-90.39176,38.8158,177],[-90.39175,38.81577,178],[-90.39174,38.81574,179],[-90.39174,38.81571,179],[-90.39178,38.81569,178],[-90.39182,38.81568,178],[-90.39185,38.81568,177],[-90.39189,38.81568,176],[-90.39194,38.81568,175],[-90.39196,38.8157,174],[-90.39193,38.81569,175],[-90.39189,38.81569,176],[-90.39185,38.81569,177],[-90.39181,38.8157,178],[-90.39176,38.81571,179],[-90.39172,38.81571,179],[-90.39168,38.81568,181],[-90.3917,38.81565,181],[-90.39167,38.81564,182],[-90.39164,38.81562,182],[-90.39161,38.8156,182],[-90.39158,38.81558,183],[-90.39154,38.81557,183],[-90.39152,38.81554,184],[-90.39149,38.81552,184],[-90.39146,38.8155,184],[-90.39142,38.81549,184],[-90.39138,38.81548,185],[-90.39134,38.81547,185],[-90.39131,38.81547,185],[-90.39127,38.81546,185],[-90.39124,38.81544,185],[-90.3912,38.81544,186],[-90.39116,38.81544,186],[-90.39111,38.81544,186],[-90.39107,38.81546,186],[-90.39104,38.81548,186],[-90.391,38.81549,185],[-90.39095,38.8155,185],[-90.39093,38.81547,185],[-90.39091,38.81545,185],[-90.39086,38.81545,185],[-90.39082,38.81545,185],[-90.39078,38.81545,185],[-90.39074,38.81546,184],[-90.39069,38.81546,184],[-90.39065,38.81545,183],[-90.39061,38.81544,183],[-90.39057,38.81543,183],[-90.39053,38.81542,182],[-90.39049,38.81542,182],[-90.39045,38.81541,181],[-90.39042,38.81539,181],[-90.39039,38.81541,181],[-90.39036,38.81539,181],[-90.39032,38.81538,180],[-90.39027,38.81537,180],[-90.3902,38.81535,180],[-90.39016,38.81533,181],[-90.39012,38.81531,181],[-90.39009,38.8153,181],[-90.39003,38.81528,181],[-90.38998,38.81527,182],[-90.38995,38.81525,182],[-90.38993,38.81523,183],[-90.38989,38.81521,184],[-90.38988,38.81518,184],[-90.38986,38.81515,185],[-90.38982,38.81512,186],[-90.38978,38.8151,186],[-90.38974,38.81508,187],[-90.38973,38.81504,188],[-90.38971,38.81502,188],[-90.38967,38.81499,188],[-90.38964,38.81497,189],[-90.38962,38.81495,189],[-90.38959,38.81493,189],[-90.38956,38.81489,189],[-90.3895,38.81485,189],[-90.38951,38.81481,190],[-90.38955,38.81477,190],[-90.38958,38.81473,191],[-90.38958,38.81467,191],[-90.38955,38.81463,190],[-90.38952,38.81459,190],[-90.38953,38.81455,190],[-90.38955,38.81451,190],[-90.38957,38.81447,189],[-90.38955,38.81443,189],[-90.3895,38.81439,189],[-90.38947,38.81438,189],[-90.38944,38.81436,189],[-90.3894,38.81435,189],[-90.38936,38.81434,190],[-90.38932,38.81432,190],[-90.38929,38.8143,190],[-90.38926,38.81429,191],[-90.38923,38.81427,191],[-90.38919,38.81425,192],[-90.38916,38.81423,192],[-90.38912,38.81421,192],[-90.38908,38.8142,192],[-90.38904,38.8142,192],[-90.38901,38.81419,192],[-90.38897,38.81419,192],[-90.38893,38.81417,192],[-90.3889,38.81416,192],[-90.38886,38.81415,193],[-90.38882,38.81413,193],[-90.38878,38.81412,194],[-90.38874,38.81411,194],[-90.38868,38.8141,195],[-90.38865,38.81409,195],[-90.38862,38.81406,196],[-90.38858,38.81406,196],[-90.38854,38.81405,196],[-90.3885,38.81403,197],[-90.38846,38.81401,197],[-90.38843,38.81399,197],[-90.38839,38.81399,197],[-90.38835,38.81398,198],[-90.38832,38.81397,198],[-90.38828,38.81398,198],[-90.38823,38.81397,198],[-90.38819,38.81395,198],[-90.38816,38.81394,198],[-90.38813,38.81392,198],[-90.38809,38.81392,198],[-90.38805,38.81392,199],[-90.38801,38.81393,199],[-90.38797,38.81393,199],[-90.38793,38.81394,199],[-90.38789,38.81395,199],[-90.38786,38.81396,199],[-90.38781,38.81396,199],[-90.38778,38.81395,199],[-90.38774,38.81395,200],[-90.3877,38.81395,200],[-90.38767,38.81393,200],[-90.38763,38.81391,200],[-90.38759,38.81389,199],[-90.38755,38.81387,199],[-90.38753,38.81385,199],[-90.38752,38.81381,198],[-90.38753,38.81379,198],[-90.38755,38.81375,198],[-90.38755,38.81372,197],[-90.38755,38.81369,197],[-90.38756,38.81366,197],[-90.38757,38.81363,196],[-90.38759,38.8136,196],[-90.38759,38.81357,196],[-90.3876,38.81354,196],[-90.38761,38.81351,196],[-90.38761,38.81348,195],[-90.38761,38.81345,195],[-90.38762,38.81342,195],[-90.38763,38.81339,195],[-90.38764,38.81335,195],[-90.38766,38.81332,195],[-90.3877,38.81331,195],[-90.38774,38.81332,195],[-90.38778,38.81331,195],[-90.38782,38.81331,195],[-90.38786,38.81331,195],[-90.38789,38.81329,195],[-90.38791,38.81327,195],[-90.38793,38.81324,194],[-90.38796,38.81322,194],[-90.38797,38.81319,193],[-90.38799,38.81316,193],[-90.38801,38.81313,192],[-90.38802,38.8131,191],[-90.38803,38.81308,191],[-90.38804,38.81305,191],[-90.38805,38.81301,190],[-90.38806,38.81298,190],[-90.38808,38.81295,189],[-90.38811,38.81292,188],[-90.38812,38.81289,187],[-90.38813,38.81285,186],[-90.38813,38.81282,186],[-90.38816,38.8128,185],[-90.38819,38.81279,184],[-90.38824,38.8128,183],[-90.38828,38.81279,181],[-90.38829,38.81276,180],[-90.38832,38.81274,179],[-90.38836,38.81276,178],[-90.38839,38.81276,177],[-90.38843,38.81274,176],[-90.38846,38.81273,174],[-90.38849,38.81271,173],[-90.38852,38.81268,172],[-90.38854,38.81265,171],[-90.38855,38.81262,171],[-90.38858,38.8126,170],[-90.3886,38.81257,169],[-90.38861,38.81254,169],[-90.38865,38.81251,168],[-90.38867,38.81249,167],[-90.38867,38.81246,167],[-90.38869,38.81243,166],[-90.38871,38.81241,165],[-90.38874,38.81239,165],[-90.38878,38.81238,164],[-90.38881,38.81236,163],[-90.38884,38.81232,163],[-90.38887,38.81229,162],[-90.3889,38.81224,162],[-90.3889,38.81219,161],[-90.38889,38.81213,160],[-90.38888,38.81209,159],[-90.38886,38.81206,159],[-90.38881,38.81204,159],[-90.38878,38.812,159],[-90.38875,38.81196,159],[-90.3887,38.81193,160],[-90.38866,38.81189,161],[-90.38864,38.81186,162],[-90.38866,38.81182,162],[-90.38868,38.81178,162],[-90.38871,38.81174,162],[-90.38874,38.81172,162],[-90.38879,38.81169,161],[-90.38884,38.81167,160],[-90.38889,38.81164,159],[-90.38891,38.8116,158],[-90.38893,38.81156,158],[-90.38898,38.81158,157],[-90.38903,38.81159,155],[-90.38909,38.81158,153],[-90.38915,38.81157,152],[-90.38919,38.81154,152],[-90.38922,38.81151,152],[-90.38927,38.81149,152],[-90.38932,38.81151,152],[-90.38936,38.81147,152],[-90.38939,38.81143,152],[-90.38941,38.81139,152],[-90.38946,38.81136,151],[-90.38949,38.81133,151],[-90.38951,38.8113,151],[-90.38954,38.81127,151],[-90.38956,38.81124,151],[-90.38957,38.81122,151],[-90.38961,38.8112,151],[-90.38964,38.81119,151],[-90.38968,38.81119,150],[-90.38973,38.81119,150],[-90.38978,38.81119,149],[-90.38982,38.81118,149],[-90.38985,38.81116,148],[-90.38989,38.81114,148],[-90.38992,38.81114,147],[-90.38996,38.81115,147],[-90.39,38.81115,146],[-90.39005,38.81115,146],[-90.39009,38.81116,145],[-90.39012,38.81117,145],[-90.39017,38.81117,144],[-90.3902,38.81118,144],[-90.39025,38.81118,143],[-90.39029,38.81118,142],[-90.39033,38.81118,142],[-90.39038,38.8112,142],[-90.39041,38.81121,142],[-90.39045,38.81123,142],[-90.39049,38.81125,142],[-90.39053,38.81127,142],[-90.39057,38.81128,142],[-90.39061,38.81128,142],[-90.39065,38.81126,142],[-90.39068,38.81124,142],[-90.39071,38.81123,142],[-90.39076,38.81121,141],[-90.3908,38.81121,141],[-90.39083,38.81123,141],[-90.39085,38.81125,141],[-90.39087,38.81128,141],[-90.3909,38.81131,141],[-90.39093,38.81133,141],[-90.39096,38.81136,141],[-90.39099,38.81139,141],[-90.39102,38.81141,141],[-90.39104,38.81144,142],[-90.39108,38.81145,142],[-90.39106,38.81142,141],[-90.39104,38.8114,141],[-90.39107,38.81142,141],[-90.3911,38.81144,141],[-90.39112,38.81146,141],[-90.39114,38.81149,141],[-90.39114,38.81152,142],[-90.39113,38.81154,142],[-90.39111,38.81157,143],[-90.39107,38.81159,144],[-90.39104,38.81161,144],[-90.391,38.81163,145],[-90.39098,38.81166,145],[-90.39097,38.81169,146],[-90.39095,38.81172,146],[-90.39094,38.81176,147],[-90.39094,38.8118,148],[-90.39094,38.81183,148],[-90.39094,38.81186,148],[-90.39094,38.8119,149],[-90.39094,38.81194,150],[-90.39094,38.81197,150],[-90.39093,38.81201,149],[-90.39091,38.81203,149],[-90.3909,38.81207,149],[-90.39093,38.81209,149],[-90.39092,38.81211,149],[-90.3909,38.81209,149],[-90.39091,38.81206,149],[-90.39094,38.81204,149],[-90.39097,38.81202,150],[-90.39101,38.81202,150],[-90.39104,38.81203,150],[-90.39101,38.81208,150],[-90.39098,38.81212,149],[-90.39096,38.81216,149],[-90.39094,38.8122,149],[-90.39093,38.81225,149],[-90.39092,38.81229,148],[-90.39093,38.81233,147],[-90.39094,38.81238,145],[-90.39096,38.81243,144],[-90.39095,38.81248,143],[-90.39094,38.81253,143],[-90.39097,38.81258,144],[-90.39097,38.81262,145],[-90.39098,38.81266,146],[-90.39098,38.81271,147],[-90.39098,38.81275,148],[-90.39099,38.81279,148],[-90.39099,38.81283,149],[-90.391,38.81286,150],[-90.39102,38.81291,151],[-90.39106,38.81295,151],[-90.39108,38.81298,152],[-90.3911,38.81302,153],[-90.39112,38.81307,153],[-90.39114,38.81311,153],[-90.39116,38.81315,153],[-90.39118,38.81318,153],[-90.39121,38.81322,153],[-90.39127,38.81323,152],[-90.39132,38.81323,151],[-90.39134,38.81328,151],[-90.39135,38.81333,151],[-90.39137,38.81336,151],[-90.39142,38.81337,150],[-90.39147,38.81338,149],[-90.39151,38.8134,148],[-90.39154,38.81344,147],[-90.39156,38.81348,146],[-90.39159,38.81352,146],[-90.3916,38.81356,145],[-90.3916,38.8136,144],[-90.39163,38.81364,144],[-90.39164,38.81368,144],[-90.39168,38.81371,144],[-90.39171,38.81374,144],[-90.39174,38.81377,144],[-90.39178,38.81379,143],[-90.39182,38.81381,142],[-90.39186,38.81385,141],[-90.39189,38.81388,139],[-90.39192,38.8139,139],[-90.39195,38.81393,139],[-90.39199,38.81395,140],[-90.39202,38.81398,141],[-90.39204,38.814,142],[-90.39207,38.81402,143],[-90.3921,38.81405,144],[-90.39213,38.81407,145],[-90.39216,38.8141,147],[-90.3922,38.81412,148],[-90.39225,38.81412,148],[-90.39229,38.8141,146],[-90.39233,38.81408,145],[-90.39236,38.81406,144],[-90.39238,38.81404,143],[-90.39241,38.814,141],[-90.39243,38.81397,140],[-90.39245,38.81394,139],[-90.39248,38.81392,138],[-90.39252,38.81389,138],[-90.39254,38.81387,138],[-90.39257,38.81384,138],[-90.39259,38.81381,138],[-90.39261,38.81377,138],[-90.39262,38.81373,138],[-90.39263,38.81368,138],[-90.39264,38.81364,138],[-90.39267,38.81361,138],[-90.39271,38.81358,137],[-90.39273,38.81353,137],[-90.39276,38.81349,136],[-90.39279,38.81346,136],[-90.39281,38.81342,135],[-90.39284,38.8134,135],[-90.39288,38.81337,134],[-90.39293,38.81333,133],[-90.39296,38.8133,133],[-90.393,38.81327,133],[-90.39304,38.81324,133],[-90.39307,38.81321,132],[-90.39313,38.81319,132],[-90.39318,38.81317,132],[-90.39321,38.81315,132],[-90.39323,38.81311,132],[-90.39326,38.81307,132],[-90.39331,38.81305,133],[-90.39335,38.81302,133],[-90.39339,38.81298,133],[-90.39343,38.81296,133],[-90.39346,38.81294,133],[-90.39349,38.81292,133],[-90.39352,38.81289,133],[-90.39355,38.81287,133],[-90.39359,38.81285,133],[-90.39362,38.81283,133],[-90.39363,38.8128,133],[-90.39364,38.81277,134],[-90.39362,38.81274,134],[-90.39359,38.81273,134],[-90.39355,38.81274,134],[-90.39358,38.81276,134],[-90.39362,38.81276,134],[-90.39366,38.81276,134],[-90.3937,38.81274,134],[-90.39373,38.81272,134],[-90.39377,38.81269,134],[-90.3938,38.81268,134],[-90.39384,38.81266,135],[-90.39387,38.81265,135],[-90.39391,38.81263,135],[-90.39394,38.8126,135],[-90.39397,38.81258,135],[-90.39401,38.81256,136],[-90.39404,38.81254,136],[-90.39408,38.81252,136],[-90.39412,38.8125,137],[-90.39416,38.81249,137],[-90.39418,38.81247,137],[-90.39421,38.81244,136],[-90.39424,38.81242,136],[-90.39426,38.81239,137],[-90.39428,38.81236,137],[-90.39431,38.81233,137],[-90.39433,38.81231,137],[-90.39435,38.81228,137],[-90.39437,38.81225,137],[-90.39441,38.81222,138],[-90.39445,38.81221,137],[-90.39448,38.81219,137],[-90.39452,38.81217,137],[-90.39455,38.81215,137],[-90.39458,38.81212,137],[-90.3946,38.81209,137],[-90.39462,38.81206,137],[-90.39464,38.81204,137],[-90.39466,38.81202,137],[-90.39469,38.81199,136],[-90.39471,38.81196,137],[-90.39473,38.81194,136],[-90.39475,38.81192,136],[-90.39478,38.81189,136],[-90.39481,38.81186,135],[-90.39484,38.81184,135],[-90.39488,38.81181,134],[-90.39489,38.81177,134],[-90.39492,38.81174,133],[-90.39496,38.81173,133],[-90.395,38.81171,133],[-90.39501,38.81168,133],[-90.395,38.81165,132],[-90.39499,38.81163,132],[-90.39502,38.81164,132],[-90.39505,38.81166,132],[-90.39509,38.81165,132],[-90.39512,38.81164,132],[-90.39515,38.81161,132],[-90.39515,38.81158,132],[-90.39514,38.81155,132],[-90.39514,38.81158,132],[-90.39516,38.8116,132],[-90.39516,38.81157,132],[-90.39514,38.81155,132],[-90.3951,38.81155,132],[-90.39514,38.81156,132],[-90.39517,38.81154,132],[-90.3952,38.81152,132],[-90.39523,38.8115,132],[-90.39526,38.81148,132],[-90.3953,38.81147,133],[-90.39535,38.81145,133],[-90.39538,38.81144,133],[-90.39542,38.81141,133],[-90.39546,38.81139,133],[-90.39551,38.81137,133],[-90.39557,38.81134,133],[-90.39563,38.81132,133],[-90.39566,38.81129,133],[-90.39568,38.81126,133],[-90.39567,38.81123,134]]],
        "bbox": [
          -90.38635,
          38.81957,
          -90.39568,
          38.81114
        ]
      },
      "properties": {
        "name": "1.24.2021"
      }
    }
  ]
}