{
  "type": "FeatureCollection",
  "features": [
    {
      "type": "Feature",
      "geometry": {
        "type": "MultiLineString",
        "coordinates": [[[-90.39079,38.81085,138],[-90.3908,38.81088,138],[-90.39081,38.81091,138],[-90.39081,38.81094,139],[-90.39082,38.81097,139],[-90.39084,38.811,139],[-90.39085,38.81103,140],[-90.39084,38.81106,140],[-90.39084,38.81109,140],[-90.39084,38.81113,141],[-90.39084,38.81116,141],[-90.39082,38.81119,141],[-90.39077,38.8112,141],[-90.39073,38.81122,141],[-90.3907,38.81123,142],[-90.39067,38.81125,142],[-90.39063,38.81126,142],[-90.39058,38.81127,142],[-90.39054,38.81127,142],[-90.3905,38.81126,142],[-90.39047,38.81124,142],[-90.39044,38.81122,142],[-90.39041,38.8112,142],[-90.39037,38.81119,142],[-90.39033,38.81118,142],[-90.39029,38.81118,142],[-90.39026,38.81119,143],[-90.39022,38.81119,143],[-90.39018,38.81119,144],[-90.39014,38.81119,144],[-90.3901,38.81118,145],[-90.39005,38.81118,145],[-90.39002,38.81117,146],[-90.38997,38.81117,147],[-90.38993,38.81117,147],[-90.38989,38.81118,148],[-90.38985,38.8112,148],[-90.38982,38.81121,149],[-90.38978,38.81121,149],[-90.38974,38.8112,150],[-90.38969,38.81119,150],[-90.38966,38.81118,151],[-90.38962,38.81118,151],[-90.38958,38.81118,151],[-90.38955,38.81119,151],[-90.38951,38.81121,151],[-90.3895,38.81123,151],[-90.38949,38.81126,151],[-90.38947,38.81129,151],[-90.38945,38.81133,151],[-90.38944,38.81136,152],[-90.38942,38.81139,152],[-90.38939,38.81141,152],[-90.38934,38.81142,152],[-90.3893,38.81141,152],[-90.38926,38.81142,152],[-90.38923,38.81144,152],[-90.38921,38.81147,152],[-90.38918,38.81149,152],[-90.38915,38.8115,152],[-90.38911,38.81152,153],[-90.38908,38.81154,154],[-90.38905,38.81155,154],[-90.38901,38.81156,156],[-90.38898,38.81157,156],[-90.38895,38.81158,157],[-90.38891,38.81159,158],[-90.38887,38.8116,159],[-90.38883,38.81161,160],[-90.38882,38.81164,161],[-90.38881,38.81166,161],[-90.38878,38.81168,161],[-90.38875,38.8117,162],[-90.38873,38.81173,162],[-90.38871,38.81175,162],[-90.38868,38.81177,162],[-90.38866,38.81179,162],[-90.38864,38.81182,162],[-90.38864,38.81186,162],[-90.38864,38.81189,162],[-90.38866,38.81191,161],[-90.38869,38.81193,160],[-90.38871,38.81195,160],[-90.38873,38.81198,160],[-90.38876,38.812,159],[-90.3888,38.81202,159],[-90.38882,38.81204,159],[-90.38884,38.81208,160],[-90.38885,38.81211,160],[-90.38885,38.81213,160],[-90.38884,38.81216,161],[-90.38883,38.81219,161],[-90.38881,38.81222,162],[-90.38878,38.81225,163],[-90.38877,38.81228,163],[-90.38874,38.81231,164],[-90.38871,38.81232,164],[-90.38868,38.81235,165],[-90.38866,38.81237,166],[-90.38865,38.8124,166],[-90.38863,38.81243,167],[-90.38867,38.81245,167],[-90.38869,38.81247,167],[-90.38868,38.81251,167],[-90.38867,38.81254,168],[-90.38866,38.81257,168],[-90.38864,38.81259,168],[-90.38862,38.81262,169],[-90.3886,38.81265,169],[-90.38857,38.81267,170],[-90.38853,38.81268,172],[-90.38851,38.81271,172],[-90.38848,38.81273,174],[-90.38845,38.81274,175],[-90.38842,38.81276,176],[-90.38838,38.81278,178],[-90.38835,38.81279,179],[-90.38832,38.81281,180],[-90.38828,38.8128,181],[-90.38824,38.81279,182],[-90.3882,38.81281,184],[-90.38817,38.81283,185],[-90.38813,38.81284,186],[-90.3881,38.81284,187],[-90.38809,38.81287,188],[-90.38811,38.81289,187],[-90.38812,38.81292,187],[-90.38811,38.81295,188],[-90.38813,38.81298,188],[-90.38813,38.81301,188],[-90.38813,38.81303,189],[-90.38811,38.81306,189],[-90.38809,38.81309,190],[-90.38808,38.81312,191],[-90.38807,38.81315,192],[-90.38804,38.81317,193],[-90.38802,38.81319,193],[-90.388,38.81322,194],[-90.38797,38.81324,194],[-90.38795,38.81326,194],[-90.38793,38.81329,195],[-90.38789,38.8133,195],[-90.38786,38.81332,195],[-90.38782,38.81333,195],[-90.38779,38.81333,195],[-90.38774,38.81334,195],[-90.3877,38.81333,195],[-90.38767,38.81334,195],[-90.38763,38.81334,194],[-90.38761,38.81337,195],[-90.38762,38.8134,195],[-90.38762,38.81343,195],[-90.38762,38.81347,195],[-90.38761,38.8135,195],[-90.3876,38.81353,196],[-90.3876,38.81357,196],[-90.38759,38.8136,196],[-90.38758,38.81363,196],[-90.38757,38.81366,197],[-90.38756,38.81369,197],[-90.38755,38.81372,197],[-90.38755,38.81374,198],[-90.38754,38.81377,198],[-90.38753,38.8138,198],[-90.38753,38.81383,199],[-90.38755,38.81386,199],[-90.38758,38.81387,199],[-90.38761,38.81389,199],[-90.38765,38.8139,200],[-90.38769,38.81391,200],[-90.38772,38.81393,200],[-90.38776,38.81393,200],[-90.3878,38.81394,199],[-90.38785,38.81394,199],[-90.38789,38.81394,199],[-90.38794,38.81393,199],[-90.38798,38.81391,199],[-90.38802,38.81391,199],[-90.38806,38.8139,199],[-90.38811,38.8139,198],[-90.38815,38.81389,198],[-90.38819,38.81389,198],[-90.38823,38.8139,198],[-90.38827,38.81391,198],[-90.38831,38.81393,198],[-90.38835,38.81395,198],[-90.3884,38.81396,197],[-90.38845,38.81398,197],[-90.38848,38.81399,196],[-90.38852,38.81401,196],[-90.38856,38.81402,196],[-90.38859,38.81403,196],[-90.38863,38.81404,195],[-90.38867,38.81406,195],[-90.38871,38.81408,194],[-90.38874,38.81409,194],[-90.38877,38.81411,194],[-90.38882,38.81413,193],[-90.38886,38.81414,193],[-90.3889,38.81416,192],[-90.38893,38.81416,192],[-90.38897,38.81417,192],[-90.38902,38.81417,192],[-90.38906,38.81418,192],[-90.3891,38.81418,192],[-90.38913,38.81418,192],[-90.38918,38.8142,192],[-90.38922,38.81421,191],[-90.38926,38.81422,191],[-90.38929,38.81423,190],[-90.38933,38.81424,190],[-90.38937,38.81426,189],[-90.38941,38.81428,189],[-90.38944,38.8143,188],[-90.38948,38.81432,188],[-90.38951,38.81434,188],[-90.38953,38.81437,188],[-90.38954,38.8144,189],[-90.38955,38.81443,189],[-90.38955,38.81447,189],[-90.38955,38.8145,189],[-90.38954,38.81454,190],[-90.38954,38.81457,190],[-90.38954,38.81462,190],[-90.38954,38.81465,190],[-90.38954,38.81468,191],[-90.38954,38.81472,191],[-90.38955,38.81475,191],[-90.38956,38.81479,190],[-90.38957,38.81481,190],[-90.38958,38.81485,190],[-90.3896,38.81488,189],[-90.38961,38.81491,189],[-90.38962,38.81494,189],[-90.38964,38.81497,189],[-90.38967,38.81499,188],[-90.3897,38.81501,188],[-90.38973,38.81503,188],[-90.38976,38.81505,187],[-90.38978,38.81508,187],[-90.38981,38.8151,186],[-90.38985,38.81512,186],[-90.38989,38.81514,185],[-90.38992,38.81517,184],[-90.38995,38.81519,184],[-90.38998,38.81521,183],[-90.39002,38.81523,183],[-90.39005,38.81526,182],[-90.39009,38.81528,181],[-90.39012,38.8153,181],[-90.39017,38.81532,181],[-90.3902,38.81533,181],[-90.39024,38.81534,181],[-90.39028,38.81536,180],[-90.39032,38.81538,180],[-90.39036,38.81539,181],[-90.3904,38.81539,181],[-90.39044,38.81541,181],[-90.39048,38.81542,182],[-90.39052,38.81543,182],[-90.39056,38.81544,182],[-90.3906,38.81545,183],[-90.39063,38.81546,183],[-90.39067,38.81547,183],[-90.39072,38.81546,184],[-90.39076,38.81546,184],[-90.39081,38.81547,185],[-90.39085,38.81548,185],[-90.39089,38.81547,185],[-90.39093,38.81546,185],[-90.39097,38.81544,186],[-90.391,38.81543,186],[-90.39104,38.81542,186],[-90.39108,38.81541,186],[-90.39112,38.8154,186],[-90.39116,38.81539,186],[-90.3912,38.81539,186],[-90.39124,38.81538,186],[-90.39128,38.81539,185],[-90.39133,38.81539,185],[-90.39138,38.8154,185],[-90.39142,38.81541,185],[-90.39147,38.81542,184],[-90.39151,38.81544,183],[-90.39154,38.81546,183],[-90.39156,38.81549,183],[-90.39159,38.81552,183],[-90.39162,38.81555,183],[-90.39165,38.81557,182],[-90.39168,38.8156,182],[-90.3917,38.81563,181],[-90.39174,38.81565,180],[-90.39178,38.81565,179],[-90.39181,38.81565,178],[-90.39186,38.81564,177],[-90.3919,38.81565,176],[-90.39193,38.81566,176],[-90.39195,38.81564,175],[-90.39195,38.8156,176],[-90.39195,38.81558,177],[-90.39196,38.81555,177],[-90.39195,38.81552,177],[-90.39195,38.81549,177],[-90.39196,38.81546,176],[-90.39196,38.81543,176],[-90.39195,38.8154,176],[-90.39194,38.81537,176],[-90.39192,38.81534,176],[-90.39191,38.81531,176],[-90.3919,38.81528,176],[-90.3919,38.81525,175],[-90.39191,38.81522,174],[-90.39193,38.81519,173],[-90.39194,38.81516,171],[-90.39195,38.81513,170],[-90.39196,38.81509,168],[-90.39196,38.81506,167],[-90.39196,38.81504,167],[-90.39195,38.81501,166],[-90.39193,38.81498,166],[-90.39191,38.81495,166],[-90.39189,38.81492,166],[-90.3919,38.81488,166],[-90.39191,38.81484,165],[-90.39192,38.8148,164],[-90.39191,38.81477,164],[-90.39189,38.81473,164],[-90.39188,38.8147,164],[-90.39188,38.81467,164],[-90.39188,38.81462,163],[-90.39186,38.81459,163],[-90.39184,38.81457,163],[-90.39181,38.81454,164],[-90.3918,38.81451,164],[-90.39179,38.81448,163],[-90.39179,38.81445,163],[-90.39179,38.81442,162],[-90.39178,38.81439,162],[-90.39178,38.81436,161],[-90.39177,38.81433,160],[-90.39176,38.8143,160],[-90.39178,38.81428,159],[-90.39179,38.81425,158],[-90.39178,38.81422,157],[-90.39178,38.81419,156],[-90.39182,38.81418,155],[-90.39183,38.81415,154],[-90.39185,38.81413,152],[-90.39188,38.81411,151],[-90.39188,38.81408,149],[-90.39191,38.81406,147],[-90.39195,38.81407,147],[-90.39199,38.81406,146],[-90.39203,38.81406,145],[-90.39207,38.81405,144],[-90.3921,38.81404,144],[-90.39214,38.81404,143],[-90.39218,38.81403,142],[-90.39216,38.81405,143],[-90.39213,38.81407,145],[-90.39209,38.81409,147],[-90.39206,38.81411,148],[-90.39202,38.81413,149],[-90.39198,38.81414,150],[-90.39195,38.81415,151],[-90.39192,38.81417,152],[-90.39192,38.8142,153],[-90.3919,38.81422,154],[-90.39186,38.81423,155],[-90.3919,38.81423,154],[-90.39189,38.81425,155],[-90.3919,38.81428,156],[-90.39191,38.81431,156],[-90.39191,38.81434,157],[-90.39191,38.81437,158],[-90.3919,38.8144,159],[-90.39191,38.81443,159],[-90.39192,38.81447,159],[-90.39192,38.81449,160],[-90.39194,38.81452,160],[-90.39196,38.81455,160],[-90.39198,38.81457,160],[-90.39199,38.8146,160],[-90.39199,38.81464,161],[-90.392,38.81466,161],[-90.392,38.81469,161],[-90.39201,38.81472,161],[-90.39203,38.81475,161],[-90.39204,38.81477,161],[-90.39205,38.81481,161],[-90.39203,38.81484,162],[-90.39201,38.81487,163],[-90.392,38.8149,163],[-90.39201,38.81493,163],[-90.39203,38.81496,163],[-90.39205,38.81498,163],[-90.39207,38.81501,163],[-90.39208,38.81504,163],[-90.39208,38.81507,164],[-90.39207,38.81509,166],[-90.39206,38.81513,167],[-90.39205,38.81515,168],[-90.39204,38.81519,170],[-90.39202,38.81522,171],[-90.39201,38.81526,173],[-90.39202,38.81529,173],[-90.39203,38.81532,173],[-90.39203,38.81535,173],[-90.39204,38.81538,173],[-90.39205,38.81541,173],[-90.39206,38.81545,172],[-90.39205,38.81547,173],[-90.39204,38.81551,173],[-90.39203,38.81553,174],[-90.39202,38.81556,174],[-90.39199,38.81559,175],[-90.39198,38.81562,174],[-90.39198,38.81565,174],[-90.39195,38.81568,174],[-90.39192,38.81569,175],[-90.39187,38.81569,176],[-90.39182,38.8157,177],[-90.39179,38.81572,178],[-90.39175,38.81574,179],[-90.39176,38.81577,178],[-90.39179,38.81579,177],[-90.3918,38.81582,176],[-90.3918,38.81585,175],[-90.3918,38.81589,174],[-90.39181,38.81592,174],[-90.39181,38.81595,173],[-90.3918,38.81598,173],[-90.39179,38.81601,172],[-90.39178,38.81604,172],[-90.39177,38.81608,171],[-90.39176,38.81611,171],[-90.39175,38.81615,170],[-90.39175,38.81618,169],[-90.39174,38.81621,168],[-90.39172,38.81625,167],[-90.3917,38.81628,166],[-90.39169,38.81632,165],[-90.39168,38.81635,165],[-90.39166,38.81638,164],[-90.39164,38.8164,164],[-90.39162,38.81642,164],[-90.39159,38.81645,164],[-90.39157,38.81648,163],[-90.39154,38.81651,163],[-90.39153,38.81654,162],[-90.3915,38.81657,162],[-90.39148,38.8166,162],[-90.39146,38.81662,162],[-90.39143,38.81665,161],[-90.39139,38.81667,161],[-90.39137,38.81669,161],[-90.39134,38.81671,161],[-90.39131,38.81673,161],[-90.39129,38.81676,160],[-90.39127,38.81678,160],[-90.39124,38.8168,160],[-90.39122,38.81682,159],[-90.39119,38.81684,159],[-90.39117,38.81686,159],[-90.39113,38.81686,160],[-90.39108,38.81685,161],[-90.39105,38.81683,161],[-90.39102,38.81681,162],[-90.39099,38.81679,163],[-90.39096,38.81678,163],[-90.39091,38.81676,164],[-90.39088,38.81676,164],[-90.39085,38.81678,164],[-90.39085,38.81681,164],[-90.39083,38.81684,163],[-90.3908,38.81684,164],[-90.39077,38.81686,164],[-90.39073,38.81686,164],[-90.39069,38.81686,164],[-90.39066,38.81688,164],[-90.39062,38.81689,164],[-90.3906,38.81691,164],[-90.39056,38.81693,165],[-90.39052,38.81695,165],[-90.39051,38.81697,164],[-90.39053,38.817,163],[-90.39056,38.81702,162],[-90.39058,38.81705,161],[-90.3906,38.81708,159],[-90.39059,38.81711,159],[-90.39057,38.81714,158],[-90.39056,38.81716,157],[-90.39055,38.81719,157],[-90.39053,38.81722,156],[-90.39056,38.81723,155],[-90.39055,38.81726,154],[-90.39054,38.81729,153],[-90.39056,38.81726,154],[-90.3906,38.81726,153],[-90.39063,38.81728,152],[-90.39064,38.81732,151],[-90.39064,38.81735,150],[-90.39062,38.81739,148],[-90.39059,38.81741,148],[-90.39057,38.81743,148],[-90.39054,38.81745,147],[-90.39052,38.81747,147],[-90.39051,38.81744,148],[-90.3905,38.81741,149],[-90.39052,38.81738,150],[-90.39053,38.81735,151],[-90.39051,38.81732,152],[-90.39048,38.81734,152],[-90.39046,38.81731,153],[-90.39048,38.81728,154],[-90.39045,38.81726,155],[-90.39044,38.81723,156],[-90.39043,38.8172,157],[-90.39043,38.81717,158],[-90.39043,38.81714,159],[-90.39044,38.81711,160],[-90.39046,38.81709,160],[-90.39048,38.81706,161],[-90.39047,38.81703,162],[-90.39046,38.817,163],[-90.39044,38.81698,164],[-90.39044,38.81695,165],[-90.39044,38.81692,166],[-90.39046,38.81689,166],[-90.3905,38.81688,166],[-90.39053,38.81686,166],[-90.39056,38.81684,166],[-90.39059,38.81682,166],[-90.39062,38.8168,166],[-90.39066,38.81679,165],[-90.3907,38.81678,165],[-90.39074,38.81678,165],[-90.39077,38.81678,165],[-90.3908,38.81675,165],[-90.39083,38.81674,165],[-90.39084,38.81671,166],[-90.39085,38.81668,166],[-90.39089,38.81667,166],[-90.39093,38.81667,166],[-90.39097,38.81669,166],[-90.39101,38.81669,165],[-90.39104,38.8167,165],[-90.39108,38.81671,164],[-90.39111,38.81672,164],[-90.39114,38.81675,163],[-90.39117,38.81677,162],[-90.3912,38.81675,162],[-90.39123,38.81673,162],[-90.39126,38.81672,162],[-90.39128,38.8167,162],[-90.39129,38.81667,163],[-90.39133,38.81664,163],[-90.39135,38.81663,163],[-90.39138,38.8166,164],[-90.39142,38.81659,163],[-90.39144,38.81657,163],[-90.39146,38.81654,164],[-90.39149,38.81651,164],[-90.39151,38.81649,164],[-90.39153,38.81646,165],[-90.39155,38.81643,165],[-90.39156,38.8164,166],[-90.39158,38.81637,166],[-90.3916,38.81635,166],[-90.39163,38.81632,167],[-90.39164,38.81629,168],[-90.39166,38.81627,168],[-90.39168,38.81624,169],[-90.39168,38.8162,170],[-90.39169,38.81617,171],[-90.39169,38.81613,172],[-90.3917,38.8161,173],[-90.3917,38.81606,174],[-90.39171,38.81603,174],[-90.39171,38.816,175],[-90.39172,38.81597,175],[-90.39172,38.81593,176],[-90.39172,38.8159,176],[-90.39172,38.81587,177],[-90.39172,38.81584,178],[-90.39172,38.81581,178],[-90.39171,38.81578,179],[-90.3917,38.81575,180],[-90.39169,38.81571,180],[-90.3917,38.81568,180],[-90.39175,38.81566,180],[-90.3918,38.81566,178],[-90.39185,38.81566,177],[-90.39189,38.81566,176],[-90.39193,38.81566,176],[-90.39195,38.81563,175],[-90.39195,38.8156,176],[-90.39194,38.81557,177],[-90.39196,38.81555,177],[-90.39195,38.81551,177],[-90.39196,38.81548,176],[-90.39197,38.81545,176],[-90.39196,38.81541,176],[-90.39195,38.81539,176],[-90.39193,38.81536,176],[-90.39192,38.81533,176],[-90.3919,38.8153,176],[-90.3919,38.81526,176],[-90.39192,38.81523,174],[-90.39194,38.81519,172],[-90.39195,38.81515,171],[-90.39196,38.81513,170],[-90.39197,38.81509,168],[-90.39197,38.81506,167],[-90.39197,38.81503,166],[-90.39194,38.81501,166],[-90.39193,38.81498,166],[-90.39191,38.81495,166],[-90.39189,38.81493,167],[-90.39189,38.8149,166],[-90.39191,38.81486,165],[-90.39192,38.81483,164],[-90.39191,38.8148,165],[-90.39189,38.81477,165],[-90.39188,38.81474,165],[-90.39188,38.81471,164],[-90.39187,38.81467,164],[-90.39187,38.81464,164],[-90.39187,38.81461,163],[-90.39185,38.81459,163],[-90.39182,38.81456,164],[-90.3918,38.81453,164],[-90.3918,38.8145,163],[-90.39179,38.81446,163],[-90.39179,38.81443,162],[-90.39179,38.8144,162],[-90.39179,38.81436,161],[-90.39179,38.81433,160],[-90.39178,38.81431,160],[-90.39179,38.81428,158],[-90.39179,38.81425,158],[-90.39179,38.81422,157],[-90.3918,38.8142,156],[-90.39182,38.81418,155],[-90.39183,38.81415,154],[-90.39186,38.81413,152],[-90.39188,38.8141,150],[-90.3919,38.81408,148],[-90.39194,38.81407,147],[-90.39198,38.81408,147],[-90.39201,38.81408,147],[-90.39205,38.81408,146],[-90.39208,38.81407,146],[-90.39213,38.81406,144],[-90.39217,38.81405,143],[-90.39215,38.81408,145],[-90.39212,38.81409,146],[-90.39208,38.81411,148],[-90.39205,38.81412,149],[-90.39201,38.81414,150],[-90.39197,38.81416,151],[-90.39194,38.81417,152],[-90.39193,38.8142,153],[-90.39191,38.81422,154],[-90.39187,38.81423,155],[-90.39184,38.81424,156],[-90.39188,38.81425,155],[-90.3919,38.81427,155],[-90.39188,38.8143,157],[-90.39189,38.81433,157],[-90.39189,38.81436,158],[-90.39191,38.81438,158],[-90.39191,38.81441,159],[-90.39193,38.81444,159],[-90.39194,38.81447,159],[-90.39194,38.81451,160],[-90.39195,38.81454,160],[-90.39197,38.81456,160],[-90.39199,38.81458,160],[-90.392,38.81461,160],[-90.392,38.81464,160],[-90.39201,38.81467,161],[-90.39202,38.8147,161],[-90.39203,38.81473,161],[-90.39204,38.81476,161],[-90.39205,38.81479,161],[-90.39204,38.81482,162],[-90.39201,38.81485,162],[-90.39199,38.81488,163],[-90.39199,38.81491,163],[-90.39201,38.81493,163],[-90.39203,38.81496,163],[-90.39205,38.81498,163],[-90.39207,38.81501,163],[-90.39208,38.81505,164],[-90.39208,38.81508,165],[-90.39207,38.81512,167],[-90.39206,38.81515,168],[-90.39205,38.81519,169],[-90.39203,38.81522,171],[-90.39201,38.81525,173],[-90.39201,38.81528,174],[-90.39202,38.81531,173],[-90.39203,38.81534,173],[-90.39204,38.81537,173],[-90.39205,38.8154,173],[-90.39206,38.81543,172],[-90.39206,38.81547,172],[-90.39205,38.8155,173],[-90.39205,38.81553,173],[-90.39205,38.81556,173],[-90.39202,38.81558,174],[-90.392,38.8156,174],[-90.39199,38.81563,174],[-90.39198,38.81566,174],[-90.39197,38.81569,174],[-90.39193,38.8157,175],[-90.39189,38.81569,176],[-90.39184,38.81569,177],[-90.3918,38.8157,178],[-90.39176,38.81571,179],[-90.39172,38.81571,179],[-90.39169,38.8157,180],[-90.39166,38.81568,181],[-90.39163,38.81566,182],[-90.3916,38.81563,182],[-90.39157,38.81561,183],[-90.39154,38.81558,183],[-90.39151,38.81556,184],[-90.39147,38.81554,184],[-90.39143,38.81552,184],[-90.3914,38.8155,185],[-90.39136,38.81548,185],[-90.39132,38.81547,185],[-90.39128,38.81547,185],[-90.39124,38.81547,185],[-90.3912,38.81547,185],[-90.39116,38.81547,186],[-90.39112,38.81547,186],[-90.39108,38.81548,186],[-90.39104,38.81549,186],[-90.39101,38.8155,185],[-90.39097,38.81552,185],[-90.39093,38.81553,185],[-90.39089,38.81554,185],[-90.39084,38.81555,185],[-90.3908,38.81556,184],[-90.39076,38.81556,184],[-90.39072,38.81556,183],[-90.39069,38.81557,183],[-90.39065,38.81557,182],[-90.39061,38.81556,182],[-90.39057,38.81554,182],[-90.39054,38.81552,182],[-90.3905,38.81551,181],[-90.39046,38.8155,181],[-90.39042,38.81549,180],[-90.39039,38.81547,180],[-90.39036,38.81546,180],[-90.39033,38.81545,180],[-90.39029,38.81543,179],[-90.39025,38.81542,179],[-90.39021,38.81542,179],[-90.39017,38.81541,179],[-90.39012,38.81539,180],[-90.39009,38.81537,180],[-90.39005,38.81536,180],[-90.39001,38.81534,180],[-90.38997,38.81532,181],[-90.38994,38.81531,181],[-90.3899,38.81529,182],[-90.38987,38.81527,182],[-90.38984,38.81525,183],[-90.3898,38.81523,183],[-90.38977,38.8152,184],[-90.38974,38.81517,185],[-90.38971,38.81515,185],[-90.38968,38.81512,186],[-90.38965,38.81509,187],[-90.38962,38.81507,187],[-90.38959,38.81506,187],[-90.38956,38.81503,188],[-90.38954,38.815,188],[-90.38951,38.81496,188],[-90.3895,38.81494,188],[-90.38949,38.8149,189],[-90.38948,38.81487,189],[-90.38947,38.81483,189],[-90.38947,38.81479,190],[-90.38947,38.81476,190],[-90.38946,38.81472,191],[-90.38946,38.81469,190],[-90.38946,38.81465,190],[-90.38947,38.81462,190],[-90.38947,38.81458,190],[-90.38948,38.81454,190],[-90.38949,38.81451,190],[-90.38949,38.81448,190],[-90.38949,38.81444,189],[-90.38946,38.81441,189],[-90.38944,38.81439,189],[-90.38941,38.81437,189],[-90.38937,38.81435,190],[-90.38933,38.81434,190],[-90.38929,38.81432,190],[-90.38926,38.81431,191],[-90.38923,38.8143,191],[-90.38919,38.81428,192],[-90.38915,38.81426,192],[-90.38912,38.81424,192],[-90.38908,38.81422,192],[-90.38905,38.81421,192],[-90.389,38.81421,192],[-90.38897,38.81421,192],[-90.38893,38.8142,192],[-90.38888,38.8142,193],[-90.38884,38.81419,193],[-90.38881,38.81418,194],[-90.38878,38.81417,194],[-90.38874,38.81415,195],[-90.3887,38.81414,195],[-90.38866,38.81413,196],[-90.38862,38.81412,196],[-90.38859,38.81411,196],[-90.38855,38.8141,197],[-90.38851,38.81409,197],[-90.38848,38.81408,197],[-90.38844,38.81407,197],[-90.38841,38.81405,197],[-90.38837,38.81403,198],[-90.38833,38.81401,198],[-90.3883,38.81399,198],[-90.38826,38.81397,198],[-90.38823,38.81395,198],[-90.3882,38.81395,198],[-90.38815,38.81394,198],[-90.3881,38.81394,199],[-90.38805,38.81395,199],[-90.38802,38.81395,199],[-90.38797,38.81396,199],[-90.38793,38.81397,199],[-90.3879,38.81397,199],[-90.38785,38.81398,199],[-90.38781,38.81397,199],[-90.38777,38.81397,200],[-90.38772,38.81397,200],[-90.38768,38.81397,200],[-90.38764,38.81396,200],[-90.38761,38.81393,200],[-90.38758,38.81391,200],[-90.38755,38.81389,199],[-90.38751,38.81386,199],[-90.3875,38.81382,198],[-90.3875,38.81378,198],[-90.38751,38.81375,198],[-90.38752,38.81371,197],[-90.38752,38.81368,197],[-90.38753,38.81364,196],[-90.38754,38.8136,196],[-90.38754,38.81357,195],[-90.38754,38.81353,195],[-90.38755,38.8135,195],[-90.38756,38.81347,195],[-90.38757,38.81344,195],[-90.38757,38.81341,195],[-90.38757,38.81338,194],[-90.38756,38.81334,194],[-90.38757,38.81331,194],[-90.38761,38.81329,194],[-90.38765,38.81329,194],[-90.3877,38.81328,194],[-90.38774,38.81328,195],[-90.38778,38.81328,195],[-90.38782,38.81328,195],[-90.38786,38.81328,195],[-90.38789,38.81326,194],[-90.38791,38.81324,194],[-90.38792,38.81321,194],[-90.38794,38.81318,193],[-90.38796,38.81315,193],[-90.38797,38.81312,192],[-90.38798,38.8131,192],[-90.388,38.81306,191],[-90.38801,38.81303,191],[-90.38802,38.81301,190],[-90.38802,38.81298,190],[-90.38802,38.81295,190],[-90.38801,38.81292,189],[-90.38802,38.81288,189],[-90.38804,38.81285,188],[-90.38804,38.81282,188],[-90.38804,38.81279,188],[-90.38806,38.81277,187],[-90.38809,38.81276,186],[-90.38814,38.81275,185],[-90.38817,38.81274,183],[-90.38821,38.81272,182],[-90.38825,38.81271,180],[-90.38829,38.81271,179],[-90.38833,38.81271,178],[-90.38836,38.8127,177],[-90.3884,38.81268,176],[-90.38844,38.81268,174],[-90.38847,38.81267,173],[-90.38849,38.81264,173],[-90.38851,38.81261,172],[-90.38855,38.81259,170],[-90.38857,38.81256,170],[-90.38857,38.81253,170],[-90.38858,38.8125,169],[-90.3886,38.81247,168],[-90.38861,38.81244,167],[-90.38859,38.81242,168],[-90.38858,38.81238,167],[-90.38858,38.81235,166],[-90.3886,38.81232,165],[-90.38861,38.81229,165],[-90.38863,38.81226,164],[-90.38867,38.81225,163],[-90.38871,38.81225,163],[-90.38874,38.81224,163],[-90.38875,38.81221,162],[-90.38877,38.81218,162],[-90.38879,38.81215,161],[-90.38879,38.81213,161],[-90.38877,38.81209,161],[-90.38875,38.81206,160],[-90.38871,38.81205,161],[-90.38867,38.81203,161],[-90.38865,38.812,161],[-90.38864,38.81197,161],[-90.38861,38.81195,162],[-90.38857,38.81193,162],[-90.38857,38.8119,163],[-90.38856,38.81187,163],[-90.38857,38.81183,163],[-90.38857,38.81179,164],[-90.38859,38.81176,164],[-90.38862,38.81173,164],[-90.38864,38.8117,164],[-90.38866,38.81168,164],[-90.38869,38.81165,163],[-90.38872,38.81163,162],[-90.38875,38.8116,162],[-90.38877,38.81157,161],[-90.38878,38.81153,161],[-90.3888,38.81151,160],[-90.38884,38.81152,160],[-90.38889,38.81152,158],[-90.38892,38.81151,158],[-90.38896,38.8115,157],[-90.389,38.81149,156],[-90.38905,38.81148,154],[-90.38909,38.81147,153],[-90.38912,38.81145,153],[-90.38915,38.81143,152],[-90.38917,38.8114,152],[-90.38921,38.81137,152],[-90.38923,38.81135,152],[-90.38927,38.81134,152],[-90.38932,38.81135,152],[-90.38937,38.81134,152],[-90.38939,38.81131,152],[-90.38942,38.81128,152],[-90.38944,38.81125,152],[-90.38947,38.81122,151],[-90.38948,38.81118,151],[-90.38951,38.81115,151],[-90.38956,38.81114,151],[-90.38961,38.81114,151],[-90.38964,38.81115,151],[-90.38968,38.81115,151],[-90.38972,38.81117,150],[-90.38976,38.81118,150],[-90.3898,38.81117,149],[-90.38984,38.81115,149],[-90.38988,38.81114,148],[-90.38991,38.81113,148],[-90.38995,38.81112,147],[-90.38999,38.81113,146],[-90.39003,38.81113,146],[-90.39008,38.81113,145],[-90.39013,38.81114,145],[-90.39017,38.81115,144],[-90.39021,38.81115,143],[-90.39026,38.81116,143],[-90.39029,38.81115,142],[-90.39034,38.81116,142],[-90.39038,38.81117,142],[-90.39043,38.81118,142],[-90.39047,38.81121,142],[-90.39051,38.81122,142],[-90.39054,38.81124,142],[-90.39058,38.81125,142],[-90.39063,38.81125,142],[-90.39066,38.81123,142],[-90.39069,38.81121,142],[-90.39072,38.8112,141],[-90.39076,38.81118,141],[-90.3908,38.81116,141],[-90.39082,38.81114,141],[-90.39082,38.8111,140],[-90.39082,38.81107,140],[-90.39082,38.81103,140],[-90.39082,38.811,139],[-90.39081,38.81096,139],[-90.39081,38.81092,139],[-90.3908,38.81089,138],[-90.3908,38.81086,138],[-90.39081,38.81083,138],[-90.39081,38.81079,138]]],
        "bbox": [
          -90.3875,
          38.81747,
          -90.39218,
          38.81079
        ]
      },
      "properties": {
        "name": "1.20.2023"
      }
    }
  ]
}