{
  "type": "FeatureCollection",
  "features": [
    {
      "type": "Feature",
      "geometry": {
        "type": "MultiLineString",
        "coordinates": [[[-90.3907,38.81081,138],[-90.39083,38.81087,138],[-90.39092,38.81091,138],[-90.3909,38.81086,137],[-90.39087,38.81084,137],[-90.39083,38.81082,138],[-90.3908,38.81084,138],[-90.39081,38.81087,138],[-90.39083,38.8109,138],[-90.39085,38.81093,138],[-90.39086,38.81096,139],[-90.39088,38.811,139],[-90.39088,38.81103,139],[-90.39087,38.81107,140],[-90.39087,38.8111,140],[-90.39086,38.81113,140],[-90.39085,38.81116,141],[-90.39083,38.81119,141],[-90.39079,38.8112,141],[-90.39076,38.81122,141],[-90.39073,38.81124,142],[-90.3907,38.81126,142],[-90.39067,38.81128,142],[-90.39062,38.81129,142],[-90.39059,38.8113,142],[-90.39054,38.81129,142],[-90.39051,38.81128,142],[-90.39047,38.81127,142],[-90.39044,38.81125,142],[-90.39041,38.81123,142],[-90.39037,38.81121,142],[-90.39032,38.8112,142],[-90.39029,38.8112,142],[-90.39024,38.8112,143],[-90.39021,38.8112,143],[-90.39017,38.8112,144],[-90.39014,38.8112,144],[-90.39009,38.8112,145],[-90.39005,38.8112,145],[-90.39001,38.81119,146],[-90.38997,38.81117,147],[-90.38994,38.81116,147],[-90.38991,38.81118,147],[-90.38987,38.8112,148],[-90.38983,38.81121,148],[-90.38979,38.81122,149],[-90.38975,38.81122,150],[-90.3897,38.81121,150],[-90.38966,38.8112,150],[-90.38962,38.8112,151],[-90.38958,38.81121,151],[-90.38954,38.81121,151],[-90.38952,38.81124,151],[-90.3895,38.81127,151],[-90.38948,38.8113,151],[-90.38946,38.81132,151],[-90.38944,38.81135,152],[-90.38941,38.81137,152],[-90.38938,38.81139,152],[-90.38933,38.81139,152],[-90.38929,38.81139,152],[-90.38925,38.8114,152],[-90.38922,38.81143,152],[-90.38921,38.81146,152],[-90.38918,38.81149,152],[-90.38916,38.81151,152],[-90.38913,38.81152,152],[-90.3891,38.81154,153],[-90.38906,38.81156,154],[-90.38902,38.81156,155],[-90.38898,38.81156,156],[-90.38894,38.81157,157],[-90.3889,38.81157,158],[-90.38886,38.81158,159],[-90.38882,38.81159,160],[-90.38881,38.81162,161],[-90.3888,38.81165,161],[-90.38877,38.81168,161],[-90.38874,38.8117,162],[-90.38872,38.81173,162],[-90.38869,38.81174,162],[-90.38867,38.81177,162],[-90.38865,38.8118,162],[-90.38865,38.81183,162],[-90.38864,38.81186,162],[-90.38863,38.81189,162],[-90.38866,38.81192,161],[-90.38869,38.81193,160],[-90.38869,38.81197,160],[-90.38872,38.81199,160],[-90.38875,38.812,160],[-90.38878,38.81201,159],[-90.38884,38.81202,159],[-90.38886,38.81205,159],[-90.38886,38.81208,159],[-90.38887,38.81211,160],[-90.38886,38.81215,160],[-90.38884,38.81218,161],[-90.38882,38.81221,162],[-90.3888,38.81224,162],[-90.38879,38.81227,163],[-90.38877,38.8123,163],[-90.38874,38.81232,164],[-90.38871,38.81235,165],[-90.3887,38.81238,165],[-90.38868,38.8124,166],[-90.38865,38.81243,167],[-90.38867,38.81245,167],[-90.38868,38.81248,167],[-90.38868,38.81251,167],[-90.38866,38.81254,168],[-90.38864,38.81257,168],[-90.38863,38.8126,168],[-90.38862,38.81263,169],[-90.38859,38.81265,170],[-90.38856,38.81266,171],[-90.38854,38.81269,171],[-90.38852,38.81272,172],[-90.3885,38.81274,173],[-90.38846,38.81276,175],[-90.38843,38.81277,176],[-90.38839,38.81279,178],[-90.38835,38.81279,179],[-90.38831,38.81278,180],[-90.38827,38.81278,181],[-90.38823,38.81279,183],[-90.38819,38.8128,184],[-90.38816,38.81282,185],[-90.38812,38.81283,186],[-90.38809,38.81285,187],[-90.3881,38.81288,187],[-90.38811,38.8129,188],[-90.3881,38.81294,188],[-90.38809,38.81296,189],[-90.38809,38.813,189],[-90.38809,38.81303,189],[-90.38809,38.81306,190],[-90.38808,38.8131,191],[-90.38807,38.81313,192],[-90.38805,38.81315,192],[-90.38803,38.81318,193],[-90.38801,38.81321,193],[-90.38798,38.81323,194],[-90.38796,38.81326,194],[-90.38794,38.81328,195],[-90.3879,38.8133,195],[-90.38787,38.81331,195],[-90.38783,38.81333,195],[-90.3878,38.81333,195],[-90.38776,38.81333,195],[-90.38772,38.81333,195],[-90.38768,38.81333,195],[-90.38764,38.81333,195],[-90.38762,38.81336,195],[-90.38762,38.81338,195],[-90.38763,38.81342,195],[-90.38764,38.81344,195],[-90.38764,38.81347,195],[-90.38762,38.8135,196],[-90.38761,38.81353,196],[-90.38761,38.81355,196],[-90.38761,38.81358,196],[-90.3876,38.81361,196],[-90.38759,38.81364,196],[-90.38758,38.81367,197],[-90.38757,38.8137,197],[-90.38756,38.81374,198],[-90.38755,38.81377,198],[-90.38755,38.8138,198],[-90.38755,38.81382,199],[-90.38757,38.81385,199],[-90.3876,38.81387,199],[-90.38764,38.81388,199],[-90.38768,38.8139,200],[-90.38771,38.81392,200],[-90.38776,38.81393,200],[-90.38779,38.81393,199],[-90.38783,38.81393,199],[-90.38787,38.81393,199],[-90.3879,38.81393,199],[-90.38795,38.81393,199],[-90.38798,38.81392,199],[-90.38802,38.81392,199],[-90.38806,38.81391,199],[-90.3881,38.81391,198],[-90.38815,38.8139,198],[-90.38819,38.81391,198],[-90.38822,38.81392,198],[-90.38827,38.81393,198],[-90.38832,38.81395,198],[-90.38836,38.81396,198],[-90.3884,38.81398,197],[-90.38844,38.81399,197],[-90.38848,38.814,197],[-90.38852,38.81402,196],[-90.38855,38.81403,196],[-90.38859,38.81405,196],[-90.38863,38.81406,195],[-90.38866,38.81407,195],[-90.3887,38.81408,195],[-90.38874,38.8141,194],[-90.38877,38.81412,194],[-90.38881,38.81413,193],[-90.38884,38.81414,193],[-90.38888,38.81416,193],[-90.38893,38.81417,192],[-90.38897,38.81417,192],[-90.38902,38.81418,192],[-90.38906,38.81418,192],[-90.38909,38.81418,192],[-90.38914,38.81418,192],[-90.38918,38.81419,192],[-90.38922,38.81422,191],[-90.38926,38.81424,191],[-90.3893,38.81426,190],[-90.38934,38.81427,190],[-90.38937,38.81428,189],[-90.38942,38.81429,189],[-90.38945,38.81432,189],[-90.38949,38.81434,188],[-90.38953,38.81436,188],[-90.38956,38.81438,188],[-90.38958,38.81441,188],[-90.38959,38.81445,189],[-90.38959,38.81449,189],[-90.38958,38.81452,190],[-90.38957,38.81455,190],[-90.38956,38.81459,190],[-90.38956,38.81462,190],[-90.38955,38.81466,190],[-90.38955,38.81469,191],[-90.38954,38.81472,191],[-90.38955,38.81476,190],[-90.38955,38.8148,190],[-90.38956,38.81483,190],[-90.38958,38.81487,189],[-90.38959,38.8149,189],[-90.3896,38.81493,189],[-90.38962,38.81497,188],[-90.38965,38.81499,188],[-90.38969,38.81501,188],[-90.38971,38.81504,188],[-90.38974,38.81506,187],[-90.38978,38.81509,186],[-90.38981,38.81511,186],[-90.38985,38.81514,185],[-90.38988,38.81517,184],[-90.38991,38.81519,184],[-90.38993,38.81521,183],[-90.38997,38.81523,183],[-90.39001,38.81524,182],[-90.39006,38.81525,182],[-90.39008,38.81527,182],[-90.39012,38.81529,181],[-90.39016,38.81531,181],[-90.3902,38.81532,181],[-90.39025,38.81534,181],[-90.39029,38.81535,181],[-90.39033,38.81535,181],[-90.39036,38.81536,181],[-90.39039,38.81537,181],[-90.39044,38.81539,182],[-90.39047,38.8154,182],[-90.39051,38.81542,182],[-90.39055,38.81543,182],[-90.39059,38.81544,183],[-90.39064,38.81545,183],[-90.39067,38.81546,183],[-90.39071,38.81547,184],[-90.39075,38.81547,184],[-90.39079,38.81547,185],[-90.39083,38.81547,185],[-90.39087,38.81547,185],[-90.39092,38.81546,185],[-90.39096,38.81546,185],[-90.391,38.81545,186],[-90.39104,38.81544,186],[-90.39107,38.81542,186],[-90.39111,38.8154,186],[-90.39115,38.8154,186],[-90.3912,38.8154,186],[-90.39124,38.81539,186],[-90.39129,38.81539,185],[-90.39132,38.8154,185],[-90.39136,38.8154,185],[-90.3914,38.8154,185],[-90.39144,38.81541,184],[-90.39149,38.81542,184],[-90.39152,38.81544,183],[-90.39155,38.81547,183],[-90.39158,38.8155,183],[-90.3916,38.81552,183],[-90.39162,38.81554,183],[-90.39165,38.81557,182],[-90.39168,38.8156,182],[-90.39171,38.81563,181],[-90.39176,38.81565,179],[-90.3918,38.81565,179],[-90.39184,38.81564,178],[-90.39188,38.81564,177],[-90.39191,38.81564,176],[-90.39195,38.81566,175],[-90.39199,38.81566,173],[-90.39198,38.81563,174],[-90.39197,38.8156,175],[-90.39196,38.81557,176],[-90.39198,38.81555,176],[-90.39196,38.81552,177],[-90.39196,38.81549,176],[-90.39197,38.81546,176],[-90.39197,38.81542,176],[-90.39196,38.81539,176],[-90.39195,38.81536,176],[-90.39194,38.81533,176],[-90.39193,38.8153,176],[-90.39193,38.81526,175],[-90.39194,38.81523,174],[-90.39195,38.8152,173],[-90.39197,38.81517,171],[-90.39199,38.81514,169],[-90.39199,38.81511,168],[-90.39199,38.81507,167],[-90.39199,38.81504,166],[-90.39198,38.81501,165],[-90.39194,38.81499,166],[-90.39192,38.81496,166],[-90.3919,38.81494,166],[-90.39188,38.81491,167],[-90.39188,38.81487,166],[-90.3919,38.81484,165],[-90.39191,38.81481,165],[-90.39191,38.81478,164],[-90.39189,38.81476,164],[-90.39188,38.81473,165],[-90.39187,38.8147,164],[-90.39187,38.81467,164],[-90.39187,38.81464,164],[-90.39186,38.8146,163],[-90.39184,38.81457,163],[-90.39181,38.81455,164],[-90.3918,38.81453,164],[-90.39181,38.81449,163],[-90.3918,38.81446,163],[-90.3918,38.81444,163],[-90.39179,38.81441,162],[-90.39179,38.81438,161],[-90.3918,38.81435,160],[-90.39179,38.81432,159],[-90.39178,38.8143,159],[-90.3918,38.81428,158],[-90.39177,38.81427,159],[-90.39177,38.81425,158],[-90.39178,38.81422,157],[-90.3918,38.8142,156],[-90.39183,38.81418,155],[-90.39187,38.81418,154],[-90.3919,38.81418,153],[-90.39192,38.81416,152],[-90.39191,38.81413,151],[-90.39192,38.8141,149],[-90.39195,38.81409,148],[-90.39199,38.81409,147],[-90.39202,38.81408,146],[-90.39206,38.81408,146],[-90.3921,38.81407,145],[-90.39214,38.81406,144],[-90.39219,38.81405,143],[-90.39223,38.81404,142],[-90.39219,38.81405,143],[-90.39217,38.81408,145],[-90.39213,38.81409,146],[-90.39209,38.8141,147],[-90.39207,38.81411,148],[-90.39203,38.81413,149],[-90.39199,38.81414,150],[-90.39195,38.81415,151],[-90.39193,38.81417,152],[-90.39194,38.8142,153],[-90.3919,38.81421,154],[-90.39186,38.81422,155],[-90.39183,38.81424,156],[-90.39185,38.81427,157],[-90.39187,38.81428,156],[-90.39187,38.81431,157],[-90.39188,38.81434,158],[-90.39189,38.81437,158],[-90.3919,38.8144,159],[-90.39191,38.81443,159],[-90.39192,38.81446,159],[-90.39192,38.81449,160],[-90.39193,38.81452,160],[-90.39195,38.81455,160],[-90.39196,38.81458,160],[-90.39197,38.81461,160],[-90.39196,38.81464,161],[-90.39196,38.81467,161],[-90.39196,38.8147,162],[-90.39197,38.81473,162],[-90.39199,38.81476,162],[-90.392,38.81478,162],[-90.39199,38.81482,163],[-90.39197,38.81485,163],[-90.39196,38.81488,164],[-90.39196,38.81491,164],[-90.39198,38.81494,164],[-90.392,38.81497,164],[-90.39201,38.815,164],[-90.39203,38.81503,164],[-90.39203,38.81506,165],[-90.39203,38.81509,167],[-90.39204,38.81513,168],[-90.39203,38.81515,169],[-90.39203,38.81519,170],[-90.39202,38.81522,171],[-90.39201,38.81525,173],[-90.39201,38.81528,174],[-90.39201,38.81532,174],[-90.39202,38.81535,174],[-90.39202,38.81538,174],[-90.39202,38.81542,174],[-90.39202,38.81545,174],[-90.39202,38.81548,174],[-90.39201,38.81551,174],[-90.39201,38.81554,174],[-90.392,38.81557,175],[-90.39199,38.8156,174],[-90.39198,38.81563,174],[-90.39198,38.81566,174],[-90.39195,38.81568,174],[-90.3919,38.81568,176],[-90.39187,38.81568,177],[-90.39183,38.81569,177],[-90.3918,38.8157,178],[-90.39177,38.81572,178],[-90.39177,38.81575,178],[-90.39179,38.81578,177],[-90.3918,38.81581,176],[-90.3918,38.81585,175],[-90.3918,38.81587,175],[-90.39181,38.81591,174],[-90.39181,38.81594,173],[-90.3918,38.81597,173],[-90.3918,38.81601,172],[-90.39179,38.81604,171],[-90.39177,38.81608,171],[-90.39176,38.81611,171],[-90.39175,38.81615,170],[-90.39174,38.81618,169],[-90.39173,38.81621,168],[-90.39172,38.81624,167],[-90.3917,38.81628,166],[-90.39169,38.81631,166],[-90.39168,38.81634,165],[-90.39166,38.81636,165],[-90.39164,38.81639,164],[-90.39162,38.81642,164],[-90.3916,38.81645,163],[-90.39158,38.81647,163],[-90.39156,38.81651,162],[-90.39153,38.81653,163],[-90.39151,38.81656,162],[-90.39149,38.81659,162],[-90.39147,38.81661,162],[-90.39144,38.81663,161],[-90.39141,38.81665,162],[-90.39138,38.81667,162],[-90.39136,38.81669,161],[-90.39133,38.81671,161],[-90.39132,38.81674,160],[-90.3913,38.81676,160],[-90.39126,38.81678,160],[-90.39123,38.8168,160],[-90.39121,38.81682,159],[-90.39119,38.81684,159],[-90.39117,38.81687,159],[-90.39113,38.81686,160],[-90.3911,38.81683,161],[-90.39105,38.81681,162],[-90.39102,38.81678,163],[-90.39099,38.81676,164],[-90.39095,38.81675,164],[-90.39092,38.81674,165],[-90.39088,38.81672,165],[-90.39086,38.81675,165],[-90.39087,38.81678,164],[-90.39087,38.81681,164],[-90.39084,38.81682,164],[-90.3908,38.81684,164],[-90.39077,38.81686,164],[-90.39073,38.81685,164],[-90.39069,38.81684,164],[-90.39066,38.81687,164],[-90.39064,38.8169,164],[-90.39061,38.81692,164],[-90.39058,38.81693,164],[-90.39055,38.81695,164],[-90.39051,38.81696,164],[-90.39053,38.81698,164],[-90.39054,38.81701,163],[-90.39056,38.81704,161],[-90.39058,38.81706,160],[-90.39058,38.81709,159],[-90.39057,38.81712,159],[-90.39055,38.81714,158],[-90.39054,38.81717,157],[-90.39056,38.8172,156],[-90.39058,38.81722,155],[-90.39055,38.81724,155],[-90.39053,38.81726,154],[-90.39049,38.81727,154],[-90.39052,38.81725,155],[-90.39054,38.81728,154],[-90.39051,38.8173,153],[-90.39048,38.81732,152],[-90.39052,38.81731,153],[-90.39054,38.81729,153],[-90.39056,38.81727,154],[-90.3906,38.81728,153],[-90.3906,38.81731,152],[-90.39062,38.81734,150],[-90.39064,38.81736,149],[-90.39065,38.81739,148],[-90.39067,38.81742,147],[-90.3907,38.8174,147],[-90.39074,38.8174,146],[-90.39078,38.81741,145],[-90.3908,38.81744,144],[-90.39084,38.81745,143],[-90.39088,38.81746,142],[-90.39087,38.81748,142],[-90.39086,38.81751,141],[-90.39086,38.81748,142],[-90.3909,38.81747,142],[-90.39093,38.81744,142],[-90.39092,38.81741,143],[-90.39092,38.81738,144],[-90.39094,38.81735,145],[-90.39095,38.81732,145],[-90.39094,38.81729,147],[-90.39096,38.81727,147],[-90.391,38.81725,147],[-90.39104,38.81723,147],[-90.39106,38.81721,147],[-90.39107,38.81718,148],[-90.3911,38.81716,148],[-90.39115,38.81716,147],[-90.39119,38.81715,147],[-90.39124,38.81715,146],[-90.39128,38.81715,146],[-90.39131,38.81712,146],[-90.39135,38.81711,146],[-90.39137,38.81708,147],[-90.39142,38.81707,147],[-90.39145,38.81705,147],[-90.39147,38.81702,148],[-90.3915,38.81701,148],[-90.39154,38.81699,148],[-90.39157,38.81697,148],[-90.39161,38.81696,148],[-90.39165,38.81695,148],[-90.39168,38.81694,148],[-90.39172,38.81693,148],[-90.39174,38.8169,149],[-90.39176,38.81687,149],[-90.39178,38.81684,150],[-90.39181,38.81683,150],[-90.3918,38.81686,150],[-90.39183,38.81684,150],[-90.39185,38.8168,150],[-90.39187,38.81677,151],[-90.39189,38.81674,151],[-90.39192,38.81672,150],[-90.39195,38.81671,150],[-90.39197,38.81669,150],[-90.39199,38.81671,149],[-90.39198,38.81668,150],[-90.392,38.81666,150],[-90.39203,38.81665,149],[-90.39206,38.81662,149],[-90.39208,38.81659,149],[-90.39209,38.81656,149],[-90.39213,38.81655,149],[-90.39217,38.81654,148],[-90.3922,38.81652,148],[-90.39224,38.81652,147],[-90.39222,38.81654,147],[-90.39223,38.8165,147],[-90.39222,38.81647,148],[-90.39222,38.81644,148],[-90.39222,38.81641,148],[-90.39224,38.81638,148],[-90.39225,38.81636,149],[-90.39226,38.81633,150],[-90.39227,38.81629,150],[-90.3923,38.81629,150],[-90.39233,38.81626,150],[-90.39232,38.81623,151],[-90.39235,38.81622,150],[-90.39239,38.81621,150],[-90.39239,38.81618,150],[-90.3924,38.81615,151],[-90.39244,38.81613,150],[-90.39247,38.81612,149],[-90.39251,38.81611,148],[-90.39254,38.81608,147],[-90.39257,38.81606,146],[-90.3926,38.81603,145],[-90.39262,38.81601,145],[-90.39263,38.81597,144],[-90.39262,38.81594,145],[-90.39262,38.81591,145],[-90.39261,38.81588,145],[-90.39261,38.81585,145],[-90.39259,38.81582,146],[-90.39257,38.81578,147],[-90.39256,38.81575,148],[-90.39255,38.81572,150],[-90.39253,38.81569,151],[-90.39252,38.81567,152],[-90.39252,38.81563,153],[-90.39253,38.81561,153],[-90.39255,38.81557,153],[-90.39259,38.81555,152],[-90.39263,38.81553,151],[-90.39265,38.8155,151],[-90.39267,38.81547,150],[-90.3927,38.81544,150],[-90.39274,38.81543,149],[-90.39279,38.81541,148],[-90.39282,38.81539,148],[-90.39285,38.81538,148],[-90.39289,38.81536,147],[-90.39293,38.81535,146],[-90.39297,38.81533,146],[-90.393,38.81531,146],[-90.39303,38.81529,146],[-90.39306,38.81526,146],[-90.39308,38.81523,145],[-90.3931,38.81521,145],[-90.39311,38.81518,145],[-90.39311,38.81515,145],[-90.39312,38.81512,145],[-90.39311,38.81509,146],[-90.39309,38.81507,146],[-90.39307,38.81505,147],[-90.39304,38.81502,147],[-90.39303,38.81499,148],[-90.393,38.81496,148],[-90.39298,38.81494,148],[-90.39296,38.81491,148],[-90.39294,38.81488,148],[-90.39293,38.81486,148],[-90.39293,38.81483,148],[-90.39292,38.81479,148],[-90.39292,38.81477,148],[-90.39292,38.81473,148],[-90.39291,38.8147,149],[-90.3929,38.81467,149],[-90.39289,38.81464,149],[-90.39286,38.81461,150],[-90.39283,38.81459,151],[-90.3928,38.81456,152],[-90.39277,38.81455,152],[-90.39274,38.81453,153],[-90.3927,38.81451,153],[-90.39267,38.8145,153],[-90.39265,38.81447,154],[-90.39263,38.81445,154],[-90.39261,38.81442,154],[-90.39258,38.8144,154],[-90.39254,38.81437,153],[-90.39251,38.81434,153],[-90.39248,38.81433,153],[-90.39244,38.81431,153],[-90.3924,38.81429,152],[-90.39236,38.81428,152],[-90.39232,38.81425,152],[-90.3923,38.81423,151],[-90.39227,38.8142,151],[-90.39224,38.81417,150],[-90.39222,38.81414,149],[-90.3922,38.81411,147],[-90.39218,38.81409,146],[-90.39216,38.81406,144],[-90.39213,38.81404,143],[-90.39209,38.81402,142],[-90.39206,38.81399,141],[-90.39203,38.81396,140],[-90.39199,38.81394,139],[-90.39196,38.81392,139],[-90.39192,38.81389,138],[-90.39189,38.81387,140],[-90.39186,38.81384,141],[-90.39182,38.81382,142],[-90.39178,38.81381,143],[-90.39174,38.81379,144],[-90.3917,38.81377,145],[-90.39167,38.81374,145],[-90.39164,38.81372,145],[-90.39162,38.81369,145],[-90.3916,38.81366,145],[-90.39158,38.81362,145],[-90.39155,38.8136,146],[-90.39153,38.81357,146],[-90.39153,38.81354,147],[-90.39154,38.8135,147],[-90.39154,38.81347,147],[-90.39153,38.81344,147],[-90.39151,38.81341,148],[-90.3915,38.81338,148],[-90.39148,38.81335,149],[-90.39144,38.81333,150],[-90.39141,38.81332,150],[-90.39137,38.8133,151],[-90.39134,38.81329,151],[-90.3913,38.81328,152],[-90.39127,38.81326,152],[-90.39127,38.81323,152],[-90.39129,38.8132,151],[-90.39127,38.81318,152],[-90.39123,38.81317,152],[-90.39119,38.81315,153],[-90.39116,38.81312,153],[-90.39113,38.8131,153],[-90.39112,38.81307,153],[-90.39111,38.81304,153],[-90.39111,38.813,152],[-90.3911,38.81298,152],[-90.39108,38.81295,151],[-90.39106,38.81293,151],[-90.39103,38.81289,150],[-90.39101,38.81286,150],[-90.391,38.81283,149],[-90.39098,38.8128,149],[-90.39097,38.81278,149],[-90.39096,38.81274,148],[-90.39097,38.8127,147],[-90.39096,38.81267,146],[-90.39094,38.81265,146],[-90.39094,38.81261,145],[-90.39094,38.81258,144],[-90.39093,38.81254,143],[-90.39092,38.81251,143],[-90.39092,38.81248,143],[-90.39092,38.81245,144],[-90.39091,38.81241,145],[-90.39089,38.81238,146],[-90.39088,38.81235,146],[-90.39086,38.81232,147],[-90.39084,38.81229,148],[-90.39083,38.81226,149],[-90.39082,38.81223,149],[-90.3908,38.81221,149],[-90.39078,38.81218,149],[-90.39079,38.81214,149],[-90.3908,38.81211,149],[-90.39081,38.81209,149],[-90.39084,38.81206,149],[-90.39085,38.81204,149],[-90.39085,38.812,149],[-90.39087,38.81197,149],[-90.39088,38.81195,149],[-90.39088,38.81191,149],[-90.39087,38.81188,148],[-90.39087,38.81185,148],[-90.39086,38.81182,148],[-90.39086,38.81179,147],[-90.39086,38.81176,147],[-90.39086,38.81172,147],[-90.39088,38.81169,146],[-90.3909,38.81167,146],[-90.39093,38.81164,145],[-90.39097,38.81162,145],[-90.391,38.8116,144],[-90.39102,38.81158,144],[-90.39104,38.81156,144],[-90.39106,38.81153,143],[-90.39106,38.8115,142],[-90.39105,38.81147,142],[-90.39102,38.81144,142],[-90.39099,38.81141,142],[-90.39095,38.81139,142],[-90.39093,38.81137,142],[-90.3909,38.81135,142],[-90.39087,38.81132,142],[-90.39085,38.8113,142],[-90.39082,38.81127,142],[-90.3908,38.81125,142],[-90.39077,38.81122,141],[-90.39076,38.81118,141],[-90.39076,38.81115,141],[-90.39076,38.81112,141],[-90.39077,38.8111,141],[-90.39077,38.81107,140],[-90.39078,38.81104,140],[-90.39078,38.81101,140],[-90.39078,38.81098,139],[-90.39079,38.81095,139],[-90.39079,38.81092,139],[-90.39078,38.81089,138],[-90.39076,38.81086,138],[-90.39075,38.81084,138],[-90.39076,38.8108,138],[-90.39079,38.81079,138],[-90.3908,38.81078,138]]],
        "bbox": [
          -90.38755,
          38.81751,
          -90.39312,
          38.81078
        ]
      },
      "properties": {
        "name": "3.24.2023"
      }
    }
  ]
}