{
  "type": "FeatureCollection",
  "features": [
    {
      "type": "Feature",
      "geometry": {
        "type": "MultiLineString",
        "coordinates": [[[-90.39398,38.81248,137],[-90.39399,38.8125,137],[-90.39398,38.81254,136],[-90.39394,38.81256,136],[-90.39391,38.81258,136],[-90.39388,38.81259,135],[-90.39384,38.81262,135],[-90.39381,38.81264,135],[-90.39378,38.81267,135],[-90.39376,38.81269,134],[-90.39374,38.81272,134],[-90.39371,38.81274,134],[-90.39367,38.81276,134],[-90.39364,38.81279,133],[-90.3936,38.8128,133],[-90.39356,38.81279,134],[-90.39354,38.81276,134],[-90.39351,38.81276,134],[-90.39346,38.81276,134],[-90.39342,38.81277,134],[-90.39339,38.81279,134],[-90.39336,38.81281,134],[-90.39332,38.81282,134],[-90.39329,38.81283,134],[-90.39325,38.81281,134],[-90.39322,38.81279,134],[-90.39319,38.81276,134],[-90.39315,38.81274,134],[-90.39312,38.81273,134],[-90.39309,38.8127,134],[-90.39306,38.81268,134],[-90.39303,38.81266,134],[-90.39299,38.81264,134],[-90.39296,38.81262,134],[-90.39292,38.81261,134],[-90.39288,38.81259,134],[-90.39284,38.81257,134],[-90.39281,38.81255,134],[-90.39278,38.81252,134],[-90.39278,38.8125,134],[-90.39276,38.81248,134],[-90.39278,38.8125,134],[-90.3928,38.81253,134],[-90.39283,38.81256,134],[-90.3928,38.81254,134],[-90.39276,38.81252,134],[-90.39273,38.81251,134],[-90.3927,38.81249,134],[-90.39268,38.81247,134],[-90.39265,38.81244,134],[-90.39261,38.81242,134],[-90.39258,38.8124,135],[-90.39254,38.81239,135],[-90.39252,38.81237,135],[-90.39248,38.81235,135],[-90.39245,38.81233,135],[-90.39242,38.81231,135],[-90.39238,38.81229,135],[-90.39234,38.81227,135],[-90.3923,38.81225,135],[-90.39227,38.81223,135],[-90.39224,38.81221,135],[-90.39221,38.81219,136],[-90.39217,38.81217,136],[-90.39214,38.81216,136],[-90.39211,38.81214,136],[-90.39208,38.81213,136],[-90.39203,38.81213,137],[-90.392,38.81214,137],[-90.39197,38.81215,137],[-90.39193,38.81218,137],[-90.3919,38.8122,137],[-90.39187,38.81224,137],[-90.39183,38.81227,136],[-90.39179,38.81229,136],[-90.39176,38.81233,136],[-90.39173,38.81236,136],[-90.39171,38.8124,136],[-90.3917,38.81243,135],[-90.39166,38.81247,135],[-90.39161,38.81249,135],[-90.39157,38.81252,135],[-90.39154,38.81255,136],[-90.3915,38.81258,137],[-90.39147,38.81261,138],[-90.39146,38.81266,139],[-90.39146,38.8127,140],[-90.39147,38.81273,140],[-90.39148,38.81276,141],[-90.3915,38.81278,141],[-90.39153,38.81281,141],[-90.39156,38.81283,141],[-90.3916,38.81285,141],[-90.39164,38.81286,140],[-90.39167,38.81287,140],[-90.39171,38.81289,140],[-90.39175,38.8129,139],[-90.39178,38.81292,139],[-90.39182,38.81294,139],[-90.39186,38.81295,138],[-90.39189,38.81297,138],[-90.39192,38.813,138],[-90.39196,38.81302,138],[-90.392,38.81305,138],[-90.39203,38.81306,138],[-90.39206,38.81308,138],[-90.3921,38.8131,138],[-90.39214,38.81312,138],[-90.39216,38.81314,138],[-90.39219,38.81316,138],[-90.39221,38.81319,138],[-90.39224,38.81321,137],[-90.39226,38.81323,138],[-90.39229,38.81326,138],[-90.39233,38.81328,137],[-90.39236,38.8133,137],[-90.3924,38.81331,137],[-90.39244,38.81333,137],[-90.39248,38.81335,137],[-90.39251,38.81337,137],[-90.39254,38.81339,137],[-90.39258,38.81341,137],[-90.39263,38.81342,136],[-90.39265,38.81347,137],[-90.39263,38.8135,137],[-90.3926,38.81354,138],[-90.39257,38.81358,138],[-90.39254,38.81361,138],[-90.39252,38.81365,138],[-90.3925,38.81369,138],[-90.39249,38.81373,138],[-90.39246,38.81376,138],[-90.39243,38.8138,137],[-90.39242,38.81383,137],[-90.39243,38.81387,136],[-90.39239,38.8139,136],[-90.39235,38.81393,137],[-90.39235,38.81397,139],[-90.39231,38.81399,140],[-90.39228,38.81402,141],[-90.39225,38.81404,143],[-90.39221,38.81405,143],[-90.39217,38.81405,143],[-90.39215,38.81403,142],[-90.39212,38.814,141],[-90.3921,38.81398,140],[-90.39207,38.81395,139],[-90.39203,38.81393,138],[-90.392,38.81391,138],[-90.39196,38.81389,137],[-90.39192,38.81387,138],[-90.3919,38.81385,139],[-90.39187,38.81382,140],[-90.39184,38.8138,141],[-90.39181,38.81379,142],[-90.39178,38.81377,143],[-90.39174,38.81376,144],[-90.39171,38.81376,144],[-90.39167,38.81374,145],[-90.39165,38.81371,145],[-90.39163,38.81367,144],[-90.39162,38.81364,144],[-90.39161,38.81361,144],[-90.3916,38.81358,145],[-90.39159,38.81354,145],[-90.39158,38.81351,146],[-90.39158,38.81348,146],[-90.39156,38.81346,147],[-90.39155,38.81343,147],[-90.39153,38.8134,148],[-90.39151,38.81336,149],[-90.39148,38.81334,149],[-90.39144,38.81335,150],[-90.3914,38.81335,150],[-90.39137,38.81333,151],[-90.39136,38.81329,151],[-90.39135,38.81326,151],[-90.39135,38.81323,151],[-90.39134,38.8132,151],[-90.3913,38.81319,151],[-90.39127,38.81317,152],[-90.39124,38.81315,152],[-90.39122,38.81313,152],[-90.39121,38.8131,152],[-90.3912,38.81306,152],[-90.39118,38.81303,152],[-90.39116,38.81301,152],[-90.39114,38.81298,151],[-90.39112,38.81295,151],[-90.3911,38.81291,150],[-90.39108,38.81288,149],[-90.39106,38.81285,149],[-90.39104,38.81281,148],[-90.39103,38.81279,148],[-90.39103,38.81275,147],[-90.39104,38.81273,146],[-90.39103,38.81269,146],[-90.39103,38.81266,145],[-90.39104,38.81263,144],[-90.39103,38.8126,144],[-90.39103,38.81256,143],[-90.39102,38.81253,142],[-90.39102,38.8125,141],[-90.39101,38.81247,142],[-90.39101,38.81244,143],[-90.39101,38.8124,144],[-90.391,38.81237,145],[-90.39097,38.81235,146],[-90.39095,38.81232,147],[-90.39094,38.8123,147],[-90.39092,38.81228,148],[-90.39089,38.81225,149],[-90.39085,38.81222,149],[-90.39082,38.81221,149],[-90.39082,38.81218,149],[-90.39083,38.81215,149],[-90.39085,38.81213,149],[-90.39088,38.81211,149],[-90.39088,38.81207,149],[-90.39087,38.81203,149],[-90.39087,38.81201,149],[-90.39088,38.81197,149],[-90.39089,38.81195,149],[-90.39089,38.81191,149],[-90.3909,38.81188,148],[-90.39092,38.81184,148],[-90.39094,38.81181,148],[-90.39096,38.81177,147],[-90.39096,38.81173,147],[-90.39095,38.81169,146],[-90.39096,38.81165,145],[-90.39099,38.81162,145],[-90.39101,38.81159,144],[-90.39105,38.81156,143],[-90.39107,38.81152,143],[-90.39106,38.81148,142],[-90.39105,38.81144,142],[-90.39103,38.81141,141],[-90.39099,38.81138,141],[-90.39096,38.81134,141],[-90.39092,38.81131,141],[-90.39089,38.81128,141],[-90.39086,38.81125,141],[-90.39085,38.81121,141],[-90.39084,38.81118,141],[-90.39081,38.81116,141],[-90.3908,38.81113,141],[-90.39081,38.8111,140],[-90.39083,38.81107,140],[-90.39086,38.81103,139],[-90.39087,38.81101,139],[-90.39087,38.81097,139],[-90.39085,38.81095,139],[-90.39082,38.81092,139],[-90.3908,38.8109,138],[-90.39077,38.81088,138],[-90.39074,38.81086,138],[-90.3907,38.81084,139],[-90.39067,38.81083,139],[-90.39063,38.81082,139],[-90.39059,38.8108,139],[-90.39055,38.81079,139],[-90.39051,38.81078,140],[-90.39047,38.81077,140],[-90.39043,38.81076,140],[-90.39038,38.81075,140],[-90.39034,38.81075,140],[-90.3903,38.81074,140],[-90.39026,38.81074,141],[-90.39022,38.81074,141],[-90.39017,38.81074,141],[-90.39012,38.81074,141],[-90.39008,38.81074,142],[-90.39004,38.81074,142],[-90.39,38.81074,142],[-90.38995,38.81074,143],[-90.38992,38.81074,143],[-90.38988,38.81074,143],[-90.38984,38.81074,144],[-90.38981,38.81073,144],[-90.38977,38.81071,144],[-90.38973,38.8107,144],[-90.38969,38.8107,144],[-90.38966,38.8107,144],[-90.38962,38.81069,145],[-90.38959,38.81067,144],[-90.38954,38.81066,144],[-90.3895,38.81064,144],[-90.38947,38.81063,144],[-90.38942,38.81062,144],[-90.38938,38.8106,144],[-90.38935,38.81058,144],[-90.38932,38.81057,144],[-90.38929,38.81055,144],[-90.38927,38.81052,144],[-90.38926,38.81049,143],[-90.38924,38.81046,143],[-90.38923,38.81043,143],[-90.38921,38.81039,143],[-90.3892,38.81036,143],[-90.3892,38.81032,143],[-90.3892,38.81029,142],[-90.3892,38.81026,142],[-90.38919,38.81023,143],[-90.38917,38.8102,143],[-90.38916,38.81017,143],[-90.38915,38.81015,143],[-90.38914,38.81011,144],[-90.38914,38.81008,144],[-90.38913,38.81005,144],[-90.38913,38.81002,144],[-90.38911,38.80999,145],[-90.38911,38.80996,145],[-90.3891,38.80993,145],[-90.38909,38.80989,145],[-90.38908,38.80987,145],[-90.38906,38.80985,145],[-90.38909,38.80984,145],[-90.38908,38.80981,145],[-90.38905,38.80978,145],[-90.38904,38.80975,145],[-90.38901,38.80972,145],[-90.38899,38.80969,145],[-90.38896,38.80967,145],[-90.38893,38.80964,145],[-90.38891,38.80961,145],[-90.38888,38.80959,145],[-90.38886,38.80957,145],[-90.38883,38.80953,145],[-90.38881,38.80951,145],[-90.3888,38.80947,145],[-90.38877,38.80944,145],[-90.38875,38.80941,145],[-90.38873,38.80938,144],[-90.38872,38.80936,144],[-90.38871,38.80933,144],[-90.38868,38.80929,143],[-90.38867,38.80927,143],[-90.38865,38.80924,143],[-90.38863,38.80922,142],[-90.38861,38.80919,142],[-90.38861,38.80916,141],[-90.3886,38.80913,142],[-90.38859,38.8091,142],[-90.38858,38.80907,142],[-90.38858,38.80903,142],[-90.38858,38.809,141],[-90.38858,38.80896,141],[-90.38858,38.80892,141],[-90.38857,38.80889,141],[-90.38856,38.80885,141],[-90.38855,38.80882,142],[-90.38856,38.80879,142],[-90.38856,38.80876,142],[-90.38856,38.80873,142],[-90.38857,38.8087,141],[-90.38856,38.80866,142],[-90.38855,38.80862,142],[-90.38853,38.80859,142],[-90.38852,38.80856,142],[-90.38851,38.80853,142],[-90.3885,38.8085,143],[-90.38848,38.80847,143],[-90.38847,38.80844,143],[-90.38847,38.80841,143],[-90.38846,38.80837,143],[-90.38846,38.80834,143],[-90.38846,38.80831,143],[-90.38846,38.80828,142],[-90.38847,38.80824,142],[-90.38846,38.80821,142],[-90.38845,38.80818,142],[-90.38844,38.80814,142],[-90.38843,38.80812,142],[-90.38842,38.80808,141],[-90.38841,38.80805,141],[-90.38841,38.80803,141],[-90.38841,38.808,142],[-90.38841,38.80796,142],[-90.38841,38.80793,142],[-90.3884,38.8079,142],[-90.3884,38.80787,142],[-90.38839,38.80784,142],[-90.38838,38.80781,143],[-90.38837,38.80778,143],[-90.38835,38.80775,143],[-90.38834,38.80772,143],[-90.38833,38.80769,143],[-90.38832,38.80766,143],[-90.38831,38.80762,143],[-90.3883,38.80759,143],[-90.38829,38.80756,143],[-90.38827,38.80752,143],[-90.38826,38.80748,143],[-90.38825,38.80745,143],[-90.38824,38.80742,143],[-90.38823,38.80738,143],[-90.38823,38.80735,143],[-90.38823,38.80732,143],[-90.38822,38.80728,143],[-90.38822,38.80724,143],[-90.38822,38.80721,142],[-90.38822,38.80718,142],[-90.38821,38.80714,142],[-90.3882,38.80711,141],[-90.38818,38.80708,141],[-90.38817,38.80705,141],[-90.38816,38.80701,141],[-90.38817,38.80698,141],[-90.38818,38.80695,140],[-90.38818,38.80691,139],[-90.38817,38.80688,140],[-90.38816,38.80684,139],[-90.38816,38.80681,139],[-90.38814,38.80678,139],[-90.38813,38.80675,139],[-90.38812,38.80671,139],[-90.38811,38.80668,139],[-90.3881,38.80665,139],[-90.3881,38.80662,140],[-90.3881,38.80659,140],[-90.38809,38.80656,140],[-90.38807,38.80653,141],[-90.38806,38.8065,141],[-90.38805,38.80647,141],[-90.38803,38.80644,142],[-90.38802,38.80641,142],[-90.38801,38.80638,143],[-90.38799,38.80635,143],[-90.38798,38.80632,144],[-90.38798,38.80628,144],[-90.38796,38.80625,144],[-90.38796,38.80623,144],[-90.38796,38.80619,144],[-90.38796,38.80616,144],[-90.38797,38.80612,144],[-90.38797,38.80609,144],[-90.38797,38.80606,144],[-90.38796,38.80603,144],[-90.38795,38.80599,144],[-90.38794,38.80596,145],[-90.38794,38.80593,145],[-90.38794,38.8059,145],[-90.38794,38.80587,144],[-90.38795,38.80584,144],[-90.38798,38.80582,143],[-90.38798,38.80579,143],[-90.38798,38.80576,142],[-90.38795,38.80573,143],[-90.38793,38.8057,143],[-90.38791,38.80567,143],[-90.38789,38.80564,142],[-90.38788,38.8056,142],[-90.38788,38.80557,141],[-90.38788,38.80554,141],[-90.38788,38.8055,141],[-90.38787,38.80547,142],[-90.38787,38.80543,142],[-90.38786,38.80541,142],[-90.38785,38.80537,142],[-90.38783,38.80535,143],[-90.38782,38.80531,143],[-90.38782,38.80528,143],[-90.38782,38.80524,143],[-90.38782,38.80521,143],[-90.38781,38.80518,144],[-90.3878,38.80514,144],[-90.3878,38.80511,144],[-90.38779,38.80508,144],[-90.38778,38.80505,144],[-90.38777,38.80501,145],[-90.38776,38.80498,145],[-90.38775,38.80495,144],[-90.38776,38.80491,144],[-90.38775,38.80488,144],[-90.38776,38.80485,144],[-90.38776,38.80483,144],[-90.38776,38.80479,143],[-90.38776,38.80476,143],[-90.38776,38.80474,143],[-90.38777,38.80471,143],[-90.38778,38.80468,142],[-90.38777,38.80464,142],[-90.38775,38.80461,143],[-90.38772,38.80457,143],[-90.3877,38.80454,143],[-90.38768,38.80451,143],[-90.38767,38.80448,143],[-90.38766,38.80445,143],[-90.38767,38.80443,143],[-90.3877,38.80441,143],[-90.38766,38.80442,143],[-90.38766,38.80445,143],[-90.38763,38.80445,144],[-90.38759,38.80443,144],[-90.38755,38.80443,145],[-90.38752,38.80442,145],[-90.38749,38.80441,146],[-90.38745,38.80439,147],[-90.38741,38.80438,147],[-90.38737,38.80438,148],[-90.38733,38.80438,149],[-90.38731,38.80441,149],[-90.38732,38.80443,149],[-90.3873,38.80441,149],[-90.38727,38.80439,150],[-90.38725,38.80437,150],[-90.38723,38.80434,150],[-90.38722,38.8043,150],[-90.38722,38.80427,150],[-90.38721,38.80424,151],[-90.3872,38.80421,151],[-90.38719,38.80417,151],[-90.38718,38.80415,152],[-90.38716,38.80412,152],[-90.38715,38.80409,152],[-90.38715,38.80406,152],[-90.38714,38.80402,153],[-90.38715,38.80399,152],[-90.38717,38.80396,152],[-90.38719,38.80393,152],[-90.3872,38.8039,153],[-90.38719,38.80386,153],[-90.38718,38.80384,154],[-90.38715,38.80381,154],[-90.38713,38.80378,155],[-90.38711,38.80375,156],[-90.3871,38.80371,157],[-90.38711,38.80367,157],[-90.38712,38.80364,158],[-90.38712,38.80361,158],[-90.38711,38.80357,159],[-90.38711,38.80354,159],[-90.3871,38.80351,159],[-90.3871,38.80348,159],[-90.3871,38.80345,159],[-90.38709,38.80341,159],[-90.38708,38.80338,159],[-90.38704,38.80336,159],[-90.38702,38.80333,159],[-90.387,38.8033,159],[-90.38699,38.80327,158],[-90.38695,38.80324,158],[-90.38691,38.80322,157],[-90.38688,38.8032,157],[-90.38684,38.80319,157],[-90.38681,38.80317,157],[-90.38679,38.80314,156],[-90.38678,38.80312,156],[-90.38677,38.80309,156],[-90.38676,38.80306,155],[-90.38676,38.80303,155],[-90.38677,38.80301,155],[-90.38679,38.80298,155],[-90.38679,38.80295,155],[-90.38676,38.80293,155],[-90.38673,38.80291,155],[-90.3867,38.80289,156],[-90.38667,38.80287,156],[-90.38666,38.80285,156],[-90.38662,38.80284,157],[-90.38658,38.80284,158],[-90.38656,38.80281,159],[-90.38654,38.80279,159],[-90.38651,38.80277,160],[-90.38647,38.80276,161],[-90.38642,38.80276,162],[-90.38638,38.80276,163],[-90.38634,38.80277,164],[-90.3863,38.80276,164],[-90.38626,38.80274,165],[-90.38622,38.80274,166],[-90.38618,38.80274,167],[-90.38614,38.80275,168],[-90.3861,38.80276,168],[-90.38606,38.80277,168],[-90.38604,38.80279,168],[-90.38601,38.80278,168],[-90.38598,38.80276,168],[-90.38597,38.80272,168],[-90.38596,38.80269,168],[-90.38596,38.80265,167],[-90.38598,38.80263,167],[-90.38601,38.80261,167],[-90.38604,38.80259,167],[-90.38608,38.80258,167],[-90.38611,38.8026,167],[-90.38608,38.80262,167],[-90.38605,38.80264,167],[-90.38601,38.80265,167],[-90.38598,38.80266,167],[-90.38599,38.80269,168],[-90.386,38.80273,168],[-90.38604,38.80274,168],[-90.38609,38.80275,168],[-90.38613,38.80275,168],[-90.38617,38.80275,167],[-90.3862,38.80275,166],[-90.38625,38.80276,165],[-90.38628,38.80278,165],[-90.38631,38.8028,164],[-90.38635,38.80281,163],[-90.38639,38.80282,162],[-90.38643,38.80282,161],[-90.38648,38.80282,160],[-90.38652,38.80282,159],[-90.38655,38.80281,159],[-90.38658,38.80283,158],[-90.38659,38.80285,158],[-90.38662,38.80287,157],[-90.38665,38.80289,156],[-90.38669,38.8029,156],[-90.38671,38.80292,156],[-90.38673,38.80295,155],[-90.38675,38.80297,155],[-90.38676,38.803,155],[-90.38676,38.80303,155],[-90.38675,38.80307,155],[-90.38674,38.80311,156],[-90.38676,38.80314,156],[-90.38678,38.80316,157],[-90.38681,38.80318,157],[-90.38685,38.80321,157],[-90.38688,38.80323,158],[-90.38692,38.80324,158],[-90.38695,38.80327,158],[-90.38697,38.8033,159],[-90.387,38.80332,159],[-90.38704,38.80335,159],[-90.38707,38.80337,159],[-90.38709,38.8034,159],[-90.38709,38.80344,159],[-90.3871,38.80348,159],[-90.3871,38.80351,159],[-90.38711,38.80354,159],[-90.38715,38.80355,159],[-90.38718,38.80356,159],[-90.38721,38.80358,159],[-90.38724,38.80361,158],[-90.38726,38.80363,158],[-90.38728,38.80365,157],[-90.38731,38.80368,156],[-90.38734,38.8037,156],[-90.38736,38.80373,155],[-90.38737,38.80376,154],[-90.38739,38.80378,153],[-90.3874,38.80382,151],[-90.38741,38.80386,150],[-90.38742,38.80389,149],[-90.38743,38.80392,149],[-90.38744,38.80395,148],[-90.38746,38.80398,148],[-90.38747,38.80401,148],[-90.38746,38.80404,148],[-90.38745,38.80406,148],[-90.38742,38.80409,148],[-90.38739,38.80411,148],[-90.38736,38.80413,149],[-90.38732,38.80415,149],[-90.3873,38.80418,149],[-90.38729,38.80421,149],[-90.38728,38.80424,150],[-90.38727,38.80427,150],[-90.38727,38.8043,150],[-90.38727,38.80434,150],[-90.38729,38.80437,149],[-90.38733,38.80438,149],[-90.38737,38.80439,148],[-90.38741,38.80439,147],[-90.38745,38.80441,146],[-90.38748,38.80442,146],[-90.38751,38.80444,145],[-90.38755,38.80445,145],[-90.38758,38.80446,144],[-90.38762,38.80447,144],[-90.38766,38.80448,143],[-90.38769,38.8045,143],[-90.38773,38.80452,142],[-90.38774,38.80454,142],[-90.38775,38.80457,142],[-90.38774,38.8046,143],[-90.38773,38.80463,143],[-90.38773,38.80466,143],[-90.38773,38.80469,143],[-90.38774,38.80473,143],[-90.38776,38.80476,143],[-90.38776,38.8048,143],[-90.38775,38.80483,144],[-90.38775,38.80487,144],[-90.38776,38.8049,144],[-90.38777,38.80493,144],[-90.38777,38.80496,144],[-90.38778,38.80499,144],[-90.38779,38.80502,144],[-90.3878,38.80505,144],[-90.3878,38.80508,144],[-90.38781,38.80511,144],[-90.38781,38.80514,144],[-90.38782,38.80517,144],[-90.38782,38.8052,143],[-90.38779,38.80523,144],[-90.38781,38.80525,143],[-90.38784,38.80528,143],[-90.38785,38.80531,143],[-90.38786,38.80534,142],[-90.38789,38.80536,142],[-90.38789,38.80539,142],[-90.3879,38.80542,141],[-90.3879,38.80546,141],[-90.38791,38.80548,141],[-90.38791,38.80552,141],[-90.38792,38.80556,141],[-90.38791,38.80559,141],[-90.38791,38.80562,142],[-90.38792,38.80565,142],[-90.38794,38.80568,142],[-90.38796,38.80572,142],[-90.38796,38.80575,143],[-90.38795,38.80578,143],[-90.38795,38.80581,144],[-90.38795,38.80584,144],[-90.38795,38.80588,144],[-90.38796,38.80591,144],[-90.38797,38.80594,144],[-90.38798,38.80597,144],[-90.38799,38.806,143],[-90.388,38.80603,143],[-90.38801,38.80606,143],[-90.38801,38.8061,143],[-90.38802,38.80613,142],[-90.38802,38.80617,142],[-90.38801,38.8062,143],[-90.38799,38.80623,143],[-90.38798,38.80626,144],[-90.38799,38.80628,143],[-90.38802,38.8063,142],[-90.38806,38.80631,141],[-90.38809,38.80634,141],[-90.38809,38.80637,141],[-90.38809,38.8064,141],[-90.38809,38.80644,141],[-90.38811,38.80648,140],[-90.38812,38.80651,140],[-90.38812,38.80655,140],[-90.38812,38.80658,139],[-90.38812,38.80661,139],[-90.38812,38.80664,139],[-90.38812,38.80668,139],[-90.38812,38.80671,139],[-90.38811,38.80675,140],[-90.38811,38.80678,140],[-90.38813,38.80682,140],[-90.38814,38.80684,140],[-90.38818,38.80683,139],[-90.38814,38.80685,140],[-90.38813,38.80688,140],[-90.38814,38.80692,141],[-90.38815,38.80695,140],[-90.38816,38.80698,141],[-90.38817,38.80701,141],[-90.3882,38.80703,140],[-90.38822,38.80707,141],[-90.38822,38.8071,141],[-90.38822,38.80713,141],[-90.38821,38.80717,142],[-90.38821,38.8072,143],[-90.38822,38.80723,143],[-90.38823,38.80726,143],[-90.38823,38.80729,143],[-90.38824,38.80731,143],[-90.38824,38.80735,143],[-90.38824,38.80737,143],[-90.38823,38.80741,143],[-90.38823,38.80744,143],[-90.38825,38.80747,143],[-90.38826,38.8075,143],[-90.38827,38.80753,143],[-90.38828,38.80757,143],[-90.38829,38.80759,143],[-90.38829,38.80763,143],[-90.38829,38.80766,143],[-90.3883,38.80769,143],[-90.38832,38.80773,143],[-90.38833,38.80776,143],[-90.38834,38.80779,143],[-90.38836,38.80783,143],[-90.38838,38.80786,142],[-90.38839,38.80789,142],[-90.3884,38.80793,142],[-90.38841,38.80796,142],[-90.38842,38.80799,141],[-90.38843,38.80802,141],[-90.38844,38.80805,141],[-90.38845,38.80809,141],[-90.38845,38.80812,141],[-90.38846,38.80815,141],[-90.38846,38.80818,142],[-90.38846,38.80821,142],[-90.38846,38.80824,142],[-90.38847,38.80827,142],[-90.38847,38.8083,142],[-90.38847,38.80833,142],[-90.38847,38.80836,143],[-90.38847,38.8084,143],[-90.38846,38.80843,143],[-90.38846,38.80846,143],[-90.38846,38.80849,143],[-90.38847,38.80852,143],[-90.38848,38.80855,143],[-90.38849,38.80858,143],[-90.38849,38.80861,143],[-90.3885,38.80865,143],[-90.38851,38.80868,143],[-90.38853,38.80871,142],[-90.38855,38.80875,142],[-90.38855,38.80878,142],[-90.38856,38.80881,142],[-90.38856,38.80885,141],[-90.38856,38.80888,141],[-90.38857,38.80892,141],[-90.38858,38.80895,141],[-90.38859,38.80898,141],[-90.38861,38.80901,141],[-90.38863,38.80904,141],[-90.38864,38.80906,141],[-90.38865,38.80909,141],[-90.38865,38.80913,141],[-90.38865,38.80916,141],[-90.38866,38.8092,142],[-90.38867,38.80923,142],[-90.38868,38.80926,143],[-90.38869,38.8093,143],[-90.38871,38.80932,143],[-90.38874,38.80935,144],[-90.38875,38.80938,144],[-90.38876,38.80941,144],[-90.38878,38.80944,145],[-90.38881,38.80947,145],[-90.38883,38.8095,145],[-90.38884,38.80952,145],[-90.38886,38.80955,145],[-90.38889,38.80957,145],[-90.38891,38.8096,145],[-90.38893,38.80963,145],[-90.38895,38.80966,145],[-90.38897,38.80968,145],[-90.38899,38.80972,145],[-90.38901,38.80975,145],[-90.38903,38.80978,145],[-90.38904,38.80982,145],[-90.38906,38.80985,145],[-90.38907,38.80988,145],[-90.38908,38.80991,145],[-90.3891,38.80994,145],[-90.3891,38.80998,145],[-90.38911,38.81001,145],[-90.38912,38.81003,144],[-90.38912,38.81006,144],[-90.38913,38.8101,144],[-90.38914,38.81013,144],[-90.38916,38.81016,143],[-90.38917,38.81019,143],[-90.38918,38.81022,143],[-90.38918,38.81026,143],[-90.38918,38.81029,143],[-90.38919,38.81032,143],[-90.3892,38.81035,143],[-90.3892,38.81038,143],[-90.38921,38.81041,143],[-90.38921,38.81044,143],[-90.38923,38.81047,144],[-90.38925,38.8105,144],[-90.38927,38.81052,144],[-90.3893,38.81056,144],[-90.38932,38.81058,144],[-90.38935,38.81061,144],[-90.38939,38.81063,145],[-90.38942,38.81065,145],[-90.38946,38.81067,145],[-90.3895,38.81068,145],[-90.38954,38.81069,145],[-90.38958,38.8107,145],[-90.38963,38.81071,145],[-90.38967,38.81071,145],[-90.38972,38.81072,144],[-90.38976,38.81073,144],[-90.3898,38.81074,144],[-90.38984,38.81075,144],[-90.38988,38.81075,143],[-90.38992,38.81075,143],[-90.38996,38.81076,143],[-90.39001,38.81076,142],[-90.39005,38.81076,142],[-90.3901,38.81076,142],[-90.39014,38.81076,142],[-90.39019,38.81076,141],[-90.39023,38.81076,141],[-90.39027,38.81076,141],[-90.39031,38.81076,141],[-90.39035,38.81076,140],[-90.39039,38.81077,140],[-90.39042,38.81078,140],[-90.39047,38.81078,140],[-90.3905,38.81078,140],[-90.39054,38.81076,139],[-90.39052,38.81074,139],[-90.39049,38.81076,140],[-90.39046,38.81078,140],[-90.39044,38.8108,140],[-90.39048,38.81082,140],[-90.39052,38.81083,140],[-90.39057,38.81085,139],[-90.3906,38.81086,139],[-90.39064,38.81087,139],[-90.39069,38.81088,139],[-90.39073,38.8109,139],[-90.39076,38.81093,139],[-90.3908,38.81094,139],[-90.39082,38.81097,139],[-90.39082,38.811,139],[-90.39081,38.81104,140],[-90.39081,38.81107,140],[-90.3908,38.81111,141],[-90.3908,38.81114,141],[-90.3908,38.81117,141],[-90.39079,38.8112,141],[-90.39076,38.81122,141],[-90.39072,38.81123,142],[-90.39069,38.81124,142],[-90.39066,38.81126,142],[-90.39061,38.81126,142],[-90.39057,38.81125,142],[-90.39052,38.81124,142],[-90.39049,38.81122,142],[-90.39045,38.81121,142],[-90.39041,38.8112,142],[-90.39038,38.81119,142],[-90.39034,38.81119,142],[-90.3903,38.81118,142],[-90.39026,38.81118,143],[-90.39022,38.81118,143],[-90.39017,38.81118,144],[-90.39013,38.81117,144],[-90.39009,38.81117,145],[-90.39004,38.81118,146],[-90.39001,38.81118,146],[-90.38997,38.81118,146],[-90.38993,38.81118,147],[-90.38988,38.81118,148],[-90.38984,38.81119,148],[-90.38979,38.8112,149],[-90.38975,38.8112,150],[-90.3897,38.81119,150],[-90.38967,38.81118,150],[-90.38963,38.81118,151],[-90.38959,38.81118,151],[-90.38956,38.8112,151],[-90.38954,38.81123,151],[-90.38951,38.81126,151],[-90.38948,38.81128,151],[-90.38945,38.81131,151],[-90.38943,38.81134,152],[-90.38941,38.81137,152],[-90.38937,38.81138,152],[-90.38932,38.81139,152],[-90.38929,38.81139,152],[-90.38925,38.8114,152],[-90.38921,38.81143,152],[-90.38918,38.81144,152],[-90.38915,38.81146,152],[-90.38911,38.81147,153],[-90.38908,38.81148,154],[-90.38905,38.81149,154],[-90.38901,38.81151,155],[-90.38898,38.81152,156],[-90.38894,38.81154,157],[-90.3889,38.81156,158],[-90.38887,38.81158,159],[-90.38883,38.81159,160],[-90.38881,38.81161,161],[-90.38879,38.81164,161],[-90.38875,38.81164,162],[-90.38873,38.81168,162],[-90.38871,38.81171,162],[-90.38867,38.81172,163],[-90.38864,38.81175,163],[-90.38862,38.81177,163],[-90.3886,38.8118,163],[-90.38859,38.81183,163],[-90.38858,38.81186,163],[-90.38858,38.81189,163],[-90.38859,38.81192,162],[-90.38861,38.81195,162],[-90.38864,38.81197,161],[-90.38865,38.812,161],[-90.38866,38.81203,161],[-90.38868,38.81206,161],[-90.38871,38.81208,161],[-90.38875,38.8121,161],[-90.38879,38.8121,161],[-90.3888,38.81213,161],[-90.3888,38.81217,161],[-90.3888,38.81219,162],[-90.38879,38.81223,162],[-90.38876,38.81225,163],[-90.38873,38.81227,163],[-90.3887,38.81228,164],[-90.38866,38.8123,164],[-90.38864,38.81232,165],[-90.38863,38.81235,166],[-90.38861,38.81238,166],[-90.38858,38.8124,167],[-90.38858,38.81243,168],[-90.38859,38.81246,168],[-90.38858,38.81249,169],[-90.38858,38.81252,169],[-90.38858,38.81255,169],[-90.38858,38.81258,170],[-90.38857,38.81262,170],[-90.38854,38.81264,171],[-90.38851,38.81268,172],[-90.38848,38.8127,173],[-90.38845,38.81271,174],[-90.38841,38.81272,176],[-90.38837,38.81273,178],[-90.38833,38.81274,179],[-90.38829,38.81275,180],[-90.38825,38.81275,181],[-90.38822,38.81277,183],[-90.38819,38.81279,184],[-90.38816,38.8128,185],[-90.38812,38.8128,186],[-90.38808,38.81281,187],[-90.38804,38.81282,188],[-90.38803,38.81284,188],[-90.38803,38.81287,189],[-90.38803,38.8129,189],[-90.38803,38.81294,189],[-90.38803,38.81297,190],[-90.38804,38.81301,190],[-90.38806,38.81304,190],[-90.38807,38.81307,190],[-90.38809,38.8131,191],[-90.38808,38.81314,192],[-90.38807,38.81317,192],[-90.38804,38.81321,193],[-90.38801,38.81325,194],[-90.38798,38.81329,195],[-90.38794,38.81331,195],[-90.3879,38.81333,195],[-90.38785,38.81334,196],[-90.3878,38.81335,196],[-90.38776,38.81337,196],[-90.38771,38.81339,195],[-90.38767,38.81338,195],[-90.38765,38.81341,195],[-90.38765,38.81344,195],[-90.38764,38.81348,196],[-90.38763,38.81351,196],[-90.38763,38.81354,196],[-90.38762,38.81357,196],[-90.38761,38.8136,196],[-90.38761,38.81363,197],[-90.38759,38.81366,197],[-90.38758,38.81368,197],[-90.38757,38.81371,197],[-90.38757,38.81375,198],[-90.38756,38.81378,198],[-90.38756,38.81382,199],[-90.38755,38.81385,199],[-90.38754,38.81388,199],[-90.38756,38.81391,200],[-90.38759,38.81393,200],[-90.38762,38.81395,200],[-90.38766,38.81396,200],[-90.38768,38.81398,200],[-90.38765,38.81401,200],[-90.38761,38.81401,200],[-90.38757,38.81402,200],[-90.38752,38.81403,200],[-90.38748,38.81403,200],[-90.38744,38.81404,200],[-90.38739,38.81405,200],[-90.38735,38.81406,200],[-90.38731,38.81406,200],[-90.38726,38.81406,200],[-90.38724,38.81408,201],[-90.3872,38.8141,201],[-90.38716,38.8141,201],[-90.38712,38.81411,201],[-90.38708,38.81413,201],[-90.38703,38.81414,201],[-90.38699,38.81413,201],[-90.38695,38.81413,201],[-90.38692,38.81413,201],[-90.38688,38.81414,201],[-90.38684,38.81414,201],[-90.3868,38.81413,201],[-90.38677,38.81413,200],[-90.38673,38.81414,200],[-90.38668,38.81415,200],[-90.38664,38.81415,200],[-90.3866,38.81416,200],[-90.38655,38.81417,200],[-90.3865,38.81418,199],[-90.38647,38.81419,199],[-90.3865,38.81417,199],[-90.38653,38.81416,199],[-90.38656,38.81415,200],[-90.3866,38.81414,200],[-90.38663,38.81413,200],[-90.38667,38.81412,200],[-90.3867,38.81412,200],[-90.38674,38.81412,200],[-90.38677,38.81412,200],[-90.38682,38.81412,201],[-90.38686,38.81412,201],[-90.3869,38.81412,201],[-90.38694,38.81411,201],[-90.38698,38.81411,201],[-90.38703,38.8141,201],[-90.38707,38.81409,201],[-90.38711,38.81409,201],[-90.38715,38.81409,201],[-90.38719,38.81409,201],[-90.38723,38.81408,201],[-90.38727,38.81407,200],[-90.38732,38.81407,200],[-90.38736,38.81407,200],[-90.3874,38.81406,200],[-90.38745,38.81406,200],[-90.38749,38.81405,200],[-90.38753,38.81405,200],[-90.38757,38.81405,200],[-90.38761,38.81404,200],[-90.38766,38.81403,200],[-90.3877,38.81403,200],[-90.38774,38.81403,200],[-90.38777,38.81401,200],[-90.3878,38.814,199],[-90.38785,38.81399,199],[-90.38789,38.81398,199],[-90.38793,38.81397,199],[-90.38798,38.81396,199],[-90.38802,38.81396,199],[-90.38806,38.81395,199],[-90.38811,38.81394,198],[-90.38816,38.81394,198],[-90.3882,38.81395,198],[-90.38824,38.81397,198],[-90.38827,38.81398,198],[-90.3883,38.81401,198],[-90.38834,38.81403,198],[-90.38838,38.81405,198],[-90.38843,38.81406,197],[-90.38847,38.81408,197],[-90.3885,38.8141,197],[-90.38853,38.81411,197],[-90.38857,38.81411,196],[-90.3886,38.8141,196],[-90.38864,38.81412,196],[-90.38867,38.81414,195],[-90.38871,38.81417,195],[-90.38875,38.81419,195],[-90.38878,38.81421,194],[-90.38882,38.81422,194],[-90.38887,38.81423,193],[-90.38891,38.81424,192],[-90.38895,38.81424,192],[-90.389,38.81424,192],[-90.38904,38.81425,192],[-90.38909,38.81426,192],[-90.38913,38.81427,192],[-90.38916,38.81428,192],[-90.38919,38.8143,192],[-90.38922,38.81432,191],[-90.38926,38.81432,191],[-90.3893,38.81433,190],[-90.38934,38.81433,190],[-90.38938,38.81435,190],[-90.38941,38.81436,189],[-90.38944,38.81438,189],[-90.38946,38.81441,189],[-90.38947,38.81444,189],[-90.38947,38.81447,190],[-90.38946,38.81449,190],[-90.38946,38.81452,190],[-90.38946,38.81455,190],[-90.38946,38.81459,190],[-90.38947,38.81462,190],[-90.38947,38.81466,190],[-90.38946,38.81469,190],[-90.38946,38.81472,191],[-90.38946,38.81475,190],[-90.38947,38.81478,190],[-90.38947,38.81481,190],[-90.38948,38.81484,189],[-90.38949,38.81487,189],[-90.38952,38.81489,189],[-90.38953,38.81491,189],[-90.38954,38.81494,188],[-90.38956,38.81497,188],[-90.38958,38.815,188],[-90.3896,38.81503,188],[-90.38962,38.81506,187],[-90.38965,38.8151,186],[-90.38967,38.81513,186],[-90.3897,38.81515,185],[-90.38973,38.81517,185],[-90.38977,38.81519,184],[-90.3898,38.81521,184],[-90.38985,38.81522,183],[-90.38989,38.81524,183],[-90.38991,38.81527,182],[-90.38994,38.81529,182],[-90.38996,38.81531,181],[-90.39,38.81533,181],[-90.39003,38.81535,180],[-90.39006,38.81536,180],[-90.39009,38.81537,180],[-90.39013,38.81539,180],[-90.39016,38.8154,180],[-90.39021,38.81542,179],[-90.39025,38.81544,179],[-90.39029,38.81544,179],[-90.39033,38.81545,180],[-90.39037,38.81546,180],[-90.39041,38.81548,180],[-90.39045,38.8155,181],[-90.39049,38.81551,181],[-90.39053,38.81552,181],[-90.39057,38.81553,182],[-90.39061,38.81553,182],[-90.39065,38.81555,183],[-90.39069,38.81557,183],[-90.39074,38.81558,183],[-90.39078,38.81558,184],[-90.39082,38.81558,184],[-90.39086,38.81558,184],[-90.3909,38.81557,185],[-90.39093,38.81556,185],[-90.39097,38.81555,185],[-90.39101,38.81554,185],[-90.39104,38.81553,185],[-90.39108,38.81552,186],[-90.39111,38.81551,186],[-90.39115,38.8155,186],[-90.3912,38.8155,185],[-90.39125,38.8155,185],[-90.39128,38.81551,185],[-90.39132,38.81551,185],[-90.39137,38.81552,185],[-90.3914,38.81553,184],[-90.39143,38.81555,184],[-90.39146,38.81557,184],[-90.39148,38.8156,183],[-90.3915,38.81562,183],[-90.39152,38.81565,182],[-90.39154,38.81567,182],[-90.39156,38.81569,182],[-90.39159,38.81571,181],[-90.39164,38.81571,181],[-90.39167,38.81571,181],[-90.39171,38.8157,180],[-90.39176,38.81569,179],[-90.39179,38.81569,178],[-90.39184,38.81569,177],[-90.39188,38.81569,176],[-90.39193,38.8157,175],[-90.39197,38.8157,173],[-90.39196,38.81572,173],[-90.39194,38.81569,175],[-90.39189,38.81569,176],[-90.39185,38.81569,177],[-90.39179,38.81569,178],[-90.39175,38.81569,179],[-90.39171,38.81571,180],[-90.39169,38.81574,180],[-90.39169,38.81577,179],[-90.39172,38.81579,178],[-90.39176,38.81582,177],[-90.39176,38.81585,176],[-90.39177,38.81588,176],[-90.39177,38.81591,175],[-90.39175,38.81594,175],[-90.39173,38.81597,175],[-90.39172,38.81601,174],[-90.39171,38.81605,174],[-90.39171,38.81608,173],[-90.3917,38.8161,173],[-90.39169,38.81614,172],[-90.39168,38.81617,171],[-90.39167,38.81621,170],[-90.39167,38.81624,169],[-90.39166,38.81628,167],[-90.39165,38.81631,167],[-90.39164,38.81634,166],[-90.39163,38.81637,165],[-90.3916,38.8164,165],[-90.39159,38.81642,165],[-90.39156,38.81644,165],[-90.39155,38.81647,164],[-90.39154,38.8165,163],[-90.39152,38.81653,163],[-90.39149,38.81656,163],[-90.39147,38.81658,162],[-90.39146,38.81661,162],[-90.39143,38.81659,163],[-90.39139,38.81659,164],[-90.39137,38.81662,163],[-90.39135,38.81665,163],[-90.39134,38.81668,162],[-90.39131,38.81671,161],[-90.39128,38.81673,161],[-90.39125,38.81675,161],[-90.39122,38.81676,161],[-90.39118,38.81677,161],[-90.39114,38.81678,162],[-90.3911,38.81678,162],[-90.39108,38.81681,162],[-90.39104,38.81682,162],[-90.39103,38.81679,163],[-90.39102,38.81676,163],[-90.39101,38.81673,164],[-90.39096,38.81671,165],[-90.39092,38.8167,165],[-90.39088,38.8167,166],[-90.39085,38.81672,165],[-90.39085,38.81675,165],[-90.39085,38.81678,164],[-90.39083,38.81682,164],[-90.39082,38.81684,163],[-90.39084,38.81682,164],[-90.39086,38.8168,164],[-90.39082,38.81679,164],[-90.39078,38.81681,164],[-90.39074,38.81681,165],[-90.39069,38.8168,165],[-90.39065,38.81681,165],[-90.39062,38.81682,165],[-90.39059,38.81684,165],[-90.39054,38.81685,166],[-90.3905,38.81687,166],[-90.39047,38.81689,166],[-90.39046,38.81693,165],[-90.39047,38.81696,165],[-90.39048,38.81699,164],[-90.39048,38.81702,163],[-90.39048,38.81706,161],[-90.39047,38.81709,160],[-90.39046,38.81712,159],[-90.39045,38.81716,158],[-90.39045,38.81719,157],[-90.39047,38.81721,156],[-90.39048,38.81723,155],[-90.39047,38.81726,154],[-90.39047,38.8173,153],[-90.39048,38.81732,152],[-90.39049,38.81735,151],[-90.39051,38.81738,150],[-90.39053,38.8174,149],[-90.39055,38.81743,148],[-90.39056,38.81746,147],[-90.39056,38.81749,146],[-90.39057,38.81752,145],[-90.39062,38.81754,144],[-90.39066,38.81754,143],[-90.39071,38.81754,143],[-90.39075,38.81754,142],[-90.39078,38.81755,141],[-90.39082,38.81756,141],[-90.39082,38.81753,141],[-90.39079,38.81751,142],[-90.39077,38.81754,142],[-90.39073,38.81756,142],[-90.3907,38.81758,142],[-90.39068,38.81761,141],[-90.39066,38.81764,141],[-90.39063,38.81767,141],[-90.3906,38.81769,141],[-90.39057,38.81771,141],[-90.39054,38.81772,141],[-90.39049,38.81774,141],[-90.39044,38.81775,141],[-90.3904,38.81776,142],[-90.39035,38.81777,142],[-90.39032,38.81779,142],[-90.39029,38.81781,142],[-90.39025,38.81783,142],[-90.39021,38.81785,143],[-90.39017,38.81786,143],[-90.39013,38.81787,144],[-90.39009,38.81786,145],[-90.39007,38.81784,145],[-90.39003,38.81783,146],[-90.38999,38.81783,147],[-90.38995,38.81783,147],[-90.38991,38.81784,147],[-90.38988,38.81785,148],[-90.38985,38.81787,148],[-90.38981,38.81788,148],[-90.38977,38.81788,148],[-90.38973,38.81787,149],[-90.3897,38.81788,149],[-90.38966,38.81791,149],[-90.38961,38.81792,149],[-90.38958,38.81794,149],[-90.38954,38.81795,148],[-90.38951,38.81796,148],[-90.38947,38.81797,148],[-90.38943,38.81798,148],[-90.38938,38.81798,149],[-90.38935,38.81798,149],[-90.3893,38.81799,150],[-90.38926,38.81801,150],[-90.38922,38.81801,150],[-90.38918,38.818,151],[-90.38913,38.81799,153],[-90.38909,38.81798,154],[-90.38905,38.81798,155],[-90.38901,38.818,155],[-90.38899,38.81802,155],[-90.38896,38.81804,155],[-90.38892,38.81806,155],[-90.3889,38.81809,155],[-90.38889,38.81813,153],[-90.38887,38.81816,153],[-90.38886,38.81819,152],[-90.38884,38.81822,151],[-90.38881,38.81824,150],[-90.38878,38.81827,150],[-90.38873,38.8183,149],[-90.38868,38.81832,149],[-90.38862,38.81832,150],[-90.38858,38.81831,151],[-90.38857,38.81835,149],[-90.38858,38.81838,148],[-90.38858,38.81843,145],[-90.38852,38.81842,146],[-90.38848,38.8184,147],[-90.38853,38.81841,146],[-90.38849,38.81841,146],[-90.38848,38.81845,144],[-90.3885,38.81842,146],[-90.38847,38.8184,147],[-90.38846,38.81843,145],[-90.38843,38.81845,144],[-90.38839,38.81846,144],[-90.38836,38.81847,144],[-90.38834,38.8185,142],[-90.38832,38.81853,141],[-90.38831,38.81856,140],[-90.38829,38.8186,139],[-90.38828,38.81862,138],[-90.38825,38.81865,139],[-90.38822,38.81867,139],[-90.3882,38.81869,139],[-90.38815,38.8187,139],[-90.38811,38.81871,140],[-90.38807,38.81872,140],[-90.38803,38.81873,141],[-90.38799,38.81874,141],[-90.38796,38.81876,141],[-90.38793,38.81879,141],[-90.3879,38.8188,141],[-90.38787,38.81882,141],[-90.38783,38.81884,142],[-90.38778,38.81885,142],[-90.38775,38.81885,142],[-90.3877,38.81886,142],[-90.38765,38.81887,142],[-90.38761,38.81888,142],[-90.38758,38.8189,141],[-90.38756,38.81893,140],[-90.38753,38.81897,139],[-90.3875,38.81899,138],[-90.38747,38.81901,138],[-90.38745,38.81904,137],[-90.38744,38.81908,135],[-90.38741,38.8191,135],[-90.38738,38.81911,134],[-90.38734,38.81914,133],[-90.38732,38.81915,133],[-90.38727,38.81916,132],[-90.38723,38.81916,132],[-90.38721,38.81919,132],[-90.38718,38.81922,132],[-90.38714,38.81923,132],[-90.38711,38.81925,132],[-90.38708,38.81926,132],[-90.38705,38.81928,132],[-90.387,38.81929,132],[-90.38696,38.81929,132],[-90.38692,38.81931,132],[-90.38688,38.81934,132],[-90.38685,38.81935,132],[-90.38681,38.81935,132],[-90.38678,38.81936,133],[-90.38676,38.81939,132],[-90.38674,38.81942,132],[-90.38673,38.81945,131],[-90.3867,38.81947,131],[-90.38668,38.81949,131],[-90.38667,38.81952,131],[-90.38665,38.81954,131],[-90.38662,38.81957,131],[-90.38658,38.81957,131],[-90.38662,38.81956,131],[-90.38663,38.81953,131],[-90.38665,38.8195,131],[-90.38666,38.81947,131],[-90.38663,38.81945,131],[-90.38666,38.81943,132],[-90.3867,38.81942,132],[-90.38671,38.81939,132],[-90.38674,38.81937,133],[-90.38678,38.81937,132],[-90.38682,38.81937,132],[-90.38686,38.81936,132],[-90.3869,38.81934,132],[-90.38694,38.81933,132],[-90.38697,38.81931,132],[-90.38701,38.81929,132],[-90.38706,38.81928,132],[-90.38711,38.81927,132],[-90.38715,38.81923,132],[-90.38718,38.81919,132],[-90.38723,38.81917,132],[-90.38727,38.81914,133],[-90.3873,38.81911,134],[-90.38735,38.8191,135],[-90.3874,38.81908,135],[-90.38742,38.81905,136],[-90.38742,38.81901,138],[-90.38744,38.81897,139],[-90.38748,38.81894,140],[-90.38754,38.81891,141],[-90.38758,38.81889,141],[-90.38762,38.81887,142],[-90.38767,38.81885,142],[-90.38772,38.81883,143],[-90.38776,38.81881,143],[-90.38781,38.81878,143],[-90.38787,38.81876,142],[-90.38792,38.81875,142],[-90.38798,38.81874,141],[-90.38803,38.81872,141],[-90.38808,38.8187,140],[-90.38812,38.81867,140],[-90.38815,38.81864,140],[-90.38818,38.81861,140],[-90.3882,38.81858,141],[-90.38823,38.81855,141],[-90.38826,38.81851,143],[-90.38829,38.81848,143],[-90.38834,38.81845,144],[-90.38838,38.81843,145],[-90.38841,38.8184,147],[-90.38839,38.81836,148],[-90.38844,38.81837,148],[-90.38849,38.81835,149],[-90.38854,38.81832,150],[-90.38858,38.8183,151],[-90.38863,38.81828,152],[-90.38868,38.81827,151],[-90.38871,38.81823,153],[-90.38873,38.8182,154],[-90.38874,38.81816,155],[-90.38875,38.81812,157],[-90.38876,38.81808,158],[-90.38881,38.81806,158],[-90.38888,38.81806,156],[-90.38895,38.81806,155],[-90.38899,38.81803,155],[-90.38903,38.818,155],[-90.38907,38.81797,155],[-90.38912,38.81795,154],[-90.38917,38.81795,153],[-90.38923,38.81795,152],[-90.38927,38.81795,151],[-90.38932,38.81794,151],[-90.38937,38.81793,150],[-90.38941,38.8179,150],[-90.38947,38.81788,150],[-90.38952,38.81787,150],[-90.38958,38.81788,150],[-90.38963,38.81788,149],[-90.38968,38.81787,149],[-90.38974,38.81787,149],[-90.38978,38.81785,149],[-90.38982,38.81782,149],[-90.38986,38.81781,148],[-90.38991,38.81782,148],[-90.38996,38.81782,147],[-90.39001,38.81781,147],[-90.39004,38.81777,147],[-90.39008,38.81775,146],[-90.3901,38.81771,147],[-90.39013,38.81767,147],[-90.39016,38.81764,147],[-90.39021,38.81763,147],[-90.39025,38.81762,146],[-90.39031,38.8176,146],[-90.39037,38.81758,146],[-90.39042,38.81757,145],[-90.39039,38.81753,147],[-90.39044,38.8175,147],[-90.39048,38.81748,147],[-90.39052,38.81745,148],[-90.39056,38.81744,148],[-90.39062,38.81743,147],[-90.39067,38.81744,146],[-90.39071,38.81746,145],[-90.39076,38.81747,144],[-90.39081,38.81745,143],[-90.39085,38.81743,144],[-90.39088,38.8174,144],[-90.39092,38.81737,144],[-90.39093,38.81734,145],[-90.39094,38.81729,147],[-90.39096,38.81726,147],[-90.39098,38.81722,148],[-90.39102,38.81719,149],[-90.39106,38.81717,149],[-90.3911,38.81714,149],[-90.39114,38.81711,150],[-90.39119,38.8171,149],[-90.39124,38.81709,149],[-90.39129,38.81707,149],[-90.39133,38.81705,149],[-90.39136,38.81702,150],[-90.39142,38.81701,149],[-90.39147,38.81701,148],[-90.39153,38.817,148],[-90.39157,38.81698,148],[-90.39161,38.81696,148],[-90.39167,38.81694,148],[-90.39171,38.81692,148],[-90.39174,38.81689,149],[-90.39176,38.81686,150],[-90.39179,38.81682,150],[-90.39182,38.81678,151],[-90.39186,38.81675,151],[-90.3919,38.81672,151],[-90.39192,38.81669,151],[-90.39196,38.81666,150],[-90.392,38.81663,150],[-90.39201,38.81659,151],[-90.39205,38.81655,150],[-90.3921,38.81653,150],[-90.39213,38.81649,150],[-90.39215,38.81646,149],[-90.39216,38.81641,150],[-90.39219,38.81638,150],[-90.39222,38.81635,150],[-90.39225,38.81632,150],[-90.3923,38.81632,149],[-90.39232,38.81628,150],[-90.39235,38.81626,149],[-90.39238,38.81621,150],[-90.3924,38.81618,150],[-90.39245,38.81614,150],[-90.39248,38.81611,149],[-90.3925,38.81609,148],[-90.39254,38.81608,147],[-90.39258,38.81608,146],[-90.39259,38.81606,145],[-90.39259,38.81602,145],[-90.39262,38.816,145],[-90.39262,38.81597,145],[-90.3926,38.81593,145],[-90.39259,38.81589,145],[-90.39258,38.81587,146],[-90.39259,38.81583,146],[-90.3926,38.81581,146],[-90.3926,38.81577,147],[-90.39259,38.81574,148],[-90.39257,38.81571,149],[-90.39257,38.81568,150],[-90.39258,38.81566,150],[-90.3926,38.81563,150],[-90.39262,38.81561,150],[-90.39265,38.81558,149],[-90.39267,38.81555,149],[-90.3927,38.81552,148],[-90.39274,38.81551,147],[-90.39277,38.8155,146],[-90.39281,38.81549,146],[-90.39285,38.81546,145],[-90.39287,38.81544,145],[-90.3929,38.81543,145],[-90.39295,38.81541,144],[-90.39298,38.8154,144],[-90.39302,38.81538,143],[-90.39306,38.81537,142],[-90.39309,38.81535,142],[-90.39311,38.81532,143],[-90.39312,38.81529,144],[-90.39313,38.81526,144],[-90.39313,38.81523,144],[-90.39314,38.8152,144],[-90.39314,38.81516,144],[-90.39314,38.81513,145],[-90.39314,38.8151,145],[-90.39316,38.81507,145],[-90.39314,38.81504,145],[-90.39312,38.81502,146],[-90.39309,38.81501,147],[-90.39307,38.81499,147],[-90.39304,38.81496,147],[-90.39302,38.81493,147],[-90.393,38.8149,147],[-90.393,38.81486,147],[-90.39299,38.81484,147]]],
        "bbox": [
          -90.38596,
          38.81957,
          -90.39399,
          38.80258
        ]
      },
      "properties": {
        "name": "5.29.2022A"
      }
    }
  ]
}