{
  "type": "FeatureCollection",
  "features": [
    {
      "type": "Feature",
      "geometry": {
        "type": "MultiLineString",
        "coordinates": [[[-90.39518,38.81158,132],[-90.39521,38.81157,132],[-90.39523,38.81154,132],[-90.39521,38.81157,132],[-90.39517,38.81158,132],[-90.39514,38.8116,132],[-90.39512,38.81162,132],[-90.3951,38.81165,132],[-90.39508,38.81167,133],[-90.39506,38.81169,133],[-90.39503,38.81171,133],[-90.39499,38.81173,133],[-90.39496,38.81174,133],[-90.39493,38.81176,134],[-90.39489,38.81178,134],[-90.39486,38.8118,134],[-90.39483,38.81182,135],[-90.3948,38.81184,135],[-90.39478,38.81187,135],[-90.39475,38.81189,136],[-90.39473,38.81191,136],[-90.39469,38.81193,136],[-90.39467,38.81196,137],[-90.39464,38.81198,137],[-90.39461,38.81201,137],[-90.39459,38.81203,137],[-90.39456,38.81205,137],[-90.39454,38.81207,137],[-90.39451,38.8121,137],[-90.39448,38.81211,137],[-90.39445,38.81213,137],[-90.39442,38.81215,138],[-90.39439,38.81217,138],[-90.39436,38.81219,138],[-90.39433,38.81222,138],[-90.39431,38.81224,137],[-90.39429,38.81227,137],[-90.39426,38.81229,137],[-90.39423,38.81231,137],[-90.39423,38.81234,137],[-90.3942,38.81236,137],[-90.39417,38.81239,137],[-90.39414,38.81241,137],[-90.39411,38.81243,137],[-90.39408,38.81245,137],[-90.39405,38.81247,137],[-90.39402,38.81249,137],[-90.394,38.81252,136],[-90.39398,38.81254,136],[-90.39395,38.81257,136],[-90.39392,38.81259,135],[-90.3939,38.81262,135],[-90.39387,38.81264,135],[-90.39385,38.81266,135],[-90.39381,38.81268,134],[-90.39379,38.81271,134],[-90.39375,38.81272,134],[-90.39372,38.81274,134],[-90.39369,38.81275,134],[-90.39366,38.81277,134],[-90.39363,38.81279,133],[-90.3936,38.8128,133],[-90.39356,38.81282,133],[-90.39353,38.81285,133],[-90.3935,38.81287,133],[-90.39347,38.81289,133],[-90.39343,38.81291,133],[-90.3934,38.81292,133],[-90.39337,38.81295,133],[-90.39334,38.81297,133],[-90.39332,38.813,133],[-90.39329,38.81301,133],[-90.39326,38.81303,133],[-90.39323,38.81302,133],[-90.39319,38.81303,133],[-90.39316,38.81306,132],[-90.39313,38.81309,132],[-90.3931,38.81312,132],[-90.39308,38.81315,132],[-90.39306,38.81318,132],[-90.39304,38.8132,133],[-90.39301,38.81322,133],[-90.39299,38.81324,133],[-90.39297,38.81327,133],[-90.39294,38.81329,133],[-90.39291,38.81332,134],[-90.39289,38.81334,134],[-90.39286,38.81337,134],[-90.39283,38.81339,135],[-90.3928,38.81341,135],[-90.39277,38.81343,136],[-90.39275,38.81346,136],[-90.39272,38.81349,136],[-90.39269,38.81351,137],[-90.39267,38.81354,137],[-90.39265,38.81357,138],[-90.39263,38.81359,138],[-90.3926,38.81361,138],[-90.39258,38.81364,138],[-90.39257,38.81367,138],[-90.39256,38.8137,138],[-90.39255,38.81373,138],[-90.39253,38.81376,138],[-90.39252,38.81379,138],[-90.3925,38.81382,138],[-90.39248,38.81385,137],[-90.39246,38.81387,137],[-90.39243,38.8139,137],[-90.39241,38.81392,137],[-90.3924,38.81395,139],[-90.39238,38.81399,141],[-90.39236,38.81401,142],[-90.39234,38.81404,143],[-90.39231,38.81407,145],[-90.39229,38.81408,145],[-90.39225,38.81409,146],[-90.39221,38.81409,146],[-90.39217,38.81409,146],[-90.39214,38.8141,147],[-90.3921,38.81411,148],[-90.39207,38.81412,148],[-90.39202,38.81413,149],[-90.39198,38.81414,150],[-90.39195,38.81417,152],[-90.39195,38.81419,152],[-90.39192,38.81421,153],[-90.3919,38.81424,155],[-90.39188,38.81426,156],[-90.39188,38.81429,156],[-90.3919,38.81426,155],[-90.39186,38.81426,156],[-90.39182,38.81425,157],[-90.39179,38.81427,158],[-90.39179,38.81424,157],[-90.39183,38.81424,156],[-90.39179,38.81425,158],[-90.39183,38.81426,157],[-90.39186,38.81428,157],[-90.39188,38.8143,157],[-90.39186,38.81433,158],[-90.39182,38.81432,159],[-90.39182,38.81429,158],[-90.3918,38.81427,158],[-90.39182,38.81429,158],[-90.39185,38.81431,158],[-90.39185,38.81434,158],[-90.39184,38.81437,160],[-90.39186,38.8144,160],[-90.39187,38.81443,160],[-90.39188,38.81446,161],[-90.39188,38.81449,161],[-90.39188,38.81452,162],[-90.39189,38.81455,162],[-90.39191,38.81458,162],[-90.39194,38.8146,161],[-90.39197,38.81461,160],[-90.39197,38.81464,161],[-90.39197,38.81467,161],[-90.39197,38.8147,162],[-90.39197,38.81473,162],[-90.39198,38.81476,162],[-90.39199,38.81479,162],[-90.39199,38.81482,163],[-90.39197,38.81485,163],[-90.39195,38.81487,164],[-90.39195,38.8149,164],[-90.39196,38.81493,164],[-90.39198,38.81496,164],[-90.39199,38.81499,164],[-90.39201,38.81502,165],[-90.39202,38.81504,165],[-90.39203,38.81508,166],[-90.39203,38.8151,167],[-90.39202,38.81513,168],[-90.39202,38.81516,169],[-90.392,38.8152,171],[-90.39199,38.81523,173],[-90.39198,38.81526,174],[-90.39197,38.81529,175],[-90.39198,38.81532,175],[-90.39199,38.81536,175],[-90.392,38.81538,174],[-90.39201,38.81542,174],[-90.39202,38.81545,174],[-90.39202,38.81549,174],[-90.39202,38.81552,174],[-90.39201,38.81554,174],[-90.39201,38.81557,174],[-90.39199,38.8156,174],[-90.39197,38.81562,175],[-90.39197,38.81565,174],[-90.39197,38.81568,174],[-90.39193,38.81569,175],[-90.39189,38.81569,176],[-90.39185,38.8157,177],[-90.39181,38.81571,177],[-90.39178,38.81573,178],[-90.39174,38.81573,179],[-90.39171,38.81572,180],[-90.39168,38.81572,180],[-90.39164,38.8157,181],[-90.39162,38.81567,182],[-90.3916,38.81564,182],[-90.39157,38.81562,182],[-90.39155,38.81559,183],[-90.39152,38.81556,184],[-90.39149,38.81554,184],[-90.39146,38.81551,184],[-90.39143,38.81549,184],[-90.39139,38.81546,185],[-90.39135,38.81544,185],[-90.39132,38.81543,185],[-90.39128,38.81543,185],[-90.39124,38.81543,185],[-90.3912,38.81543,186],[-90.39115,38.81543,186],[-90.39111,38.81544,186],[-90.39107,38.81545,186],[-90.39104,38.81547,186],[-90.39101,38.81549,185],[-90.39098,38.81551,185],[-90.39094,38.81553,185],[-90.3909,38.81554,185],[-90.39087,38.81555,185],[-90.39083,38.81555,185],[-90.3908,38.81554,184],[-90.39076,38.81554,184],[-90.39071,38.81553,183],[-90.39068,38.81551,183],[-90.39064,38.8155,183],[-90.3906,38.81549,182],[-90.39057,38.81548,182],[-90.39053,38.81548,182],[-90.39049,38.81547,181],[-90.39046,38.81546,181],[-90.39043,38.81544,181],[-90.39039,38.81542,181],[-90.39036,38.81541,180],[-90.39032,38.81541,180],[-90.39028,38.8154,180],[-90.39024,38.8154,180],[-90.39021,38.81539,180],[-90.39016,38.81538,180],[-90.39013,38.81535,180],[-90.39009,38.81533,181],[-90.39006,38.81532,181],[-90.39002,38.8153,181],[-90.38999,38.81529,181],[-90.38995,38.81526,182],[-90.38992,38.81525,182],[-90.38988,38.81524,183],[-90.38984,38.81522,183],[-90.38981,38.8152,184],[-90.38978,38.81518,184],[-90.38976,38.81515,185],[-90.38974,38.81513,186],[-90.38971,38.8151,186],[-90.38969,38.81508,187],[-90.38966,38.81505,187],[-90.38963,38.81503,188],[-90.38961,38.81501,188],[-90.38958,38.81498,188],[-90.38955,38.81496,188],[-90.38953,38.81493,189],[-90.38953,38.81491,189],[-90.38953,38.81488,189],[-90.38952,38.81485,189],[-90.38951,38.81481,190],[-90.38951,38.81478,190],[-90.3895,38.81475,190],[-90.38949,38.81471,191],[-90.38949,38.81468,190],[-90.3895,38.81465,190],[-90.3895,38.81462,190],[-90.3895,38.81458,190],[-90.3895,38.81456,190],[-90.3895,38.81452,190],[-90.3895,38.81449,190],[-90.38951,38.81446,189],[-90.38949,38.81442,189],[-90.38948,38.81439,189],[-90.38946,38.81436,189],[-90.38943,38.81434,189],[-90.3894,38.81433,189],[-90.38936,38.81432,190],[-90.38933,38.8143,190],[-90.3893,38.81429,190],[-90.38926,38.81427,191],[-90.38923,38.81426,191],[-90.38919,38.81424,192],[-90.38916,38.81423,192],[-90.38912,38.81421,192],[-90.38908,38.8142,192],[-90.38903,38.8142,192],[-90.38899,38.8142,192],[-90.38896,38.81419,192],[-90.38892,38.81418,192],[-90.38887,38.81417,193],[-90.38884,38.81415,193],[-90.3888,38.81414,194],[-90.38876,38.81413,194],[-90.38873,38.81413,194],[-90.38868,38.81412,195],[-90.38865,38.81411,196],[-90.38861,38.81409,196],[-90.38858,38.81407,196],[-90.38854,38.81406,196],[-90.38849,38.81404,197],[-90.38846,38.81403,197],[-90.38842,38.81402,197],[-90.38838,38.814,197],[-90.38834,38.81398,198],[-90.3883,38.81397,198],[-90.38826,38.81396,198],[-90.38822,38.81394,198],[-90.38817,38.81394,198],[-90.38813,38.81394,198],[-90.38809,38.81394,199],[-90.38806,38.81395,199],[-90.38802,38.81395,199],[-90.38797,38.81396,199],[-90.38793,38.81396,199],[-90.38789,38.81396,199],[-90.38784,38.81397,199],[-90.3878,38.81396,199],[-90.38776,38.81397,200],[-90.38772,38.81396,200],[-90.38768,38.81396,200],[-90.38765,38.81393,200],[-90.38762,38.81391,200],[-90.38758,38.81389,199],[-90.38754,38.81387,199],[-90.38751,38.81384,199],[-90.38749,38.81381,198],[-90.38749,38.81378,198],[-90.38751,38.81376,198],[-90.38752,38.81373,197],[-90.38752,38.81369,197],[-90.38753,38.81366,196],[-90.38753,38.81363,196],[-90.38753,38.8136,196],[-90.38754,38.81357,195],[-90.38754,38.81353,195],[-90.38755,38.8135,195],[-90.38756,38.81347,195],[-90.38758,38.81344,195],[-90.38759,38.81341,195],[-90.38759,38.81337,194],[-90.38759,38.81334,194],[-90.3876,38.81331,194],[-90.38762,38.81329,194],[-90.38766,38.81329,194],[-90.38771,38.8133,195],[-90.38775,38.8133,195],[-90.38778,38.81329,195],[-90.38782,38.81329,195],[-90.38786,38.81328,195],[-90.38789,38.81326,194],[-90.38792,38.81324,194],[-90.38793,38.81321,194],[-90.38796,38.81319,193],[-90.388,38.81319,193],[-90.38802,38.81316,193],[-90.38803,38.81314,192],[-90.38804,38.81311,192],[-90.38805,38.81308,191],[-90.38806,38.81305,190],[-90.38807,38.81302,190],[-90.38808,38.81299,189],[-90.38808,38.81296,189],[-90.38809,38.81293,188],[-90.38808,38.8129,188],[-90.38809,38.81287,188],[-90.3881,38.81284,187],[-90.38808,38.81281,187],[-90.38809,38.81278,186],[-90.38812,38.81276,185],[-90.38816,38.81276,184],[-90.3882,38.81275,183],[-90.38823,38.81273,181],[-90.38825,38.81271,180],[-90.38829,38.81272,180],[-90.38832,38.81273,179],[-90.38836,38.81273,178],[-90.38837,38.8127,177],[-90.38839,38.81268,176],[-90.38844,38.81268,174],[-90.38846,38.81265,174],[-90.38849,38.81263,172],[-90.38849,38.81261,172],[-90.38852,38.81259,171],[-90.38853,38.81256,171],[-90.38855,38.81253,170],[-90.38859,38.81252,169],[-90.38863,38.81251,168],[-90.38866,38.81251,168],[-90.3887,38.81251,167],[-90.38871,38.81247,166],[-90.38868,38.81245,167],[-90.38864,38.81244,167],[-90.38862,38.81241,167],[-90.38862,38.81238,166],[-90.38864,38.81235,165],[-90.38865,38.81232,165],[-90.38867,38.81229,164],[-90.38869,38.81227,164],[-90.38872,38.81225,163],[-90.38875,38.81222,163],[-90.38878,38.8122,162],[-90.38881,38.81218,161],[-90.38884,38.81216,161],[-90.38884,38.81213,160],[-90.38883,38.8121,160],[-90.38881,38.81208,160],[-90.38878,38.81206,160],[-90.38874,38.81205,160],[-90.3887,38.81204,161],[-90.38867,38.81201,161],[-90.38866,38.81198,161],[-90.38864,38.81194,161],[-90.38861,38.81192,162],[-90.38858,38.8119,162],[-90.38857,38.81187,163],[-90.38857,38.81184,163],[-90.38858,38.81181,163],[-90.3886,38.81178,163],[-90.38862,38.81176,163],[-90.38864,38.81173,163],[-90.38866,38.8117,163],[-90.38869,38.81168,163],[-90.38873,38.81165,162],[-90.38876,38.81163,162],[-90.38879,38.81161,161],[-90.38881,38.81158,160],[-90.38882,38.81155,160],[-90.38885,38.81154,159],[-90.38889,38.81155,159],[-90.38893,38.81156,158],[-90.38896,38.81151,157],[-90.38898,38.81149,156],[-90.38901,38.81148,155],[-90.38905,38.81147,154],[-90.38909,38.81147,153],[-90.38912,38.81147,153],[-90.38916,38.81145,152],[-90.38918,38.81143,152],[-90.38921,38.81141,152],[-90.38924,38.81138,152],[-90.38926,38.81136,152],[-90.3893,38.81137,152],[-90.38929,38.81139,152],[-90.38932,38.8114,152],[-90.38936,38.81141,152],[-90.3894,38.8114,152],[-90.38942,38.81137,152],[-90.38944,38.81135,152],[-90.38945,38.81132,151],[-90.38947,38.81129,151],[-90.38948,38.81126,151],[-90.3895,38.81123,151],[-90.38953,38.81121,151],[-90.38955,38.81118,151],[-90.38958,38.81116,151],[-90.38962,38.81116,151],[-90.38966,38.81117,151],[-90.38969,38.81119,150],[-90.38972,38.8112,150],[-90.38976,38.8112,150],[-90.3898,38.81121,149],[-90.38984,38.81119,148],[-90.38987,38.81118,148],[-90.3899,38.81115,148],[-90.38994,38.81114,147],[-90.38998,38.81114,147],[-90.39002,38.81114,146],[-90.39006,38.81114,145],[-90.39011,38.81115,145],[-90.39015,38.81116,144],[-90.39018,38.81117,144],[-90.39022,38.81117,143],[-90.39026,38.81116,143],[-90.3903,38.81115,142],[-90.39034,38.81116,142],[-90.39038,38.81117,142],[-90.39042,38.81118,142],[-90.39045,38.8112,142],[-90.39048,38.81121,142],[-90.39051,38.81123,142],[-90.39054,38.81125,142],[-90.39058,38.81126,142],[-90.39062,38.81125,142],[-90.39066,38.81124,142],[-90.39069,38.81122,142],[-90.39072,38.81121,141],[-90.39077,38.8112,141],[-90.39081,38.81119,141],[-90.39084,38.81117,141],[-90.39087,38.81117,141],[-90.3909,38.8112,140],[-90.39091,38.81123,141],[-90.39094,38.81126,141],[-90.39095,38.81129,141],[-90.39097,38.81132,141],[-90.39099,38.81135,141],[-90.39102,38.81137,141],[-90.39104,38.81139,141],[-90.39106,38.81142,141],[-90.39109,38.81145,142],[-90.39111,38.81147,142],[-90.39112,38.8115,142],[-90.39112,38.81153,142],[-90.39112,38.81156,143],[-90.3911,38.81159,143],[-90.39108,38.81162,144],[-90.39105,38.81165,145],[-90.39103,38.81168,145],[-90.391,38.8117,146],[-90.39098,38.81172,146],[-90.39096,38.81175,147],[-90.39094,38.81178,147],[-90.39093,38.81182,148],[-90.39093,38.81184,148],[-90.39094,38.81187,149],[-90.39094,38.8119,149],[-90.39094,38.81193,149],[-90.39093,38.81197,150],[-90.39092,38.812,149],[-90.39091,38.81203,149],[-90.39091,38.81205,149],[-90.3909,38.81209,149],[-90.39089,38.81212,149],[-90.39088,38.81215,149],[-90.39089,38.81218,149],[-90.39089,38.81221,149],[-90.3909,38.81224,149],[-90.39092,38.81227,148],[-90.39095,38.81229,147],[-90.39097,38.81226,148],[-90.39099,38.81229,147],[-90.391,38.81232,146],[-90.391,38.81235,146],[-90.391,38.81238,145],[-90.39101,38.81242,144],[-90.39102,38.81244,143],[-90.39101,38.81247,142],[-90.39101,38.81251,142],[-90.39101,38.81255,143],[-90.39101,38.81258,143],[-90.39102,38.81261,144],[-90.39102,38.81265,145],[-90.39102,38.81268,146],[-90.39104,38.81271,146],[-90.39105,38.81274,147],[-90.39105,38.81277,147],[-90.39105,38.8128,148],[-90.39106,38.81283,149],[-90.39108,38.81285,149],[-90.3911,38.81288,149],[-90.39112,38.81291,150],[-90.39113,38.81294,150],[-90.39116,38.81293,150],[-90.39119,38.81295,150],[-90.39121,38.81299,150],[-90.39123,38.81301,151],[-90.39124,38.81304,151],[-90.39126,38.81308,151],[-90.39127,38.81311,151],[-90.39129,38.81314,151],[-90.3913,38.81317,151],[-90.39131,38.81319,151],[-90.39134,38.81321,151],[-90.39137,38.81323,150],[-90.3914,38.81325,150],[-90.39142,38.81327,150],[-90.39146,38.81329,149],[-90.39149,38.81331,149],[-90.39153,38.81333,148],[-90.39157,38.81334,148],[-90.39159,38.81336,147],[-90.39162,38.81338,147],[-90.39164,38.81341,146],[-90.39166,38.81344,145],[-90.39167,38.81347,145],[-90.39167,38.81351,144],[-90.39168,38.81354,143],[-90.39168,38.81357,143],[-90.3917,38.8136,142],[-90.39172,38.81363,142],[-90.39174,38.81365,142],[-90.39177,38.81368,142],[-90.39179,38.81371,142],[-90.39182,38.81373,142],[-90.39184,38.81376,141],[-90.39187,38.81378,141],[-90.3919,38.8138,140],[-90.39192,38.81382,139],[-90.39195,38.81384,138],[-90.39199,38.81386,137],[-90.39201,38.81388,136],[-90.39204,38.81391,137],[-90.39207,38.81394,138],[-90.3921,38.81396,139],[-90.39213,38.81397,139],[-90.39216,38.814,140],[-90.3922,38.81402,141],[-90.39223,38.81403,142],[-90.39219,38.81404,143],[-90.39215,38.81405,144],[-90.39217,38.81408,145],[-90.3922,38.8141,146],[-90.39223,38.81413,148],[-90.39225,38.81416,150],[-90.39229,38.81418,150],[-90.39233,38.81421,151],[-90.39237,38.81423,151],[-90.3924,38.81425,151],[-90.39244,38.81426,152],[-90.39248,38.81428,152],[-90.39252,38.81429,152],[-90.39255,38.8143,152],[-90.3926,38.81432,152],[-90.39263,38.81434,152],[-90.39266,38.81435,152],[-90.3927,38.81437,152],[-90.39273,38.81439,152],[-90.39275,38.81442,152],[-90.39275,38.81445,153],[-90.39276,38.81448,153],[-90.39279,38.8145,152],[-90.39282,38.81453,151],[-90.39285,38.81454,151],[-90.39288,38.81456,150],[-90.39292,38.81457,149],[-90.39295,38.81459,148],[-90.39297,38.81462,148],[-90.39298,38.81465,147],[-90.393,38.81468,147],[-90.393,38.81471,147],[-90.393,38.81474,147],[-90.39302,38.81478,147],[-90.39305,38.81479,146],[-90.39305,38.81482,146],[-90.39301,38.81484,147],[-90.39301,38.81487,147],[-90.39301,38.8149,147],[-90.39303,38.81493,147],[-90.39305,38.81495,147],[-90.39307,38.81498,147],[-90.39312,38.81498,146],[-90.39314,38.81497,145],[-90.39318,38.81497,145],[-90.39319,38.81499,145],[-90.39318,38.81503,145],[-90.39318,38.81506,144],[-90.3932,38.81509,143],[-90.39321,38.81512,143],[-90.3932,38.81516,143],[-90.39319,38.81519,143],[-90.39318,38.81522,143],[-90.39316,38.81525,143],[-90.39314,38.81528,143],[-90.39311,38.8153,143],[-90.39309,38.81532,143],[-90.39306,38.81534,143],[-90.39303,38.81536,144],[-90.39302,38.81539,143],[-90.393,38.81543,142],[-90.39298,38.81545,142],[-90.39296,38.81548,142],[-90.39295,38.8155,141],[-90.39292,38.81553,141],[-90.39289,38.81555,141],[-90.39286,38.81556,142],[-90.39283,38.81558,143],[-90.39282,38.81561,142],[-90.39284,38.81563,142],[-90.39288,38.81563,140],[-90.3929,38.81561,140],[-90.39291,38.81558,140],[-90.39288,38.81557,141],[-90.39283,38.81555,143],[-90.39279,38.81554,145],[-90.39276,38.81553,146],[-90.39274,38.81551,147],[-90.39276,38.81548,147],[-90.3928,38.81547,146],[-90.39281,38.81544,147],[-90.39277,38.81544,148],[-90.39277,38.81547,147],[-90.39275,38.8155,147],[-90.39274,38.81553,147],[-90.39273,38.81556,146],[-90.39272,38.81559,146],[-90.39268,38.81562,147],[-90.39265,38.81564,148],[-90.39264,38.81567,148],[-90.39263,38.8157,147],[-90.39263,38.81574,146],[-90.39265,38.81576,145],[-90.39266,38.81579,144],[-90.39266,38.81583,143],[-90.39266,38.81586,143],[-90.39267,38.8159,143],[-90.39268,38.81593,143],[-90.39268,38.81596,143],[-90.39267,38.816,143],[-90.39267,38.81602,143],[-90.39266,38.81605,143],[-90.39264,38.81608,144],[-90.3926,38.8161,145],[-90.39257,38.81612,146],[-90.39254,38.81614,147],[-90.3925,38.81615,148],[-90.39248,38.81617,148],[-90.39249,38.8162,147],[-90.39245,38.8162,148],[-90.39242,38.81621,149],[-90.39239,38.81624,149],[-90.3924,38.81627,148],[-90.39244,38.8163,146],[-90.39245,38.81632,145],[-90.39245,38.81635,145],[-90.3924,38.81635,146],[-90.39238,38.81638,145],[-90.39235,38.81639,146],[-90.39235,38.81642,145],[-90.39233,38.81645,146],[-90.39231,38.81647,146],[-90.39228,38.81649,146],[-90.39225,38.81651,147],[-90.39224,38.81654,146],[-90.39227,38.81652,146],[-90.3923,38.81654,145],[-90.39231,38.81657,145],[-90.39231,38.8166,144],[-90.39229,38.81663,144],[-90.39225,38.81664,145],[-90.39221,38.81665,146],[-90.39218,38.81667,146],[-90.39216,38.8167,147],[-90.39212,38.81671,147],[-90.39208,38.81672,148],[-90.39205,38.81674,148],[-90.39203,38.81678,148],[-90.392,38.8168,149],[-90.39197,38.81682,149],[-90.39193,38.81684,149],[-90.39191,38.81686,149],[-90.39189,38.81689,149],[-90.39186,38.81691,149],[-90.39183,38.81693,148],[-90.39181,38.81696,147],[-90.39178,38.81699,146],[-90.39175,38.81701,145],[-90.39172,38.81702,145],[-90.39169,38.81704,144],[-90.39169,38.81708,142],[-90.39168,38.81711,141],[-90.39163,38.81711,142],[-90.39159,38.81711,142],[-90.39155,38.81711,143],[-90.39151,38.81712,143],[-90.39147,38.81713,143],[-90.39144,38.81714,143],[-90.39141,38.81716,143],[-90.3914,38.8172,141],[-90.39139,38.81722,141],[-90.39137,38.81725,140],[-90.39134,38.81726,140],[-90.39131,38.81724,141],[-90.39131,38.81722,142],[-90.39127,38.81722,143],[-90.39122,38.81723,143],[-90.39119,38.81724,144],[-90.39115,38.81724,144],[-90.39113,38.81726,144],[-90.39113,38.81729,143],[-90.39117,38.8173,143],[-90.39116,38.81734,142],[-90.39114,38.81736,141],[-90.3911,38.81738,142],[-90.39106,38.81739,142],[-90.39102,38.8174,142],[-90.39099,38.81743,142],[-90.39095,38.81745,142],[-90.39092,38.81744,142],[-90.39088,38.81743,143],[-90.39085,38.81744,143],[-90.39081,38.81746,143],[-90.39078,38.81748,143],[-90.39075,38.8175,143],[-90.3907,38.8175,143],[-90.39067,38.8175,144],[-90.39063,38.81752,144],[-90.39058,38.81752,145],[-90.39055,38.81752,145],[-90.39052,38.81754,145],[-90.39051,38.81758,144],[-90.39049,38.8176,144],[-90.39048,38.81758,145],[-90.39048,38.81754,145],[-90.39046,38.81752,146],[-90.39044,38.8175,147],[-90.3904,38.8175,147],[-90.39041,38.81748,148],[-90.39045,38.81749,147],[-90.39049,38.8175,146],[-90.39053,38.81751,146],[-90.39057,38.81751,145],[-90.39061,38.81751,145],[-90.39065,38.8175,144],[-90.39068,38.81751,144],[-90.39072,38.81752,143],[-90.39074,38.81755,142],[-90.39077,38.81756,141],[-90.3908,38.81758,140],[-90.39084,38.81759,140],[-90.39082,38.81757,140],[-90.3908,38.81754,141],[-90.39079,38.81751,142],[-90.39078,38.81748,143],[-90.39079,38.81745,144],[-90.3908,38.81742,145],[-90.39083,38.8174,145],[-90.39085,38.81738,145],[-90.39087,38.81736,146],[-90.39091,38.81735,145],[-90.39095,38.81735,145],[-90.39099,38.81736,144],[-90.39102,38.81736,143],[-90.39106,38.81734,143],[-90.39107,38.81731,144],[-90.3911,38.81729,144],[-90.39112,38.81726,144],[-90.39114,38.81724,144],[-90.39117,38.81722,145],[-90.39121,38.8172,145],[-90.39124,38.81719,145],[-90.39124,38.81722,143],[-90.39125,38.81719,144],[-90.39128,38.81717,145],[-90.39131,38.81715,145],[-90.39132,38.81712,146],[-90.39135,38.8171,146],[-90.39139,38.8171,146],[-90.39143,38.81709,146],[-90.39148,38.81708,145],[-90.39151,38.81706,146],[-90.39154,38.81704,146],[-90.39157,38.81702,146],[-90.39159,38.81699,147],[-90.39162,38.81697,147],[-90.39164,38.81695,148],[-90.39168,38.81694,148],[-90.39171,38.81694,148],[-90.39175,38.81694,148],[-90.39179,38.81692,148],[-90.39182,38.8169,149],[-90.39184,38.81687,149],[-90.39185,38.81684,150],[-90.39187,38.81681,150],[-90.39189,38.81678,150],[-90.39193,38.81677,150],[-90.39195,38.81674,150],[-90.39198,38.81672,149],[-90.392,38.81669,149],[-90.39203,38.81668,149],[-90.39204,38.81665,149],[-90.39207,38.81663,149],[-90.39209,38.81661,149],[-90.39212,38.81659,148],[-90.39215,38.81657,148],[-90.39219,38.81654,148],[-90.39222,38.81652,147],[-90.39224,38.81649,147],[-90.39227,38.81647,147],[-90.39229,38.81644,147],[-90.3923,38.81642,146],[-90.39231,38.81638,147],[-90.39234,38.81636,147],[-90.39236,38.81634,147],[-90.39237,38.81631,147],[-90.39235,38.81629,148],[-90.39234,38.81626,149],[-90.39237,38.81624,149],[-90.39238,38.81622,150],[-90.39242,38.81621,149],[-90.39245,38.81618,149],[-90.39246,38.81615,149],[-90.39249,38.81613,148],[-90.39253,38.81612,147],[-90.39256,38.81611,146],[-90.3926,38.8161,145],[-90.39263,38.81608,144],[-90.39265,38.81605,144],[-90.39266,38.81602,143],[-90.39267,38.816,143],[-90.39268,38.81597,143],[-90.39269,38.81594,142],[-90.39269,38.81591,142],[-90.3927,38.81588,142],[-90.39269,38.81584,142],[-90.39268,38.81581,143],[-90.39266,38.81578,144],[-90.39265,38.81575,146],[-90.39263,38.81572,147],[-90.39261,38.81569,148],[-90.3926,38.81566,149],[-90.3926,38.81563,150],[-90.39261,38.8156,150],[-90.39263,38.81556,150],[-90.39267,38.81554,149],[-90.39269,38.81552,149],[-90.39272,38.8155,148],[-90.39274,38.81548,148],[-90.39278,38.81547,147],[-90.39281,38.81545,147],[-90.39284,38.81544,146],[-90.39288,38.81543,145],[-90.39291,38.81541,145],[-90.39295,38.81539,145],[-90.39298,38.81537,144],[-90.39301,38.81535,144],[-90.39304,38.81533,144],[-90.39306,38.8153,145],[-90.39309,38.81528,145],[-90.39311,38.81526,144],[-90.39313,38.81523,144],[-90.39314,38.8152,144],[-90.39315,38.81518,144],[-90.39316,38.81515,144],[-90.39316,38.81512,144],[-90.39316,38.81509,145],[-90.39314,38.81506,145],[-90.39313,38.81504,146],[-90.39311,38.81501,146],[-90.39309,38.81498,147],[-90.39308,38.81496,147],[-90.39306,38.81493,147],[-90.39303,38.81491,147],[-90.39301,38.81488,147],[-90.39299,38.81485,147],[-90.39298,38.81482,147],[-90.39298,38.81479,147],[-90.39299,38.81476,147],[-90.39298,38.81473,147],[-90.39297,38.8147,147],[-90.39296,38.81467,148],[-90.39295,38.81464,148],[-90.39293,38.81461,149],[-90.39291,38.81458,149],[-90.39289,38.81455,150],[-90.39287,38.81453,150],[-90.39285,38.81451,151],[-90.39281,38.8145,152],[-90.39277,38.81448,152],[-90.39275,38.81446,153],[-90.39271,38.81445,153],[-90.39268,38.81443,153],[-90.39266,38.8144,153],[-90.39264,38.81438,153],[-90.39261,38.81435,152],[-90.39258,38.81434,152],[-90.39255,38.81431,152],[-90.39252,38.8143,152],[-90.39249,38.81428,152],[-90.39245,38.81426,152],[-90.39241,38.81425,151],[-90.39238,38.81424,151],[-90.39235,38.81421,151],[-90.39233,38.81419,151],[-90.39231,38.81417,150],[-90.3923,38.81414,149],[-90.39228,38.81411,147],[-90.39227,38.81409,146],[-90.39226,38.81405,143],[-90.39226,38.81402,141],[-90.39229,38.814,140],[-90.39232,38.81398,139],[-90.39236,38.81396,139],[-90.39238,38.81393,138],[-90.39239,38.81391,137],[-90.39242,38.81388,136],[-90.39243,38.81385,137],[-90.39245,38.81383,137],[-90.39248,38.8138,138],[-90.39251,38.81379,138],[-90.39253,38.81376,138],[-90.39255,38.81373,138],[-90.39256,38.81369,138],[-90.39256,38.81366,138],[-90.39256,38.81363,138],[-90.39259,38.8136,138],[-90.3926,38.81357,138],[-90.39262,38.81354,137],[-90.39264,38.81352,137],[-90.39266,38.8135,137],[-90.39268,38.81346,136],[-90.3927,38.81344,136],[-90.39272,38.81342,136],[-90.39275,38.81339,135],[-90.39277,38.81337,135],[-90.3928,38.81334,134],[-90.39283,38.81332,134],[-90.39286,38.8133,134],[-90.39289,38.81327,134],[-90.39292,38.81324,133],[-90.39294,38.81322,133],[-90.39297,38.81319,133],[-90.393,38.81317,133],[-90.39302,38.81315,133],[-90.39305,38.81313,133],[-90.39308,38.8131,132],[-90.39311,38.81309,132],[-90.39314,38.81307,132],[-90.39317,38.81304,133],[-90.39319,38.81302,133],[-90.39321,38.81298,133],[-90.39323,38.81296,133],[-90.39326,38.81294,133],[-90.39329,38.81292,133],[-90.39332,38.8129,134],[-90.39336,38.81289,134],[-90.39339,38.81287,134],[-90.39343,38.81286,134],[-90.39348,38.81285,133],[-90.39352,38.81283,133],[-90.39356,38.81281,133],[-90.39359,38.81279,133],[-90.39363,38.81276,134],[-90.39365,38.81274,134],[-90.39368,38.81272,134],[-90.39371,38.81271,134],[-90.39374,38.81269,134],[-90.39377,38.81267,134],[-90.39381,38.81265,135],[-90.39384,38.81263,135],[-90.39387,38.81261,135],[-90.3939,38.81259,135],[-90.39393,38.81256,136],[-90.39396,38.81254,136],[-90.394,38.81252,136],[-90.39402,38.8125,137],[-90.39405,38.81247,137],[-90.39407,38.81245,137],[-90.3941,38.81243,137],[-90.39412,38.8124,137],[-90.39415,38.81237,137],[-90.39417,38.81235,137],[-90.3942,38.81232,137],[-90.39423,38.8123,137],[-90.39426,38.81227,137],[-90.39429,38.81225,137],[-90.39432,38.81223,137],[-90.39435,38.81221,138],[-90.39437,38.81219,138],[-90.3944,38.81217,138],[-90.39443,38.81214,138],[-90.39445,38.81212,137],[-90.39448,38.8121,137],[-90.39451,38.81208,137],[-90.39453,38.81206,137],[-90.39456,38.81203,137],[-90.39459,38.812,137],[-90.39462,38.81198,137],[-90.39465,38.81196,137],[-90.39468,38.81193,137],[-90.39471,38.81191,136],[-90.39473,38.81188,136],[-90.39476,38.81186,135],[-90.39479,38.81183,135],[-90.39482,38.81181,135],[-90.39485,38.81178,134],[-90.39488,38.81176,134],[-90.39491,38.81174,133],[-90.39494,38.81172,133],[-90.39497,38.81171,133],[-90.395,38.81169,133],[-90.39503,38.81167,133],[-90.39507,38.81165,132],[-90.3951,38.81163,132],[-90.39512,38.8116,132],[-90.39515,38.81158,132],[-90.39517,38.81156,132],[-90.39518,38.81153,132],[-90.39516,38.81155,132],[-90.39515,38.81155,132]]],
        "bbox": [
          -90.38749,
          38.8176,
          -90.39523,
          38.81114
        ]
      },
      "properties": {
        "name": "12.25.2024"
      }
    }
  ]
}