{
  "type": "FeatureCollection",
  "features": [
    {
      "type": "Feature",
      "geometry": {
        "type": "MultiLineString",
        "coordinates": [[[-90.39492,38.81178,134],[-90.39488,38.8118,134],[-90.39484,38.81182,135],[-90.39479,38.81185,135],[-90.39474,38.81187,136],[-90.3947,38.8119,136],[-90.39466,38.81193,137],[-90.39462,38.81196,137],[-90.39458,38.81199,137],[-90.39454,38.81201,137],[-90.3944,38.81212,138],[-90.39439,38.81215,138],[-90.39437,38.81218,138],[-90.39436,38.81222,138],[-90.39434,38.81224,137],[-90.39431,38.81226,137],[-90.39428,38.81227,137],[-90.39425,38.81229,137],[-90.39421,38.81232,137],[-90.39418,38.81234,137],[-90.39416,38.81236,137],[-90.39413,38.81238,137],[-90.39411,38.8124,137],[-90.39407,38.81242,137],[-90.39404,38.81244,137],[-90.39401,38.81247,137],[-90.39398,38.8125,137],[-90.39395,38.81252,136],[-90.39392,38.81254,136],[-90.39389,38.81256,136],[-90.39387,38.81258,136],[-90.39383,38.81261,135],[-90.3938,38.81264,135],[-90.39376,38.81267,134],[-90.39373,38.81268,134],[-90.39369,38.8127,134],[-90.39366,38.81271,134],[-90.39362,38.81273,134],[-90.39359,38.81275,134],[-90.39356,38.81277,134],[-90.39353,38.8128,134],[-90.3935,38.81282,134],[-90.39347,38.81283,134],[-90.39344,38.81284,134],[-90.39339,38.81286,134],[-90.39336,38.81287,134],[-90.39333,38.81289,134],[-90.39329,38.81291,134],[-90.39326,38.81293,133],[-90.39323,38.81295,133],[-90.3932,38.81298,133],[-90.39317,38.813,133],[-90.39313,38.81301,133],[-90.3931,38.81303,133],[-90.39306,38.81305,133],[-90.39303,38.81308,133],[-90.39299,38.8131,133],[-90.39296,38.81311,133],[-90.39292,38.81314,133],[-90.3929,38.81317,133],[-90.39288,38.81319,133],[-90.39285,38.81322,134],[-90.39282,38.81324,134],[-90.3928,38.81326,134],[-90.39277,38.81329,134],[-90.39275,38.81332,135],[-90.39273,38.81335,135],[-90.3927,38.81337,135],[-90.39266,38.81339,136],[-90.39264,38.81341,136],[-90.39262,38.81344,137],[-90.39259,38.81346,137],[-90.39258,38.81348,137],[-90.39257,38.81351,137],[-90.39256,38.81354,138],[-90.39255,38.81357,138],[-90.39252,38.8136,138],[-90.3925,38.81363,138],[-90.39248,38.81365,138],[-90.39249,38.81367,138],[-90.39245,38.81369,138],[-90.39242,38.81371,138],[-90.3924,38.81374,137],[-90.39237,38.81376,137],[-90.39235,38.81379,136],[-90.39233,38.81382,135],[-90.39232,38.81384,135],[-90.39231,38.81387,134],[-90.39229,38.8139,134],[-90.39227,38.81393,136],[-90.39225,38.81396,138],[-90.39223,38.81399,139],[-90.39223,38.81402,141],[-90.39223,38.81404,142],[-90.39224,38.81408,145],[-90.39225,38.81411,147],[-90.39226,38.81414,149],[-90.39228,38.81416,150],[-90.39231,38.81419,151],[-90.39233,38.81421,151],[-90.39235,38.81424,151],[-90.39238,38.81426,152],[-90.39241,38.81428,152],[-90.39245,38.8143,152],[-90.39247,38.81433,153],[-90.3925,38.81435,153],[-90.39254,38.81437,153],[-90.39257,38.81439,154],[-90.39259,38.81441,154],[-90.39261,38.81444,154],[-90.39263,38.81446,154],[-90.39266,38.81449,154],[-90.39268,38.81451,153],[-90.39272,38.81454,153],[-90.39276,38.81457,152],[-90.39279,38.81458,152],[-90.39282,38.81462,151],[-90.39285,38.81465,150],[-90.39287,38.81467,150],[-90.39289,38.8147,149],[-90.39291,38.81473,149],[-90.39291,38.81476,149],[-90.3929,38.81478,149],[-90.3929,38.81481,149],[-90.39291,38.81485,149],[-90.39293,38.81488,148],[-90.39294,38.81492,148],[-90.39295,38.81495,148],[-90.39296,38.81499,148],[-90.39298,38.81502,148],[-90.393,38.81504,148],[-90.39302,38.81506,147],[-90.39305,38.81509,147],[-90.39306,38.81513,147],[-90.39305,38.81517,146],[-90.39302,38.81519,147],[-90.393,38.81522,147],[-90.39298,38.81524,147],[-90.39295,38.81527,148],[-90.39293,38.8153,148],[-90.3929,38.81532,148],[-90.39286,38.81534,149],[-90.39283,38.81535,149],[-90.39279,38.81535,150],[-90.39276,38.81537,150],[-90.39273,38.81539,150],[-90.3927,38.81541,151],[-90.39268,38.81543,151],[-90.39266,38.81546,151],[-90.39264,38.81548,151],[-90.39262,38.81552,151],[-90.3926,38.81554,152],[-90.39259,38.81557,151],[-90.39258,38.81561,151],[-90.39258,38.81564,150],[-90.3926,38.81568,149],[-90.3926,38.81572,148],[-90.3926,38.81575,147],[-90.39259,38.81578,147],[-90.39258,38.81582,146],[-90.39258,38.81585,146],[-90.39258,38.81588,146],[-90.39257,38.81591,146],[-90.39257,38.81594,146],[-90.39255,38.81598,147],[-90.39253,38.816,147],[-90.3925,38.81602,148],[-90.39246,38.81604,150],[-90.39243,38.81607,151],[-90.3924,38.8161,152],[-90.39238,38.81613,152],[-90.39236,38.81615,152],[-90.39232,38.81616,153],[-90.39228,38.81616,154],[-90.39225,38.81618,154],[-90.39224,38.81621,154],[-90.39224,38.81624,153],[-90.39226,38.81627,151],[-90.39227,38.81629,150],[-90.39228,38.81632,149],[-90.39227,38.81635,149],[-90.39224,38.81638,148],[-90.39221,38.8164,149],[-90.39219,38.81642,149],[-90.39217,38.81645,149],[-90.39214,38.81648,149],[-90.39211,38.81651,150],[-90.39208,38.81654,150],[-90.39206,38.81656,150],[-90.39204,38.8166,150],[-90.39201,38.81663,150],[-90.39196,38.81663,151],[-90.39192,38.81663,152],[-90.39189,38.81666,152],[-90.39188,38.81669,151],[-90.39185,38.81671,152],[-90.39182,38.81674,151],[-90.39179,38.81676,151],[-90.39177,38.81679,151],[-90.39176,38.81682,151],[-90.39173,38.81684,150],[-90.3917,38.81687,150],[-90.39168,38.8169,149],[-90.39166,38.81693,148],[-90.39162,38.81694,149],[-90.39158,38.81695,149],[-90.39154,38.81696,149],[-90.3915,38.81696,150],[-90.39146,38.81697,150],[-90.39143,38.817,149],[-90.3914,38.81702,149],[-90.39136,38.81703,149],[-90.39132,38.81705,149],[-90.39129,38.81706,149],[-90.39124,38.81707,150],[-90.39121,38.81709,149],[-90.39117,38.81711,149],[-90.39115,38.81714,148],[-90.39112,38.81716,148],[-90.39108,38.81719,147],[-90.39106,38.81721,147],[-90.39103,38.81724,146],[-90.391,38.81727,146],[-90.39097,38.81729,146],[-90.39094,38.81731,146],[-90.3909,38.81733,146],[-90.39088,38.81735,146],[-90.39092,38.81735,145],[-90.39096,38.81734,145],[-90.391,38.81734,144],[-90.39104,38.81732,144],[-90.39108,38.8173,144],[-90.39112,38.81729,144],[-90.39116,38.81729,143],[-90.3912,38.81729,142],[-90.39123,38.81727,142],[-90.39126,38.81726,142],[-90.3913,38.81725,141],[-90.39134,38.81723,141],[-90.39138,38.81723,140],[-90.39142,38.81724,140],[-90.39146,38.81723,139],[-90.3915,38.8172,140],[-90.39153,38.81718,140],[-90.39157,38.81716,140],[-90.3916,38.81714,141],[-90.39164,38.81713,141],[-90.39169,38.81712,141],[-90.39172,38.8171,142],[-90.39174,38.81708,142],[-90.39177,38.81705,144],[-90.39179,38.81702,145],[-90.39182,38.81699,146],[-90.39183,38.81696,147],[-90.39184,38.81693,148],[-90.39186,38.8169,149],[-90.39189,38.81687,149],[-90.39193,38.81686,149],[-90.39197,38.81683,149],[-90.39199,38.81681,149],[-90.39202,38.81678,149],[-90.39203,38.81675,149],[-90.39204,38.81673,149],[-90.39206,38.8167,148],[-90.39209,38.81667,148],[-90.39212,38.81665,148],[-90.39215,38.81662,147],[-90.39217,38.8166,147],[-90.39221,38.81659,147],[-90.39225,38.81658,146],[-90.39226,38.81655,146],[-90.39226,38.81651,146],[-90.39227,38.81648,146],[-90.39227,38.81645,147],[-90.39229,38.81642,147],[-90.39232,38.81639,146],[-90.39231,38.81636,147],[-90.39228,38.81634,149],[-90.3923,38.81631,149],[-90.39232,38.81628,150],[-90.39235,38.81626,149],[-90.39239,38.81626,148],[-90.39241,38.81623,148],[-90.39243,38.8162,149],[-90.39246,38.81618,148],[-90.3925,38.81617,147],[-90.39254,38.81616,146],[-90.39256,38.81613,146],[-90.39256,38.8161,146],[-90.39258,38.81606,146],[-90.39261,38.81603,145],[-90.39264,38.81601,144],[-90.39267,38.81599,143],[-90.39268,38.81596,143],[-90.39267,38.81592,143],[-90.39265,38.81589,144],[-90.39263,38.81585,144],[-90.39261,38.81582,145],[-90.3926,38.81579,146],[-90.3926,38.81576,147],[-90.39259,38.81572,148],[-90.39258,38.81569,149],[-90.39258,38.81565,150],[-90.39258,38.81562,151],[-90.3926,38.8156,150],[-90.39264,38.81558,149],[-90.39268,38.81557,148],[-90.39272,38.81555,147],[-90.39276,38.81555,145],[-90.3928,38.81554,144],[-90.39283,38.81553,144],[-90.39288,38.81552,142],[-90.39292,38.81552,141],[-90.39296,38.81551,141],[-90.393,38.8155,140],[-90.39303,38.81547,140],[-90.39305,38.81544,140],[-90.39307,38.81541,141],[-90.3931,38.81538,141],[-90.39313,38.81534,142],[-90.39313,38.81532,142],[-90.39314,38.81529,143],[-90.39315,38.81526,143],[-90.39316,38.81522,143],[-90.39317,38.81519,143],[-90.39318,38.81516,143],[-90.39317,38.81513,144],[-90.39316,38.8151,144],[-90.39314,38.81507,145],[-90.39312,38.81503,146],[-90.3931,38.815,147],[-90.39306,38.81498,147],[-90.39302,38.81496,148],[-90.393,38.81493,148],[-90.393,38.8149,147],[-90.393,38.81486,147],[-90.393,38.81482,147],[-90.39301,38.81479,147],[-90.39302,38.81476,146],[-90.39301,38.81472,146],[-90.393,38.8147,147],[-90.39299,38.81467,147],[-90.39297,38.81464,148],[-90.39296,38.81461,148],[-90.39293,38.81458,149],[-90.3929,38.81456,149],[-90.39287,38.81453,150],[-90.39283,38.81452,151],[-90.39279,38.81449,152],[-90.39276,38.81446,153],[-90.39274,38.81444,153],[-90.39271,38.81441,153],[-90.39268,38.81438,152],[-90.39266,38.81435,152],[-90.39264,38.81432,151],[-90.3926,38.8143,151],[-90.39257,38.81429,151],[-90.39253,38.81428,152],[-90.3925,38.81427,152],[-90.39246,38.81424,151],[-90.39244,38.81422,151],[-90.39241,38.8142,150],[-90.39238,38.81417,150],[-90.39235,38.81416,150],[-90.39233,38.81414,149],[-90.3923,38.81411,147],[-90.39228,38.81409,146],[-90.39226,38.81407,144],[-90.39221,38.81407,144],[-90.39217,38.81407,145],[-90.39212,38.81407,145],[-90.39208,38.81407,146],[-90.39204,38.81408,146],[-90.392,38.81408,147],[-90.39196,38.81407,147],[-90.39194,38.81409,148],[-90.39193,38.81412,150],[-90.3919,38.81414,151],[-90.39188,38.81416,153],[-90.39185,38.81419,154],[-90.39182,38.8142,155],[-90.3918,38.81422,157],[-90.3918,38.81425,157],[-90.39181,38.81428,158],[-90.39179,38.81432,159],[-90.39178,38.81434,160],[-90.39176,38.81437,162],[-90.39175,38.81441,163],[-90.39175,38.81443,164],[-90.39175,38.81446,164],[-90.39176,38.81449,164],[-90.39178,38.81452,164],[-90.39181,38.81454,164],[-90.39183,38.81457,164],[-90.39185,38.81461,164],[-90.39185,38.81464,164],[-90.39185,38.81468,164],[-90.39185,38.81471,165],[-90.39186,38.81473,165],[-90.39187,38.81476,165],[-90.39188,38.8148,165],[-90.3919,38.81482,165],[-90.3919,38.81485,165],[-90.39188,38.81488,166],[-90.39186,38.81491,167],[-90.39187,38.81494,167],[-90.3919,38.81497,167],[-90.39193,38.81499,166],[-90.39195,38.81501,166],[-90.39197,38.81505,167],[-90.39199,38.81508,167],[-90.39198,38.81511,168],[-90.39195,38.81513,170],[-90.39193,38.81516,172],[-90.39193,38.8152,173],[-90.39192,38.81524,174],[-90.39192,38.81526,175],[-90.39192,38.8153,176],[-90.39192,38.81533,176],[-90.39192,38.81537,177],[-90.39192,38.81541,177],[-90.39192,38.81543,177],[-90.39192,38.81547,177],[-90.39191,38.8155,178],[-90.39192,38.81553,178],[-90.39193,38.81556,178],[-90.39191,38.81558,178],[-90.3919,38.81561,177],[-90.39188,38.81564,177],[-90.3919,38.81566,176],[-90.39193,38.81567,175],[-90.39196,38.81569,174],[-90.39197,38.81571,173],[-90.39194,38.8157,175],[-90.39189,38.81569,176],[-90.39185,38.81568,177],[-90.39183,38.81566,178],[-90.39179,38.81566,179],[-90.39176,38.81567,179],[-90.39172,38.81566,180],[-90.39168,38.81565,181],[-90.39165,38.81562,182],[-90.39164,38.8156,182],[-90.39162,38.81557,183],[-90.3916,38.81554,183],[-90.39155,38.81552,183],[-90.39152,38.8155,183],[-90.39149,38.81548,184],[-90.39144,38.81547,184],[-90.3914,38.81545,185],[-90.39137,38.81543,185],[-90.39132,38.81543,185],[-90.39128,38.81542,185],[-90.39123,38.81542,186],[-90.39118,38.81542,186],[-90.39114,38.81541,186],[-90.3911,38.8154,186],[-90.39105,38.81541,186],[-90.39102,38.81542,186],[-90.39098,38.81544,186],[-90.39095,38.81544,186],[-90.3909,38.81545,185],[-90.39086,38.81546,185],[-90.39081,38.81546,185],[-90.39077,38.81545,185],[-90.39073,38.81545,184],[-90.39069,38.81545,184],[-90.39066,38.81544,183],[-90.39062,38.81543,183],[-90.39059,38.81542,183],[-90.39055,38.81542,182],[-90.39051,38.8154,182],[-90.39047,38.81539,182],[-90.39043,38.81537,182],[-90.3904,38.81536,181],[-90.39036,38.81535,181],[-90.39033,38.81534,181],[-90.39029,38.81533,181],[-90.39025,38.81533,181],[-90.39021,38.81533,181],[-90.39016,38.81532,181],[-90.39012,38.81531,181],[-90.39007,38.8153,181],[-90.39004,38.81529,181],[-90.39,38.81527,182],[-90.38997,38.81525,182],[-90.38995,38.81523,183],[-90.38992,38.81521,183],[-90.38989,38.81519,184],[-90.38986,38.81515,185],[-90.38984,38.81513,186],[-90.38981,38.81511,186],[-90.38978,38.81508,187],[-90.38975,38.81506,187],[-90.38972,38.81504,188],[-90.38969,38.81502,188],[-90.38965,38.81499,188],[-90.38962,38.81496,189],[-90.38959,38.81494,189],[-90.38957,38.81491,189],[-90.38955,38.81488,189],[-90.38955,38.81485,189],[-90.38957,38.81482,190],[-90.38959,38.81478,190],[-90.3896,38.81475,191],[-90.38959,38.81472,191],[-90.38959,38.81469,191],[-90.38959,38.81466,191],[-90.38957,38.81462,190],[-90.38956,38.81459,190],[-90.38955,38.81456,190],[-90.38955,38.81452,190],[-90.38956,38.81449,189],[-90.38956,38.81445,189],[-90.38955,38.81442,189],[-90.38954,38.81439,188],[-90.38952,38.81437,188],[-90.38949,38.81434,188],[-90.38946,38.81432,188],[-90.38943,38.8143,189],[-90.3894,38.81428,189],[-90.38938,38.81426,189],[-90.38934,38.81424,190],[-90.3893,38.81422,190],[-90.38926,38.81422,191],[-90.38921,38.81422,192],[-90.38917,38.8142,192],[-90.38913,38.81419,192],[-90.38909,38.81418,192],[-90.38905,38.81417,192],[-90.38902,38.81417,192],[-90.38898,38.81416,192],[-90.38895,38.81415,192],[-90.3889,38.81414,192],[-90.38884,38.81414,193],[-90.38881,38.81413,193],[-90.38875,38.81412,194],[-90.38872,38.81412,195],[-90.38868,38.81411,195],[-90.38864,38.8141,196],[-90.38861,38.81407,196],[-90.38857,38.81406,196],[-90.38853,38.81405,196],[-90.3885,38.81404,197],[-90.38845,38.81403,197],[-90.38842,38.81402,197],[-90.38839,38.814,197],[-90.38837,38.81397,197],[-90.38835,38.81394,197],[-90.38831,38.81393,198],[-90.38827,38.81393,198],[-90.38822,38.81393,198],[-90.38818,38.81393,198],[-90.38815,38.81393,198],[-90.38811,38.81393,198],[-90.38807,38.81393,199],[-90.38804,38.81392,199],[-90.388,38.81392,199],[-90.38797,38.81392,199],[-90.38792,38.81392,199],[-90.38788,38.81392,199],[-90.38784,38.81392,199],[-90.3878,38.81391,199],[-90.38775,38.81391,200],[-90.3877,38.81391,200],[-90.38766,38.8139,200],[-90.38763,38.81389,199],[-90.3876,38.81387,199],[-90.38757,38.81385,199],[-90.38754,38.81383,199],[-90.38753,38.8138,198],[-90.38753,38.81377,198],[-90.38754,38.81374,198],[-90.38755,38.81377,198],[-90.38754,38.8138,198],[-90.38754,38.81383,199],[-90.38754,38.81387,199],[-90.38756,38.81389,199],[-90.38759,38.81391,200],[-90.38763,38.81393,200],[-90.38766,38.81396,200],[-90.38769,38.81397,200],[-90.38774,38.81398,200],[-90.38777,38.81398,200],[-90.38781,38.81396,199],[-90.38785,38.81396,199],[-90.38789,38.81397,199],[-90.38793,38.81397,199],[-90.38797,38.81398,199],[-90.38802,38.81399,199],[-90.38806,38.81399,199],[-90.3881,38.81399,199],[-90.38815,38.81401,199],[-90.38818,38.81402,199],[-90.38822,38.81402,198],[-90.38827,38.81403,198],[-90.3883,38.81405,198],[-90.38834,38.81405,198],[-90.38838,38.81407,198],[-90.38842,38.81408,197],[-90.38846,38.81409,197],[-90.3885,38.81409,197],[-90.38854,38.8141,197],[-90.38858,38.81411,196],[-90.38862,38.81412,196],[-90.38866,38.81413,196],[-90.3887,38.81415,195],[-90.38874,38.81417,195],[-90.38877,38.81418,194],[-90.3888,38.81419,194],[-90.38884,38.81421,193],[-90.38888,38.81422,193],[-90.38892,38.81423,192],[-90.38896,38.81423,192],[-90.389,38.81424,192],[-90.38904,38.81424,192],[-90.38909,38.81425,192],[-90.38912,38.81427,192],[-90.38915,38.81429,192],[-90.38919,38.81431,192],[-90.38924,38.81432,191],[-90.38928,38.81434,191],[-90.38932,38.81435,190],[-90.38936,38.81436,190],[-90.3894,38.81435,189],[-90.38944,38.81433,189],[-90.38942,38.81436,189],[-90.38943,38.81439,189],[-90.38945,38.81441,189],[-90.38946,38.81444,189],[-90.38944,38.81447,190],[-90.38943,38.8145,190],[-90.38943,38.81453,190],[-90.38944,38.81456,190],[-90.38945,38.81459,190],[-90.38946,38.81462,190],[-90.38946,38.81465,190],[-90.38946,38.81468,190],[-90.38946,38.81471,190],[-90.38946,38.81474,190],[-90.38948,38.81477,190],[-90.38948,38.8148,190],[-90.38948,38.81484,189],[-90.38949,38.81487,189],[-90.3895,38.8149,189],[-90.38952,38.81493,189],[-90.38954,38.81496,188],[-90.38956,38.81499,188],[-90.38959,38.81501,188],[-90.38962,38.81503,188],[-90.38965,38.81506,187],[-90.38967,38.81508,187],[-90.38969,38.81511,186],[-90.38971,38.81514,186],[-90.38974,38.81517,185],[-90.38977,38.81519,184],[-90.38978,38.81521,184],[-90.38981,38.81524,183],[-90.38984,38.81526,182],[-90.38987,38.81528,182],[-90.3899,38.8153,181],[-90.38993,38.81532,181],[-90.38995,38.81534,181],[-90.38998,38.81535,180],[-90.39002,38.81537,180],[-90.39006,38.81538,180],[-90.39009,38.81539,180],[-90.39014,38.81541,179],[-90.39018,38.81542,179],[-90.39022,38.81544,179],[-90.39027,38.81545,179],[-90.39032,38.81546,179],[-90.39035,38.81546,180],[-90.39038,38.81548,180],[-90.3904,38.8155,180],[-90.39043,38.81552,180],[-90.39047,38.81553,181],[-90.3905,38.81554,181],[-90.39054,38.81556,181],[-90.39057,38.81557,182],[-90.39062,38.81557,182],[-90.39066,38.81557,183],[-90.3907,38.81556,183],[-90.39075,38.81556,184],[-90.39079,38.81556,184],[-90.39084,38.81556,184],[-90.39089,38.81556,185],[-90.39093,38.81556,185],[-90.39098,38.81554,185],[-90.39103,38.81553,185],[-90.39107,38.81551,186],[-90.39111,38.81549,186],[-90.39115,38.81548,186],[-90.3912,38.81549,185],[-90.39123,38.81552,185],[-90.39126,38.81553,185],[-90.3913,38.81554,185],[-90.39134,38.81555,185],[-90.39137,38.81556,185],[-90.3914,38.81558,184],[-90.39144,38.81561,183],[-90.39147,38.81562,183],[-90.3915,38.81564,183],[-90.39153,38.81566,182],[-90.39157,38.81568,182],[-90.3916,38.8157,181],[-90.39164,38.81571,181],[-90.39168,38.81572,180],[-90.39173,38.81572,179],[-90.39177,38.81572,178],[-90.39181,38.81572,177],[-90.39184,38.81573,176],[-90.39187,38.81571,176],[-90.39189,38.81568,176],[-90.39191,38.81565,176],[-90.39192,38.81561,177],[-90.39194,38.81559,177],[-90.39196,38.81557,176],[-90.39197,38.81554,176],[-90.39199,38.8155,175],[-90.39201,38.81547,174],[-90.39202,38.81544,174],[-90.39202,38.81541,174],[-90.39201,38.81538,174],[-90.39199,38.81535,175],[-90.39198,38.81533,175],[-90.39199,38.8153,174],[-90.39199,38.81527,174],[-90.392,38.81524,173],[-90.39199,38.81521,172],[-90.392,38.81517,170],[-90.39201,38.81515,169],[-90.39201,38.81511,168],[-90.392,38.81508,167],[-90.39198,38.81504,166],[-90.39197,38.81501,165],[-90.39196,38.81497,165],[-90.39195,38.81494,165],[-90.39197,38.81491,164],[-90.39198,38.81489,163],[-90.39199,38.81486,163],[-90.39197,38.81482,163],[-90.39196,38.81479,163],[-90.39196,38.81476,163],[-90.39195,38.81473,162],[-90.39196,38.8147,162],[-90.39195,38.81467,162],[-90.39194,38.81464,162],[-90.39192,38.81461,162],[-90.39189,38.81459,162],[-90.39187,38.81457,163],[-90.39186,38.81453,162],[-90.39186,38.8145,162],[-90.39186,38.81447,161],[-90.39186,38.81444,161],[-90.39185,38.81441,160],[-90.39185,38.81438,159],[-90.39185,38.81435,159],[-90.39185,38.81432,158],[-90.39186,38.8143,157],[-90.39185,38.81426,156],[-90.39186,38.81424,156],[-90.39189,38.81424,155],[-90.39193,38.81423,154],[-90.39194,38.8142,153],[-90.39199,38.81419,152],[-90.39202,38.8142,152],[-90.39206,38.8142,152],[-90.3921,38.81419,151],[-90.39213,38.81417,151],[-90.39215,38.81415,150],[-90.39218,38.81414,149],[-90.39218,38.8141,146],[-90.39216,38.81407,145],[-90.39213,38.81404,143],[-90.39211,38.81402,142],[-90.39208,38.81399,141],[-90.39207,38.81395,139],[-90.39205,38.81393,138],[-90.39201,38.81391,137],[-90.39197,38.81389,137],[-90.39194,38.81386,138],[-90.39192,38.81383,139],[-90.39189,38.81381,140],[-90.39186,38.81379,141],[-90.39183,38.81377,141],[-90.3918,38.81376,142],[-90.39176,38.81375,143],[-90.39173,38.81373,143],[-90.39171,38.8137,143],[-90.39169,38.81368,143],[-90.39168,38.81365,143],[-90.39167,38.81361,142],[-90.39165,38.81358,143],[-90.39164,38.81356,144],[-90.39163,38.81353,144],[-90.39163,38.81349,145],[-90.39162,38.81347,146],[-90.39162,38.81344,146],[-90.3916,38.81341,147],[-90.39158,38.81338,147],[-90.39154,38.81336,148],[-90.39151,38.81335,149],[-90.39146,38.81333,150],[-90.39143,38.81332,150],[-90.39139,38.81329,150],[-90.39136,38.81327,151],[-90.39134,38.81324,151],[-90.39134,38.81321,151],[-90.39132,38.81318,151],[-90.3913,38.81315,151],[-90.39127,38.81312,151],[-90.39125,38.81309,152],[-90.39123,38.81307,152],[-90.3912,38.81304,152],[-90.39116,38.81302,152],[-90.39114,38.813,152],[-90.39112,38.81296,151],[-90.39111,38.81294,151],[-90.3911,38.81291,150],[-90.39108,38.81288,149],[-90.39106,38.81286,149],[-90.39103,38.81283,149],[-90.39101,38.81281,149],[-90.39097,38.81277,148],[-90.39098,38.81274,147],[-90.39098,38.81271,147],[-90.39098,38.81268,146],[-90.39099,38.81265,145],[-90.39098,38.81262,145],[-90.39099,38.81257,143],[-90.391,38.81254,143],[-90.39101,38.8125,142],[-90.39102,38.81248,142],[-90.39103,38.81244,143],[-90.39102,38.81241,144],[-90.39099,38.81238,145],[-90.39097,38.81235,146],[-90.39096,38.81232,147],[-90.39095,38.81228,148],[-90.39092,38.81225,149],[-90.3909,38.81223,149],[-90.39089,38.8122,149],[-90.39092,38.81217,149],[-90.39094,38.81215,149],[-90.39097,38.81212,149],[-90.39099,38.81209,150],[-90.39102,38.81207,150],[-90.39104,38.81203,150],[-90.39105,38.812,150],[-90.39105,38.81197,151],[-90.39104,38.81195,151],[-90.39104,38.81192,150],[-90.39102,38.81189,149],[-90.39101,38.81186,149],[-90.391,38.81183,148],[-90.39101,38.81179,148],[-90.39102,38.81176,147],[-90.39102,38.81174,147],[-90.39104,38.81171,146],[-90.39105,38.81168,145],[-90.39107,38.81166,145],[-90.3911,38.81163,144],[-90.39112,38.8116,143],[-90.39112,38.81156,143],[-90.3911,38.81152,142],[-90.39108,38.8115,142],[-90.39105,38.81148,142],[-90.39102,38.81146,142],[-90.39099,38.81144,142],[-90.39098,38.81141,142],[-90.39097,38.81138,141],[-90.39095,38.81134,141],[-90.39094,38.81132,141],[-90.39092,38.81129,141],[-90.3909,38.81126,141],[-90.39088,38.81123,141],[-90.39087,38.8112,141],[-90.39085,38.81117,141],[-90.39084,38.81114,141],[-90.39084,38.81111,140],[-90.39085,38.81108,140],[-90.39085,38.81111,140],[-90.39085,38.81114,141],[-90.39085,38.81118,141],[-90.39086,38.81122,141],[-90.39087,38.81125,141],[-90.39088,38.81128,141],[-90.3909,38.8113,141],[-90.39092,38.81132,141],[-90.39094,38.81134,141],[-90.39097,38.81137,141],[-90.391,38.81139,141],[-90.39103,38.81141,141],[-90.39106,38.81145,142],[-90.39107,38.81148,142],[-90.39109,38.81151,142],[-90.39109,38.81155,143],[-90.39107,38.81157,143],[-90.39105,38.8116,144],[-90.39103,38.81162,144],[-90.39099,38.81165,145],[-90.39097,38.81167,146],[-90.39095,38.81169,146],[-90.39094,38.81172,147],[-90.39092,38.81175,147],[-90.39091,38.81178,147],[-90.3909,38.81181,148],[-90.3909,38.81184,148],[-90.3909,38.81187,148],[-90.39091,38.81191,149],[-90.39091,38.81194,149],[-90.3909,38.81197,149],[-90.39089,38.812,149],[-90.39088,38.81203,149],[-90.39086,38.81206,149],[-90.39086,38.81209,149],[-90.39085,38.81212,149],[-90.39084,38.81215,149],[-90.39085,38.81219,149],[-90.39087,38.81222,149],[-90.39088,38.81226,148],[-90.39088,38.8123,148],[-90.3909,38.81232,147],[-90.39091,38.81236,146],[-90.39092,38.8124,145],[-90.39092,38.81243,144],[-90.39091,38.81246,144],[-90.39091,38.8125,143],[-90.39092,38.81253,143],[-90.39092,38.81257,144],[-90.39093,38.8126,145],[-90.39094,38.81262,145],[-90.39095,38.81265,146],[-90.39097,38.81268,146],[-90.39099,38.81271,147],[-90.39099,38.81274,147],[-90.39101,38.81278,148],[-90.39104,38.8128,148],[-90.39106,38.81283,149],[-90.39108,38.81286,149],[-90.39109,38.81289,150],[-90.3911,38.81293,150],[-90.3911,38.81296,151],[-90.39111,38.813,152],[-90.39112,38.81302,152],[-90.39112,38.81305,153],[-90.39113,38.81309,153],[-90.39115,38.81312,153],[-90.39117,38.81314,153],[-90.39121,38.81316,152],[-90.39124,38.81318,152],[-90.39126,38.81321,152],[-90.39128,38.81324,152],[-90.39132,38.81327,151],[-90.39135,38.81329,151],[-90.39139,38.8133,150],[-90.39142,38.81332,150],[-90.39146,38.81334,149],[-90.39149,38.81337,149],[-90.39151,38.8134,148],[-90.39153,38.81343,148],[-90.39156,38.81346,147],[-90.39157,38.81348,146],[-90.39159,38.81352,146],[-90.39158,38.81356,145],[-90.39157,38.81359,145],[-90.39155,38.81362,146],[-90.39155,38.81365,146],[-90.39156,38.81369,147],[-90.39158,38.81371,146],[-90.3916,38.81374,146],[-90.39162,38.81376,146],[-90.39166,38.81379,146],[-90.39169,38.81381,145],[-90.39174,38.81382,144],[-90.39178,38.81383,143],[-90.39181,38.81385,142],[-90.39184,38.81387,141],[-90.39187,38.81388,140],[-90.39192,38.81391,139],[-90.39195,38.81393,139],[-90.39199,38.81395,140],[-90.39203,38.81397,140],[-90.39205,38.81399,141],[-90.39207,38.81402,143],[-90.39209,38.81404,144],[-90.39212,38.81407,145],[-90.39216,38.8141,147],[-90.3922,38.81412,148],[-90.39224,38.81411,147],[-90.39228,38.81409,146],[-90.39246,38.81391,138],[-90.39247,38.81388,137],[-90.39245,38.81385,137],[-90.39249,38.81383,138],[-90.39252,38.81382,138],[-90.39256,38.81381,138],[-90.39259,38.81379,138],[-90.3926,38.81375,138],[-90.39261,38.81372,138],[-90.39261,38.81368,138],[-90.39262,38.81365,138],[-90.39264,38.81362,138],[-90.39268,38.81359,138],[-90.3927,38.81356,137],[-90.39271,38.81353,137],[-90.39271,38.8135,137],[-90.39273,38.81348,136],[-90.39272,38.81344,136],[-90.39268,38.81341,136],[-90.39265,38.81339,136],[-90.39263,38.81337,136],[-90.39259,38.81334,136],[-90.39257,38.81332,136],[-90.39254,38.8133,136],[-90.39251,38.81327,136],[-90.39249,38.81325,136],[-90.39246,38.81322,136],[-90.39244,38.8132,136],[-90.39242,38.81317,136],[-90.39239,38.81314,136],[-90.39235,38.81312,136],[-90.39232,38.81311,136],[-90.39228,38.81309,137],[-90.39224,38.81307,137],[-90.39221,38.81304,137],[-90.39218,38.81301,137],[-90.39215,38.81299,137],[-90.39212,38.81296,137],[-90.39208,38.81295,137],[-90.39203,38.81295,137],[-90.39199,38.81294,137],[-90.39196,38.81292,137],[-90.3919,38.81291,137],[-90.39187,38.8129,137],[-90.39183,38.81289,138],[-90.39179,38.81288,138],[-90.39175,38.81285,138],[-90.39172,38.81286,139],[-90.39168,38.81284,139],[-90.39165,38.81283,140],[-90.39161,38.81281,140],[-90.39158,38.81279,140],[-90.39158,38.81275,139],[-90.39158,38.81272,139],[-90.39158,38.81268,138],[-90.39159,38.81265,137],[-90.39161,38.81262,137],[-90.39163,38.8126,136],[-90.39167,38.81258,136],[-90.3917,38.81256,135],[-90.39174,38.81254,135],[-90.39177,38.81252,135],[-90.3918,38.8125,135],[-90.39181,38.81247,135],[-90.39183,38.81244,135],[-90.39184,38.81242,135],[-90.39185,38.81238,135],[-90.39187,38.81235,136],[-90.39188,38.81232,136],[-90.39188,38.81229,136],[-90.39191,38.81225,136],[-90.39193,38.81223,137],[-90.39195,38.8122,137],[-90.39196,38.81218,137],[-90.392,38.81216,137],[-90.39204,38.81217,136],[-90.39208,38.81217,136],[-90.39212,38.81217,136],[-90.39215,38.81218,136],[-90.3922,38.8122,136],[-90.39223,38.81223,135],[-90.39225,38.81225,135],[-90.39227,38.81227,135],[-90.3923,38.81229,135],[-90.39234,38.8123,135],[-90.39238,38.81233,135],[-90.39241,38.81235,135],[-90.39243,38.81238,135],[-90.39245,38.8124,135],[-90.39248,38.81242,135],[-90.39252,38.81244,135],[-90.39255,38.81245,135],[-90.39258,38.81247,135],[-90.39262,38.8125,135],[-90.39265,38.81252,134],[-90.39269,38.81254,134],[-90.39273,38.81256,134],[-90.39277,38.81259,134],[-90.39281,38.81261,134],[-90.39284,38.81262,134],[-90.39287,38.81265,134],[-90.3929,38.81266,134],[-90.39293,38.81267,134],[-90.39296,38.81269,134],[-90.393,38.81271,134],[-90.39304,38.81273,134],[-90.39308,38.81275,134],[-90.39311,38.81278,134],[-90.39314,38.81281,134],[-90.39318,38.81284,134],[-90.3932,38.81286,134],[-90.39324,38.81289,134],[-90.39328,38.81292,133],[-90.39332,38.81293,133],[-90.39336,38.81293,133],[-90.39341,38.81292,133],[-90.39345,38.81291,133],[-90.39348,38.81289,133],[-90.39353,38.81286,133],[-90.39357,38.81285,133],[-90.39361,38.81283,133],[-90.39365,38.81281,133],[-90.3937,38.8128,133],[-90.39374,38.81278,133],[-90.39376,38.81276,134],[-90.39379,38.81274,134],[-90.39382,38.81272,134],[-90.39385,38.8127,134],[-90.39388,38.81268,135],[-90.39391,38.81266,135],[-90.39394,38.81262,135],[-90.39397,38.8126,135],[-90.39401,38.81258,135],[-90.39404,38.81257,135],[-90.39408,38.81254,136],[-90.39411,38.81251,136],[-90.39414,38.81249,137],[-90.39417,38.81247,137],[-90.39419,38.81244,137],[-90.39422,38.81242,137],[-90.39427,38.8124,136],[-90.3943,38.81238,136],[-90.39434,38.81237,136],[-90.39437,38.81235,136],[-90.39439,38.81232,137],[-90.39441,38.81229,137],[-90.39443,38.81226,137],[-90.39445,38.81223,137],[-90.39447,38.8122,137],[-90.39449,38.81217,137],[-90.39451,38.81214,137],[-90.39454,38.81211,137],[-90.39457,38.81209,137],[-90.3946,38.81207,137],[-90.39462,38.81205,137],[-90.39464,38.81203,137],[-90.39467,38.812,137],[-90.3947,38.81196,137],[-90.39473,38.81194,136],[-90.39477,38.81191,136],[-90.39479,38.81189,135],[-90.39483,38.81186,135],[-90.39486,38.81184,135],[-90.39489,38.81181,134],[-90.39492,38.81178,134],[-90.39494,38.81176,133],[-90.39497,38.81175,133],[-90.395,38.81173,133],[-90.39503,38.81171,133]]],
        "bbox": [
          -90.38753,
          38.81735,
          -90.39503,
          38.81108
        ]
      },
      "properties": {
        "name": "7.12.2020"
      }
    }
  ]
}