{
  "type": "FeatureCollection",
  "features": [
    {
      "type": "Feature",
      "geometry": {
        "type": "MultiLineString",
        "coordinates": [[[-90.39525,38.8116,132],[-90.39521,38.8116,132],[-90.39517,38.8116,132],[-90.39517,38.81164,132],[-90.39512,38.81165,132],[-90.39508,38.81166,132],[-90.39504,38.81167,133],[-90.39501,38.81168,133],[-90.39498,38.8117,133],[-90.39496,38.81172,133],[-90.39493,38.81173,133],[-90.39489,38.81175,134],[-90.39486,38.81177,134],[-90.39482,38.81179,134],[-90.39479,38.81182,135],[-90.39476,38.81185,135],[-90.39472,38.81187,136],[-90.39469,38.81189,136],[-90.39466,38.81192,136],[-90.39462,38.81195,137],[-90.3946,38.81197,137],[-90.39458,38.81199,137],[-90.39456,38.81202,137],[-90.39453,38.81204,137],[-90.39449,38.81206,137],[-90.39446,38.81209,137],[-90.39444,38.81212,138],[-90.39442,38.81214,138],[-90.39439,38.81217,138],[-90.39436,38.81219,138],[-90.39434,38.81221,138],[-90.39431,38.81224,137],[-90.39429,38.81226,137],[-90.39426,38.81228,137],[-90.39423,38.8123,137],[-90.39421,38.81233,137],[-90.39419,38.81235,137],[-90.39416,38.81238,137],[-90.39413,38.81241,137],[-90.39411,38.81243,137],[-90.39408,38.81245,137],[-90.39406,38.81247,137],[-90.39403,38.81249,137],[-90.39399,38.81252,136],[-90.39396,38.81255,136],[-90.39392,38.81257,136],[-90.39389,38.8126,135],[-90.39385,38.81262,135],[-90.39382,38.81264,135],[-90.39378,38.81266,135],[-90.39374,38.81268,134],[-90.3937,38.8127,134],[-90.39368,38.81272,134],[-90.39366,38.81274,134],[-90.39362,38.81276,134],[-90.39358,38.81277,134],[-90.39355,38.81279,134],[-90.39352,38.81281,134],[-90.39348,38.81282,134],[-90.39345,38.81284,134],[-90.39342,38.81286,134],[-90.39339,38.81288,134],[-90.39336,38.81289,134],[-90.39333,38.81291,134],[-90.3933,38.81293,133],[-90.39328,38.81296,133],[-90.39326,38.81298,133],[-90.39324,38.81301,133],[-90.39321,38.81303,133],[-90.39317,38.81306,132],[-90.39315,38.81308,132],[-90.39312,38.81311,132],[-90.39308,38.81314,132],[-90.39306,38.81316,132],[-90.39303,38.81318,133],[-90.393,38.81321,133],[-90.39296,38.81323,133],[-90.39292,38.81326,133],[-90.39287,38.81329,134],[-90.39284,38.81331,134],[-90.39281,38.81334,134],[-90.39278,38.81337,135],[-90.39275,38.8134,135],[-90.39273,38.81342,136],[-90.3927,38.81345,136],[-90.39268,38.81346,136],[-90.39264,38.81347,137],[-90.39262,38.81344,137],[-90.39258,38.81342,137],[-90.39255,38.8134,137],[-90.39252,38.81338,137],[-90.3925,38.81335,137],[-90.39246,38.81332,137],[-90.39244,38.8133,137],[-90.39241,38.81327,137],[-90.39237,38.81324,137],[-90.39235,38.81322,137],[-90.39233,38.81319,137],[-90.3923,38.81316,137],[-90.39227,38.81314,137],[-90.39224,38.81312,137],[-90.39221,38.8131,137],[-90.39218,38.81306,137],[-90.39214,38.81303,137],[-90.39211,38.81302,137],[-90.39207,38.813,137],[-90.39203,38.81298,137],[-90.39199,38.81297,137],[-90.39195,38.81295,137],[-90.39192,38.81294,137],[-90.3919,38.81291,137],[-90.39187,38.81289,137],[-90.39184,38.81288,138],[-90.3918,38.81286,138],[-90.39176,38.81285,138],[-90.39173,38.81283,138],[-90.3917,38.81281,138],[-90.39166,38.81279,139],[-90.39162,38.81277,139],[-90.39158,38.81275,139],[-90.39157,38.81272,139],[-90.39157,38.81268,138],[-90.39157,38.81265,138],[-90.39158,38.81262,137],[-90.39159,38.81265,137],[-90.39162,38.81267,137],[-90.39166,38.81269,137],[-90.3917,38.81271,137],[-90.39173,38.81273,137],[-90.39177,38.81276,137],[-90.39179,38.81279,137],[-90.39182,38.81281,137],[-90.39184,38.81284,137],[-90.39187,38.81287,137],[-90.39189,38.81291,137],[-90.39191,38.81293,137],[-90.39194,38.81295,137],[-90.39197,38.81298,137],[-90.39199,38.813,137],[-90.39202,38.81303,138],[-90.39205,38.81306,138],[-90.39208,38.81308,138],[-90.39211,38.81311,138],[-90.39214,38.81313,138],[-90.39217,38.81316,138],[-90.3922,38.81319,138],[-90.39223,38.81321,138],[-90.39226,38.81323,138],[-90.39229,38.81325,138],[-90.39232,38.81327,137],[-90.39235,38.81329,137],[-90.39239,38.81329,137],[-90.39243,38.8133,137],[-90.39246,38.81332,137],[-90.39249,38.81334,137],[-90.39252,38.81335,137],[-90.39257,38.81336,136],[-90.39261,38.81337,136],[-90.39265,38.81339,136],[-90.39266,38.81342,136],[-90.39265,38.81345,137],[-90.39264,38.81348,137],[-90.39261,38.81352,137],[-90.39259,38.81354,138],[-90.39256,38.81356,138],[-90.39254,38.81358,138],[-90.39253,38.81361,138],[-90.39252,38.81364,138],[-90.39251,38.81367,138],[-90.3925,38.8137,138],[-90.39248,38.81373,138],[-90.39246,38.81376,138],[-90.39246,38.81381,137],[-90.39246,38.81384,137],[-90.39246,38.81387,137],[-90.39242,38.81389,136],[-90.39239,38.81391,137],[-90.39237,38.81393,137],[-90.39234,38.81395,138],[-90.39232,38.81398,139],[-90.39229,38.81401,141],[-90.39225,38.81403,142],[-90.39221,38.81404,142],[-90.39217,38.81406,144],[-90.39213,38.81406,144],[-90.39209,38.81407,145],[-90.39205,38.81408,146],[-90.39201,38.81409,147],[-90.39198,38.8141,148],[-90.39194,38.81411,149],[-90.3919,38.81412,150],[-90.39187,38.81414,152],[-90.39182,38.81415,154],[-90.39179,38.81416,155],[-90.39177,38.81419,157],[-90.39176,38.81421,157],[-90.39176,38.81424,158],[-90.39177,38.81427,159],[-90.3918,38.81429,158],[-90.39183,38.81431,158],[-90.39186,38.81433,158],[-90.39188,38.81435,158],[-90.3919,38.81438,158],[-90.39192,38.81441,158],[-90.39194,38.81447,159],[-90.39194,38.81453,160],[-90.39197,38.81459,160],[-90.39199,38.81465,161],[-90.39198,38.81468,161],[-90.39196,38.81471,162],[-90.39197,38.81474,162],[-90.39198,38.81477,162],[-90.39199,38.81481,163],[-90.392,38.81484,163],[-90.39201,38.81487,163],[-90.392,38.8149,163],[-90.39198,38.81492,164],[-90.39195,38.81495,165],[-90.39193,38.81498,166],[-90.39194,38.81501,166],[-90.39195,38.81504,167],[-90.39196,38.81507,168],[-90.39198,38.8151,168],[-90.392,38.81512,168],[-90.39202,38.81515,169],[-90.39203,38.81519,170],[-90.39203,38.81522,171],[-90.39202,38.81525,172],[-90.39201,38.81529,174],[-90.39199,38.81532,174],[-90.39198,38.81535,175],[-90.39197,38.81538,175],[-90.39197,38.81541,176]],[[-90.39199,38.81571,172],[-90.39194,38.81573,174],[-90.39188,38.81574,175],[-90.39183,38.81573,177],[-90.3918,38.81574,177],[-90.39177,38.81575,178],[-90.39172,38.81575,179],[-90.39169,38.81575,180],[-90.39165,38.81573,181],[-90.39163,38.81569,181],[-90.3916,38.81566,182],[-90.39158,38.81563,182],[-90.39156,38.8156,183],[-90.39155,38.81558,183],[-90.39152,38.81556,184],[-90.39149,38.81555,184],[-90.39146,38.81553,184],[-90.39143,38.81551,184],[-90.39138,38.81549,185],[-90.39134,38.81548,185],[-90.3913,38.81547,185],[-90.39126,38.81546,185],[-90.39122,38.81546,185],[-90.39117,38.81546,186],[-90.39114,38.81546,186],[-90.3911,38.81546,186],[-90.39105,38.81547,186],[-90.39101,38.81547,186],[-90.39097,38.81547,185],[-90.39092,38.81547,185],[-90.39087,38.81548,185],[-90.39084,38.81549,185],[-90.39079,38.81549,185],[-90.39075,38.81549,184],[-90.39071,38.81549,184],[-90.39066,38.81549,183],[-90.39061,38.81549,183],[-90.39057,38.81548,182],[-90.39053,38.81548,182],[-90.39049,38.81547,181],[-90.39045,38.81548,181],[-90.39041,38.81547,180],[-90.39037,38.81546,180],[-90.39035,38.81544,180],[-90.39032,38.81542,180],[-90.39029,38.81541,180],[-90.39025,38.81541,180],[-90.39021,38.81539,180],[-90.39017,38.81538,180],[-90.39014,38.81537,180],[-90.3901,38.81536,180],[-90.39007,38.81534,180],[-90.39004,38.81531,181],[-90.39001,38.81529,181],[-90.38997,38.81527,182],[-90.38995,38.81525,182],[-90.38993,38.81522,183],[-90.38991,38.8152,184],[-90.38989,38.81517,184],[-90.38987,38.81514,185],[-90.38985,38.8151,186],[-90.38983,38.81508,187],[-90.3898,38.81506,187],[-90.38977,38.81503,188],[-90.38977,38.815,189],[-90.38977,38.81497,189],[-90.38977,38.81493,189],[-90.38975,38.81489,190],[-90.38974,38.81486,190],[-90.38974,38.81482,190],[-90.38975,38.81479,191],[-90.38976,38.81476,191],[-90.38976,38.81473,192],[-90.38976,38.8147,191],[-90.38976,38.81466,191],[-90.38976,38.81463,190],[-90.38974,38.8146,190],[-90.38973,38.81457,190],[-90.38975,38.81453,189],[-90.38976,38.8145,189],[-90.38975,38.81446,189],[-90.38972,38.81444,188],[-90.38969,38.81442,188],[-90.38966,38.8144,188],[-90.38964,38.81437,187],[-90.38962,38.81435,187],[-90.38959,38.81433,187],[-90.38954,38.81432,187],[-90.38951,38.81431,188],[-90.38945,38.81429,188],[-90.38935,38.81428,190],[-90.38927,38.81427,191],[-90.38919,38.81426,192],[-90.3891,38.81424,192],[-90.38903,38.81422,192],[-90.38894,38.8142,192],[-90.38887,38.81418,193],[-90.38878,38.81417,194],[-90.3887,38.81414,195],[-90.38862,38.81411,196],[-90.38854,38.81408,196],[-90.38847,38.81405,197],[-90.38841,38.81403,197],[-90.38837,38.81402,198],[-90.38834,38.81401,198],[-90.38829,38.814,198],[-90.38824,38.81398,198],[-90.38821,38.81397,198],[-90.38818,38.81396,198],[-90.38814,38.81396,198],[-90.3881,38.81396,199],[-90.38805,38.81396,199],[-90.38801,38.81396,199],[-90.38797,38.81397,199],[-90.38793,38.81397,199],[-90.38789,38.81397,199],[-90.38784,38.81397,199],[-90.3878,38.81396,199],[-90.38776,38.81396,200],[-90.38773,38.81396,200],[-90.38769,38.81397,200],[-90.38766,38.81398,200],[-90.38762,38.81399,200],[-90.3876,38.81395,200],[-90.38757,38.81392,200],[-90.38754,38.81389,199],[-90.38753,38.81386,199],[-90.38752,38.81383,199],[-90.38756,38.81382,199],[-90.3876,38.81384,199],[-90.38764,38.81385,199],[-90.38765,38.81387,199],[-90.38763,38.8139,200],[-90.38759,38.81391,200],[-90.38754,38.81392,200],[-90.3875,38.81394,200],[-90.38745,38.81394,200],[-90.38741,38.81394,199],[-90.38736,38.81393,199],[-90.38733,38.81392,199],[-90.38729,38.81391,199],[-90.38725,38.8139,199],[-90.38721,38.81389,198],[-90.38717,38.81388,198],[-90.38713,38.81388,198],[-90.3871,38.81387,198],[-90.38706,38.81387,198],[-90.38702,38.81387,198],[-90.38697,38.81388,198],[-90.38694,38.8139,199],[-90.3869,38.81392,199],[-90.38686,38.81392,199],[-90.38682,38.81391,198],[-90.38678,38.81391,198],[-90.38674,38.8139,198],[-90.3867,38.81391,198],[-90.38665,38.81392,198],[-90.38661,38.81393,198],[-90.38657,38.81395,197],[-90.38653,38.81396,197],[-90.3865,38.81398,197],[-90.38647,38.814,197],[-90.38644,38.81403,197],[-90.38642,38.81404,197],[-90.38643,38.81407,198],[-90.38647,38.81408,198],[-90.38651,38.81408,198],[-90.38655,38.81409,199],[-90.38659,38.81408,199],[-90.38663,38.81408,199],[-90.38667,38.81407,199],[-90.38671,38.81406,200],[-90.38675,38.81405,200],[-90.3868,38.81405,200],[-90.38684,38.81406,200],[-90.38689,38.81406,200],[-90.38693,38.81407,200],[-90.38698,38.81406,200],[-90.38701,38.81405,200],[-90.38705,38.81404,200],[-90.38709,38.81403,200],[-90.38713,38.81402,200],[-90.38717,38.81401,200],[-90.38722,38.814,200],[-90.38725,38.814,200],[-90.38729,38.81399,200],[-90.38733,38.81399,200],[-90.38738,38.81398,200],[-90.38742,38.81397,200],[-90.38746,38.81396,200],[-90.3875,38.81396,200],[-90.38754,38.81396,200],[-90.38758,38.81396,200],[-90.38759,38.81393,200],[-90.38758,38.8139,200],[-90.38756,38.81388,199],[-90.38754,38.81386,199],[-90.38751,38.81384,199],[-90.38749,38.81381,198],[-90.38748,38.81378,198],[-90.38748,38.81375,197],[-90.38749,38.81371,197],[-90.38749,38.81368,196],[-90.3875,38.81364,196],[-90.38752,38.81362,196],[-90.38754,38.81359,196],[-90.38754,38.81355,195],[-90.38754,38.81352,195],[-90.38754,38.8135,195],[-90.38755,38.81346,195],[-90.38756,38.81343,195],[-90.38756,38.8134,194],[-90.38755,38.81337,194],[-90.38756,38.81334,194],[-90.38759,38.81332,194],[-90.38763,38.81331,194],[-90.38767,38.81331,195],[-90.38771,38.81331,195],[-90.38775,38.81331,195],[-90.3878,38.81331,195],[-90.38784,38.81329,195],[-90.38787,38.81327,195],[-90.3879,38.81325,194],[-90.38793,38.81322,194],[-90.38792,38.81319,193],[-90.38792,38.81316,193],[-90.38794,38.81314,193],[-90.38796,38.81311,192],[-90.38797,38.81308,191],[-90.38797,38.81305,191],[-90.38798,38.81302,191],[-90.38798,38.81299,190],[-90.38798,38.81295,190],[-90.38798,38.81292,189],[-90.38798,38.81289,189],[-90.38798,38.81286,189],[-90.38801,38.81284,188],[-90.38805,38.81282,188],[-90.38809,38.81281,187],[-90.38811,38.81278,186],[-90.38814,38.81277,185],[-90.38817,38.81276,184],[-90.38821,38.81276,183],[-90.38825,38.81277,182],[-90.38829,38.81278,181],[-90.38832,38.81277,180],[-90.38835,38.81276,179],[-90.38838,38.81274,177],[-90.38838,38.81271,177],[-90.3884,38.81268,176],[-90.38842,38.81266,175],[-90.38841,38.81263,175],[-90.38841,38.8126,174],[-90.38842,38.81256,173],[-90.38842,38.81252,173],[-90.38842,38.8125,173],[-90.38844,38.81247,171],[-90.38845,38.81244,171],[-90.38847,38.81241,169],[-90.3885,38.81239,169],[-90.38854,38.81238,168],[-90.38857,38.81237,167],[-90.3886,38.81235,166],[-90.38863,38.81233,165],[-90.38864,38.8123,165],[-90.38863,38.81227,164],[-90.38861,38.81225,164],[-90.3886,38.81221,164],[-90.38859,38.81218,164],[-90.38858,38.81215,163],[-90.38856,38.81211,164],[-90.38854,38.81207,164],[-90.38853,38.81204,164],[-90.38851,38.812,164],[-90.3885,38.81197,164],[-90.38851,38.81194,163],[-90.38852,38.81191,163],[-90.38852,38.81188,164],[-90.38853,38.81185,164],[-90.38854,38.81182,164],[-90.38856,38.81179,164],[-90.38857,38.81176,164],[-90.3886,38.81175,164],[-90.38864,38.81172,163],[-90.38866,38.8117,163],[-90.38867,38.81166,163],[-90.38867,38.81163,163],[-90.38868,38.8116,163],[-90.38869,38.81157,163],[-90.38872,38.81155,162],[-90.38875,38.81154,162],[-90.38879,38.81154,161],[-90.38884,38.81154,160],[-90.38888,38.81153,159],[-90.38892,38.81152,158],[-90.38895,38.81151,157],[-90.38898,38.81149,156],[-90.38902,38.81148,155],[-90.38906,38.81147,154],[-90.38911,38.81146,153],[-90.38915,38.81145,152],[-90.38918,38.81143,152],[-90.38921,38.8114,152],[-90.38924,38.81138,152],[-90.38927,38.81135,152],[-90.3893,38.81131,152],[-90.38934,38.81128,152],[-90.38936,38.81125,152],[-90.38939,38.81122,152],[-90.38941,38.8112,152],[-90.38945,38.81118,151],[-90.38949,38.81117,151],[-90.38955,38.81117,151],[-90.3896,38.81118,151],[-90.38965,38.81119,151],[-90.3897,38.8112,150],[-90.38973,38.8112,150],[-90.38978,38.8112,149],[-90.38981,38.81118,149],[-90.38984,38.81116,149],[-90.38987,38.81115,148],[-90.38991,38.81114,148],[-90.38996,38.81115,147],[-90.39,38.81115,146],[-90.39005,38.81116,145],[-90.39009,38.81116,145],[-90.39011,38.81118,145],[-90.39015,38.8112,144],[-90.39019,38.81121,144],[-90.39022,38.81119,143],[-90.39026,38.81118,143],[-90.3903,38.81118,142],[-90.39034,38.81119,142],[-90.39038,38.81121,142],[-90.39041,38.81124,142],[-90.39044,38.81126,142],[-90.39048,38.81127,142],[-90.39051,38.81127,142],[-90.39055,38.81127,142],[-90.39059,38.81126,142],[-90.39062,38.81124,142],[-90.39066,38.81122,142],[-90.3907,38.8112,141],[-90.39074,38.81119,141],[-90.39078,38.81119,141],[-90.39082,38.8112,141],[-90.39085,38.81122,141],[-90.39089,38.81124,141],[-90.39092,38.81126,141],[-90.39094,38.81128,141],[-90.39098,38.8113,141],[-90.39102,38.81132,140],[-90.39104,38.81134,141],[-90.39106,38.81136,141],[-90.39109,38.81138,141],[-90.39112,38.8114,141],[-90.39114,38.81143,141],[-90.39116,38.81146,141],[-90.39117,38.8115,141],[-90.39117,38.81153,142],[-90.39115,38.81156,142],[-90.39113,38.81159,143],[-90.39111,38.81162,144],[-90.39108,38.81165,144],[-90.39105,38.81167,145],[-90.39102,38.8117,146],[-90.391,38.81173,146],[-90.391,38.81175,147],[-90.39099,38.81178,147],[-90.39099,38.81181,148],[-90.39099,38.81185,149],[-90.39099,38.81188,149],[-90.391,38.8119,150],[-90.39101,38.81193,150],[-90.39101,38.81197,150],[-90.39099,38.812,150],[-90.39098,38.81204,150],[-90.39096,38.81206,150],[-90.39096,38.81209,149],[-90.39097,38.81212,149],[-90.39096,38.81216,149],[-90.39096,38.81218,149],[-90.39097,38.81221,149],[-90.39098,38.81224,148],[-90.39099,38.81227,148],[-90.391,38.8123,147],[-90.39101,38.81233,146],[-90.39103,38.81236,145],[-90.39104,38.81239,144],[-90.39105,38.81242,143],[-90.39106,38.81245,142],[-90.39108,38.81248,141],[-90.39109,38.81251,141],[-90.3911,38.81254,141],[-90.39111,38.81257,142],[-90.39111,38.8126,143],[-90.39112,38.81263,143],[-90.39114,38.81267,144],[-90.39114,38.8127,144],[-90.39114,38.81273,145],[-90.39113,38.81276,146],[-90.39112,38.81279,147],[-90.39113,38.81282,147],[-90.39114,38.81285,148],[-90.39117,38.81287,148],[-90.39118,38.8129,149],[-90.39119,38.81293,149],[-90.39121,38.81296,150],[-90.39123,38.81299,150],[-90.39126,38.81302,150],[-90.39128,38.81305,151],[-90.39129,38.81308,151],[-90.39131,38.81311,151],[-90.39133,38.81313,151],[-90.39136,38.81314,150],[-90.3914,38.81315,150],[-90.39143,38.81317,149],[-90.39145,38.8132,149],[-90.39147,38.81323,149],[-90.39148,38.81326,149],[-90.3915,38.81329,149],[-90.39153,38.81331,148],[-90.39156,38.81334,148],[-90.3916,38.81335,147],[-90.39163,38.81337,147],[-90.39165,38.8134,146],[-90.39169,38.81343,145],[-90.39171,38.81345,144],[-90.39172,38.81348,144],[-90.39171,38.81352,143],[-90.39171,38.81356,143],[-90.39172,38.81359,142],[-90.39174,38.81362,142],[-90.39176,38.81365,142],[-90.39178,38.81368,142],[-90.3918,38.81372,142],[-90.39182,38.81374,142],[-90.39184,38.81377,141],[-90.39187,38.81379,141],[-90.3919,38.81381,140],[-90.39193,38.81382,139],[-90.39196,38.81384,138],[-90.39199,38.81386,137],[-90.39203,38.81389,136],[-90.39205,38.81391,137],[-90.39207,38.81393,138],[-90.3921,38.81396,139],[-90.39213,38.81398,140],[-90.39217,38.814,140],[-90.3922,38.81402,141],[-90.39223,38.81404,142],[-90.39225,38.81408,145],[-90.39227,38.81411,147],[-90.3923,38.81415,149],[-90.39233,38.81416,150],[-90.39235,38.81419,150],[-90.39238,38.81421,151],[-90.3924,38.81423,151],[-90.39243,38.81425,151],[-90.39246,38.81427,152],[-90.3925,38.81428,152],[-90.39254,38.81427,151],[-90.39258,38.81428,151],[-90.39261,38.8143,151],[-90.39265,38.8143,151],[-90.3927,38.81431,150],[-90.39275,38.81433,150],[-90.39278,38.81434,150],[-90.39281,38.81435,150],[-90.39284,38.81436,149],[-90.39288,38.81439,149],[-90.3929,38.81441,149],[-90.39293,38.81443,149],[-90.39295,38.81446,149],[-90.39298,38.81449,148],[-90.39303,38.81451,147],[-90.39305,38.81455,146],[-90.39306,38.81457,146],[-90.39306,38.81461,146],[-90.39305,38.81464,146],[-90.39305,38.81468,146],[-90.39307,38.81472,145],[-90.39309,38.81476,145],[-90.3931,38.81479,145],[-90.39311,38.81482,145],[-90.39311,38.81485,145],[-90.39312,38.81488,145],[-90.39313,38.81491,145],[-90.39313,38.81495,146],[-90.39315,38.81497,145],[-90.39317,38.81501,145],[-90.3932,38.81504,144],[-90.39321,38.81507,143],[-90.39323,38.81509,143],[-90.39326,38.81512,142],[-90.39326,38.81515,142],[-90.39326,38.81519,141],[-90.39324,38.81522,141],[-90.39322,38.81525,142],[-90.39319,38.81527,142],[-90.39317,38.8153,142],[-90.39314,38.81532,142],[-90.3931,38.81534,143],[-90.39308,38.81536,142],[-90.39304,38.81538,143],[-90.393,38.81539,143],[-90.39296,38.8154,144],[-90.39292,38.81541,145],[-90.39288,38.81542,146],[-90.39283,38.81541,147],[-90.3928,38.81542,148],[-90.39277,38.81544,148],[-90.39275,38.81547,148],[-90.39271,38.81548,149],[-90.39267,38.81549,150],[-90.39263,38.8155,151],[-90.39262,38.81553,151],[-90.39263,38.81557,150],[-90.39264,38.8156,149],[-90.39265,38.81563,148],[-90.39265,38.81566,147],[-90.39266,38.8157,146],[-90.39266,38.81572,146],[-90.39266,38.81576,145],[-90.39266,38.81579,144],[-90.39267,38.81582,143],[-90.39269,38.81584,142],[-90.39272,38.81587,141],[-90.39273,38.8159,141],[-90.39272,38.81593,141],[-90.39274,38.81596,141],[-90.39271,38.81598,142],[-90.39267,38.816,143],[-90.39264,38.81601,144],[-90.3926,38.81603,145],[-90.39255,38.81605,147],[-90.39252,38.81606,148],[-90.39248,38.81608,149],[-90.39246,38.8161,150],[-90.39243,38.81612,150],[-90.39241,38.81615,150],[-90.39239,38.81617,151],[-90.39237,38.81619,151],[-90.39234,38.81621,151],[-90.39234,38.81624,150],[-90.39233,38.81627,150],[-90.39233,38.8163,149],[-90.39233,38.81633,148],[-90.39232,38.81635,148],[-90.39231,38.81639,147],[-90.39229,38.81642,147],[-90.39227,38.81645,147],[-90.39225,38.81648,147],[-90.39223,38.8165,147],[-90.39219,38.81653,148],[-90.39217,38.81655,148],[-90.39217,38.81658,147],[-90.39214,38.8166,148],[-90.39211,38.81662,148],[-90.39208,38.81664,148],[-90.39205,38.81665,149],[-90.39201,38.81667,149],[-90.39199,38.81669,150],[-90.39196,38.81672,150],[-90.39193,38.81674,150],[-90.3919,38.81676,150],[-90.39188,38.81679,150],[-90.39186,38.81681,150],[-90.39184,38.81684,150],[-90.39183,38.81687,149],[-90.39181,38.8169,149],[-90.39178,38.81691,149],[-90.39174,38.81693,148],[-90.39171,38.81695,147],[-90.39167,38.81697,146],[-90.39164,38.81698,147],[-90.3916,38.817,146],[-90.39157,38.81701,147],[-90.39154,38.81704,146],[-90.3915,38.81706,146],[-90.39147,38.81708,145],[-90.39144,38.8171,145],[-90.39141,38.81712,145],[-90.39138,38.81713,145],[-90.39135,38.81714,145],[-90.39131,38.81716,145],[-90.39127,38.81717,145],[-90.39124,38.81717,145],[-90.3912,38.81719,145],[-90.39117,38.81722,145],[-90.39113,38.81723,145],[-90.39111,38.81725,145],[-90.39107,38.81727,145],[-90.39105,38.81729,145],[-90.39103,38.81732,144],[-90.39101,38.81734,144],[-90.39097,38.81735,144],[-90.39096,38.81738,144],[-90.39096,38.81742,142],[-90.39094,38.81744,142],[-90.39092,38.81747,141],[-90.39088,38.81749,141],[-90.39084,38.81752,141],[-90.3908,38.81752,142],[-90.39076,38.81752,142],[-90.39072,38.81752,143],[-90.39069,38.81753,143],[-90.39065,38.81753,144],[-90.39061,38.81753,144],[-90.39058,38.81752,145],[-90.39055,38.81751,145],[-90.39051,38.81752,146],[-90.3905,38.81754,145],[-90.39053,38.81757,144],[-90.39054,38.8176,143],[-90.39056,38.81762,143],[-90.39058,38.81765,142],[-90.39058,38.81768,141],[-90.39055,38.8177,141],[-90.3905,38.81771,142],[-90.39047,38.81772,142],[-90.39043,38.81772,142],[-90.39039,38.81773,142],[-90.39035,38.81775,142],[-90.39032,38.81777,142],[-90.39029,38.81778,142],[-90.39025,38.8178,143],[-90.39022,38.81783,143],[-90.3902,38.81785,143],[-90.39015,38.81785,144],[-90.3901,38.81785,145],[-90.39006,38.81784,145],[-90.39003,38.81783,146],[-90.38999,38.81784,146],[-90.38995,38.81786,147],[-90.38992,38.81788,147],[-90.38988,38.81789,147],[-90.38984,38.81791,147],[-90.3898,38.81793,147],[-90.38977,38.81795,147],[-90.38974,38.81798,147],[-90.38971,38.818,147],[-90.38967,38.81802,147],[-90.38964,38.81803,147],[-90.3896,38.81804,147],[-90.38956,38.81804,147],[-90.38952,38.81804,147],[-90.38948,38.81803,147],[-90.38944,38.818,148],[-90.3894,38.81799,149],[-90.38936,38.81798,149],[-90.38932,38.81797,150],[-90.38929,38.81795,151],[-90.38925,38.81794,152],[-90.38921,38.81793,153],[-90.38917,38.81792,154],[-90.38913,38.81793,154],[-90.38908,38.81794,155],[-90.38905,38.81796,155],[-90.38902,38.81796,156],[-90.38898,38.81797,157],[-90.38893,38.81798,158],[-90.38891,38.818,158],[-90.3889,38.81803,157],[-90.38888,38.81806,156],[-90.38886,38.81809,156],[-90.38885,38.81812,155],[-90.38882,38.81815,154],[-90.38878,38.81817,154],[-90.38876,38.81819,153],[-90.38871,38.8182,154],[-90.38867,38.81821,154],[-90.38863,38.81822,154],[-90.38861,38.81825,153],[-90.3886,38.81827,152],[-90.38856,38.8183,151],[-90.38854,38.81833,150],[-90.38851,38.81834,149],[-90.38847,38.81835,149],[-90.38844,38.81837,148],[-90.3884,38.81839,147],[-90.38838,38.81841,146],[-90.38836,38.81843,145],[-90.38834,38.81846,144],[-90.38833,38.81848,143],[-90.38832,38.81851,142],[-90.38828,38.81853,141],[-90.38825,38.81855,141],[-90.38821,38.81858,140],[-90.38817,38.81861,140],[-90.38813,38.81862,140],[-90.38809,38.81863,141],[-90.38806,38.81864,141],[-90.38801,38.81865,142],[-90.38797,38.81866,142],[-90.38794,38.81867,142],[-90.38791,38.81869,143],[-90.38789,38.81872,142],[-90.38786,38.81873,143],[-90.38782,38.81874,143],[-90.38778,38.81875,144],[-90.38774,38.81876,144],[-90.38771,38.81877,143],[-90.38767,38.81879,143],[-90.38764,38.81881,143],[-90.3876,38.81884,143],[-90.38757,38.81886,142],[-90.38754,38.81889,141],[-90.38752,38.81892,141],[-90.3875,38.81894,140],[-90.38749,38.81898,139],[-90.38748,38.81901,138],[-90.38747,38.81904,137],[-90.38745,38.81906,136],[-90.38742,38.81908,135],[-90.38739,38.8191,135],[-90.38735,38.81912,134],[-90.38731,38.81914,133],[-90.38728,38.81916,132],[-90.38724,38.81916,132],[-90.38721,38.81917,132],[-90.38717,38.81918,132],[-90.38713,38.81918,132],[-90.3871,38.81919,132],[-90.38707,38.81922,132],[-90.38703,38.81923,132],[-90.38699,38.81925,132],[-90.38696,38.81926,132],[-90.38692,38.81928,132],[-90.38689,38.8193,132],[-90.38685,38.81932,133],[-90.38682,38.81934,133],[-90.38679,38.81936,133],[-90.38678,38.81939,132],[-90.38676,38.81941,132],[-90.38672,38.81944,132],[-90.38669,38.81945,131],[-90.38666,38.81946,131],[-90.38663,38.81948,131],[-90.38661,38.81951,131],[-90.38658,38.81953,131],[-90.38656,38.81955,131],[-90.38655,38.81958,131],[-90.38655,38.81961,131],[-90.38654,38.81963,131],[-90.38655,38.8196,131],[-90.38657,38.81957,131],[-90.38659,38.81955,131],[-90.38656,38.81953,131],[-90.38652,38.81952,131],[-90.38648,38.8195,131],[-90.38652,38.81949,131],[-90.38654,38.81946,131],[-90.38656,38.81942,132],[-90.38658,38.8194,132],[-90.38662,38.81939,133],[-90.38666,38.81938,133],[-90.38669,38.81936,133],[-90.38674,38.81934,133],[-90.38677,38.81932,133],[-90.3868,38.8193,133],[-90.38685,38.8193,133],[-90.38689,38.81929,133],[-90.38693,38.81929,132],[-90.38696,38.81929,132],[-90.38699,38.81927,132],[-90.38703,38.81926,132],[-90.38706,38.81925,132],[-90.3871,38.81923,132],[-90.38714,38.8192,132],[-90.38717,38.81919,132],[-90.3872,38.81917,132],[-90.38723,38.81916,132],[-90.38726,38.81914,133],[-90.3873,38.81912,134],[-90.38733,38.8191,135],[-90.38735,38.81908,135],[-90.38736,38.81905,136],[-90.38738,38.81902,138],[-90.38739,38.81898,139],[-90.38742,38.81895,140],[-90.38744,38.81892,141],[-90.38747,38.81889,142],[-90.38751,38.81887,142],[-90.38754,38.81885,142],[-90.38758,38.81884,143],[-90.38762,38.81882,143],[-90.38766,38.81881,143],[-90.3877,38.81881,143],[-90.38774,38.8188,143],[-90.38778,38.81878,143],[-90.38782,38.81876,143],[-90.38784,38.81874,143],[-90.38788,38.81872,143],[-90.38792,38.8187,142],[-90.38797,38.81869,142],[-90.388,38.81869,141],[-90.38805,38.81868,141],[-90.38809,38.81866,141],[-90.38812,38.81864,140],[-90.38815,38.81862,140],[-90.38816,38.8186,140],[-90.38818,38.81856,141],[-90.38821,38.81853,142],[-90.38825,38.81851,143],[-90.38828,38.8185,143],[-90.38832,38.81847,144],[-90.38834,38.81845,144],[-90.38838,38.81843,145],[-90.38841,38.81841,146],[-90.38844,38.8184,147],[-90.38847,38.81838,148],[-90.38851,38.81838,148],[-90.38854,38.81835,149],[-90.38857,38.81833,150],[-90.38861,38.81832,150],[-90.38864,38.8183,151],[-90.38867,38.81828,151],[-90.38871,38.81826,151],[-90.38873,38.81824,152],[-90.38874,38.81821,153],[-90.38876,38.81818,154],[-90.38879,38.81816,154],[-90.38883,38.81817,153],[-90.38887,38.81816,153],[-90.3889,38.81814,153],[-90.38893,38.81812,153],[-90.38896,38.81811,152],[-90.389,38.8181,152],[-90.38903,38.81809,152],[-90.38907,38.81809,151],[-90.38911,38.8181,149],[-90.38915,38.8181,148],[-90.38919,38.8181,147],[-90.38923,38.81811,147],[-90.38926,38.81812,146],[-90.3893,38.81812,146],[-90.38934,38.81812,145],[-90.38939,38.81812,145],[-90.38943,38.81812,144],[-90.38948,38.81812,144],[-90.38951,38.81812,144],[-90.38954,38.8181,145],[-90.38958,38.81809,145],[-90.38962,38.81807,146],[-90.38966,38.81805,147],[-90.38969,38.81802,147],[-90.38973,38.818,147],[-90.38977,38.81798,147],[-90.3898,38.81797,147],[-90.38984,38.81796,146],[-90.38989,38.81794,146],[-90.38994,38.81793,146],[-90.38998,38.81792,145],[-90.39002,38.81792,145],[-90.39005,38.81791,144],[-90.39009,38.81791,144],[-90.39013,38.8179,143],[-90.39016,38.81788,143],[-90.3902,38.81786,143],[-90.39023,38.81784,143],[-90.39025,38.81782,142],[-90.39029,38.8178,142],[-90.39032,38.81778,142],[-90.39036,38.81777,142],[-90.3904,38.81775,142],[-90.39044,38.81774,142],[-90.39047,38.81773,141],[-90.3905,38.81771,142],[-90.39054,38.81769,142],[-90.39058,38.81768,141],[-90.39061,38.81766,141],[-90.39064,38.81764,141],[-90.39066,38.81762,142],[-90.3907,38.8176,141],[-90.39074,38.8176,141],[-90.39078,38.81759,141],[-90.39078,38.81756,141],[-90.39081,38.81753,141],[-90.39083,38.8175,142],[-90.39085,38.81748,142],[-90.39086,38.81745,143],[-90.39088,38.81742,144],[-90.3909,38.81739,144],[-90.39092,38.81737,144],[-90.39093,38.81735,145],[-90.39096,38.81732,145],[-90.39098,38.8173,146],[-90.39101,38.81728,146],[-90.39103,38.81726,146],[-90.39106,38.81724,146],[-90.39109,38.81722,146],[-90.39113,38.8172,146],[-90.39116,38.81718,146],[-90.39119,38.81716,147],[-90.39122,38.81714,147],[-90.39125,38.81712,147],[-90.39129,38.81711,147],[-90.39131,38.81708,148],[-90.39134,38.81706,148],[-90.3914,38.81704,148],[-90.39143,38.81704,148],[-90.39148,38.81704,147],[-90.39152,38.81704,146],[-90.39156,38.81702,146],[-90.39159,38.81701,146],[-90.39162,38.81699,147],[-90.39163,38.81696,148],[-90.39165,38.81694,148],[-90.39166,38.8169,149],[-90.39169,38.81687,150],[-90.39172,38.81685,150],[-90.39171,38.81682,151],[-90.39172,38.81678,152],[-90.39175,38.81677,152],[-90.39178,38.81675,152],[-90.39182,38.81673,152],[-90.39185,38.81671,152],[-90.39188,38.81669,151],[-90.3919,38.81666,151],[-90.39191,38.81663,152],[-90.39192,38.8166,152],[-90.39193,38.81657,153],[-90.39196,38.81655,152],[-90.39198,38.81653,152],[-90.39199,38.8165,152],[-90.39204,38.81648,152],[-90.39209,38.81644,151],[-90.39211,38.8164,151],[-90.39214,38.81638,151],[-90.39217,38.81636,151],[-90.3922,38.81634,151],[-90.39222,38.81631,151],[-90.39225,38.8163,151],[-90.39229,38.81629,150],[-90.3923,38.81626,150],[-90.39229,38.81622,152],[-90.39229,38.81619,153],[-90.39228,38.81616,154],[-90.39228,38.81613,155],[-90.39228,38.8161,156],[-90.39227,38.81606,156],[-90.39228,38.81603,156],[-90.3923,38.816,155],[-90.39232,38.81597,155],[-90.39232,38.81594,155],[-90.39232,38.8159,155],[-90.39232,38.81587,155],[-90.39233,38.81583,155],[-90.39235,38.8158,155],[-90.39236,38.81577,155],[-90.39239,38.81575,155],[-90.39241,38.81573,154],[-90.39242,38.8157,155],[-90.39244,38.81567,155],[-90.39247,38.81565,154],[-90.39249,38.81563,154],[-90.39252,38.8156,154],[-90.39256,38.81558,152],[-90.39261,38.81557,151],[-90.39264,38.81556,150],[-90.39267,38.81554,149],[-90.3927,38.81552,148],[-90.39273,38.8155,148],[-90.39274,38.81547,148],[-90.39275,38.81544,149],[-90.39276,38.81541,149],[-90.39277,38.81537,150],[-90.39277,38.81532,152],[-90.39277,38.81529,152],[-90.39276,38.81525,152],[-90.39276,38.81521,152],[-90.39277,38.81517,151],[-90.3928,38.81514,151],[-90.39284,38.8151,150],[-90.39287,38.81504,149],[-90.39285,38.81498,149],[-90.39282,38.81491,150],[-90.39283,38.81483,150],[-90.39284,38.81476,150],[-90.39284,38.8147,150],[-90.39284,38.81464,151],[-90.39286,38.8146,150],[-90.39285,38.81458,150],[-90.39284,38.81455,151],[-90.39283,38.81452,151],[-90.3928,38.8145,152],[-90.39277,38.81449,152],[-90.39273,38.81448,153],[-90.3927,38.81447,153],[-90.39265,38.81445,154],[-90.39261,38.81444,154],[-90.39257,38.81443,154],[-90.39255,38.8144,154],[-90.39252,38.81438,154],[-90.39248,38.81436,154],[-90.39244,38.81435,153],[-90.39242,38.81432,153],[-90.39241,38.81429,152],[-90.39241,38.81426,152],[-90.39241,38.81423,151],[-90.39244,38.8142,150],[-90.39247,38.81417,150],[-90.39249,38.81413,148],[-90.3925,38.8141,147],[-90.39252,38.81406,145],[-90.39254,38.81403,143],[-90.39256,38.814,142],[-90.39257,38.81396,141],[-90.39259,38.81393,139],[-90.39261,38.8139,138],[-90.39264,38.81388,138],[-90.39266,38.81385,138],[-90.39268,38.81382,138],[-90.39269,38.81379,138],[-90.39271,38.81375,138],[-90.39273,38.81371,138],[-90.39274,38.81368,138],[-90.39276,38.81365,138],[-90.39278,38.81363,138],[-90.39279,38.8136,137],[-90.39282,38.81357,137],[-90.39284,38.81354,136],[-90.39287,38.81352,136],[-90.39289,38.8135,135],[-90.39293,38.81346,135],[-90.39296,38.81343,134],[-90.39298,38.81341,134],[-90.393,38.81338,133],[-90.39304,38.81335,133],[-90.39307,38.81333,132],[-90.39309,38.81331,132],[-90.39312,38.81327,132],[-90.39314,38.81324,132],[-90.39317,38.81321,132],[-90.3932,38.81318,132],[-90.39324,38.81315,132],[-90.39326,38.81312,132],[-90.39329,38.8131,132],[-90.39331,38.81307,132],[-90.39332,38.81304,133],[-90.39331,38.813,133],[-90.39331,38.81297,133],[-90.39332,38.81293,133],[-90.39335,38.81291,134],[-90.39338,38.81289,134],[-90.39342,38.81287,134],[-90.39346,38.81285,134],[-90.39349,38.81283,134],[-90.39353,38.8128,134],[-90.39356,38.81278,134],[-90.39359,38.81276,134],[-90.39362,38.81274,134],[-90.39366,38.81271,134],[-90.39369,38.81269,134],[-90.39373,38.81267,134],[-90.39376,38.81264,135],[-90.3938,38.81263,135],[-90.39382,38.81261,135],[-90.39386,38.81259,135],[-90.39389,38.81257,136],[-90.39392,38.81254,136],[-90.39395,38.81252,136],[-90.39397,38.8125,137],[-90.39401,38.81249,137],[-90.39404,38.81247,137],[-90.39406,38.81245,137],[-90.39409,38.81242,137],[-90.39411,38.8124,137],[-90.39413,38.81237,137],[-90.39416,38.81234,137],[-90.39418,38.81232,137],[-90.39421,38.81229,137],[-90.39425,38.81227,137],[-90.39427,38.81225,137],[-90.39431,38.81222,138],[-90.39433,38.8122,138],[-90.39436,38.81218,138],[-90.3944,38.81215,138],[-90.39443,38.81213,138],[-90.39447,38.81211,137],[-90.3945,38.81209,137],[-90.39454,38.81206,137],[-90.39457,38.81203,137],[-90.3946,38.812,137],[-90.39462,38.81198,137],[-90.39465,38.81195,137],[-90.39468,38.81192,136],[-90.39471,38.81191,136],[-90.39474,38.81189,136],[-90.39477,38.81187,135],[-90.3948,38.81184,135],[-90.39483,38.81181,134],[-90.39486,38.81179,134],[-90.39489,38.81177,134],[-90.39492,38.81175,133],[-90.39496,38.81173,133],[-90.395,38.81172,133],[-90.39503,38.8117,133],[-90.39506,38.81168,133],[-90.39509,38.81165,132],[-90.39513,38.81163,132],[-90.39515,38.81161,132],[-90.39517,38.81159,132],[-90.3952,38.81157,132],[-90.39522,38.81154,132]]],
        "bbox": [
          -90.38642,
          38.81963,
          -90.39525,
          38.81114
        ]
      },
      "properties": {
        "name": "11.29.2020"
      }
    }
  ]
}