{
  "type": "FeatureCollection",
  "features": [
    {
      "type": "Feature",
      "geometry": {
        "type": "MultiLineString",
        "coordinates": [[[-90.39063,38.81077,139],[-90.39062,38.8108,139],[-90.39065,38.81083,139],[-90.39068,38.81085,139],[-90.39069,38.81088,139],[-90.39071,38.8109,139],[-90.39075,38.81092,139],[-90.39078,38.81094,139],[-90.3908,38.81096,139],[-90.39083,38.81099,139],[-90.39083,38.81102,140],[-90.39084,38.81105,140],[-90.39084,38.81107,140],[-90.39084,38.8111,140],[-90.39085,38.81113,141],[-90.39086,38.81116,141],[-90.39083,38.81117,141],[-90.39079,38.81117,141],[-90.39075,38.81117,141],[-90.39071,38.81119,141],[-90.39069,38.81121,142],[-90.39067,38.81123,142],[-90.39064,38.81124,142],[-90.3906,38.81124,142],[-90.39057,38.81125,142],[-90.39053,38.81125,142],[-90.3905,38.81123,142],[-90.39048,38.81121,142],[-90.39045,38.81119,142],[-90.39041,38.81118,142],[-90.39038,38.81117,142],[-90.39035,38.81115,142],[-90.39031,38.81116,142],[-90.39027,38.81116,143],[-90.39024,38.81116,143],[-90.3902,38.81115,144],[-90.39017,38.81117,144],[-90.39014,38.81118,144],[-90.3901,38.81117,145],[-90.39007,38.81116,145],[-90.39003,38.81115,146],[-90.38999,38.81114,146],[-90.38995,38.81113,147],[-90.38992,38.81114,147],[-90.38989,38.81116,148],[-90.38985,38.81117,148],[-90.38981,38.81117,149],[-90.38977,38.81117,150],[-90.38974,38.81116,150],[-90.3897,38.81116,150],[-90.38966,38.81115,151],[-90.38963,38.81115,151],[-90.38959,38.81115,151],[-90.38956,38.81116,151],[-90.38952,38.81116,151],[-90.38948,38.81118,151],[-90.38945,38.81118,151],[-90.38943,38.81121,152],[-90.38939,38.81122,152],[-90.38937,38.81124,152],[-90.38936,38.81127,152],[-90.38934,38.81129,152],[-90.38931,38.8113,152],[-90.38927,38.8113,152],[-90.38924,38.8113,152],[-90.3892,38.81133,152],[-90.38918,38.81135,152],[-90.38916,38.81137,152],[-90.38913,38.81139,152],[-90.3891,38.81141,153],[-90.38907,38.81143,154],[-90.38903,38.81144,155],[-90.389,38.81145,155],[-90.389,38.81148,156],[-90.38896,38.81148,156],[-90.38893,38.8115,157],[-90.38886,38.81152,159],[-90.38882,38.81154,160],[-90.38879,38.81156,161],[-90.38875,38.81157,162],[-90.38872,38.81158,162],[-90.38869,38.8116,163],[-90.38866,38.81162,164],[-90.38863,38.81163,164],[-90.38861,38.81166,165],[-90.38859,38.81168,165],[-90.38857,38.8117,164],[-90.38856,38.81173,164],[-90.38856,38.81176,164],[-90.38856,38.81179,164],[-90.38855,38.81182,164],[-90.38855,38.81185,163],[-90.38855,38.81188,163],[-90.38856,38.8119,163],[-90.38858,38.81192,162],[-90.3886,38.81195,162],[-90.38858,38.81197,162],[-90.38858,38.812,162],[-90.38862,38.81202,162],[-90.38865,38.81202,161],[-90.38866,38.81205,162],[-90.38866,38.81208,162],[-90.38865,38.81211,162],[-90.38864,38.81213,163],[-90.38862,38.81215,163],[-90.38859,38.81217,163],[-90.38862,38.81216,163],[-90.38866,38.81216,163],[-90.38868,38.81218,163],[-90.38869,38.81221,163],[-90.38866,38.81224,163],[-90.38864,38.81226,164],[-90.38865,38.81228,164],[-90.38865,38.81231,165],[-90.38864,38.81234,165],[-90.38864,38.81237,166],[-90.38862,38.81239,166],[-90.38861,38.81242,167],[-90.38859,38.81245,168],[-90.38857,38.81246,169],[-90.38853,38.81247,170],[-90.3885,38.81249,171],[-90.3885,38.81252,171],[-90.3885,38.81254,171],[-90.38848,38.81257,172],[-90.38846,38.81259,173],[-90.38843,38.81262,174],[-90.38841,38.81264,175],[-90.38838,38.81265,176],[-90.38835,38.81266,177],[-90.38831,38.81267,178],[-90.38828,38.81269,179],[-90.38828,38.81273,180],[-90.38824,38.81275,182],[-90.3882,38.81276,183],[-90.38816,38.81276,184],[-90.38813,38.81276,185],[-90.3881,38.81279,186],[-90.38808,38.81281,187],[-90.38807,38.81284,188],[-90.38805,38.81287,189],[-90.38803,38.81289,189],[-90.38801,38.81292,189],[-90.38801,38.81295,190],[-90.38801,38.81297,190],[-90.388,38.813,190],[-90.38799,38.81303,191],[-90.38797,38.81305,191],[-90.38796,38.81308,192],[-90.38794,38.81311,192],[-90.38792,38.81313,193],[-90.38792,38.81316,193],[-90.38791,38.81319,193],[-90.38789,38.81322,194],[-90.38787,38.81324,194],[-90.38786,38.81326,195],[-90.38784,38.81329,195],[-90.3878,38.81329,195],[-90.38777,38.81328,195],[-90.38775,38.81325,194],[-90.38773,38.81323,194],[-90.38769,38.81325,194],[-90.38767,38.81327,194],[-90.38765,38.8133,194],[-90.38763,38.81332,194],[-90.38761,38.81335,194],[-90.38761,38.81338,195],[-90.3876,38.8134,195],[-90.38761,38.81344,195],[-90.38761,38.81347,195],[-90.3876,38.81349,195],[-90.38757,38.81352,195],[-90.38756,38.81355,195],[-90.38756,38.81358,196],[-90.38756,38.81361,196],[-90.38755,38.81363,196],[-90.38754,38.81366,196],[-90.38753,38.81369,197],[-90.38752,38.81372,197],[-90.38751,38.81374,197],[-90.3875,38.81377,198],[-90.38749,38.8138,198],[-90.38749,38.81383,199],[-90.38751,38.81386,199],[-90.38755,38.81387,199],[-90.38756,38.81389,199],[-90.3876,38.81391,200],[-90.38763,38.81393,200],[-90.38764,38.81395,200],[-90.38768,38.81397,200],[-90.38771,38.81397,200],[-90.38774,38.81396,200],[-90.38778,38.81395,199],[-90.38781,38.81395,199],[-90.38785,38.81395,199],[-90.38789,38.81394,199],[-90.38798,38.81393,199],[-90.38801,38.81393,199],[-90.38805,38.81392,199],[-90.38809,38.81391,198],[-90.38813,38.8139,198],[-90.38817,38.81391,198],[-90.38821,38.81392,198],[-90.38824,38.81393,198],[-90.38828,38.81394,198],[-90.38831,38.81395,198],[-90.38835,38.81397,198],[-90.38838,38.81398,197],[-90.38842,38.81399,197],[-90.38846,38.81401,197],[-90.38848,38.81403,197],[-90.38851,38.81404,196],[-90.38855,38.81405,196],[-90.38858,38.81407,196],[-90.3886,38.8141,196],[-90.38863,38.81412,196],[-90.38867,38.81412,195],[-90.38871,38.81412,195],[-90.38875,38.81412,194],[-90.38878,38.81414,194],[-90.38882,38.81415,193],[-90.38885,38.81415,193],[-90.38889,38.81416,192],[-90.38892,38.81418,192],[-90.38895,38.8142,192],[-90.38899,38.81418,192],[-90.38901,38.81416,192],[-90.38906,38.81417,192],[-90.38909,38.81418,192],[-90.38913,38.81419,192],[-90.38917,38.8142,192],[-90.38921,38.81422,192],[-90.38924,38.81423,191],[-90.38927,38.81426,191],[-90.38929,38.81428,190],[-90.38932,38.8143,190],[-90.38935,38.81431,190],[-90.38938,38.81432,189],[-90.38941,38.81435,189],[-90.38944,38.81437,189],[-90.38947,38.81439,189],[-90.3895,38.8144,189],[-90.38953,38.81442,189],[-90.38956,38.81443,189],[-90.38959,38.81446,189],[-90.3896,38.81449,189],[-90.38962,38.81453,190],[-90.38962,38.81455,190],[-90.38961,38.81458,190],[-90.38962,38.81461,190],[-90.38964,38.81463,190],[-90.38967,38.81465,191],[-90.38963,38.81466,191],[-90.3896,38.81469,191],[-90.38959,38.81471,191],[-90.38956,38.81473,191],[-90.38953,38.81475,190],[-90.38955,38.81478,190],[-90.38957,38.8148,190],[-90.38959,38.81483,190],[-90.38961,38.81485,190],[-90.38963,38.81488,189],[-90.38966,38.8149,189],[-90.38968,38.81493,189],[-90.3897,38.81495,189],[-90.38973,38.81497,189],[-90.38978,38.81505,187],[-90.38981,38.81508,187],[-90.38983,38.8151,186],[-90.38985,38.81513,186],[-90.38988,38.81515,185],[-90.3899,38.81517,184],[-90.38993,38.81519,184],[-90.38995,38.81521,183],[-90.38997,38.81523,183],[-90.39,38.81525,182],[-90.39004,38.81526,182],[-90.39007,38.81528,181],[-90.3901,38.81529,181],[-90.39014,38.81531,181],[-90.39017,38.81533,181],[-90.3902,38.81534,181],[-90.39023,38.81535,180],[-90.39026,38.81537,180],[-90.3903,38.81537,180],[-90.39034,38.81538,181],[-90.39038,38.81538,181],[-90.39041,38.81539,181],[-90.39044,38.8154,181],[-90.39048,38.81541,182],[-90.39051,38.81541,182],[-90.39055,38.81542,182],[-90.39059,38.81542,183],[-90.39062,38.81541,183],[-90.39065,38.81541,184],[-90.39069,38.81542,184],[-90.39072,38.81543,184],[-90.39076,38.81545,185],[-90.39079,38.81546,185],[-90.39083,38.81545,185],[-90.39086,38.81543,185],[-90.39089,38.81541,186],[-90.39091,38.8154,186],[-90.39094,38.81538,186],[-90.39098,38.81537,186],[-90.39101,38.81536,186],[-90.39105,38.81537,186],[-90.39109,38.81537,186],[-90.39113,38.81536,186],[-90.39117,38.81536,186],[-90.3912,38.81536,186],[-90.39123,38.81538,186],[-90.39134,38.8154,185],[-90.39139,38.81541,185],[-90.39143,38.81542,184],[-90.39146,38.81543,184],[-90.3915,38.81544,183],[-90.39153,38.81546,183],[-90.39157,38.81548,183],[-90.39159,38.8155,183],[-90.39162,38.81553,183],[-90.39164,38.81555,183],[-90.39166,38.81557,182],[-90.39168,38.8156,182],[-90.39171,38.81562,181],[-90.39174,38.81564,180],[-90.39177,38.81565,179],[-90.3918,38.81563,179],[-90.39183,38.81562,178],[-90.39187,38.81563,177],[-90.39194,38.81564,176],[-90.39197,38.81565,174],[-90.39201,38.81565,172],[-90.39204,38.81566,171],[-90.39196,38.81568,174],[-90.39192,38.81569,175],[-90.39189,38.81568,176],[-90.39192,38.81566,176],[-90.39195,38.81564,175],[-90.39195,38.81561,176],[-90.39196,38.81558,176],[-90.39196,38.81555,177],[-90.39199,38.81553,175],[-90.39201,38.8155,174],[-90.39202,38.81547,174],[-90.39202,38.81544,174],[-90.39201,38.81541,174],[-90.39199,38.81539,175],[-90.39198,38.81536,175],[-90.39197,38.81533,175],[-90.39199,38.8153,174],[-90.39201,38.81528,174],[-90.39204,38.81524,171],[-90.39204,38.81521,170],[-90.39202,38.81519,170],[-90.392,38.81516,170],[-90.392,38.81513,169],[-90.392,38.81511,168],[-90.39196,38.8151,169],[-90.39195,38.81507,168],[-90.39194,38.81505,167],[-90.39192,38.81502,167],[-90.3919,38.81499,167],[-90.39188,38.81497,168],[-90.39187,38.81493,167],[-90.39189,38.81491,166],[-90.3919,38.81488,166],[-90.39191,38.81485,165],[-90.39191,38.81482,165],[-90.3919,38.81479,165],[-90.39189,38.81475,164],[-90.39189,38.81473,164],[-90.39189,38.8147,164],[-90.39189,38.81467,163],[-90.39188,38.81464,163],[-90.39187,38.81461,163],[-90.39184,38.81459,164],[-90.39183,38.81456,163],[-90.39182,38.81453,163],[-90.3918,38.8145,163],[-90.3918,38.81448,163],[-90.39181,38.81444,162],[-90.39183,38.81441,161],[-90.39183,38.81438,160],[-90.39181,38.81436,160],[-90.3918,38.81433,160],[-90.39183,38.81431,158],[-90.39182,38.81428,158],[-90.39181,38.81425,157],[-90.3918,38.81422,157],[-90.39184,38.81421,155],[-90.39186,38.8142,155],[-90.3919,38.81419,153],[-90.39193,38.81417,152],[-90.39195,38.81414,150],[-90.39196,38.81412,149],[-90.39199,38.81413,149],[-90.39202,38.81412,149],[-90.39206,38.81412,149],[-90.3921,38.8141,147],[-90.39213,38.81409,146],[-90.39216,38.81407,145],[-90.39218,38.81405,143],[-90.39222,38.81403,142],[-90.39224,38.81401,141],[-90.39225,38.81399,139],[-90.39227,38.81396,138],[-90.3923,38.81394,137],[-90.39233,38.81393,137],[-90.39236,38.81392,137],[-90.3924,38.81391,137],[-90.39243,38.81389,136],[-90.39245,38.81387,137],[-90.39245,38.81384,137],[-90.39248,38.81382,137],[-90.39251,38.81381,138],[-90.39248,38.81383,137],[-90.39245,38.81385,137],[-90.39246,38.81382,137],[-90.39248,38.81378,138],[-90.3925,38.81374,138],[-90.39249,38.81371,138],[-90.39248,38.81368,138],[-90.39248,38.81365,138],[-90.3925,38.81363,138],[-90.39252,38.81361,138],[-90.39255,38.81358,138],[-90.39258,38.81356,138],[-90.3926,38.81354,138],[-90.39261,38.81352,137],[-90.39261,38.81349,137],[-90.39261,38.81346,137],[-90.39261,38.81349,137],[-90.3926,38.81352,137],[-90.39263,38.81354,137],[-90.39263,38.81357,138],[-90.39261,38.8136,138],[-90.39259,38.81363,138],[-90.39258,38.81365,138],[-90.39258,38.81368,138],[-90.39258,38.81371,138],[-90.39257,38.81374,138],[-90.39256,38.81377,138],[-90.39253,38.81379,138],[-90.3925,38.8138,138],[-90.39248,38.81382,137],[-90.39246,38.81385,137],[-90.39244,38.81388,136],[-90.39244,38.81391,138],[-90.39242,38.81394,138],[-90.39242,38.81396,140],[-90.39241,38.81399,141],[-90.39239,38.81402,142],[-90.39235,38.81403,143],[-90.39232,38.81404,143],[-90.39228,38.81404,143],[-90.39224,38.81404,142],[-90.3922,38.81404,143],[-90.39217,38.81402,141],[-90.39215,38.814,141],[-90.39211,38.81398,140],[-90.39209,38.81396,139],[-90.39206,38.81394,138],[-90.39204,38.81392,138],[-90.39201,38.8139,137],[-90.39198,38.81388,137],[-90.39195,38.81386,138],[-90.39192,38.81384,139],[-90.39189,38.81382,140],[-90.39186,38.81381,141],[-90.39184,38.81378,141],[-90.39183,38.81376,141],[-90.3918,38.81374,142],[-90.39177,38.81372,143],[-90.39175,38.81369,143],[-90.39173,38.81367,143],[-90.39173,38.81364,142],[-90.39175,38.81362,142],[-90.39173,38.81359,142],[-90.39171,38.81357,143],[-90.39168,38.81354,143],[-90.39166,38.81352,144],[-90.39163,38.81349,145],[-90.39161,38.81346,146],[-90.39163,38.81344,146],[-90.39166,38.81344,145],[-90.39165,38.81341,146],[-90.39164,38.81338,146],[-90.39161,38.81336,147],[-90.39158,38.81335,148],[-90.39154,38.81334,148],[-90.39151,38.81333,149],[-90.39147,38.81332,149],[-90.39143,38.8133,150],[-90.39141,38.81328,150],[-90.39138,38.81326,150],[-90.39136,38.81324,151],[-90.39134,38.81321,151],[-90.39136,38.81318,150],[-90.39138,38.81316,150],[-90.39138,38.81313,150],[-90.39135,38.81311,150],[-90.39133,38.81309,151],[-90.3913,38.81307,151],[-90.39127,38.81306,151],[-90.39124,38.81305,151],[-90.39126,38.81303,151],[-90.39128,38.813,150],[-90.39129,38.81298,149],[-90.39131,38.81294,148],[-90.39132,38.81291,147],[-90.3913,38.81289,147],[-90.39128,38.81286,146],[-90.39128,38.81283,145],[-90.39125,38.81283,146],[-90.39121,38.81281,146],[-90.39117,38.8128,146],[-90.39113,38.8128,147],[-90.39109,38.8128,147],[-90.39105,38.81279,148],[-90.39101,38.81278,148],[-90.39098,38.81277,148],[-90.39096,38.81274,148],[-90.39099,38.81271,147],[-90.391,38.81269,146],[-90.391,38.81265,145],[-90.391,38.81262,144],[-90.391,38.81259,144],[-90.391,38.81256,143],[-90.39099,38.81253,143],[-90.39099,38.8125,142],[-90.39099,38.81247,143],[-90.39098,38.81244,143],[-90.39096,38.81241,144],[-90.39094,38.81239,145],[-90.39093,38.81235,146],[-90.39092,38.81233,147],[-90.39092,38.8123,147],[-90.3909,38.81227,148],[-90.39088,38.81224,149],[-90.39087,38.81221,149],[-90.39088,38.81219,149],[-90.3909,38.81216,149],[-90.3909,38.81213,149],[-90.39091,38.8121,149],[-90.39092,38.81207,149],[-90.39092,38.81204,149],[-90.39091,38.81201,149],[-90.39091,38.81198,149],[-90.39092,38.81195,149],[-90.39093,38.81193,149],[-90.39092,38.8119,149],[-90.39089,38.81189,149],[-90.39089,38.81185,148],[-90.39089,38.81183,148],[-90.39091,38.8118,148],[-90.39093,38.81177,147],[-90.39096,38.81175,147],[-90.39098,38.81172,146],[-90.39101,38.8117,146],[-90.39104,38.81168,145],[-90.39107,38.81168,145],[-90.39111,38.81168,145],[-90.39114,38.81166,144],[-90.39114,38.81163,144],[-90.39113,38.81161,143],[-90.39112,38.81157,143],[-90.39112,38.81154,143],[-90.39111,38.81151,142],[-90.3911,38.81148,142],[-90.39109,38.81145,142],[-90.39108,38.81143,141],[-90.39106,38.8114,141],[-90.39104,38.81137,141],[-90.39101,38.81136,141],[-90.39101,38.81139,141],[-90.39104,38.81139,141],[-90.39103,38.81142,142],[-90.39101,38.81139,141],[-90.39099,38.81136,141],[-90.39097,38.81132,141],[-90.39094,38.8113,141],[-90.3909,38.81131,141],[-90.39088,38.81128,141],[-90.39086,38.81126,141],[-90.39085,38.81123,141],[-90.39084,38.81121,141],[-90.39083,38.81118,141],[-90.39084,38.81115,141],[-90.39086,38.81112,140],[-90.39087,38.81109,140],[-90.39087,38.81106,140],[-90.39087,38.81103,139],[-90.39087,38.811,139],[-90.39086,38.81096,139],[-90.39086,38.81093,138],[-90.39084,38.81091,138],[-90.39081,38.81089,138],[-90.39078,38.81088,138],[-90.39075,38.81086,138],[-90.39072,38.81084,138],[-90.39071,38.81081,138],[-90.39069,38.81079,139],[-90.39066,38.81078,139],[-90.39063,38.81077,139],[-90.39059,38.81076,139],[-90.39058,38.81073,139],[-90.39061,38.81071,139],[-90.39062,38.81068,139],[-90.39059,38.81067,139],[-90.39062,38.81066,139],[-90.39065,38.81068,139],[-90.39062,38.8107,139],[-90.39061,38.81073,139],[-90.39064,38.81071,139],[-90.39068,38.8107,139]]],
        "bbox": [
          -90.38749,
          38.81569,
          -90.39263,
          38.81066
        ]
      },
      "properties": {
        "name": "5.10.2025B"
      }
    }
  ]
}