{
  "type": "FeatureCollection",
  "features": [
    {
      "type": "Feature",
      "geometry": {
        "type": "MultiLineString",
        "coordinates": [[[-90.39507,38.81168,133],[-90.39503,38.81168,133],[-90.39499,38.81169,133],[-90.39495,38.81171,133],[-90.39493,38.81173,133],[-90.39491,38.81175,133],[-90.3949,38.81179,134],[-90.3949,38.81182,134],[-90.39487,38.81184,135],[-90.39484,38.81184,135],[-90.3948,38.81185,135],[-90.39477,38.81188,135],[-90.39475,38.8119,136],[-90.39473,38.81192,136],[-90.3947,38.81194,137],[-90.39467,38.81196,137],[-90.39463,38.812,137],[-90.39459,38.81206,137],[-90.39451,38.81213,137],[-90.39445,38.81219,137],[-90.39441,38.81224,137],[-90.39438,38.81226,137],[-90.39436,38.81228,137],[-90.39433,38.8123,137],[-90.39427,38.81233,137],[-90.39429,38.8123,137],[-90.39426,38.8123,137],[-90.39422,38.81232,137],[-90.39419,38.81235,137],[-90.39415,38.81238,137],[-90.39412,38.81241,137],[-90.39409,38.81244,137],[-90.39391,38.81255,136],[-90.39382,38.81262,135],[-90.39378,38.81266,135],[-90.39374,38.8127,134],[-90.39372,38.81272,134],[-90.3937,38.81275,134],[-90.3937,38.81279,133],[-90.39368,38.81282,133],[-90.39364,38.81285,133],[-90.39359,38.81287,133],[-90.39354,38.81288,133],[-90.39349,38.81289,133],[-90.39343,38.81289,133],[-90.39339,38.81288,134],[-90.39335,38.81285,134],[-90.39331,38.81284,134],[-90.39326,38.81283,134],[-90.39321,38.81282,134],[-90.39317,38.81282,134],[-90.39304,38.81276,134],[-90.39299,38.81273,134],[-90.39295,38.81271,134],[-90.39293,38.81269,134],[-90.39289,38.81267,134],[-90.39286,38.81264,134],[-90.39283,38.81262,134],[-90.3928,38.81259,134],[-90.39277,38.81257,134],[-90.39274,38.81256,134],[-90.39271,38.81255,134],[-90.39267,38.81253,134],[-90.39265,38.81251,134],[-90.39262,38.81248,135],[-90.39261,38.81246,135],[-90.39258,38.81243,135],[-90.39256,38.81241,135],[-90.39253,38.81238,135],[-90.3925,38.81236,135],[-90.39247,38.81234,135],[-90.39245,38.81232,135],[-90.39243,38.81229,135],[-90.3924,38.81226,135],[-90.39236,38.81223,135],[-90.39231,38.81221,135],[-90.39226,38.81219,135],[-90.39221,38.81218,136],[-90.39217,38.81216,136],[-90.39212,38.81215,136],[-90.39207,38.81216,136],[-90.39202,38.81217,137],[-90.39196,38.81219,137],[-90.39191,38.81219,137],[-90.39186,38.81221,137],[-90.39177,38.81229,136],[-90.39173,38.81232,136],[-90.39177,38.81231,136],[-90.39179,38.81229,136],[-90.39179,38.81232,136],[-90.39176,38.81234,136],[-90.39173,38.81236,136],[-90.3917,38.81239,136],[-90.39167,38.81242,135],[-90.39162,38.81249,135],[-90.39157,38.81254,136],[-90.39152,38.81259,137],[-90.39147,38.81261,138],[-90.39145,38.81264,139],[-90.39148,38.81267,139],[-90.3915,38.81269,139],[-90.39153,38.81271,139],[-90.39157,38.81273,139],[-90.39159,38.81274,139],[-90.39163,38.81277,139],[-90.39167,38.81279,139],[-90.39172,38.8128,138],[-90.39175,38.81282,138],[-90.39178,38.81284,138],[-90.3918,38.81287,138],[-90.39183,38.81289,138],[-90.39186,38.81292,138],[-90.39189,38.81294,138],[-90.39191,38.81296,138],[-90.39194,38.81298,138],[-90.39197,38.813,138],[-90.392,38.81302,138],[-90.39203,38.81303,138],[-90.39207,38.81304,137],[-90.3921,38.81306,137],[-90.39213,38.81308,137],[-90.39217,38.8131,137],[-90.3922,38.81312,137],[-90.39223,38.81314,137],[-90.39229,38.81317,137],[-90.39234,38.81322,137],[-90.3924,38.81327,137],[-90.39249,38.81332,137],[-90.39256,38.81335,136],[-90.39261,38.81338,136],[-90.39265,38.8134,136],[-90.3927,38.81342,136],[-90.39274,38.81345,136],[-90.39274,38.81348,136],[-90.39272,38.81351,137],[-90.3927,38.81353,137],[-90.39267,38.81355,137],[-90.39264,38.81357,138],[-90.39261,38.8136,138],[-90.39258,38.81363,138],[-90.39254,38.81366,138],[-90.39251,38.8137,138],[-90.39248,38.81375,138],[-90.39245,38.81381,137],[-90.39241,38.81386,136],[-90.39237,38.81392,137],[-90.39235,38.81396,139],[-90.39233,38.81399,140],[-90.39231,38.81401,141],[-90.39224,38.81408,145],[-90.3922,38.81413,148],[-90.39221,38.81409,146],[-90.39223,38.81406,144],[-90.39222,38.81403,142],[-90.39219,38.814,140],[-90.39216,38.81398,139],[-90.39213,38.81396,139],[-90.3921,38.81394,138],[-90.39207,38.81392,137],[-90.39204,38.8139,136],[-90.39201,38.81388,136],[-90.39197,38.81387,137],[-90.39194,38.81385,138],[-90.3919,38.81384,139],[-90.39186,38.81383,141],[-90.39183,38.81382,142],[-90.39179,38.81381,143],[-90.39176,38.8138,143],[-90.39173,38.81378,144],[-90.3917,38.81376,144],[-90.39169,38.81373,144],[-90.39167,38.81369,144],[-90.39165,38.81367,144],[-90.39163,38.81364,144],[-90.39161,38.81361,144],[-90.3916,38.81359,144],[-90.39158,38.81355,145],[-90.39155,38.81352,146],[-90.39153,38.8135,147],[-90.39149,38.81347,148],[-90.39146,38.81345,149],[-90.39143,38.81343,149],[-90.3914,38.8134,150],[-90.39137,38.81337,151],[-90.39135,38.81334,151],[-90.39135,38.8133,151],[-90.39132,38.81327,151],[-90.39127,38.81324,152],[-90.39125,38.81322,152],[-90.39122,38.81319,152],[-90.39119,38.81316,153],[-90.39112,38.81302,152],[-90.39107,38.81295,151],[-90.39105,38.81291,150],[-90.39097,38.81277,148],[-90.39096,38.81266,146],[-90.39098,38.81256,143],[-90.39098,38.81252,142],[-90.39098,38.81249,142],[-90.39097,38.81246,143],[-90.39096,38.81243,144],[-90.39096,38.8124,145],[-90.39095,38.81236,146],[-90.39091,38.81232,147],[-90.39089,38.8123,147],[-90.39086,38.81227,148],[-90.39084,38.81224,149],[-90.39083,38.81221,149],[-90.39079,38.81218,149],[-90.39077,38.81214,148],[-90.39077,38.81211,148],[-90.39078,38.81207,148],[-90.3908,38.81204,149],[-90.39083,38.81201,149],[-90.39086,38.81199,149],[-90.3909,38.81196,149],[-90.39094,38.81195,150],[-90.39099,38.81195,150],[-90.391,38.81193,150],[-90.39101,38.81189,149],[-90.39101,38.81186,149],[-90.391,38.81182,148],[-90.391,38.81179,148],[-90.39101,38.81163,145],[-90.39107,38.81156,143],[-90.39109,38.81152,143],[-90.3911,38.81149,142],[-90.39109,38.81146,142],[-90.39107,38.81143,141],[-90.39104,38.81142,141],[-90.39101,38.81141,142],[-90.39099,38.81139,141],[-90.39095,38.81137,141],[-90.39093,38.81135,141],[-90.39091,38.81132,141],[-90.39089,38.8113,141],[-90.39086,38.81128,141],[-90.39084,38.81125,141],[-90.39081,38.81123,141],[-90.39079,38.8112,141],[-90.39076,38.81119,141],[-90.39072,38.81119,141],[-90.39071,38.81122,142],[-90.39069,38.81124,142],[-90.39064,38.81126,142],[-90.3906,38.81127,142],[-90.39056,38.81127,142],[-90.3905,38.81126,142],[-90.39041,38.81121,142],[-90.39036,38.81115,142],[-90.39031,38.81111,142],[-90.39022,38.81108,143],[-90.39014,38.81109,144],[-90.39008,38.81111,145],[-90.39006,38.81113,146],[-90.39002,38.81114,146],[-90.38997,38.81114,147],[-90.38992,38.81113,147],[-90.38984,38.81112,149],[-90.38975,38.81114,150],[-90.38966,38.81116,151],[-90.38958,38.81114,151],[-90.3895,38.8111,151],[-90.38943,38.81106,151],[-90.38935,38.81109,152],[-90.38935,38.81114,152],[-90.38935,38.81117,152],[-90.38936,38.8112,152],[-90.38938,38.81123,152],[-90.3894,38.81125,152],[-90.3894,38.81129,152],[-90.38936,38.81131,152],[-90.38928,38.81131,152],[-90.3892,38.81133,152],[-90.38914,38.81137,152],[-90.38909,38.81142,153],[-90.38902,38.81147,155],[-90.38894,38.8115,157],[-90.38884,38.81151,159],[-90.38878,38.81154,161],[-90.38879,38.81157,161],[-90.3888,38.81154,160],[-90.38883,38.81152,160],[-90.38882,38.81155,160],[-90.3888,38.81158,161],[-90.38876,38.8116,161],[-90.38874,38.81162,162],[-90.38871,38.81165,163],[-90.38869,38.81168,163],[-90.38866,38.8117,163],[-90.38864,38.81172,163],[-90.38862,38.81176,163],[-90.38861,38.81179,163],[-90.3886,38.81182,163],[-90.38858,38.81185,163],[-90.38857,38.81188,163],[-90.38857,38.81191,163],[-90.38859,38.81195,162],[-90.38861,38.81197,162],[-90.38865,38.81199,161],[-90.38868,38.812,161],[-90.38871,38.81202,161],[-90.38874,38.81204,160],[-90.38876,38.81206,160],[-90.38876,38.81209,161],[-90.38876,38.81213,161],[-90.38876,38.81215,161],[-90.38875,38.81219,162],[-90.38873,38.81223,163],[-90.3887,38.81227,164],[-90.38868,38.81229,164],[-90.38865,38.81232,165],[-90.38862,38.81234,166],[-90.3886,38.81237,166],[-90.38858,38.8124,167],[-90.38859,38.81244,168],[-90.3886,38.81248,168],[-90.38861,38.81251,169],[-90.3886,38.81248,168],[-90.38857,38.8125,169],[-90.38857,38.81253,170],[-90.38857,38.81257,170],[-90.38856,38.81261,170],[-90.38853,38.81263,171],[-90.38849,38.81264,173],[-90.38844,38.81265,174],[-90.38841,38.81268,175],[-90.38836,38.81269,177],[-90.38832,38.81271,179],[-90.38828,38.81272,180],[-90.38824,38.81273,181],[-90.38821,38.81274,182],[-90.38818,38.81275,183],[-90.38817,38.81278,184],[-90.38813,38.81279,186],[-90.38809,38.81282,187],[-90.38808,38.81285,188],[-90.38808,38.81289,188],[-90.38806,38.81293,189],[-90.38805,38.81297,190],[-90.38805,38.81301,190],[-90.38806,38.81305,190],[-90.38804,38.81309,191],[-90.38802,38.81314,192],[-90.38799,38.81317,193],[-90.38795,38.8132,194],[-90.38793,38.81324,194],[-90.38791,38.81329,195],[-90.38786,38.81331,195],[-90.38781,38.81332,195],[-90.38776,38.81331,195],[-90.38771,38.8133,195],[-90.38766,38.8133,194],[-90.38761,38.81331,194],[-90.38759,38.81334,194],[-90.3876,38.81338,195],[-90.38759,38.81343,195],[-90.38759,38.81347,195],[-90.38759,38.81352,195],[-90.38759,38.81356,196],[-90.38759,38.81361,196],[-90.38758,38.81365,197],[-90.38757,38.8137,197],[-90.38755,38.81374,198],[-90.38753,38.81378,198],[-90.38753,38.81384,199],[-90.38753,38.81388,199],[-90.38758,38.8139,200],[-90.38764,38.81392,200],[-90.38768,38.81394,200],[-90.38772,38.81395,200],[-90.38775,38.81396,200],[-90.38768,38.81396,200],[-90.3876,38.81395,200],[-90.38751,38.81395,200],[-90.38745,38.81396,200],[-90.38742,38.81398,200],[-90.38739,38.814,200],[-90.38731,38.81402,200],[-90.38721,38.81403,200],[-90.38714,38.81403,200],[-90.3871,38.81405,200],[-90.38706,38.81407,200],[-90.38703,38.81408,201],[-90.387,38.81409,201],[-90.38695,38.81409,201],[-90.38688,38.8141,201],[-90.38683,38.81411,200],[-90.38679,38.81411,200],[-90.38675,38.81411,200],[-90.38672,38.81412,200],[-90.38667,38.81412,200],[-90.38663,38.81413,200],[-90.38659,38.81413,200],[-90.38652,38.81412,199],[-90.38645,38.8141,198],[-90.38644,38.81413,198],[-90.38648,38.81413,199],[-90.38652,38.81412,199],[-90.38656,38.81413,199],[-90.38659,38.81413,200],[-90.38664,38.81414,200],[-90.38669,38.81415,200],[-90.38674,38.81415,201],[-90.38679,38.81415,201],[-90.38686,38.81415,201],[-90.38692,38.81414,201],[-90.38697,38.81412,201],[-90.38703,38.81411,201],[-90.38708,38.81408,201],[-90.38714,38.81408,201],[-90.3872,38.81407,200],[-90.38725,38.81407,200],[-90.38732,38.81406,200],[-90.38737,38.81406,200],[-90.38741,38.81405,200],[-90.38746,38.81403,200],[-90.38751,38.81402,200],[-90.38757,38.81401,200],[-90.38762,38.814,200],[-90.38768,38.814,200],[-90.38774,38.81401,200],[-90.38779,38.81401,199],[-90.38785,38.814,199],[-90.3879,38.81398,199],[-90.38795,38.81398,199],[-90.38801,38.81399,199],[-90.38807,38.81398,199],[-90.38813,38.81398,199],[-90.3882,38.814,198],[-90.38825,38.81403,198],[-90.3883,38.81405,198],[-90.38835,38.81407,198],[-90.38841,38.81409,198],[-90.38847,38.8141,197],[-90.38851,38.81411,197],[-90.38856,38.81412,197],[-90.38861,38.81414,196],[-90.38866,38.81417,196],[-90.38872,38.81418,195],[-90.38878,38.81418,194],[-90.38883,38.81419,193],[-90.38887,38.81421,193],[-90.38895,38.81422,192],[-90.389,38.81422,192],[-90.38906,38.81422,192],[-90.38912,38.81423,192],[-90.38918,38.81425,192],[-90.38923,38.81428,191],[-90.38927,38.8143,191],[-90.38931,38.81433,190],[-90.38936,38.8143,190],[-90.38941,38.81429,189],[-90.38947,38.81429,188],[-90.38954,38.81431,187],[-90.3895,38.81429,188],[-90.3895,38.81434,188],[-90.38949,38.81438,189],[-90.38948,38.81443,189],[-90.38947,38.81448,190],[-90.38946,38.81452,190],[-90.38947,38.81456,190],[-90.38948,38.81461,190],[-90.38948,38.81465,190],[-90.38953,38.81468,191],[-90.38956,38.81471,191],[-90.38956,38.81475,191],[-90.38956,38.81478,190],[-90.38955,38.81481,190],[-90.38954,38.81484,190],[-90.38954,38.81486,189],[-90.38957,38.81489,189],[-90.3896,38.8149,189],[-90.38963,38.81492,189],[-90.38965,38.81495,189],[-90.38968,38.81498,189],[-90.3897,38.81501,188],[-90.38971,38.81503,188],[-90.38972,38.81508,187],[-90.38973,38.81511,186],[-90.38974,38.81515,185],[-90.38976,38.81518,184],[-90.38978,38.8152,184],[-90.38981,38.81522,184],[-90.38985,38.81524,183],[-90.38989,38.81525,183],[-90.38992,38.81527,182],[-90.38995,38.81529,181],[-90.38998,38.81532,181],[-90.39001,38.81534,180],[-90.39004,38.81536,180],[-90.39008,38.81538,180],[-90.39018,38.81542,179],[-90.39025,38.81542,179],[-90.39029,38.81543,179],[-90.39032,38.81544,180],[-90.39036,38.81546,180],[-90.3904,38.81548,180],[-90.39042,38.8155,180],[-90.39044,38.81553,180],[-90.39047,38.81554,180],[-90.39051,38.81556,181],[-90.39057,38.81555,182],[-90.39079,38.81552,184],[-90.39093,38.81549,185],[-90.39098,38.81546,186],[-90.39103,38.81544,186],[-90.39107,38.81543,186],[-90.39111,38.81542,186],[-90.39115,38.81541,186],[-90.3912,38.81541,186],[-90.39124,38.81542,186],[-90.39129,38.81543,185],[-90.39132,38.81545,185],[-90.39136,38.81547,185],[-90.39139,38.81547,185],[-90.39143,38.81549,184],[-90.39146,38.81551,184],[-90.39148,38.81553,184],[-90.39151,38.81555,184],[-90.39154,38.81557,183],[-90.39158,38.81559,183],[-90.39161,38.81561,182],[-90.39165,38.81564,182],[-90.39168,38.81566,181],[-90.39171,38.81568,180],[-90.39174,38.8157,179],[-90.39177,38.81573,178],[-90.39178,38.81576,177],[-90.39179,38.81579,177],[-90.39179,38.81583,176],[-90.39179,38.81586,175],[-90.39179,38.81589,175],[-90.39181,38.81591,174],[-90.3918,38.81594,173],[-90.39178,38.81598,173],[-90.39176,38.816,173],[-90.39174,38.81603,173],[-90.39172,38.81606,173],[-90.39171,38.81609,173],[-90.39171,38.81612,172],[-90.3917,38.81616,171],[-90.3917,38.81619,170],[-90.3917,38.81622,169],[-90.39173,38.81624,167],[-90.39174,38.81627,166],[-90.39175,38.81623,167],[-90.39172,38.81622,168],[-90.39168,38.81621,170],[-90.39168,38.81624,169],[-90.39166,38.81627,168],[-90.39164,38.81629,168],[-90.3916,38.81631,168],[-90.39158,38.81634,167],[-90.39157,38.81636,167],[-90.39156,38.81639,166],[-90.39155,38.81642,165],[-90.39153,38.81644,165],[-90.39151,38.81647,165],[-90.39149,38.8165,165],[-90.39147,38.81652,164],[-90.39146,38.81655,164],[-90.39142,38.81656,164],[-90.3914,38.81659,164],[-90.39139,38.81661,163],[-90.39137,38.81663,163],[-90.39133,38.81664,163],[-90.39129,38.81664,164],[-90.39127,38.81666,163],[-90.39126,38.81669,163],[-90.39124,38.81672,162],[-90.39121,38.81674,162],[-90.39118,38.81676,162],[-90.39114,38.81677,162],[-90.3911,38.81677,163],[-90.39107,38.81676,163],[-90.39104,38.81673,164],[-90.39102,38.8167,165],[-90.391,38.81668,166],[-90.39096,38.81667,166],[-90.39092,38.81666,166],[-90.39088,38.81666,166],[-90.39084,38.81667,166],[-90.39087,38.8167,166],[-90.3909,38.8167,166],[-90.39091,38.81667,166],[-90.39089,38.81669,166],[-90.39088,38.81672,165],[-90.39085,38.81675,165],[-90.39082,38.81677,165],[-90.39078,38.81678,165],[-90.39074,38.81679,165],[-90.39071,38.8168,165],[-90.39067,38.81683,165],[-90.39064,38.81685,165],[-90.39061,38.81687,165],[-90.39058,38.81688,165],[-90.39054,38.81689,165],[-90.3905,38.81687,166],[-90.39049,38.81685,166],[-90.3905,38.81688,166],[-90.39051,38.8169,165],[-90.39052,38.81694,165],[-90.39054,38.81697,164],[-90.39056,38.81701,162],[-90.39057,38.81704,161],[-90.39057,38.81707,160],[-90.39055,38.8171,159],[-90.39054,38.81712,159],[-90.39052,38.81715,158],[-90.39051,38.81718,157],[-90.39051,38.81721,156],[-90.3905,38.81724,155],[-90.39048,38.81727,154],[-90.39051,38.81728,154],[-90.39049,38.8173,153],[-90.39049,38.81734,152],[-90.39052,38.81737,150],[-90.39055,38.81739,149],[-90.39058,38.81741,148],[-90.39062,38.81743,147],[-90.39071,38.81743,146],[-90.39076,38.81743,145],[-90.39086,38.81742,144],[-90.39089,38.81745,142],[-90.39092,38.81747,141],[-90.39096,38.81747,141],[-90.39102,38.81748,140],[-90.39105,38.81745,140],[-90.39103,38.81742,142],[-90.39101,38.81739,143],[-90.391,38.81736,144],[-90.391,38.81733,145],[-90.39101,38.8173,145],[-90.39103,38.81728,145],[-90.39106,38.81725,146],[-90.39107,38.81722,146],[-90.39108,38.8172,147],[-90.3911,38.81717,148],[-90.39114,38.81716,148],[-90.39117,38.81714,148],[-90.39124,38.81714,147],[-90.39135,38.81711,146],[-90.39142,38.81707,147],[-90.39145,38.81704,147],[-90.39155,38.817,147],[-90.39167,38.81699,146],[-90.39175,38.81696,147],[-90.39176,38.81694,148],[-90.39178,38.81691,149],[-90.39179,38.81688,149],[-90.39181,38.81685,150],[-90.39183,38.81682,150],[-90.39186,38.8168,150],[-90.39188,38.81678,150],[-90.39193,38.81675,150],[-90.39196,38.81674,150],[-90.39198,38.81671,150],[-90.39201,38.81669,149],[-90.39204,38.81668,149],[-90.39206,38.81666,149],[-90.39209,38.81664,148],[-90.39212,38.81662,148],[-90.39214,38.81658,148],[-90.39215,38.81653,149],[-90.39216,38.8165,149],[-90.39218,38.81647,149],[-90.3922,38.81643,149],[-90.39222,38.8164,148],[-90.39222,38.81636,149],[-90.39222,38.81633,150],[-90.39225,38.8163,151],[-90.39227,38.81627,151],[-90.39229,38.81625,151],[-90.3923,38.81622,152],[-90.39232,38.8162,152],[-90.39236,38.81618,151],[-90.3924,38.81615,151],[-90.39243,38.81613,150],[-90.39246,38.81612,149],[-90.39249,38.8161,149],[-90.39253,38.81609,147],[-90.39256,38.81607,146],[-90.39259,38.81606,145],[-90.39261,38.81609,145],[-90.39264,38.81608,144],[-90.39266,38.81606,143],[-90.39267,38.81603,143],[-90.39267,38.816,143],[-90.39266,38.81596,143],[-90.39265,38.81592,144],[-90.39264,38.81589,144],[-90.39262,38.81586,145],[-90.39262,38.81583,145],[-90.39261,38.8158,146],[-90.3926,38.81577,147],[-90.3926,38.81573,148],[-90.39259,38.8157,148],[-90.39259,38.81567,149],[-90.39258,38.81564,150],[-90.39256,38.81561,152],[-90.39256,38.81557,153],[-90.39257,38.81555,153],[-90.3926,38.81552,152],[-90.39262,38.81549,152],[-90.39268,38.81546,150],[-90.39272,38.81545,149],[-90.39275,38.81544,149],[-90.39279,38.81542,148],[-90.39282,38.81541,147],[-90.39285,38.81539,147],[-90.39289,38.81538,147],[-90.39292,38.81537,146],[-90.39296,38.81536,145],[-90.393,38.81534,145],[-90.39302,38.81532,145],[-90.39304,38.81529,145],[-90.39306,38.81526,146],[-90.39308,38.81522,145],[-90.39309,38.8152,145],[-90.3931,38.81516,145],[-90.3931,38.81512,146],[-90.3931,38.81508,146],[-90.39309,38.81505,146],[-90.39308,38.81503,147],[-90.39306,38.815,147],[-90.39304,38.81497,147],[-90.39301,38.81495,148],[-90.39299,38.81492,148],[-90.39297,38.81489,148],[-90.39296,38.81486,148],[-90.39296,38.81482,148],[-90.39296,38.81479,148],[-90.39296,38.81475,148],[-90.39297,38.81471,147],[-90.393,38.81463,147],[-90.39303,38.81458,147],[-90.39309,38.81454,145],[-90.39315,38.81454,144],[-90.39324,38.81459,141],[-90.39326,38.81463,141],[-90.39322,38.81463,142],[-90.39319,38.81461,143],[-90.39309,38.81455,145],[-90.39298,38.8145,148],[-90.3929,38.81447,150],[-90.39286,38.81444,151],[-90.39282,38.8144,151],[-90.39279,38.81438,151],[-90.39276,38.81437,151],[-90.39273,38.81436,151],[-90.3927,38.81434,151],[-90.39265,38.81433,151],[-90.39262,38.81431,151],[-90.39258,38.8143,152],[-90.39255,38.81429,152],[-90.39251,38.81429,152],[-90.39247,38.81429,152],[-90.39242,38.81429,152],[-90.39237,38.8143,152],[-90.39232,38.8143,152],[-90.39228,38.81429,152],[-90.39225,38.81427,152],[-90.39223,38.81424,152],[-90.39221,38.8142,151],[-90.3922,38.81413,148],[-90.39226,38.81406,144],[-90.3923,38.81403,142],[-90.39233,38.814,141],[-90.39236,38.81397,139],[-90.39237,38.81395,138],[-90.39239,38.81392,137],[-90.39241,38.81389,136],[-90.39243,38.81387,136],[-90.39246,38.81383,137],[-90.39249,38.81379,138],[-90.39252,38.81376,138],[-90.39255,38.81372,138],[-90.39257,38.81369,138],[-90.39258,38.81366,138],[-90.39259,38.81363,138],[-90.39259,38.81359,138],[-90.3926,38.81354,138],[-90.39262,38.81349,137],[-90.39263,38.81345,137],[-90.39265,38.81343,136],[-90.39266,38.81339,136],[-90.39268,38.81337,136],[-90.39273,38.81336,135],[-90.39277,38.81335,135],[-90.39279,38.81332,134],[-90.3928,38.81329,134],[-90.39281,38.81326,134],[-90.39281,38.81323,134],[-90.39283,38.8132,134],[-90.39286,38.81318,134],[-90.3929,38.81316,133],[-90.39293,38.81314,133],[-90.39296,38.8131,133],[-90.39301,38.81305,133],[-90.39308,38.81299,133],[-90.39316,38.81294,133],[-90.39324,38.8129,134],[-90.39335,38.81286,134],[-90.39344,38.81283,134],[-90.39352,38.8128,134],[-90.39361,38.81277,134],[-90.39366,38.81272,134],[-90.39374,38.8127,134],[-90.39382,38.81267,135],[-90.3939,38.81266,135],[-90.39394,38.81264,135],[-90.39397,38.81261,135],[-90.39398,38.81258,135],[-90.39399,38.81255,136],[-90.394,38.81251,136],[-90.394,38.81247,137],[-90.39401,38.81243,137],[-90.39403,38.81241,137],[-90.39406,38.81238,137],[-90.3941,38.81237,137],[-90.39414,38.81234,137],[-90.39418,38.81232,137],[-90.39421,38.8123,137],[-90.39424,38.81229,137],[-90.39427,38.81227,137],[-90.3943,38.81225,137],[-90.39432,38.81222,138],[-90.39434,38.81219,138],[-90.39435,38.81216,138],[-90.39436,38.81212,138],[-90.39437,38.81209,138],[-90.39438,38.81206,138],[-90.3944,38.81203,138],[-90.39444,38.81201,138],[-90.3945,38.81197,137],[-90.39458,38.81193,137],[-90.39464,38.81188,136],[-90.39466,38.81185,136],[-90.39468,38.81182,135],[-90.39474,38.81178,135],[-90.39481,38.81174,134],[-90.39487,38.81171,133],[-90.3949,38.81169,133],[-90.39491,38.81166,133],[-90.39493,38.81163,133],[-90.39496,38.81161,132],[-90.39501,38.8116,132],[-90.39505,38.81159,132],[-90.39509,38.81159,132],[-90.39507,38.81157,132],[-90.39504,38.81155,132],[-90.39508,38.81156,132],[-90.3951,38.81158,132]]],
        "bbox": [
          -90.38644,
          38.81748,
          -90.3951,
          38.81106
        ]
      },
      "properties": {
        "name": "4.5.2021"
      }
    }
  ]
}