{
  "type": "FeatureCollection",
  "features": [
    {
      "type": "Feature",
      "geometry": {
        "type": "MultiLineString",
        "coordinates": [[[-90.39086,38.81093,138],[-90.39085,38.81096,139],[-90.39086,38.81099,139],[-90.39086,38.81102,139],[-90.39087,38.81104,139],[-90.3909,38.81106,139],[-90.39091,38.8111,140],[-90.3909,38.81113,140],[-90.3909,38.81116,140],[-90.39089,38.81119,141],[-90.39086,38.81122,141],[-90.39083,38.81124,141],[-90.3908,38.81126,142],[-90.39077,38.81128,142],[-90.39074,38.8113,142],[-90.3907,38.81132,142],[-90.39066,38.81133,142],[-90.39062,38.81133,142],[-90.39057,38.81133,142],[-90.39054,38.81133,142],[-90.3905,38.81133,142],[-90.39047,38.81131,142],[-90.39043,38.81129,142],[-90.39039,38.81129,142],[-90.39035,38.81128,142],[-90.39032,38.81127,142],[-90.39028,38.81127,142],[-90.39023,38.81127,143],[-90.39018,38.81126,144],[-90.39013,38.81126,144],[-90.39009,38.81125,145],[-90.39006,38.81124,145],[-90.39001,38.81124,145],[-90.38997,38.81123,146],[-90.38993,38.81123,147],[-90.3899,38.81125,147],[-90.38986,38.81126,148],[-90.38982,38.81127,148],[-90.38977,38.81127,149],[-90.38972,38.81126,150],[-90.38968,38.81125,150],[-90.38964,38.81124,150],[-90.3896,38.81126,151],[-90.38957,38.81128,151],[-90.38954,38.8113,151],[-90.38951,38.81132,151],[-90.38949,38.81135,151],[-90.38947,38.81137,151],[-90.38944,38.81139,152],[-90.38939,38.81141,152],[-90.38935,38.81141,152],[-90.3893,38.81142,152],[-90.38927,38.81144,152],[-90.38925,38.81147,152],[-90.38923,38.81149,152],[-90.38921,38.81152,152],[-90.38918,38.81154,152],[-90.38916,38.81157,152],[-90.38912,38.81158,153],[-90.38908,38.81159,154],[-90.38905,38.8116,155],[-90.38901,38.81162,156],[-90.38897,38.81163,157],[-90.38893,38.81164,158],[-90.38889,38.81166,159],[-90.38887,38.81168,160],[-90.38885,38.81171,160],[-90.38882,38.81173,160],[-90.3888,38.81175,160],[-90.38877,38.81177,160],[-90.38874,38.8118,161],[-90.38871,38.81182,161],[-90.38869,38.81185,161],[-90.38869,38.81188,161],[-90.38869,38.81191,161],[-90.38871,38.81193,160],[-90.38874,38.81196,159],[-90.38877,38.81198,159],[-90.38881,38.81199,159],[-90.38884,38.81201,158],[-90.38884,38.81204,159],[-90.38885,38.81208,159],[-90.38885,38.81212,160],[-90.38884,38.81215,161],[-90.38883,38.81217,161],[-90.38881,38.8122,162],[-90.3888,38.81224,162],[-90.38878,38.81226,163],[-90.38875,38.81229,163],[-90.38874,38.81232,164],[-90.38874,38.81235,164],[-90.38873,38.81238,165],[-90.38872,38.81241,165],[-90.38873,38.81244,165],[-90.38873,38.81247,166],[-90.38872,38.8125,167],[-90.38871,38.81253,167],[-90.3887,38.81257,167],[-90.3887,38.8126,167],[-90.38868,38.81263,168],[-90.38864,38.81265,169],[-90.38861,38.81268,169],[-90.38859,38.8127,170],[-90.38856,38.81272,171],[-90.38853,38.81273,172],[-90.3885,38.81275,173],[-90.38847,38.81277,174],[-90.38843,38.81278,176],[-90.3884,38.8128,178],[-90.38837,38.81282,179],[-90.38833,38.81282,180],[-90.3883,38.81282,181],[-90.38826,38.81283,182],[-90.38823,38.81285,184],[-90.38819,38.81285,185],[-90.38816,38.81286,186],[-90.38812,38.81288,187],[-90.38813,38.81291,187],[-90.38812,38.81294,188],[-90.38813,38.81297,188],[-90.38812,38.813,188],[-90.38811,38.81303,189],[-90.3881,38.81306,190],[-90.3881,38.8131,190],[-90.38809,38.81313,191],[-90.38808,38.81315,192],[-90.38805,38.81318,193],[-90.38802,38.81321,193],[-90.388,38.81323,194],[-90.38798,38.81326,194],[-90.38795,38.81328,195],[-90.38792,38.8133,195],[-90.3879,38.81332,195],[-90.38787,38.81335,196],[-90.38784,38.81336,196],[-90.38779,38.81336,196],[-90.38775,38.81336,195],[-90.38771,38.81336,195],[-90.38767,38.81337,195],[-90.38764,38.81338,195],[-90.38764,38.81342,195],[-90.38764,38.81345,195],[-90.38764,38.81348,196],[-90.38763,38.81351,196],[-90.38761,38.81354,196],[-90.38761,38.81357,196],[-90.3876,38.8136,196],[-90.3876,38.81362,196],[-90.38759,38.81366,197],[-90.38758,38.81368,197],[-90.38758,38.81371,197],[-90.38757,38.81375,198],[-90.38756,38.81378,198],[-90.38757,38.81381,198],[-90.38759,38.81384,199],[-90.38763,38.81385,199],[-90.38766,38.81387,199],[-90.38769,38.81388,199],[-90.38773,38.8139,200],[-90.38777,38.8139,200],[-90.3878,38.8139,199],[-90.38784,38.81389,199],[-90.38788,38.81389,199],[-90.38792,38.81388,199],[-90.38796,38.81388,199],[-90.388,38.81387,199],[-90.38804,38.81387,198],[-90.38808,38.81387,198],[-90.38812,38.81386,198],[-90.38816,38.81387,198],[-90.38821,38.81387,198],[-90.38825,38.81389,198],[-90.38829,38.8139,198],[-90.38834,38.81392,197],[-90.38837,38.81393,197],[-90.38842,38.81394,197],[-90.38846,38.81396,197],[-90.3885,38.81397,196],[-90.38853,38.81399,196],[-90.38857,38.814,196],[-90.38861,38.81401,195],[-90.38864,38.81402,195],[-90.38867,38.81404,195],[-90.38871,38.81405,194],[-90.38875,38.81406,194],[-90.38879,38.81408,193],[-90.38883,38.81409,193],[-90.38886,38.8141,192],[-90.3889,38.81411,192],[-90.38894,38.81412,192],[-90.38898,38.81412,192],[-90.38902,38.81413,192],[-90.38906,38.81413,192],[-90.3891,38.81414,192],[-90.38915,38.81415,192],[-90.38918,38.81417,192],[-90.38922,38.81419,191],[-90.38925,38.8142,191],[-90.38929,38.81422,190],[-90.38933,38.81423,190],[-90.38937,38.81425,189],[-90.38941,38.81427,189],[-90.38945,38.81428,188],[-90.38949,38.8143,188],[-90.38951,38.81434,188],[-90.38953,38.81437,188],[-90.38954,38.8144,189],[-90.38954,38.81444,189],[-90.38954,38.81447,189],[-90.38954,38.81451,190],[-90.38954,38.81455,190],[-90.38955,38.81458,190],[-90.38955,38.81461,190],[-90.38955,38.81464,190],[-90.38955,38.81467,191],[-90.38956,38.81471,191],[-90.38956,38.81474,191],[-90.38957,38.81478,190],[-90.38959,38.81481,190],[-90.3896,38.81484,190],[-90.38962,38.81488,189],[-90.38964,38.81491,189],[-90.38967,38.81493,189],[-90.3897,38.81496,189],[-90.38972,38.81498,189],[-90.38975,38.815,189],[-90.38977,38.81502,188],[-90.3898,38.81504,188],[-90.38983,38.81506,187],[-90.38986,38.81508,187],[-90.38988,38.8151,186],[-90.38991,38.81512,186],[-90.38995,38.81514,185],[-90.38998,38.81516,185],[-90.39002,38.81517,184],[-90.39005,38.81519,184],[-90.39008,38.81521,183],[-90.3901,38.81524,182],[-90.39013,38.81526,182],[-90.39018,38.81527,182],[-90.39022,38.81528,181],[-90.39026,38.8153,181],[-90.3903,38.81532,181],[-90.39034,38.81533,181],[-90.39038,38.81535,181],[-90.39042,38.81536,182],[-90.39046,38.81537,182],[-90.39051,38.81538,182],[-90.39054,38.81539,183],[-90.39058,38.81539,183],[-90.39062,38.8154,183],[-90.39066,38.81541,184],[-90.3907,38.81542,184],[-90.39074,38.81542,184],[-90.39078,38.81542,185],[-90.39083,38.81542,185],[-90.39087,38.81542,186],[-90.39092,38.81541,186],[-90.39096,38.8154,186],[-90.39099,38.81538,186],[-90.39103,38.81536,186],[-90.39107,38.81535,186],[-90.39111,38.81533,186],[-90.39116,38.81533,186],[-90.3912,38.81533,186],[-90.39125,38.81532,186],[-90.3913,38.81533,186],[-90.39135,38.81534,185],[-90.39138,38.81535,185],[-90.39141,38.81537,185],[-90.39145,38.81538,184],[-90.39149,38.8154,184],[-90.39153,38.81543,183],[-90.39156,38.81546,183],[-90.39159,38.81549,183],[-90.39161,38.81552,183],[-90.39164,38.81554,183],[-90.39167,38.81557,182],[-90.39171,38.81558,181],[-90.39174,38.8156,181],[-90.39178,38.8156,180],[-90.39181,38.81559,179],[-90.39185,38.8156,178],[-90.39188,38.8156,178],[-90.39192,38.81561,177],[-90.39192,38.81558,177],[-90.39191,38.81555,178],[-90.39193,38.81552,178],[-90.39192,38.81549,177],[-90.39192,38.81547,177],[-90.39193,38.81544,177],[-90.39192,38.81541,177],[-90.3919,38.81538,177],[-90.39189,38.81535,177],[-90.39186,38.81532,177],[-90.39186,38.81529,177],[-90.39187,38.81526,176],[-90.39188,38.81522,175],[-90.39188,38.81519,174],[-90.39188,38.81515,173],[-90.39188,38.81512,172],[-90.39189,38.81509,170],[-90.39188,38.81506,170],[-90.39185,38.81503,170],[-90.39184,38.815,169],[-90.39182,38.81498,170],[-90.39181,38.81495,170],[-90.39181,38.81492,169],[-90.39182,38.81488,168],[-90.39183,38.81486,168],[-90.39183,38.81483,167],[-90.39181,38.8148,168],[-90.39181,38.81476,167],[-90.3918,38.81473,167],[-90.39181,38.8147,166],[-90.39181,38.81467,166],[-90.3918,38.81463,165],[-90.39178,38.81461,166],[-90.39175,38.81458,166],[-90.39174,38.81456,166],[-90.39173,38.81452,166],[-90.39173,38.81449,165],[-90.39173,38.81446,165],[-90.39172,38.81443,164],[-90.39172,38.8144,164],[-90.39172,38.81437,163],[-90.39172,38.81434,162],[-90.39172,38.81431,161],[-90.39172,38.81428,160],[-90.39172,38.81425,159],[-90.39171,38.81422,159],[-90.39172,38.81419,158],[-90.39175,38.81418,157],[-90.39178,38.81416,155],[-90.39182,38.81415,154],[-90.39184,38.81413,152],[-90.39184,38.8141,151],[-90.39187,38.81409,150],[-90.39191,38.81408,148],[-90.39195,38.81406,146],[-90.39198,38.81405,145],[-90.39202,38.81404,144],[-90.39205,38.81402,143],[-90.39209,38.81401,142],[-90.39209,38.81404,144],[-90.39207,38.81406,145],[-90.39205,38.81409,147],[-90.39202,38.8141,148],[-90.39199,38.81413,149],[-90.39197,38.81414,150],[-90.39195,38.81417,152],[-90.39193,38.8142,153],[-90.39193,38.81423,154],[-90.39192,38.81425,154],[-90.3919,38.81428,156],[-90.3919,38.8143,156],[-90.39189,38.81433,157],[-90.39189,38.81436,158],[-90.3919,38.81439,158],[-90.39191,38.81443,159],[-90.39192,38.81446,159],[-90.39192,38.81449,160],[-90.39195,38.81451,159],[-90.39197,38.81454,160],[-90.39199,38.81456,159],[-90.39199,38.8146,160],[-90.39199,38.81463,160],[-90.39199,38.81466,161],[-90.392,38.81469,161],[-90.39201,38.81471,161],[-90.39203,38.81474,161],[-90.39203,38.81478,161],[-90.39201,38.81481,162],[-90.39199,38.81484,163],[-90.39199,38.81487,163],[-90.39201,38.8149,163],[-90.39203,38.81492,163],[-90.39204,38.81495,163],[-90.39205,38.81498,163],[-90.39206,38.81501,163],[-90.39206,38.81504,164],[-90.39206,38.81507,165],[-90.39206,38.8151,166],[-90.39205,38.81514,168],[-90.39204,38.81517,169],[-90.39203,38.8152,170],[-90.39202,38.81524,172],[-90.39202,38.81526,173],[-90.39204,38.81529,173],[-90.39205,38.81532,172],[-90.39207,38.81535,172],[-90.39208,38.81539,172],[-90.39208,38.81542,172],[-90.39208,38.81545,172],[-90.39207,38.81548,172],[-90.39206,38.81551,172],[-90.39204,38.81554,173],[-90.39202,38.81557,174],[-90.39201,38.81559,174],[-90.39201,38.81563,173],[-90.39199,38.81565,173],[-90.39195,38.81566,175],[-90.39191,38.81567,176],[-90.39186,38.81567,177],[-90.39182,38.81569,177],[-90.39179,38.81571,178],[-90.39179,38.81574,177],[-90.39181,38.81577,176],[-90.39182,38.8158,176],[-90.39182,38.81583,175],[-90.39182,38.81587,174],[-90.39182,38.81589,174],[-90.39182,38.81592,173],[-90.39181,38.81596,173],[-90.3918,38.81599,172],[-90.3918,38.81602,172],[-90.39179,38.81605,171],[-90.39178,38.81609,171],[-90.39177,38.81612,170],[-90.39177,38.81616,169],[-90.39176,38.81619,168],[-90.39175,38.81622,167],[-90.39174,38.81625,166],[-90.39173,38.81629,165],[-90.39172,38.81631,165],[-90.3917,38.81634,164],[-90.39167,38.81637,164],[-90.39165,38.8164,164],[-90.39163,38.81643,163],[-90.39162,38.81646,163],[-90.3916,38.81649,162],[-90.39157,38.81652,162],[-90.39155,38.81655,162],[-90.39153,38.81657,161],[-90.39151,38.81659,161],[-90.39148,38.81662,161],[-90.39145,38.81663,161],[-90.39141,38.81665,162],[-90.39139,38.81667,161],[-90.39136,38.81669,161],[-90.39135,38.81672,160],[-90.39132,38.81674,160],[-90.39129,38.81676,160],[-90.39126,38.81678,160],[-90.39123,38.8168,160],[-90.39121,38.81683,159],[-90.39119,38.81685,159],[-90.39116,38.81685,159],[-90.39112,38.81684,160],[-90.39109,38.81682,161],[-90.39105,38.81681,162],[-90.39102,38.8168,162],[-90.39098,38.8168,163],[-90.39094,38.81678,164],[-90.39091,38.81677,164],[-90.3909,38.8168,164],[-90.39089,38.81683,163],[-90.39086,38.81684,163],[-90.39082,38.81686,163],[-90.39078,38.81686,163],[-90.39074,38.81686,164],[-90.3907,38.81688,164],[-90.39067,38.8169,164],[-90.39064,38.81692,164],[-90.39061,38.81694,164],[-90.39057,38.81695,164],[-90.39056,38.81698,163],[-90.39058,38.817,162],[-90.3906,38.81703,161],[-90.39061,38.81706,160],[-90.39061,38.81708,159],[-90.39061,38.81712,158],[-90.39061,38.81715,157],[-90.39061,38.81717,156],[-90.39063,38.8172,155],[-90.39061,38.81722,155],[-90.39058,38.81723,155],[-90.3906,38.81725,154],[-90.39062,38.81728,152],[-90.39063,38.81731,151],[-90.39061,38.81735,150],[-90.39059,38.81738,149],[-90.39057,38.81741,149],[-90.39055,38.81737,150],[-90.39055,38.81734,151],[-90.39053,38.81732,152],[-90.39049,38.81732,152],[-90.39045,38.81732,153],[-90.39042,38.8173,154],[-90.3904,38.81728,154],[-90.3904,38.81725,155],[-90.3904,38.81722,156],[-90.39038,38.81719,157],[-90.39037,38.81716,158],[-90.39037,38.81713,159],[-90.39037,38.8171,160],[-90.39039,38.81707,161],[-90.39041,38.81705,162],[-90.39039,38.81702,163],[-90.39038,38.81699,164],[-90.39037,38.81696,165],[-90.39037,38.81693,166],[-90.39037,38.8169,166],[-90.3904,38.81688,166],[-90.39043,38.81686,166],[-90.39046,38.81683,166],[-90.39049,38.81682,166],[-90.39052,38.8168,166],[-90.39056,38.81678,166],[-90.3906,38.81677,166],[-90.39064,38.81677,166],[-90.39068,38.81676,166],[-90.39071,38.81674,166],[-90.39074,38.81672,166],[-90.39077,38.8167,166],[-90.39081,38.81668,166],[-90.39082,38.81665,167],[-90.39086,38.81663,167],[-90.3909,38.81664,167],[-90.39094,38.81665,167],[-90.39098,38.81665,166],[-90.39102,38.81666,166],[-90.39105,38.81668,165],[-90.39108,38.81671,164],[-90.39111,38.81673,164],[-90.39114,38.81671,164],[-90.39117,38.81671,163],[-90.39121,38.8167,163],[-90.39123,38.81667,164],[-90.39124,38.81664,164],[-90.39127,38.81663,164],[-90.3913,38.8166,165],[-90.39133,38.81659,165],[-90.39137,38.81657,165],[-90.39139,38.81654,166],[-90.39139,38.81652,166],[-90.39141,38.81649,167],[-90.39144,38.81646,167],[-90.39146,38.81643,168],[-90.39148,38.81641,168],[-90.39149,38.81638,168],[-90.39151,38.81635,168],[-90.39154,38.81633,168],[-90.39156,38.8163,169],[-90.39158,38.81627,169],[-90.39159,38.81624,170],[-90.3916,38.81621,171],[-90.3916,38.81618,172],[-90.39161,38.81615,173],[-90.39162,38.81612,174],[-90.39164,38.81609,174],[-90.39165,38.81606,175],[-90.39165,38.81603,175],[-90.39166,38.81599,176],[-90.39166,38.81596,177],[-90.39167,38.81594,177],[-90.39167,38.81591,178],[-90.39168,38.81587,178],[-90.39168,38.81584,179],[-90.39167,38.8158,180],[-90.39165,38.81577,180],[-90.39164,38.81574,181],[-90.39164,38.81571,181],[-90.39166,38.81568,181],[-90.3917,38.81567,180],[-90.39175,38.81566,180],[-90.39178,38.81566,179],[-90.39182,38.81566,178],[-90.39186,38.81566,177],[-90.39189,38.81563,177],[-90.39189,38.8156,178],[-90.39189,38.81557,178],[-90.39191,38.81554,178],[-90.39191,38.81551,178],[-90.39191,38.81548,178],[-90.39191,38.81545,177],[-90.39191,38.81541,177],[-90.39189,38.81538,177],[-90.39188,38.81535,177],[-90.39186,38.81533,177],[-90.39186,38.81529,177],[-90.39187,38.81526,176],[-90.39188,38.81522,175],[-90.39188,38.81519,174],[-90.39189,38.81515,172],[-90.3919,38.81512,171],[-90.3919,38.81509,170],[-90.3919,38.81505,169],[-90.39188,38.81503,169],[-90.39186,38.815,168],[-90.39184,38.81497,169],[-90.39181,38.81494,170],[-90.3918,38.81491,169],[-90.39181,38.81488,169],[-90.39182,38.81485,168],[-90.39182,38.81482,167],[-90.39181,38.81479,167],[-90.3918,38.81476,167],[-90.39179,38.81472,167],[-90.39179,38.81469,166],[-90.3918,38.81466,166],[-90.39179,38.81463,166],[-90.39178,38.8146,166],[-90.39176,38.81457,166],[-90.39174,38.81455,166],[-90.39173,38.81452,166],[-90.39173,38.81449,165],[-90.39173,38.81446,165],[-90.39172,38.81443,164],[-90.39172,38.8144,164],[-90.39172,38.81437,163],[-90.39171,38.81434,162],[-90.39171,38.81431,161],[-90.39172,38.81429,160],[-90.39173,38.81426,159],[-90.39172,38.81423,159],[-90.39172,38.8142,158],[-90.39174,38.81417,157],[-90.39177,38.81416,156],[-90.3918,38.81414,154],[-90.39184,38.81413,152],[-90.39184,38.8141,151],[-90.39187,38.81408,149],[-90.3919,38.81407,148],[-90.39194,38.81406,146],[-90.39198,38.81405,145],[-90.39202,38.81404,144],[-90.39206,38.81402,143],[-90.3921,38.81401,142],[-90.39214,38.81401,141],[-90.39217,38.81399,140],[-90.39214,38.81397,139],[-90.3921,38.81397,139],[-90.39206,38.81396,139],[-90.39202,38.81395,139],[-90.39198,38.81394,139],[-90.39194,38.81392,139],[-90.3919,38.8139,140],[-90.39187,38.81388,140],[-90.39183,38.81387,142],[-90.39179,38.81385,143],[-90.39176,38.81383,144],[-90.39172,38.81382,145],[-90.39169,38.81379,145],[-90.39166,38.81377,145],[-90.39163,38.81374,146],[-90.3916,38.81371,146],[-90.39158,38.81369,146],[-90.39155,38.81366,146],[-90.39153,38.81363,146],[-90.39153,38.8136,146],[-90.39152,38.81356,147],[-90.39151,38.81352,147],[-90.3915,38.8135,148],[-90.39148,38.81346,148],[-90.39147,38.81344,149],[-90.39145,38.81341,149],[-90.39142,38.81339,150],[-90.39139,38.81337,150],[-90.39135,38.81336,151],[-90.39131,38.81333,152],[-90.39127,38.81331,152],[-90.39124,38.81329,152],[-90.39121,38.81327,153],[-90.39118,38.81325,153],[-90.39116,38.81322,153],[-90.39114,38.81319,154],[-90.39111,38.81315,154],[-90.39109,38.81312,154],[-90.39107,38.81309,154],[-90.39105,38.81306,154],[-90.39103,38.81303,154],[-90.39101,38.813,153],[-90.391,38.81296,152],[-90.39099,38.81293,152],[-90.39097,38.8129,151],[-90.39096,38.81288,151],[-90.39095,38.81285,150],[-90.39093,38.81282,150],[-90.39093,38.81278,149],[-90.39092,38.81274,148],[-90.39091,38.81271,148],[-90.39091,38.81268,147],[-90.39091,38.81265,146],[-90.3909,38.81262,146],[-90.39089,38.81258,145],[-90.39088,38.81255,144],[-90.39087,38.81251,143],[-90.39086,38.81248,144],[-90.39085,38.81244,145],[-90.39082,38.81241,145],[-90.39081,38.81239,146],[-90.39079,38.81235,147],[-90.39077,38.81232,147],[-90.39077,38.81228,148],[-90.39076,38.81225,148],[-90.39076,38.81223,148],[-90.39076,38.8122,148],[-90.39075,38.81216,148],[-90.39076,38.81212,148],[-90.39077,38.81208,148],[-90.39077,38.81206,148],[-90.39079,38.81202,149],[-90.39079,38.81199,148],[-90.3908,38.81196,148],[-90.39079,38.81193,148],[-90.39078,38.8119,148],[-90.39077,38.81187,148],[-90.39077,38.81184,148],[-90.39078,38.8118,147],[-90.39079,38.81178,147],[-90.39081,38.81174,147],[-90.39083,38.81171,147],[-90.39085,38.81169,147],[-90.39088,38.81166,146],[-90.39092,38.81163,145],[-90.39095,38.8116,145],[-90.39097,38.81157,144],[-90.39098,38.81154,144],[-90.39098,38.81151,143],[-90.39096,38.81148,143],[-90.39094,38.81145,143],[-90.39092,38.81143,142],[-90.3909,38.8114,142],[-90.39087,38.81138,142],[-90.39085,38.81136,142],[-90.39082,38.81134,142],[-90.39078,38.81131,142],[-90.39076,38.81128,142],[-90.39073,38.81125,142],[-90.39072,38.81122,142],[-90.39072,38.81118,141],[-90.39072,38.81115,141],[-90.39071,38.81113,141],[-90.39071,38.81109,141],[-90.39073,38.81106,140],[-90.39074,38.81103,140],[-90.39074,38.81099,140],[-90.39074,38.81096,139],[-90.39074,38.81094,139],[-90.39072,38.81091,139],[-90.39071,38.81088,139],[-90.39072,38.81084,138],[-90.39074,38.81081,138],[-90.39077,38.8108,138],[-90.39081,38.8108,138],[-90.39084,38.81079,138],[-90.39087,38.81077,138],[-90.39087,38.8108,138],[-90.39084,38.8108,138],[-90.39082,38.81081,138]]],
        "bbox": [
          -90.38756,
          38.81741,
          -90.39217,
          38.81077
        ]
      },
      "properties": {
        "name": "2.26.2024B"
      }
    }
  ]
}