{
  "type": "FeatureCollection",
  "features": [
    {
      "type": "Feature",
      "geometry": {
        "type": "MultiLineString",
        "coordinates": [[[-90.39256,38.81356,138],[-90.39257,38.81359,138],[-90.39256,38.81362,138],[-90.39255,38.81365,138],[-90.39252,38.81368,138],[-90.3925,38.8137,138],[-90.39249,38.81373,138],[-90.39249,38.81376,138],[-90.39248,38.8138,138],[-90.39247,38.81383,137],[-90.39246,38.81385,137],[-90.39245,38.81389,137],[-90.39242,38.81392,138],[-90.3924,38.81394,138],[-90.39238,38.81397,140],[-90.39237,38.814,141],[-90.39236,38.81403,143],[-90.39232,38.81406,144],[-90.39229,38.81408,145],[-90.39223,38.81408,145],[-90.3922,38.81407,145],[-90.39216,38.81405,143],[-90.39213,38.81402,142],[-90.39211,38.814,141],[-90.39209,38.81398,140],[-90.39206,38.81396,139],[-90.39203,38.81394,139],[-90.392,38.81391,138],[-90.39197,38.81388,137],[-90.39196,38.81385,138],[-90.39194,38.81383,138],[-90.39191,38.81381,139],[-90.39187,38.81378,141],[-90.39184,38.81375,141],[-90.3918,38.81373,142],[-90.39177,38.81371,142],[-90.39174,38.81369,143],[-90.39171,38.81366,143],[-90.39169,38.81363,143],[-90.39167,38.81361,142],[-90.39165,38.81358,143],[-90.39163,38.81355,144],[-90.39162,38.81352,145],[-90.39161,38.81349,145],[-90.39159,38.81346,146],[-90.39157,38.81343,147],[-90.39156,38.8134,147],[-90.39153,38.81338,148],[-90.3915,38.81336,149],[-90.39147,38.81335,149],[-90.39144,38.81333,150],[-90.3914,38.81333,150],[-90.39136,38.81333,151],[-90.39134,38.81331,151],[-90.39134,38.81328,151],[-90.39136,38.81326,151],[-90.39134,38.81323,151],[-90.39132,38.81321,151],[-90.39129,38.81319,151],[-90.39125,38.81318,152],[-90.39121,38.81315,152],[-90.39118,38.81313,153],[-90.39116,38.81309,153],[-90.39115,38.81306,153],[-90.39113,38.81303,153],[-90.39112,38.813,152],[-90.3911,38.81297,151],[-90.39109,38.81294,151],[-90.39108,38.81291,150],[-90.39107,38.81289,150],[-90.39106,38.81286,149],[-90.39104,38.81283,149],[-90.39105,38.8128,148],[-90.39104,38.81277,147],[-90.39104,38.81274,147],[-90.39104,38.8127,146],[-90.39102,38.81267,145],[-90.391,38.81264,145],[-90.39098,38.81261,144],[-90.39097,38.81258,144],[-90.39097,38.81255,143],[-90.39097,38.81252,142],[-90.39096,38.81249,142],[-90.39095,38.81246,143],[-90.39093,38.81243,144],[-90.39092,38.81241,145],[-90.3909,38.81238,146],[-90.39091,38.81235,146],[-90.39091,38.81232,147],[-90.39089,38.81229,148],[-90.39087,38.81226,149],[-90.39085,38.81223,149],[-90.39085,38.8122,149],[-90.39085,38.81216,149],[-90.39085,38.81212,149],[-90.39086,38.81209,149],[-90.39088,38.81207,149],[-90.39092,38.81209,149],[-90.39095,38.81207,149],[-90.39097,38.8121,149],[-90.39093,38.8121,149],[-90.39089,38.81209,149],[-90.39088,38.81207,149],[-90.39089,38.81204,149],[-90.39091,38.81201,149],[-90.39092,38.81197,149],[-90.39094,38.81195,150],[-90.39094,38.81192,149],[-90.39095,38.81188,149],[-90.39095,38.81185,148],[-90.39095,38.81181,148],[-90.39095,38.81179,147],[-90.39096,38.81175,147],[-90.39097,38.81172,146],[-90.39099,38.81169,146],[-90.391,38.81166,145],[-90.39103,38.81163,145],[-90.39107,38.8116,144],[-90.39107,38.81157,143],[-90.39108,38.81153,143],[-90.39108,38.81151,142],[-90.39108,38.81147,142],[-90.39107,38.81145,142],[-90.39105,38.81141,141],[-90.39102,38.81139,141],[-90.391,38.81137,141],[-90.39096,38.81135,141],[-90.39094,38.81132,141],[-90.39088,38.81128,141],[-90.39084,38.81124,141],[-90.39077,38.81121,141],[-90.39073,38.81122,141],[-90.3907,38.81124,142],[-90.39066,38.81126,142],[-90.39062,38.81127,142],[-90.39057,38.81128,142],[-90.39054,38.81128,142],[-90.3905,38.81127,142],[-90.39048,38.81124,142],[-90.39045,38.81122,142],[-90.39043,38.8112,142],[-90.39039,38.81118,142],[-90.39036,38.81117,142],[-90.39032,38.81117,142],[-90.39029,38.81118,142],[-90.39025,38.81119,143],[-90.3902,38.81119,143],[-90.39016,38.81119,144],[-90.39012,38.81118,144],[-90.39009,38.81116,145],[-90.39006,38.81115,145],[-90.39002,38.81115,146],[-90.38999,38.81114,146],[-90.38994,38.81114,147],[-90.3899,38.81115,148],[-90.38987,38.81118,148],[-90.38984,38.81119,148],[-90.3898,38.81119,149],[-90.38976,38.81119,150],[-90.38973,38.81118,150],[-90.38968,38.81117,150],[-90.38965,38.81115,151],[-90.38961,38.81115,151],[-90.38958,38.81116,151],[-90.38954,38.81119,151],[-90.38952,38.81122,151],[-90.38949,38.81125,151],[-90.38947,38.81127,151],[-90.38944,38.81129,152],[-90.38942,38.81131,152],[-90.3894,38.81134,152],[-90.38938,38.81136,152],[-90.38935,38.81138,152],[-90.38931,38.81139,152],[-90.38928,38.81137,152],[-90.38924,38.81136,152],[-90.3892,38.81137,152],[-90.38918,38.8114,152],[-90.38917,38.81143,152],[-90.38914,38.81145,152],[-90.38911,38.81146,153],[-90.38908,38.81148,154],[-90.38905,38.8115,154],[-90.38901,38.8115,155],[-90.38897,38.81151,156],[-90.38893,38.81151,157],[-90.3889,38.81152,158],[-90.38886,38.81154,159],[-90.38882,38.81154,160],[-90.38878,38.81153,161],[-90.38876,38.81155,161],[-90.38875,38.81158,162],[-90.38873,38.81161,162],[-90.38871,38.81163,163],[-90.38868,38.81165,163],[-90.38866,38.81168,164],[-90.38863,38.81171,164],[-90.38861,38.81173,164],[-90.38859,38.81175,164],[-90.38857,38.81178,164],[-90.38855,38.81181,164],[-90.38854,38.81184,164],[-90.38854,38.81187,163],[-90.38856,38.8119,163],[-90.38859,38.81192,162],[-90.38862,38.81194,161],[-90.38864,38.81198,161],[-90.38866,38.81201,161],[-90.38869,38.81203,161],[-90.38872,38.81206,161],[-90.38875,38.81208,161],[-90.38877,38.81211,161],[-90.38876,38.81214,161],[-90.38875,38.81217,162],[-90.38873,38.8122,162],[-90.38871,38.81223,163],[-90.38869,38.81225,163],[-90.38867,38.81228,164],[-90.38863,38.81229,165],[-90.3886,38.8123,165],[-90.38858,38.81233,166],[-90.38858,38.81236,167],[-90.38856,38.81238,167],[-90.38855,38.81241,168],[-90.38854,38.81244,169],[-90.38856,38.81246,169],[-90.38857,38.81249,169],[-90.38856,38.81252,170],[-90.38855,38.81255,170],[-90.38853,38.81257,171],[-90.38853,38.8126,171],[-90.3885,38.81263,172],[-90.38848,38.81265,173],[-90.38845,38.81267,174],[-90.38842,38.81268,175],[-90.38839,38.81269,176],[-90.38836,38.81271,177],[-90.38832,38.81272,179],[-90.38829,38.81273,180],[-90.38825,38.81272,181],[-90.38826,38.81269,180],[-90.38824,38.81267,180],[-90.38822,38.81269,181],[-90.38819,38.81271,182],[-90.38818,38.81274,183],[-90.38816,38.81277,184],[-90.38813,38.81278,185],[-90.3881,38.8128,187],[-90.38807,38.81281,187],[-90.38805,38.81283,188],[-90.38806,38.81286,188],[-90.38806,38.81289,189],[-90.38804,38.81291,189],[-90.38803,38.81295,190],[-90.38803,38.81297,190],[-90.38803,38.813,190],[-90.38803,38.81303,190],[-90.38802,38.81306,191],[-90.38801,38.81309,191],[-90.38801,38.81313,192],[-90.38799,38.81315,192],[-90.38798,38.81318,193],[-90.38796,38.81321,194],[-90.38793,38.81323,194],[-90.3879,38.81324,194],[-90.38789,38.81327,195],[-90.38785,38.81328,195],[-90.38782,38.81329,195],[-90.38779,38.81331,195],[-90.38775,38.81331,195],[-90.38772,38.8133,195],[-90.38768,38.81329,194],[-90.38764,38.81329,194],[-90.3876,38.81328,194],[-90.38757,38.8133,194],[-90.38756,38.81333,194],[-90.38757,38.81336,194],[-90.38758,38.81339,194],[-90.38758,38.81343,195],[-90.38756,38.81345,195],[-90.38754,38.81348,195],[-90.38754,38.81351,195],[-90.38754,38.81354,195],[-90.38754,38.81357,195],[-90.38754,38.8136,196],[-90.38753,38.81363,196],[-90.38752,38.81366,196],[-90.38753,38.81369,197],[-90.38753,38.81372,197],[-90.38752,38.81374,197],[-90.38752,38.81377,198],[-90.3875,38.8138,198],[-90.38749,38.81383,199],[-90.3875,38.81386,199],[-90.38753,38.81388,199],[-90.38755,38.81391,200],[-90.38759,38.81392,200],[-90.38763,38.81393,200],[-90.38766,38.81394,200],[-90.38771,38.81395,200],[-90.38774,38.81394,200],[-90.38778,38.81394,199],[-90.38782,38.81394,199],[-90.38785,38.81394,199],[-90.38789,38.81395,199],[-90.38793,38.81396,199],[-90.38796,38.81396,199],[-90.388,38.81394,199],[-90.38804,38.81394,199],[-90.38809,38.81393,199],[-90.38813,38.81393,198],[-90.38817,38.81393,198],[-90.38821,38.81393,198],[-90.38825,38.81394,198],[-90.38828,38.81397,198],[-90.38829,38.814,198],[-90.38832,38.814,198],[-90.38837,38.81402,198],[-90.3884,38.81403,197],[-90.38844,38.81405,197],[-90.38848,38.81406,197],[-90.38851,38.81408,197],[-90.38855,38.81409,196],[-90.38859,38.8141,196],[-90.38862,38.8141,196],[-90.38867,38.81411,195],[-90.3887,38.81412,195],[-90.38874,38.81414,194],[-90.38878,38.81415,194],[-90.38882,38.81415,193],[-90.38886,38.81416,193],[-90.3889,38.81417,192],[-90.38893,38.81418,192],[-90.38898,38.81419,192],[-90.38903,38.81419,192],[-90.38906,38.81418,192],[-90.3891,38.81419,192],[-90.38914,38.8142,192],[-90.38916,38.81422,192],[-90.38918,38.81425,192],[-90.38922,38.81426,191],[-90.38926,38.81427,191],[-90.38929,38.81429,190],[-90.38932,38.8143,190],[-90.38936,38.81432,190],[-90.38939,38.81433,189],[-90.38943,38.81435,189],[-90.38947,38.81436,189],[-90.38949,38.81439,189],[-90.38951,38.81442,189],[-90.38952,38.81445,189],[-90.38953,38.81447,189],[-90.38952,38.81451,190],[-90.38951,38.81455,190],[-90.38951,38.81458,190],[-90.3895,38.81461,190],[-90.38948,38.81464,190],[-90.38947,38.81467,190],[-90.38947,38.8147,191],[-90.38948,38.81473,191],[-90.38948,38.81476,190],[-90.38948,38.8148,190],[-90.38948,38.81483,189],[-90.38949,38.81486,189],[-90.38951,38.81489,189],[-90.38953,38.81492,189],[-90.38955,38.81495,188],[-90.38958,38.81497,188],[-90.3896,38.815,188],[-90.38962,38.81502,188],[-90.38965,38.81505,187],[-90.38968,38.81508,187],[-90.38971,38.8151,186],[-90.38975,38.81512,186],[-90.38978,38.81514,185],[-90.38981,38.81516,185],[-90.38983,38.81519,184],[-90.38986,38.81521,184],[-90.38989,38.81523,183],[-90.38992,38.81526,182],[-90.38995,38.81528,182],[-90.38997,38.8153,181],[-90.39,38.81532,181],[-90.39002,38.81534,180],[-90.39005,38.81535,180],[-90.39009,38.81537,180],[-90.39012,38.81538,180],[-90.39016,38.81539,180],[-90.3902,38.8154,180],[-90.39024,38.8154,180],[-90.39028,38.8154,180],[-90.39032,38.81541,180],[-90.39036,38.81542,180],[-90.39039,38.81543,181],[-90.39042,38.81544,181],[-90.39046,38.81545,181],[-90.3905,38.81547,181],[-90.39054,38.81547,182],[-90.39058,38.81547,182],[-90.39062,38.81548,183],[-90.39066,38.81548,183],[-90.39069,38.81549,183],[-90.39073,38.8155,184],[-90.39077,38.81552,184],[-90.3908,38.81553,184],[-90.39085,38.81553,185],[-90.39089,38.81552,185],[-90.39092,38.81551,185],[-90.39097,38.81549,185],[-90.39101,38.81548,186],[-90.39105,38.81546,186],[-90.39108,38.81544,186],[-90.39112,38.81543,186],[-90.39116,38.81543,186],[-90.3912,38.81544,186],[-90.39124,38.81544,185],[-90.39129,38.81544,185],[-90.39133,38.81544,185],[-90.39137,38.81545,185],[-90.3914,38.81546,185],[-90.39144,38.81548,184],[-90.39147,38.81549,184],[-90.39149,38.81552,184],[-90.39152,38.81555,184],[-90.39154,38.81557,183],[-90.39157,38.81559,183],[-90.3916,38.81561,182],[-90.39162,38.81563,182],[-90.39165,38.81566,182],[-90.39168,38.81568,181],[-90.39171,38.8157,180],[-90.39174,38.81572,179],[-90.39176,38.8157,179],[-90.3918,38.81569,178],[-90.39184,38.81569,177],[-90.39187,38.81569,176],[-90.39191,38.8157,175],[-90.39194,38.81571,174],[-90.39193,38.81569,175],[-90.39188,38.81567,177],[-90.39185,38.81567,177],[-90.39181,38.81567,178],[-90.39177,38.81567,179],[-90.39174,38.81568,179],[-90.39172,38.81571,179],[-90.39173,38.81575,179],[-90.39174,38.81579,178],[-90.39174,38.81582,178],[-90.39174,38.81585,177],[-90.39174,38.81588,176],[-90.39174,38.81591,176],[-90.39174,38.81594,175],[-90.39172,38.81598,175],[-90.39171,38.816,175],[-90.39171,38.81604,174],[-90.3917,38.81607,173],[-90.3917,38.81611,173],[-90.39169,38.81614,172],[-90.39168,38.81617,171],[-90.39167,38.8162,170],[-90.39166,38.81624,169],[-90.39165,38.81627,168],[-90.39163,38.8163,167],[-90.39163,38.81634,166],[-90.39161,38.81636,166],[-90.39158,38.81638,166],[-90.39155,38.81641,166],[-90.39152,38.81643,166],[-90.3915,38.81646,165],[-90.39149,38.81649,165],[-90.39146,38.81653,164],[-90.39145,38.81655,164],[-90.39143,38.81659,163],[-90.39141,38.81662,163],[-90.39143,38.81664,161],[-90.39139,38.81663,163],[-90.39135,38.81663,163],[-90.39132,38.81666,163],[-90.39129,38.81669,162],[-90.39126,38.8167,162],[-90.39125,38.81673,162],[-90.39125,38.81676,161],[-90.3912,38.81678,161],[-90.39117,38.8168,161],[-90.39113,38.8168,161],[-90.39111,38.81682,161],[-90.39106,38.81682,162],[-90.39104,38.81679,163],[-90.39103,38.81676,163],[-90.39103,38.81674,164],[-90.391,38.81672,165],[-90.39098,38.81669,165],[-90.39096,38.81667,166],[-90.39093,38.81665,167],[-90.3909,38.81664,167],[-90.39088,38.81666,166],[-90.39086,38.81669,166],[-90.39085,38.81672,165],[-90.39082,38.81674,165],[-90.3908,38.81677,165],[-90.39077,38.81678,165],[-90.39073,38.81677,165],[-90.3907,38.81676,166],[-90.39067,38.81678,166],[-90.39064,38.8168,165],[-90.39061,38.81682,165],[-90.39058,38.81685,165],[-90.39054,38.81686,165],[-90.39051,38.81688,165],[-90.39049,38.81691,165],[-90.39049,38.81694,165],[-90.39048,38.81697,164],[-90.39049,38.817,163],[-90.3905,38.81703,162],[-90.39052,38.81706,161],[-90.39052,38.81708,160],[-90.39051,38.81712,159],[-90.3905,38.81714,158],[-90.39049,38.81718,157],[-90.39048,38.8172,157],[-90.39048,38.81723,155],[-90.3905,38.81726,154],[-90.3905,38.81728,154],[-90.3905,38.81731,153],[-90.3905,38.81734,152],[-90.39052,38.81737,150],[-90.39052,38.81734,151],[-90.39052,38.81737,150],[-90.39055,38.81739,149],[-90.39057,38.81741,149],[-90.39057,38.81744,147],[-90.39057,38.81747,146],[-90.39054,38.81749,146],[-90.39051,38.81751,146],[-90.39047,38.81751,146],[-90.39046,38.81754,146],[-90.39048,38.81758,145],[-90.39048,38.8176,144],[-90.3905,38.81763,143],[-90.39053,38.81765,143],[-90.39055,38.81767,142],[-90.39056,38.8177,141],[-90.39054,38.81773,141],[-90.39052,38.81775,141],[-90.39047,38.81776,141],[-90.39043,38.81777,141],[-90.39038,38.81777,142],[-90.39034,38.81777,142],[-90.39029,38.81779,142],[-90.39027,38.81781,142],[-90.39024,38.81783,143],[-90.39021,38.81784,143],[-90.39017,38.81785,144],[-90.39013,38.81785,144],[-90.3901,38.81784,145],[-90.39005,38.81785,145],[-90.39002,38.81787,145],[-90.38998,38.81788,146],[-90.38994,38.81788,146],[-90.38991,38.8179,146],[-90.38988,38.81792,146],[-90.38984,38.81793,147],[-90.38981,38.81795,147],[-90.38978,38.81798,147],[-90.38976,38.81799,147],[-90.38972,38.81801,147],[-90.38968,38.81801,147],[-90.38963,38.81801,147],[-90.3896,38.81802,147],[-90.38955,38.81802,147],[-90.38951,38.81801,147],[-90.38948,38.81799,148],[-90.38944,38.81797,148],[-90.3894,38.81797,149],[-90.38936,38.81798,149],[-90.38932,38.81797,150],[-90.38928,38.81796,151],[-90.38925,38.81794,152],[-90.38921,38.81794,153],[-90.38917,38.81795,153],[-90.38913,38.81795,154],[-90.38909,38.81797,154],[-90.38907,38.81799,154],[-90.38905,38.81802,153],[-90.38903,38.81805,153],[-90.389,38.81807,153],[-90.38897,38.81807,154],[-90.38894,38.81805,155],[-90.3889,38.81805,156],[-90.38888,38.81808,156],[-90.38886,38.8181,155],[-90.38884,38.81812,155],[-90.38881,38.81815,154],[-90.38877,38.81816,155],[-90.38872,38.81817,155],[-90.38868,38.81818,155],[-90.38864,38.81819,156],[-90.38861,38.81821,155],[-90.38859,38.81824,154],[-90.38857,38.81826,153],[-90.38854,38.81828,152],[-90.38851,38.8183,151],[-90.38848,38.81832,150],[-90.38845,38.81833,150],[-90.38843,38.81836,148],[-90.3884,38.81838,148],[-90.38838,38.81841,146],[-90.38838,38.81844,145],[-90.38836,38.81847,144],[-90.38833,38.81849,143],[-90.38831,38.81851,142],[-90.38829,38.81854,141],[-90.38826,38.81856,141],[-90.38824,38.81857,140],[-90.38822,38.8186,140],[-90.38819,38.81862,140],[-90.38814,38.81863,140],[-90.3881,38.81864,141],[-90.38806,38.81864,141],[-90.38803,38.81865,141],[-90.38799,38.81867,142],[-90.38795,38.81869,142],[-90.38793,38.81871,142],[-90.38792,38.81874,142],[-90.38791,38.81877,142],[-90.38788,38.81879,142],[-90.38786,38.81882,141],[-90.38783,38.81884,142],[-90.38778,38.81885,142],[-90.38774,38.81886,142],[-90.3877,38.81888,142],[-90.38767,38.81891,141],[-90.38766,38.81894,140],[-90.38764,38.81896,140],[-90.38762,38.81899,139],[-90.3876,38.81901,138],[-90.38759,38.81904,137],[-90.38758,38.81907,136],[-90.38754,38.81908,136],[-90.3875,38.81909,135],[-90.38747,38.81911,134],[-90.38744,38.81913,134],[-90.38742,38.81916,132],[-90.38739,38.81917,132],[-90.38736,38.81919,132],[-90.38734,38.81922,132],[-90.38731,38.81924,132],[-90.38728,38.81925,132],[-90.38725,38.81927,132],[-90.38721,38.81929,132],[-90.38717,38.8193,132],[-90.38712,38.81931,132],[-90.38709,38.81933,132],[-90.38707,38.81936,132],[-90.38704,38.81938,132],[-90.38701,38.8194,132],[-90.38697,38.81941,132],[-90.38694,38.81942,132],[-90.38689,38.81942,132],[-90.38686,38.81943,132],[-90.38683,38.81945,131],[-90.38679,38.81946,131],[-90.38675,38.81947,131],[-90.38671,38.81947,131],[-90.38668,38.81949,131],[-90.38665,38.81951,131],[-90.38665,38.81954,131],[-90.38668,38.81957,131],[-90.38667,38.81959,131],[-90.38663,38.81961,131],[-90.3866,38.8196,131],[-90.38656,38.8196,131],[-90.38653,38.81959,131],[-90.38648,38.81959,131],[-90.38645,38.8196,131],[-90.38643,38.81962,131],[-90.3864,38.81962,131],[-90.38638,38.81959,131],[-90.38636,38.81957,131],[-90.38637,38.81954,131],[-90.38633,38.81954,132],[-90.3863,38.81955,132],[-90.38626,38.81956,133],[-90.38622,38.81957,133],[-90.38619,38.81959,133],[-90.38615,38.81958,134],[-90.38613,38.81955,135],[-90.38609,38.81955,136],[-90.38605,38.81956,136],[-90.38602,38.81958,135],[-90.38599,38.81959,135],[-90.38595,38.8196,135],[-90.38592,38.81961,135],[-90.38589,38.81962,134],[-90.38585,38.81963,134],[-90.38581,38.81964,134],[-90.38578,38.81965,133],[-90.38575,38.81965,133],[-90.38572,38.81962,135],[-90.38568,38.81964,134],[-90.3857,38.81966,133],[-90.3857,38.81969,132],[-90.38568,38.81971,131],[-90.38569,38.81969,132],[-90.3857,38.81966,133],[-90.3857,38.81963,134],[-90.38571,38.8196,135],[-90.38575,38.81961,135],[-90.38578,38.81964,134],[-90.38581,38.81964,134],[-90.38585,38.81964,134],[-90.38588,38.81963,134],[-90.38591,38.81961,135],[-90.38595,38.81961,134],[-90.38599,38.81961,134],[-90.38602,38.8196,134],[-90.38606,38.81959,135],[-90.3861,38.81959,134],[-90.38615,38.81959,134],[-90.38618,38.81958,134],[-90.38621,38.81957,133],[-90.38625,38.81957,133],[-90.38629,38.81956,132],[-90.38632,38.81954,132],[-90.38637,38.81954,131],[-90.3864,38.81953,131],[-90.38644,38.81952,131],[-90.38646,38.8195,131],[-90.3865,38.81949,131],[-90.38653,38.81948,131],[-90.38656,38.81946,131],[-90.3866,38.81946,131],[-90.38664,38.81945,131],[-90.38667,38.81947,131],[-90.38671,38.81945,131],[-90.38674,38.81942,132],[-90.38676,38.8194,132],[-90.38677,38.81938,132],[-90.38679,38.81935,133],[-90.38683,38.81934,132],[-90.38686,38.81933,132],[-90.3869,38.81932,132],[-90.38692,38.81929,132],[-90.38696,38.81928,132],[-90.387,38.81928,132],[-90.38704,38.81927,132],[-90.38708,38.81925,132],[-90.3871,38.81923,132],[-90.38713,38.81922,132],[-90.38717,38.81921,132],[-90.3872,38.8192,132],[-90.38722,38.81916,132],[-90.38722,38.81913,133],[-90.38722,38.8191,134],[-90.38724,38.81907,136],[-90.38728,38.81906,136],[-90.38733,38.81905,136],[-90.38736,38.81904,137],[-90.3874,38.81903,137],[-90.38742,38.819,138],[-90.38743,38.81897,139],[-90.38745,38.81895,140],[-90.38748,38.81893,140],[-90.38751,38.81891,141],[-90.38754,38.81889,141],[-90.38758,38.81887,142],[-90.38762,38.81887,142],[-90.38765,38.81886,142],[-90.38769,38.81884,142],[-90.38774,38.81882,143],[-90.38779,38.81881,143],[-90.38783,38.8188,142],[-90.38787,38.81878,142],[-90.3879,38.81875,142],[-90.38792,38.81871,142],[-90.38795,38.8187,142],[-90.38799,38.81869,141],[-90.38803,38.81867,141],[-90.38808,38.81867,141],[-90.38811,38.81866,140],[-90.38815,38.81865,140],[-90.38818,38.81864,139],[-90.38821,38.81861,139],[-90.38824,38.81859,140],[-90.38826,38.81856,141],[-90.38828,38.81853,141],[-90.3883,38.8185,143],[-90.38835,38.81848,143],[-90.38835,38.81845,144],[-90.38836,38.81842,146],[-90.38839,38.81841,146],[-90.38844,38.8184,147],[-90.38847,38.81839,147],[-90.38851,38.81838,148],[-90.38854,38.81836,148],[-90.38857,38.81833,150],[-90.3886,38.81831,151],[-90.38861,38.81828,152],[-90.38861,38.81825,153],[-90.38865,38.81823,154],[-90.38869,38.81823,153],[-90.38873,38.81822,153],[-90.38876,38.81821,153],[-90.38879,38.81819,153],[-90.38882,38.81816,154],[-90.38884,38.81814,154],[-90.38886,38.81811,155],[-90.38888,38.81808,156],[-90.38888,38.81805,157],[-90.38888,38.81802,158],[-90.38892,38.81803,156],[-90.38896,38.81805,155],[-90.389,38.81805,154],[-90.38903,38.81805,153],[-90.38905,38.81803,153],[-90.38907,38.818,154],[-90.38911,38.818,153],[-90.38915,38.818,152],[-90.38919,38.818,151],[-90.38923,38.81802,150],[-90.38927,38.818,150],[-90.38929,38.81798,150],[-90.38933,38.81797,150],[-90.38937,38.81797,149],[-90.3894,38.81798,149],[-90.38945,38.81798,148],[-90.38948,38.81797,148],[-90.38951,38.81795,149],[-90.38954,38.81793,149],[-90.38958,38.8179,149],[-90.38961,38.81788,150],[-90.38965,38.81787,150],[-90.38968,38.81786,150],[-90.38972,38.81786,149],[-90.38976,38.81786,149],[-90.3898,38.81787,148],[-90.38984,38.81788,148],[-90.38986,38.8179,147],[-90.38988,38.81793,146],[-90.38992,38.81793,146],[-90.38995,38.81791,146],[-90.38998,38.8179,146],[-90.39002,38.81788,145],[-90.39006,38.81786,145],[-90.39011,38.81786,144],[-90.39014,38.81787,144],[-90.39018,38.81787,143],[-90.39021,38.81785,143],[-90.39024,38.81783,143],[-90.39027,38.81781,142],[-90.39029,38.81779,142],[-90.39032,38.81777,142],[-90.39036,38.81777,142],[-90.3904,38.81776,142],[-90.39044,38.81776,141],[-90.39048,38.81774,141],[-90.39051,38.81773,141],[-90.39053,38.81771,141],[-90.39056,38.81768,142],[-90.39059,38.81766,142],[-90.39062,38.81764,142],[-90.39066,38.81764,141],[-90.39069,38.81762,141],[-90.39072,38.81758,142],[-90.39074,38.81757,142],[-90.39078,38.81756,141],[-90.3908,38.81753,141],[-90.39081,38.8175,142],[-90.39084,38.81749,142],[-90.39085,38.81747,142],[-90.39089,38.81747,142],[-90.39092,38.81745,142],[-90.39094,38.81742,143],[-90.39095,38.81739,143],[-90.39096,38.81737,144],[-90.39099,38.81733,145],[-90.39101,38.81731,145],[-90.39103,38.81728,145],[-90.39106,38.81726,145],[-90.39109,38.81723,146],[-90.39111,38.81721,146],[-90.39113,38.81718,147],[-90.39115,38.81716,147],[-90.39119,38.81714,148],[-90.39123,38.81712,148],[-90.39126,38.8171,148],[-90.3913,38.81709,148],[-90.39133,38.81707,148],[-90.39136,38.81704,149],[-90.39139,38.81702,149],[-90.39142,38.81701,149],[-90.39146,38.81699,149],[-90.39149,38.81698,149],[-90.39153,38.81697,149],[-90.39157,38.81697,148],[-90.3916,38.81697,148],[-90.39164,38.81695,148],[-90.39168,38.81694,148],[-90.3917,38.81692,148],[-90.39173,38.8169,149],[-90.39176,38.81688,149],[-90.39179,38.81686,150],[-90.39182,38.81684,150],[-90.39184,38.81681,150],[-90.39186,38.81679,150],[-90.39189,38.81677,150],[-90.39192,38.81675,150],[-90.39193,38.81671,150],[-90.39193,38.81668,151],[-90.39195,38.81665,151],[-90.39197,38.81662,151],[-90.39201,38.81662,150],[-90.39205,38.81661,149],[-90.39208,38.81659,149],[-90.3921,38.81656,149],[-90.39213,38.81653,149],[-90.39216,38.81652,148],[-90.3922,38.81651,148],[-90.39223,38.81649,147],[-90.39226,38.81647,147],[-90.39227,38.81644,147],[-90.39228,38.81641,147],[-90.39229,38.81638,147],[-90.39231,38.81636,147],[-90.39231,38.81633,148],[-90.39228,38.81631,150],[-90.39229,38.81629,150],[-90.39231,38.81626,150],[-90.39234,38.81624,150],[-90.39234,38.81621,151],[-90.39238,38.81621,150],[-90.39239,38.81619,150],[-90.39242,38.81615,150],[-90.39246,38.81614,149],[-90.39249,38.81613,148],[-90.39252,38.81611,148],[-90.39255,38.81608,147],[-90.39258,38.81606,146],[-90.3926,38.81603,145],[-90.39261,38.81599,145],[-90.39261,38.81596,145],[-90.39261,38.81592,145],[-90.3926,38.81589,145],[-90.39259,38.81586,145],[-90.39258,38.81583,146],[-90.39258,38.8158,147],[-90.39258,38.81577,147],[-90.39258,38.81574,148],[-90.39257,38.81571,149],[-90.39256,38.81567,150],[-90.39256,38.81564,151],[-90.39257,38.81561,151],[-90.39258,38.81559,152],[-90.3926,38.81556,151],[-90.39263,38.81554,151],[-90.39265,38.81551,151],[-90.39268,38.81549,150],[-90.39272,38.81548,149],[-90.39275,38.81546,148],[-90.39279,38.81545,147],[-90.39283,38.81544,146],[-90.39288,38.81543,145],[-90.39291,38.81542,145],[-90.39295,38.8154,144],[-90.39297,38.81537,145],[-90.39299,38.81535,145],[-90.39302,38.81532,145],[-90.39304,38.81529,145],[-90.39305,38.81526,146],[-90.39307,38.81524,146],[-90.39308,38.8152,145],[-90.39308,38.81517,146],[-90.39307,38.81514,146],[-90.39305,38.81512,147],[-90.39304,38.81509,147],[-90.39303,38.81506,147],[-90.39302,38.81502,148],[-90.39301,38.81499,148],[-90.39299,38.81497,148],[-90.39297,38.81494,148],[-90.39295,38.81491,148],[-90.39293,38.81488,148],[-90.39291,38.81486,149],[-90.3929,38.81483,149],[-90.3929,38.8148,149],[-90.39291,38.81477,149],[-90.3929,38.81474,149],[-90.39289,38.8147,149],[-90.39289,38.81467,149],[-90.39287,38.81463,150],[-90.39285,38.81461,150],[-90.39283,38.81458,151],[-90.3928,38.81456,152],[-90.39277,38.81454,152],[-90.39274,38.81452,153],[-90.39272,38.8145,153],[-90.3927,38.81447,153],[-90.39268,38.81445,154],[-90.39265,38.81442,153],[-90.39262,38.81439,153],[-90.39259,38.81438,153],[-90.39256,38.81436,153],[-90.39254,38.81434,153],[-90.39251,38.81432,153],[-90.39248,38.8143,152],[-90.39245,38.81428,152],[-90.39241,38.81426,152],[-90.39238,38.81424,151],[-90.39235,38.81422,151],[-90.39232,38.8142,151],[-90.39229,38.81418,150],[-90.39227,38.81415,149],[-90.39225,38.81413,148],[-90.39223,38.8141,146],[-90.39224,38.81407,144],[-90.39227,38.81405,143],[-90.39231,38.81404,143],[-90.39234,38.81401,141],[-90.39235,38.81399,140],[-90.39238,38.81396,139],[-90.3924,38.81394,138],[-90.39241,38.81391,137],[-90.39242,38.81387,136],[-90.39243,38.81385,137],[-90.39245,38.81382,137],[-90.39247,38.8138,137],[-90.3925,38.81377,138],[-90.39251,38.81374,138],[-90.39252,38.81371,138],[-90.39253,38.81368,138],[-90.39255,38.81365,138],[-90.39256,38.81362,138],[-90.39258,38.81359,138],[-90.3926,38.81355,138],[-90.39262,38.81352,137],[-90.39264,38.81349,137],[-90.39266,38.81347,137],[-90.39268,38.81344,136],[-90.39271,38.81342,136],[-90.39273,38.8134,136],[-90.39276,38.81337,135],[-90.39277,38.81334,135],[-90.39281,38.81331,134],[-90.39284,38.81329,134],[-90.39286,38.81327,134],[-90.39289,38.81325,134],[-90.39291,38.81323,133],[-90.39294,38.81321,133],[-90.39297,38.81319,133],[-90.393,38.81316,133],[-90.39303,38.81314,133],[-90.39306,38.81312,132],[-90.39309,38.8131,132],[-90.39313,38.81308,132],[-90.39316,38.81306,132],[-90.39319,38.81304,133],[-90.39323,38.81302,133],[-90.39326,38.813,133],[-90.39329,38.81298,133],[-90.39332,38.81296,133],[-90.39334,38.81294,133],[-90.39337,38.81292,133],[-90.3934,38.8129,133],[-90.39343,38.81288,133],[-90.39345,38.81286,134],[-90.39349,38.81284,133],[-90.39352,38.81282,134],[-90.39355,38.81281,134],[-90.39359,38.81279,133],[-90.39362,38.81276,134],[-90.39365,38.81274,134],[-90.39368,38.81271,134],[-90.3937,38.81269,134],[-90.39372,38.81267,134],[-90.39375,38.81265,135],[-90.39378,38.81262,135],[-90.39382,38.81261,135],[-90.39385,38.81259,135],[-90.39389,38.81257,136],[-90.39392,38.81255,136],[-90.39395,38.81253,136],[-90.39396,38.8125,137],[-90.39398,38.81248,137],[-90.39401,38.81245,137],[-90.39404,38.81243,137],[-90.39407,38.81242,137],[-90.39411,38.81241,137],[-90.39415,38.81239,137],[-90.39419,38.81238,137],[-90.39422,38.81237,137],[-90.39425,38.81235,137],[-90.39428,38.81232,137],[-90.3943,38.8123,137],[-90.39432,38.81226,137],[-90.39434,38.81224,137],[-90.39437,38.81222,138],[-90.3944,38.8122,138],[-90.39444,38.81217,138],[-90.39446,38.81215,137],[-90.39449,38.81212,137],[-90.39453,38.8121,137],[-90.39456,38.81208,137],[-90.39459,38.81205,137],[-90.39462,38.81203,137],[-90.39464,38.81201,137],[-90.39468,38.81199,137],[-90.3947,38.81197,136],[-90.39473,38.81194,136],[-90.39476,38.81192,136],[-90.39479,38.8119,136],[-90.39482,38.81187,135],[-90.39485,38.81183,135],[-90.39487,38.81181,134],[-90.39489,38.81178,134],[-90.39491,38.81175,133],[-90.39494,38.81172,133],[-90.39497,38.8117,133],[-90.395,38.81167,133],[-90.39503,38.81166,132],[-90.39506,38.81164,132],[-90.39509,38.81162,132],[-90.39511,38.81159,132]]],
        "bbox": [
          -90.38568,
          38.81971,
          -90.39511,
          38.81114
        ]
      },
      "properties": {
        "name": "12.6.2020"
      }
    }
  ]
}