{
  "type": "FeatureCollection",
  "features": [
    {
      "type": "Feature",
      "geometry": {
        "type": "MultiLineString",
        "coordinates": [[[-90.39417,38.81235,137],[-90.39414,38.81236,137],[-90.39411,38.81239,137],[-90.39409,38.81241,137],[-90.39406,38.81243,137],[-90.39403,38.81246,137],[-90.39401,38.81248,137],[-90.39398,38.8125,137],[-90.39395,38.81253,136],[-90.39392,38.81255,136],[-90.39389,38.81257,136],[-90.39386,38.81258,136],[-90.39383,38.81261,135],[-90.39381,38.81263,135],[-90.39377,38.81265,135],[-90.39375,38.81267,134],[-90.39372,38.81269,134],[-90.39369,38.81271,134],[-90.39366,38.81273,134],[-90.39363,38.81275,134],[-90.3936,38.81277,134],[-90.39357,38.81278,134],[-90.39354,38.8128,134],[-90.39351,38.81282,134],[-90.39348,38.81284,134],[-90.39346,38.81286,133],[-90.39343,38.81287,133],[-90.3934,38.81289,133],[-90.39338,38.81291,133],[-90.39334,38.81293,133],[-90.39331,38.81295,133],[-90.39328,38.81297,133],[-90.39325,38.81299,133],[-90.39322,38.81301,133],[-90.39319,38.81303,133],[-90.39316,38.81304,133],[-90.39313,38.81306,132],[-90.3931,38.81308,132],[-90.39307,38.81311,132],[-90.39305,38.81313,133],[-90.39302,38.81315,133],[-90.393,38.81318,133],[-90.39298,38.8132,133],[-90.39296,38.81323,133],[-90.39294,38.81325,133],[-90.39291,38.81327,133],[-90.39288,38.81329,134],[-90.39286,38.81331,134],[-90.39283,38.81333,134],[-90.3928,38.81336,135],[-90.39277,38.81338,135],[-90.39275,38.8134,135],[-90.39273,38.81343,136],[-90.39271,38.81345,136],[-90.39268,38.81347,137],[-90.39266,38.8135,137],[-90.39264,38.81353,137],[-90.39261,38.81355,138],[-90.39259,38.81357,138],[-90.39257,38.8136,138],[-90.39256,38.81363,138],[-90.39255,38.81366,138],[-90.39255,38.81369,138],[-90.39254,38.81372,138],[-90.39252,38.81374,138],[-90.39251,38.81377,138],[-90.39249,38.81379,138],[-90.39247,38.81382,137],[-90.39244,38.81384,137],[-90.39242,38.81386,136],[-90.39241,38.81389,136],[-90.39239,38.81392,137],[-90.39237,38.81394,138],[-90.39235,38.81397,139],[-90.39233,38.81399,140],[-90.3923,38.81401,141],[-90.39228,38.81403,142],[-90.39225,38.81405,143],[-90.39224,38.81408,145],[-90.39224,38.81411,147],[-90.39226,38.81413,148],[-90.39228,38.81416,150],[-90.39231,38.81418,150],[-90.39233,38.8142,151],[-90.39236,38.81422,151],[-90.39239,38.81424,151],[-90.39243,38.81425,151],[-90.39246,38.81426,152],[-90.39249,38.81428,152],[-90.39252,38.81431,152],[-90.39254,38.81433,153],[-90.39257,38.81435,153],[-90.39259,38.81437,153],[-90.39261,38.81439,153],[-90.39264,38.81441,153],[-90.39267,38.81443,153],[-90.3927,38.81446,153],[-90.39272,38.81447,153],[-90.39275,38.81449,153],[-90.39278,38.81451,152],[-90.3928,38.81454,152],[-90.39282,38.81456,151],[-90.39284,38.81459,151],[-90.39286,38.81461,150],[-90.39288,38.81464,150],[-90.39289,38.81467,149],[-90.39291,38.8147,149],[-90.39292,38.81473,148],[-90.39293,38.81476,148],[-90.39292,38.81479,148],[-90.39293,38.81482,148],[-90.39296,38.81484,148],[-90.39298,38.81487,148],[-90.393,38.8149,147],[-90.39302,38.81492,147],[-90.39305,38.81494,147],[-90.39306,38.81497,147],[-90.39307,38.815,147],[-90.39308,38.81502,147],[-90.3931,38.81505,146],[-90.39312,38.81507,146],[-90.39314,38.8151,145],[-90.39315,38.81513,144],[-90.39314,38.81516,144],[-90.39313,38.8152,144],[-90.39312,38.81523,144],[-90.3931,38.81525,145],[-90.39308,38.81528,145],[-90.39306,38.8153,145],[-90.39304,38.81533,144],[-90.39302,38.81535,144],[-90.393,38.81537,144],[-90.39297,38.81539,144],[-90.39293,38.8154,145],[-90.3929,38.81541,145],[-90.39287,38.81543,146],[-90.39283,38.81544,146],[-90.3928,38.81545,147],[-90.39276,38.81546,148],[-90.39273,38.81548,148],[-90.39269,38.81549,149],[-90.39266,38.81551,150],[-90.39264,38.81554,150],[-90.39263,38.81557,150],[-90.39261,38.81559,150],[-90.3926,38.81562,150],[-90.39261,38.81565,149],[-90.39262,38.81568,148],[-90.39262,38.81571,148],[-90.39261,38.81574,147],[-90.39262,38.81577,146],[-90.39263,38.8158,145],[-90.39263,38.81583,144],[-90.39264,38.81586,144],[-90.39264,38.81589,144],[-90.39263,38.81592,144],[-90.39264,38.81595,144],[-90.39265,38.81598,144],[-90.39264,38.81602,144],[-90.39262,38.81604,145],[-90.3926,38.81607,145],[-90.39258,38.81609,146],[-90.39255,38.81611,147],[-90.39252,38.81612,148],[-90.39248,38.81613,149],[-90.39244,38.81614,150],[-90.39241,38.81616,150],[-90.39239,38.81619,150],[-90.39237,38.81621,150],[-90.39235,38.81624,150],[-90.39232,38.81626,150],[-90.39231,38.81628,150],[-90.39228,38.8163,150],[-90.39227,38.81633,149],[-90.39229,38.81636,148],[-90.39229,38.81638,147],[-90.39228,38.81641,147],[-90.39225,38.81643,147],[-90.39223,38.81645,148],[-90.39221,38.81648,148],[-90.3922,38.81651,148],[-90.39218,38.81654,148],[-90.39215,38.81655,148],[-90.39212,38.81657,149],[-90.39209,38.8166,149],[-90.39208,38.81662,149],[-90.39205,38.81664,149],[-90.39202,38.81666,149],[-90.39199,38.81669,150],[-90.39196,38.81671,150],[-90.39193,38.81673,150],[-90.39191,38.81676,150],[-90.3919,38.81678,150],[-90.39189,38.81681,150],[-90.39189,38.81684,149],[-90.39187,38.81686,149],[-90.39185,38.81688,149],[-90.39181,38.81691,149],[-90.39178,38.81692,148],[-90.39174,38.81693,148],[-90.3917,38.81693,148],[-90.39166,38.81694,148],[-90.39163,38.81695,148],[-90.3916,38.81697,148],[-90.39156,38.81698,148],[-90.39153,38.817,148],[-90.39151,38.81702,147],[-90.39148,38.81705,146],[-90.39145,38.81706,147],[-90.39142,38.81708,146],[-90.39138,38.81709,146],[-90.39135,38.81711,146],[-90.39131,38.81712,146],[-90.39128,38.81713,146],[-90.39124,38.81714,147],[-90.39121,38.81716,146],[-90.39118,38.81718,146],[-90.39115,38.8172,146],[-90.39112,38.81722,145],[-90.39109,38.81724,145],[-90.39106,38.81727,145],[-90.39105,38.8173,145],[-90.39101,38.81732,145],[-90.39097,38.81733,145],[-90.39094,38.81734,145],[-90.3909,38.81736,145],[-90.39087,38.81737,145],[-90.39084,38.81739,145],[-90.39081,38.8174,145],[-90.39076,38.81741,146],[-90.39073,38.81741,146],[-90.39069,38.81742,146],[-90.39066,38.81743,146],[-90.39062,38.81743,147],[-90.39059,38.81742,148],[-90.39055,38.81742,148],[-90.39053,38.81745,147],[-90.39051,38.81747,147],[-90.39049,38.81749,147],[-90.39048,38.81752,146],[-90.39047,38.81755,145],[-90.39045,38.81757,145],[-90.39041,38.81759,145],[-90.39038,38.8176,145],[-90.39034,38.8176,146],[-90.3903,38.81762,146],[-90.39027,38.81763,146],[-90.39024,38.81766,146],[-90.39022,38.81768,145],[-90.39019,38.8177,146],[-90.39016,38.81772,146],[-90.39012,38.81773,146],[-90.3901,38.81775,146],[-90.39006,38.81777,147],[-90.39003,38.81779,147],[-90.38999,38.81781,147],[-90.38996,38.81783,147],[-90.38992,38.81784,147],[-90.38988,38.81786,147],[-90.38984,38.81787,148],[-90.3898,38.81787,148],[-90.38976,38.81788,149],[-90.38973,38.81789,149],[-90.3897,38.8179,149],[-90.38973,38.81788,149],[-90.38977,38.81787,149],[-90.38981,38.81785,148],[-90.38984,38.81783,148],[-90.38987,38.81782,148],[-90.38991,38.8178,148],[-90.38996,38.81779,148],[-90.39,38.8178,147],[-90.39005,38.81782,146],[-90.39008,38.81784,145],[-90.39011,38.81785,145],[-90.3901,38.81782,145],[-90.39011,38.81779,145],[-90.39014,38.81777,145],[-90.39015,38.81774,145],[-90.39017,38.81772,146],[-90.3902,38.8177,145],[-90.39023,38.81768,145],[-90.39026,38.81766,145],[-90.39028,38.81764,145],[-90.39029,38.81761,146],[-90.39029,38.81758,147],[-90.39027,38.81755,148],[-90.39026,38.81752,148],[-90.39027,38.8175,149],[-90.39029,38.81747,149],[-90.39028,38.81745,150],[-90.39025,38.81744,150],[-90.39021,38.81742,151],[-90.39018,38.81741,152],[-90.39017,38.81738,153],[-90.39014,38.81735,154],[-90.39012,38.81732,155],[-90.39009,38.81729,156],[-90.39008,38.81727,156],[-90.39007,38.81724,157],[-90.39006,38.81721,158],[-90.39004,38.81718,158],[-90.39002,38.81716,159],[-90.39,38.81714,160],[-90.39,38.81711,160],[-90.39,38.81708,161],[-90.38999,38.81705,162],[-90.38998,38.81701,163],[-90.38996,38.81699,163],[-90.38995,38.81696,164],[-90.38994,38.81693,165],[-90.38994,38.8169,165],[-90.38993,38.81687,165],[-90.38992,38.81684,166],[-90.3899,38.81682,166],[-90.38986,38.8168,166],[-90.38983,38.81678,166],[-90.3898,38.81676,166],[-90.38977,38.81674,167],[-90.38976,38.81671,167],[-90.38975,38.81668,167],[-90.38973,38.81666,168],[-90.3897,38.81664,168],[-90.38968,38.81661,168],[-90.38966,38.81658,168],[-90.38965,38.81655,168],[-90.38963,38.81653,168],[-90.38961,38.8165,168],[-90.38959,38.81647,168],[-90.38957,38.81645,169],[-90.38956,38.81642,169],[-90.38955,38.81639,169],[-90.38955,38.81636,169],[-90.38956,38.81633,170],[-90.38957,38.81631,170],[-90.38959,38.81629,170],[-90.3896,38.81626,170],[-90.38959,38.81623,171],[-90.38959,38.81621,171],[-90.38957,38.81617,171],[-90.38955,38.81615,171],[-90.38952,38.81612,172],[-90.3895,38.8161,172],[-90.38948,38.81607,172],[-90.38945,38.81606,172],[-90.38943,38.81603,172],[-90.38941,38.816,173],[-90.38938,38.81598,173],[-90.38936,38.81595,173],[-90.38935,38.81592,173],[-90.38934,38.8159,174],[-90.38934,38.81587,174],[-90.38934,38.81583,175],[-90.38932,38.8158,175],[-90.38931,38.81578,176],[-90.38929,38.81575,177],[-90.38928,38.81573,177],[-90.38926,38.8157,178],[-90.38925,38.81567,179],[-90.38925,38.81564,180],[-90.38924,38.81561,181],[-90.38922,38.81559,181],[-90.3892,38.81556,182],[-90.38917,38.81554,183],[-90.38914,38.81553,183],[-90.3891,38.81551,183],[-90.38907,38.8155,183],[-90.38905,38.81547,184],[-90.38902,38.81545,184],[-90.38899,38.81543,184],[-90.38897,38.8154,185],[-90.38895,38.81538,185],[-90.38894,38.81535,185],[-90.38892,38.81533,186],[-90.38892,38.8153,186],[-90.38891,38.81526,187],[-90.38891,38.81524,187],[-90.3889,38.81521,187],[-90.38891,38.81518,187],[-90.38892,38.81515,187],[-90.38893,38.81512,187],[-90.38892,38.81509,187],[-90.38891,38.81506,187],[-90.3889,38.81503,187],[-90.3889,38.815,188],[-90.38893,38.81498,188],[-90.38897,38.81497,188],[-90.38898,38.81494,188],[-90.38898,38.81491,188],[-90.38898,38.81488,188],[-90.38898,38.81485,188],[-90.38897,38.81483,188],[-90.38895,38.8148,188],[-90.38892,38.81479,188],[-90.38888,38.81477,188],[-90.38885,38.81476,189],[-90.38882,38.81474,189],[-90.38879,38.81473,189],[-90.38875,38.81472,189],[-90.38872,38.81472,189],[-90.38868,38.81472,189],[-90.38865,38.81472,189],[-90.3886,38.81474,190],[-90.38857,38.81474,190],[-90.38853,38.81474,191],[-90.38849,38.81474,191],[-90.38845,38.81475,192],[-90.38842,38.81476,192],[-90.38838,38.81477,193],[-90.38834,38.81477,193],[-90.3883,38.81477,194],[-90.38826,38.81477,194],[-90.38822,38.81477,194],[-90.38818,38.81477,194],[-90.38815,38.81477,195],[-90.38811,38.81479,195],[-90.38807,38.81479,195],[-90.38803,38.8148,195],[-90.388,38.81481,195],[-90.38796,38.8148,196],[-90.38792,38.8148,196],[-90.38789,38.8148,196],[-90.38785,38.8148,197],[-90.38782,38.81478,197],[-90.38778,38.81477,198],[-90.38775,38.81475,198],[-90.38772,38.81474,199],[-90.38768,38.81473,199],[-90.38765,38.81475,199],[-90.38762,38.81476,199],[-90.38759,38.81477,199],[-90.38756,38.81476,200],[-90.38756,38.81473,200],[-90.38756,38.8147,200],[-90.38753,38.81469,200],[-90.3875,38.81468,201],[-90.38747,38.81466,201],[-90.38742,38.81466,201],[-90.38739,38.81466,201],[-90.38735,38.81467,202],[-90.38732,38.81466,202],[-90.38729,38.81464,202],[-90.38727,38.81462,202],[-90.38725,38.8146,202],[-90.38722,38.81458,202],[-90.3872,38.81456,203],[-90.38716,38.81455,203],[-90.38712,38.81455,203],[-90.38708,38.81455,203],[-90.38704,38.81456,203],[-90.387,38.81457,203],[-90.38697,38.81457,203],[-90.38695,38.81454,203],[-90.38693,38.81451,203],[-90.38692,38.81448,203],[-90.38689,38.81446,203],[-90.38686,38.81445,203],[-90.38682,38.81445,203],[-90.38679,38.81446,203],[-90.38675,38.81445,203],[-90.38672,38.81443,202],[-90.3867,38.81441,202],[-90.38667,38.81439,202],[-90.38664,38.81437,202],[-90.38661,38.81434,202],[-90.3866,38.81432,201],[-90.38658,38.81429,201],[-90.38655,38.81427,201],[-90.38653,38.81424,200],[-90.38652,38.81422,200],[-90.38651,38.81419,200],[-90.38648,38.81417,199],[-90.38645,38.81415,199],[-90.38648,38.81413,199],[-90.38651,38.81412,199],[-90.38655,38.81411,199],[-90.38658,38.8141,199],[-90.38661,38.81409,199],[-90.38665,38.81409,200],[-90.38669,38.81409,200],[-90.38674,38.81409,200],[-90.38677,38.81409,200],[-90.38681,38.8141,200],[-90.38685,38.8141,200],[-90.38688,38.8141,201],[-90.38692,38.81409,201],[-90.38696,38.81408,201],[-90.38699,38.81407,200],[-90.38704,38.81406,200],[-90.38707,38.81406,200],[-90.38711,38.81404,200],[-90.38714,38.81403,200],[-90.38718,38.81402,200],[-90.38722,38.81402,200],[-90.38725,38.81402,200],[-90.38729,38.81401,200],[-90.38733,38.81401,200],[-90.38736,38.81401,200],[-90.3874,38.814,200],[-90.38743,38.814,200],[-90.38747,38.81399,200],[-90.3875,38.81397,200],[-90.38753,38.81396,200],[-90.38757,38.81396,200],[-90.3876,38.81396,200],[-90.38764,38.81396,200],[-90.38768,38.81395,200],[-90.38772,38.81395,200],[-90.38776,38.81394,200],[-90.38779,38.81393,199],[-90.38783,38.81393,199],[-90.38787,38.81393,199],[-90.38791,38.81392,199],[-90.38795,38.81393,199],[-90.38799,38.81393,199],[-90.38803,38.81393,199],[-90.38806,38.81393,199],[-90.38811,38.81394,198],[-90.38814,38.81394,198],[-90.38818,38.81394,198],[-90.38822,38.81395,198],[-90.38826,38.81395,198],[-90.3883,38.81396,198],[-90.38833,38.81397,198],[-90.38837,38.81398,198],[-90.3884,38.81399,197],[-90.38843,38.814,197],[-90.38847,38.81401,197],[-90.3885,38.81402,196],[-90.38854,38.81403,196],[-90.38857,38.81404,196],[-90.38861,38.81405,196],[-90.38864,38.81405,195],[-90.38868,38.81406,195],[-90.38871,38.81407,194],[-90.38875,38.81407,194],[-90.38879,38.81409,193],[-90.38882,38.8141,193],[-90.38886,38.81411,192],[-90.38889,38.81412,192],[-90.38892,38.81414,192],[-90.38895,38.81416,192],[-90.38898,38.81417,192],[-90.38901,38.81419,192],[-90.38905,38.8142,192],[-90.38908,38.81421,192],[-90.38912,38.81423,192],[-90.38915,38.81424,192],[-90.38919,38.81426,192],[-90.38923,38.81427,191],[-90.38926,38.81429,191],[-90.38929,38.8143,190],[-90.38933,38.81432,190],[-90.38936,38.81434,190],[-90.38939,38.81435,189],[-90.38942,38.81437,189],[-90.38944,38.8144,189],[-90.38946,38.81442,189],[-90.38948,38.81444,189],[-90.3895,38.81447,189],[-90.3895,38.8145,190],[-90.38949,38.81452,190],[-90.38948,38.81455,190],[-90.38948,38.81458,190],[-90.38949,38.81461,190],[-90.38949,38.81464,190],[-90.3895,38.81467,190],[-90.38951,38.8147,191],[-90.38951,38.81473,191],[-90.38951,38.81476,190],[-90.38951,38.81479,190],[-90.38952,38.81482,190],[-90.38952,38.81485,189],[-90.38953,38.81488,189],[-90.38954,38.8149,189],[-90.38956,38.81493,189],[-90.38958,38.81495,189],[-90.38961,38.81497,188],[-90.38963,38.81499,188],[-90.38966,38.81502,188],[-90.38967,38.81505,187],[-90.3897,38.81508,187],[-90.38972,38.8151,186],[-90.38975,38.81512,186],[-90.38978,38.81514,185],[-90.38981,38.81516,185],[-90.38983,38.81518,184],[-90.38986,38.8152,184],[-90.38989,38.81522,183],[-90.38992,38.81523,183],[-90.38996,38.81525,182],[-90.38998,38.81527,182],[-90.39001,38.81529,181],[-90.39004,38.81531,181],[-90.39007,38.81532,181],[-90.39011,38.81534,180],[-90.39015,38.81535,180],[-90.39019,38.81535,180],[-90.39022,38.81537,180],[-90.39026,38.81537,180],[-90.39029,38.81538,180],[-90.39033,38.81539,180],[-90.39036,38.81541,180],[-90.39039,38.81543,181],[-90.39042,38.81545,181],[-90.39045,38.81547,181],[-90.39049,38.81548,181],[-90.39053,38.81549,182],[-90.39056,38.81549,182],[-90.3906,38.81549,182],[-90.39064,38.81549,183],[-90.39068,38.81549,183],[-90.39071,38.81548,184],[-90.39075,38.81549,184],[-90.39079,38.81549,185],[-90.39082,38.81548,185],[-90.39086,38.81547,185],[-90.3909,38.81546,185],[-90.39094,38.81545,186],[-90.39097,38.81544,186],[-90.39101,38.81543,186],[-90.39104,38.81541,186],[-90.39108,38.8154,186],[-90.39112,38.8154,186],[-90.39115,38.81541,186],[-90.39119,38.81542,186],[-90.39123,38.81542,186],[-90.39127,38.81542,185],[-90.3913,38.81544,185],[-90.39133,38.81545,185],[-90.39136,38.81547,185],[-90.39139,38.81549,185],[-90.39142,38.81552,184],[-90.39145,38.81554,184],[-90.39147,38.81556,184],[-90.3915,38.81557,183],[-90.39153,38.81559,183],[-90.39156,38.81561,183],[-90.39159,38.81563,182],[-90.39163,38.81563,182],[-90.39167,38.81562,182],[-90.39172,38.81562,181],[-90.39175,38.81563,180],[-90.39179,38.81565,179],[-90.39182,38.81565,178],[-90.39186,38.81566,177],[-90.3919,38.81566,176],[-90.39193,38.81568,175],[-90.39196,38.8157,174],[-90.39194,38.81568,175],[-90.39191,38.81566,176],[-90.39192,38.81563,176],[-90.39192,38.81566,176],[-90.39189,38.81568,176],[-90.39185,38.81567,177],[-90.39181,38.81566,178],[-90.39177,38.81566,179],[-90.39174,38.81567,180],[-90.39172,38.8157,180],[-90.39173,38.81573,179],[-90.39176,38.81574,178],[-90.39176,38.81577,178],[-90.39175,38.8158,178],[-90.39175,38.81583,177],[-90.39176,38.81586,176],[-90.39175,38.81589,176],[-90.39175,38.81593,175],[-90.39175,38.81595,175],[-90.39175,38.81598,174],[-90.39174,38.81601,174],[-90.39174,38.81604,173],[-90.39173,38.81607,173],[-90.39172,38.81609,172],[-90.39171,38.81612,172],[-90.3917,38.81615,171],[-90.39169,38.81618,170],[-90.39168,38.81621,170],[-90.39165,38.81624,169],[-90.39163,38.81626,169],[-90.39162,38.81629,168],[-90.39162,38.81632,167],[-90.39161,38.81635,166],[-90.3916,38.81637,166],[-90.3916,38.8164,165],[-90.39158,38.81642,165],[-90.39155,38.81645,165],[-90.39154,38.81647,164],[-90.39151,38.8165,164],[-90.39149,38.81652,164],[-90.39147,38.81654,164],[-90.39144,38.81656,164],[-90.3914,38.81657,164],[-90.39137,38.81658,164],[-90.39134,38.8166,164],[-90.39132,38.81663,164],[-90.3913,38.81665,163],[-90.39129,38.81668,162],[-90.39127,38.8167,162],[-90.39123,38.81671,162],[-90.39127,38.81671,162],[-90.3913,38.81669,162],[-90.39133,38.81667,162],[-90.39136,38.81665,162],[-90.39139,38.81663,163],[-90.39142,38.81661,163],[-90.39143,38.81658,163]],[[-90.39159,38.81642,165],[-90.39161,38.81638,165],[-90.39162,38.81636,166],[-90.39165,38.81633,166],[-90.39167,38.8163,167],[-90.39169,38.81628,167],[-90.3917,38.81625,168],[-90.39171,38.81622,168],[-90.39171,38.81619,170],[-90.39171,38.81616,171],[-90.39172,38.81613,171],[-90.39173,38.8161,172],[-90.39174,38.81607,172],[-90.39175,38.81604,173],[-90.39175,38.81601,173],[-90.39176,38.81598,174],[-90.39176,38.81595,174],[-90.39176,38.81592,175],[-90.39177,38.81589,175],[-90.39177,38.81586,176],[-90.39177,38.81583,177],[-90.39176,38.8158,177],[-90.39175,38.81577,178],[-90.39174,38.81574,179],[-90.39172,38.81572,179],[-90.3917,38.81569,180],[-90.39168,38.81567,181],[-90.39166,38.81564,182],[-90.39164,38.81562,182],[-90.39161,38.81559,183],[-90.39159,38.81557,183],[-90.39157,38.81555,183],[-90.39154,38.81552,183],[-90.39151,38.8155,183],[-90.39148,38.81549,184],[-90.39145,38.81547,184],[-90.39142,38.81545,185],[-90.39139,38.81544,185],[-90.39136,38.81542,185],[-90.39132,38.81541,185],[-90.39128,38.8154,185],[-90.39124,38.8154,186],[-90.39121,38.81539,186],[-90.39117,38.81539,186],[-90.39113,38.81539,186],[-90.3911,38.81541,186],[-90.39106,38.81541,186],[-90.39103,38.81542,186],[-90.39099,38.81543,186],[-90.39096,38.81544,186],[-90.39092,38.81544,186],[-90.39088,38.81545,185],[-90.39085,38.81545,185],[-90.39081,38.81545,185],[-90.39077,38.81545,185],[-90.39074,38.81545,184],[-90.3907,38.81544,184],[-90.39066,38.81544,183],[-90.39063,38.81543,183],[-90.39059,38.81542,183],[-90.39055,38.81541,182],[-90.39052,38.81539,182],[-90.39048,38.81538,182],[-90.39045,38.81538,182],[-90.39041,38.81537,181],[-90.39037,38.81536,181],[-90.39033,38.81535,181],[-90.3903,38.81535,181],[-90.39026,38.81534,181],[-90.39021,38.81533,181],[-90.39018,38.81532,181],[-90.39014,38.81531,181],[-90.39011,38.8153,181],[-90.39008,38.81528,181],[-90.39004,38.81526,182],[-90.39001,38.81525,182],[-90.38997,38.81523,183],[-90.38994,38.81522,183],[-90.38991,38.8152,184],[-90.38988,38.81518,184],[-90.38985,38.81516,185],[-90.38982,38.81515,185],[-90.38979,38.81513,186],[-90.38976,38.81511,186],[-90.38973,38.81509,187],[-90.3897,38.81507,187],[-90.38967,38.81505,187],[-90.38964,38.81503,188],[-90.38961,38.81501,188],[-90.38958,38.81499,188],[-90.38956,38.81496,188],[-90.38955,38.81493,189],[-90.38953,38.8149,189],[-90.38952,38.81487,189],[-90.38952,38.81484,190],[-90.38954,38.81482,190],[-90.38955,38.81479,190],[-90.38954,38.81476,190],[-90.38953,38.81473,191],[-90.38954,38.8147,191],[-90.38954,38.81467,191],[-90.38954,38.81464,190],[-90.38953,38.81461,190],[-90.38952,38.81458,190],[-90.38952,38.81455,190],[-90.38952,38.81452,190],[-90.38952,38.8145,190],[-90.38951,38.81447,189],[-90.3895,38.81444,189],[-90.38948,38.81442,189],[-90.38946,38.81439,189],[-90.38944,38.81437,189],[-90.38942,38.81435,189],[-90.38939,38.81433,189],[-90.38936,38.81431,190],[-90.38933,38.81429,190],[-90.3893,38.81428,190],[-90.38927,38.81426,191],[-90.38924,38.81424,191],[-90.38921,38.81422,192],[-90.38917,38.8142,192],[-90.38914,38.81419,192],[-90.3891,38.81418,192],[-90.38906,38.81418,192],[-90.38902,38.81417,192],[-90.38898,38.81416,192],[-90.38895,38.81414,192],[-90.38892,38.81413,192],[-90.38888,38.81412,192],[-90.38884,38.81411,193],[-90.38881,38.8141,193],[-90.38878,38.81409,194],[-90.38874,38.81408,194],[-90.3887,38.81407,195],[-90.38867,38.81406,195],[-90.38863,38.81405,195],[-90.38859,38.81404,196],[-90.38856,38.81403,196],[-90.38852,38.81402,196],[-90.38848,38.81401,197],[-90.38844,38.814,197],[-90.3884,38.81399,197],[-90.38837,38.81398,198],[-90.38833,38.81397,198],[-90.3883,38.81395,198],[-90.38827,38.81393,198],[-90.38823,38.81392,198],[-90.3882,38.8139,198],[-90.38816,38.81389,198],[-90.38812,38.81389,198],[-90.38808,38.8139,198],[-90.38805,38.81391,199],[-90.38802,38.81392,199],[-90.38798,38.81393,199],[-90.38795,38.81393,199],[-90.38791,38.81392,199],[-90.38787,38.81392,199],[-90.38783,38.81392,199],[-90.3878,38.81391,199],[-90.38776,38.8139,200],[-90.38772,38.81389,199],[-90.38769,38.81389,199],[-90.38765,38.81388,199],[-90.38761,38.81386,199],[-90.38758,38.81385,199],[-90.38755,38.81382,199],[-90.38754,38.81379,198],[-90.38754,38.81376,198],[-90.38754,38.81373,197],[-90.38754,38.81371,197],[-90.38754,38.81368,197],[-90.38754,38.81364,196],[-90.38755,38.81362,196],[-90.38755,38.81359,196],[-90.38755,38.81356,195],[-90.38756,38.81352,195],[-90.38756,38.8135,195],[-90.38757,38.81347,195],[-90.38758,38.81344,195],[-90.38758,38.81341,195],[-90.38758,38.81338,194],[-90.38758,38.81335,194],[-90.3876,38.81333,194],[-90.38764,38.81332,194],[-90.38768,38.81332,195],[-90.38772,38.81332,195],[-90.38775,38.81332,195],[-90.38779,38.81331,195],[-90.38782,38.81329,195],[-90.38785,38.81327,195],[-90.38786,38.81325,194],[-90.38788,38.81323,194],[-90.3879,38.8132,194],[-90.38792,38.81318,193],[-90.38792,38.81315,193],[-90.38792,38.81312,192],[-90.38794,38.81309,192],[-90.38797,38.81307,191],[-90.38799,38.81305,191],[-90.388,38.81302,190],[-90.38802,38.81299,190],[-90.38804,38.81296,190],[-90.38806,38.81294,189],[-90.38807,38.81291,189],[-90.38806,38.81288,188],[-90.38807,38.81285,188],[-90.38809,38.81282,187],[-90.38811,38.8128,186],[-90.38813,38.81278,185],[-90.38815,38.81275,184],[-90.38819,38.81274,183],[-90.38823,38.81274,182],[-90.38826,38.81273,181],[-90.38829,38.81272,180],[-90.38833,38.81271,178],[-90.38836,38.81271,177],[-90.38839,38.81269,176],[-90.38842,38.81268,175],[-90.38846,38.81268,174],[-90.38849,38.81266,173],[-90.38851,38.81263,172],[-90.38851,38.81261,172],[-90.38852,38.81257,171],[-90.38853,38.81254,171],[-90.38854,38.81252,170],[-90.38853,38.81249,170],[-90.38852,38.81246,170],[-90.38852,38.81243,169],[-90.38853,38.81241,168],[-90.38855,38.81239,168],[-90.38857,38.81236,167],[-90.38859,38.81234,166],[-90.38861,38.81232,165],[-90.38864,38.8123,165],[-90.38865,38.81228,164],[-90.38866,38.81225,164],[-90.38867,38.81222,163],[-90.38867,38.81219,163],[-90.38869,38.81216,162],[-90.38871,38.81214,162],[-90.38871,38.81211,162],[-90.38871,38.81208,161],[-90.3887,38.81205,161],[-90.38869,38.81203,161],[-90.38867,38.812,161],[-90.38864,38.81199,161],[-90.38862,38.81196,161],[-90.38861,38.81193,162],[-90.38862,38.8119,162],[-90.38862,38.81187,162],[-90.38862,38.81184,162],[-90.38862,38.81181,163],[-90.38862,38.81178,163],[-90.38863,38.81175,163],[-90.38864,38.81172,163],[-90.38865,38.81169,164],[-90.38866,38.81166,164],[-90.38868,38.81163,163],[-90.38869,38.8116,163],[-90.38869,38.81157,163],[-90.38872,38.81155,162],[-90.38876,38.81155,161],[-90.3888,38.81156,161],[-90.38883,38.81154,160],[-90.38886,38.81154,159],[-90.3889,38.81152,158],[-90.38893,38.81151,157],[-90.38897,38.8115,156],[-90.389,38.81148,156],[-90.38904,38.81147,155],[-90.38906,38.81145,154],[-90.38909,38.81142,153],[-90.38911,38.81139,153],[-90.38915,38.8114,152],[-90.38918,38.81141,152],[-90.38922,38.81141,152],[-90.38925,38.81139,152],[-90.38927,38.81136,152],[-90.38928,38.81133,152],[-90.3893,38.81131,152],[-90.38934,38.81129,152],[-90.38936,38.81127,152],[-90.38938,38.81125,152],[-90.38942,38.81123,152],[-90.38945,38.81123,151],[-90.38949,38.81123,151],[-90.38952,38.81123,151],[-90.38956,38.81122,151],[-90.38959,38.81121,151],[-90.38963,38.81119,151],[-90.38966,38.81118,151],[-90.38971,38.81118,150],[-90.38975,38.81118,150],[-90.38979,38.81118,149],[-90.38983,38.81118,149],[-90.38988,38.81119,148],[-90.38994,38.81119,147],[-90.38998,38.81119,146],[-90.39003,38.8112,146],[-90.39006,38.8112,145],[-90.3901,38.8112,145],[-90.39015,38.81121,144],[-90.39019,38.81122,144],[-90.39022,38.81123,143],[-90.39026,38.81124,143],[-90.3903,38.81125,142],[-90.39033,38.81125,142],[-90.39037,38.81126,142],[-90.39042,38.81125,142],[-90.39046,38.81125,142],[-90.39052,38.81124,142],[-90.39057,38.81124,142],[-90.39061,38.81123,142],[-90.39065,38.81123,142],[-90.39068,38.81124,142],[-90.39073,38.81125,142],[-90.39076,38.81127,142],[-90.39079,38.81129,142],[-90.39082,38.81132,142],[-90.39085,38.81134,142],[-90.39087,38.81136,142],[-90.39092,38.81138,142],[-90.39095,38.8114,142],[-90.39098,38.81143,142],[-90.39098,38.81146,142],[-90.39099,38.81149,143],[-90.39098,38.81152,143],[-90.39098,38.81155,144],[-90.39097,38.81158,144],[-90.39096,38.8116,145],[-90.39095,38.81163,145],[-90.39095,38.81167,146],[-90.39094,38.81169,146],[-90.39094,38.81172,147],[-90.39094,38.81176,147],[-90.39093,38.81178,147],[-90.39093,38.81181,148],[-90.39091,38.81184,148],[-90.39089,38.81187,148],[-90.39088,38.8119,149],[-90.39087,38.81193,149],[-90.39086,38.81195,149],[-90.39085,38.81198,149],[-90.39085,38.81201,149],[-90.39085,38.81204,149],[-90.39086,38.81207,149],[-90.39087,38.81209,149],[-90.39088,38.81212,149],[-90.39089,38.81215,149],[-90.3909,38.81218,149],[-90.39091,38.81221,149],[-90.39092,38.81224,149],[-90.39093,38.81227,148],[-90.39093,38.8123,147],[-90.39093,38.81232,147],[-90.39093,38.81235,146],[-90.39094,38.81239,145],[-90.39094,38.81242,144],[-90.39095,38.81244,144],[-90.39096,38.81248,143],[-90.39097,38.8125,142],[-90.39097,38.81253,143],[-90.39098,38.81256,143],[-90.39098,38.81259,144],[-90.39098,38.81262,145],[-90.39099,38.81265,145],[-90.391,38.81268,146],[-90.39101,38.81271,146],[-90.39102,38.81273,147],[-90.39103,38.81276,147],[-90.39103,38.81279,148],[-90.39103,38.81282,149],[-90.39104,38.81285,149],[-90.39105,38.81288,150],[-90.39105,38.81291,150],[-90.39106,38.81293,151],[-90.39108,38.81296,151],[-90.39111,38.81298,152],[-90.39114,38.81301,152],[-90.39116,38.81303,152],[-90.39119,38.81306,152],[-90.39122,38.81308,152],[-90.39125,38.8131,152],[-90.39127,38.81312,151],[-90.39129,38.81315,151],[-90.39131,38.81318,151],[-90.39134,38.8132,151],[-90.39136,38.81322,151],[-90.39139,38.81324,150],[-90.39141,38.81327,150],[-90.39144,38.81329,149],[-90.39145,38.81332,150],[-90.39147,38.81335,149],[-90.39149,38.81337,149],[-90.39151,38.81339,148],[-90.39154,38.81342,147],[-90.39156,38.81344,147],[-90.39159,38.81346,146],[-90.39162,38.81348,145],[-90.39164,38.81351,145],[-90.39165,38.81354,144],[-90.39167,38.81356,143],[-90.39169,38.81359,143],[-90.39171,38.81361,142],[-90.39173,38.81364,142],[-90.39176,38.81367,142],[-90.39178,38.81369,142],[-90.3918,38.81371,142],[-90.39182,38.81374,142],[-90.39184,38.81376,141],[-90.39185,38.81379,141],[-90.39187,38.81382,140],[-90.39189,38.81384,140],[-90.39192,38.81387,138],[-90.39195,38.81389,137],[-90.39197,38.81391,138],[-90.392,38.81393,139],[-90.39203,38.81395,139],[-90.39205,38.81398,141],[-90.39207,38.814,142],[-90.3921,38.814,141],[-90.39214,38.814,141],[-90.39218,38.81399,140],[-90.39221,38.81397,138],[-90.39224,38.81395,137],[-90.39227,38.81393,136],[-90.3923,38.81392,136],[-90.39233,38.8139,135],[-90.39236,38.81388,135],[-90.39238,38.81385,136],[-90.3924,38.81383,136],[-90.39243,38.8138,137],[-90.39245,38.81378,137],[-90.39246,38.81375,138],[-90.39248,38.81373,138],[-90.3925,38.8137,138],[-90.39251,38.81367,138],[-90.39253,38.81364,138],[-90.39255,38.81362,138],[-90.39257,38.81359,138],[-90.39259,38.81356,138],[-90.3926,38.81353,137],[-90.39262,38.81351,137],[-90.39263,38.81348,137],[-90.39265,38.81345,137],[-90.39267,38.81343,136],[-90.39271,38.81342,136],[-90.39273,38.81339,135],[-90.39275,38.81337,135],[-90.39278,38.81335,135],[-90.39281,38.81333,134],[-90.39284,38.81331,134],[-90.39286,38.81328,134],[-90.39289,38.81326,134],[-90.39292,38.81324,133],[-90.39294,38.81322,133],[-90.39296,38.8132,133],[-90.39299,38.81318,133],[-90.39302,38.81315,133],[-90.39304,38.81313,133],[-90.39306,38.81311,132],[-90.39309,38.81309,132],[-90.39311,38.81306,132],[-90.39314,38.81304,133],[-90.39317,38.81302,133],[-90.39321,38.813,133],[-90.39324,38.81298,133],[-90.39326,38.81297,133],[-90.39329,38.81294,133],[-90.39332,38.81292,133],[-90.39335,38.8129,134],[-90.39338,38.81288,134],[-90.39341,38.81286,134],[-90.39344,38.81285,134],[-90.39348,38.81284,134],[-90.3935,38.81282,134],[-90.39353,38.8128,134],[-90.39356,38.81278,134],[-90.3936,38.81276,134],[-90.39364,38.81274,134],[-90.39367,38.81272,134],[-90.3937,38.81271,134],[-90.39373,38.81269,134],[-90.39377,38.81267,134],[-90.3938,38.81265,135],[-90.39382,38.81263,135],[-90.39386,38.81261,135],[-90.39388,38.81259,135],[-90.39391,38.81257,136],[-90.39393,38.81254,136],[-90.39396,38.81253,136],[-90.394,38.81251,136],[-90.39403,38.81249,137],[-90.39405,38.81247,137],[-90.39408,38.81244,137],[-90.3941,38.81242,137],[-90.39412,38.8124,137],[-90.39415,38.81238,137],[-90.39418,38.81235,137],[-90.39421,38.81233,137],[-90.39424,38.8123,137],[-90.39427,38.81228,137],[-90.39429,38.81226,137],[-90.39432,38.81224,137],[-90.39434,38.81222,138],[-90.39437,38.81219,138],[-90.39439,38.81217,138],[-90.39441,38.81214,138],[-90.39444,38.81212,138],[-90.39447,38.8121,137],[-90.39449,38.81207,137],[-90.39452,38.81205,137],[-90.39455,38.81203,137],[-90.39458,38.81201,137],[-90.39461,38.81199,137],[-90.39463,38.81197,137],[-90.39466,38.81195,137],[-90.39468,38.81192,136],[-90.39471,38.8119,136],[-90.39474,38.81188,136],[-90.39476,38.81186,135],[-90.39479,38.81183,135],[-90.39481,38.81181,135],[-90.39483,38.81179,134],[-90.39486,38.81177,134],[-90.39488,38.81174,134],[-90.39488,38.81172,133],[-90.39492,38.8117,133],[-90.39496,38.81169,133],[-90.395,38.81168,133],[-90.39503,38.81167,133],[-90.39504,38.81164,132]]],
        "bbox": [
          -90.38645,
          38.8179,
          -90.39504,
          38.81118
        ]
      },
      "properties": {
        "name": "2.5.2024B"
      }
    }
  ]
}