{
  "type": "FeatureCollection",
  "features": [
    {
      "type": "Feature",
      "geometry": {
        "type": "MultiLineString",
        "coordinates": [[[-90.38769,38.8139,200],[-90.38766,38.81389,199],[-90.38762,38.81387,199],[-90.38758,38.81385,199],[-90.38757,38.81383,199],[-90.38756,38.8138,198],[-90.38755,38.81376,198],[-90.38754,38.81373,197],[-90.38754,38.8137,197],[-90.38756,38.81367,197],[-90.38757,38.81365,196],[-90.38756,38.81362,196],[-90.38755,38.81359,196],[-90.38756,38.81356,196],[-90.38756,38.81353,195],[-90.38757,38.81349,195],[-90.38758,38.81346,195],[-90.3876,38.81344,195],[-90.38762,38.81341,195],[-90.38763,38.81339,195],[-90.38763,38.81336,195],[-90.38763,38.81333,194],[-90.38763,38.8133,194],[-90.38764,38.81327,194],[-90.38768,38.81327,194],[-90.38772,38.81327,194],[-90.38776,38.81327,195],[-90.38781,38.81327,195],[-90.38785,38.81327,195],[-90.38789,38.81329,195],[-90.38793,38.8133,195],[-90.38797,38.81329,195],[-90.38798,38.81326,194],[-90.38801,38.81324,194],[-90.38804,38.81322,194],[-90.38805,38.81319,193],[-90.38804,38.81316,192],[-90.38806,38.81313,192],[-90.38807,38.8131,191],[-90.38808,38.81307,190],[-90.3881,38.81304,189],[-90.38809,38.81301,189],[-90.3881,38.81298,189],[-90.38812,38.81296,188],[-90.38813,38.81293,187],[-90.38814,38.8129,187],[-90.38815,38.81288,186],[-90.38815,38.81285,186],[-90.38817,38.81282,185],[-90.38817,38.81279,184],[-90.38816,38.81277,184],[-90.38817,38.81274,183],[-90.38821,38.81274,182],[-90.38824,38.81275,182],[-90.38828,38.81276,181],[-90.38831,38.81275,180],[-90.38834,38.81273,178],[-90.38837,38.81272,177],[-90.3884,38.81272,176],[-90.38843,38.81274,176],[-90.38846,38.81273,174],[-90.3885,38.81272,173],[-90.38847,38.81271,174],[-90.38851,38.81268,172],[-90.38855,38.81268,171],[-90.3886,38.81268,169],[-90.38865,38.81268,169],[-90.38869,38.81269,168],[-90.38873,38.81269,167],[-90.38877,38.81267,167],[-90.38879,38.81264,166],[-90.38879,38.8126,166],[-90.38879,38.81256,166],[-90.3888,38.81253,165],[-90.38881,38.8125,165],[-90.38883,38.81247,164],[-90.38883,38.81243,164],[-90.38881,38.8124,164],[-90.38879,38.81237,164],[-90.3888,38.81233,163],[-90.38882,38.81231,163],[-90.38882,38.8122,162],[-90.38886,38.81221,161],[-90.38889,38.81224,162],[-90.38891,38.81221,161],[-90.38893,38.81218,160],[-90.38894,38.81214,160],[-90.38893,38.81211,159],[-90.38891,38.81208,159],[-90.38888,38.81205,159],[-90.38885,38.81202,158],[-90.38881,38.81201,159],[-90.38877,38.812,159],[-90.38874,38.81197,159],[-90.38872,38.81194,160],[-90.38869,38.81192,160],[-90.38866,38.8119,161],[-90.38864,38.81186,162],[-90.38863,38.81183,162],[-90.38864,38.81179,163],[-90.38866,38.81176,163],[-90.38869,38.81173,162],[-90.38871,38.8117,162],[-90.38875,38.81168,162],[-90.38879,38.81167,161],[-90.38882,38.81165,161],[-90.38886,38.81163,160],[-90.38889,38.81161,159],[-90.38891,38.81157,158],[-90.38892,38.81153,158],[-90.38892,38.8115,157],[-90.38897,38.8115,156],[-90.389,38.81152,156],[-90.38905,38.81151,154],[-90.38909,38.81151,153],[-90.38906,38.81148,154],[-90.38902,38.81148,155],[-90.38906,38.81148,154],[-90.38909,38.81148,153],[-90.38913,38.81147,152],[-90.38916,38.81145,152],[-90.3892,38.81143,152],[-90.38923,38.81142,152],[-90.38927,38.8114,152],[-90.38928,38.81137,152],[-90.3893,38.81135,152],[-90.38935,38.81136,152],[-90.38938,38.81136,152],[-90.38942,38.81136,152],[-90.38945,38.81134,151],[-90.38947,38.81132,151],[-90.3895,38.8113,151],[-90.38953,38.81128,151],[-90.38955,38.81126,151],[-90.38957,38.81123,151],[-90.38958,38.8112,151],[-90.38957,38.81117,151],[-90.3896,38.81115,151],[-90.38964,38.81114,151],[-90.38967,38.81115,151],[-90.3897,38.81117,150],[-90.38973,38.81119,150],[-90.38969,38.81118,150],[-90.38973,38.81118,150],[-90.38977,38.81118,150],[-90.38981,38.81117,149],[-90.38984,38.81116,149],[-90.38988,38.81114,148],[-90.38991,38.81113,148],[-90.38995,38.81112,147],[-90.38998,38.81112,147],[-90.39002,38.81112,146],[-90.39006,38.81111,146],[-90.3901,38.81111,145],[-90.39013,38.81112,145],[-90.39015,38.81115,144],[-90.39017,38.81118,144],[-90.3902,38.8112,143],[-90.39024,38.81122,143],[-90.39027,38.81122,143],[-90.39031,38.81121,142],[-90.39034,38.81121,142],[-90.39038,38.8112,142],[-90.39042,38.81119,142],[-90.39045,38.8112,142],[-90.39048,38.81122,142],[-90.3905,38.81125,142],[-90.39052,38.81127,142],[-90.39054,38.8113,142],[-90.39058,38.8113,142],[-90.39062,38.8113,142],[-90.39065,38.81129,142],[-90.39067,38.81132,142],[-90.39068,38.81134,142],[-90.39072,38.81136,142],[-90.39075,38.81137,142],[-90.39079,38.81138,142],[-90.39082,38.81139,143],[-90.39085,38.8114,143],[-90.39089,38.8114,142],[-90.39092,38.81141,142],[-90.39093,38.81144,143],[-90.39096,38.81146,143],[-90.39099,38.81147,143],[-90.39099,38.8115,143],[-90.391,38.81153,143],[-90.39099,38.81156,144],[-90.39095,38.81156,144],[-90.39095,38.81159,145],[-90.39098,38.81162,145],[-90.39101,38.81164,145],[-90.39104,38.81164,145],[-90.39107,38.81166,145],[-90.39104,38.81165,145],[-90.39098,38.81164,145],[-90.39095,38.81166,146],[-90.39093,38.81168,146],[-90.39091,38.81171,146],[-90.3909,38.81174,147],[-90.39089,38.81177,147],[-90.39089,38.8118,148],[-90.39089,38.81183,148],[-90.39089,38.81186,148],[-90.3909,38.81189,149],[-90.3909,38.81192,149],[-90.39091,38.81195,149],[-90.3909,38.81198,149],[-90.39089,38.81201,149],[-90.39088,38.81204,149],[-90.39088,38.81206,149],[-90.39087,38.81209,149],[-90.39086,38.81212,149],[-90.39085,38.81215,149],[-90.39086,38.81217,149],[-90.39089,38.81219,149],[-90.39092,38.81221,149],[-90.39094,38.81225,148],[-90.39096,38.81228,148],[-90.39096,38.81232,147],[-90.39098,38.81235,146],[-90.39099,38.81239,145],[-90.391,38.81242,144],[-90.39099,38.81246,143],[-90.39098,38.8125,142],[-90.39098,38.81253,143],[-90.39098,38.81257,143],[-90.39099,38.8126,144],[-90.391,38.81263,145],[-90.39101,38.81266,145],[-90.39104,38.81269,146],[-90.39106,38.81272,146],[-90.39107,38.81275,147],[-90.39108,38.81278,147],[-90.3911,38.81281,147],[-90.39113,38.81284,148],[-90.39115,38.81287,148],[-90.39116,38.81291,149],[-90.39117,38.81295,150],[-90.39119,38.81299,151],[-90.39121,38.81302,151],[-90.39123,38.81305,152],[-90.39124,38.81308,152],[-90.39127,38.81311,151],[-90.3913,38.81313,151],[-90.39134,38.81315,151],[-90.39138,38.81316,150],[-90.39139,38.8132,150],[-90.3914,38.81323,150],[-90.39143,38.81325,149],[-90.39147,38.81326,149],[-90.39152,38.81327,148],[-90.39156,38.81329,148],[-90.39159,38.81331,147],[-90.39161,38.81333,147],[-90.39163,38.81336,147],[-90.39164,38.8134,146],[-90.39165,38.81343,145],[-90.39164,38.81347,145],[-90.39162,38.8135,145],[-90.39161,38.81352,145],[-90.39161,38.81355,145],[-90.39162,38.81358,144],[-90.39164,38.81361,143],[-90.39166,38.81363,143],[-90.39169,38.81365,143],[-90.39172,38.81367,143],[-90.39175,38.8137,143],[-90.39177,38.81372,143],[-90.39181,38.81374,142],[-90.39184,38.81375,141],[-90.39187,38.81376,141],[-90.3919,38.81379,140],[-90.39192,38.81381,139],[-90.39195,38.81383,138],[-90.39198,38.81385,137],[-90.39201,38.81386,137],[-90.39204,38.81388,136],[-90.39207,38.8139,136],[-90.39209,38.81392,137],[-90.39212,38.81394,137],[-90.39216,38.81396,138],[-90.39219,38.81397,138],[-90.39222,38.814,140],[-90.39225,38.81402,141],[-90.39227,38.81404,143],[-90.39227,38.81407,145],[-90.39228,38.8141,146],[-90.39229,38.81413,148],[-90.3923,38.81416,150],[-90.39232,38.81419,151],[-90.39234,38.81422,151],[-90.39237,38.81425,152],[-90.3924,38.81426,152],[-90.39243,38.81428,152],[-90.39247,38.81429,152],[-90.3925,38.8143,152],[-90.39254,38.81431,152],[-90.39257,38.81429,151],[-90.39259,38.81427,151],[-90.39262,38.81429,151],[-90.39264,38.81431,151],[-90.39266,38.81433,151],[-90.39268,38.81437,152],[-90.39271,38.8144,152],[-90.39275,38.81444,153],[-90.39277,38.81447,153],[-90.3928,38.8145,152],[-90.39284,38.81453,151],[-90.39288,38.81454,150],[-90.39292,38.81457,149],[-90.39295,38.81459,148],[-90.39297,38.81463,148],[-90.39299,38.81467,147],[-90.39299,38.8147,147],[-90.393,38.81474,147],[-90.393,38.81478,147],[-90.39301,38.81482,147],[-90.39302,38.81485,147],[-90.39301,38.81489,147],[-90.39301,38.81492,147],[-90.39304,38.81495,147],[-90.39307,38.81499,147],[-90.39309,38.81502,147],[-90.39311,38.81505,146],[-90.39313,38.81509,145],[-90.39315,38.81512,144],[-90.39316,38.81514,144],[-90.39315,38.81518,144],[-90.39315,38.8152,144],[-90.39313,38.81523,144],[-90.39311,38.81526,144],[-90.39308,38.81528,145],[-90.39305,38.81526,146],[-90.39303,38.81524,146],[-90.393,38.81522,147],[-90.39302,38.81525,147],[-90.39303,38.81528,146],[-90.39303,38.81531,145],[-90.39299,38.81534,145],[-90.39296,38.81535,146],[-90.39293,38.81537,146],[-90.3929,38.81539,146],[-90.39286,38.81539,147],[-90.39283,38.8154,148],[-90.39279,38.81541,148],[-90.39277,38.81543,148],[-90.39273,38.81545,149],[-90.39271,38.81547,149],[-90.3927,38.8155,149],[-90.39268,38.81552,149],[-90.39266,38.81555,149],[-90.39264,38.81557,150],[-90.39261,38.81559,150],[-90.39258,38.81561,151],[-90.39255,38.81563,152],[-90.39255,38.81567,151],[-90.39255,38.8157,150],[-90.39257,38.81573,149],[-90.39259,38.81575,147],[-90.39261,38.81578,146],[-90.39263,38.8158,145],[-90.39264,38.81583,144],[-90.39264,38.81586,144],[-90.39265,38.81589,144],[-90.39266,38.81592,143],[-90.39266,38.81595,143],[-90.39266,38.81598,143],[-90.39266,38.81601,143],[-90.39266,38.81604,143],[-90.39265,38.81607,144],[-90.39264,38.81609,144],[-90.39262,38.81612,145],[-90.39258,38.81613,146],[-90.39256,38.81611,146],[-90.39253,38.81611,147],[-90.3925,38.81613,148],[-90.39246,38.81613,149],[-90.39244,38.8161,150],[-90.39239,38.81611,152],[-90.39236,38.81613,153],[-90.39235,38.81616,152],[-90.39231,38.81617,153],[-90.39229,38.8162,153],[-90.39229,38.81622,152],[-90.39229,38.81625,151],[-90.39231,38.81628,150],[-90.3923,38.8163,149],[-90.3923,38.81634,148],[-90.39229,38.81636,148],[-90.39228,38.81639,147],[-90.39226,38.81641,148],[-90.39223,38.81643,148],[-90.39221,38.81646,148],[-90.39221,38.81649,148],[-90.3922,38.81652,148],[-90.39217,38.81653,148],[-90.39213,38.81654,149],[-90.39211,38.81656,149],[-90.39209,38.81659,149],[-90.39206,38.81656,150],[-90.39203,38.81658,150],[-90.39199,38.81659,151],[-90.39197,38.81662,151],[-90.39197,38.81665,150],[-90.39197,38.81669,150],[-90.39195,38.81672,150],[-90.39193,38.81673,150],[-90.39189,38.81674,151],[-90.39187,38.81677,151],[-90.39184,38.81679,150],[-90.39181,38.81681,150],[-90.39178,38.81683,150],[-90.39175,38.81685,150],[-90.39172,38.81687,149],[-90.39171,38.81689,149],[-90.39169,38.81692,148],[-90.39166,38.81694,148],[-90.39164,38.81696,147],[-90.39161,38.81698,147],[-90.39158,38.817,147],[-90.39155,38.81702,147],[-90.39152,38.81703,147],[-90.39149,38.81704,147],[-90.39145,38.81705,147],[-90.39144,38.81708,146],[-90.39141,38.8171,145],[-90.39138,38.81712,145],[-90.39136,38.81715,144],[-90.39134,38.81717,144],[-90.39131,38.8172,143],[-90.39128,38.81721,143],[-90.39124,38.81722,143],[-90.3912,38.81723,144],[-90.39117,38.81724,144],[-90.39114,38.81725,144],[-90.39111,38.81727,144],[-90.39108,38.81729,144],[-90.39105,38.8173,145],[-90.39101,38.81731,145],[-90.39098,38.81732,145],[-90.39095,38.81733,145],[-90.39092,38.81735,145],[-90.39089,38.81737,145],[-90.39087,38.81739,145],[-90.39085,38.81742,144],[-90.39082,38.81744,144],[-90.39079,38.81742,145],[-90.39076,38.81744,145],[-90.39072,38.81743,146],[-90.3907,38.81741,146],[-90.39067,38.81739,148],[-90.39063,38.81739,148],[-90.39059,38.81739,149],[-90.39056,38.81736,151],[-90.39053,38.81735,151],[-90.3905,38.81734,152],[-90.39048,38.81732,152],[-90.39046,38.81729,154],[-90.39049,38.81727,154],[-90.3905,38.81724,155],[-90.39052,38.81722,156],[-90.39055,38.81721,156],[-90.39059,38.81718,156],[-90.39059,38.81714,158],[-90.39062,38.81715,157],[-90.39061,38.81712,158],[-90.39062,38.8171,159],[-90.39061,38.81706,160],[-90.3906,38.81704,161],[-90.39059,38.81701,162],[-90.39058,38.81698,163],[-90.39058,38.81694,164],[-90.39058,38.81692,165],[-90.3906,38.81689,165],[-90.39064,38.81689,164],[-90.39068,38.81687,164],[-90.39071,38.81685,164],[-90.39076,38.81684,164],[-90.3908,38.81683,164],[-90.39085,38.81683,163],[-90.39087,38.81681,164],[-90.39091,38.81682,163],[-90.39093,38.81679,163],[-90.39095,38.81677,164],[-90.39098,38.81674,164],[-90.391,38.81672,165],[-90.39104,38.81672,164],[-90.39106,38.81675,163],[-90.3911,38.81677,163],[-90.39113,38.8168,161],[-90.39115,38.81685,160],[-90.39115,38.81689,158],[-90.39114,38.81693,157],[-90.39117,38.81696,156],[-90.39123,38.81696,155],[-90.39126,38.81692,156],[-90.39128,38.81689,156],[-90.39125,38.81687,157],[-90.39127,38.81683,158],[-90.39128,38.81681,159],[-90.3913,38.81678,159],[-90.39131,38.81675,160],[-90.39134,38.81672,161],[-90.39136,38.81669,161],[-90.39138,38.81666,162],[-90.39139,38.81663,163],[-90.39143,38.81664,161],[-90.39146,38.81664,161],[-90.39149,38.81661,161],[-90.3915,38.81658,162],[-90.39147,38.81656,163],[-90.39143,38.81655,164],[-90.39139,38.81656,165],[-90.39142,38.81658,164],[-90.39144,38.81655,164],[-90.39148,38.81655,163],[-90.39151,38.81654,163],[-90.39153,38.81651,163],[-90.39154,38.81648,164],[-90.39156,38.81645,164],[-90.39159,38.81643,164],[-90.39161,38.81641,164],[-90.39164,38.81639,164],[-90.39166,38.81637,164],[-90.39168,38.81634,165],[-90.39171,38.81633,164],[-90.39173,38.81629,165],[-90.39173,38.81627,166],[-90.39174,38.81624,167],[-90.39176,38.81621,167],[-90.39176,38.81618,168],[-90.39178,38.81615,169],[-90.39179,38.81612,170],[-90.3918,38.81609,170],[-90.3918,38.81606,171],[-90.3918,38.81603,171],[-90.39179,38.816,172],[-90.39181,38.81596,173],[-90.39181,38.81593,173],[-90.39181,38.8159,174],[-90.39182,38.81587,174],[-90.39182,38.81584,175],[-90.39182,38.81581,175],[-90.39182,38.81578,176],[-90.3918,38.81575,177],[-90.39179,38.81572,178],[-90.39178,38.81569,178],[-90.39177,38.81566,179],[-90.39174,38.81563,180],[-90.39171,38.81561,181],[-90.39168,38.81559,182],[-90.39166,38.81556,182],[-90.39164,38.81553,182],[-90.3916,38.81551,183],[-90.39156,38.8155,183],[-90.39152,38.8155,183],[-90.39148,38.81549,184],[-90.39152,38.81548,183],[-90.39156,38.81549,183],[-90.3916,38.81551,183],[-90.39163,38.81554,183],[-90.39165,38.81557,182],[-90.39168,38.81559,182],[-90.3917,38.81562,181],[-90.39172,38.81565,180],[-90.39173,38.81568,180],[-90.39175,38.81571,179],[-90.39179,38.81571,178],[-90.39183,38.8157,177],[-90.39186,38.81569,177],[-90.39189,38.81567,176],[-90.39193,38.81568,175],[-90.39194,38.81565,176],[-90.39195,38.81562,176],[-90.39195,38.81559,176],[-90.39197,38.81556,176],[-90.392,38.81554,175],[-90.39202,38.81551,174],[-90.392,38.81549,175],[-90.392,38.81546,175],[-90.39203,38.81541,173],[-90.39205,38.81544,173],[-90.39208,38.81542,172],[-90.3921,38.8154,171],[-90.3921,38.81537,171],[-90.3921,38.81534,171],[-90.3921,38.81531,171],[-90.39209,38.81528,171],[-90.39207,38.81524,171],[-90.39205,38.81521,170],[-90.39206,38.81517,168],[-90.39208,38.81514,167],[-90.3921,38.81511,165],[-90.39212,38.81507,163],[-90.39212,38.81504,162],[-90.39213,38.81501,161],[-90.39211,38.81497,161],[-90.39207,38.81496,162],[-90.39203,38.81495,163],[-90.39201,38.81493,163],[-90.39198,38.8149,164],[-90.39196,38.81493,164],[-90.39196,38.81499,165],[-90.39198,38.81496,164],[-90.39197,38.81492,164],[-90.39197,38.81489,164],[-90.39197,38.81486,163],[-90.39199,38.81483,163],[-90.39201,38.81481,162],[-90.39202,38.81478,162],[-90.39203,38.81475,161],[-90.39201,38.81472,161],[-90.39199,38.8147,161],[-90.39197,38.81468,161],[-90.39196,38.81465,161],[-90.39196,38.81462,161],[-90.39198,38.81458,160],[-90.39199,38.81455,159],[-90.39196,38.81452,159],[-90.39192,38.81449,160],[-90.39187,38.81447,161],[-90.39186,38.81444,161],[-90.39187,38.8144,160],[-90.39187,38.81437,159],[-90.39187,38.81434,158],[-90.39187,38.81431,157],[-90.39188,38.81428,156],[-90.39188,38.81425,155],[-90.39187,38.81422,155],[-90.39188,38.8142,154],[-90.39188,38.81417,153],[-90.39185,38.81416,153],[-90.39186,38.81413,152],[-90.39187,38.8141,150],[-90.39189,38.81412,151],[-90.3919,38.81415,152],[-90.39191,38.81418,153],[-90.39194,38.81417,152],[-90.39197,38.81415,151],[-90.39199,38.81412,149],[-90.39202,38.8141,148],[-90.39206,38.81409,147],[-90.39209,38.81411,148],[-90.39213,38.81412,148],[-90.39218,38.81412,148],[-90.39223,38.81412,148],[-90.39228,38.8141,146],[-90.39232,38.81408,145],[-90.39235,38.81405,144],[-90.39231,38.81405,143],[-90.39227,38.81405,143],[-90.39229,38.81402,141],[-90.39232,38.81399,140],[-90.39235,38.81397,139],[-90.39237,38.81393,137],[-90.39239,38.81391,137],[-90.39242,38.81388,136],[-90.39244,38.81385,137],[-90.39245,38.81382,137],[-90.39249,38.81381,138],[-90.39251,38.81378,138],[-90.39251,38.81375,138],[-90.39251,38.81372,138],[-90.39251,38.81369,138],[-90.39252,38.81366,138],[-90.39255,38.81364,138],[-90.39259,38.81361,138],[-90.39261,38.81358,138],[-90.39262,38.81356,138],[-90.39265,38.81354,137],[-90.39268,38.81352,137],[-90.39271,38.8135,137],[-90.39274,38.81348,136],[-90.39276,38.81346,136],[-90.39279,38.81344,136],[-90.39282,38.81342,135],[-90.39285,38.81339,135],[-90.39288,38.81336,134],[-90.39291,38.81334,134],[-90.39294,38.81332,133],[-90.39297,38.8133,133],[-90.393,38.81328,133],[-90.39304,38.81327,133],[-90.39308,38.81325,132],[-90.39311,38.81324,132],[-90.39314,38.81321,132],[-90.39316,38.81319,132],[-90.39318,38.81315,132],[-90.3932,38.81312,132],[-90.39323,38.81309,132],[-90.39326,38.81307,132],[-90.39329,38.81305,133],[-90.39333,38.81303,133],[-90.39334,38.813,133],[-90.39336,38.81297,133],[-90.39339,38.81295,133],[-90.39341,38.81292,133],[-90.39343,38.81289,133],[-90.39346,38.81287,133],[-90.39349,38.81285,133],[-90.39352,38.81283,133],[-90.39355,38.81282,133],[-90.39358,38.8128,133],[-90.39362,38.81279,133],[-90.39365,38.81277,134],[-90.39368,38.81275,134],[-90.39372,38.81274,134],[-90.39375,38.81272,134],[-90.3938,38.81271,134],[-90.39383,38.8127,134],[-90.39386,38.81268,135],[-90.39389,38.81265,135],[-90.39392,38.81262,135],[-90.39394,38.81259,135],[-90.39397,38.81257,136],[-90.394,38.81255,136],[-90.39403,38.81253,136],[-90.39408,38.81251,136],[-90.3941,38.81249,137],[-90.39412,38.81246,137],[-90.39415,38.81244,137],[-90.39417,38.81241,137],[-90.39418,38.81239,137],[-90.39421,38.81236,137],[-90.39425,38.81235,137],[-90.39428,38.81233,137],[-90.39431,38.81232,137],[-90.39433,38.81229,137],[-90.39436,38.81227,137],[-90.39438,38.81224,137],[-90.3944,38.81222,138],[-90.39443,38.81219,138],[-90.39445,38.81217,137],[-90.39448,38.81214,137],[-90.39451,38.81212,137],[-90.39453,38.8121,137],[-90.39455,38.81207,137],[-90.39458,38.81205,137],[-90.39461,38.81202,137],[-90.39465,38.812,137],[-90.39468,38.81198,137],[-90.39472,38.81196,136],[-90.39475,38.81194,136],[-90.39478,38.81192,136],[-90.3948,38.8119,136],[-90.39482,38.81187,135],[-90.39485,38.81185,135],[-90.39487,38.81182,134],[-90.39489,38.81179,134],[-90.39491,38.81177,134],[-90.39495,38.81175,133],[-90.39498,38.81173,133],[-90.39501,38.81171,133],[-90.39503,38.81169,133],[-90.39506,38.81167,133],[-90.39509,38.81165,132],[-90.39506,38.81163,132],[-90.39502,38.81163,132],[-90.39498,38.81163,132],[-90.39495,38.81162,132],[-90.39494,38.81159,132]]],
        "bbox": [
          -90.38754,
          38.81744,
          -90.39509,
          38.81111
        ]
      },
      "properties": {
        "name": "7.30.2022A"
      }
    }
  ]
}