{
  "type": "FeatureCollection",
  "features": [
    {
      "type": "Feature",
      "geometry": {
        "type": "MultiLineString",
        "coordinates": [[[-90.39488,38.81165,133],[-90.3949,38.81168,133],[-90.3949,38.81171,133],[-90.3949,38.81174,134],[-90.39488,38.81177,134],[-90.39487,38.8118,134],[-90.39485,38.81183,135],[-90.39481,38.81185,135],[-90.39478,38.81187,135],[-90.39474,38.8119,136],[-90.39471,38.81193,136],[-90.39468,38.81195,137],[-90.39464,38.81197,137],[-90.39461,38.81199,137],[-90.39458,38.81202,137],[-90.39454,38.81205,137],[-90.39452,38.81207,137],[-90.39449,38.81209,137],[-90.39446,38.81212,137],[-90.39444,38.81214,138],[-90.3944,38.81217,138],[-90.39438,38.81219,138],[-90.39435,38.8122,138],[-90.39432,38.81223,137],[-90.39429,38.81224,137],[-90.39427,38.81228,137],[-90.39426,38.81231,137],[-90.39425,38.81233,137],[-90.39421,38.81236,137],[-90.39417,38.81238,137],[-90.39415,38.81241,137],[-90.39411,38.81243,137],[-90.39409,38.81245,137],[-90.39407,38.81248,137],[-90.39404,38.81249,137],[-90.394,38.81251,136],[-90.39395,38.81253,136],[-90.39392,38.81255,136],[-90.39388,38.81258,136],[-90.39385,38.8126,135],[-90.39383,38.81262,135],[-90.3938,38.81264,135],[-90.39378,38.81266,135],[-90.39376,38.81268,134],[-90.39374,38.81271,134],[-90.39371,38.81274,134],[-90.39366,38.81275,134],[-90.39362,38.81277,134],[-90.39359,38.8128,133],[-90.39356,38.81283,133],[-90.39351,38.81285,133],[-90.39348,38.81286,133],[-90.39345,38.81288,133],[-90.39342,38.81289,133],[-90.39339,38.81289,134],[-90.39335,38.81288,134],[-90.39335,38.81285,134],[-90.39332,38.81283,134],[-90.39328,38.81281,134],[-90.39324,38.8128,134],[-90.3932,38.81277,134],[-90.39316,38.81276,134],[-90.39313,38.81274,134],[-90.3931,38.81272,134],[-90.39305,38.81272,134],[-90.39303,38.81269,134],[-90.39303,38.81265,134],[-90.39301,38.81263,134],[-90.39295,38.81261,134],[-90.39292,38.81261,134],[-90.39288,38.81259,134],[-90.39284,38.81257,134],[-90.39279,38.81256,134],[-90.39275,38.81255,134],[-90.39271,38.81253,134],[-90.3927,38.81251,134],[-90.39267,38.81249,134],[-90.39265,38.81246,134],[-90.39263,38.81243,134],[-90.39259,38.81241,134],[-90.39255,38.81239,135],[-90.39252,38.81236,135],[-90.39249,38.81234,135],[-90.39246,38.81231,135],[-90.39244,38.81229,135],[-90.39241,38.81226,135],[-90.39236,38.81223,135],[-90.39232,38.81221,135],[-90.39227,38.8122,135],[-90.39224,38.81218,135],[-90.3922,38.81216,136],[-90.39216,38.81215,136],[-90.39213,38.81212,136],[-90.39209,38.81212,136],[-90.39204,38.81212,137],[-90.392,38.81212,137],[-90.39197,38.81213,137],[-90.39193,38.81213,137],[-90.39189,38.81214,137],[-90.39187,38.81217,137],[-90.39185,38.81221,137],[-90.39185,38.81225,137],[-90.39184,38.81228,136],[-90.39183,38.81231,136],[-90.3918,38.81235,136],[-90.39178,38.81237,136],[-90.39175,38.8124,135],[-90.39171,38.81242,135],[-90.39169,38.81245,135],[-90.39166,38.81247,135],[-90.39163,38.81249,135],[-90.39161,38.81252,135],[-90.39159,38.81255,136],[-90.39159,38.81258,136],[-90.39157,38.81262,137],[-90.39155,38.81264,138],[-90.39153,38.81266,138],[-90.39152,38.81269,139],[-90.39151,38.81272,140],[-90.39152,38.81275,140],[-90.39155,38.81275,140],[-90.39158,38.81277,140],[-90.39161,38.81279,140],[-90.39164,38.8128,139],[-90.39168,38.81282,139],[-90.39171,38.81284,139],[-90.39174,38.81286,139],[-90.39177,38.81289,139],[-90.39181,38.81291,138],[-90.39184,38.81293,138],[-90.39187,38.81296,138],[-90.3919,38.81297,138],[-90.39193,38.813,138],[-90.39197,38.81301,138],[-90.392,38.81302,138],[-90.39203,38.81305,138],[-90.39206,38.81308,138],[-90.39208,38.8131,138],[-90.39211,38.81312,138],[-90.39216,38.81314,138],[-90.3922,38.81315,137],[-90.39223,38.81317,137],[-90.39227,38.81319,137],[-90.3923,38.81321,137],[-90.39234,38.81322,137],[-90.39237,38.81325,137],[-90.39239,38.81328,137],[-90.39242,38.8133,137],[-90.39248,38.81331,137],[-90.39252,38.81333,136],[-90.39255,38.81334,136],[-90.39257,38.81337,136],[-90.39261,38.81338,136],[-90.39265,38.8134,136],[-90.39268,38.81341,136],[-90.39271,38.81343,136],[-90.39271,38.81346,136],[-90.39269,38.8135,137],[-90.39267,38.81352,137],[-90.39263,38.81354,137],[-90.39261,38.81357,138],[-90.39259,38.8136,138],[-90.39257,38.81363,138],[-90.39256,38.81366,138],[-90.39256,38.8137,138],[-90.39255,38.81373,138],[-90.39253,38.81375,138],[-90.39252,38.81378,138],[-90.39249,38.8138,138],[-90.39247,38.81383,137],[-90.39246,38.81386,137],[-90.39242,38.81385,136],[-90.39243,38.81388,136],[-90.39242,38.81391,137],[-90.3924,38.81393,138],[-90.39239,38.81396,139],[-90.39236,38.81399,141],[-90.39233,38.81402,142],[-90.39231,38.81404,143],[-90.39228,38.81406,144],[-90.39223,38.81406,144],[-90.3922,38.81404,143],[-90.39218,38.81401,141],[-90.39215,38.81398,139],[-90.39211,38.81396,139],[-90.39208,38.81394,138],[-90.39204,38.81392,138],[-90.39201,38.81389,136],[-90.39197,38.81387,137],[-90.39195,38.81385,138],[-90.39193,38.81383,139],[-90.39189,38.81381,140],[-90.39185,38.81379,141],[-90.39181,38.81377,142],[-90.39178,38.81375,143],[-90.39175,38.81372,143],[-90.39172,38.81369,143],[-90.3917,38.81366,143],[-90.39167,38.81363,143],[-90.39165,38.8136,143],[-90.39163,38.81356,144],[-90.39163,38.81353,144],[-90.39163,38.8135,145],[-90.39162,38.81346,146],[-90.39162,38.81342,146],[-90.39161,38.8134,147],[-90.3916,38.81337,147],[-90.39156,38.81336,148],[-90.39152,38.81334,149],[-90.39149,38.81333,149],[-90.39145,38.81332,150],[-90.39141,38.8133,150],[-90.39137,38.81328,151],[-90.39134,38.81326,151],[-90.39131,38.81322,151],[-90.39128,38.8132,152],[-90.39125,38.81318,152],[-90.39123,38.81314,152],[-90.39123,38.81312,152],[-90.39121,38.81309,152],[-90.39118,38.81307,153],[-90.39117,38.81304,152],[-90.39116,38.813,151],[-90.39114,38.81297,151],[-90.39112,38.81294,150],[-90.39109,38.81291,150],[-90.39107,38.81289,150],[-90.39105,38.81286,149],[-90.39104,38.81283,149],[-90.39101,38.81281,149],[-90.39099,38.81277,148],[-90.39099,38.81274,147],[-90.391,38.8127,146],[-90.39101,38.81267,146],[-90.391,38.81264,145],[-90.391,38.81261,144],[-90.39099,38.81257,143],[-90.39097,38.81255,143],[-90.39098,38.81251,142],[-90.39099,38.81248,142],[-90.39099,38.81245,143],[-90.39096,38.81241,144],[-90.39095,38.81239,145],[-90.39093,38.81236,146],[-90.39092,38.81233,147],[-90.39092,38.81229,148],[-90.39091,38.81225,149],[-90.39091,38.81223,149],[-90.3909,38.8122,149],[-90.3909,38.81217,149],[-90.39089,38.81214,149],[-90.39089,38.8121,149],[-90.3909,38.81207,149],[-90.39091,38.81203,149],[-90.39093,38.81199,149],[-90.39094,38.81196,150],[-90.39094,38.81193,149],[-90.39093,38.81189,149],[-90.39092,38.81185,148],[-90.39092,38.81182,148],[-90.39092,38.81179,147],[-90.39093,38.81176,147],[-90.39095,38.81174,147],[-90.39097,38.81171,146],[-90.391,38.81167,145],[-90.39103,38.81165,145],[-90.39106,38.81163,144],[-90.39109,38.8116,144],[-90.39111,38.81157,143],[-90.39113,38.81155,143],[-90.39114,38.81151,142],[-90.39112,38.81148,142],[-90.3911,38.81146,142],[-90.39106,38.81145,142],[-90.39103,38.81142,142],[-90.391,38.8114,141],[-90.39096,38.81137,141],[-90.39094,38.81134,141],[-90.39091,38.81131,141],[-90.3909,38.81128,141],[-90.39088,38.81126,141],[-90.39087,38.81123,141],[-90.39085,38.81121,141],[-90.3908,38.8112,141],[-90.39076,38.81121,141],[-90.39072,38.81123,142],[-90.39068,38.81126,142],[-90.39063,38.81128,142],[-90.39059,38.81129,142],[-90.39056,38.81128,142],[-90.39051,38.81126,142],[-90.39048,38.81124,142],[-90.39045,38.81122,142],[-90.39043,38.8112,142],[-90.39038,38.81118,142],[-90.39035,38.81118,142],[-90.39031,38.81118,142],[-90.39027,38.81118,143],[-90.39023,38.81118,143],[-90.39019,38.81117,144],[-90.39014,38.81117,144],[-90.3901,38.81117,145],[-90.39006,38.81117,145],[-90.39003,38.81116,146],[-90.38998,38.81115,147],[-90.38995,38.81115,147],[-90.38991,38.81115,148],[-90.38987,38.81116,148],[-90.38984,38.81119,148],[-90.3898,38.81121,149],[-90.38977,38.81122,149],[-90.38973,38.81121,150],[-90.38969,38.81121,150],[-90.38966,38.81118,151],[-90.38961,38.81116,151],[-90.38957,38.81116,151],[-90.38952,38.81117,151],[-90.38949,38.81118,151],[-90.38946,38.8112,151],[-90.38942,38.81123,152],[-90.38942,38.81126,152],[-90.38941,38.81129,152],[-90.38945,38.8113,151],[-90.38948,38.81132,151],[-90.38944,38.81134,152],[-90.38942,38.81137,152],[-90.38939,38.81139,152],[-90.38936,38.81141,152],[-90.38932,38.81141,152],[-90.38929,38.81138,152],[-90.38925,38.81137,152],[-90.38921,38.81138,152],[-90.38919,38.8114,152],[-90.38916,38.81143,152],[-90.38912,38.81145,153],[-90.3891,38.81147,153],[-90.38906,38.81148,154],[-90.38903,38.81151,155],[-90.38897,38.8115,156],[-90.38893,38.81151,157],[-90.38889,38.81151,158],[-90.38885,38.81151,159],[-90.38882,38.81152,160],[-90.38878,38.81152,161],[-90.38878,38.81156,161],[-90.3888,38.81162,161],[-90.38876,38.81162,162],[-90.38874,38.81164,162],[-90.3887,38.81165,163],[-90.3887,38.81169,163],[-90.38868,38.81171,163],[-90.38864,38.81172,163],[-90.38862,38.81176,163],[-90.38861,38.81179,163],[-90.38861,38.81182,163],[-90.3886,38.81186,163],[-90.38861,38.81188,162],[-90.38863,38.81191,161],[-90.38866,38.81193,161],[-90.38868,38.81196,160],[-90.3887,38.81198,160],[-90.38872,38.81201,160],[-90.38875,38.81204,160],[-90.38879,38.81205,160],[-90.38881,38.81208,160],[-90.38882,38.81211,160],[-90.38884,38.81214,161],[-90.38884,38.81217,161],[-90.38882,38.81221,162],[-90.38879,38.81223,162],[-90.38878,38.81226,163],[-90.38876,38.8123,163],[-90.38872,38.81231,164],[-90.38867,38.81232,165],[-90.38865,38.81234,165],[-90.38864,38.81238,166],[-90.3886,38.8124,167],[-90.38861,38.81243,167],[-90.38862,38.81246,168],[-90.38863,38.81249,168],[-90.38861,38.81252,169],[-90.38859,38.81255,169],[-90.38858,38.81258,170],[-90.38857,38.81262,170],[-90.38855,38.81265,171],[-90.38853,38.81267,172],[-90.38849,38.81268,173],[-90.38845,38.81269,174],[-90.38842,38.8127,175],[-90.38838,38.81271,177],[-90.38835,38.81272,178],[-90.38831,38.81274,179],[-90.38828,38.81273,180],[-90.38829,38.81275,180],[-90.38825,38.81274,181],[-90.38822,38.81274,182],[-90.38819,38.81276,183],[-90.38816,38.81278,184],[-90.38812,38.81279,186],[-90.38808,38.81279,187],[-90.38806,38.81281,188],[-90.38805,38.81284,188],[-90.38804,38.81287,189],[-90.38804,38.81291,189],[-90.38805,38.81294,189],[-90.38806,38.81298,190],[-90.38806,38.81301,190],[-90.38806,38.81304,190],[-90.38805,38.81307,191],[-90.38803,38.8131,191],[-90.38802,38.81313,192],[-90.388,38.81316,193],[-90.388,38.81319,193],[-90.38796,38.81321,194],[-90.38793,38.81324,194],[-90.38791,38.81326,194],[-90.38788,38.81328,195],[-90.38785,38.8133,195],[-90.38781,38.8133,195],[-90.38777,38.8133,195],[-90.38773,38.8133,195],[-90.38769,38.8133,195],[-90.38765,38.8133,194],[-90.38762,38.81332,194],[-90.38761,38.81335,194],[-90.3876,38.81337,195],[-90.38759,38.81341,195],[-90.38759,38.81344,195],[-90.38758,38.81347,195],[-90.38757,38.8135,195],[-90.38756,38.81354,195],[-90.38755,38.81357,196],[-90.38754,38.8136,196],[-90.38754,38.81363,196],[-90.38753,38.81366,196],[-90.38751,38.81368,197],[-90.38751,38.81372,197],[-90.3875,38.81375,198],[-90.38749,38.81378,198],[-90.3875,38.81381,198],[-90.38752,38.81384,199],[-90.38755,38.81386,199],[-90.38758,38.81388,199],[-90.38761,38.8139,200],[-90.38765,38.81391,200],[-90.38768,38.81394,200],[-90.38772,38.81396,200],[-90.38776,38.81395,200],[-90.3878,38.81395,199],[-90.38784,38.81395,199],[-90.38788,38.81394,199],[-90.38791,38.81394,199],[-90.38795,38.81393,199],[-90.38799,38.81393,199],[-90.38803,38.81391,199],[-90.38807,38.8139,198],[-90.38811,38.81389,198],[-90.38816,38.8139,198],[-90.3882,38.8139,198],[-90.38824,38.81391,198],[-90.38827,38.81392,198],[-90.3883,38.81395,198],[-90.38833,38.81397,198],[-90.38836,38.81399,198],[-90.38839,38.81401,197],[-90.38842,38.81403,197],[-90.38846,38.81404,197],[-90.38851,38.81406,197],[-90.38855,38.81408,196],[-90.38859,38.81409,196],[-90.38863,38.8141,196],[-90.38867,38.81412,195],[-90.38871,38.81412,195],[-90.38875,38.81412,194],[-90.38879,38.81413,194],[-90.38882,38.81414,193],[-90.38886,38.81415,193],[-90.38888,38.81417,193],[-90.38893,38.81419,192],[-90.38897,38.81419,192],[-90.38902,38.81419,192],[-90.38905,38.8142,192],[-90.38909,38.8142,192],[-90.38913,38.81421,192],[-90.38917,38.81423,192],[-90.38921,38.81424,192],[-90.38925,38.81426,191],[-90.38929,38.81427,190],[-90.38932,38.81428,190],[-90.38937,38.81429,189],[-90.38942,38.81431,189],[-90.38945,38.81433,189],[-90.38949,38.81436,189],[-90.38952,38.81437,188],[-90.38954,38.81441,189],[-90.38955,38.81444,189],[-90.38956,38.81446,189],[-90.38955,38.8145,189],[-90.38955,38.81453,190],[-90.38955,38.81456,190],[-90.38955,38.8146,190],[-90.38956,38.81463,190],[-90.38955,38.81466,190],[-90.38954,38.8147,191],[-90.38953,38.81473,191],[-90.38952,38.81476,190],[-90.38952,38.81479,190],[-90.38953,38.81482,190],[-90.38954,38.81486,189],[-90.38955,38.81489,189],[-90.38956,38.81492,189],[-90.38958,38.81494,189],[-90.38961,38.81496,189],[-90.38964,38.81499,188],[-90.38967,38.81501,188],[-90.3897,38.81504,188],[-90.38973,38.81506,187],[-90.38976,38.81508,187],[-90.38978,38.8151,186],[-90.38982,38.81513,186],[-90.38986,38.81516,185],[-90.38989,38.81518,184],[-90.38992,38.81521,183],[-90.38995,38.81523,183],[-90.38998,38.81525,182],[-90.39002,38.81526,182],[-90.39006,38.81529,181],[-90.39009,38.81532,181],[-90.39013,38.81533,181],[-90.39017,38.81535,180],[-90.39021,38.81535,180],[-90.39025,38.81536,180],[-90.3903,38.81538,180],[-90.39033,38.81538,181],[-90.39037,38.81539,181],[-90.39041,38.81539,181],[-90.39045,38.8154,182],[-90.39049,38.81542,182],[-90.39054,38.81544,182],[-90.39058,38.81545,183],[-90.39062,38.81546,183],[-90.39066,38.81547,183],[-90.39069,38.81545,184],[-90.39073,38.81545,184],[-90.39079,38.81546,185],[-90.39083,38.81547,185],[-90.39087,38.81547,185],[-90.39092,38.81546,185],[-90.39096,38.81546,185],[-90.391,38.81544,186],[-90.39104,38.81543,186],[-90.39107,38.81542,186],[-90.39112,38.8154,186],[-90.39116,38.81539,186],[-90.39119,38.81538,186],[-90.39124,38.81538,186],[-90.39127,38.81539,186],[-90.39131,38.8154,185],[-90.39135,38.81541,185],[-90.39139,38.81542,185],[-90.39142,38.81544,185],[-90.39146,38.81545,184],[-90.3915,38.81547,183],[-90.39153,38.81549,183],[-90.39155,38.81552,183],[-90.39158,38.81555,183],[-90.39162,38.81557,183],[-90.39165,38.81559,182],[-90.39167,38.81563,182],[-90.3917,38.81565,181],[-90.39173,38.81566,180],[-90.39176,38.81568,179],[-90.39177,38.81571,178],[-90.39178,38.81574,178],[-90.39178,38.81577,177],[-90.39179,38.8158,176],[-90.39179,38.81583,176],[-90.39179,38.81587,175],[-90.39179,38.8159,174],[-90.39179,38.81593,174],[-90.39178,38.81596,174],[-90.39177,38.816,173],[-90.39177,38.81602,172],[-90.39176,38.81605,172],[-90.39175,38.81609,172],[-90.39175,38.81611,171],[-90.39174,38.81615,170],[-90.39173,38.81617,170],[-90.39172,38.8162,169],[-90.39172,38.81624,167],[-90.3917,38.81627,167],[-90.39169,38.8163,166],[-90.39169,38.81632,165],[-90.39166,38.81635,165],[-90.39164,38.81637,165],[-90.39161,38.81641,164],[-90.39159,38.81643,164],[-90.39158,38.81646,164],[-90.39158,38.81649,163],[-90.39155,38.81651,163],[-90.39153,38.81654,162],[-90.39151,38.81656,162],[-90.39147,38.81654,164],[-90.39144,38.81654,164],[-90.39148,38.81653,164],[-90.39152,38.81653,163],[-90.39153,38.81656,162],[-90.39154,38.81653,162],[-90.39158,38.81653,162],[-90.39155,38.81655,162],[-90.39149,38.81655,163],[-90.39148,38.81658,162],[-90.39145,38.8166,162],[-90.39143,38.81662,162],[-90.39139,38.81662,163],[-90.39137,38.81665,162],[-90.39134,38.81667,162],[-90.39132,38.81669,162],[-90.3913,38.81671,161],[-90.39128,38.81674,161],[-90.39126,38.81676,160],[-90.39124,38.81678,160],[-90.39121,38.81677,161],[-90.39117,38.81678,161],[-90.39113,38.81679,162],[-90.39111,38.81682,161],[-90.39109,38.81679,162],[-90.39107,38.81676,163],[-90.39107,38.81672,164],[-90.39104,38.8167,165],[-90.391,38.81668,166],[-90.39097,38.81666,166],[-90.39094,38.81664,167],[-90.3909,38.81664,167],[-90.39095,38.81665,166],[-90.39091,38.81666,166],[-90.39087,38.81664,167],[-90.39089,38.81673,165],[-90.3909,38.81675,165],[-90.39089,38.81679,164],[-90.39088,38.81682,163],[-90.39085,38.81679,164],[-90.39088,38.81682,163],[-90.39087,38.81685,163],[-90.39083,38.81684,163],[-90.39081,38.81681,164],[-90.39079,38.81679,165],[-90.39074,38.81677,165],[-90.39071,38.81675,166],[-90.39076,38.81678,165],[-90.3908,38.8168,164],[-90.3908,38.81685,163],[-90.39076,38.81684,164],[-90.39073,38.81683,164],[-90.39069,38.81683,165],[-90.39066,38.81685,165],[-90.39063,38.81684,165],[-90.3906,38.81686,165],[-90.39056,38.81689,165],[-90.39053,38.8169,165],[-90.39049,38.8169,165],[-90.39046,38.81689,166],[-90.39043,38.81687,166],[-90.3904,38.81684,167],[-90.39039,38.81681,167],[-90.39038,38.81678,167],[-90.39036,38.81675,168],[-90.39033,38.81672,168],[-90.39031,38.8167,168],[-90.39034,38.81672,168],[-90.39037,38.81673,168],[-90.3904,38.81675,167],[-90.39042,38.81677,167],[-90.39043,38.8168,167],[-90.39044,38.81683,166],[-90.39047,38.81685,166],[-90.3905,38.81687,166],[-90.39052,38.8169,165],[-90.39052,38.81693,165],[-90.39053,38.81696,164],[-90.39054,38.81699,163],[-90.39056,38.81702,162],[-90.39056,38.81705,161],[-90.39056,38.81708,160],[-90.39055,38.81711,159],[-90.39053,38.81714,158],[-90.39054,38.81717,157],[-90.39054,38.8172,156],[-90.39058,38.81721,155],[-90.39059,38.81724,154],[-90.39056,38.81726,154],[-90.39055,38.8173,153],[-90.39059,38.8173,152],[-90.39062,38.81728,152],[-90.39064,38.81731,151],[-90.39066,38.81734,149],[-90.39066,38.81738,148],[-90.39064,38.8174,148],[-90.39065,38.81743,147],[-90.39067,38.81746,145],[-90.39071,38.81745,145],[-90.39075,38.81745,144],[-90.39079,38.81746,143],[-90.39083,38.81749,142],[-90.39085,38.81752,141],[-90.39088,38.8175,141],[-90.39086,38.81748,142],[-90.39083,38.81747,142],[-90.39078,38.81746,144],[-90.39074,38.81746,144],[-90.39071,38.81744,145],[-90.39072,38.81741,146],[-90.39078,38.81739,146],[-90.3908,38.81736,147],[-90.39081,38.81733,147],[-90.39083,38.8173,148],[-90.39087,38.8173,147],[-90.39091,38.81731,146],[-90.39095,38.81733,145],[-90.39099,38.81735,144],[-90.39102,38.81733,144],[-90.39104,38.8173,145],[-90.39107,38.81728,145],[-90.3911,38.81725,145],[-90.39112,38.81722,145],[-90.39115,38.81723,145],[-90.39115,38.81719,146],[-90.39118,38.81718,146],[-90.39121,38.81716,146],[-90.39124,38.81714,147],[-90.39128,38.81714,146],[-90.39132,38.81714,145],[-90.39136,38.81715,144],[-90.39138,38.8171,146],[-90.39144,38.81709,145],[-90.3915,38.81706,146],[-90.39153,38.81704,146],[-90.39153,38.817,148],[-90.39158,38.81701,146],[-90.39161,38.81701,146],[-90.39165,38.81702,145],[-90.3917,38.81706,143],[-90.39168,38.81702,145],[-90.39169,38.817,145],[-90.3917,38.81697,147],[-90.39172,38.81694,148],[-90.39177,38.81694,148],[-90.3918,38.81696,147],[-90.39182,38.81698,147],[-90.39181,38.81696,147],[-90.39184,38.81694,148],[-90.39184,38.81692,148],[-90.39186,38.81689,149],[-90.39188,38.81687,149],[-90.39189,38.81683,150],[-90.39192,38.81681,150],[-90.39195,38.8168,149],[-90.39194,38.81678,150],[-90.39197,38.81677,149],[-90.39198,38.81674,149],[-90.392,38.81671,149],[-90.39203,38.81669,149],[-90.39204,38.81667,149],[-90.39207,38.81664,149],[-90.3921,38.81663,148],[-90.39212,38.8166,148],[-90.39213,38.81658,148],[-90.39216,38.81656,148],[-90.3922,38.81655,147],[-90.39223,38.81654,147],[-90.39226,38.81652,146],[-90.39227,38.81649,146],[-90.39226,38.81646,147],[-90.39228,38.81643,147],[-90.39229,38.8164,147],[-90.39232,38.81638,147],[-90.39232,38.81635,148],[-90.3923,38.81633,148],[-90.3923,38.8163,149],[-90.39231,38.81627,150],[-90.39235,38.81626,149],[-90.39236,38.81623,150],[-90.39239,38.81621,150],[-90.39242,38.81619,149],[-90.39243,38.81616,150],[-90.39244,38.81613,150],[-90.39247,38.81611,149],[-90.39251,38.81611,148],[-90.39255,38.81609,147],[-90.39255,38.81606,147],[-90.39259,38.81605,145],[-90.39262,38.81603,145],[-90.39266,38.81601,143],[-90.39268,38.81598,143],[-90.39268,38.81596,143],[-90.39268,38.81593,143],[-90.39266,38.8159,143],[-90.39265,38.81587,144],[-90.39263,38.81584,144],[-90.39262,38.81581,145],[-90.39261,38.81578,146],[-90.39261,38.81575,147],[-90.3926,38.81571,148],[-90.39259,38.81569,149],[-90.39259,38.81564,150],[-90.3926,38.8156,150],[-90.39261,38.81557,151],[-90.39263,38.81554,151],[-90.39267,38.81552,149],[-90.39269,38.81549,149],[-90.39271,38.81547,149],[-90.39273,38.81544,149],[-90.39276,38.81542,149],[-90.3928,38.81542,148],[-90.39283,38.81541,147],[-90.39287,38.8154,147],[-90.39289,38.81542,145],[-90.39291,38.8154,146],[-90.39293,38.81537,146],[-90.39296,38.81535,146],[-90.39299,38.81533,145],[-90.39302,38.81531,145],[-90.39305,38.81529,145],[-90.39307,38.81526,145],[-90.39309,38.81523,145],[-90.39311,38.81521,145],[-90.39314,38.81518,144],[-90.39316,38.81516,144],[-90.39315,38.81512,144],[-90.39315,38.81509,145],[-90.39314,38.81507,145],[-90.39312,38.81504,146],[-90.3931,38.81502,146],[-90.39308,38.81499,147],[-90.39306,38.81496,147],[-90.39304,38.81493,147],[-90.39302,38.81491,147],[-90.393,38.81488,147],[-90.39299,38.81485,147],[-90.39298,38.81482,147],[-90.39298,38.81478,147],[-90.39299,38.81475,147],[-90.39299,38.81472,147],[-90.39299,38.81469,147],[-90.39298,38.81466,147],[-90.39297,38.81463,148],[-90.39294,38.8146,149],[-90.39291,38.81457,149],[-90.39287,38.81454,150],[-90.39283,38.81454,151],[-90.3928,38.81452,152],[-90.39277,38.8145,152],[-90.39274,38.81448,153],[-90.39271,38.81446,153],[-90.3927,38.81443,153],[-90.39269,38.8144,152],[-90.39268,38.81438,152],[-90.39266,38.81435,152],[-90.39262,38.81432,152],[-90.39254,38.8143,152],[-90.39251,38.81428,152],[-90.39248,38.81425,151],[-90.39245,38.81424,151],[-90.39241,38.81425,151],[-90.39237,38.81423,151],[-90.39233,38.81421,151],[-90.39231,38.81419,151],[-90.39229,38.81417,150],[-90.39226,38.81414,149],[-90.39225,38.81411,147],[-90.39223,38.81408,145],[-90.39223,38.81404,142],[-90.39227,38.81402,141],[-90.3923,38.81401,141],[-90.39234,38.81398,140],[-90.39237,38.81396,139],[-90.3924,38.81393,138],[-90.39241,38.81389,136],[-90.39242,38.81387,136],[-90.39244,38.81384,137],[-90.39247,38.81382,137],[-90.39249,38.8138,138],[-90.3925,38.81376,138],[-90.39251,38.81373,138],[-90.39253,38.8137,138],[-90.39254,38.81367,138],[-90.39257,38.81364,138],[-90.39258,38.81361,138],[-90.3926,38.81358,138],[-90.39261,38.81355,138],[-90.39263,38.81352,137],[-90.39266,38.81349,137],[-90.39267,38.81346,136],[-90.3927,38.81343,136],[-90.39272,38.8134,136],[-90.39275,38.81338,135],[-90.39278,38.81336,135],[-90.39281,38.81333,134],[-90.39284,38.81332,134],[-90.39287,38.81329,134],[-90.39291,38.81327,133],[-90.39293,38.81324,133],[-90.39296,38.81322,133],[-90.39299,38.81319,133],[-90.39303,38.81317,133],[-90.39305,38.81315,133],[-90.39307,38.81312,132],[-90.39309,38.8131,132],[-90.3931,38.81307,132],[-90.39313,38.81304,133],[-90.39317,38.81302,133],[-90.3932,38.81299,133],[-90.39323,38.81296,133],[-90.39327,38.81294,133],[-90.39331,38.81292,133],[-90.39334,38.8129,134],[-90.39338,38.81288,134],[-90.39341,38.81286,134],[-90.39344,38.81285,134],[-90.39349,38.81284,133],[-90.39352,38.81283,133],[-90.39355,38.8128,134],[-90.39357,38.81278,134],[-90.39356,38.81275,134],[-90.39352,38.81274,134],[-90.39356,38.81275,134],[-90.3936,38.81275,134],[-90.39364,38.81275,134],[-90.39367,38.81273,134],[-90.39371,38.8127,134],[-90.39374,38.81268,134],[-90.39378,38.81266,135],[-90.39381,38.81263,135],[-90.39384,38.81261,135],[-90.39389,38.81259,136],[-90.39392,38.81257,136],[-90.39395,38.81254,136],[-90.39398,38.81252,136],[-90.39401,38.8125,137],[-90.39405,38.81247,137],[-90.39408,38.81244,137],[-90.39411,38.81242,137],[-90.39414,38.8124,137],[-90.39418,38.81237,137],[-90.3942,38.81234,137],[-90.39423,38.81231,137],[-90.39426,38.81229,137],[-90.39429,38.81226,137],[-90.39433,38.81223,137],[-90.39436,38.81221,138],[-90.3944,38.81218,138],[-90.39442,38.81215,138],[-90.39445,38.81213,137],[-90.39449,38.8121,137],[-90.39452,38.81207,137],[-90.39455,38.81206,137],[-90.39459,38.81203,137],[-90.39461,38.81201,137],[-90.39464,38.81198,137],[-90.39466,38.81196,137],[-90.39468,38.81193,137],[-90.39472,38.81191,136],[-90.39475,38.81189,136],[-90.39479,38.81186,135],[-90.39481,38.81183,135],[-90.39484,38.81181,134],[-90.39488,38.81178,134],[-90.3949,38.81176,134],[-90.39493,38.81173,133],[-90.39496,38.81171,133],[-90.395,38.81169,133],[-90.39503,38.81167,133],[-90.39506,38.81166,132],[-90.39507,38.81163,132],[-90.39507,38.8116,132],[-90.39506,38.81163,132],[-90.39505,38.81162,132]]],
        "bbox": [
          -90.38749,
          38.81752,
          -90.39507,
          38.81115
        ]
      },
      "properties": {
        "name": "6.26.2023"
      }
    }
  ]
}