{
  "type": "FeatureCollection",
  "features": [
    {
      "type": "Feature",
      "geometry": {
        "type": "MultiLineString",
        "coordinates": [[[-90.39408,38.8125,137],[-90.39404,38.81253,136],[-90.394,38.81255,136],[-90.39398,38.81257,136],[-90.39395,38.8126,135],[-90.39391,38.81261,135],[-90.39388,38.81263,135],[-90.39386,38.81265,135],[-90.39383,38.81267,135],[-90.3938,38.81269,134],[-90.39376,38.8127,134],[-90.39373,38.81273,134],[-90.3937,38.81275,134],[-90.39367,38.81277,134],[-90.39364,38.81278,133],[-90.39361,38.8128,133],[-90.39357,38.81283,133],[-90.39354,38.81284,133],[-90.3935,38.81286,133],[-90.39345,38.81287,133],[-90.39341,38.81289,133],[-90.39337,38.81291,133],[-90.39334,38.81293,133],[-90.3933,38.81295,133],[-90.39325,38.81296,133],[-90.39322,38.81298,133],[-90.39319,38.81301,133],[-90.39317,38.81303,133],[-90.39314,38.81306,132],[-90.39311,38.81309,132],[-90.39309,38.81311,132],[-90.39307,38.81313,132],[-90.39305,38.81315,133],[-90.39302,38.81318,133],[-90.393,38.81321,133],[-90.39298,38.81323,133],[-90.39295,38.81326,133],[-90.39291,38.81328,133],[-90.39287,38.8133,134],[-90.39285,38.81333,134],[-90.39282,38.81335,134],[-90.39279,38.81338,135],[-90.39276,38.81341,135],[-90.39273,38.81343,136],[-90.39271,38.81345,136],[-90.39268,38.81348,137],[-90.39266,38.8135,137],[-90.39262,38.81353,137],[-90.3926,38.81355,138],[-90.39258,38.81358,138],[-90.39257,38.81362,138],[-90.39255,38.81365,138],[-90.39254,38.81368,138],[-90.39253,38.81371,138],[-90.39252,38.81375,138],[-90.39249,38.81377,138],[-90.39247,38.81379,138],[-90.39245,38.81382,137],[-90.39244,38.81385,137],[-90.39242,38.81387,136],[-90.39239,38.8139,136],[-90.39235,38.81393,137],[-90.39232,38.81395,138],[-90.3923,38.81397,139],[-90.39229,38.814,140],[-90.39228,38.81403,142],[-90.39226,38.81405,143],[-90.39227,38.81409,146],[-90.39229,38.81412,148],[-90.3923,38.81415,149],[-90.39232,38.81418,150],[-90.39235,38.81421,151],[-90.39239,38.81424,151],[-90.39242,38.81427,152],[-90.39245,38.8143,152],[-90.39249,38.81432,153],[-90.39252,38.81435,153],[-90.39257,38.81437,153],[-90.3926,38.81439,153],[-90.39263,38.81441,153],[-90.39265,38.81443,154],[-90.39268,38.81445,154],[-90.3927,38.81448,153],[-90.39273,38.8145,153],[-90.39276,38.81453,152],[-90.3928,38.81455,152],[-90.39284,38.81457,151],[-90.39287,38.81458,150],[-90.3929,38.8146,149],[-90.39292,38.81462,149],[-90.39294,38.81466,148],[-90.39295,38.81469,148],[-90.39297,38.81472,147],[-90.39298,38.81476,147],[-90.39298,38.8148,147],[-90.39297,38.81482,148],[-90.39296,38.81486,148],[-90.39296,38.8149,148],[-90.39298,38.81493,148],[-90.393,38.81497,148],[-90.39302,38.81499,148],[-90.39304,38.81503,147],[-90.39306,38.81506,147],[-90.39307,38.81508,147],[-90.39309,38.81512,146],[-90.39312,38.81514,145],[-90.39312,38.81517,145],[-90.39312,38.81521,144],[-90.39311,38.81524,144],[-90.39309,38.81526,145],[-90.39306,38.81528,145],[-90.39302,38.8153,146],[-90.39299,38.81531,146],[-90.39295,38.81534,146],[-90.39292,38.81536,146],[-90.39288,38.81537,147],[-90.39284,38.81537,148],[-90.39281,38.8154,148],[-90.39279,38.81542,148],[-90.39277,38.81544,148],[-90.39274,38.81546,149],[-90.39272,38.81549,148],[-90.39269,38.81551,149],[-90.39266,38.81553,150],[-90.39264,38.81556,150],[-90.39261,38.81557,151],[-90.39257,38.81559,152],[-90.39255,38.81562,152],[-90.39256,38.81567,150],[-90.39258,38.81571,149],[-90.39259,38.81575,147],[-90.39259,38.81578,147],[-90.39259,38.81581,146],[-90.39258,38.81584,146],[-90.39259,38.81587,145],[-90.39259,38.8159,145],[-90.39261,38.81592,145],[-90.3926,38.81596,145],[-90.39259,38.81599,145],[-90.39259,38.81602,145],[-90.39257,38.81605,146],[-90.39254,38.81607,147],[-90.39251,38.81609,148],[-90.39248,38.8161,149],[-90.39244,38.8161,150],[-90.3924,38.81611,152],[-90.39237,38.81613,152],[-90.39235,38.81616,152],[-90.39233,38.81618,152],[-90.39229,38.8162,153],[-90.39228,38.81623,152],[-90.39225,38.81625,152],[-90.39223,38.81627,152],[-90.39223,38.8163,151],[-90.39225,38.81632,150],[-90.39227,38.81635,149],[-90.39226,38.81638,148],[-90.39225,38.81641,148],[-90.39225,38.81644,147],[-90.39223,38.81646,148],[-90.3922,38.81648,148],[-90.39219,38.81651,148],[-90.3922,38.81654,147],[-90.39219,38.81657,147],[-90.39217,38.81659,147],[-90.39216,38.81662,147],[-90.39214,38.81665,147],[-90.39212,38.81667,147],[-90.39208,38.81669,148],[-90.39204,38.8167,149],[-90.392,38.81671,149],[-90.39198,38.81674,149],[-90.39197,38.81677,149],[-90.39194,38.81678,150],[-90.39191,38.8168,150],[-90.39189,38.81682,150],[-90.39185,38.81683,150],[-90.39182,38.81684,150],[-90.39179,38.81687,149],[-90.39177,38.8169,149],[-90.39176,38.81693,148],[-90.39174,38.81695,147],[-90.39178,38.81697,147],[-90.39175,38.81701,145],[-90.39172,38.81705,143],[-90.3917,38.81707,143],[-90.39166,38.81709,142],[-90.39162,38.81709,143],[-90.39159,38.8171,143],[-90.39156,38.81711,143],[-90.39153,38.81713,142],[-90.3915,38.81715,142],[-90.39154,38.81715,141],[-90.39158,38.81716,140],[-90.3916,38.81713,141],[-90.39163,38.8171,142],[-90.39166,38.81708,142],[-90.3917,38.81707,143],[-90.39173,38.81705,144],[-90.39175,38.81702,145],[-90.39178,38.81699,146],[-90.39181,38.81697,147],[-90.39183,38.81694,148],[-90.39186,38.81691,149],[-90.39189,38.81689,149],[-90.3919,38.81686,149],[-90.39194,38.81683,149],[-90.39196,38.8168,149],[-90.39199,38.81678,149],[-90.39201,38.81676,149],[-90.39202,38.81673,149],[-90.39206,38.81672,148],[-90.39209,38.81671,148],[-90.39211,38.81668,147],[-90.39212,38.81665,148],[-90.39214,38.81662,148],[-90.39216,38.8166,147],[-90.39218,38.81657,147],[-90.3922,38.81653,148],[-90.39221,38.8165,148],[-90.39223,38.81647,148],[-90.39226,38.81645,147],[-90.39229,38.81642,147],[-90.39231,38.8164,146],[-90.39234,38.81637,146],[-90.39234,38.81634,147],[-90.39233,38.81631,148],[-90.39236,38.81629,148],[-90.39238,38.81627,148],[-90.39242,38.81624,148],[-90.39245,38.81622,148],[-90.39248,38.81621,147],[-90.39251,38.8162,146],[-90.39253,38.81617,146],[-90.39253,38.81614,147],[-90.39254,38.81611,147],[-90.39258,38.81609,146],[-90.39262,38.81609,145],[-90.39265,38.81607,144],[-90.39266,38.81604,143],[-90.39266,38.81601,143],[-90.39268,38.81598,143],[-90.3927,38.81595,142],[-90.39272,38.81591,141],[-90.39272,38.81588,141],[-90.39272,38.81585,141],[-90.39272,38.81582,142],[-90.39272,38.81579,142],[-90.39273,38.81576,142],[-90.39273,38.81573,143],[-90.39274,38.81571,143],[-90.39273,38.81568,144],[-90.39273,38.81565,145],[-90.39267,38.81561,148],[-90.39265,38.81559,149],[-90.39268,38.81557,148],[-90.39273,38.81555,146],[-90.39276,38.81553,146],[-90.39279,38.81551,145],[-90.39282,38.81549,145],[-90.39285,38.81548,145],[-90.39289,38.81546,144],[-90.39292,38.81544,144],[-90.39296,38.81542,144],[-90.393,38.8154,143],[-90.39305,38.81538,142],[-90.39308,38.81537,142],[-90.39311,38.81537,141],[-90.39316,38.81534,141],[-90.39318,38.81531,141],[-90.3932,38.81528,142],[-90.39323,38.81525,141],[-90.39323,38.81522,142],[-90.39323,38.81518,142],[-90.39323,38.81514,142],[-90.39321,38.81511,143],[-90.39319,38.81507,144],[-90.39318,38.81504,144],[-90.39316,38.81501,145],[-90.39314,38.81499,146],[-90.39312,38.81496,146],[-90.3931,38.81494,146],[-90.39309,38.81491,146],[-90.39308,38.81487,146],[-90.39307,38.81484,146],[-90.39307,38.8148,146],[-90.39308,38.81477,145],[-90.39308,38.81473,145],[-90.39307,38.81471,145],[-90.39306,38.81467,146],[-90.39305,38.81464,146],[-90.39304,38.81461,146],[-90.39302,38.81458,147],[-90.393,38.81455,147],[-90.39297,38.81453,148],[-90.39294,38.8145,149],[-90.39291,38.81448,150],[-90.39287,38.81446,150],[-90.39284,38.81444,151],[-90.39282,38.81441,151],[-90.3928,38.81438,151],[-90.39277,38.81436,151],[-90.39274,38.81434,151],[-90.39271,38.81431,150],[-90.39267,38.81429,150],[-90.39263,38.81427,150],[-90.3926,38.81426,150],[-90.39257,38.81424,150],[-90.39254,38.81422,150],[-90.3925,38.81421,150],[-90.39245,38.81418,150],[-90.39242,38.81416,149],[-90.39239,38.81413,148],[-90.39236,38.8141,146],[-90.39232,38.81407,145],[-90.39228,38.81405,143],[-90.39224,38.81404,142],[-90.3922,38.81403,142],[-90.39217,38.81403,142],[-90.39213,38.81404,143],[-90.39209,38.81405,144],[-90.39205,38.81404,144],[-90.39201,38.81404,144],[-90.39197,38.81404,145],[-90.39193,38.81405,146],[-90.3919,38.81407,148],[-90.39187,38.81408,149],[-90.39183,38.8141,151],[-90.39181,38.81413,153],[-90.39178,38.81416,155],[-90.39178,38.81419,156],[-90.39178,38.81422,157],[-90.39178,38.81424,158],[-90.39176,38.81427,159],[-90.39173,38.81429,160],[-90.39173,38.81433,161],[-90.39173,38.81436,162],[-90.39175,38.81439,163],[-90.39176,38.81442,163],[-90.39177,38.81445,164],[-90.39178,38.81449,164],[-90.3918,38.81453,164],[-90.39183,38.81455,163],[-90.39185,38.81459,163],[-90.39186,38.81462,163],[-90.39186,38.81465,164],[-90.39185,38.81469,165],[-90.39185,38.81473,165],[-90.39187,38.81475,165],[-90.39189,38.81479,165],[-90.39189,38.81482,165],[-90.39189,38.81487,166],[-90.39188,38.8149,167],[-90.39189,38.81494,167],[-90.39191,38.81497,166],[-90.39194,38.815,166],[-90.39196,38.81503,166],[-90.39199,38.81505,166],[-90.39199,38.81508,167],[-90.39198,38.81511,168],[-90.39197,38.81514,170],[-90.39195,38.81517,171],[-90.39193,38.8152,173],[-90.39191,38.81523,175],[-90.3919,38.81526,176],[-90.3919,38.8153,176],[-90.39191,38.81534,177],[-90.39192,38.81537,177],[-90.39193,38.81541,177],[-90.39193,38.81544,177],[-90.39193,38.81547,177],[-90.39193,38.8155,177],[-90.39192,38.81553,178],[-90.3919,38.81556,178],[-90.3919,38.8156,177],[-90.39192,38.81564,176],[-90.39195,38.81567,175],[-90.39198,38.81569,173],[-90.392,38.81572,172],[-90.39197,38.81569,174],[-90.39194,38.81567,175],[-90.39188,38.81567,177],[-90.39184,38.81567,177],[-90.39181,38.81567,178],[-90.39178,38.81569,178],[-90.39176,38.81572,178],[-90.39176,38.81575,178],[-90.39177,38.81579,177],[-90.39177,38.81583,177],[-90.39178,38.81586,176],[-90.39179,38.8159,174],[-90.39179,38.81593,174],[-90.39177,38.81596,174],[-90.39177,38.81599,173],[-90.39176,38.81602,173],[-90.39175,38.81605,172],[-90.39173,38.81609,172],[-90.39172,38.81612,172],[-90.39171,38.81616,171],[-90.3917,38.81619,170],[-90.3917,38.81622,169],[-90.39173,38.81624,167],[-90.39171,38.81626,167],[-90.39169,38.81629,166],[-90.39168,38.81633,165],[-90.39168,38.81635,165],[-90.39165,38.81638,164],[-90.39163,38.81641,164],[-90.3916,38.81644,164],[-90.39157,38.81647,163],[-90.39154,38.81649,164],[-90.39152,38.81652,163],[-90.3915,38.81655,163],[-90.39149,38.81657,162],[-90.39146,38.8166,162],[-90.39142,38.81661,163],[-90.39138,38.81663,163],[-90.39135,38.81665,163],[-90.39131,38.81668,162],[-90.3913,38.8167,162],[-90.3913,38.81674,161],[-90.39126,38.81675,161],[-90.39125,38.81677,160],[-90.39122,38.81679,160],[-90.39118,38.8168,161],[-90.39115,38.81682,160],[-90.39112,38.81683,161],[-90.3911,38.8168,162],[-90.39109,38.81676,163],[-90.39107,38.81678,163],[-90.39107,38.81681,162],[-90.39106,38.81675,163],[-90.39102,38.81674,164],[-90.39098,38.81674,164],[-90.39094,38.81674,165],[-90.39093,38.81676,164],[-90.39096,38.81679,163],[-90.391,38.8168,163],[-90.39104,38.8168,162],[-90.39108,38.81681,162],[-90.39111,38.81683,161],[-90.39116,38.81683,160],[-90.39119,38.81681,160],[-90.39122,38.81679,160],[-90.39126,38.81679,160],[-90.3913,38.81678,159],[-90.39132,38.81676,160],[-90.39135,38.81674,160],[-90.39137,38.81671,160],[-90.39139,38.81669,161],[-90.39143,38.81667,160],[-90.39146,38.81663,161],[-90.39148,38.8166,162],[-90.3915,38.81658,162],[-90.39152,38.81654,163],[-90.39154,38.81651,163],[-90.39157,38.81648,163],[-90.39159,38.81645,164],[-90.39161,38.81642,164],[-90.39163,38.81639,164],[-90.39166,38.81636,165],[-90.39168,38.81634,165],[-90.3917,38.81631,165],[-90.39171,38.81628,166],[-90.39172,38.81624,167],[-90.39173,38.81621,168],[-90.39174,38.81618,169],[-90.39175,38.81614,170],[-90.39177,38.81611,171],[-90.39178,38.81608,171],[-90.39179,38.81604,171],[-90.3918,38.81601,172],[-90.3918,38.81599,172],[-90.39182,38.81595,173],[-90.39183,38.81592,173],[-90.39183,38.81589,174],[-90.39183,38.81586,174],[-90.39183,38.81583,175],[-90.39183,38.81579,176],[-90.39183,38.81576,176],[-90.39182,38.81573,177],[-90.39181,38.8157,178],[-90.39179,38.81568,178],[-90.39175,38.81565,180],[-90.39172,38.81563,180],[-90.39168,38.81561,182],[-90.39164,38.8156,182],[-90.3916,38.81558,183],[-90.39155,38.81556,183],[-90.39151,38.81554,184],[-90.39147,38.81552,184],[-90.39143,38.8155,184],[-90.39139,38.8155,185],[-90.39135,38.8155,185],[-90.39132,38.81548,185],[-90.39129,38.81546,185],[-90.39124,38.81544,185],[-90.3912,38.81543,186],[-90.39115,38.81542,186],[-90.39112,38.81542,186],[-90.39107,38.81544,186],[-90.39104,38.81546,186],[-90.391,38.81547,186],[-90.39095,38.81547,185],[-90.39091,38.81547,185],[-90.39086,38.81548,185],[-90.39082,38.81547,185],[-90.39077,38.81546,185],[-90.39073,38.81546,184],[-90.39068,38.81546,184],[-90.39065,38.81546,183],[-90.39061,38.81545,183],[-90.39057,38.81544,182],[-90.39054,38.81542,182],[-90.39051,38.8154,182],[-90.39047,38.81538,182],[-90.39042,38.81538,181],[-90.39037,38.81537,181],[-90.39033,38.81537,181],[-90.3903,38.81536,180],[-90.39025,38.81535,180],[-90.3902,38.81533,181],[-90.39017,38.8153,181],[-90.39014,38.81529,181],[-90.3901,38.81527,182],[-90.39007,38.81526,182],[-90.39003,38.81523,183],[-90.38999,38.81521,183],[-90.38996,38.81518,184],[-90.38993,38.81515,185],[-90.3899,38.81513,185],[-90.38986,38.8151,186],[-90.38983,38.81508,187],[-90.3898,38.81505,187],[-90.38978,38.81502,188],[-90.38975,38.81499,189],[-90.38972,38.81496,189],[-90.3897,38.81493,189],[-90.38967,38.81489,189],[-90.38965,38.81486,190],[-90.38964,38.81483,190],[-90.38963,38.8148,190],[-90.38962,38.81477,191],[-90.38962,38.81473,191],[-90.38961,38.8147,191],[-90.38961,38.81466,191],[-90.38961,38.81463,190],[-90.3896,38.8146,190],[-90.38959,38.81456,190],[-90.38959,38.81453,190],[-90.38959,38.81449,189],[-90.38959,38.81447,189],[-90.38959,38.81443,189],[-90.38958,38.8144,188],[-90.38956,38.81437,188],[-90.38954,38.81434,188],[-90.38951,38.81434,188],[-90.38946,38.81433,189],[-90.38941,38.81432,189],[-90.38938,38.81431,189],[-90.38934,38.8143,190],[-90.38929,38.81428,190],[-90.38925,38.81427,191],[-90.38921,38.81425,192],[-90.38918,38.81424,192],[-90.38915,38.81422,192],[-90.38912,38.81421,192],[-90.38909,38.81419,192],[-90.38905,38.81418,192],[-90.38902,38.81417,192],[-90.38897,38.81416,192],[-90.38894,38.81416,192],[-90.38889,38.81415,192],[-90.38886,38.81414,193],[-90.38882,38.81413,193],[-90.38879,38.81411,194],[-90.38875,38.8141,194],[-90.38871,38.81409,195],[-90.38868,38.81407,195],[-90.38864,38.81405,195],[-90.38861,38.81404,196],[-90.38857,38.81403,196],[-90.38854,38.81402,196],[-90.38851,38.814,196],[-90.38846,38.81398,197],[-90.38842,38.81397,197],[-90.38838,38.81395,197],[-90.38834,38.81394,198],[-90.38829,38.81393,198],[-90.38825,38.81393,198],[-90.38821,38.81393,198],[-90.38816,38.81393,198],[-90.38812,38.81393,198],[-90.38808,38.81394,199],[-90.38804,38.81394,199],[-90.388,38.81394,199],[-90.38796,38.81394,199],[-90.38792,38.81394,199],[-90.38788,38.81395,199],[-90.38784,38.81396,199],[-90.3878,38.81397,199],[-90.38776,38.81397,200],[-90.38772,38.81397,200],[-90.38767,38.81398,200],[-90.38764,38.81399,200],[-90.38759,38.814,200],[-90.38755,38.81401,200],[-90.38751,38.81401,200],[-90.38747,38.81401,200],[-90.38741,38.81401,200],[-90.38737,38.81402,200],[-90.38733,38.81402,200],[-90.38729,38.81402,200],[-90.38724,38.81403,200],[-90.38719,38.81404,200],[-90.38715,38.81405,200],[-90.38711,38.81406,200],[-90.38707,38.81407,200],[-90.38703,38.81407,200],[-90.387,38.81408,201],[-90.38695,38.81409,201],[-90.38691,38.81409,201],[-90.38688,38.8141,201],[-90.38684,38.8141,200],[-90.38679,38.8141,200],[-90.38675,38.8141,200],[-90.38671,38.8141,200],[-90.38666,38.81411,200],[-90.38662,38.81412,200],[-90.38659,38.81413,200],[-90.38654,38.81413,199],[-90.3865,38.81413,199],[-90.38646,38.81414,199],[-90.38642,38.81414,198],[-90.38646,38.81413,199],[-90.38651,38.81413,199],[-90.38656,38.81413,199],[-90.3866,38.81412,200],[-90.38664,38.81412,200],[-90.38669,38.81411,200],[-90.38672,38.81411,200],[-90.38676,38.81411,200],[-90.38681,38.8141,200],[-90.38685,38.8141,200],[-90.38689,38.81408,200],[-90.38694,38.81408,201],[-90.38698,38.81407,200],[-90.38702,38.81407,200],[-90.38706,38.81406,200],[-90.38711,38.81405,200],[-90.38716,38.81404,200],[-90.3872,38.81403,200],[-90.38724,38.81403,200],[-90.38729,38.81402,200],[-90.38734,38.81401,200],[-90.38738,38.81401,200],[-90.38742,38.81401,200],[-90.38746,38.81401,200],[-90.38751,38.81401,200],[-90.38755,38.81401,200],[-90.3876,38.81401,200],[-90.38763,38.814,200],[-90.38765,38.81398,200],[-90.38763,38.81395,200],[-90.38759,38.81392,200],[-90.38756,38.81389,199],[-90.38754,38.81386,199],[-90.38752,38.81384,199],[-90.38752,38.8138,198],[-90.38753,38.81377,198],[-90.38754,38.81374,198],[-90.38754,38.81371,197],[-90.38754,38.81369,197],[-90.38754,38.81366,196],[-90.38755,38.81363,196],[-90.38756,38.81359,196],[-90.38757,38.81356,196],[-90.38758,38.81353,195],[-90.38759,38.81349,195],[-90.3876,38.81346,195],[-90.38761,38.81343,195],[-90.38761,38.8134,195],[-90.38761,38.81337,195],[-90.38761,38.81334,194],[-90.38761,38.81331,194],[-90.38766,38.81329,194],[-90.38769,38.8133,195],[-90.38773,38.81331,195],[-90.38777,38.81331,195],[-90.38783,38.81331,195],[-90.38787,38.8133,195],[-90.3879,38.81328,195],[-90.38792,38.81326,194],[-90.38793,38.81323,194],[-90.38796,38.8132,193],[-90.38797,38.81318,193],[-90.38799,38.81315,192],[-90.388,38.81312,192],[-90.38803,38.8131,191],[-90.38805,38.81307,191],[-90.38806,38.81304,190],[-90.38806,38.81301,190],[-90.38806,38.81298,190],[-90.38806,38.81295,189],[-90.38808,38.81291,188],[-90.38809,38.81288,188],[-90.3881,38.81284,187],[-90.38812,38.81281,186],[-90.38815,38.81281,185],[-90.38819,38.8128,184],[-90.38822,38.81279,183],[-90.38826,38.81278,182],[-90.38829,38.81277,181],[-90.38834,38.81277,179],[-90.38838,38.81278,178],[-90.38842,38.81277,176],[-90.38845,38.81276,175],[-90.38849,38.81276,174],[-90.38851,38.81274,173],[-90.38854,38.81272,172],[-90.38857,38.8127,170],[-90.38861,38.81268,169],[-90.38862,38.81265,169],[-90.38862,38.81262,169],[-90.38861,38.81258,169],[-90.38862,38.81255,169],[-90.38864,38.81253,168],[-90.38867,38.81251,167],[-90.38869,38.81248,167],[-90.38868,38.81245,167],[-90.38867,38.81242,166],[-90.38867,38.81239,166],[-90.38867,38.81236,165],[-90.38868,38.81232,165],[-90.3887,38.8123,164],[-90.38874,38.81229,163],[-90.38877,38.81227,163],[-90.38879,38.81225,163],[-90.38882,38.81221,162],[-90.38882,38.81218,161],[-90.38882,38.81215,161],[-90.38882,38.81211,160],[-90.38881,38.81208,160],[-90.3888,38.81205,160],[-90.38877,38.81203,160],[-90.38875,38.81201,160],[-90.38872,38.81197,160],[-90.38869,38.81194,160],[-90.38867,38.81192,161],[-90.38864,38.81189,162],[-90.38862,38.81186,162],[-90.38862,38.81183,163],[-90.38862,38.8118,163],[-90.38865,38.81177,163],[-90.38868,38.81174,162],[-90.3887,38.81171,162],[-90.38872,38.81168,162],[-90.38876,38.81166,162],[-90.38879,38.81163,161],[-90.38882,38.8116,160],[-90.38884,38.81157,160],[-90.38887,38.81156,159],[-90.3889,38.81155,158],[-90.38893,38.81153,157],[-90.38897,38.81152,156],[-90.38901,38.81153,156],[-90.38905,38.81153,154],[-90.3891,38.81153,153],[-90.38914,38.81153,152],[-90.38918,38.81151,152],[-90.38921,38.81148,152],[-90.38924,38.81146,152],[-90.38926,38.81144,152],[-90.3893,38.81141,152],[-90.38935,38.81142,152],[-90.38938,38.81142,152],[-90.38942,38.8114,152],[-90.38944,38.81137,152],[-90.38946,38.81134,151],[-90.38948,38.81131,151],[-90.3895,38.81128,151],[-90.38952,38.81126,151],[-90.38955,38.81123,151],[-90.38957,38.8112,151],[-90.3896,38.81118,151],[-90.38966,38.81119,150],[-90.3897,38.81121,150],[-90.38973,38.81121,150],[-90.38977,38.81121,149],[-90.38982,38.8112,149],[-90.38985,38.81118,148],[-90.38989,38.81117,148],[-90.38992,38.81115,147],[-90.38996,38.81115,147],[-90.39001,38.81115,146],[-90.39005,38.81116,145],[-90.39009,38.81116,145],[-90.39014,38.81117,144],[-90.39018,38.81117,144],[-90.39023,38.81116,143],[-90.39026,38.81116,143],[-90.39031,38.81116,142],[-90.39036,38.81117,142],[-90.3904,38.81118,142],[-90.39043,38.8112,142],[-90.39046,38.81123,142],[-90.39049,38.81124,142],[-90.39053,38.81126,142],[-90.39058,38.81127,142],[-90.39062,38.81127,142],[-90.39067,38.81127,142],[-90.3907,38.81125,142],[-90.39073,38.81123,142],[-90.39077,38.81122,141],[-90.39082,38.81121,141],[-90.39085,38.81123,141],[-90.39086,38.81126,141],[-90.39089,38.81129,141],[-90.39091,38.81132,141],[-90.39093,38.81135,141],[-90.39094,38.81137,142],[-90.39097,38.8114,142],[-90.391,38.81142,142],[-90.39103,38.81143,142],[-90.39106,38.81146,142],[-90.39109,38.81149,142],[-90.39109,38.81153,143],[-90.39108,38.81156,143],[-90.39106,38.81159,144],[-90.39102,38.81162,144],[-90.39099,38.81165,145],[-90.39096,38.81168,146],[-90.39094,38.8117,146],[-90.39092,38.81172,147],[-90.39091,38.81175,147],[-90.3909,38.81178,147],[-90.39089,38.81182,148],[-90.39089,38.81185,148],[-90.39089,38.81189,149],[-90.39088,38.81192,149],[-90.39087,38.81196,149],[-90.39087,38.81199,149],[-90.39086,38.81203,149],[-90.39085,38.81206,149],[-90.39085,38.81209,149],[-90.39083,38.81212,149],[-90.39081,38.81216,149],[-90.3908,38.81219,149],[-90.39079,38.81223,149],[-90.39078,38.81226,148],[-90.39078,38.81229,148],[-90.39079,38.81233,147],[-90.39083,38.81235,147],[-90.39087,38.81238,146],[-90.39091,38.8124,145],[-90.39094,38.81243,144],[-90.39097,38.81246,143],[-90.39097,38.8125,142],[-90.39097,38.81253,143],[-90.39096,38.81256,144],[-90.39095,38.8126,145],[-90.39094,38.81264,146],[-90.39095,38.81267,146],[-90.39096,38.8127,147],[-90.39099,38.81272,147],[-90.39101,38.81274,147],[-90.39101,38.81277,148],[-90.391,38.81281,149],[-90.39101,38.81284,149],[-90.39104,38.81287,150],[-90.39106,38.81289,150],[-90.39108,38.81292,150],[-90.3911,38.81295,151],[-90.39113,38.81297,151],[-90.39116,38.81301,152],[-90.39119,38.81304,152],[-90.39121,38.81307,152],[-90.39123,38.8131,152],[-90.39126,38.81313,152],[-90.39128,38.81316,151],[-90.39131,38.81318,151],[-90.39134,38.8132,151],[-90.39135,38.81323,151],[-90.39136,38.81326,151],[-90.39138,38.8133,151],[-90.39142,38.81332,150],[-90.39145,38.81333,150],[-90.39148,38.81334,149],[-90.39152,38.81336,148],[-90.39155,38.81338,148],[-90.39158,38.81341,147],[-90.39161,38.81343,146],[-90.39163,38.81346,145],[-90.39164,38.8135,145],[-90.39167,38.81353,144],[-90.39168,38.81356,143],[-90.39169,38.8136,142],[-90.3917,38.81362,142],[-90.39173,38.81365,142],[-90.39175,38.81368,143],[-90.39178,38.81371,142],[-90.39181,38.81374,142],[-90.39184,38.81376,141],[-90.39188,38.81379,140],[-90.3919,38.81381,140],[-90.39193,38.81383,139],[-90.39196,38.81385,138],[-90.39199,38.81388,137],[-90.39202,38.8139,137],[-90.39204,38.81393,138],[-90.39206,38.81395,139],[-90.39209,38.81397,140],[-90.39213,38.81398,140],[-90.39217,38.814,140],[-90.3922,38.81401,141],[-90.39225,38.81401,141],[-90.39228,38.814,140],[-90.39231,38.81397,139],[-90.39233,38.81395,138],[-90.39237,38.81393,137],[-90.3924,38.81392,137],[-90.39242,38.81389,136],[-90.39244,38.81387,137],[-90.39246,38.81384,137],[-90.39248,38.81382,137],[-90.3925,38.8138,138],[-90.39252,38.81377,138],[-90.39255,38.81374,138],[-90.39256,38.81371,138],[-90.39256,38.81368,138],[-90.39256,38.81365,138],[-90.39258,38.81362,138],[-90.39261,38.81359,138],[-90.39264,38.81355,137],[-90.39265,38.81352,137],[-90.39267,38.81349,137],[-90.39267,38.81346,136],[-90.39267,38.81342,136],[-90.39266,38.81339,136],[-90.39264,38.81337,136],[-90.3926,38.81335,136],[-90.39257,38.81332,136],[-90.39253,38.81331,136],[-90.3925,38.81329,136],[-90.39246,38.81327,137],[-90.39243,38.81325,137],[-90.39239,38.81322,137],[-90.39236,38.8132,137],[-90.39233,38.81318,137],[-90.39229,38.81316,137],[-90.39227,38.81314,137],[-90.39224,38.81312,137],[-90.3922,38.8131,137],[-90.39216,38.81309,137],[-90.39212,38.81308,137],[-90.3921,38.81306,137],[-90.39207,38.81303,137],[-90.39205,38.81301,137],[-90.39202,38.81298,137],[-90.39199,38.81295,137],[-90.39196,38.81293,137],[-90.39192,38.81291,137],[-90.39189,38.81289,137],[-90.39186,38.81287,137],[-90.39182,38.81285,137],[-90.39179,38.81283,137],[-90.39175,38.81282,138],[-90.39172,38.81281,138],[-90.39167,38.81279,139],[-90.39164,38.81277,139],[-90.39161,38.81276,139],[-90.39158,38.81273,139],[-90.39155,38.8127,139],[-90.39155,38.81266,138],[-90.39156,38.81263,137],[-90.39157,38.8126,137],[-90.39159,38.81256,136],[-90.39161,38.81254,135],[-90.39163,38.81251,135],[-90.39165,38.81248,135],[-90.39168,38.81245,135],[-90.39171,38.81243,135],[-90.39173,38.8124,135],[-90.39175,38.81238,136],[-90.39177,38.81236,136],[-90.3918,38.81233,136],[-90.39181,38.8123,136],[-90.39183,38.81226,137],[-90.39185,38.81224,137],[-90.39187,38.81221,137],[-90.3919,38.81218,137],[-90.39194,38.81216,137],[-90.39197,38.81214,137],[-90.39202,38.81213,137],[-90.39206,38.81213,136],[-90.39211,38.81213,136],[-90.39215,38.81213,136],[-90.3922,38.81215,136],[-90.39224,38.81218,135],[-90.39227,38.8122,135],[-90.39231,38.81222,135],[-90.39234,38.81224,135],[-90.39238,38.81226,135],[-90.39241,38.81228,135],[-90.39243,38.8123,135],[-90.39246,38.81232,135],[-90.39249,38.81234,135],[-90.39252,38.81237,135],[-90.39256,38.81239,135],[-90.39259,38.81241,134],[-90.39262,38.81244,134],[-90.39265,38.81247,134],[-90.39268,38.81249,134],[-90.3927,38.81251,134],[-90.39273,38.81252,134],[-90.39276,38.81254,134],[-90.39279,38.81255,134],[-90.39284,38.81257,134],[-90.39287,38.81259,134],[-90.39291,38.81261,134],[-90.39295,38.81263,134],[-90.39299,38.81266,134],[-90.39303,38.81268,134],[-90.39306,38.8127,134],[-90.39309,38.81272,134],[-90.39312,38.81274,134],[-90.39315,38.81277,134],[-90.39318,38.81279,134],[-90.39321,38.81281,134],[-90.39324,38.81283,134],[-90.39328,38.81285,134],[-90.39332,38.81288,134],[-90.39335,38.81289,134],[-90.39337,38.81292,133],[-90.39341,38.81294,133],[-90.39344,38.81296,133],[-90.39348,38.81298,133],[-90.39351,38.813,132],[-90.39355,38.81302,132],[-90.39357,38.81305,132],[-90.3936,38.81308,132],[-90.39362,38.81311,132],[-90.39365,38.81314,132],[-90.39367,38.81317,132],[-90.39368,38.8132,132],[-90.39371,38.81323,132],[-90.39373,38.81326,132],[-90.39375,38.81328,132],[-90.39378,38.8133,132],[-90.39382,38.81333,132],[-90.39385,38.81335,132],[-90.39389,38.81337,132],[-90.39391,38.81338,132],[-90.39394,38.8134,132],[-90.39398,38.81342,132],[-90.39401,38.81344,132],[-90.39405,38.81345,132],[-90.39409,38.81347,132],[-90.39412,38.81349,132],[-90.39415,38.81351,132],[-90.39418,38.81353,133],[-90.39421,38.81355,133],[-90.39424,38.81356,133],[-90.39428,38.81358,133],[-90.39431,38.81359,133],[-90.39434,38.81361,133],[-90.39437,38.81362,133],[-90.39441,38.81364,133],[-90.39444,38.81366,133],[-90.39447,38.81367,134],[-90.3945,38.81369,134],[-90.39454,38.81371,134],[-90.39457,38.81372,134],[-90.39461,38.81374,134],[-90.39465,38.81377,135],[-90.39468,38.81378,135],[-90.39471,38.8138,135],[-90.39476,38.81382,135],[-90.3948,38.81384,135],[-90.39484,38.81386,135],[-90.39486,38.81388,135],[-90.39489,38.81391,134],[-90.39493,38.81393,134],[-90.39496,38.81395,134],[-90.39499,38.81396,134],[-90.39502,38.81399,135],[-90.39503,38.81401,135],[-90.395,38.81398,134],[-90.39498,38.81396,134],[-90.39495,38.81393,134],[-90.39492,38.81391,134],[-90.39489,38.8139,134],[-90.39485,38.81388,135],[-90.39482,38.81386,135],[-90.39479,38.81383,135],[-90.39476,38.81381,135],[-90.39472,38.81379,135],[-90.39469,38.81377,135],[-90.39466,38.81375,135],[-90.39463,38.81373,135],[-90.39459,38.8137,134],[-90.39456,38.81368,134],[-90.39454,38.81366,134],[-90.39451,38.81363,134],[-90.39448,38.8136,134],[-90.39445,38.81359,134],[-90.39442,38.81356,133],[-90.39438,38.81354,133],[-90.39435,38.81352,133],[-90.3943,38.8135,133],[-90.39427,38.81348,133],[-90.39424,38.81346,133],[-90.3942,38.81344,133],[-90.39417,38.81342,133],[-90.39414,38.8134,132],[-90.3941,38.81339,132],[-90.39406,38.81338,132],[-90.39403,38.81336,132],[-90.39399,38.81334,132],[-90.39396,38.8133,132],[-90.39393,38.81328,132],[-90.39391,38.81325,132],[-90.39388,38.81323,132],[-90.39384,38.8132,132],[-90.39381,38.81318,132],[-90.39378,38.81316,132],[-90.39374,38.81314,132],[-90.3937,38.81312,132],[-90.3937,38.81315,132],[-90.39367,38.81312,132],[-90.39365,38.81309,132],[-90.39364,38.81306,132],[-90.39363,38.81303,132],[-90.39361,38.813,132],[-90.39359,38.81297,132],[-90.39357,38.81294,132],[-90.39355,38.81291,133],[-90.39353,38.81288,133],[-90.39352,38.81285,133],[-90.39353,38.81282,133],[-90.39354,38.8128,134],[-90.39357,38.81277,134],[-90.39358,38.81274,134],[-90.39354,38.81273,134],[-90.39356,38.81276,134],[-90.3936,38.81276,134],[-90.39364,38.81275,134],[-90.39367,38.81274,134],[-90.39371,38.81271,134],[-90.39374,38.81269,134],[-90.39377,38.81267,134],[-90.3938,38.81264,135],[-90.39383,38.81263,135],[-90.39386,38.81261,135],[-90.39389,38.8126,135],[-90.39393,38.81257,136],[-90.39396,38.81255,136],[-90.39399,38.81253,136],[-90.39402,38.8125,137],[-90.39404,38.81248,137],[-90.39407,38.81246,137],[-90.39411,38.81243,137],[-90.39413,38.81241,137],[-90.39416,38.81238,137],[-90.39419,38.81236,137],[-90.39422,38.81233,137],[-90.39424,38.8123,137],[-90.39426,38.81227,137],[-90.3943,38.81224,137],[-90.39432,38.81222,138],[-90.39436,38.8122,138],[-90.39438,38.81218,138],[-90.39441,38.81214,138],[-90.39443,38.81212,138],[-90.39446,38.8121,137],[-90.39448,38.81207,137],[-90.39452,38.81205,137],[-90.39454,38.81203,137],[-90.39457,38.81202,137],[-90.39461,38.81199,137],[-90.39464,38.81197,137],[-90.39467,38.81195,137],[-90.3947,38.81193,136],[-90.39472,38.8119,136],[-90.39475,38.81188,136],[-90.39478,38.81186,135],[-90.3948,38.81184,135],[-90.39483,38.81181,134],[-90.39486,38.81178,134],[-90.39488,38.81176,134],[-90.39486,38.81174,134],[-90.39489,38.81174,134],[-90.39494,38.81174,133],[-90.39498,38.81172,133],[-90.395,38.8117,133],[-90.39503,38.81168,133],[-90.39507,38.81167,133]]],
        "bbox": [
          -90.38642,
          38.81716,
          -90.39507,
          38.81115
        ]
      },
      "properties": {
        "name": "11.21.2019"
      }
    }
  ]
}