{
  "type": "FeatureCollection",
  "features": [
    {
      "type": "Feature",
      "geometry": {
        "type": "MultiLineString",
        "coordinates": [[[-90.39507,38.81161,132],[-90.39506,38.81161,132]],[[-90.3949,38.81181,134],[-90.39489,38.81178,134],[-90.39485,38.81178,134],[-90.39482,38.81181,135],[-90.39478,38.81183,135],[-90.39475,38.81185,135],[-90.39472,38.81187,136],[-90.3947,38.81189,136],[-90.39468,38.81192,136],[-90.39465,38.81194,137],[-90.39465,38.81197,137],[-90.39461,38.81199,137],[-90.39458,38.81201,137],[-90.39455,38.81202,137],[-90.39451,38.81203,137],[-90.39448,38.81205,137],[-90.39448,38.81208,137],[-90.39445,38.81211,137],[-90.39442,38.81213,138],[-90.3944,38.81215,138],[-90.39437,38.81218,138],[-90.39434,38.81219,138],[-90.39431,38.8122,138],[-90.39429,38.81223,137],[-90.39427,38.81225,137],[-90.39424,38.81228,137],[-90.39422,38.8123,137],[-90.39419,38.81232,137],[-90.39416,38.81234,137],[-90.39418,38.81237,137],[-90.39415,38.81239,137],[-90.39412,38.81241,137],[-90.39408,38.81243,137],[-90.39405,38.81245,137],[-90.39402,38.81248,137],[-90.39399,38.8125,137],[-90.39396,38.81252,136],[-90.39392,38.81254,136],[-90.39388,38.81257,136],[-90.39384,38.81259,135],[-90.39381,38.81261,135],[-90.39378,38.81263,135],[-90.39376,38.81267,134],[-90.39372,38.81269,134],[-90.39369,38.81271,134],[-90.39366,38.81274,134],[-90.39363,38.81275,134],[-90.39359,38.81276,134],[-90.39355,38.81275,134],[-90.39352,38.81274,134],[-90.3935,38.81277,134],[-90.39349,38.8128,134],[-90.39347,38.81283,134],[-90.39346,38.81286,133],[-90.39343,38.81288,133],[-90.39339,38.81289,134],[-90.39336,38.81291,133],[-90.39332,38.81293,133],[-90.39329,38.81295,133],[-90.39326,38.81297,133],[-90.39323,38.81299,133],[-90.39319,38.813,133],[-90.39319,38.81303,133],[-90.39316,38.81305,133],[-90.39313,38.81307,132],[-90.3931,38.81309,132],[-90.39307,38.81311,132],[-90.39304,38.81314,133],[-90.39302,38.81317,133],[-90.393,38.81319,133],[-90.39297,38.81322,133],[-90.39294,38.81324,133],[-90.39291,38.81326,133],[-90.39287,38.81327,134],[-90.39287,38.8133,134],[-90.39285,38.81333,134],[-90.39283,38.81335,134],[-90.39281,38.81338,135],[-90.39278,38.8134,135],[-90.39275,38.81342,136],[-90.39271,38.81345,136],[-90.39269,38.81347,136],[-90.39266,38.8135,137],[-90.39263,38.81353,137],[-90.39261,38.81356,138],[-90.39258,38.81359,138],[-90.39256,38.81361,138],[-90.39255,38.81365,138],[-90.39254,38.81369,138],[-90.39253,38.81372,138],[-90.39252,38.81375,138],[-90.39251,38.81377,138],[-90.3925,38.8138,138],[-90.39248,38.81382,137],[-90.39247,38.81385,137],[-90.39247,38.81388,137],[-90.39245,38.81391,138],[-90.39242,38.81393,138],[-90.39239,38.81395,139],[-90.39237,38.81397,139],[-90.39235,38.814,141],[-90.39231,38.81401,141],[-90.39229,38.81404,143],[-90.39226,38.81406,144],[-90.39222,38.81407,144],[-90.39225,38.81409,146],[-90.39227,38.81411,147],[-90.3923,38.81414,149],[-90.39232,38.81417,150],[-90.39234,38.8142,151],[-90.39236,38.81422,151],[-90.39239,38.81425,151],[-90.39243,38.81427,152],[-90.39247,38.81428,152],[-90.39251,38.81429,152],[-90.39255,38.81431,152],[-90.39258,38.81433,152],[-90.39261,38.81434,152],[-90.39265,38.81435,152],[-90.39268,38.81437,152],[-90.3927,38.8144,152],[-90.39273,38.81443,153],[-90.39275,38.81445,153],[-90.39277,38.81448,152],[-90.3928,38.8145,152],[-90.39283,38.81452,151],[-90.39286,38.81451,150],[-90.3929,38.81451,150],[-90.39292,38.81455,149],[-90.39295,38.81458,148],[-90.39296,38.81461,148],[-90.39298,38.81464,147],[-90.39298,38.81468,147],[-90.39298,38.8147,147],[-90.393,38.81472,147],[-90.393,38.81476,147],[-90.393,38.8148,147],[-90.393,38.81483,147],[-90.393,38.81487,147],[-90.39301,38.8149,147],[-90.39303,38.81493,147],[-90.39306,38.81494,147],[-90.39308,38.81498,147],[-90.39309,38.81501,147],[-90.39312,38.81503,146],[-90.39314,38.81506,145],[-90.39315,38.81509,145],[-90.39317,38.81512,144],[-90.39319,38.81515,143],[-90.39323,38.81516,142],[-90.39327,38.81514,141],[-90.3933,38.81513,141],[-90.39325,38.81514,142],[-90.39321,38.81515,143],[-90.39317,38.81515,144],[-90.39314,38.81517,144],[-90.39314,38.8152,144],[-90.39312,38.81524,144],[-90.3931,38.81526,145],[-90.39308,38.8153,144],[-90.39305,38.81532,144],[-90.39302,38.81534,144],[-90.39298,38.81536,145],[-90.39295,38.81538,145],[-90.39291,38.81539,146],[-90.39288,38.8154,146],[-90.39284,38.81542,147],[-90.3928,38.81544,147],[-90.39278,38.81546,147],[-90.39274,38.81549,148],[-90.39272,38.81551,148],[-90.39269,38.81553,148],[-90.39268,38.81557,148],[-90.39266,38.81559,148],[-90.39263,38.81561,149],[-90.39261,38.81565,149],[-90.39262,38.81569,148],[-90.39263,38.81573,146],[-90.39264,38.81577,145],[-90.39263,38.81581,145],[-90.39263,38.81585,144],[-90.39262,38.81588,145],[-90.39263,38.81592,144],[-90.39266,38.81594,143],[-90.39267,38.81597,143],[-90.39267,38.816,143],[-90.39267,38.81604,143],[-90.39266,38.81607,143],[-90.39264,38.81609,144],[-90.39261,38.81611,145],[-90.39258,38.81613,146],[-90.39254,38.81613,147],[-90.39249,38.81614,148],[-90.39243,38.81614,150],[-90.39241,38.81618,150],[-90.39239,38.81621,150],[-90.39236,38.81623,150],[-90.39234,38.81626,149],[-90.39234,38.81628,149],[-90.39232,38.81631,149],[-90.39232,38.81635,148],[-90.39232,38.81638,147],[-90.39231,38.81641,146],[-90.39228,38.81643,147],[-90.39225,38.81645,147],[-90.39224,38.81648,147],[-90.39225,38.81651,147],[-90.39223,38.81653,147],[-90.39221,38.81656,147],[-90.39217,38.81657,148],[-90.39214,38.81658,148],[-90.39212,38.81661,148],[-90.39215,38.8166,148],[-90.39211,38.8166,148],[-90.39212,38.81663,148],[-90.39201,38.81667,149],[-90.39201,38.81674,149],[-90.39197,38.81678,149],[-90.39193,38.81681,150],[-90.39191,38.81684,149],[-90.39188,38.81685,149],[-90.39185,38.81687,149],[-90.39183,38.81689,149],[-90.3918,38.8169,149],[-90.39177,38.81688,149],[-90.39181,38.81688,149],[-90.39185,38.81687,149],[-90.39189,38.81686,149],[-90.39191,38.81683,150],[-90.39193,38.81681,150],[-90.39197,38.81679,149],[-90.39198,38.81676,149],[-90.39201,38.81674,149],[-90.39203,38.81671,149],[-90.39206,38.81668,148],[-90.39207,38.81665,149],[-90.39211,38.81663,148],[-90.39214,38.81661,148],[-90.39216,38.81658,148],[-90.3922,38.81655,147],[-90.39224,38.81653,147],[-90.39226,38.8165,147],[-90.39227,38.81647,147],[-90.39228,38.81644,147],[-90.39225,38.81643,147],[-90.39234,38.81638,146],[-90.39233,38.81631,148],[-90.39235,38.81626,149],[-90.39237,38.81621,150],[-90.39241,38.81619,149],[-90.39243,38.81616,150],[-90.39245,38.81614,150],[-90.39249,38.81613,148],[-90.39253,38.81612,147],[-90.39257,38.81611,146],[-90.3926,38.8161,145],[-90.39265,38.81608,144],[-90.39268,38.81605,143],[-90.39269,38.81602,142],[-90.39269,38.81599,142],[-90.39268,38.81596,143],[-90.39268,38.81593,143],[-90.39268,38.81589,143],[-90.39267,38.81586,143],[-90.39266,38.81583,143],[-90.39266,38.8158,144],[-90.39266,38.81577,145],[-90.39266,38.81574,145],[-90.39264,38.81571,147],[-90.39263,38.81568,148],[-90.39262,38.81564,149],[-90.39263,38.81561,149],[-90.39263,38.81558,150],[-90.39265,38.81556,150],[-90.39269,38.81553,148],[-90.39273,38.81551,148],[-90.39276,38.81548,147],[-90.39278,38.81546,147],[-90.39281,38.81544,147],[-90.39285,38.81543,146],[-90.39289,38.81542,145],[-90.39292,38.8154,145],[-90.39295,38.81539,145],[-90.39298,38.81537,144],[-90.39301,38.81536,144],[-90.39305,38.81534,144],[-90.39309,38.81532,143],[-90.39311,38.81529,144],[-90.39312,38.81527,144],[-90.39314,38.81524,144],[-90.39316,38.8152,144],[-90.39317,38.81518,143],[-90.39317,38.81514,144],[-90.39316,38.81511,144],[-90.39315,38.81507,145],[-90.39313,38.81504,146],[-90.39311,38.81501,146],[-90.39308,38.81499,147],[-90.39306,38.81496,147],[-90.39305,38.81493,147],[-90.39303,38.81491,147],[-90.39299,38.81489,148],[-90.39298,38.81486,148],[-90.393,38.81484,147],[-90.393,38.8148,147],[-90.393,38.81478,147],[-90.39299,38.81474,147],[-90.39303,38.81473,146],[-90.393,38.8147,147],[-90.39298,38.81467,147],[-90.39297,38.81464,148],[-90.39296,38.81461,148],[-90.39294,38.81459,149],[-90.39291,38.81456,149],[-90.39289,38.81453,150],[-90.39285,38.81451,151],[-90.39282,38.8145,151],[-90.39279,38.81448,152],[-90.39276,38.81446,153],[-90.39273,38.81444,153],[-90.3927,38.81442,153],[-90.39268,38.8144,153],[-90.39265,38.81438,153],[-90.39263,38.81434,152],[-90.3926,38.81431,151],[-90.39257,38.81429,151],[-90.39254,38.81427,151],[-90.3925,38.81426,151],[-90.39246,38.81425,151],[-90.39243,38.81424,151],[-90.39239,38.81423,151],[-90.39236,38.81421,151],[-90.39233,38.81419,151],[-90.39231,38.81416,150],[-90.3923,38.81413,148],[-90.39228,38.81411,147],[-90.39225,38.81407,144],[-90.39224,38.81403,142],[-90.39227,38.81402,141],[-90.39231,38.81401,141],[-90.39235,38.81399,140],[-90.39238,38.81396,139],[-90.39239,38.81394,138],[-90.39242,38.81391,137],[-90.39244,38.81388,136],[-90.39245,38.81384,137],[-90.39247,38.81382,137],[-90.39249,38.81379,138],[-90.39252,38.81375,138],[-90.39253,38.81372,138],[-90.39253,38.81368,138],[-90.39254,38.81366,138],[-90.39255,38.81362,138],[-90.39257,38.81359,138],[-90.3926,38.81357,138],[-90.39263,38.81354,137],[-90.39265,38.81352,137],[-90.39266,38.81349,137],[-90.39268,38.81346,136],[-90.39269,38.81343,136],[-90.3927,38.8134,136],[-90.39272,38.81339,135],[-90.3928,38.81336,135],[-90.39285,38.81332,134],[-90.39289,38.81329,134],[-90.39293,38.81326,133],[-90.39297,38.81323,133],[-90.39301,38.8132,133],[-90.39303,38.81317,133],[-90.39306,38.81314,132],[-90.39309,38.81312,132],[-90.39313,38.81309,132],[-90.39315,38.81306,132],[-90.39319,38.81304,133],[-90.39322,38.81302,133],[-90.39325,38.813,133],[-90.39329,38.81298,133],[-90.39331,38.81295,133],[-90.39335,38.81293,133],[-90.39339,38.81291,133],[-90.39342,38.81289,133],[-90.39345,38.81287,133],[-90.39349,38.81284,133],[-90.39351,38.81282,134],[-90.39355,38.8128,134],[-90.39357,38.81278,134],[-90.3936,38.81276,134],[-90.39363,38.81274,134],[-90.39367,38.81272,134],[-90.3937,38.8127,134],[-90.39373,38.81268,134],[-90.39377,38.81266,135],[-90.3938,38.81264,135],[-90.39384,38.81262,135],[-90.39387,38.81259,135],[-90.39391,38.81257,136],[-90.39394,38.81254,136],[-90.39397,38.81251,136],[-90.39401,38.81249,137],[-90.39404,38.81247,137],[-90.39407,38.81245,137],[-90.39409,38.81242,137],[-90.39414,38.81239,137],[-90.39417,38.81236,137],[-90.39419,38.81233,137],[-90.39419,38.8123,137],[-90.39423,38.81228,137],[-90.39426,38.81228,137],[-90.39429,38.81227,137],[-90.39433,38.81224,137],[-90.39436,38.81221,138],[-90.39438,38.81218,138],[-90.3944,38.81215,138],[-90.39443,38.81213,138],[-90.39447,38.8121,137],[-90.3945,38.81208,137],[-90.39453,38.81205,137],[-90.39456,38.81202,137],[-90.3946,38.81199,137],[-90.39463,38.81197,137],[-90.39466,38.81194,137],[-90.3947,38.81191,136],[-90.39473,38.81189,136],[-90.39476,38.81186,135],[-90.3948,38.81184,135],[-90.39483,38.81181,134],[-90.39485,38.81179,134],[-90.39488,38.81176,134],[-90.39491,38.81174,133],[-90.39496,38.81172,133],[-90.395,38.81171,133],[-90.39504,38.81169,133],[-90.39507,38.81166,132],[-90.39508,38.81163,132],[-90.39507,38.8116,132],[-90.39505,38.81158,132],[-90.39506,38.8116,132],[-90.39505,38.81163,132]]],
        "bbox": [
          -90.39177,
          38.8169,
          -90.39508,
          38.81158
        ]
      },
      "properties": {
        "name": "10.16.2025"
      }
    }
  ]
}