{
  "type": "FeatureCollection",
  "features": [
    {
      "type": "Feature",
      "geometry": {
        "type": "MultiLineString",
        "coordinates": [[[-90.39268,38.81336,135],[-90.39269,38.81339,136],[-90.39269,38.81342,136],[-90.3927,38.81346,136],[-90.39265,38.81349,137],[-90.39261,38.81353,137],[-90.39258,38.81357,138],[-90.39256,38.81362,138],[-90.39252,38.81366,138],[-90.3925,38.8137,138],[-90.39249,38.81374,138],[-90.39249,38.81379,138],[-90.39247,38.81383,137],[-90.39244,38.81386,137],[-90.3924,38.81389,136],[-90.39241,38.81392,137],[-90.39246,38.81391,138],[-90.3924,38.8139,136],[-90.39237,38.81393,137],[-90.39234,38.81398,140],[-90.3923,38.81402,142],[-90.39224,38.81404,142],[-90.39218,38.81406,144],[-90.39223,38.81402,141],[-90.39218,38.81398,139],[-90.39214,38.81394,137],[-90.39208,38.81393,137],[-90.39204,38.8139,136],[-90.39201,38.81387,137],[-90.39198,38.81385,137],[-90.39194,38.81382,138],[-90.39192,38.81379,139],[-90.39188,38.81376,140],[-90.39184,38.81374,141],[-90.39181,38.81372,142],[-90.39177,38.8137,142],[-90.39174,38.81367,143],[-90.39171,38.81364,143],[-90.39168,38.8136,143],[-90.39166,38.81356,143],[-90.39163,38.81353,144],[-90.39161,38.81349,145],[-90.39162,38.81345,146],[-90.39162,38.81341,146],[-90.39161,38.81337,147],[-90.39159,38.81334,148],[-90.39157,38.8133,148],[-90.39154,38.81327,148],[-90.3915,38.81326,148],[-90.39145,38.81325,149],[-90.3914,38.81325,150],[-90.39134,38.81323,151],[-90.39131,38.8132,151],[-90.39129,38.81317,151],[-90.39126,38.81314,152],[-90.39124,38.81311,152],[-90.39122,38.81308,152],[-90.39119,38.81305,152],[-90.39116,38.81302,152],[-90.39115,38.81298,151],[-90.39114,38.81295,150],[-90.39112,38.81292,150],[-90.3911,38.81288,149],[-90.39108,38.81284,148],[-90.39106,38.81281,148],[-90.39104,38.81278,148],[-90.391,38.81275,148],[-90.39098,38.81271,147],[-90.3909,38.81269,147],[-90.39101,38.81267,146],[-90.39103,38.81259,143],[-90.39097,38.81254,143],[-90.39098,38.81247,143],[-90.391,38.81242,144],[-90.39097,38.81237,145],[-90.39095,38.81233,146],[-90.39093,38.81228,148],[-90.39091,38.81224,149],[-90.3909,38.8122,149],[-90.3909,38.81216,149],[-90.39091,38.81213,149],[-90.39092,38.81209,149],[-90.39088,38.81212,149],[-90.39088,38.81208,149],[-90.39089,38.81205,149],[-90.39089,38.81202,149],[-90.3909,38.81199,149],[-90.3909,38.81196,149],[-90.39091,38.81193,149],[-90.39092,38.81189,149],[-90.39092,38.81185,148],[-90.39092,38.81182,148],[-90.39092,38.81178,147],[-90.39092,38.81175,147],[-90.39093,38.81171,146],[-90.39095,38.81168,146],[-90.39098,38.81165,145],[-90.39101,38.81163,145],[-90.39104,38.81161,144],[-90.39108,38.81159,144],[-90.3911,38.81156,143],[-90.39111,38.81154,143],[-90.39113,38.8115,142],[-90.39112,38.81148,142],[-90.3911,38.81145,141],[-90.39107,38.81143,141],[-90.39104,38.81141,141],[-90.39101,38.8114,141],[-90.39102,38.81137,141],[-90.39098,38.81135,141],[-90.39094,38.81129,141],[-90.39091,38.81124,141],[-90.39088,38.81119,141],[-90.39085,38.81116,141],[-90.39081,38.81117,141],[-90.39075,38.81118,141],[-90.39071,38.81119,141],[-90.39068,38.81122,142],[-90.39065,38.81124,142],[-90.39062,38.81127,142],[-90.39058,38.81128,142],[-90.39053,38.81126,142],[-90.39049,38.81124,142],[-90.39045,38.81122,142],[-90.39042,38.8112,142],[-90.39038,38.81119,142],[-90.39034,38.81117,142],[-90.39031,38.81116,142],[-90.39026,38.81117,143],[-90.39022,38.81118,143],[-90.39018,38.81118,144],[-90.39013,38.81117,144],[-90.39009,38.81116,145],[-90.39005,38.81116,145],[-90.39001,38.81116,146],[-90.38996,38.81116,147],[-90.38991,38.81115,148],[-90.38988,38.81117,148],[-90.38984,38.81119,148],[-90.38981,38.8112,149],[-90.38978,38.81121,149],[-90.38973,38.81121,150],[-90.3897,38.8112,150],[-90.38966,38.81119,150],[-90.38962,38.81118,151],[-90.38959,38.81116,151],[-90.38955,38.81116,151],[-90.38951,38.81118,151],[-90.38948,38.81121,151],[-90.38947,38.81125,151],[-90.38945,38.81129,151],[-90.38943,38.81133,152],[-90.38942,38.81136,152],[-90.38941,38.8114,152],[-90.38939,38.81143,152],[-90.38935,38.81146,152],[-90.38931,38.81144,152],[-90.38928,38.81141,152],[-90.38923,38.81139,152],[-90.38918,38.81141,152],[-90.38916,38.81144,152],[-90.38913,38.81147,152],[-90.3891,38.81149,153],[-90.38907,38.81151,154],[-90.38903,38.81153,155],[-90.38899,38.81151,156],[-90.38899,38.81147,156],[-90.38891,38.81149,158],[-90.38888,38.81157,159],[-90.38878,38.81159,161],[-90.38869,38.81162,163],[-90.38863,38.81166,164],[-90.38861,38.81172,164],[-90.38859,38.81178,164],[-90.38857,38.81183,163],[-90.38862,38.81181,163],[-90.38867,38.81182,162],[-90.38866,38.81186,162],[-90.38864,38.81191,161],[-90.38864,38.81194,161],[-90.38865,38.8119,161],[-90.38871,38.81194,160],[-90.38873,38.812,160],[-90.38874,38.81206,161],[-90.38866,38.81206,162],[-90.38868,38.81201,161],[-90.3887,38.81195,160],[-90.38866,38.8119,161],[-90.3887,38.81197,160],[-90.38877,38.812,159],[-90.38884,38.81203,159],[-90.38886,38.81209,159],[-90.38888,38.81215,160],[-90.3889,38.81219,161],[-90.38888,38.81224,162],[-90.38885,38.81228,162],[-90.38882,38.81231,163],[-90.38878,38.81233,164],[-90.38873,38.81234,164],[-90.38869,38.81236,165],[-90.38867,38.81239,166],[-90.38866,38.81243,167],[-90.38868,38.81246,167],[-90.3887,38.81249,167],[-90.38871,38.81253,167],[-90.38869,38.81256,167],[-90.38867,38.8126,168],[-90.38864,38.81263,168],[-90.38864,38.81266,169],[-90.38861,38.81269,169],[-90.38858,38.81271,170],[-90.38853,38.81272,172],[-90.38849,38.81273,173],[-90.38845,38.81274,175],[-90.38841,38.81277,177],[-90.38836,38.81277,178],[-90.38831,38.81277,180],[-90.38826,38.81276,181],[-90.38818,38.81278,184],[-90.3881,38.81278,186],[-90.38809,38.81284,187],[-90.38809,38.81288,188],[-90.38808,38.81293,189],[-90.38807,38.81297,189],[-90.38809,38.81302,189],[-90.38809,38.81307,190],[-90.38807,38.81312,191],[-90.38803,38.81317,193],[-90.38799,38.81324,194],[-90.38797,38.81328,195],[-90.38792,38.81332,195],[-90.38787,38.81334,196],[-90.38783,38.81335,196],[-90.38778,38.81335,196],[-90.38774,38.81335,195],[-90.3877,38.81333,195],[-90.38766,38.81334,195],[-90.38766,38.81337,195],[-90.38766,38.8134,195],[-90.38766,38.81343,195],[-90.38765,38.81347,196],[-90.38765,38.81351,196],[-90.38764,38.81354,196],[-90.38763,38.81357,196],[-90.38761,38.8136,196],[-90.38761,38.81364,197],[-90.3876,38.81367,197],[-90.38759,38.81371,197],[-90.38757,38.81374,198],[-90.38756,38.81377,198],[-90.38755,38.8138,198],[-90.38754,38.81383,199],[-90.38754,38.81386,199],[-90.38756,38.81389,199],[-90.3876,38.8139,200],[-90.38763,38.81391,200],[-90.38766,38.81393,200],[-90.38767,38.81396,200],[-90.38764,38.81398,200],[-90.3876,38.81399,200],[-90.38757,38.814,200],[-90.38752,38.81401,200],[-90.38748,38.81401,200],[-90.38744,38.81401,200],[-90.3874,38.814,200],[-90.38736,38.81401,200],[-90.38732,38.81402,200],[-90.38728,38.81403,200],[-90.38724,38.81404,200],[-90.38719,38.81404,200],[-90.38715,38.81405,200],[-90.3871,38.81407,200],[-90.38706,38.81408,201],[-90.38703,38.81409,201],[-90.38699,38.8141,201],[-90.38695,38.81409,201],[-90.38691,38.8141,201],[-90.38687,38.81411,201],[-90.38682,38.81411,200],[-90.38678,38.81411,200],[-90.38673,38.81412,200],[-90.38669,38.81412,200],[-90.38664,38.81413,200],[-90.3866,38.81413,200],[-90.38656,38.81413,199],[-90.38652,38.81414,199],[-90.38649,38.81417,199],[-90.38646,38.81415,199],[-90.38649,38.81413,199],[-90.38652,38.81412,199],[-90.38656,38.81411,199],[-90.38661,38.8141,199],[-90.38664,38.81409,200],[-90.38668,38.81409,200],[-90.38671,38.81408,200],[-90.38675,38.81408,200],[-90.38679,38.81407,200],[-90.38683,38.81407,200],[-90.38687,38.81406,200],[-90.38691,38.81406,200],[-90.38695,38.81406,200],[-90.38699,38.81405,200],[-90.38703,38.81404,200],[-90.38707,38.81404,200],[-90.3871,38.81403,200],[-90.38714,38.81402,200],[-90.38718,38.81401,200],[-90.38722,38.81401,200],[-90.38726,38.81401,200],[-90.3873,38.814,200],[-90.38734,38.81399,200],[-90.38738,38.81399,200],[-90.38743,38.81399,200],[-90.38747,38.81399,200],[-90.38751,38.81398,200],[-90.38756,38.81397,200],[-90.3876,38.81396,200],[-90.38763,38.81395,200],[-90.38767,38.81395,200],[-90.38771,38.81394,200],[-90.38775,38.81393,200],[-90.38779,38.81394,199],[-90.38784,38.81394,199],[-90.38789,38.81393,199],[-90.38794,38.81393,199],[-90.38798,38.81392,199],[-90.38802,38.81392,199],[-90.38807,38.81392,199],[-90.38811,38.81391,198],[-90.38815,38.8139,198],[-90.38818,38.81389,198],[-90.38822,38.81389,198],[-90.38826,38.8139,198],[-90.38829,38.81391,198],[-90.38832,38.81393,198],[-90.38833,38.81396,198],[-90.38822,38.81397,198],[-90.38826,38.81397,198],[-90.38831,38.81397,198],[-90.38835,38.81399,198],[-90.38839,38.814,197],[-90.38841,38.81403,197],[-90.38845,38.81405,197],[-90.38849,38.81407,197],[-90.38852,38.81409,197],[-90.38856,38.8141,196],[-90.3886,38.81412,196],[-90.38864,38.81414,196],[-90.38868,38.81414,195],[-90.38872,38.81415,195],[-90.38875,38.81416,194],[-90.38879,38.81417,194],[-90.38882,38.81417,194],[-90.38887,38.81418,193],[-90.3889,38.81419,192],[-90.38894,38.81421,192],[-90.38898,38.81421,192],[-90.38903,38.81422,192],[-90.38906,38.81422,192],[-90.38911,38.81422,192],[-90.38915,38.81423,192],[-90.38918,38.81424,192],[-90.38921,38.81426,191],[-90.38924,38.81428,191],[-90.38928,38.81429,191],[-90.38932,38.8143,190],[-90.38936,38.81432,190],[-90.38938,38.81434,189],[-90.3894,38.81436,189],[-90.38943,38.81438,189],[-90.38946,38.8144,189],[-90.38949,38.81443,189],[-90.38951,38.81445,189],[-90.38952,38.81448,189],[-90.38953,38.81451,190],[-90.38953,38.81454,190],[-90.38951,38.81457,190],[-90.38951,38.8146,190],[-90.3895,38.81463,190],[-90.38951,38.81466,190],[-90.38954,38.81469,191],[-90.38958,38.81471,191],[-90.38955,38.81475,191],[-90.38953,38.81478,190],[-90.3895,38.81481,190],[-90.38945,38.81483,189],[-90.38948,38.81488,189],[-90.38956,38.81491,189],[-90.3896,38.81486,190],[-90.38963,38.81482,190],[-90.38968,38.81479,191],[-90.38965,38.81483,190],[-90.3896,38.81481,190],[-90.38966,38.8148,190],[-90.38964,38.81485,190],[-90.38962,38.81489,189],[-90.38959,38.81492,189],[-90.38957,38.81495,189],[-90.38958,38.81499,188],[-90.3896,38.81503,188],[-90.38963,38.81507,187],[-90.38965,38.8151,186],[-90.38969,38.81512,186],[-90.38973,38.81515,185],[-90.38978,38.81517,185],[-90.38982,38.8152,184],[-90.38984,38.81523,183],[-90.38977,38.81524,183],[-90.38973,38.81527,183],[-90.38969,38.81531,182],[-90.38966,38.81534,182],[-90.38967,38.81538,182],[-90.38966,38.81542,181],[-90.38968,38.81545,180],[-90.38963,38.81547,180],[-90.38961,38.81543,181],[-90.38965,38.81542,181],[-90.38971,38.81543,180],[-90.38972,38.81539,181],[-90.3897,38.81535,182],[-90.38969,38.81532,182],[-90.38973,38.8153,182],[-90.38973,38.81526,183],[-90.38978,38.81524,183],[-90.38982,38.81522,183],[-90.38986,38.8152,184],[-90.3899,38.8152,184],[-90.38994,38.81521,183],[-90.38998,38.81523,183],[-90.39002,38.81524,182],[-90.39007,38.81526,182],[-90.3901,38.81528,181],[-90.39014,38.8153,181],[-90.39018,38.81531,181],[-90.39022,38.81532,181],[-90.39026,38.81535,180],[-90.3903,38.81536,180],[-90.39033,38.81538,181],[-90.3904,38.81539,181],[-90.39046,38.8154,182],[-90.39052,38.81541,182],[-90.39057,38.81541,183],[-90.39062,38.81541,183],[-90.39066,38.81543,184],[-90.3907,38.81544,184],[-90.39074,38.81545,184],[-90.39079,38.81546,185],[-90.39084,38.81545,185],[-90.39088,38.81545,185],[-90.39091,38.81547,185],[-90.39094,38.81546,185],[-90.39099,38.81544,186],[-90.39102,38.81542,186],[-90.39107,38.8154,186],[-90.39111,38.81538,186],[-90.39116,38.81536,186],[-90.39123,38.81536,186],[-90.39128,38.81536,186],[-90.39134,38.81536,185],[-90.39139,38.81537,185],[-90.39143,38.8154,184],[-90.39148,38.81544,184],[-90.39151,38.81547,183],[-90.39151,38.8155,183],[-90.39156,38.81553,183],[-90.3916,38.81556,183],[-90.39163,38.8156,182],[-90.39167,38.81564,182],[-90.39171,38.81568,180],[-90.39176,38.81569,179],[-90.3918,38.81567,178],[-90.39184,38.81565,178],[-90.39189,38.81565,177],[-90.39194,38.81565,176],[-90.39198,38.81567,173],[-90.39202,38.81568,171],[-90.39198,38.81569,173],[-90.39193,38.81568,175],[-90.39186,38.81567,177],[-90.39179,38.81565,179],[-90.39172,38.81567,180],[-90.39171,38.81573,180],[-90.39174,38.81578,178],[-90.39176,38.81583,177],[-90.39176,38.81587,176],[-90.39178,38.81591,175],[-90.39178,38.81595,174],[-90.39177,38.81598,173],[-90.39176,38.81602,173],[-90.39176,38.81605,172],[-90.39175,38.81609,172],[-90.39174,38.81612,171],[-90.39173,38.81616,170],[-90.39172,38.81619,169],[-90.39172,38.81623,168],[-90.39171,38.81626,167],[-90.39169,38.81629,166],[-90.39168,38.81631,166],[-90.39169,38.81634,164],[-90.39173,38.81632,164],[-90.3917,38.81636,164],[-90.39168,38.8164,163],[-90.39165,38.81643,163],[-90.39162,38.81647,162],[-90.39158,38.8165,162],[-90.39154,38.81653,162],[-90.39148,38.81656,163],[-90.39142,38.81661,163],[-90.3914,38.81655,165],[-90.39148,38.81654,164],[-90.39139,38.81653,166],[-90.39131,38.81653,167],[-90.39124,38.81649,169],[-90.3913,38.81645,169],[-90.39133,38.81641,170],[-90.39133,38.81637,171],[-90.39137,38.81632,172],[-90.3914,38.81636,171],[-90.39145,38.81638,169],[-90.39148,38.81641,168],[-90.39148,38.81645,166],[-90.39148,38.81648,165],[-90.39145,38.81651,165],[-90.39144,38.81654,164],[-90.3915,38.81655,163],[-90.39137,38.81657,165],[-90.39143,38.8165,166],[-90.39145,38.81659,163],[-90.39138,38.81663,163],[-90.39131,38.81664,163],[-90.39128,38.81669,162],[-90.39123,38.81671,162],[-90.39122,38.81678,161],[-90.39116,38.81681,161],[-90.39109,38.81683,161],[-90.39104,38.81678,163],[-90.39097,38.81675,164],[-90.39088,38.81675,165],[-90.39082,38.8168,164],[-90.39076,38.81685,164],[-90.39068,38.81681,165],[-90.3906,38.81685,165],[-90.39052,38.81688,165],[-90.39046,38.8169,166],[-90.39051,38.81687,166],[-90.39054,38.81691,165],[-90.39057,38.81697,163],[-90.39059,38.81702,162],[-90.3906,38.81706,160],[-90.39057,38.81711,159],[-90.39055,38.81716,157],[-90.39051,38.8172,156],[-90.39049,38.81724,155],[-90.39047,38.81729,153],[-90.39047,38.81733,152],[-90.39053,38.81736,151],[-90.39061,38.81739,149],[-90.3906,38.81746,146],[-90.39052,38.81746,147],[-90.39045,38.81742,149],[-90.39052,38.81747,147],[-90.39046,38.8175,147],[-90.39048,38.81755,145],[-90.39043,38.81759,145],[-90.3904,38.81765,144],[-90.39033,38.81768,144],[-90.39028,38.8177,144],[-90.39022,38.81774,144],[-90.39019,38.81778,144],[-90.39014,38.81781,145],[-90.39009,38.81783,145],[-90.39008,38.81787,145],[-90.39013,38.8179,143],[-90.39008,38.81789,144],[-90.39005,38.81786,145],[-90.39,38.81783,147],[-90.38994,38.81782,147],[-90.3899,38.81783,148],[-90.38985,38.81785,148],[-90.3898,38.81786,148],[-90.38976,38.81787,149],[-90.38971,38.81788,149],[-90.38965,38.81788,149],[-90.3896,38.81789,149],[-90.38957,38.81792,149],[-90.38953,38.81794,149],[-90.38949,38.81796,148],[-90.38945,38.81797,148],[-90.38941,38.81798,149],[-90.38936,38.81799,149],[-90.38931,38.81798,150],[-90.38927,38.818,150],[-90.38923,38.81802,150],[-90.38917,38.81801,151],[-90.38909,38.81799,153],[-90.38903,38.818,155],[-90.38906,38.81803,153],[-90.38904,38.81806,152],[-90.38898,38.81807,154],[-90.38892,38.81806,155],[-90.38886,38.81806,157],[-90.38881,38.81804,159],[-90.38874,38.81804,160],[-90.38869,38.81806,161],[-90.38863,38.81808,161],[-90.38859,38.81811,160],[-90.38854,38.8181,161],[-90.3885,38.81813,160],[-90.38849,38.81817,158],[-90.38849,38.81821,156],[-90.38848,38.81825,154],[-90.38846,38.81828,152],[-90.38843,38.81831,151],[-90.38838,38.81833,150],[-90.38836,38.81837,148],[-90.38836,38.8184,147],[-90.38836,38.81844,145],[-90.38836,38.81848,143],[-90.38834,38.81852,141],[-90.38833,38.81856,140],[-90.38829,38.81858,139],[-90.38825,38.81859,140],[-90.38821,38.81861,139],[-90.38818,38.81863,140],[-90.38817,38.81866,140],[-90.38813,38.81868,140],[-90.38809,38.81869,140],[-90.38804,38.8187,141],[-90.388,38.81871,141],[-90.38796,38.81872,142],[-90.38792,38.81874,142],[-90.38788,38.81877,142],[-90.38785,38.8188,142],[-90.3878,38.81882,142],[-90.38776,38.81884,142],[-90.38772,38.81885,142],[-90.38768,38.81887,142],[-90.38764,38.81888,142],[-90.3876,38.81889,141],[-90.38756,38.81891,141],[-90.38751,38.81893,140],[-90.38747,38.81894,140],[-90.38747,38.81897,139],[-90.38746,38.81901,138],[-90.38745,38.81905,136],[-90.38742,38.81908,135],[-90.38738,38.81909,135],[-90.38734,38.81911,134],[-90.38731,38.81913,133],[-90.38728,38.81916,132],[-90.38722,38.81917,132],[-90.38718,38.81922,132],[-90.38709,38.81925,132],[-90.387,38.81928,132],[-90.38693,38.8193,132],[-90.38687,38.81932,132],[-90.38682,38.81935,132],[-90.38678,38.81938,132],[-90.38675,38.81942,132],[-90.38673,38.81945,131],[-90.38679,38.81941,132],[-90.38684,38.81937,132],[-90.38688,38.81933,132],[-90.38695,38.81931,132],[-90.387,38.81929,132],[-90.38704,38.81927,132],[-90.38709,38.81926,132],[-90.38714,38.81924,132],[-90.38718,38.81921,132],[-90.38722,38.81919,132],[-90.38727,38.81917,132],[-90.3873,38.81914,133],[-90.38735,38.81912,134],[-90.38739,38.8191,135],[-90.38734,38.8191,135],[-90.38739,38.8191,135],[-90.38743,38.81909,135],[-90.38746,38.81907,136],[-90.38749,38.81903,137],[-90.38749,38.81899,138],[-90.38751,38.81896,139],[-90.3875,38.81892,141],[-90.38754,38.8189,141],[-90.38757,38.81889,141],[-90.3876,38.81886,142],[-90.38764,38.81884,142],[-90.38769,38.81883,143],[-90.38773,38.81882,143],[-90.38778,38.81881,143],[-90.38782,38.8188,142],[-90.38784,38.81876,143],[-90.38788,38.81873,143],[-90.38794,38.8187,142],[-90.38799,38.81867,142],[-90.38805,38.81866,141],[-90.38809,38.81864,141],[-90.38812,38.81862,140],[-90.38817,38.81861,140],[-90.38821,38.81859,140],[-90.38823,38.81856,141],[-90.38826,38.81854,141],[-90.38829,38.81852,142],[-90.38832,38.81849,143],[-90.38835,38.81847,144],[-90.38837,38.81844,145],[-90.38838,38.81841,146],[-90.3884,38.81838,148],[-90.3884,38.81834,149],[-90.38841,38.8183,151],[-90.38844,38.81827,153],[-90.38847,38.81825,154],[-90.38851,38.81823,155],[-90.38853,38.81819,156],[-90.38856,38.81816,158],[-90.38858,38.81813,159],[-90.38861,38.8181,160],[-90.38865,38.81808,161],[-90.3887,38.81808,159],[-90.38874,38.81807,159],[-90.38878,38.81806,159],[-90.38883,38.81806,157],[-90.38887,38.81806,157],[-90.38893,38.81806,155],[-90.38897,38.81805,155],[-90.38901,38.81804,154],[-90.38904,38.81801,154],[-90.3891,38.81801,153],[-90.38915,38.81798,152],[-90.3892,38.81797,152],[-90.38924,38.81797,151],[-90.38928,38.81797,151],[-90.38932,38.81798,150],[-90.38936,38.81797,150],[-90.38942,38.81797,149],[-90.38946,38.81798,148],[-90.38951,38.81796,148],[-90.38954,38.81794,149],[-90.38959,38.81793,149],[-90.38963,38.81791,149],[-90.38967,38.81789,149],[-90.38971,38.81787,149],[-90.38975,38.81785,149],[-90.38979,38.81784,149],[-90.38984,38.81785,148],[-90.38988,38.81785,148],[-90.38993,38.81784,147],[-90.38998,38.81783,147],[-90.39002,38.81782,146],[-90.39006,38.8178,146],[-90.3901,38.81778,146],[-90.39015,38.81776,145],[-90.39018,38.81773,145],[-90.39021,38.81771,145],[-90.39024,38.81768,145],[-90.39027,38.81766,145],[-90.39031,38.81763,145],[-90.39034,38.81761,145],[-90.39038,38.81759,145],[-90.39042,38.81757,145],[-90.39045,38.81755,146],[-90.39048,38.81753,146],[-90.3905,38.8175,146],[-90.39051,38.81747,147],[-90.39054,38.81744,148],[-90.39058,38.81742,148],[-90.39061,38.81739,149],[-90.39066,38.81737,148],[-90.39071,38.81737,148],[-90.39077,38.81737,147],[-90.39082,38.81735,147],[-90.39086,38.81732,147],[-90.3909,38.8173,147],[-90.39095,38.8173,146],[-90.391,38.81731,145],[-90.39105,38.81731,144],[-90.39109,38.81729,144],[-90.39114,38.81723,145],[-90.39117,38.81718,146],[-90.39125,38.81714,147],[-90.39134,38.81714,145],[-90.39142,38.81716,143],[-90.39151,38.81714,142],[-90.39158,38.81711,142],[-90.39167,38.81708,142],[-90.39172,38.81704,144],[-90.39176,38.81701,145],[-90.39179,38.81699,146],[-90.39181,38.81695,148],[-90.39183,38.81691,149],[-90.39186,38.81689,149],[-90.39189,38.81686,149],[-90.39194,38.81683,149],[-90.39198,38.81681,149],[-90.39201,38.81678,149],[-90.39204,38.81675,148],[-90.39207,38.81672,148],[-90.39209,38.8167,148],[-90.39211,38.81666,148],[-90.39203,38.81663,150],[-90.39207,38.81662,149],[-90.39212,38.8166,148],[-90.39216,38.81656,148],[-90.3922,38.81655,147],[-90.39225,38.81653,146],[-90.39227,38.8165,146],[-90.39228,38.81646,146],[-90.3923,38.81642,146],[-90.39234,38.81639,146],[-90.39236,38.81636,146],[-90.39235,38.81632,148],[-90.39234,38.81629,149],[-90.39237,38.81627,148],[-90.39239,38.81624,149],[-90.39242,38.81622,148],[-90.39246,38.8162,148],[-90.39247,38.81617,148],[-90.3925,38.81614,148],[-90.39254,38.81613,147],[-90.39258,38.81612,146],[-90.39261,38.8161,145],[-90.39265,38.81607,144],[-90.39268,38.81606,143],[-90.39271,38.81604,142],[-90.39273,38.81601,141],[-90.39272,38.81597,141],[-90.3927,38.81593,142],[-90.39269,38.8159,142],[-90.39269,38.81586,142],[-90.39268,38.81583,143],[-90.39267,38.81579,144],[-90.39266,38.81575,145],[-90.39265,38.81571,146],[-90.39263,38.81568,148],[-90.3926,38.81565,149],[-90.39259,38.81561,151],[-90.3926,38.81557,151],[-90.39263,38.81554,151],[-90.39267,38.81551,150],[-90.3927,38.81549,149],[-90.39275,38.81545,148],[-90.39279,38.81542,148],[-90.39283,38.8154,148],[-90.39289,38.81538,147],[-90.39294,38.81535,146],[-90.39299,38.81533,145],[-90.39304,38.81533,144],[-90.39306,38.81537,142],[-90.39302,38.8154,143],[-90.39303,38.81535,144],[-90.39309,38.81531,144],[-90.39313,38.81527,144],[-90.39317,38.81523,143],[-90.39321,38.81518,142],[-90.39323,38.81514,142],[-90.39324,38.8151,142],[-90.3932,38.81506,144],[-90.39315,38.81504,145],[-90.39312,38.81501,146],[-90.39308,38.81497,147],[-90.39307,38.81492,147],[-90.39311,38.8149,146],[-90.39304,38.8149,147],[-90.39298,38.81487,148],[-90.39294,38.81482,148],[-90.39294,38.81478,148],[-90.39294,38.81473,148],[-90.39295,38.81469,148],[-90.39294,38.81464,148],[-90.39292,38.81459,149],[-90.39289,38.81456,150],[-90.39285,38.81453,151],[-90.39281,38.8145,152],[-90.39276,38.81448,153],[-90.39272,38.81446,153],[-90.39268,38.81443,153],[-90.39264,38.8144,153],[-90.39261,38.81437,153],[-90.39258,38.81434,152],[-90.39254,38.81431,152],[-90.3925,38.81429,152],[-90.39246,38.81427,152],[-90.39242,38.81425,151],[-90.39237,38.81424,151],[-90.39233,38.81422,151],[-90.39229,38.81421,151],[-90.39226,38.81417,150],[-90.39225,38.81413,148],[-90.39223,38.8141,146],[-90.39221,38.81407,144],[-90.39226,38.81404,143],[-90.3923,38.81402,142],[-90.39234,38.81399,140],[-90.39237,38.81396,139],[-90.3924,38.81392,137],[-90.39243,38.8139,137],[-90.39245,38.81387,137],[-90.39248,38.81384,137],[-90.3925,38.81381,138],[-90.39251,38.81379,138],[-90.39253,38.81376,138],[-90.39256,38.81374,138],[-90.39258,38.81371,138],[-90.39259,38.81368,138],[-90.39259,38.81365,138],[-90.3926,38.81361,138],[-90.39262,38.81358,138],[-90.39266,38.81356,137],[-90.39271,38.81354,137],[-90.39271,38.81351,137],[-90.39271,38.81347,136],[-90.39272,38.81343,136],[-90.39275,38.8134,135],[-90.3927,38.81338,136],[-90.39265,38.81338,136],[-90.3926,38.81335,136],[-90.39255,38.81333,136],[-90.39251,38.81331,136],[-90.39246,38.81329,137],[-90.39241,38.81327,137],[-90.39238,38.81324,137],[-90.39234,38.81322,137],[-90.39231,38.8132,137],[-90.39226,38.81318,137],[-90.39223,38.81315,137],[-90.3922,38.81312,137],[-90.39217,38.8131,137],[-90.39213,38.81308,137],[-90.39209,38.81307,138],[-90.39205,38.81305,138],[-90.392,38.81303,138],[-90.39196,38.813,138],[-90.39192,38.81297,138],[-90.39189,38.81294,138],[-90.39186,38.81291,138],[-90.39182,38.81289,138],[-90.39179,38.81287,138],[-90.39174,38.81285,139],[-90.39171,38.81284,139],[-90.39167,38.81282,139],[-90.39162,38.8128,140],[-90.39158,38.81277,140],[-90.39153,38.81275,140],[-90.39151,38.81271,139],[-90.39152,38.81267,139],[-90.39152,38.81263,138],[-90.39156,38.81259,137],[-90.39159,38.81256,136],[-90.39162,38.81253,135],[-90.39165,38.8125,135],[-90.39167,38.81246,135],[-90.39169,38.81243,135],[-90.39172,38.81241,135],[-90.39174,38.81238,136],[-90.39176,38.81235,136],[-90.39178,38.81232,136],[-90.39179,38.81229,136],[-90.39182,38.81226,137],[-90.39184,38.81223,137],[-90.39187,38.8122,137],[-90.39191,38.81217,137],[-90.39194,38.81215,137],[-90.39198,38.81213,137],[-90.39201,38.81212,137],[-90.39205,38.81212,137],[-90.39208,38.81213,136],[-90.39212,38.81215,136],[-90.39216,38.81216,136],[-90.3922,38.81218,136],[-90.39223,38.8122,135],[-90.39227,38.81221,135],[-90.39231,38.81223,135],[-90.39235,38.81225,135],[-90.39239,38.81227,135],[-90.39242,38.81229,135],[-90.39246,38.81231,135],[-90.39249,38.81232,135],[-90.39252,38.81234,135],[-90.39255,38.81237,135],[-90.39257,38.81239,135],[-90.3926,38.81241,134],[-90.39262,38.81244,134],[-90.39264,38.81246,134],[-90.39268,38.81248,134],[-90.39272,38.81249,134],[-90.39275,38.81251,134],[-90.39279,38.81253,134],[-90.39282,38.81255,134],[-90.39285,38.81256,134],[-90.39289,38.81258,134],[-90.39293,38.81259,134],[-90.39296,38.81261,134],[-90.393,38.81263,134],[-90.39303,38.81264,134],[-90.39306,38.81265,134],[-90.39309,38.81267,134],[-90.39312,38.8127,134],[-90.39316,38.81272,134],[-90.3932,38.81274,134],[-90.39324,38.81275,134],[-90.39327,38.81277,134],[-90.3933,38.8128,134],[-90.39333,38.81281,134],[-90.39336,38.81283,134],[-90.3934,38.81285,134],[-90.39344,38.81283,134],[-90.39348,38.81282,134],[-90.39351,38.81279,134],[-90.39354,38.81277,134],[-90.39357,38.81274,134],[-90.39361,38.81272,134],[-90.39363,38.8127,134],[-90.39366,38.81268,134],[-90.39369,38.81266,134],[-90.39371,38.81264,135],[-90.39375,38.81262,135],[-90.39378,38.8126,135],[-90.39381,38.81258,135],[-90.39385,38.81256,136],[-90.39388,38.81254,136],[-90.39391,38.81251,136],[-90.39393,38.81249,137],[-90.39396,38.81247,137],[-90.39399,38.81245,137],[-90.39403,38.81242,137],[-90.39405,38.8124,137],[-90.39409,38.81238,137],[-90.39412,38.81236,137],[-90.39415,38.81233,137],[-90.39417,38.81231,137],[-90.39421,38.81229,137],[-90.39424,38.81226,137],[-90.39427,38.81224,137],[-90.39431,38.81221,138],[-90.39433,38.81218,138],[-90.39437,38.81216,138],[-90.3944,38.81214,138],[-90.39442,38.81211,138],[-90.39444,38.81209,138],[-90.39448,38.81206,137],[-90.39451,38.81204,137],[-90.39455,38.81201,137],[-90.39458,38.81199,137],[-90.39461,38.81197,137],[-90.39465,38.81194,137],[-90.39468,38.81192,136],[-90.39473,38.81188,136]]],
        "bbox": [
          -90.38646,
          38.81945,
          -90.39473,
          38.81115
        ]
      },
      "properties": {
        "name": "12.28.2024"
      }
    }
  ]
}