{
  "type": "FeatureCollection",
  "features": [
    {
      "type": "Feature",
      "geometry": {
        "type": "MultiLineString",
        "coordinates": [[[-90.39233,38.81407,145],[-90.3923,38.81405,143],[-90.39226,38.81407,144],[-90.39222,38.81409,146],[-90.39221,38.81412,148],[-90.39223,38.81414,149],[-90.39227,38.81417,150],[-90.39229,38.8142,151],[-90.39232,38.81422,151],[-90.39236,38.81423,151],[-90.39239,38.81425,151],[-90.39243,38.81426,152],[-90.39248,38.81429,152],[-90.39252,38.81431,152],[-90.39255,38.81433,153],[-90.39259,38.81435,152],[-90.39262,38.81437,153],[-90.39263,38.81439,153],[-90.39266,38.81441,153],[-90.39269,38.81444,153],[-90.39272,38.81446,153],[-90.39276,38.81449,153],[-90.39278,38.81451,152],[-90.39282,38.81453,151],[-90.39285,38.81455,151],[-90.39287,38.81458,150],[-90.39289,38.81461,149],[-90.39291,38.81464,149],[-90.39291,38.81467,149],[-90.39292,38.8147,148],[-90.39292,38.81473,148],[-90.39291,38.81477,149],[-90.39291,38.8148,149],[-90.39292,38.81483,148],[-90.39295,38.81486,148],[-90.39297,38.81488,148],[-90.39299,38.81492,148],[-90.39302,38.81495,147],[-90.39304,38.81498,147],[-90.39306,38.81501,147],[-90.39307,38.81503,147],[-90.39308,38.81507,146],[-90.39308,38.8151,146],[-90.39312,38.81512,145],[-90.39313,38.81515,145],[-90.39312,38.81518,145],[-90.39311,38.81521,145],[-90.3931,38.81524,145],[-90.39308,38.81527,145],[-90.39306,38.8153,145],[-90.39304,38.81532,144],[-90.39301,38.81534,145],[-90.39298,38.81536,145],[-90.39295,38.81538,145],[-90.39291,38.81539,146],[-90.39288,38.81539,146],[-90.39284,38.81541,147],[-90.39281,38.81543,147],[-90.39278,38.81545,148],[-90.39274,38.81546,149],[-90.39271,38.81548,149],[-90.39267,38.8155,150],[-90.39265,38.81553,150],[-90.39263,38.81555,150],[-90.39261,38.81557,151],[-90.3926,38.8156,150],[-90.39259,38.81562,150],[-90.39258,38.81566,150],[-90.39258,38.8157,149],[-90.39258,38.81573,148],[-90.39259,38.81576,147],[-90.39258,38.81579,147],[-90.39258,38.81582,146],[-90.39258,38.81585,146],[-90.39258,38.81588,146],[-90.39258,38.81591,146],[-90.39258,38.81594,146],[-90.39258,38.81597,146],[-90.39256,38.816,146],[-90.39254,38.81603,147],[-90.39251,38.81605,148],[-90.39249,38.81608,149],[-90.39248,38.81611,149],[-90.39245,38.81612,150],[-90.39242,38.81614,150],[-90.3924,38.81617,150],[-90.39238,38.81619,150],[-90.39236,38.81621,150],[-90.39235,38.81624,150],[-90.39233,38.81627,150],[-90.39231,38.81629,149],[-90.39231,38.81632,149],[-90.3923,38.81635,148],[-90.39228,38.81638,148],[-90.39226,38.8164,148],[-90.39224,38.81643,148],[-90.39223,38.81645,148],[-90.39222,38.81648,148],[-90.39219,38.8165,148],[-90.39216,38.81652,148],[-90.39213,38.81653,149],[-90.39211,38.81656,149],[-90.39208,38.81659,149],[-90.39207,38.81662,149],[-90.39203,38.81663,150],[-90.392,38.81665,150],[-90.39198,38.81668,150],[-90.39197,38.81671,150],[-90.39195,38.81674,150],[-90.39192,38.81676,150],[-90.39189,38.81678,150],[-90.39186,38.8168,150],[-90.39184,38.81683,150],[-90.39183,38.81685,150],[-90.39181,38.81689,149],[-90.3918,38.81692,148],[-90.39178,38.81694,148],[-90.39175,38.81697,147],[-90.39172,38.81699,146],[-90.39169,38.81701,145],[-90.39165,38.81702,145],[-90.39161,38.81704,145],[-90.39157,38.81705,145],[-90.39153,38.81706,145],[-90.3915,38.81707,145],[-90.39146,38.81708,145],[-90.39144,38.81711,145],[-90.39142,38.81713,144],[-90.3914,38.81716,143],[-90.39137,38.81718,143],[-90.39133,38.81718,143],[-90.39129,38.81718,144],[-90.39125,38.81718,145],[-90.39122,38.8172,145],[-90.39118,38.81721,145],[-90.39115,38.81723,145],[-90.39113,38.81725,145],[-90.39111,38.81728,144],[-90.39109,38.81731,144],[-90.39106,38.81734,143],[-90.39103,38.81736,143],[-90.39101,38.81739,143],[-90.39098,38.8174,143],[-90.391,38.81742,142],[-90.39099,38.81745,141],[-90.39095,38.81747,141],[-90.39091,38.8175,141],[-90.39088,38.81752,141],[-90.39083,38.81753,141],[-90.3908,38.81754,141],[-90.39076,38.81756,141],[-90.39073,38.81758,141],[-90.3907,38.81759,142],[-90.39067,38.81761,142],[-90.39064,38.81761,142],[-90.3906,38.81763,142],[-90.39057,38.81766,142],[-90.39055,38.81768,142],[-90.39052,38.8177,142],[-90.39049,38.81771,142],[-90.39045,38.81772,142],[-90.39041,38.81774,142],[-90.39038,38.81775,142],[-90.39034,38.81777,142],[-90.39031,38.81779,142],[-90.39028,38.81781,142],[-90.39025,38.81782,142],[-90.39023,38.81785,143],[-90.39019,38.81786,143],[-90.39016,38.81786,143],[-90.39012,38.81784,144],[-90.3901,38.81782,145],[-90.39005,38.81781,146],[-90.39001,38.81781,147],[-90.38996,38.81781,147],[-90.38991,38.81781,148],[-90.38987,38.81782,148],[-90.38983,38.81783,149],[-90.3898,38.81785,149],[-90.38976,38.81786,149],[-90.38973,38.81787,149],[-90.38968,38.81789,149],[-90.38965,38.8179,149],[-90.38961,38.81792,149],[-90.38958,38.81794,149],[-90.38953,38.81795,149],[-90.38949,38.81796,148],[-90.38945,38.81796,149],[-90.38942,38.81795,149],[-90.38938,38.81795,150],[-90.38934,38.81794,151],[-90.38931,38.81795,151],[-90.38927,38.81797,151],[-90.38924,38.81798,151],[-90.3892,38.81798,151],[-90.38915,38.81798,152],[-90.38911,38.81799,153],[-90.38908,38.818,153],[-90.38904,38.81802,154],[-90.38901,38.81803,154],[-90.38896,38.81804,155],[-90.38892,38.81806,155],[-90.38889,38.81808,155],[-90.38887,38.8181,155],[-90.38885,38.81813,154],[-90.38883,38.81816,153],[-90.3888,38.81818,153],[-90.38877,38.8182,153],[-90.38875,38.81822,153],[-90.38872,38.81823,153],[-90.38868,38.81823,153],[-90.38865,38.81826,152],[-90.38862,38.81827,152],[-90.38859,38.81829,152],[-90.38856,38.81831,151],[-90.38853,38.81834,149],[-90.3885,38.81835,149],[-90.38847,38.81836,148],[-90.38843,38.81838,148],[-90.38839,38.8184,147],[-90.38837,38.81843,145],[-90.38835,38.81845,144],[-90.38833,38.81848,143],[-90.3883,38.81851,142],[-90.38827,38.81854,141],[-90.38825,38.81856,141],[-90.38822,38.81858,140],[-90.3882,38.8186,140],[-90.38817,38.81862,140],[-90.38814,38.81864,140],[-90.38809,38.81864,141],[-90.38806,38.81865,141],[-90.38801,38.81865,142],[-90.38799,38.81867,142],[-90.38795,38.81868,142],[-90.38793,38.8187,142],[-90.38789,38.81872,142],[-90.38787,38.81874,142],[-90.38783,38.81876,143],[-90.3878,38.81877,143],[-90.38776,38.81879,143],[-90.38773,38.8188,143],[-90.38769,38.81883,143],[-90.38766,38.81884,142],[-90.38761,38.81885,142],[-90.38757,38.81887,142],[-90.38754,38.81888,142],[-90.38751,38.8189,141],[-90.38749,38.81893,140],[-90.38747,38.81896,139],[-90.38745,38.81898,139],[-90.38743,38.81901,138],[-90.38741,38.81903,137],[-90.38739,38.81905,136],[-90.38736,38.81907,136],[-90.38735,38.8191,135],[-90.38731,38.81912,134],[-90.38727,38.81913,133],[-90.38723,38.81913,133],[-90.3872,38.81914,133],[-90.38716,38.81913,133],[-90.38715,38.81916,132],[-90.38713,38.81919,132],[-90.38711,38.81921,132],[-90.38709,38.81923,132],[-90.38706,38.81925,132],[-90.38702,38.81926,132],[-90.38699,38.81927,132],[-90.38695,38.81928,132],[-90.38692,38.8193,132],[-90.38688,38.81932,132],[-90.38685,38.81933,132],[-90.38682,38.81935,132],[-90.38679,38.81937,132],[-90.38676,38.81939,132],[-90.38674,38.81941,132],[-90.38671,38.81943,132],[-90.38668,38.81945,131],[-90.38668,38.81948,131],[-90.38664,38.81948,131],[-90.38661,38.8195,131],[-90.38658,38.81951,131],[-90.38657,38.81954,131],[-90.38654,38.81956,131],[-90.38651,38.81957,131],[-90.38648,38.81959,131],[-90.38644,38.8196,131],[-90.38641,38.81961,131],[-90.38637,38.81962,131],[-90.38634,38.81964,131],[-90.3863,38.81965,131],[-90.38626,38.81965,131],[-90.38623,38.81966,132],[-90.38619,38.81967,132],[-90.38615,38.81968,132],[-90.38611,38.81969,131],[-90.38607,38.8197,131],[-90.38603,38.8197,131],[-90.38599,38.81971,131],[-90.38595,38.81972,131],[-90.38591,38.81972,131],[-90.38587,38.81973,131],[-90.38583,38.81974,131],[-90.38579,38.81974,131],[-90.38576,38.81976,131],[-90.38578,38.81974,131],[-90.38575,38.81976,131],[-90.38576,38.81973,131],[-90.38579,38.81976,131],[-90.38576,38.81971,131],[-90.38578,38.81974,131],[-90.38574,38.81974,131],[-90.38577,38.81974,131],[-90.3858,38.81973,131],[-90.38584,38.81972,131],[-90.38588,38.81971,131],[-90.38592,38.81971,131],[-90.38595,38.8197,131],[-90.38599,38.8197,131],[-90.38603,38.81971,131],[-90.38606,38.81971,131],[-90.3861,38.81971,131],[-90.38614,38.8197,131],[-90.38618,38.8197,131],[-90.38621,38.81969,131],[-90.38625,38.81967,131],[-90.38629,38.81966,131],[-90.38633,38.81965,131],[-90.38636,38.81964,131],[-90.3864,38.81962,131],[-90.38644,38.81961,131],[-90.38647,38.81961,131],[-90.38651,38.8196,131],[-90.38654,38.81959,131],[-90.38658,38.81958,131],[-90.38662,38.81957,131],[-90.38665,38.81955,131],[-90.38667,38.81953,131],[-90.38669,38.8195,131],[-90.38669,38.81947,131],[-90.38668,38.81945,131],[-90.38672,38.81946,131],[-90.38675,38.81943,132],[-90.38678,38.81941,132],[-90.3868,38.81939,132],[-90.38683,38.81937,132],[-90.38687,38.81935,132],[-90.38691,38.81934,132],[-90.38695,38.81933,132],[-90.38699,38.81931,132],[-90.38703,38.8193,132],[-90.38706,38.81929,132],[-90.38709,38.81927,132],[-90.38712,38.81925,132],[-90.38716,38.81924,132],[-90.38719,38.81922,132],[-90.38722,38.8192,132],[-90.38725,38.81918,132],[-90.38729,38.81915,132],[-90.38732,38.81913,133],[-90.38735,38.81912,134],[-90.38739,38.8191,135],[-90.38742,38.81909,135],[-90.38745,38.81907,136],[-90.38748,38.81905,136],[-90.3875,38.81903,137],[-90.38751,38.819,138],[-90.38754,38.81897,139],[-90.38756,38.81894,140],[-90.38758,38.81892,141],[-90.38761,38.8189,141],[-90.38764,38.81889,141],[-90.38768,38.81889,141],[-90.38771,38.81888,142],[-90.38776,38.81886,142],[-90.3878,38.81884,142],[-90.38784,38.81882,142],[-90.38788,38.8188,142],[-90.38791,38.81877,142],[-90.38794,38.81876,141],[-90.38797,38.81874,141],[-90.388,38.81872,141],[-90.38804,38.81871,141],[-90.38808,38.8187,140],[-90.38811,38.8187,140],[-90.38815,38.8187,139],[-90.38818,38.81868,139],[-90.38821,38.81866,139],[-90.38825,38.81864,139],[-90.38828,38.81862,138],[-90.38831,38.81859,139],[-90.38834,38.81857,139],[-90.38837,38.81855,140],[-90.3884,38.81853,141],[-90.38844,38.81851,142],[-90.38846,38.81849,143],[-90.38847,38.81846,144],[-90.38849,38.81844,145],[-90.38853,38.81843,145],[-90.38856,38.81841,146],[-90.3886,38.81839,147],[-90.38862,38.81837,148],[-90.38864,38.81834,149],[-90.38867,38.81831,150],[-90.3887,38.81829,150],[-90.38874,38.81828,150],[-90.38877,38.81826,150],[-90.3888,38.81825,150],[-90.38883,38.81823,151],[-90.38886,38.81821,151],[-90.38889,38.81819,151],[-90.38891,38.81816,152],[-90.38892,38.81813,153],[-90.38893,38.8181,154],[-90.38897,38.81811,152],[-90.389,38.81811,151],[-90.38904,38.8181,151],[-90.38908,38.81808,151],[-90.38912,38.81807,150],[-90.38915,38.81806,150],[-90.38919,38.81805,149],[-90.38923,38.81805,149],[-90.38926,38.81805,149],[-90.3893,38.81805,148],[-90.38934,38.81804,148],[-90.38937,38.81804,148],[-90.38942,38.81803,147],[-90.38945,38.81802,147],[-90.3895,38.81801,147],[-90.38953,38.81799,148],[-90.38956,38.81797,148],[-90.3896,38.81795,148],[-90.38963,38.81793,149],[-90.38967,38.81792,149],[-90.38971,38.8179,149],[-90.38974,38.81792,148],[-90.38978,38.81793,148],[-90.38982,38.81793,147],[-90.38985,38.81793,147],[-90.38988,38.81791,147],[-90.38992,38.81789,146],[-90.38995,38.81787,146],[-90.38997,38.81784,147],[-90.38999,38.81782,147],[-90.39002,38.8178,147],[-90.39005,38.81778,147],[-90.39008,38.81777,146],[-90.39012,38.81776,146],[-90.39016,38.81775,145],[-90.39019,38.81774,145],[-90.39023,38.81772,145],[-90.39027,38.81771,144],[-90.39031,38.8177,144],[-90.39035,38.81768,144],[-90.39039,38.81767,144],[-90.39042,38.81765,144],[-90.39045,38.81763,144],[-90.39049,38.81763,143],[-90.39052,38.81761,143],[-90.39056,38.8176,143],[-90.39057,38.81757,144],[-90.39057,38.81754,144],[-90.39057,38.81751,145],[-90.39053,38.81752,145],[-90.39053,38.81749,146],[-90.39055,38.81746,147],[-90.39054,38.81743,148],[-90.3905,38.81742,149],[-90.39045,38.81741,150],[-90.3904,38.81739,151],[-90.39037,38.81738,151],[-90.3904,38.81736,152],[-90.39043,38.81739,150],[-90.39044,38.81742,149],[-90.39047,38.81744,148],[-90.39049,38.81746,148],[-90.39053,38.81748,147],[-90.39056,38.81745,147],[-90.39059,38.81742,148],[-90.3906,38.81739,149],[-90.39061,38.81736,150],[-90.39063,38.81733,150],[-90.39059,38.81731,152],[-90.39056,38.81734,151],[-90.39053,38.81735,151],[-90.39051,38.81732,152],[-90.39054,38.8173,153],[-90.39057,38.8173,152],[-90.39053,38.81731,152],[-90.39049,38.81732,152],[-90.39046,38.81733,152],[-90.39047,38.81736,151],[-90.3905,38.81739,150],[-90.39054,38.81742,148],[-90.39058,38.81743,148],[-90.39061,38.81742,148],[-90.39062,38.81739,148],[-90.39064,38.81736,149],[-90.39068,38.81737,148],[-90.39072,38.81736,148],[-90.39075,38.81734,148],[-90.39079,38.81733,148],[-90.39078,38.81731,149],[-90.39074,38.8173,150],[-90.3907,38.8173,150],[-90.39066,38.8173,151],[-90.39061,38.81731,151],[-90.39057,38.81732,152],[-90.39053,38.81731,152],[-90.39055,38.81729,153],[-90.39058,38.81727,153],[-90.39062,38.81726,153],[-90.39059,38.81724,154],[-90.39057,38.81721,156],[-90.3906,38.8172,155],[-90.3906,38.81718,156],[-90.39059,38.81715,157],[-90.39058,38.81712,158],[-90.39061,38.8171,159],[-90.39063,38.81708,159],[-90.39062,38.81704,161],[-90.39059,38.81702,162],[-90.39056,38.817,163],[-90.39057,38.81698,163],[-90.39058,38.817,162],[-90.39058,38.81703,161],[-90.39057,38.81706,161],[-90.39057,38.81702,162],[-90.39056,38.81698,163],[-90.39055,38.81695,164],[-90.39053,38.81693,165],[-90.39054,38.81689,165],[-90.39058,38.81688,165],[-90.39061,38.81687,165],[-90.39065,38.81685,165],[-90.39068,38.81684,165],[-90.39073,38.81683,164],[-90.39077,38.81682,164],[-90.39075,38.81685,164],[-90.39078,38.81685,164],[-90.39081,38.81682,164],[-90.39083,38.81679,164],[-90.39083,38.81674,165],[-90.3908,38.81675,165],[-90.39084,38.81676,165],[-90.39085,38.81679,164],[-90.39088,38.8168,164],[-90.39091,38.81677,164],[-90.39094,38.81675,164],[-90.39096,38.81677,164],[-90.39099,38.81675,164],[-90.39101,38.81672,165],[-90.39103,38.8167,165],[-90.391,38.81672,165],[-90.39097,38.81672,165],[-90.39096,38.81675,164],[-90.39093,38.81673,165],[-90.39097,38.81673,165],[-90.391,38.81673,164],[-90.39103,38.81675,164],[-90.39107,38.81676,163],[-90.39106,38.81678,163],[-90.39105,38.81681,162],[-90.39108,38.81683,161],[-90.3911,38.81681,161],[-90.39112,38.81684,160],[-90.39115,38.81686,159],[-90.39118,38.81683,160],[-90.3912,38.81681,160],[-90.39124,38.81679,160],[-90.39127,38.81679,159],[-90.39129,38.81676,160],[-90.39131,38.81672,161],[-90.39135,38.8167,161],[-90.39138,38.81668,161],[-90.39141,38.81665,162],[-90.39143,38.81663,162],[-90.39146,38.81661,162],[-90.39149,38.81659,162],[-90.39153,38.81657,161],[-90.39152,38.81654,163],[-90.39152,38.81657,162],[-90.39146,38.81655,164],[-90.39142,38.81654,165],[-90.39138,38.81655,165],[-90.39137,38.81657,165],[-90.39138,38.8166,164],[-90.3914,38.81662,163],[-90.39144,38.81661,162],[-90.39145,38.81659,163],[-90.39141,38.81659,164],[-90.39145,38.81658,163],[-90.39148,38.81657,163],[-90.39144,38.81657,163],[-90.39146,38.81655,164],[-90.39149,38.81653,164],[-90.39145,38.81655,164]],[[-90.38831,38.81397,198],[-90.3883,38.81394,198],[-90.38827,38.81392,198],[-90.38823,38.81391,198],[-90.38819,38.8139,198],[-90.38815,38.8139,198],[-90.38811,38.8139,198],[-90.38806,38.81391,199],[-90.38801,38.81391,199],[-90.38797,38.81392,199],[-90.38793,38.81392,199],[-90.3879,38.81391,199],[-90.3879,38.81394,199],[-90.38788,38.81396,199],[-90.38785,38.81395,199],[-90.38781,38.81393,199],[-90.38777,38.81392,200],[-90.38774,38.81392,200],[-90.38769,38.81392,200],[-90.38765,38.81392,200],[-90.38763,38.8139,200],[-90.38759,38.81389,199],[-90.38754,38.81389,199],[-90.38751,38.81387,199],[-90.3875,38.81383,199],[-90.3875,38.8138,198],[-90.38752,38.81377,198],[-90.38754,38.81375,198],[-90.38756,38.81371,197],[-90.38758,38.81369,197],[-90.38755,38.81371,197],[-90.38756,38.81368,197],[-90.38757,38.81366,197],[-90.38759,38.81363,196],[-90.3876,38.8136,196],[-90.38759,38.81357,196],[-90.3876,38.81354,196],[-90.38761,38.8135,195],[-90.38762,38.81347,195],[-90.38762,38.81343,195],[-90.38762,38.81341,195],[-90.38762,38.81337,195],[-90.38761,38.81333,194],[-90.38762,38.8133,194],[-90.38764,38.81328,194],[-90.38768,38.81329,194],[-90.38772,38.8133,195],[-90.38775,38.81331,195],[-90.3878,38.81331,195],[-90.38783,38.81333,195],[-90.38787,38.81332,195],[-90.3879,38.81331,195],[-90.38794,38.8133,195],[-90.38795,38.81326,194],[-90.38795,38.81323,194],[-90.38797,38.81321,194],[-90.388,38.81319,193],[-90.388,38.81316,193],[-90.38803,38.81314,192],[-90.38805,38.81311,192],[-90.38805,38.81308,191],[-90.38806,38.81305,190],[-90.38806,38.81302,190],[-90.38807,38.81298,189],[-90.38807,38.81295,189],[-90.38807,38.81292,189],[-90.38808,38.81289,188],[-90.3881,38.81286,187],[-90.38809,38.81283,187],[-90.38809,38.8128,187],[-90.3881,38.81277,186],[-90.38813,38.81279,186],[-90.38816,38.81281,185],[-90.3882,38.8128,184],[-90.38823,38.81278,183],[-90.38826,38.81276,181],[-90.38827,38.81273,180],[-90.38832,38.81272,179],[-90.38832,38.81275,179],[-90.38831,38.81279,180],[-90.38831,38.81282,181],[-90.38833,38.81279,180],[-90.38835,38.81277,179],[-90.38839,38.81276,177],[-90.38836,38.81277,178],[-90.38838,38.81274,177],[-90.3884,38.81271,176],[-90.38843,38.81274,176],[-90.38847,38.81272,174],[-90.3885,38.81269,173],[-90.38853,38.81268,172],[-90.38857,38.81267,170],[-90.38859,38.81265,170],[-90.38856,38.81267,171],[-90.38857,38.81264,170],[-90.38859,38.81261,170],[-90.38861,38.81258,169],[-90.38863,38.81256,168],[-90.38864,38.81253,168],[-90.38866,38.8125,168],[-90.38868,38.81247,167],[-90.38864,38.81248,168],[-90.38861,38.81246,168],[-90.38863,38.81249,168],[-90.38866,38.81246,167],[-90.38866,38.81243,167],[-90.38863,38.81241,167],[-90.38864,38.81244,167],[-90.38867,38.81246,167],[-90.38863,38.81247,168],[-90.38866,38.81245,167],[-90.38865,38.81243,167],[-90.38864,38.8124,166],[-90.38865,38.81236,165],[-90.38867,38.81234,165],[-90.38869,38.81231,164],[-90.38872,38.81231,164],[-90.38876,38.81229,163],[-90.38878,38.81226,163],[-90.38881,38.81224,162],[-90.38884,38.81222,162],[-90.38885,38.81219,161],[-90.38885,38.81216,161],[-90.38884,38.81213,160],[-90.38883,38.8121,160],[-90.38882,38.81207,160],[-90.38878,38.81205,160],[-90.38874,38.81203,160],[-90.38872,38.81201,160],[-90.3887,38.81198,160],[-90.38869,38.81194,160],[-90.38868,38.81192,161],[-90.38864,38.8119,161],[-90.38861,38.81189,162],[-90.38858,38.81187,163],[-90.38859,38.81184,163],[-90.38861,38.81182,163],[-90.38865,38.81179,162],[-90.38867,38.81177,162],[-90.3887,38.81175,162],[-90.38872,38.81172,162],[-90.38875,38.8117,162],[-90.38877,38.81167,162],[-90.3888,38.81165,161],[-90.38883,38.81162,160],[-90.38885,38.8116,160],[-90.38885,38.81157,160],[-90.38888,38.81155,159],[-90.38891,38.81152,158],[-90.38889,38.81155,159],[-90.38886,38.81158,159],[-90.3889,38.81157,158],[-90.38894,38.81157,157],[-90.38896,38.81155,157],[-90.38899,38.81153,156],[-90.38901,38.8115,155],[-90.38905,38.81149,154],[-90.38908,38.81151,154],[-90.38911,38.8115,153],[-90.38913,38.81148,152],[-90.38917,38.81146,152],[-90.38921,38.81144,152],[-90.38923,38.81142,152],[-90.38926,38.8114,152],[-90.38929,38.81137,152],[-90.38933,38.81138,152],[-90.38936,38.81139,152],[-90.3894,38.81141,152],[-90.38944,38.81139,152],[-90.38946,38.81136,151],[-90.38948,38.81132,151],[-90.38949,38.8113,151],[-90.38952,38.81127,151],[-90.38955,38.81126,151],[-90.38957,38.81122,151],[-90.38959,38.81119,151],[-90.38961,38.81118,151],[-90.38965,38.81117,151],[-90.38969,38.81118,150],[-90.38974,38.81119,150],[-90.38978,38.81119,149],[-90.38981,38.8112,149],[-90.38986,38.81119,148],[-90.38989,38.81117,148],[-90.38993,38.81115,147],[-90.38996,38.81113,147],[-90.38999,38.81115,146],[-90.39003,38.81114,146],[-90.39007,38.81114,145],[-90.39011,38.81115,145],[-90.39014,38.81117,144],[-90.39019,38.81117,144],[-90.39023,38.81117,143],[-90.39027,38.81117,143],[-90.39031,38.81117,142],[-90.39035,38.81117,142],[-90.39038,38.81119,142],[-90.39042,38.8112,142],[-90.39046,38.81123,142],[-90.39049,38.81126,142],[-90.39053,38.81128,142],[-90.39057,38.81129,142],[-90.39061,38.81129,142],[-90.39065,38.81129,142],[-90.39069,38.81126,142],[-90.39071,38.81124,142],[-90.39075,38.81122,141],[-90.39077,38.8112,141],[-90.39082,38.81119,141],[-90.39085,38.8112,141],[-90.39082,38.81121,141],[-90.39078,38.81122,141],[-90.3908,38.81119,141],[-90.3908,38.81116,141],[-90.39082,38.8112,141],[-90.39084,38.81123,141],[-90.39086,38.81125,141],[-90.39088,38.81128,141],[-90.3909,38.8113,141],[-90.39092,38.81133,141],[-90.39095,38.81135,141],[-90.39099,38.81138,141],[-90.39101,38.81141,142],[-90.39104,38.81143,142],[-90.39106,38.81145,142],[-90.39108,38.81148,142],[-90.3911,38.81151,142],[-90.39113,38.81154,142],[-90.39113,38.81158,143],[-90.39111,38.81161,144],[-90.39107,38.81162,144],[-90.39104,38.81164,145],[-90.39099,38.81164,145],[-90.39096,38.81166,145],[-90.39092,38.81169,146],[-90.3909,38.81172,147],[-90.39088,38.81175,147],[-90.39086,38.81179,147],[-90.39085,38.81183,148],[-90.39086,38.81186,148],[-90.39087,38.81189,148],[-90.39087,38.81192,149],[-90.39088,38.81195,149],[-90.39089,38.81199,149],[-90.3909,38.81202,149],[-90.39094,38.81205,149],[-90.39095,38.81208,149],[-90.39093,38.81211,149],[-90.39092,38.81214,149],[-90.3909,38.81217,149],[-90.3909,38.8122,149],[-90.39089,38.81222,149],[-90.39088,38.81225,149],[-90.39088,38.81228,148],[-90.39088,38.81232,147],[-90.39089,38.81235,146],[-90.3909,38.81238,146],[-90.39091,38.81241,145],[-90.39094,38.81245,144],[-90.39095,38.81248,143],[-90.39093,38.81251,143],[-90.39094,38.81254,143],[-90.39096,38.81257,144],[-90.39097,38.8126,144],[-90.39097,38.81263,145],[-90.39098,38.81267,146],[-90.39098,38.8127,146],[-90.391,38.81272,147],[-90.39101,38.81276,148],[-90.39101,38.81279,148],[-90.39101,38.81282,149],[-90.39102,38.81285,149],[-90.39104,38.81288,150],[-90.39107,38.81289,150],[-90.3911,38.81291,150],[-90.39111,38.81294,151],[-90.3911,38.81297,151],[-90.39111,38.81301,152],[-90.39112,38.81303,153],[-90.39111,38.813,152],[-90.39106,38.81295,151],[-90.39109,38.81298,152],[-90.39112,38.813,152],[-90.39114,38.81302,152],[-90.39116,38.81305,153],[-90.39117,38.8131,153],[-90.39118,38.81314,153],[-90.39121,38.81316,152],[-90.39124,38.81318,152],[-90.39126,38.8132,152],[-90.39128,38.81323,152],[-90.3913,38.81326,152],[-90.39132,38.81328,151],[-90.39136,38.8133,151],[-90.39139,38.81332,150],[-90.39142,38.81335,150],[-90.39146,38.81337,149],[-90.39149,38.81339,149],[-90.39152,38.81341,148],[-90.39155,38.81344,147],[-90.39157,38.81347,146],[-90.39156,38.8135,146],[-90.39158,38.81352,146],[-90.39159,38.81356,145],[-90.3916,38.81359,144],[-90.39163,38.81362,144],[-90.39164,38.81365,144],[-90.39168,38.81368,144],[-90.3917,38.8137,144],[-90.39172,38.81373,144],[-90.39175,38.81376,143],[-90.39178,38.81379,143],[-90.39182,38.81381,142],[-90.39185,38.81383,141],[-90.39188,38.81384,140],[-90.39192,38.81386,139],[-90.39196,38.81389,137],[-90.39199,38.81391,138],[-90.39201,38.81394,139],[-90.39203,38.81397,140],[-90.39204,38.81399,142],[-90.39206,38.81403,143],[-90.39209,38.81406,145],[-90.39213,38.81407,145],[-90.39216,38.81408,145],[-90.39219,38.8141,146],[-90.39216,38.81409,146],[-90.3922,38.81409,146],[-90.39224,38.8141,146],[-90.39228,38.81409,146],[-90.39231,38.81407,145],[-90.39234,38.81404,143],[-90.39236,38.81401,142],[-90.39238,38.81399,141],[-90.3924,38.81395,139],[-90.39242,38.81392,138],[-90.39245,38.81389,137],[-90.39248,38.81386,137],[-90.39251,38.81384,138],[-90.39253,38.81382,138],[-90.39252,38.8138,138],[-90.39254,38.81378,138],[-90.39256,38.81375,138],[-90.39257,38.81372,138],[-90.3926,38.8137,138],[-90.39261,38.81366,138],[-90.39262,38.81363,138],[-90.39264,38.81359,138],[-90.39266,38.81356,137],[-90.39269,38.81354,137],[-90.39271,38.81351,137],[-90.39273,38.81348,136],[-90.39275,38.81346,136],[-90.39277,38.81343,136],[-90.39278,38.8134,135],[-90.39278,38.81337,135],[-90.39283,38.81336,134],[-90.39288,38.81335,134],[-90.3929,38.81333,134],[-90.39292,38.8133,133],[-90.39295,38.81327,133],[-90.39297,38.81325,133],[-90.393,38.81323,133],[-90.39302,38.8132,133],[-90.39306,38.81317,132],[-90.39309,38.81314,132],[-90.39312,38.81311,132],[-90.39314,38.81309,132],[-90.39318,38.81307,132],[-90.39321,38.81304,133],[-90.39324,38.81302,133],[-90.39326,38.813,133],[-90.39329,38.81298,133],[-90.39333,38.81297,133],[-90.39336,38.81295,133],[-90.39339,38.81293,133],[-90.39342,38.81292,133],[-90.39346,38.8129,133],[-90.39349,38.81287,133],[-90.39351,38.81285,133],[-90.39353,38.81283,133],[-90.39357,38.81281,133],[-90.3936,38.81279,133],[-90.39363,38.81277,134],[-90.39366,38.81275,134],[-90.39368,38.81273,134],[-90.39371,38.8127,134],[-90.39375,38.81268,134],[-90.39379,38.81266,135],[-90.39382,38.81264,135],[-90.39385,38.81262,135],[-90.39388,38.8126,135],[-90.39386,38.81258,136],[-90.3939,38.81256,136],[-90.39395,38.81256,136],[-90.39399,38.81254,136],[-90.39401,38.81252,136],[-90.39404,38.8125,137],[-90.39406,38.81248,137],[-90.3941,38.81246,137],[-90.39414,38.81243,137],[-90.39417,38.8124,137],[-90.39419,38.81238,137],[-90.39422,38.81235,137],[-90.39426,38.81233,137],[-90.39429,38.81231,137],[-90.39432,38.81229,137],[-90.39435,38.81227,137],[-90.39436,38.81224,137],[-90.39439,38.81222,138],[-90.39441,38.81219,138],[-90.39444,38.81216,138],[-90.39447,38.81213,137],[-90.3945,38.81211,137],[-90.39453,38.81208,137],[-90.39456,38.81206,137],[-90.39459,38.81203,137],[-90.39462,38.81201,137],[-90.39464,38.81199,137],[-90.39467,38.81196,137],[-90.3947,38.81194,137],[-90.39473,38.81192,136],[-90.39476,38.8119,136],[-90.3948,38.81188,135],[-90.39483,38.81187,135],[-90.39486,38.81185,135],[-90.39489,38.81184,134],[-90.39492,38.81181,134],[-90.39493,38.81178,134],[-90.39495,38.81176,133],[-90.39498,38.81173,133],[-90.39496,38.8117,133],[-90.395,38.81169,133],[-90.39504,38.81167,133],[-90.39507,38.81166,132],[-90.39508,38.81163,132],[-90.39505,38.8116,132],[-90.39501,38.81159,132],[-90.39505,38.8116,132],[-90.3951,38.8116,132],[-90.39513,38.81161,132],[-90.39514,38.81159,132],[-90.39511,38.81158,132],[-90.39507,38.81159,132],[-90.39508,38.81162,132],[-90.39508,38.81158,132],[-90.39511,38.81158,132],[-90.39508,38.81158,132],[-90.39512,38.81159,132],[-90.39515,38.81161,132],[-90.39519,38.81159,132],[-90.39522,38.81156,132],[-90.39528,38.81152,133],[-90.39531,38.8115,133],[-90.39535,38.81147,133],[-90.3954,38.81144,133],[-90.39544,38.81141,133],[-90.39549,38.81138,133],[-90.39554,38.81136,133],[-90.39558,38.81133,133],[-90.39562,38.8113,133],[-90.39565,38.81128,133],[-90.39566,38.81125,134],[-90.39566,38.81121,134],[-90.39565,38.81117,134],[-90.39558,38.81114,134],[-90.3955,38.81114,134],[-90.39542,38.81115,133],[-90.39533,38.81116,133],[-90.39522,38.81119,132],[-90.39511,38.81121,132],[-90.39497,38.81123,131],[-90.39484,38.81124,131],[-90.39471,38.81125,131],[-90.39459,38.81125,132],[-90.39445,38.81125,132],[-90.39431,38.81125,132],[-90.39417,38.81124,132],[-90.39402,38.81123,132],[-90.39388,38.81123,133],[-90.39372,38.81122,133],[-90.39357,38.81121,133],[-90.3934,38.8112,134],[-90.39324,38.8112,134],[-90.39307,38.81119,136],[-90.3929,38.81118,137],[-90.39273,38.81117,138],[-90.39256,38.81116,140],[-90.39239,38.81115,139],[-90.39223,38.81114,137],[-90.39207,38.81112,136],[-90.39189,38.81111,135],[-90.39172,38.8111,135],[-90.39157,38.81109,135],[-90.39144,38.81108,135],[-90.39132,38.81107,136],[-90.39121,38.81106,136],[-90.39113,38.81105,137],[-90.39105,38.81104,138],[-90.39099,38.81103,138],[-90.39095,38.81101,138],[-90.39091,38.81099,139],[-90.39088,38.81097,139],[-90.39085,38.81079,138],[-90.39083,38.81076,138],[-90.39082,38.81074,138],[-90.39078,38.81071,139],[-90.39074,38.8107,139],[-90.3907,38.81069,139],[-90.39074,38.81069,139],[-90.39077,38.81071,139],[-90.39079,38.81074,138],[-90.39081,38.81076,138],[-90.39084,38.81078,138],[-90.39087,38.8108,138],[-90.3909,38.81083,137],[-90.39092,38.81085,137],[-90.39093,38.81089,137],[-90.39094,38.81093,138],[-90.39093,38.81096,138],[-90.39089,38.811,139],[-90.39085,38.81101,139],[-90.39078,38.81101,140],[-90.3907,38.81101,140],[-90.39061,38.811,140],[-90.39049,38.81099,141],[-90.39037,38.81098,142],[-90.39023,38.81097,143],[-90.39008,38.81096,144],[-90.38993,38.81095,146],[-90.38978,38.81094,147],[-90.38962,38.81093,148],[-90.38944,38.81091,149],[-90.38927,38.8109,151],[-90.38909,38.81089,152],[-90.38892,38.81088,154],[-90.38875,38.81087,157],[-90.38857,38.81086,161],[-90.38839,38.81085,164],[-90.38823,38.81085,165],[-90.38805,38.81084,164],[-90.38788,38.81083,162],[-90.3877,38.81082,161],[-90.38753,38.81081,161],[-90.38737,38.8108,162],[-90.3872,38.81079,164],[-90.38703,38.81078,167],[-90.38687,38.81075,169],[-90.38672,38.81072,170],[-90.38657,38.81068,171],[-90.38642,38.81063,171],[-90.38629,38.81057,171],[-90.38617,38.8105,172],[-90.38604,38.81041,172],[-90.38591,38.81033,173],[-90.38578,38.81025,173],[-90.38566,38.81018,173],[-90.38554,38.81011,173],[-90.38544,38.81004,173],[-90.38534,38.80998,172],[-90.38523,38.80991,171],[-90.3851,38.80983,169],[-90.38497,38.80975,167],[-90.38482,38.80966,167],[-90.38468,38.80956,168],[-90.38454,38.80947,169],[-90.38439,38.80938,170],[-90.38425,38.80928,170],[-90.3841,38.80919,170],[-90.38396,38.8091,168],[-90.38382,38.80901,167],[-90.38365,38.80892,166],[-90.38348,38.80883,167],[-90.38332,38.80875,168],[-90.38316,38.80867,169],[-90.38299,38.80861,171],[-90.38282,38.80855,173],[-90.38265,38.8085,175],[-90.38249,38.80847,176],[-90.38233,38.80845,177],[-90.38214,38.80845,179],[-90.38197,38.80844,180],[-90.38165,38.80845,180],[-90.38148,38.80847,179],[-90.38133,38.8085,178],[-90.38116,38.80853,178],[-90.38101,38.80857,179],[-90.38089,38.80861,179],[-90.3808,38.80864,180],[-90.38072,38.80867,180],[-90.38066,38.80869,181],[-90.38062,38.80872,182],[-90.38056,38.80877,183],[-90.38049,38.8088,184],[-90.38041,38.80884,185],[-90.38031,38.80889,186],[-90.38021,38.80896,187],[-90.38011,38.80904,187],[-90.38,38.80913,187],[-90.3799,38.80922,187],[-90.37982,38.80932,186],[-90.37974,38.80943,186],[-90.37968,38.80954,185],[-90.37961,38.80965,185],[-90.37956,38.80976,184],[-90.37951,38.80989,183],[-90.37948,38.81002,183],[-90.37943,38.81013,183],[-90.3794,38.81026,183],[-90.37938,38.81039,184],[-90.37936,38.81051,184],[-90.37933,38.81064,185],[-90.37931,38.81078,186],[-90.37928,38.81092,186],[-90.37925,38.81107,187],[-90.37921,38.81122,188],[-90.37919,38.81136,190],[-90.37916,38.81152,193],[-90.37913,38.81168,197],[-90.3791,38.81183,197],[-90.37907,38.81199,197],[-90.37904,38.81215,197],[-90.37903,38.8123,196],[-90.379,38.81244,196],[-90.37897,38.81259,195],[-90.37895,38.81274,194],[-90.37893,38.81289,192],[-90.37889,38.81303,191],[-90.37884,38.81318,191],[-90.37878,38.81333,192],[-90.37871,38.81347,192],[-90.37863,38.81361,193],[-90.37852,38.81374,191],[-90.37842,38.81386,190],[-90.3783,38.81399,189],[-90.37819,38.81411,188],[-90.37806,38.81424,187],[-90.37795,38.81436,188],[-90.37783,38.81449,189],[-90.3777,38.81461,190],[-90.3776,38.81473,192],[-90.37748,38.81484,193],[-90.37734,38.81493,193],[-90.37719,38.81502,192],[-90.37704,38.8151,191],[-90.37687,38.81517,189],[-90.37668,38.81524,188],[-90.37651,38.81529,188],[-90.37632,38.81531,187],[-90.37613,38.81533,187],[-90.37593,38.81533,188],[-90.37573,38.81533,189],[-90.37554,38.81532,190],[-90.37536,38.81529,191],[-90.37519,38.81526,192],[-90.37502,38.81522,192],[-90.37486,38.81516,193],[-90.3747,38.8151,193],[-90.37454,38.81504,195],[-90.37438,38.81498,196],[-90.37421,38.81491,197],[-90.37404,38.81484,197],[-90.37387,38.81477,196],[-90.37371,38.81471,194],[-90.37354,38.81465,192],[-90.37338,38.8146,191],[-90.37321,38.81453,191],[-90.37304,38.81447,191],[-90.37287,38.8144,192],[-90.3727,38.81434,191],[-90.37255,38.81429,191],[-90.37241,38.81424,190],[-90.37226,38.81421,189],[-90.37209,38.81418,189],[-90.37192,38.81417,190],[-90.37176,38.81417,192],[-90.3716,38.81418,193],[-90.37144,38.8142,195],[-90.37129,38.81424,195],[-90.37115,38.81429,194],[-90.37101,38.81436,193],[-90.37089,38.81444,193],[-90.37075,38.81451,192],[-90.37063,38.81458,192],[-90.37051,38.81466,192],[-90.37038,38.81474,192],[-90.37021,38.8148,190],[-90.37006,38.81486,189],[-90.36988,38.81488,188],[-90.36971,38.8149,187],[-90.36955,38.81491,186],[-90.36941,38.81492,185],[-90.36929,38.81492,185],[-90.36919,38.81491,184],[-90.36911,38.81491,184],[-90.36906,38.8149,184],[-90.36904,38.81507,186],[-90.36909,38.81511,187],[-90.36915,38.81515,187],[-90.36922,38.8152,187],[-90.36928,38.81524,187],[-90.36936,38.81529,186],[-90.36944,38.81534,186],[-90.36952,38.81539,185],[-90.36958,38.81543,185],[-90.36964,38.81546,184],[-90.36966,38.81549,184],[-90.36968,38.81553,184],[-90.36963,38.81561,184],[-90.36961,38.81568,185],[-90.36957,38.81572,185],[-90.36952,38.81579,186],[-90.36946,38.81584,186],[-90.36941,38.81589,187],[-90.36937,38.81593,188],[-90.36932,38.81598,189],[-90.36928,38.81602,190],[-90.36924,38.81606,191],[-90.36921,38.8161,192],[-90.36917,38.81614,192],[-90.36913,38.81618,192],[-90.36904,38.81622,192],[-90.36899,38.81627,192],[-90.36895,38.81633,192],[-90.36891,38.81638,192],[-90.36886,38.81643,191],[-90.36882,38.81647,190],[-90.36878,38.81652,189],[-90.36874,38.81655,188],[-90.36872,38.81658,187],[-90.36869,38.81661,187],[-90.36867,38.81663,186],[-90.36864,38.81664,186],[-90.36861,38.81667,186],[-90.36858,38.81669,186],[-90.36858,38.81672,186],[-90.36859,38.81669,186],[-90.36862,38.8167,185],[-90.36865,38.8167,185],[-90.36869,38.81669,185],[-90.36871,38.81665,186],[-90.36873,38.81662,186],[-90.36877,38.81659,187],[-90.3688,38.81653,189],[-90.36882,38.8165,189],[-90.36885,38.81646,191],[-90.36887,38.81644,191],[-90.36889,38.81641,192],[-90.36892,38.81638,192],[-90.36895,38.81635,192],[-90.36897,38.81631,192],[-90.369,38.81628,192],[-90.36903,38.81625,192],[-90.36905,38.81623,192],[-90.36907,38.81621,192],[-90.3691,38.81616,192],[-90.36913,38.81614,192],[-90.36917,38.8161,192],[-90.36921,38.81607,192],[-90.36925,38.81605,191],[-90.36928,38.81603,190],[-90.36931,38.81601,190],[-90.36934,38.81598,189],[-90.36937,38.81595,188],[-90.3694,38.81592,188],[-90.36943,38.81589,187],[-90.36945,38.81587,187],[-90.36947,38.81584,186],[-90.3695,38.81581,186],[-90.36953,38.81579,186],[-90.36955,38.81576,186],[-90.36958,38.81573,185],[-90.3696,38.8157,185],[-90.36962,38.81567,185],[-90.36964,38.81564,185],[-90.36966,38.81561,184],[-90.3697,38.8156,184],[-90.36972,38.81557,184],[-90.36976,38.81557,184],[-90.36973,38.81556,184],[-90.36969,38.81554,184],[-90.36966,38.81551,184],[-90.36962,38.81547,184],[-90.36959,38.81544,185],[-90.36957,38.81541,185],[-90.36954,38.81538,185],[-90.3695,38.81536,185],[-90.36945,38.81533,185],[-90.3694,38.81529,186],[-90.36933,38.81525,186],[-90.36926,38.81521,187],[-90.3692,38.81517,187],[-90.36916,38.81512,186],[-90.36911,38.81508,186],[-90.36908,38.81506,186],[-90.36905,38.81504,186],[-90.36903,38.81503,186],[-90.36899,38.81502,186],[-90.36897,38.815,185],[-90.36894,38.81498,185],[-90.36892,38.81496,185],[-90.36898,38.81493,184],[-90.36911,38.81494,185],[-90.36943,38.81493,186],[-90.36954,38.81493,186],[-90.36964,38.81492,187],[-90.36975,38.81491,187],[-90.36987,38.81489,188],[-90.36999,38.81486,188],[-90.37011,38.81483,189],[-90.37023,38.81479,190],[-90.37034,38.81474,191],[-90.37045,38.81468,192],[-90.37058,38.81465,192],[-90.37068,38.81459,192],[-90.37078,38.81453,192],[-90.37088,38.81447,193],[-90.37098,38.81441,193],[-90.37109,38.81435,194],[-90.3712,38.81431,194],[-90.37132,38.81427,195],[-90.3714,38.81425,195],[-90.37148,38.81423,194],[-90.37153,38.81422,194],[-90.3716,38.81421,193],[-90.37167,38.8142,192],[-90.37175,38.81419,192],[-90.37185,38.81419,191],[-90.37196,38.81419,190],[-90.37207,38.81419,189],[-90.37217,38.81421,189],[-90.37226,38.81423,189],[-90.37237,38.81425,190],[-90.37248,38.81428,190],[-90.37258,38.81431,191],[-90.37268,38.81436,192],[-90.37279,38.81439,192],[-90.37289,38.81443,192],[-90.37299,38.81446,191],[-90.37309,38.8145,191],[-90.37319,38.81454,191],[-90.37329,38.81458,191],[-90.37339,38.81462,191],[-90.3735,38.81467,192],[-90.37361,38.81471,193],[-90.37374,38.81476,195],[-90.37387,38.8148,196],[-90.374,38.81485,197],[-90.37413,38.8149,197],[-90.37425,38.81496,197],[-90.37438,38.81501,196],[-90.3745,38.81505,195],[-90.37459,38.81509,194],[-90.37466,38.81512,194],[-90.37473,38.81514,193],[-90.37477,38.81516,193],[-90.37483,38.81517,193],[-90.37477,38.81518,193],[-90.37474,38.8152,194],[-90.37477,38.81518,193],[-90.37475,38.81514,193],[-90.37471,38.81512,193],[-90.37441,38.81496,196],[-90.37429,38.81492,196],[-90.37418,38.81489,197],[-90.37407,38.81485,197],[-90.37394,38.81479,196],[-90.37381,38.81474,195],[-90.37368,38.81469,193],[-90.37356,38.81464,192],[-90.37343,38.81459,191],[-90.3733,38.81454,191],[-90.37316,38.81449,191],[-90.37302,38.81443,191],[-90.37288,38.81437,192],[-90.37275,38.8143,191],[-90.37262,38.81427,191],[-90.3725,38.81424,190],[-90.37237,38.81421,189],[-90.37224,38.81418,189],[-90.37213,38.81416,189],[-90.37203,38.81415,189],[-90.37193,38.81415,190],[-90.37183,38.81415,191],[-90.37174,38.81415,192],[-90.37165,38.81416,193],[-90.37155,38.81417,194],[-90.37146,38.81419,195],[-90.37137,38.8142,195],[-90.37128,38.81423,195],[-90.37117,38.81426,194],[-90.37106,38.81431,194],[-90.37095,38.81437,193],[-90.37084,38.81443,193],[-90.37074,38.8145,192],[-90.37062,38.81457,192],[-90.37051,38.81464,192],[-90.37039,38.81471,192],[-90.37026,38.81476,191],[-90.37013,38.81481,189],[-90.36999,38.81485,188],[-90.36984,38.81488,187],[-90.36969,38.81489,187],[-90.36955,38.8149,186],[-90.36943,38.8149,185],[-90.36931,38.8149,185],[-90.3692,38.8149,184],[-90.36912,38.81489,184],[-90.36907,38.81489,184],[-90.36903,38.81488,184],[-90.36899,38.81487,183],[-90.36892,38.81487,183],[-90.36891,38.81494,184],[-90.36893,38.81499,185],[-90.36896,38.81502,186],[-90.369,38.81505,186],[-90.36903,38.81507,186],[-90.36908,38.81509,186],[-90.36912,38.81513,187],[-90.36918,38.81517,187],[-90.36926,38.8152,187],[-90.36932,38.81526,186],[-90.36938,38.8153,186],[-90.36945,38.81534,185],[-90.36952,38.81539,185],[-90.36958,38.81543,185],[-90.36964,38.81546,184],[-90.36969,38.81549,184],[-90.36973,38.81552,184],[-90.36977,38.81555,184],[-90.3698,38.81558,184],[-90.36983,38.8156,185],[-90.36987,38.81563,186],[-90.36989,38.81565,186],[-90.36992,38.81567,186],[-90.36995,38.81569,187],[-90.36993,38.81567,186],[-90.36989,38.81565,186],[-90.36986,38.81562,185],[-90.36983,38.8156,185],[-90.3698,38.81557,184],[-90.36976,38.81555,184],[-90.36962,38.81565,185],[-90.36966,38.81562,184],[-90.36967,38.81557,184],[-90.36967,38.81552,184],[-90.36966,38.81547,184],[-90.36962,38.81542,185],[-90.36955,38.81538,185],[-90.36949,38.81533,185],[-90.36942,38.81528,186],[-90.36934,38.81523,186],[-90.36927,38.81518,186],[-90.36918,38.81514,186],[-90.36911,38.8151,186],[-90.36905,38.81506,186],[-90.369,38.81502,186],[-90.36898,38.81499,185],[-90.36895,38.81497,185],[-90.36891,38.81494,184],[-90.36887,38.81491,184],[-90.36883,38.81487,183],[-90.36876,38.81482,181],[-90.36868,38.81476,179],[-90.36857,38.81471,177],[-90.36845,38.81464,176],[-90.36833,38.81458,176],[-90.36821,38.81451,176],[-90.3681,38.81444,177],[-90.36798,38.81438,179],[-90.3679,38.81433,181],[-90.36783,38.81429,182],[-90.36779,38.81427,182],[-90.36775,38.81424,183],[-90.3677,38.81421,183],[-90.36765,38.81418,184],[-90.36758,38.81414,185],[-90.3675,38.81408,186],[-90.3674,38.81403,187],[-90.36729,38.81396,187],[-90.36717,38.81389,188],[-90.36705,38.81382,188],[-90.36693,38.81375,188],[-90.36681,38.81368,188],[-90.3667,38.81362,188],[-90.36659,38.81354,186],[-90.36646,38.81347,185],[-90.36634,38.8134,184],[-90.36622,38.81333,182],[-90.36611,38.81325,182],[-90.36599,38.81318,181],[-90.36588,38.81313,180],[-90.36575,38.81304,180],[-90.36564,38.81298,180],[-90.36552,38.81291,180],[-90.36536,38.81281,180],[-90.36521,38.81272,181],[-90.36508,38.81264,182],[-90.36495,38.81255,183],[-90.36482,38.81247,183],[-90.36469,38.81239,183],[-90.36455,38.81231,181],[-90.36441,38.81222,179],[-90.36428,38.81213,179],[-90.36413,38.81205,178],[-90.36399,38.81196,178],[-90.36384,38.81187,179],[-90.36369,38.81178,181],[-90.36354,38.81169,181],[-90.36339,38.81159,179],[-90.36323,38.8115,177],[-90.36307,38.8114,176],[-90.36291,38.81131,176],[-90.36275,38.81122,175],[-90.36259,38.81112,174],[-90.36243,38.81102,172],[-90.36226,38.81092,169],[-90.3621,38.81082,167],[-90.36193,38.81072,167],[-90.36176,38.81062,169],[-90.36159,38.81052,170],[-90.36142,38.81042,170],[-90.36124,38.81031,170],[-90.36107,38.8102,171],[-90.36091,38.8101,172],[-90.36074,38.81,173],[-90.36058,38.8099,174],[-90.36042,38.8098,175],[-90.36026,38.80971,174],[-90.36011,38.80961,174],[-90.35996,38.80952,173],[-90.35981,38.80943,173],[-90.35966,38.80935,174],[-90.35953,38.80927,176],[-90.35942,38.8092,177],[-90.35932,38.80914,178],[-90.35924,38.80909,179],[-90.35918,38.80905,180],[-90.35913,38.80902,181],[-90.35908,38.80899,182],[-90.35903,38.80897,182],[-90.35898,38.80894,183],[-90.35892,38.80891,184],[-90.35886,38.80885,184],[-90.35878,38.80881,184],[-90.3587,38.80875,183],[-90.3586,38.80869,182],[-90.3585,38.80863,180],[-90.35838,38.80856,177],[-90.35825,38.80848,176],[-90.35813,38.80841,176],[-90.35799,38.80833,177],[-90.35786,38.80824,178],[-90.35773,38.80816,180],[-90.35759,38.80808,181],[-90.35745,38.80799,181],[-90.35731,38.80791,181],[-90.35717,38.80783,180],[-90.35703,38.80774,179],[-90.35689,38.80765,178],[-90.35674,38.80757,178],[-90.3566,38.80748,178],[-90.35645,38.8074,178],[-90.35631,38.80732,178],[-90.35616,38.80723,178],[-90.35603,38.80715,178],[-90.35591,38.80707,178],[-90.35578,38.80699,178],[-90.35565,38.80692,177],[-90.35553,38.80684,176],[-90.35541,38.80677,175],[-90.35529,38.8067,174],[-90.35518,38.80663,173],[-90.35508,38.80657,173],[-90.355,38.80652,173],[-90.35492,38.80647,173],[-90.35484,38.80642,173],[-90.35477,38.80638,173],[-90.35471,38.80634,173],[-90.35465,38.80631,173],[-90.35459,38.80628,174],[-90.35455,38.80626,174],[-90.35452,38.80623,174],[-90.35449,38.80621,174],[-90.35444,38.80619,174],[-90.35439,38.80615,174],[-90.35433,38.80612,174],[-90.35427,38.80608,174],[-90.35421,38.80605,173],[-90.35415,38.80601,173],[-90.35409,38.80598,172],[-90.35404,38.80595,172],[-90.35399,38.80592,171],[-90.35396,38.8059,171],[-90.35393,38.80588,170],[-90.35388,38.80585,170],[-90.35383,38.80582,169],[-90.3538,38.8058,169],[-90.35375,38.80577,169],[-90.3537,38.80574,169],[-90.35366,38.80571,169],[-90.3536,38.80568,169],[-90.35355,38.80565,169],[-90.35351,38.80562,170],[-90.35348,38.8056,170],[-90.35344,38.80558,170],[-90.35339,38.80555,170],[-90.35335,38.80552,170],[-90.35332,38.8055,170],[-90.35328,38.80549,171],[-90.35325,38.80547,171],[-90.35322,38.80545,171],[-90.35319,38.80543,171],[-90.35314,38.8054,171],[-90.35309,38.80537,171],[-90.35302,38.80533,171],[-90.35295,38.80528,171],[-90.35286,38.80523,171],[-90.35276,38.80517,170],[-90.35266,38.80511,170],[-90.35256,38.80504,170],[-90.35245,38.80498,169],[-90.35235,38.80492,168],[-90.35224,38.80485,167],[-90.35212,38.80478,165],[-90.352,38.8047,165],[-90.35187,38.80463,166],[-90.35175,38.80455,167],[-90.35163,38.80447,168],[-90.3515,38.8044,169],[-90.35138,38.80432,169],[-90.35126,38.80425,168],[-90.35114,38.80418,167],[-90.35102,38.8041,166],[-90.3509,38.80403,165],[-90.35078,38.80396,165],[-90.35065,38.80389,165],[-90.35053,38.80382,165],[-90.35041,38.80374,166],[-90.35028,38.80366,166],[-90.35016,38.80359,167],[-90.35003,38.80351,167],[-90.34991,38.80344,167],[-90.34979,38.80336,167],[-90.34966,38.80329,166],[-90.34954,38.80321,165],[-90.34942,38.80314,165],[-90.34929,38.80306,165],[-90.34917,38.80298,166],[-90.34905,38.80291,167],[-90.34892,38.80283,168],[-90.34879,38.80275,168],[-90.34866,38.80268,169],[-90.34853,38.8026,168],[-90.3484,38.80252,167],[-90.34827,38.80245,165],[-90.34814,38.80237,163],[-90.34801,38.80229,163],[-90.34788,38.80221,163],[-90.34775,38.80213,164],[-90.34761,38.80205,164],[-90.34748,38.80197,163],[-90.34734,38.80188,162],[-90.34721,38.8018,160],[-90.34707,38.80172,160],[-90.34693,38.80163,159],[-90.3468,38.80155,160],[-90.34666,38.80147,161],[-90.34654,38.8014,161],[-90.34641,38.80132,161],[-90.34629,38.80124,162],[-90.34616,38.80117,162],[-90.34604,38.80109,163],[-90.34591,38.80102,164],[-90.34579,38.80095,165],[-90.34566,38.80087,166],[-90.34553,38.80079,165],[-90.3454,38.80071,165],[-90.34527,38.80062,164],[-90.34514,38.80054,164],[-90.345,38.80046,164],[-90.34486,38.80038,164],[-90.34473,38.8003,164],[-90.34459,38.80021,164],[-90.34445,38.80013,163],[-90.34431,38.80005,162],[-90.34418,38.79996,162],[-90.34404,38.79988,162],[-90.34391,38.7998,162],[-90.34378,38.79972,162],[-90.34365,38.79964,163],[-90.34352,38.79956,163],[-90.34339,38.79949,163],[-90.34325,38.79941,163],[-90.34312,38.79933,163],[-90.34299,38.79925,163],[-90.34285,38.79917,163],[-90.34272,38.79909,162],[-90.34258,38.79901,162],[-90.34245,38.79893,162],[-90.34232,38.79885,162],[-90.34219,38.79877,163],[-90.34206,38.7987,163],[-90.34193,38.79862,163],[-90.3418,38.79854,163],[-90.34167,38.79845,162],[-90.34154,38.79837,161],[-90.34141,38.7983,160],[-90.34128,38.79822,159],[-90.34116,38.79814,159],[-90.34103,38.79807,160],[-90.34092,38.79799,161],[-90.3408,38.79791,162],[-90.34068,38.79784,163],[-90.34056,38.79777,163],[-90.34045,38.7977,162],[-90.34034,38.79764,162],[-90.34023,38.79757,161],[-90.34012,38.7975,161],[-90.34002,38.79744,161],[-90.33993,38.79738,160],[-90.33985,38.79732,159],[-90.33977,38.79727,158],[-90.33968,38.79723,157],[-90.3396,38.79719,157],[-90.33952,38.79714,156],[-90.33945,38.7971,156],[-90.33939,38.79706,156],[-90.33934,38.79703,156],[-90.33929,38.797,156],[-90.33926,38.79698,156],[-90.33922,38.79696,156],[-90.3392,38.79694,156],[-90.33915,38.79691,156],[-90.33911,38.79689,156],[-90.33906,38.79686,156],[-90.33899,38.79682,156],[-90.3389,38.79677,156],[-90.33882,38.79672,157],[-90.33872,38.79666,157],[-90.33862,38.7966,157],[-90.33851,38.79653,157],[-90.3384,38.79646,157],[-90.33828,38.79639,157],[-90.33816,38.79631,157],[-90.33805,38.79625,156],[-90.33794,38.79618,156],[-90.33785,38.79612,156],[-90.33778,38.79607,156],[-90.33771,38.79603,155],[-90.33766,38.796,155],[-90.33763,38.79597,155],[-90.33762,38.79594,155],[-90.3376,38.79592,155],[-90.33758,38.79594,155],[-90.33753,38.79591,155],[-90.33748,38.79588,155],[-90.33741,38.79584,154],[-90.33734,38.7958,154],[-90.33725,38.79574,154],[-90.33715,38.79567,154],[-90.33705,38.79559,154],[-90.33694,38.79551,153],[-90.33682,38.79542,153],[-90.33669,38.79532,153],[-90.33655,38.79523,154],[-90.33641,38.79516,156],[-90.33625,38.79508,159],[-90.33609,38.79501,161],[-90.33593,38.79495,161],[-90.33576,38.7949,160],[-90.33558,38.79485,159],[-90.33538,38.7948,157],[-90.33518,38.79476,155],[-90.33498,38.79473,152],[-90.33477,38.79469,150],[-90.33457,38.79465,151],[-90.33438,38.79461,153],[-90.33419,38.79457,155],[-90.33401,38.79451,156],[-90.33383,38.79445,156],[-90.33365,38.79437,156],[-90.33347,38.79429,155],[-90.3333,38.79421,155],[-90.33313,38.79412,156],[-90.33297,38.79404,157],[-90.33283,38.79398,158],[-90.33271,38.79392,159],[-90.33259,38.79386,159],[-90.33248,38.7938,159],[-90.33236,38.79374,159],[-90.33224,38.79368,159],[-90.33211,38.79362,160],[-90.332,38.79356,160],[-90.3319,38.79351,161],[-90.33182,38.79347,162],[-90.33175,38.79343,163],[-90.33169,38.7934,164],[-90.33163,38.79337,165],[-90.33157,38.79334,166],[-90.3315,38.79331,168],[-90.33142,38.79327,169],[-90.33134,38.79323,170],[-90.33127,38.79319,170],[-90.3312,38.79315,170],[-90.33114,38.79313,171],[-90.33109,38.7931,171],[-90.33104,38.79308,171],[-90.331,38.79306,171],[-90.33096,38.79304,171],[-90.33092,38.79302,171],[-90.33088,38.793,171],[-90.33084,38.79298,171],[-90.3308,38.79296,171],[-90.33076,38.79294,172],[-90.33073,38.79292,172],[-90.33068,38.7929,172],[-90.33061,38.79287,172],[-90.33054,38.79284,173],[-90.33045,38.79279,173],[-90.33035,38.79275,173],[-90.33025,38.7927,173],[-90.33014,38.79265,173],[-90.33003,38.79259,173],[-90.32993,38.79253,173],[-90.32981,38.79247,175],[-90.3297,38.79242,176],[-90.3296,38.79236,175],[-90.32949,38.79231,175],[-90.32939,38.79225,175],[-90.32928,38.7922,174],[-90.32916,38.79214,172],[-90.32905,38.79208,171],[-90.32893,38.79203,170],[-90.32882,38.79196,170],[-90.32869,38.7919,170],[-90.32858,38.79184,171],[-90.32846,38.79178,171],[-90.32833,38.79172,171],[-90.32821,38.79166,170],[-90.32809,38.7916,170],[-90.32797,38.79155,169],[-90.32787,38.7915,169],[-90.32778,38.79145,169],[-90.3277,38.79142,169],[-90.32764,38.79138,169],[-90.32759,38.79136,169],[-90.32755,38.79134,169],[-90.32752,38.79132,169],[-90.32749,38.79131,169],[-90.32745,38.79129,169],[-90.32741,38.79128,169],[-90.32737,38.79126,169],[-90.32732,38.79124,169],[-90.32728,38.79121,169],[-90.32723,38.79119,169],[-90.32719,38.79116,169],[-90.32714,38.79114,169],[-90.32708,38.79111,169],[-90.32701,38.79107,169],[-90.32692,38.79102,169],[-90.32682,38.79097,169],[-90.32672,38.79092,169],[-90.32661,38.79087,169],[-90.3265,38.79081,169],[-90.32639,38.79076,169],[-90.32627,38.7907,171],[-90.32615,38.79065,172],[-90.32603,38.79058,173],[-90.3259,38.79052,173],[-90.32577,38.79045,173],[-90.32563,38.79039,172],[-90.3255,38.79032,171],[-90.32536,38.79025,170],[-90.32523,38.79019,170],[-90.32509,38.79012,171],[-90.32496,38.79005,171],[-90.32483,38.78999,172],[-90.3247,38.78992,172],[-90.32457,38.78986,173],[-90.32444,38.7898,173],[-90.3243,38.78973,174],[-90.32418,38.78966,176],[-90.32405,38.78959,177],[-90.32393,38.78954,178],[-90.32382,38.78949,178],[-90.32372,38.78945,178],[-90.32365,38.78941,177],[-90.32358,38.78938,177],[-90.32353,38.78936,177],[-90.3235,38.78934,177],[-90.32346,38.78932,177],[-90.32344,38.7893,177],[-90.3234,38.78928,177],[-90.32336,38.78926,177],[-90.32331,38.78924,177],[-90.32326,38.78921,177],[-90.32319,38.78918,177],[-90.32312,38.78914,177],[-90.32304,38.7891,177],[-90.32295,38.78906,177],[-90.32287,38.78902,177],[-90.3228,38.78898,177],[-90.32272,38.78894,176],[-90.32264,38.7889,176],[-90.32256,38.78886,176],[-90.32249,38.78883,176],[-90.3224,38.78879,176],[-90.3223,38.78874,176],[-90.32219,38.78869,177],[-90.32207,38.78864,177],[-90.32196,38.78858,176],[-90.32183,38.78852,176],[-90.3217,38.78846,175],[-90.32157,38.78839,174],[-90.32143,38.78832,174],[-90.3213,38.78825,174],[-90.32117,38.78819,173],[-90.32105,38.78813,172],[-90.32093,38.78807,170],[-90.32081,38.78801,170],[-90.32069,38.78795,170],[-90.32058,38.7879,170],[-90.32047,38.78784,171],[-90.32035,38.78779,171],[-90.32023,38.78773,171],[-90.32011,38.78767,172],[-90.31999,38.78761,172],[-90.31988,38.78755,173],[-90.31977,38.78747,174],[-90.31967,38.78738,174],[-90.31958,38.78728,173],[-90.31951,38.78718,172],[-90.31945,38.78707,171],[-90.31939,38.78696,171],[-90.31933,38.78684,172],[-90.31927,38.78673,173],[-90.31921,38.78661,173],[-90.31914,38.78649,173],[-90.31908,38.78638,173],[-90.319,38.78626,172],[-90.31892,38.78615,172],[-90.31884,38.78604,171],[-90.31874,38.78593,171],[-90.31866,38.78582,170],[-90.31858,38.78572,169],[-90.31849,38.78561,169],[-90.3184,38.7855,168],[-90.31832,38.78539,168],[-90.31823,38.78529,167],[-90.31815,38.78519,167],[-90.31806,38.78509,167],[-90.31798,38.78498,166],[-90.3179,38.78489,165],[-90.31782,38.78479,165],[-90.31775,38.78469,166],[-90.31768,38.78461,166],[-90.31761,38.78452,166],[-90.31753,38.78443,166],[-90.31746,38.78435,166],[-90.3174,38.78426,166],[-90.31733,38.78418,167],[-90.31726,38.7841,167],[-90.31719,38.78402,168],[-90.31713,38.78394,168],[-90.31707,38.78387,168],[-90.31701,38.78379,168],[-90.31696,38.78372,168],[-90.31692,38.78366,168],[-90.31687,38.78361,168],[-90.31684,38.78356,167],[-90.31681,38.78352,167],[-90.31677,38.78348,166],[-90.31675,38.78344,166],[-90.31673,38.78342,166],[-90.3167,38.78338,166],[-90.31668,38.78335,166],[-90.31666,38.78333,165],[-90.31664,38.7833,165],[-90.31661,38.78327,165],[-90.31658,38.78324,165],[-90.31656,38.78321,165],[-90.31653,38.78316,165],[-90.31649,38.78311,164],[-90.31644,38.78306,164],[-90.31639,38.78299,164],[-90.31634,38.78293,164],[-90.31628,38.78285,165],[-90.31621,38.78277,165],[-90.31615,38.7827,167],[-90.31608,38.78262,168],[-90.31602,38.78254,170],[-90.31596,38.78246,172],[-90.31589,38.78238,174],[-90.31583,38.7823,175],[-90.31576,38.78222,176],[-90.31569,38.78213,177],[-90.31562,38.78204,177],[-90.31555,38.78195,177],[-90.31548,38.78186,176],[-90.31541,38.78177,175],[-90.31534,38.78168,175],[-90.31526,38.78159,175],[-90.31519,38.78149,175],[-90.31512,38.7814,175],[-90.31506,38.78132,175],[-90.31501,38.78125,176],[-90.31497,38.78119,176],[-90.31494,38.78116,176],[-90.31491,38.78113,176],[-90.3149,38.78111,176],[-90.31487,38.78107,176],[-90.31484,38.78103,175],[-90.31482,38.781,175],[-90.3148,38.78097,175],[-90.31477,38.78094,174],[-90.31475,38.78092,174],[-90.31472,38.78088,173],[-90.3147,38.78086,173],[-90.31468,38.78083,172],[-90.31466,38.78081,172],[-90.31462,38.78076,172],[-90.31458,38.7807,172],[-90.31452,38.78062,171],[-90.31445,38.78055,171],[-90.31438,38.78047,171],[-90.31431,38.78038,171],[-90.31423,38.78029,171],[-90.31416,38.78019,170],[-90.31409,38.7801,170],[-90.31401,38.78,171],[-90.31394,38.77991,172],[-90.31386,38.77982,174],[-90.31379,38.77972,177],[-90.31371,38.77962,179],[-90.31362,38.77952,181],[-90.31354,38.77943,181],[-90.31346,38.77933,181],[-90.31338,38.77923,180],[-90.3133,38.77913,180],[-90.31322,38.77903,180],[-90.31314,38.77892,180],[-90.31307,38.77882,181],[-90.31299,38.77872,185],[-90.31291,38.77862,187],[-90.31283,38.77852,189],[-90.31275,38.77842,190],[-90.31267,38.77832,191],[-90.31259,38.77823,190],[-90.31251,38.77813,189],[-90.31243,38.77804,188],[-90.31236,38.77794,186],[-90.31228,38.77785,184],[-90.31221,38.77776,183],[-90.31213,38.77766,183],[-90.31206,38.77757,183],[-90.31198,38.77748,184],[-90.31191,38.77739,186],[-90.31184,38.7773,187],[-90.31177,38.77721,188],[-90.31169,38.77712,188],[-90.31162,38.77703,188],[-90.31154,38.77694,187],[-90.31147,38.77685,186],[-90.31139,38.77675,186],[-90.31131,38.77666,186],[-90.31122,38.77656,185],[-90.31114,38.77646,184],[-90.31105,38.77636,183],[-90.31097,38.77627,182],[-90.31089,38.77617,181],[-90.31081,38.77608,181],[-90.31072,38.77598,181],[-90.31064,38.77589,182],[-90.31056,38.77579,183],[-90.31047,38.77569,184],[-90.31038,38.77559,184],[-90.31029,38.77548,184],[-90.3102,38.77538,184],[-90.31012,38.77528,184],[-90.31003,38.77519,185],[-90.30994,38.77509,186],[-90.30986,38.775,187],[-90.30978,38.77491,188],[-90.30971,38.77483,188],[-90.30964,38.77475,188],[-90.30957,38.77467,189],[-90.3095,38.77459,189],[-90.30942,38.77451,189],[-90.30934,38.77443,188],[-90.30926,38.77435,188],[-90.30918,38.77426,187],[-90.3091,38.77418,187],[-90.30903,38.77409,187],[-90.30896,38.77401,187],[-90.30889,38.77394,187],[-90.30883,38.77387,187],[-90.30878,38.7738,187],[-90.30873,38.77374,187],[-90.30869,38.7737,187],[-90.30866,38.77366,187],[-90.30863,38.77363,187],[-90.30861,38.7736,187],[-90.30858,38.77357,187],[-90.30855,38.77354,187],[-90.30853,38.7735,187],[-90.3085,38.77347,187],[-90.30847,38.77343,187],[-90.30844,38.7734,187],[-90.30842,38.77337,187],[-90.3084,38.77335,187],[-90.30836,38.77333,187],[-90.30833,38.7733,186],[-90.30828,38.77325,186],[-90.30824,38.77321,185],[-90.3082,38.77316,185],[-90.30815,38.77311,185],[-90.30809,38.77305,184],[-90.30803,38.77298,184],[-90.30795,38.7729,184],[-90.30788,38.77282,183],[-90.3078,38.77273,183],[-90.30772,38.77265,183],[-90.30766,38.77257,183],[-90.30761,38.77251,182],[-90.30756,38.77246,182],[-90.30752,38.77242,183],[-90.30749,38.77238,183],[-90.30746,38.77235,183],[-90.30743,38.77231,184],[-90.3074,38.77227,184],[-90.30735,38.77223,184],[-90.3073,38.77217,185],[-90.30724,38.7721,185],[-90.30718,38.77203,186],[-90.30711,38.77197,186],[-90.30704,38.7719,187],[-90.30698,38.77183,187],[-90.30692,38.77176,187],[-90.30688,38.77169,187],[-90.30682,38.77162,187],[-90.30676,38.77156,188],[-90.3067,38.7715,188],[-90.30664,38.77144,188],[-90.30659,38.77139,188],[-90.30654,38.77133,189],[-90.30649,38.77128,190],[-90.30644,38.77124,191],[-90.30638,38.77119,192],[-90.30632,38.77113,194],[-90.30626,38.77107,195],[-90.3062,38.77101,195],[-90.30615,38.77094,195],[-90.30609,38.77087,195],[-90.30602,38.77081,195],[-90.30595,38.77073,195],[-90.30588,38.77065,195],[-90.30581,38.77056,195],[-90.30573,38.77048,194],[-90.30566,38.77039,193],[-90.30558,38.77032,193],[-90.30551,38.77023,193],[-90.30543,38.77014,193],[-90.30535,38.77005,194],[-90.30527,38.76995,195],[-90.30519,38.76986,197],[-90.3051,38.76976,199],[-90.30502,38.76966,199],[-90.30493,38.76957,199],[-90.30484,38.76948,199],[-90.30475,38.76938,201],[-90.30467,38.76928,202],[-90.30458,38.76918,203],[-90.3045,38.76909,202],[-90.30441,38.76899,202],[-90.30432,38.76889,201],[-90.30423,38.7688,202],[-90.30414,38.7687,203],[-90.30406,38.76861,204],[-90.30398,38.76852,204],[-90.3039,38.76843,205],[-90.30382,38.76835,205],[-90.30375,38.76827,204],[-90.30368,38.7682,204],[-90.30361,38.76812,204],[-90.30354,38.76805,204],[-90.30347,38.76798,204],[-90.30341,38.76792,203],[-90.30335,38.76786,203],[-90.3033,38.7678,203],[-90.30325,38.76776,204],[-90.30321,38.76772,204],[-90.30318,38.76769,204],[-90.30315,38.76765,204],[-90.30312,38.76762,205],[-90.30309,38.76759,205],[-90.30307,38.76757,205],[-90.30305,38.76754,205],[-90.30301,38.76751,205],[-90.30298,38.76748,205],[-90.30295,38.76745,205],[-90.30291,38.76741,204],[-90.30286,38.76736,204],[-90.3028,38.76731,204],[-90.30273,38.76724,203],[-90.30266,38.76717,202],[-90.30258,38.76709,202],[-90.3025,38.76701,202],[-90.30241,38.76693,202],[-90.30233,38.76684,203],[-90.30224,38.76675,205],[-90.30216,38.76666,206],[-90.30208,38.76657,206],[-90.302,38.76648,206],[-90.30193,38.76639,206],[-90.30186,38.7663,205],[-90.3018,38.7662,204],[-90.30173,38.76611,203],[-90.30166,38.76601,202],[-90.30159,38.76591,201],[-90.30152,38.76582,200],[-90.30145,38.76572,200],[-90.30139,38.76563,200],[-90.30132,38.76552,199],[-90.30126,38.76543,199],[-90.3012,38.76532,199],[-90.30113,38.76523,200],[-90.30107,38.76513,200],[-90.301,38.76502,199],[-90.30094,38.76492,198],[-90.30088,38.76481,197],[-90.30082,38.76471,195],[-90.30076,38.76461,194],[-90.30069,38.7645,194],[-90.30062,38.7644,194],[-90.30054,38.76429,194],[-90.30047,38.76419,194],[-90.30039,38.76409,194],[-90.30032,38.76399,195],[-90.30023,38.76389,196],[-90.30015,38.7638,196],[-90.30007,38.7637,196],[-90.29998,38.76361,197],[-90.2999,38.76352,197],[-90.29981,38.76343,197],[-90.29973,38.76334,197],[-90.29964,38.76325,199],[-90.29955,38.76316,200],[-90.29945,38.76306,200],[-90.29936,38.76297,200],[-90.29928,38.76287,200],[-90.29921,38.76277,199],[-90.29914,38.76266,198],[-90.29907,38.76256,197],[-90.299,38.76245,196],[-90.29893,38.76235,195],[-90.29887,38.76224,194],[-90.29882,38.76212,194],[-90.29877,38.76202,194],[-90.29873,38.76191,194],[-90.29872,38.7618,193],[-90.29872,38.76169,193],[-90.29872,38.76157,192],[-90.29874,38.76147,190],[-90.2988,38.76137,189],[-90.29884,38.76126,189],[-90.2989,38.76116,189],[-90.29895,38.76105,189],[-90.29901,38.76094,189],[-90.29907,38.76083,189],[-90.29912,38.76071,188],[-90.29918,38.7606,188],[-90.29923,38.76048,189],[-90.29928,38.76037,190],[-90.29933,38.76025,191],[-90.29937,38.76013,192],[-90.29942,38.76002,192],[-90.29946,38.75991,193],[-90.2995,38.75979,193],[-90.29953,38.75968,194],[-90.29955,38.75956,194],[-90.29955,38.75944,194],[-90.29955,38.75932,194],[-90.29954,38.75921,194],[-90.29952,38.75909,194],[-90.29949,38.75898,193],[-90.29946,38.75886,192],[-90.29943,38.75875,191],[-90.29939,38.75864,190],[-90.29936,38.75853,190],[-90.29932,38.75842,191],[-90.29929,38.75831,192],[-90.29926,38.7582,195],[-90.29922,38.7581,198],[-90.29919,38.75799,201],[-90.29917,38.7579,202],[-90.29914,38.75779,204],[-90.29911,38.75769,203],[-90.29908,38.75758,202],[-90.29905,38.75747,201],[-90.29902,38.75737,201],[-90.299,38.75728,201],[-90.29899,38.75719,201],[-90.29897,38.75711,200],[-90.29897,38.75703,199],[-90.29897,38.75696,199],[-90.29897,38.7569,198],[-90.29897,38.75686,197],[-90.29898,38.75683,196],[-90.29902,38.7568,196],[-90.29911,38.75681,196],[-90.29918,38.75681,195],[-90.29925,38.75681,195],[-90.29934,38.75681,194],[-90.29945,38.75681,193],[-90.29954,38.75681,193],[-90.29965,38.75681,191],[-90.29976,38.7568,190],[-90.29987,38.75679,189],[-90.29997,38.75678,188],[-90.30007,38.75676,188],[-90.30015,38.75674,187],[-90.30021,38.75672,187],[-90.30025,38.7567,187],[-90.3003,38.75669,187],[-90.30033,38.75679,188],[-90.30035,38.75682,188],[-90.30036,38.75685,188],[-90.30036,38.75689,188],[-90.30037,38.75692,188],[-90.30038,38.75696,188],[-90.30039,38.75699,188],[-90.30041,38.75702,188],[-90.30043,38.757,188],[-90.30049,38.75694,187],[-90.30049,38.7569,187],[-90.30047,38.75686,187],[-90.30045,38.75683,187],[-90.30043,38.75679,187],[-90.3004,38.75676,187],[-90.30039,38.75673,187],[-90.30037,38.7567,187],[-90.30037,38.75666,186],[-90.30037,38.75663,186],[-90.30038,38.75659,186],[-90.30042,38.75657,186],[-90.30048,38.75655,187],[-90.30055,38.75653,187],[-90.30063,38.75652,187],[-90.30069,38.75652,187],[-90.30075,38.75651,187],[-90.3008,38.75651,188],[-90.30085,38.75652,188],[-90.30088,38.75653,188],[-90.30093,38.75655,188],[-90.30104,38.75666,188],[-90.30105,38.75671,188],[-90.30105,38.75675,188],[-90.30106,38.75679,189],[-90.30106,38.75682,189],[-90.30105,38.75685,189],[-90.30105,38.75688,189],[-90.30105,38.75691,189],[-90.30105,38.75697,189],[-90.30105,38.757,189],[-90.30105,38.75704,189],[-90.30106,38.75709,189],[-90.30106,38.75714,189],[-90.30106,38.7572,189],[-90.30106,38.75725,189],[-90.30106,38.7573,188],[-90.30106,38.75735,188],[-90.30105,38.7574,187],[-90.30105,38.75744,187],[-90.30104,38.75748,187],[-90.30103,38.75752,186],[-90.30103,38.75755,186],[-90.30103,38.75758,186],[-90.30103,38.75763,186],[-90.30103,38.75766,186],[-90.30103,38.75763,186],[-90.30103,38.75758,186],[-90.30103,38.75755,186],[-90.30103,38.75752,186],[-90.30104,38.75748,187],[-90.30105,38.75743,187],[-90.30106,38.75739,188],[-90.30107,38.75735,188],[-90.30108,38.7573,188],[-90.30108,38.75725,189],[-90.30108,38.7572,189],[-90.30109,38.75715,189],[-90.30109,38.75709,189],[-90.30108,38.75704,189],[-90.30108,38.757,189],[-90.30108,38.75696,189],[-90.30107,38.75692,189],[-90.30105,38.75689,189],[-90.30104,38.75686,189],[-90.30102,38.75683,188],[-90.30099,38.75679,188],[-90.30097,38.75675,188],[-90.30095,38.7567,187],[-90.30094,38.75666,187],[-90.30093,38.75661,187],[-90.30092,38.75658,188],[-90.30092,38.75655,188],[-90.3009,38.75652,188],[-90.30087,38.7565,188],[-90.30083,38.75648,188],[-90.30076,38.75648,188],[-90.30068,38.75648,187],[-90.30059,38.75649,187],[-90.30049,38.75651,187],[-90.3004,38.75655,186],[-90.3003,38.75659,186],[-90.30021,38.75663,186],[-90.30011,38.75668,186],[-90.3,38.75671,186],[-90.29988,38.75674,188],[-90.29977,38.75675,189],[-90.29967,38.75675,190],[-90.29955,38.75676,191],[-90.29944,38.75676,193],[-90.29934,38.75676,193],[-90.29925,38.75676,194],[-90.29918,38.75676,194],[-90.29913,38.75676,195],[-90.2991,38.75676,195],[-90.29906,38.75677,195],[-90.29899,38.75678,195],[-90.29895,38.75679,196],[-90.29891,38.75691,198],[-90.2989,38.75698,199],[-90.29891,38.75707,199],[-90.29891,38.75714,200],[-90.29893,38.75723,201],[-90.29895,38.75731,201],[-90.29897,38.75739,201],[-90.29899,38.75747,201],[-90.29901,38.75753,201],[-90.29902,38.75757,202],[-90.29902,38.75762,202],[-90.29902,38.75766,202],[-90.29901,38.7577,203],[-90.2989,38.75773,202],[-90.2988,38.75775,202],[-90.29869,38.75776,201],[-90.2986,38.75778,200],[-90.29849,38.7578,199],[-90.29839,38.75782,197],[-90.29829,38.75784,196],[-90.29818,38.75785,195],[-90.29809,38.75786,194],[-90.29798,38.75785,193],[-90.29789,38.75785,193],[-90.2978,38.75784,192],[-90.29771,38.75781,191],[-90.29761,38.75779,190],[-90.29751,38.75776,189],[-90.29741,38.75774,188],[-90.2973,38.75771,188],[-90.2972,38.75769,188],[-90.2971,38.75767,189],[-90.297,38.75764,189],[-90.29691,38.75762,189],[-90.29682,38.7576,189],[-90.29674,38.75757,189],[-90.29667,38.75753,189],[-90.2966,38.75749,188],[-90.29654,38.75743,187],[-90.29649,38.75737,187],[-90.29645,38.7573,187],[-90.29641,38.75724,187],[-90.29636,38.75717,187],[-90.29632,38.7571,188],[-90.29627,38.75703,188],[-90.29622,38.75697,188],[-90.29616,38.75691,188],[-90.29609,38.75686,187],[-90.29602,38.75681,187],[-90.29595,38.75675,187],[-90.29588,38.7567,187],[-90.29582,38.75665,186],[-90.29575,38.7566,185],[-90.29569,38.75655,185],[-90.29563,38.7565,184],[-90.29556,38.75645,184],[-90.29549,38.7564,184],[-90.29542,38.75634,184],[-90.29535,38.75629,183],[-90.29528,38.75623,183],[-90.29521,38.75617,183],[-90.29515,38.75611,183],[-90.29508,38.75605,184],[-90.29502,38.75599,184],[-90.29495,38.75593,183],[-90.2949,38.75587,182],[-90.29485,38.75581,180],[-90.29481,38.75576,179],[-90.29478,38.75571,178],[-90.29474,38.75567,177],[-90.29471,38.75564,177],[-90.29468,38.7556,176],[-90.29466,38.75558,176],[-90.29464,38.75553,176],[-90.29463,38.7555,176],[-90.29464,38.75553,176],[-90.29442,38.75561,176],[-90.2944,38.75563,176],[-90.29441,38.75558,176],[-90.29443,38.75555,176],[-90.2944,38.75558,176],[-90.29434,38.7556,176],[-90.2943,38.75561,175],[-90.29428,38.75559,175],[-90.29424,38.75559,175],[-90.29428,38.75557,175],[-90.29432,38.75557,176],[-90.29435,38.75558,176],[-90.29438,38.75561,176],[-90.29438,38.75564,176],[-90.29437,38.75567,176],[-90.29437,38.7557,176],[-90.29437,38.75563,176],[-90.29435,38.75561,176],[-90.29431,38.7556,176],[-90.29435,38.75561,176],[-90.29437,38.75565,176],[-90.29441,38.75568,176],[-90.29438,38.75568,176],[-90.29429,38.75562,175],[-90.29423,38.75554,175],[-90.29427,38.75556,175],[-90.29425,38.7556,175],[-90.29426,38.75564,175],[-90.2943,38.75564,175],[-90.2943,38.75561,175],[-90.29431,38.75558,176],[-90.29434,38.7556,176],[-90.2943,38.75558,175],[-90.2943,38.75561,175],[-90.29427,38.7556,175],[-90.29431,38.7556,176],[-90.29427,38.7556,175],[-90.29431,38.7556,176],[-90.29427,38.7556,175],[-90.29425,38.75557,175],[-90.29426,38.75554,175],[-90.29429,38.75556,175],[-90.29425,38.75556,175],[-90.29429,38.75557,175],[-90.29427,38.75559,175],[-90.29425,38.75556,175],[-90.29424,38.75559,175],[-90.29428,38.7556,175],[-90.29425,38.75558,175],[-90.29422,38.75557,175],[-90.29424,38.75559,175],[-90.29428,38.75559,175],[-90.29424,38.75558,175],[-90.29428,38.75557,175],[-90.2943,38.75559,175],[-90.29432,38.75561,176],[-90.29429,38.75561,175],[-90.29431,38.75559,176],[-90.29429,38.75557,175],[-90.29431,38.75555,176],[-90.29431,38.75552,176],[-90.29428,38.75552,175],[-90.29426,38.75555,175],[-90.29427,38.75558,175],[-90.2943,38.75556,175],[-90.29427,38.75558,175],[-90.29429,38.75561,175],[-90.29431,38.75563,176],[-90.29435,38.75562,176],[-90.29431,38.7556,176],[-90.2943,38.75558,175],[-90.29427,38.75557,175],[-90.29425,38.75559,175],[-90.29429,38.75558,175],[-90.29431,38.75561,176],[-90.29428,38.75559,175],[-90.29431,38.75559,176],[-90.29434,38.75561,176],[-90.29432,38.75558,176],[-90.29428,38.75559,175],[-90.29431,38.75557,176],[-90.29433,38.75555,176],[-90.2943,38.75557,175],[-90.29429,38.75559,175],[-90.29433,38.7556,176],[-90.29429,38.7556,175],[-90.29431,38.75558,176],[-90.29431,38.75555,176],[-90.29429,38.75558,175],[-90.29427,38.7556,175],[-90.29425,38.75559,175],[-90.29428,38.7556,175],[-90.29429,38.75562,175],[-90.29428,38.7556,175],[-90.29428,38.75557,175],[-90.29428,38.7556,175],[-90.29431,38.75561,176],[-90.29433,38.75564,176],[-90.2943,38.75561,175],[-90.2943,38.75558,175],[-90.29427,38.75556,175],[-90.29425,38.75559,175],[-90.29426,38.75563,175],[-90.29427,38.75566,175],[-90.29427,38.75569,175],[-90.29424,38.7557,175],[-90.29427,38.7557,175],[-90.29426,38.75567,175],[-90.29428,38.75565,175],[-90.29431,38.75563,176],[-90.29429,38.7556,175],[-90.29432,38.75563,176],[-90.29432,38.7556,176],[-90.29432,38.75558,176],[-90.2943,38.75556,175],[-90.29426,38.75558,175],[-90.29424,38.75556,175],[-90.29424,38.75553,175],[-90.29428,38.75555,175],[-90.29431,38.75558,176],[-90.29433,38.7556,176],[-90.29429,38.75561,175],[-90.29427,38.75559,175],[-90.29428,38.75561,175],[-90.29427,38.75556,175],[-90.29426,38.75561,175],[-90.29428,38.75563,175],[-90.29426,38.75559,175],[-90.29432,38.75558,176],[-90.29436,38.75559,176],[-90.29432,38.75559,176],[-90.29435,38.75557,176],[-90.29435,38.75555,176],[-90.29436,38.75559,176],[-90.29437,38.75562,176],[-90.2944,38.7556,176],[-90.2944,38.75557,176],[-90.29436,38.75558,176],[-90.29434,38.75556,176],[-90.29436,38.75558,176],[-90.29439,38.75559,176],[-90.29436,38.7556,176],[-90.29432,38.75558,176],[-90.29433,38.75561,176],[-90.29429,38.75561,175],[-90.29432,38.7556,176],[-90.29434,38.75557,176],[-90.2943,38.75558,175],[-90.29433,38.7556,176],[-90.29437,38.7556,176],[-90.29433,38.75559,176],[-90.29436,38.75558,176],[-90.29433,38.75559,176],[-90.29433,38.75556,176],[-90.29434,38.75553,176],[-90.29437,38.75555,176],[-90.29435,38.75557,176],[-90.29431,38.75557,176],[-90.29432,38.7556,176],[-90.29432,38.75563,176],[-90.29433,38.7556,176],[-90.29435,38.75562,176],[-90.29435,38.75559,176],[-90.29437,38.75557,176],[-90.29439,38.7556,176],[-90.29435,38.75561,176],[-90.29434,38.75558,176],[-90.29431,38.75558,176],[-90.29434,38.75558,176],[-90.29435,38.75561,176],[-90.29433,38.75559,176],[-90.29436,38.75561,176],[-90.29432,38.7556,176],[-90.29435,38.75562,176],[-90.29436,38.75559,176],[-90.29435,38.75556,176],[-90.29435,38.7556,176],[-90.29431,38.7556,176],[-90.29433,38.75558,176],[-90.29437,38.75559,176],[-90.29433,38.75558,176],[-90.29429,38.7556,175],[-90.29433,38.7556,176],[-90.29437,38.75561,176],[-90.29434,38.7556,176],[-90.29433,38.75557,176],[-90.29436,38.75559,176],[-90.29432,38.7556,176],[-90.2943,38.75557,175],[-90.29434,38.75558,176],[-90.29435,38.75561,176],[-90.29436,38.75558,176],[-90.29433,38.75557,176],[-90.2943,38.75559,175],[-90.29433,38.7556,176],[-90.29438,38.75559,176],[-90.29435,38.75558,176],[-90.29432,38.75559,176],[-90.29433,38.75562,176],[-90.29431,38.75559,176],[-90.29432,38.75557,176],[-90.29433,38.7556,176],[-90.29435,38.75557,176],[-90.29435,38.7556,176],[-90.29437,38.75558,176],[-90.29433,38.75557,176],[-90.29433,38.75559,176],[-90.29436,38.75558,176],[-90.29439,38.7556,176],[-90.29436,38.75558,176],[-90.29439,38.75556,176],[-90.29436,38.75558,176],[-90.2944,38.75558,176],[-90.29458,38.75565,177],[-90.29431,38.75563,176],[-90.29427,38.75561,175],[-90.29427,38.75558,175],[-90.2943,38.7556,175],[-90.29433,38.75563,176],[-90.29434,38.75565,176],[-90.29431,38.75563,176],[-90.29435,38.75562,176],[-90.29432,38.75563,176],[-90.29429,38.75564,175],[-90.2943,38.75561,175],[-90.29426,38.75562,175],[-90.29427,38.75565,175],[-90.2943,38.75563,175],[-90.29433,38.75564,176],[-90.29436,38.75566,176],[-90.29436,38.75561,176],[-90.29435,38.75556,176],[-90.29442,38.75541,176],[-90.29423,38.75564,175],[-90.29431,38.75564,176],[-90.29436,38.75561,176],[-90.29439,38.75558,176],[-90.29429,38.75555,175],[-90.29428,38.75562,175],[-90.29433,38.75561,176],[-90.29437,38.7556,176],[-90.29435,38.75558,176],[-90.29432,38.7556,176],[-90.29429,38.75564,175],[-90.29434,38.75565,176],[-90.29437,38.75566,176],[-90.29436,38.75563,176],[-90.29433,38.75561,176],[-90.2943,38.7556,175],[-90.29433,38.75562,176],[-90.29436,38.75565,176],[-90.29433,38.75562,176],[-90.29429,38.75561,175],[-90.29426,38.75559,175],[-90.29429,38.75561,175],[-90.29432,38.75563,176],[-90.29435,38.75565,176],[-90.29432,38.75566,176],[-90.29432,38.75563,176],[-90.29434,38.75566,176],[-90.29437,38.75565,176],[-90.29434,38.75564,176],[-90.29436,38.75563,176],[-90.29433,38.75562,176],[-90.29434,38.75564,176],[-90.29435,38.75567,176],[-90.29435,38.75564,176],[-90.29437,38.75561,176],[-90.29438,38.75564,176],[-90.29434,38.75564,176],[-90.29436,38.75567,176],[-90.2944,38.75565,176],[-90.29436,38.75565,176],[-90.29438,38.75562,176],[-90.29434,38.75562,176],[-90.29437,38.75564,176],[-90.29433,38.75563,176],[-90.29431,38.75565,176],[-90.29434,38.75565,176],[-90.29437,38.75564,176],[-90.29433,38.75564,176],[-90.29435,38.75566,176],[-90.29432,38.75566,176],[-90.29432,38.75563,176],[-90.29428,38.75563,175],[-90.29431,38.75561,176],[-90.29428,38.75558,175],[-90.29426,38.75556,175],[-90.29428,38.75559,175],[-90.29424,38.7556,175],[-90.29427,38.7556,175],[-90.2943,38.75562,175],[-90.29429,38.75559,175]]],
        "bbox": [
          -90.29422,
          38.81976,
          -90.39566,
          38.75541
        ]
      },
      "properties": {
        "name": "11.11.2021"
      }
    }
  ]
}