{
  "type": "FeatureCollection",
  "features": [
    {
      "type": "Feature",
      "geometry": {
        "type": "MultiLineString",
        "coordinates": [[[-90.3946,38.81201,137],[-90.39456,38.81203,137],[-90.39453,38.81205,137],[-90.3945,38.81208,137],[-90.39447,38.8121,137],[-90.39446,38.81213,137],[-90.39443,38.81215,138],[-90.3944,38.81217,138],[-90.39436,38.8122,138],[-90.39434,38.81222,138],[-90.39432,38.81224,137],[-90.39429,38.81227,137],[-90.39426,38.81229,137],[-90.39424,38.81232,137],[-90.39421,38.81234,137],[-90.39419,38.81236,137],[-90.39416,38.81239,137],[-90.39413,38.81241,137],[-90.3941,38.81243,137],[-90.39408,38.81246,137],[-90.39405,38.81247,137],[-90.39402,38.81249,137],[-90.394,38.81251,136],[-90.39397,38.81254,136],[-90.39394,38.81256,136],[-90.39391,38.81257,136],[-90.39388,38.81259,135],[-90.39385,38.81261,135],[-90.39381,38.81263,135],[-90.39378,38.81265,135],[-90.39375,38.81267,134],[-90.39373,38.8127,134],[-90.3937,38.81271,134],[-90.39367,38.81274,134],[-90.39364,38.81275,134],[-90.39363,38.81278,133],[-90.39361,38.81281,133],[-90.39358,38.81282,133],[-90.39353,38.81282,133],[-90.3935,38.8128,134],[-90.39347,38.81278,134],[-90.39347,38.81275,134],[-90.39343,38.81275,134],[-90.39339,38.81277,134],[-90.39335,38.81279,134],[-90.39333,38.81281,134],[-90.3933,38.81284,134],[-90.39327,38.81286,134],[-90.39324,38.81287,134],[-90.39319,38.81285,134],[-90.39317,38.81283,134],[-90.39315,38.8128,134],[-90.39312,38.81277,134],[-90.3931,38.81275,134],[-90.39308,38.81272,134],[-90.39306,38.8127,134],[-90.39304,38.81267,134],[-90.39301,38.81265,134],[-90.39298,38.81264,134],[-90.39294,38.81262,134],[-90.39291,38.81261,134],[-90.39289,38.81259,134],[-90.39286,38.81256,134],[-90.39282,38.81254,134],[-90.39279,38.81253,134],[-90.39276,38.81251,134],[-90.39274,38.81249,134],[-90.39272,38.81246,134],[-90.39269,38.81244,134],[-90.39267,38.81241,134],[-90.39264,38.81238,134],[-90.39261,38.81235,134],[-90.39257,38.81233,134],[-90.39254,38.81231,135],[-90.39251,38.8123,135],[-90.39248,38.81227,135],[-90.39246,38.81226,135],[-90.39242,38.81224,135],[-90.39238,38.81224,135],[-90.39235,38.81223,135],[-90.39233,38.81221,135],[-90.39231,38.81218,135],[-90.39227,38.81217,135],[-90.39224,38.81216,135],[-90.39219,38.81215,136],[-90.39215,38.81214,136],[-90.39213,38.81212,136],[-90.3921,38.8121,136],[-90.39206,38.81209,137],[-90.39203,38.81207,137],[-90.39199,38.81206,137],[-90.39195,38.81206,138],[-90.39191,38.81207,138],[-90.39188,38.81209,138],[-90.39185,38.8121,138],[-90.39182,38.81212,138],[-90.3918,38.81214,138],[-90.3918,38.81217,138],[-90.39179,38.81221,137],[-90.39178,38.81224,137],[-90.39178,38.81227,137],[-90.39177,38.8123,136],[-90.39175,38.81232,136],[-90.39172,38.81235,136],[-90.3917,38.81237,136],[-90.39169,38.8124,136],[-90.39169,38.81243,135],[-90.39166,38.81245,135],[-90.39163,38.81247,135],[-90.39161,38.81249,135],[-90.39159,38.81252,135],[-90.39158,38.81255,136],[-90.39157,38.81258,136],[-90.39154,38.8126,137],[-90.39151,38.81262,137],[-90.39148,38.81264,138],[-90.39146,38.81266,139],[-90.39145,38.81269,140],[-90.39144,38.81272,140],[-90.39145,38.81275,141],[-90.39147,38.81278,141],[-90.3915,38.8128,141],[-90.39154,38.81283,141],[-90.39157,38.81284,141],[-90.3916,38.81285,141],[-90.39164,38.81286,140],[-90.39168,38.81288,140],[-90.39172,38.8129,139],[-90.39175,38.81292,139],[-90.39179,38.81293,139],[-90.39183,38.81292,138],[-90.39187,38.81292,138],[-90.39192,38.81294,137],[-90.39196,38.81295,137],[-90.39199,38.81296,137],[-90.39202,38.81299,137],[-90.39203,38.81302,137],[-90.39205,38.81305,138],[-90.39206,38.81308,138],[-90.39207,38.8131,138],[-90.39209,38.81313,138],[-90.39213,38.81314,138],[-90.39216,38.81316,138],[-90.3922,38.81317,138],[-90.39223,38.81319,137],[-90.39226,38.81321,137],[-90.39228,38.81324,137],[-90.3923,38.81326,137],[-90.39233,38.81328,137],[-90.39236,38.81329,137],[-90.39239,38.81331,137],[-90.39242,38.81333,137],[-90.39244,38.81335,137],[-90.39248,38.81337,137],[-90.39251,38.81339,137],[-90.39254,38.81341,137],[-90.39258,38.81343,137],[-90.39261,38.81344,137],[-90.39265,38.81345,137],[-90.39267,38.81347,137],[-90.39268,38.8135,137],[-90.39266,38.81353,137],[-90.39264,38.81355,137],[-90.39261,38.81358,138],[-90.39258,38.8136,138],[-90.39256,38.81362,138],[-90.39255,38.81365,138],[-90.39253,38.81368,138],[-90.39252,38.8137,138],[-90.39251,38.81374,138],[-90.3925,38.81377,138],[-90.39249,38.8138,138],[-90.39247,38.81383,137],[-90.39245,38.81386,137],[-90.39241,38.81389,136],[-90.39239,38.81391,137],[-90.39238,38.81394,138],[-90.39238,38.81397,140],[-90.39237,38.814,141],[-90.39235,38.81402,142],[-90.39232,38.81405,143],[-90.39231,38.81407,145],[-90.39228,38.81409,146],[-90.39224,38.81409,146],[-90.3922,38.81408,145],[-90.39217,38.81405,143],[-90.39215,38.81403,142],[-90.39212,38.81401,142],[-90.3921,38.81398,140],[-90.39206,38.81397,140],[-90.39203,38.81395,139],[-90.392,38.81392,138],[-90.39198,38.81391,138],[-90.39195,38.81388,137],[-90.39192,38.81386,139],[-90.39189,38.81384,140],[-90.39186,38.81383,141],[-90.39183,38.81381,142],[-90.3918,38.8138,142],[-90.39178,38.81377,143],[-90.39176,38.81374,143],[-90.39174,38.81372,143],[-90.39172,38.81369,143],[-90.39171,38.81366,143],[-90.3917,38.81364,143],[-90.39167,38.81362,143],[-90.39166,38.81359,143],[-90.39165,38.81356,144],[-90.39165,38.81352,144],[-90.39166,38.8135,144],[-90.39167,38.81347,145],[-90.39165,38.81344,145],[-90.39163,38.81341,146],[-90.39161,38.81338,147],[-90.39158,38.81336,147],[-90.39155,38.81334,148],[-90.39151,38.81333,149],[-90.39148,38.81332,149],[-90.39144,38.81331,150],[-90.39141,38.8133,150],[-90.39138,38.81328,150],[-90.39135,38.81326,151],[-90.39134,38.81323,151],[-90.39134,38.8132,151],[-90.39133,38.81317,151],[-90.39129,38.81315,151],[-90.39126,38.81313,152],[-90.39126,38.8131,152],[-90.39122,38.81312,152],[-90.39119,38.81309,152],[-90.39118,38.81307,153],[-90.39117,38.81303,152],[-90.39117,38.813,151],[-90.39115,38.81297,151],[-90.39114,38.81294,150],[-90.39112,38.81291,150],[-90.39109,38.81288,149],[-90.39108,38.81285,149],[-90.39109,38.81282,148],[-90.39111,38.8128,147],[-90.3911,38.81276,146],[-90.39108,38.81274,146],[-90.39107,38.81271,146],[-90.39106,38.81268,145],[-90.39104,38.81265,145],[-90.39104,38.81262,144],[-90.39104,38.8126,144],[-90.39102,38.81257,143],[-90.39102,38.81253,142],[-90.39101,38.81249,142],[-90.391,38.81247,143],[-90.39099,38.81244,143],[-90.39098,38.81241,144],[-90.39096,38.81238,145],[-90.39093,38.81235,146],[-90.39091,38.81233,147],[-90.39091,38.8123,147],[-90.39092,38.81227,148],[-90.39092,38.81224,149],[-90.39091,38.81221,149],[-90.3909,38.81218,149],[-90.39087,38.81216,149],[-90.39085,38.81213,149],[-90.39085,38.8121,149],[-90.39085,38.81207,149],[-90.39089,38.81206,149],[-90.39092,38.81204,149],[-90.39091,38.81201,149],[-90.39091,38.81198,149],[-90.39092,38.81195,149],[-90.39094,38.81192,149],[-90.39095,38.81189,149],[-90.39096,38.81186,149],[-90.39096,38.81183,148],[-90.39096,38.81179,147],[-90.39096,38.81177,147],[-90.39097,38.81173,147],[-90.39097,38.81171,146],[-90.39099,38.81168,146],[-90.39102,38.81167,145],[-90.39105,38.81165,145],[-90.39108,38.81163,144],[-90.39111,38.81162,144],[-90.39113,38.81159,143],[-90.39114,38.81156,143],[-90.39113,38.81153,142],[-90.39111,38.8115,142],[-90.39108,38.81148,142],[-90.39106,38.81145,142],[-90.39104,38.81143,142],[-90.39101,38.8114,141],[-90.39098,38.81138,141],[-90.39095,38.81137,141],[-90.39092,38.81135,142],[-90.3909,38.81132,141],[-90.39091,38.81129,141],[-90.3909,38.81126,141],[-90.39087,38.81124,141],[-90.39084,38.81122,141],[-90.39082,38.81119,141],[-90.3908,38.81116,141],[-90.39079,38.81113,141],[-90.39079,38.8111,141],[-90.39081,38.81107,140],[-90.39082,38.81104,140],[-90.39083,38.81101,139],[-90.39083,38.81097,139],[-90.39084,38.81094,139],[-90.39083,38.81091,138],[-90.39082,38.81089,138],[-90.39079,38.81087,138],[-90.39075,38.81085,138],[-90.39072,38.81084,138],[-90.39069,38.81083,139],[-90.39065,38.81081,139],[-90.39061,38.8108,139],[-90.39057,38.81079,139],[-90.39053,38.81078,139],[-90.3905,38.81077,140],[-90.39046,38.81076,140],[-90.39042,38.81076,140],[-90.39038,38.81076,140],[-90.39033,38.81077,141],[-90.3903,38.81077,141],[-90.39026,38.81078,141],[-90.39022,38.81078,141],[-90.39018,38.81078,142],[-90.39014,38.81076,142],[-90.3901,38.81075,142],[-90.39006,38.81074,142],[-90.39002,38.81074,142],[-90.38998,38.81074,142],[-90.38994,38.81074,143],[-90.3899,38.81073,143],[-90.38986,38.81073,143],[-90.38983,38.81072,143],[-90.38979,38.81071,144],[-90.38975,38.8107,144],[-90.38972,38.81071,144],[-90.38968,38.8107,144],[-90.38963,38.8107,145],[-90.38959,38.8107,145],[-90.38955,38.8107,145],[-90.38952,38.81071,145],[-90.38948,38.8107,145],[-90.38945,38.81069,145],[-90.38942,38.81066,145],[-90.38941,38.81064,145],[-90.38938,38.81062,144],[-90.38935,38.8106,144],[-90.38934,38.81057,144],[-90.38932,38.81055,143],[-90.3893,38.81052,143],[-90.38928,38.8105,143],[-90.38924,38.81048,144],[-90.38922,38.81045,143],[-90.38922,38.81042,143],[-90.38922,38.81039,143],[-90.38921,38.81036,143],[-90.38921,38.81033,143],[-90.38919,38.81031,143],[-90.38919,38.81028,142],[-90.38919,38.81025,143],[-90.3892,38.81022,143],[-90.3892,38.81019,143],[-90.3892,38.81016,143],[-90.3892,38.81013,143],[-90.38919,38.8101,143],[-90.38918,38.81007,143],[-90.38916,38.81005,143],[-90.38915,38.81002,144],[-90.38915,38.80999,144],[-90.38915,38.80996,144],[-90.38912,38.80993,144],[-90.38911,38.80991,145],[-90.3891,38.80988,145],[-90.3891,38.80985,145],[-90.38908,38.80982,145],[-90.38906,38.8098,145],[-90.38905,38.80977,145],[-90.38904,38.80974,145],[-90.38902,38.80972,145],[-90.38898,38.8097,145],[-90.38895,38.80968,145],[-90.38892,38.80965,145],[-90.3889,38.80963,145],[-90.38889,38.8096,145],[-90.38886,38.80958,145],[-90.38884,38.80955,145],[-90.38881,38.80952,145],[-90.38879,38.80949,145],[-90.38877,38.80947,145],[-90.38876,38.80944,145],[-90.38874,38.80942,145],[-90.38872,38.80939,145],[-90.38871,38.80936,144],[-90.38869,38.80933,144],[-90.38868,38.8093,143],[-90.38866,38.80927,143],[-90.38865,38.80925,143],[-90.38864,38.80922,142],[-90.38862,38.80919,142],[-90.38861,38.80915,141],[-90.3886,38.80913,142],[-90.38859,38.8091,142],[-90.38859,38.80906,142],[-90.3886,38.80904,141],[-90.3886,38.80901,141],[-90.3886,38.80898,141],[-90.3886,38.80894,141],[-90.38859,38.80892,141],[-90.38857,38.80889,141],[-90.38855,38.80886,142],[-90.38855,38.80883,142],[-90.38854,38.8088,142],[-90.38855,38.80877,142],[-90.38854,38.80874,142],[-90.38852,38.80871,142],[-90.38851,38.80868,143],[-90.38851,38.80865,143],[-90.38851,38.80861,143],[-90.3885,38.80858,143],[-90.38849,38.80855,143],[-90.38849,38.80852,143],[-90.3885,38.80849,143],[-90.38851,38.80846,142],[-90.38851,38.80843,142],[-90.38849,38.8084,142],[-90.38848,38.80838,142],[-90.38846,38.80835,143],[-90.38846,38.80832,143],[-90.38846,38.80829,142],[-90.38845,38.80826,142],[-90.38845,38.80823,142],[-90.38846,38.8082,142],[-90.38847,38.80818,141],[-90.38847,38.80814,141],[-90.38847,38.80811,141],[-90.38846,38.80809,141],[-90.38846,38.80806,141],[-90.38845,38.80803,141],[-90.38844,38.808,141],[-90.38844,38.80797,141],[-90.38842,38.80794,142],[-90.38841,38.80791,142],[-90.38841,38.80788,142],[-90.3884,38.80785,142],[-90.3884,38.80782,142],[-90.38838,38.8078,143],[-90.38836,38.80777,143],[-90.38834,38.80774,143],[-90.38833,38.80771,143],[-90.38831,38.80768,143],[-90.38828,38.80766,144],[-90.38827,38.80763,144],[-90.38826,38.8076,144],[-90.38825,38.80757,144],[-90.38826,38.80753,143],[-90.38826,38.8075,143],[-90.38827,38.80747,143],[-90.38828,38.80744,142],[-90.38827,38.80741,143],[-90.38826,38.80738,143],[-90.38826,38.80735,142],[-90.38825,38.80732,142],[-90.38825,38.80729,142],[-90.38824,38.80726,142],[-90.38823,38.80724,142],[-90.3882,38.80721,143],[-90.38819,38.80718,143],[-90.3882,38.80715,142],[-90.38821,38.80712,141],[-90.38821,38.80709,141],[-90.3882,38.80706,141],[-90.38818,38.80703,141],[-90.38816,38.807,141],[-90.38814,38.80698,141],[-90.38813,38.80695,141],[-90.38812,38.80693,141],[-90.38811,38.80689,141],[-90.3881,38.80686,141],[-90.38809,38.80683,141],[-90.38809,38.80679,141],[-90.38809,38.80676,140],[-90.38809,38.80673,140],[-90.38807,38.8067,140],[-90.38807,38.80667,140],[-90.38806,38.80664,140],[-90.38806,38.80661,141],[-90.38806,38.80658,141],[-90.38806,38.80655,141],[-90.38806,38.80651,141],[-90.38805,38.80648,141],[-90.38805,38.80645,142],[-90.38803,38.80642,142],[-90.38803,38.80639,142],[-90.38802,38.80636,142],[-90.38802,38.80633,142],[-90.38802,38.8063,142],[-90.38803,38.80627,142],[-90.38803,38.80624,142],[-90.38801,38.80621,143],[-90.38799,38.80618,143],[-90.38798,38.80615,144],[-90.38797,38.80612,144],[-90.38796,38.80609,144],[-90.38795,38.80606,145],[-90.38795,38.80603,145],[-90.38794,38.806,145],[-90.38794,38.80596,145],[-90.38795,38.80594,144],[-90.38795,38.80591,144],[-90.38794,38.80588,144],[-90.38794,38.80584,144],[-90.38795,38.80588,144],[-90.38796,38.80591,144],[-90.38796,38.80594,144],[-90.38796,38.80597,144],[-90.38796,38.806,144],[-90.38796,38.80603,144],[-90.38796,38.80606,144],[-90.38796,38.80609,144],[-90.38795,38.80612,145],[-90.38795,38.80615,145],[-90.38795,38.80618,145],[-90.38795,38.80621,145],[-90.38795,38.80624,145],[-90.38795,38.80627,145],[-90.38796,38.80631,144],[-90.38798,38.80634,144],[-90.388,38.80636,143],[-90.38801,38.80639,143],[-90.38801,38.80642,143],[-90.38801,38.80645,143],[-90.38802,38.80648,142],[-90.38802,38.80652,142],[-90.38802,38.80655,142],[-90.38802,38.80658,142],[-90.38803,38.8066,142],[-90.38805,38.80664,141],[-90.38806,38.80667,140],[-90.38806,38.8067,141],[-90.38806,38.80673,141],[-90.38807,38.80676,141],[-90.38808,38.80679,141],[-90.3881,38.80682,141],[-90.3881,38.80685,141],[-90.3881,38.80689,141],[-90.38809,38.80691,141],[-90.3881,38.80695,142],[-90.3881,38.80697,142],[-90.38811,38.807,142],[-90.38812,38.80703,142],[-90.38814,38.80706,142],[-90.38815,38.80708,142],[-90.38816,38.80711,142],[-90.38818,38.80714,142],[-90.3882,38.80717,142],[-90.3882,38.8072,143],[-90.3882,38.80723,143],[-90.38821,38.80726,143],[-90.38822,38.80729,143],[-90.38822,38.80732,143],[-90.38822,38.80735,143],[-90.38823,38.80739,143],[-90.38823,38.80742,143],[-90.38823,38.80745,143],[-90.38824,38.80749,144],[-90.38824,38.80751,144],[-90.38824,38.80754,144],[-90.38826,38.80758,144],[-90.38827,38.8076,143],[-90.38829,38.80763,143],[-90.38831,38.80766,143],[-90.38831,38.80769,143],[-90.38832,38.80773,143],[-90.38833,38.80776,143],[-90.38834,38.80779,143],[-90.38834,38.80782,143],[-90.38836,38.80784,143],[-90.38838,38.80787,142],[-90.38839,38.8079,142],[-90.38839,38.80794,142],[-90.38839,38.80797,142],[-90.3884,38.80799,142],[-90.3884,38.80802,142],[-90.38843,38.80805,141],[-90.38844,38.80808,141],[-90.38844,38.8081,141],[-90.38845,38.80813,141],[-90.38846,38.80816,141],[-90.38846,38.80819,142],[-90.38847,38.80823,142],[-90.38846,38.80826,142],[-90.38845,38.80829,143],[-90.38843,38.80831,143],[-90.38841,38.80834,144],[-90.38841,38.80837,144],[-90.38842,38.8084,144],[-90.38842,38.80843,144],[-90.38842,38.80846,144],[-90.38843,38.80848,144],[-90.38844,38.80852,144],[-90.38845,38.80855,144],[-90.38846,38.80857,144],[-90.38848,38.8086,143],[-90.3885,38.80863,143],[-90.38852,38.80865,142],[-90.38854,38.80868,142],[-90.38855,38.80872,142],[-90.38855,38.80875,142],[-90.38855,38.80878,142],[-90.38855,38.80882,142],[-90.38857,38.80885,141],[-90.3886,38.80887,141],[-90.38863,38.80889,140],[-90.38865,38.80892,140],[-90.38865,38.80895,140],[-90.38865,38.80897,141],[-90.38865,38.80901,141],[-90.38865,38.80904,141],[-90.38865,38.80906,141],[-90.38866,38.80909,141],[-90.38868,38.80912,141],[-90.38869,38.80915,141],[-90.3887,38.80918,141],[-90.38871,38.80921,142],[-90.38873,38.80923,142],[-90.38877,38.80925,142],[-90.3888,38.80927,142],[-90.3888,38.8093,143],[-90.38881,38.80933,143],[-90.38884,38.80936,143],[-90.38886,38.80939,143],[-90.38887,38.80941,143],[-90.38889,38.80944,143],[-90.3889,38.80947,144],[-90.38891,38.8095,144],[-90.38893,38.80953,144],[-90.38894,38.80955,144],[-90.38896,38.80957,144],[-90.38898,38.8096,144],[-90.389,38.80964,145],[-90.38902,38.80967,145],[-90.38904,38.80969,145],[-90.38906,38.80972,145],[-90.38908,38.80974,145],[-90.3891,38.80977,144],[-90.38911,38.8098,144],[-90.38913,38.80984,144],[-90.38914,38.80987,144],[-90.38916,38.8099,144],[-90.38917,38.80993,143],[-90.38917,38.80996,143],[-90.38918,38.80999,143],[-90.38919,38.81002,143],[-90.38919,38.81005,143],[-90.38919,38.81008,143],[-90.3892,38.81011,143],[-90.3892,38.81014,143],[-90.3892,38.81017,143],[-90.38921,38.8102,143],[-90.38921,38.81023,143],[-90.38922,38.81026,142],[-90.38921,38.8103,142],[-90.38921,38.81033,143],[-90.3892,38.81037,143],[-90.38921,38.8104,143],[-90.38923,38.81043,143],[-90.38925,38.81045,143],[-90.38928,38.81048,143],[-90.3893,38.8105,143],[-90.38933,38.81053,143],[-90.38936,38.81055,143],[-90.38939,38.81057,143],[-90.38941,38.81059,143],[-90.38944,38.81061,144],[-90.38947,38.81063,144],[-90.3895,38.81064,144],[-90.38954,38.81066,144],[-90.38957,38.81069,145],[-90.3896,38.8107,145],[-90.38965,38.81071,145],[-90.38969,38.81072,145],[-90.38973,38.81072,144],[-90.38977,38.81073,144],[-90.38981,38.81074,144],[-90.38985,38.81075,144],[-90.38989,38.81076,144],[-90.38992,38.81077,143],[-90.38996,38.81078,143],[-90.39,38.81078,143],[-90.39004,38.81079,143],[-90.39007,38.81078,142],[-90.39011,38.81078,142],[-90.39014,38.81077,142],[-90.39018,38.81077,141],[-90.39022,38.81078,141],[-90.39026,38.81079,141],[-90.39029,38.81078,141],[-90.39033,38.81078,141],[-90.39037,38.8108,141],[-90.3904,38.81082,141],[-90.39045,38.81081,140],[-90.39049,38.8108,140],[-90.39053,38.81079,139],[-90.39057,38.81079,139],[-90.3906,38.8108,139],[-90.39063,38.81082,139],[-90.39065,38.81085,139],[-90.39066,38.81088,139],[-90.3907,38.8109,139],[-90.39074,38.81091,139],[-90.39078,38.81092,139],[-90.39081,38.81094,139],[-90.39084,38.81097,139],[-90.39085,38.81099,139],[-90.39084,38.81102,139],[-90.39081,38.81105,140],[-90.39081,38.81108,140],[-90.3908,38.81112,141],[-90.3908,38.81114,141],[-90.3908,38.81118,141],[-90.3908,38.81121,141],[-90.3908,38.81125,142],[-90.39077,38.81127,142],[-90.39073,38.81129,142],[-90.39068,38.81129,142],[-90.39064,38.81129,142],[-90.3906,38.81128,142],[-90.39056,38.81129,142],[-90.39052,38.81129,142],[-90.39048,38.81128,142],[-90.39045,38.81126,142],[-90.39042,38.81124,142],[-90.39039,38.81122,142],[-90.39036,38.8112,142],[-90.39033,38.81118,142],[-90.3903,38.81116,142],[-90.39026,38.81115,143],[-90.39022,38.81116,143],[-90.39017,38.81115,144],[-90.39013,38.81115,144],[-90.39009,38.81115,145],[-90.39006,38.81115,145],[-90.39002,38.81114,146],[-90.38998,38.81114,147],[-90.38993,38.81114,147],[-90.3899,38.81113,148],[-90.38986,38.81112,148],[-90.38982,38.81113,149],[-90.38979,38.81114,149],[-90.38975,38.81116,150],[-90.38972,38.81117,150],[-90.38968,38.81117,150],[-90.38964,38.81117,151],[-90.38961,38.81117,151],[-90.38957,38.81116,151],[-90.38953,38.81116,151],[-90.38949,38.81116,151],[-90.38945,38.81118,151],[-90.38943,38.8112,152],[-90.38941,38.81123,152],[-90.38939,38.81125,152],[-90.38938,38.81128,152],[-90.38937,38.81131,152],[-90.38935,38.81134,152],[-90.38933,38.81136,152],[-90.38929,38.81138,152],[-90.38926,38.8114,152],[-90.38922,38.8114,152],[-90.38919,38.81138,152],[-90.38916,38.81138,152],[-90.38912,38.8114,152],[-90.3891,38.81142,153],[-90.38907,38.81145,154],[-90.38904,38.81147,155],[-90.38902,38.81149,155],[-90.38899,38.81151,156],[-90.38896,38.81152,157],[-90.38892,38.81153,158],[-90.38888,38.81153,159],[-90.38885,38.81153,159],[-90.38881,38.81153,160],[-90.38877,38.81153,161],[-90.38874,38.81153,162],[-90.38871,38.81155,162],[-90.3887,38.81158,163],[-90.38868,38.81161,163],[-90.38866,38.81164,164],[-90.38865,38.81167,164],[-90.38865,38.81169,164],[-90.38864,38.81173,163],[-90.38861,38.81175,164],[-90.38857,38.81176,164],[-90.38855,38.81178,164],[-90.38853,38.81181,164],[-90.38852,38.81184,164],[-90.38852,38.81188,164],[-90.38853,38.81191,163],[-90.38855,38.81193,163],[-90.38858,38.81196,162],[-90.3886,38.81198,162],[-90.38862,38.812,162],[-90.38864,38.81203,162],[-90.38866,38.81206,162],[-90.38869,38.81208,162],[-90.38872,38.81209,161],[-90.38875,38.81211,161],[-90.38877,38.81213,161],[-90.38878,38.81216,161],[-90.38879,38.81219,162],[-90.3888,38.81222,162],[-90.3888,38.81224,162],[-90.38877,38.81226,163],[-90.38873,38.81227,163],[-90.3887,38.8123,164],[-90.38869,38.81233,165],[-90.38867,38.81235,165],[-90.38864,38.81237,166],[-90.38861,38.81235,166],[-90.38858,38.81233,166],[-90.38856,38.81236,167],[-90.38854,38.81239,168],[-90.38855,38.81242,168],[-90.38856,38.81244,168],[-90.38856,38.81247,169],[-90.38859,38.81249,169],[-90.38862,38.81251,168],[-90.38863,38.81254,168],[-90.38861,38.81257,169],[-90.38858,38.81259,170],[-90.38855,38.8126,170],[-90.38854,38.81263,171],[-90.38854,38.81266,171],[-90.3885,38.81266,173],[-90.38846,38.81266,174],[-90.38843,38.81266,175],[-90.3884,38.81268,176],[-90.38839,38.81271,176],[-90.38837,38.81273,178],[-90.38833,38.81273,179],[-90.3883,38.81274,180],[-90.38826,38.81274,181],[-90.38826,38.81271,180],[-90.38829,38.8127,179],[-90.3883,38.81273,180],[-90.38827,38.81275,181],[-90.38824,38.81276,182],[-90.38821,38.81278,183],[-90.38819,38.8128,184],[-90.38815,38.81282,185],[-90.38812,38.81284,186],[-90.38808,38.81285,188],[-90.38805,38.81286,188],[-90.38805,38.81289,189],[-90.38807,38.81292,189],[-90.38808,38.81295,189],[-90.38807,38.81298,189],[-90.38808,38.813,189],[-90.38811,38.81302,189],[-90.38813,38.81305,189],[-90.38812,38.81308,190],[-90.38811,38.81311,190],[-90.3881,38.81313,191],[-90.38808,38.81316,192],[-90.38806,38.81318,193],[-90.38804,38.81321,193],[-90.38801,38.81323,194],[-90.38799,38.81325,194],[-90.38797,38.81328,195],[-90.38796,38.8133,195],[-90.38793,38.81333,195],[-90.3879,38.81335,196],[-90.38787,38.81336,196],[-90.38783,38.81337,196],[-90.3878,38.81337,196],[-90.38776,38.81338,196],[-90.38772,38.81338,195],[-90.38768,38.81338,195],[-90.38765,38.81339,195],[-90.38761,38.81338,195],[-90.38757,38.81337,194],[-90.38754,38.81336,194],[-90.38756,38.81334,194],[-90.38757,38.81337,194],[-90.38759,38.8134,195],[-90.38759,38.81343,195],[-90.38759,38.81346,195],[-90.38759,38.81348,195],[-90.38759,38.81351,195],[-90.38759,38.81355,196],[-90.38758,38.81358,196],[-90.38757,38.81361,196],[-90.38757,38.81363,196],[-90.38756,38.81367,197],[-90.38754,38.8137,197],[-90.38753,38.81373,197],[-90.38752,38.81375,198],[-90.38752,38.81379,198],[-90.38751,38.81381,198],[-90.38751,38.81385,199],[-90.3875,38.81387,199],[-90.3875,38.8139,200],[-90.38753,38.81393,200],[-90.38757,38.81394,200],[-90.3876,38.81396,200],[-90.38765,38.81396,200],[-90.3877,38.81397,200],[-90.38774,38.81398,200],[-90.38778,38.81399,199],[-90.38782,38.81398,199],[-90.38786,38.81397,199],[-90.38789,38.81396,199],[-90.38793,38.81394,199],[-90.38797,38.81395,199],[-90.388,38.81396,199],[-90.38804,38.81395,199],[-90.38808,38.81395,199],[-90.38811,38.81393,198],[-90.38815,38.81392,198],[-90.38819,38.81391,198],[-90.38823,38.81392,198],[-90.38826,38.81393,198],[-90.38831,38.81394,198],[-90.38834,38.81396,198],[-90.38837,38.81398,198],[-90.3884,38.814,197],[-90.38841,38.81403,197],[-90.38843,38.81406,197],[-90.38844,38.81409,197],[-90.38847,38.81411,197],[-90.38851,38.81412,197],[-90.38855,38.81413,197],[-90.38858,38.81414,197],[-90.38863,38.81413,196],[-90.38867,38.81413,195],[-90.38871,38.81413,195],[-90.38876,38.81413,194],[-90.38879,38.81413,194],[-90.38883,38.81414,193],[-90.38886,38.81416,193],[-90.38889,38.81418,192],[-90.38892,38.81419,192],[-90.38896,38.81419,192],[-90.38901,38.8142,192],[-90.38905,38.8142,192],[-90.38909,38.8142,192],[-90.38913,38.81421,192],[-90.38917,38.81421,192],[-90.3892,38.81422,192],[-90.38924,38.81423,191],[-90.38927,38.81425,191],[-90.3893,38.81427,190],[-90.38934,38.81428,190],[-90.38938,38.81428,189],[-90.38942,38.81427,189],[-90.38945,38.8143,188],[-90.38949,38.81432,188],[-90.38951,38.81434,188],[-90.38953,38.81437,188],[-90.38954,38.8144,189],[-90.38956,38.81443,189],[-90.38957,38.81446,189],[-90.38957,38.81449,189],[-90.38956,38.81452,190],[-90.38956,38.81455,190],[-90.38954,38.81458,190],[-90.38954,38.81461,190],[-90.38954,38.81464,190],[-90.38954,38.81467,191],[-90.38953,38.8147,191],[-90.38952,38.81473,191],[-90.38952,38.81476,190],[-90.38951,38.81479,190],[-90.38952,38.81482,190],[-90.38953,38.81485,189],[-90.38953,38.81488,189],[-90.38954,38.81491,189],[-90.38954,38.81494,188],[-90.38955,38.81497,188],[-90.38957,38.81501,188],[-90.3896,38.81503,188],[-90.38963,38.81506,187],[-90.38967,38.81507,187],[-90.38971,38.81508,187],[-90.38975,38.8151,186],[-90.38978,38.81512,186],[-90.38981,38.81514,185],[-90.38983,38.81516,185],[-90.38986,38.81518,184],[-90.38988,38.81521,184],[-90.38989,38.81523,183],[-90.38992,38.81525,182],[-90.38995,38.81528,182],[-90.38998,38.81529,181],[-90.39001,38.8153,181],[-90.39005,38.81532,181],[-90.39008,38.81534,180],[-90.39012,38.81536,180],[-90.39016,38.81538,180],[-90.3902,38.81539,180],[-90.39023,38.81539,180],[-90.39027,38.8154,180],[-90.39031,38.8154,180],[-90.39034,38.8154,180],[-90.39038,38.81541,181],[-90.39042,38.81541,181],[-90.39045,38.81542,181],[-90.39048,38.81543,182],[-90.39052,38.81544,182],[-90.39056,38.81546,182],[-90.39059,38.81547,182],[-90.39063,38.81547,183],[-90.39067,38.81548,183],[-90.39071,38.81549,184],[-90.39074,38.8155,184],[-90.39077,38.81551,184],[-90.39081,38.81553,184],[-90.39084,38.81553,185],[-90.39088,38.81552,185],[-90.39092,38.81551,185],[-90.39095,38.81549,185],[-90.39098,38.81548,185],[-90.39101,38.81546,186],[-90.39105,38.81544,186],[-90.39108,38.81543,186],[-90.39112,38.81542,186],[-90.39115,38.8154,186],[-90.39119,38.8154,186],[-90.39123,38.8154,186],[-90.39128,38.8154,185],[-90.39132,38.81541,185],[-90.39135,38.81542,185],[-90.39138,38.81543,185],[-90.39142,38.81544,185],[-90.39145,38.81546,184],[-90.39148,38.81547,184],[-90.39152,38.81549,183],[-90.39154,38.81552,183],[-90.39156,38.81554,183],[-90.39159,38.81557,183],[-90.39161,38.81559,183],[-90.39163,38.81562,182],[-90.39164,38.81565,182],[-90.39167,38.81567,181],[-90.39169,38.81569,180],[-90.39172,38.81571,179],[-90.39174,38.81574,179],[-90.39175,38.81577,178],[-90.39177,38.81579,177],[-90.39177,38.81582,177],[-90.39177,38.81585,176],[-90.39176,38.81588,176],[-90.39175,38.81591,176],[-90.39174,38.81595,175],[-90.39174,38.81598,174],[-90.39175,38.81601,173],[-90.39175,38.81604,173],[-90.39175,38.81607,172],[-90.39174,38.8161,172],[-90.39174,38.81614,170],[-90.39173,38.81617,170],[-90.39172,38.8162,169],[-90.3917,38.81624,168],[-90.39169,38.81627,167],[-90.39169,38.8163,166],[-90.39169,38.81633,165],[-90.39167,38.81636,164],[-90.39166,38.81638,164],[-90.39163,38.81641,164],[-90.3916,38.81643,164],[-90.39157,38.81645,164],[-90.39155,38.81647,164],[-90.39152,38.8165,164],[-90.39149,38.81652,164],[-90.39148,38.81655,163],[-90.39148,38.81658,162],[-90.39147,38.81661,162],[-90.39145,38.81664,161],[-90.39142,38.81665,161],[-90.39139,38.81667,161],[-90.39136,38.81668,161],[-90.39139,38.8167,160],[-90.39135,38.81671,161],[-90.39132,38.81672,161],[-90.39129,38.81674,161],[-90.39129,38.81677,160],[-90.3913,38.8168,159],[-90.39127,38.81681,159],[-90.39124,38.81683,159],[-90.39122,38.81685,158],[-90.39121,38.81687,158],[-90.39118,38.81689,158],[-90.39114,38.81691,158],[-90.3911,38.8169,159],[-90.39107,38.81688,160],[-90.39103,38.81685,161],[-90.39101,38.81682,162],[-90.39099,38.8168,163],[-90.39097,38.81677,164],[-90.39094,38.81675,164],[-90.39091,38.81673,165],[-90.39088,38.81671,165],[-90.39084,38.8167,166],[-90.39081,38.8167,166],[-90.39078,38.81672,166],[-90.39078,38.81675,165],[-90.39079,38.81678,165],[-90.39081,38.8168,164],[-90.39082,38.81684,163],[-90.39084,38.81686,163],[-90.39086,38.81689,162],[-90.39085,38.81686,163],[-90.39084,38.81683,164],[-90.39082,38.8168,164],[-90.39079,38.81678,165],[-90.39075,38.81679,165],[-90.39072,38.81681,165],[-90.39069,38.81682,165],[-90.39066,38.81681,165],[-90.39062,38.81683,165],[-90.3906,38.81686,165],[-90.39058,38.81689,165],[-90.39054,38.81689,165],[-90.3905,38.8169,165],[-90.39047,38.81691,165],[-90.39044,38.81693,165],[-90.39044,38.81696,165],[-90.39045,38.81699,164],[-90.39047,38.81702,163],[-90.3905,38.81704,162],[-90.39052,38.81707,161],[-90.39053,38.8171,160],[-90.39052,38.81713,159],[-90.3905,38.81715,158],[-90.39048,38.81717,158],[-90.39046,38.8172,157],[-90.39044,38.81723,156],[-90.39044,38.81725,155],[-90.39047,38.81727,154],[-90.39051,38.81727,154],[-90.39053,38.81729,153],[-90.39052,38.81727,154],[-90.39054,38.81724,155],[-90.39058,38.81724,154],[-90.39061,38.81726,153],[-90.39058,38.81727,153],[-90.39058,38.8173,152],[-90.39061,38.81732,151],[-90.39064,38.81734,150],[-90.39063,38.81736,149],[-90.39063,38.81739,148],[-90.39065,38.81742,147],[-90.39068,38.81746,145],[-90.3907,38.81748,144],[-90.39067,38.81746,145],[-90.39069,38.81744,146],[-90.39074,38.81743,145],[-90.39078,38.81744,144],[-90.3908,38.81746,143],[-90.39079,38.81749,142],[-90.39078,38.81752,142],[-90.3908,38.8175,142],[-90.39083,38.81749,142],[-90.39087,38.81749,141],[-90.39089,38.81747,142],[-90.39091,38.81745,142],[-90.39093,38.81742,143],[-90.39095,38.81739,143],[-90.39098,38.81737,144],[-90.39101,38.81735,144],[-90.39104,38.81733,144],[-90.39106,38.81731,144],[-90.39109,38.8173,144],[-90.39112,38.81728,144],[-90.39115,38.81727,144],[-90.39118,38.81724,144],[-90.39121,38.81722,144],[-90.39123,38.8172,144],[-90.39126,38.81718,145],[-90.3913,38.81717,144],[-90.39134,38.81716,144],[-90.39137,38.81716,143],[-90.39142,38.81714,144],[-90.39145,38.81713,144],[-90.39149,38.81712,143],[-90.39152,38.81711,143],[-90.39155,38.81709,144],[-90.39158,38.81708,144],[-90.39158,38.81705,145],[-90.39157,38.81702,146],[-90.39154,38.81701,147],[-90.39157,38.81702,146],[-90.39161,38.81702,145],[-90.39165,38.81702,145],[-90.39169,38.817,145],[-90.39173,38.81698,146],[-90.39176,38.81697,147],[-90.3918,38.81695,148],[-90.39182,38.81693,148],[-90.39184,38.81691,149],[-90.39186,38.81688,149],[-90.39187,38.81684,150],[-90.39188,38.81682,150],[-90.3919,38.81679,150],[-90.39193,38.81677,150],[-90.39196,38.81674,150],[-90.39198,38.81672,149],[-90.392,38.8167,149],[-90.39204,38.81669,149],[-90.39207,38.81667,148],[-90.39207,38.81664,149],[-90.3921,38.81662,148],[-90.39214,38.81661,148],[-90.39217,38.81659,147],[-90.39219,38.81657,147],[-90.39223,38.81655,147],[-90.39226,38.81653,146],[-90.39228,38.81651,146],[-90.3923,38.81648,146],[-90.39231,38.81645,146],[-90.39233,38.81642,146],[-90.39234,38.81638,146],[-90.39236,38.81636,146],[-90.39238,38.81633,147],[-90.3924,38.8163,147],[-90.39239,38.81627,148],[-90.39237,38.81624,149],[-90.39236,38.81621,150],[-90.39233,38.81619,152],[-90.3923,38.81616,153],[-90.3923,38.81613,154],[-90.39233,38.81612,154],[-90.39236,38.8161,153],[-90.39239,38.81609,152],[-90.39244,38.81609,150],[-90.39243,38.81606,151],[-90.39247,38.81604,149],[-90.39251,38.81604,148],[-90.39255,38.81604,147],[-90.3926,38.81604,145],[-90.39264,38.81604,144],[-90.39268,38.81605,143],[-90.39272,38.81604,141],[-90.39275,38.81603,140],[-90.39275,38.816,140],[-90.39275,38.81596,140],[-90.39274,38.81593,141],[-90.39273,38.81589,141],[-90.39272,38.81586,141],[-90.3927,38.81583,142],[-90.39267,38.8158,144],[-90.39265,38.81577,145],[-90.39264,38.81575,146],[-90.39262,38.81572,147],[-90.3926,38.81569,148],[-90.39259,38.81566,149],[-90.39255,38.81564,152],[-90.39253,38.81562,153],[-90.39252,38.81559,154],[-90.39254,38.81556,154],[-90.39256,38.81554,153],[-90.39259,38.81552,152],[-90.39262,38.8155,152],[-90.39265,38.81548,151],[-90.39269,38.81546,150],[-90.39272,38.81544,149],[-90.39275,38.81543,149],[-90.39279,38.81541,148],[-90.39282,38.8154,148],[-90.39287,38.81539,147],[-90.3929,38.81538,146],[-90.39294,38.81538,145],[-90.39297,38.81537,145],[-90.39301,38.81535,144],[-90.39304,38.81534,144],[-90.39308,38.81533,143],[-90.39312,38.81532,143],[-90.39316,38.81529,143],[-90.39318,38.81527,142],[-90.3932,38.81524,142],[-90.39321,38.81521,142],[-90.39323,38.81518,142],[-90.39323,38.81515,142],[-90.39324,38.81512,142],[-90.39323,38.81509,143],[-90.39321,38.81507,143],[-90.39319,38.81504,144],[-90.39316,38.81503,145],[-90.39312,38.81501,146],[-90.39309,38.81498,147],[-90.39306,38.81495,147],[-90.39304,38.81493,147],[-90.39302,38.8149,147],[-90.393,38.81486,147],[-90.39299,38.81483,147],[-90.39299,38.8148,147],[-90.393,38.81477,147],[-90.39299,38.81474,147],[-90.39298,38.81471,147],[-90.39297,38.81468,148],[-90.39297,38.81465,148],[-90.39296,38.81461,148],[-90.39294,38.81459,149],[-90.39292,38.81456,149],[-90.3929,38.81454,150],[-90.39287,38.81452,150],[-90.39284,38.8145,151],[-90.3928,38.81449,152],[-90.39277,38.81448,152],[-90.39273,38.81448,153],[-90.3927,38.81447,153],[-90.39266,38.81445,154],[-90.39263,38.81444,154],[-90.39261,38.81441,154],[-90.39259,38.81438,153],[-90.39257,38.81435,153],[-90.39255,38.81433,153],[-90.39253,38.8143,152],[-90.39249,38.81429,152],[-90.39246,38.81428,152],[-90.39242,38.81426,152],[-90.39239,38.81425,151],[-90.39235,38.81424,151],[-90.39231,38.81423,151],[-90.39227,38.81422,151],[-90.39223,38.81421,151],[-90.39219,38.8142,151],[-90.39217,38.81418,151],[-90.39216,38.81415,150],[-90.39216,38.81412,148],[-90.39217,38.81409,146],[-90.39219,38.81406,144],[-90.39221,38.81404,142],[-90.39224,38.81402,141],[-90.39226,38.81399,140],[-90.39229,38.81397,138],[-90.39231,38.81394,137],[-90.39234,38.81392,136],[-90.39236,38.81389,135],[-90.39238,38.81387,136],[-90.3924,38.81384,136],[-90.39241,38.81381,137],[-90.39243,38.81379,137],[-90.39244,38.81376,137],[-90.39246,38.81373,138],[-90.39248,38.8137,138],[-90.3925,38.81367,138],[-90.39251,38.81364,138],[-90.39252,38.81362,138],[-90.39253,38.81359,138],[-90.39254,38.81356,138],[-90.39255,38.81354,138],[-90.39256,38.8135,137],[-90.39258,38.81347,137],[-90.39259,38.81345,137],[-90.39262,38.81343,137],[-90.39264,38.81341,136],[-90.39267,38.81338,136],[-90.3927,38.81336,135],[-90.39274,38.81335,135],[-90.39277,38.81334,135],[-90.3928,38.81332,134],[-90.39283,38.81329,134],[-90.39285,38.81327,134],[-90.39287,38.81324,134],[-90.39288,38.81321,133],[-90.3929,38.81319,133],[-90.39293,38.81316,133],[-90.39296,38.81313,133],[-90.39298,38.8131,133],[-90.393,38.81307,133],[-90.39302,38.81305,133],[-90.39304,38.81303,133],[-90.39307,38.813,133],[-90.3931,38.81298,133],[-90.39313,38.81296,133],[-90.39317,38.81294,133],[-90.3932,38.81292,133],[-90.39323,38.8129,134],[-90.39327,38.81288,134],[-90.3933,38.81286,134],[-90.39333,38.81285,134],[-90.39336,38.81283,134],[-90.39339,38.81281,134],[-90.39343,38.8128,134],[-90.39346,38.81278,134],[-90.39349,38.81276,134],[-90.39353,38.81274,134],[-90.39356,38.81272,134],[-90.39359,38.81271,134],[-90.39363,38.81269,134],[-90.39366,38.81266,134],[-90.39368,38.81264,135],[-90.39371,38.81262,135],[-90.39373,38.8126,135],[-90.39377,38.81258,135],[-90.39379,38.81256,136],[-90.39382,38.81254,136],[-90.39386,38.81253,136],[-90.39389,38.81251,136],[-90.39392,38.8125,137],[-90.39395,38.81247,137],[-90.39398,38.81245,137],[-90.394,38.81242,137],[-90.39403,38.81241,137],[-90.39406,38.81238,137],[-90.39409,38.81236,137],[-90.39412,38.81234,137],[-90.39414,38.81232,137],[-90.39417,38.81229,137],[-90.39419,38.81227,137],[-90.39422,38.81225,137],[-90.39425,38.81223,137],[-90.39428,38.81221,138],[-90.39431,38.81219,138],[-90.39434,38.81217,138],[-90.39437,38.81215,138],[-90.39439,38.81213,138],[-90.39442,38.8121,138],[-90.39445,38.81208,137],[-90.39448,38.81205,137],[-90.39451,38.81202,137],[-90.39454,38.812,137],[-90.39457,38.81198,137],[-90.39459,38.81196,137],[-90.39462,38.81194,137],[-90.39465,38.81192,136],[-90.39468,38.8119,136],[-90.39471,38.81188,136]]],
        "bbox": [
          -90.3875,
          38.81752,
          -90.39471,
          38.80584
        ]
      },
      "properties": {
        "name": "3.4.2023"
      }
    }
  ]
}