{
  "type": "FeatureCollection",
  "features": [
    {
      "type": "Feature",
      "geometry": {
        "type": "MultiLineString",
        "coordinates": [[[-90.39503,38.81166,132],[-90.395,38.81167,133],[-90.39496,38.81169,133],[-90.39494,38.81172,133],[-90.39492,38.81174,133],[-90.39489,38.81176,134],[-90.39488,38.81179,134],[-90.39486,38.81181,134],[-90.39483,38.81184,135],[-90.39481,38.81186,135],[-90.39479,38.81188,135],[-90.39475,38.8119,136],[-90.39472,38.81192,136],[-90.39468,38.81194,137],[-90.39465,38.81197,137],[-90.39463,38.812,137],[-90.3946,38.81202,137],[-90.39458,38.81205,137],[-90.39456,38.81208,137],[-90.39453,38.81211,137],[-90.39451,38.81215,137],[-90.39448,38.81218,137],[-90.39445,38.81221,137],[-90.39442,38.81223,137],[-90.3944,38.81227,137],[-90.39438,38.81229,137],[-90.39434,38.81233,137],[-90.39429,38.81236,137],[-90.39424,38.81236,137],[-90.39418,38.81236,137],[-90.39415,38.81239,137],[-90.3941,38.8124,137],[-90.39404,38.8124,137],[-90.39399,38.81243,137],[-90.39399,38.81248,137],[-90.394,38.81252,136],[-90.39399,38.81257,136],[-90.39397,38.81261,135],[-90.39395,38.81265,135],[-90.3939,38.81267,135],[-90.39385,38.81268,135],[-90.39379,38.81269,134],[-90.39373,38.8127,134],[-90.39369,38.81273,134],[-90.39366,38.81276,134],[-90.39365,38.8128,133],[-90.39365,38.81285,133],[-90.39363,38.81288,133],[-90.39357,38.8129,133],[-90.39351,38.8129,133],[-90.39346,38.81291,133],[-90.39341,38.81292,133],[-90.39336,38.81295,133],[-90.39333,38.81297,133],[-90.39327,38.81299,133],[-90.39322,38.813,133],[-90.39319,38.81302,133],[-90.39315,38.81304,133],[-90.39312,38.81307,132],[-90.3931,38.8131,132],[-90.39308,38.81313,132],[-90.39305,38.81316,133],[-90.39301,38.81317,133],[-90.39297,38.81319,133],[-90.39295,38.81322,133],[-90.39293,38.81326,133],[-90.3929,38.81328,134],[-90.39285,38.81329,134],[-90.39281,38.8133,134],[-90.39277,38.81331,134],[-90.39274,38.81334,135],[-90.39271,38.81337,135],[-90.39268,38.81339,136],[-90.39264,38.81342,136],[-90.39262,38.81345,137],[-90.39261,38.81347,137],[-90.3926,38.81351,137],[-90.39259,38.81354,138],[-90.39259,38.81357,138],[-90.39257,38.81359,138],[-90.39255,38.81361,138],[-90.39252,38.81364,138],[-90.39251,38.81367,138],[-90.3925,38.81371,138],[-90.39251,38.81374,138],[-90.39249,38.81377,138],[-90.39248,38.8138,138],[-90.39247,38.81383,137],[-90.39246,38.81386,137],[-90.39247,38.81383,137],[-90.39243,38.81385,137],[-90.3924,38.81387,136],[-90.39238,38.8139,136],[-90.39237,38.81394,138],[-90.39239,38.81398,140],[-90.39235,38.81401,141],[-90.39231,38.81403,142],[-90.39228,38.81405,143],[-90.39225,38.81406,144],[-90.39225,38.81409,146],[-90.39226,38.81413,148],[-90.39227,38.81416,150],[-90.39228,38.81418,150],[-90.3923,38.81422,151],[-90.39231,38.81425,152],[-90.39232,38.81428,152],[-90.39237,38.81429,152],[-90.3924,38.8143,152],[-90.39243,38.81433,153],[-90.39246,38.81436,154],[-90.39251,38.81436,154],[-90.39255,38.81435,153],[-90.39259,38.81435,152],[-90.39262,38.81437,153],[-90.39265,38.81437,152],[-90.39267,38.81434,151],[-90.39263,38.81434,152],[-90.3926,38.81437,153],[-90.3926,38.81441,154],[-90.3926,38.81444,154],[-90.39262,38.81448,154],[-90.39265,38.81451,154],[-90.39268,38.81454,153],[-90.39271,38.81456,153],[-90.39274,38.81459,152],[-90.39276,38.81462,152],[-90.39279,38.81465,151],[-90.39283,38.81468,151],[-90.39285,38.8147,150],[-90.39287,38.81473,150],[-90.39287,38.81476,149],[-90.39286,38.8148,149],[-90.39283,38.81484,150],[-90.39286,38.81488,149],[-90.39289,38.81491,149],[-90.39293,38.81495,148],[-90.39296,38.81498,148],[-90.39298,38.81502,148],[-90.39298,38.81506,148],[-90.39299,38.8151,148],[-90.39303,38.81513,147],[-90.39305,38.81517,146],[-90.39304,38.81521,146],[-90.393,38.81523,147],[-90.39295,38.81524,148],[-90.39291,38.81526,149],[-90.39289,38.8153,149],[-90.39288,38.81534,148],[-90.39284,38.81534,149],[-90.3928,38.81535,150],[-90.39276,38.81535,151],[-90.39272,38.81535,152],[-90.39268,38.81536,153],[-90.39266,38.81539,152],[-90.39265,38.81542,152],[-90.39263,38.81545,152],[-90.39262,38.81548,152],[-90.39261,38.81551,152],[-90.39258,38.81554,153],[-90.39257,38.81556,153],[-90.39256,38.81559,152],[-90.39256,38.81563,151],[-90.39256,38.81567,150],[-90.39257,38.81571,149],[-90.39258,38.81574,148],[-90.39259,38.81577,147],[-90.39259,38.81581,146],[-90.3926,38.81585,145],[-90.3926,38.81588,145],[-90.39261,38.81592,145],[-90.39262,38.81596,145],[-90.39261,38.816,145],[-90.3926,38.81604,145],[-90.39259,38.81608,145],[-90.39255,38.81609,147],[-90.3925,38.81609,148],[-90.39245,38.81609,150],[-90.39243,38.81613,150],[-90.39239,38.81615,151],[-90.39234,38.81616,152],[-90.39232,38.8162,152],[-90.3923,38.81623,151],[-90.39227,38.81626,151],[-90.39227,38.8163,150],[-90.39229,38.81634,148],[-90.39231,38.81637,147],[-90.3923,38.81641,147],[-90.39229,38.81645,146],[-90.39226,38.81648,147],[-90.39222,38.8165,147],[-90.3922,38.81654,147],[-90.39215,38.81655,148],[-90.39215,38.81659,148],[-90.39212,38.81663,148],[-90.39208,38.81665,148],[-90.39203,38.81666,149],[-90.39197,38.81667,150],[-90.39194,38.8167,150],[-90.39191,38.81672,151],[-90.39187,38.81674,151],[-90.39183,38.81677,151],[-90.39179,38.81679,151],[-90.39175,38.81682,151],[-90.39174,38.81685,150],[-90.39172,38.81689,149],[-90.39171,38.81692,148],[-90.39167,38.81694,148],[-90.39162,38.81696,148],[-90.39162,38.81698,147],[-90.39158,38.81699,147],[-90.39155,38.817,147],[-90.39151,38.81701,148],[-90.39146,38.81702,148],[-90.39142,38.81703,148],[-90.39139,38.81704,148],[-90.39137,38.81707,147],[-90.39134,38.81709,147],[-90.39131,38.8171,147],[-90.39128,38.81712,147],[-90.39124,38.81714,147],[-90.39121,38.81715,147],[-90.39117,38.81717,147],[-90.39113,38.81718,147],[-90.39109,38.81719,147],[-90.39104,38.81719,148],[-90.39101,38.81721,148],[-90.391,38.81724,147],[-90.391,38.81728,146],[-90.39099,38.81731,145],[-90.39097,38.81735,144],[-90.39094,38.81737,144],[-90.3909,38.81739,144],[-90.39087,38.81742,144],[-90.39083,38.81743,144],[-90.39078,38.81744,144],[-90.39071,38.81745,145],[-90.39067,38.81746,145],[-90.39063,38.8175,144],[-90.39062,38.81754,144],[-90.39063,38.81758,143],[-90.39061,38.81761,142],[-90.39057,38.81762,143],[-90.39053,38.81764,143],[-90.39051,38.81766,143],[-90.39048,38.81768,142],[-90.39044,38.81769,143],[-90.39041,38.8177,143],[-90.39037,38.81772,143],[-90.39032,38.81774,143],[-90.39029,38.81775,143],[-90.39026,38.81776,143],[-90.39022,38.81777,144],[-90.39019,38.81778,144],[-90.39016,38.81781,144],[-90.39013,38.81782,145],[-90.39009,38.81783,145],[-90.39005,38.81784,146],[-90.39001,38.81786,146],[-90.38997,38.81787,146],[-90.38993,38.81789,146],[-90.38988,38.8179,147],[-90.38983,38.81791,147],[-90.3898,38.81792,147],[-90.38975,38.81793,148],[-90.38971,38.81794,148],[-90.38966,38.81795,148],[-90.38962,38.81795,148],[-90.38957,38.81795,148],[-90.38952,38.81792,149],[-90.38947,38.81791,150],[-90.38942,38.81791,150],[-90.38936,38.8179,151],[-90.38931,38.81788,153],[-90.38927,38.81789,153],[-90.38922,38.8179,154],[-90.38917,38.81791,154],[-90.38912,38.81794,154],[-90.38907,38.81797,155],[-90.38901,38.81798,156],[-90.38895,38.81798,157],[-90.38889,38.818,158],[-90.38884,38.81802,159],[-90.38879,38.81805,159],[-90.38877,38.8181,157],[-90.38876,38.81814,156],[-90.38872,38.81817,155],[-90.38867,38.81818,156],[-90.38862,38.8182,156],[-90.38858,38.81823,154],[-90.38857,38.81826,153],[-90.38854,38.8183,151],[-90.38848,38.81831,151],[-90.38843,38.81833,150],[-90.38839,38.81836,148],[-90.38836,38.81839,147],[-90.38835,38.81842,146],[-90.3883,38.81845,145],[-90.38828,38.81848,143],[-90.38827,38.81852,142],[-90.38826,38.81855,141],[-90.38824,38.81857,140],[-90.38821,38.8186,140],[-90.38818,38.81861,140],[-90.38813,38.81862,140],[-90.38809,38.81863,141],[-90.38805,38.81865,141],[-90.388,38.81867,142],[-90.38796,38.81869,142],[-90.38792,38.8187,142],[-90.38789,38.81871,143],[-90.38785,38.81873,143],[-90.38782,38.81875,143],[-90.3878,38.81877,143],[-90.38776,38.81879,143],[-90.38773,38.8188,143],[-90.38769,38.81881,143],[-90.38764,38.81882,143],[-90.38761,38.81884,143],[-90.38758,38.81886,142],[-90.38754,38.81887,142],[-90.3875,38.8189,141],[-90.38746,38.81893,140],[-90.38743,38.81895,140],[-90.38741,38.81898,139],[-90.38742,38.81902,137],[-90.38741,38.81906,136],[-90.38737,38.81909,135],[-90.38733,38.81911,134],[-90.38727,38.81912,134],[-90.38722,38.81912,134],[-90.38718,38.81913,133],[-90.38717,38.81916,132],[-90.38716,38.81919,132],[-90.38711,38.81919,132],[-90.38707,38.81919,132],[-90.38706,38.81922,132],[-90.38705,38.81925,132],[-90.38703,38.81928,132],[-90.38701,38.8193,132],[-90.38702,38.81934,132],[-90.38703,38.81936,132],[-90.38702,38.81934,132],[-90.38706,38.81933,132],[-90.38709,38.81933,132],[-90.38713,38.81932,132],[-90.38715,38.81929,132],[-90.38718,38.81927,132],[-90.38722,38.81925,132],[-90.38724,38.81923,132],[-90.38727,38.81921,132],[-90.38731,38.8192,132],[-90.38734,38.81918,132],[-90.38737,38.81917,132],[-90.38742,38.81915,133],[-90.38746,38.81912,134],[-90.38747,38.81908,135],[-90.38749,38.81904,137],[-90.38753,38.81902,137],[-90.38757,38.819,138],[-90.38762,38.81897,139],[-90.38767,38.81897,139],[-90.38772,38.81898,139],[-90.38777,38.81897,139],[-90.3878,38.81893,140],[-90.38784,38.81891,140],[-90.38788,38.81889,140],[-90.38792,38.81886,140],[-90.38795,38.81883,140],[-90.38799,38.81881,140],[-90.38804,38.81879,140],[-90.38809,38.81878,139],[-90.38815,38.81877,139],[-90.38821,38.81877,139],[-90.38827,38.81877,138],[-90.38832,38.81877,138],[-90.38835,38.81873,138],[-90.38835,38.81868,138],[-90.38836,38.81864,138],[-90.38836,38.8186,138],[-90.38837,38.81856,140],[-90.38837,38.81851,142],[-90.38839,38.81846,144],[-90.38844,38.81844,145],[-90.38849,38.81844,145],[-90.38854,38.81844,145],[-90.3886,38.81843,145],[-90.38864,38.81842,145],[-90.38867,38.81838,147],[-90.3887,38.81835,147],[-90.38875,38.81834,147],[-90.38879,38.81832,147],[-90.38884,38.8183,148],[-90.38887,38.81827,148],[-90.38889,38.81823,149],[-90.38892,38.81819,150],[-90.38895,38.81815,151],[-90.38899,38.81813,151],[-90.38904,38.81814,149],[-90.38909,38.81815,148],[-90.38914,38.81811,148],[-90.38917,38.81807,149],[-90.38921,38.81806,149],[-90.38926,38.81808,147],[-90.38931,38.81806,148],[-90.38935,38.81804,148],[-90.3894,38.81805,147],[-90.38945,38.81804,147],[-90.38949,38.81806,146],[-90.38951,38.81809,145],[-90.38956,38.81811,144],[-90.38962,38.8181,145],[-90.38968,38.81809,145],[-90.38973,38.81808,145],[-90.38978,38.81807,145],[-90.38981,38.81805,145],[-90.38987,38.81803,145],[-90.38993,38.81803,144],[-90.38999,38.81804,143],[-90.39005,38.81805,142],[-90.3901,38.81805,142],[-90.39015,38.81803,141],[-90.39021,38.81803,141],[-90.39026,38.81803,140],[-90.39031,38.81801,140],[-90.39036,38.81799,139],[-90.3904,38.81797,139],[-90.39044,38.81795,139],[-90.39049,38.81793,139],[-90.39055,38.81793,138],[-90.39059,38.81791,138],[-90.39061,38.81788,138],[-90.39061,38.81784,138],[-90.39061,38.8178,139],[-90.39061,38.81777,139],[-90.39061,38.81774,140],[-90.39062,38.81771,140],[-90.39064,38.81769,140],[-90.39066,38.81766,141],[-90.39069,38.81764,141],[-90.39071,38.81761,141],[-90.39073,38.81759,141],[-90.39077,38.81758,141],[-90.3908,38.81757,141],[-90.39079,38.81753,141],[-90.39078,38.8175,142],[-90.39075,38.81749,143],[-90.39072,38.81747,144],[-90.39073,38.81744,145],[-90.3907,38.81742,146],[-90.39067,38.81744,146],[-90.39064,38.81745,146],[-90.39061,38.81744,147],[-90.3906,38.81741,148],[-90.39062,38.81739,148],[-90.39067,38.81738,148],[-90.3907,38.81739,147],[-90.39074,38.8174,146],[-90.39077,38.8174,146],[-90.39081,38.8174,145],[-90.39084,38.8174,145],[-90.39088,38.81741,144],[-90.39091,38.81742,143],[-90.39094,38.8174,143],[-90.39098,38.81739,143],[-90.39103,38.81737,143],[-90.39106,38.81735,143],[-90.3911,38.81733,143],[-90.39113,38.81731,143],[-90.39115,38.81729,143],[-90.39117,38.81726,144],[-90.3912,38.81724,143],[-90.39122,38.81722,144],[-90.39125,38.8172,144],[-90.39128,38.81718,144],[-90.39132,38.81716,144],[-90.39135,38.81716,144],[-90.39139,38.81715,144],[-90.39143,38.81713,144],[-90.39147,38.81712,144],[-90.3915,38.81712,143],[-90.39155,38.81712,142],[-90.3916,38.81711,142],[-90.39166,38.81711,141],[-90.39172,38.8171,142],[-90.39177,38.81708,142],[-90.39181,38.81705,144],[-90.39185,38.81702,145],[-90.39188,38.81699,146],[-90.39192,38.81696,148],[-90.39195,38.81693,149],[-90.39199,38.8169,148],[-90.392,38.81686,148],[-90.392,38.81682,149],[-90.39201,38.81678,149],[-90.39202,38.81674,149],[-90.39203,38.8167,149],[-90.39207,38.81668,148],[-90.39211,38.81665,148],[-90.39216,38.81662,147],[-90.3922,38.8166,147],[-90.39224,38.81657,146],[-90.39226,38.81654,146],[-90.39229,38.8165,146],[-90.39232,38.81647,146],[-90.39234,38.81643,145],[-90.39233,38.81639,146],[-90.39234,38.81635,147],[-90.39236,38.81632,148],[-90.39239,38.81628,148],[-90.39242,38.81625,148],[-90.39243,38.81621,148],[-90.39246,38.81617,148],[-90.39252,38.81617,147],[-90.39258,38.81617,145],[-90.39264,38.81616,143],[-90.39268,38.81614,142],[-90.3927,38.8161,142],[-90.3927,38.81606,142],[-90.39269,38.81604,142],[-90.39267,38.81601,143],[-90.39265,38.81599,144],[-90.39265,38.81595,144],[-90.39265,38.81592,144],[-90.39265,38.81589,144],[-90.39265,38.81586,144],[-90.39264,38.81584,144],[-90.39264,38.81581,144],[-90.39263,38.81578,145],[-90.39262,38.81576,146],[-90.3926,38.81572,148],[-90.3926,38.81569,148],[-90.3926,38.81566,149],[-90.3926,38.81562,150],[-90.39262,38.8156,150],[-90.39265,38.81557,149],[-90.39267,38.81554,149],[-90.39271,38.81551,148],[-90.39274,38.81549,148],[-90.39276,38.81547,147],[-90.39279,38.81545,147],[-90.39284,38.81545,146],[-90.39288,38.81544,145],[-90.39291,38.81544,144],[-90.39294,38.81541,144],[-90.39298,38.81538,144],[-90.39301,38.81535,144],[-90.39303,38.81532,145],[-90.39305,38.81528,146],[-90.39307,38.81523,146],[-90.39308,38.81519,146],[-90.39309,38.81515,146],[-90.39308,38.8151,146],[-90.39309,38.81506,146],[-90.39309,38.81501,147],[-90.39307,38.81497,147],[-90.39305,38.81493,147],[-90.39304,38.81489,147],[-90.39303,38.81485,147],[-90.39303,38.81481,147],[-90.39304,38.81477,146],[-90.39306,38.81473,145],[-90.39305,38.81469,146],[-90.39302,38.81465,147],[-90.39298,38.81461,147],[-90.39293,38.81458,149],[-90.3929,38.81454,150],[-90.39285,38.8145,151],[-90.39281,38.81448,152],[-90.39276,38.81446,153],[-90.39271,38.81444,153],[-90.39268,38.81441,153],[-90.39265,38.81437,152],[-90.3926,38.81436,153],[-90.39256,38.81433,152],[-90.39252,38.81431,152],[-90.39245,38.81429,152],[-90.39239,38.81427,152],[-90.39234,38.81426,152],[-90.3923,38.81423,151],[-90.39229,38.81419,151],[-90.39227,38.81415,149],[-90.39226,38.81411,147],[-90.39228,38.81408,145],[-90.39228,38.81405,143],[-90.39224,38.81406,144],[-90.39221,38.81407,144],[-90.39217,38.81408,145],[-90.39215,38.81405,144],[-90.39211,38.81404,143],[-90.39207,38.81406,145],[-90.39204,38.81408,146],[-90.392,38.8141,148],[-90.39196,38.81409,148],[-90.39193,38.8141,148],[-90.3919,38.81413,151],[-90.39189,38.81416,152],[-90.39186,38.81419,154],[-90.39182,38.81422,156],[-90.39179,38.81423,157],[-90.39176,38.81425,158],[-90.39173,38.81427,160],[-90.39178,38.81429,159],[-90.39173,38.81431,161],[-90.39169,38.81433,163],[-90.39168,38.81437,164],[-90.39169,38.81441,165],[-90.39169,38.81445,166],[-90.39171,38.81449,166],[-90.39172,38.81453,166],[-90.39176,38.81456,165],[-90.39179,38.81459,165],[-90.39179,38.81463,166],[-90.39178,38.81466,166],[-90.39178,38.8147,167],[-90.39182,38.81474,166],[-90.39185,38.81479,166],[-90.39185,38.81482,166],[-90.39184,38.81486,167],[-90.3918,38.81489,169],[-90.39181,38.81494,170],[-90.39184,38.81497,169],[-90.39187,38.81501,169],[-90.3919,38.81504,168],[-90.39192,38.81508,169],[-90.39192,38.81511,170],[-90.39195,38.81513,170],[-90.39196,38.81516,171],[-90.39193,38.8152,173],[-90.39191,38.81523,175],[-90.39188,38.81526,176],[-90.39186,38.81528,177],[-90.39185,38.81531,177],[-90.39186,38.81533,177],[-90.39188,38.81536,177],[-90.39188,38.81539,177],[-90.39189,38.81542,177],[-90.39189,38.81545,178],[-90.39189,38.81549,178],[-90.39189,38.81552,178],[-90.39189,38.81555,178],[-90.39188,38.81557,178],[-90.39187,38.8156,178],[-90.39186,38.81563,178],[-90.39186,38.81566,177],[-90.39188,38.81569,176],[-90.39192,38.81571,175],[-90.39195,38.81573,173],[-90.39191,38.81572,175],[-90.39187,38.81571,176],[-90.39183,38.81571,177],[-90.39178,38.81571,178],[-90.39175,38.81572,179],[-90.39171,38.81571,180],[-90.39167,38.81569,181],[-90.39165,38.81567,181],[-90.39162,38.81563,182],[-90.3916,38.81561,182],[-90.39158,38.81558,183],[-90.39156,38.81555,183],[-90.39153,38.81553,183],[-90.3915,38.81551,184],[-90.39146,38.81548,184],[-90.39143,38.81547,184],[-90.3914,38.81545,185],[-90.39136,38.81543,185],[-90.39133,38.81542,185],[-90.39129,38.81541,185],[-90.39125,38.81541,186],[-90.3912,38.81541,186],[-90.39112,38.81542,186],[-90.39107,38.81542,186],[-90.39103,38.81542,186],[-90.39098,38.81542,186],[-90.39093,38.81543,186],[-90.39089,38.81543,186],[-90.39085,38.81544,185],[-90.3908,38.81544,185],[-90.39075,38.81544,184],[-90.39071,38.81543,184],[-90.39065,38.81544,183],[-90.39061,38.81547,183],[-90.39056,38.81547,182],[-90.39051,38.81545,182],[-90.39046,38.81543,181],[-90.39041,38.81542,181],[-90.39036,38.81541,180],[-90.39031,38.81539,180],[-90.39028,38.81536,180],[-90.39025,38.81533,181],[-90.39021,38.8153,181],[-90.39017,38.81529,181],[-90.39012,38.81527,182],[-90.39009,38.81524,182],[-90.39005,38.81522,183],[-90.39001,38.8152,183],[-90.38996,38.81519,184],[-90.38992,38.81517,184],[-90.38988,38.81514,185],[-90.38984,38.81512,186],[-90.3898,38.8151,186],[-90.38977,38.81507,187],[-90.38974,38.81504,188],[-90.38973,38.815,189],[-90.38971,38.81497,189],[-90.38968,38.81494,189],[-90.38964,38.81491,189],[-90.38963,38.81487,190],[-90.38964,38.81483,190],[-90.38963,38.81479,190],[-90.38962,38.81476,191],[-90.38962,38.81472,191],[-90.38962,38.81467,191],[-90.38962,38.81464,190],[-90.38962,38.81459,190],[-90.38961,38.81455,190],[-90.3896,38.81451,189],[-90.38957,38.81448,189],[-90.38955,38.81444,189],[-90.38954,38.81439,188],[-90.38953,38.81435,188],[-90.38949,38.81432,188],[-90.38943,38.8143,189],[-90.38935,38.81429,190],[-90.3893,38.81427,190],[-90.38925,38.81426,191],[-90.3892,38.81425,192],[-90.38915,38.81425,192],[-90.3891,38.81425,192],[-90.38904,38.81425,192],[-90.38899,38.81425,192],[-90.38894,38.81425,192],[-90.38889,38.81424,192],[-90.38884,38.81423,193],[-90.38879,38.81422,194],[-90.38873,38.8142,195],[-90.38869,38.81417,195],[-90.38863,38.81416,196],[-90.38858,38.81414,197],[-90.38855,38.8141,197],[-90.38852,38.81407,197],[-90.38848,38.81405,197],[-90.38843,38.81404,197],[-90.38837,38.81401,198],[-90.38832,38.81399,198],[-90.38829,38.81395,198],[-90.38826,38.81392,198],[-90.38821,38.8139,198],[-90.38815,38.8139,198],[-90.3881,38.8139,198],[-90.38804,38.81391,199],[-90.38798,38.81392,199],[-90.38793,38.81393,199],[-90.38788,38.81393,199],[-90.38782,38.81394,199],[-90.38778,38.81392,199],[-90.38774,38.8139,200],[-90.3877,38.81391,200],[-90.38767,38.81392,200],[-90.38764,38.81394,200],[-90.38761,38.81395,200],[-90.38757,38.81395,200],[-90.38753,38.81394,200],[-90.38749,38.81394,200],[-90.38744,38.81395,200],[-90.3874,38.81396,200],[-90.38736,38.81397,200],[-90.38732,38.81398,200],[-90.38728,38.81399,200],[-90.38724,38.81399,200],[-90.38719,38.81399,200],[-90.38715,38.814,200],[-90.38711,38.814,200],[-90.38707,38.81401,200],[-90.38704,38.81401,200],[-90.38699,38.81402,200],[-90.38696,38.81403,200],[-90.38693,38.81405,200],[-90.38688,38.81406,200],[-90.38685,38.81407,200],[-90.3868,38.81407,200],[-90.38674,38.81408,200],[-90.38668,38.8141,200],[-90.38662,38.81411,200],[-90.38657,38.81411,199],[-90.3865,38.81411,199],[-90.38644,38.81411,198],[-90.38648,38.81411,199],[-90.38653,38.8141,199],[-90.38657,38.8141,199],[-90.3866,38.8141,199],[-90.38665,38.8141,200],[-90.38669,38.8141,200],[-90.38673,38.81412,200],[-90.38677,38.81413,200],[-90.3868,38.81414,201],[-90.38684,38.81415,201],[-90.38688,38.81415,201],[-90.38691,38.81415,201],[-90.38695,38.81415,201],[-90.38699,38.81415,201],[-90.38704,38.81414,201],[-90.38708,38.81413,201],[-90.38713,38.81412,201],[-90.38717,38.81411,201],[-90.38721,38.8141,201],[-90.38725,38.8141,201],[-90.3873,38.81409,201],[-90.38735,38.81408,200],[-90.3874,38.81408,200],[-90.38744,38.81409,200],[-90.3875,38.81409,200],[-90.38755,38.81408,200],[-90.38759,38.81407,200],[-90.38764,38.81405,200],[-90.38768,38.81404,200],[-90.38767,38.814,200],[-90.38766,38.81396,200],[-90.38763,38.81392,200],[-90.38762,38.81388,199],[-90.38761,38.81384,199],[-90.38757,38.81382,199],[-90.38754,38.81379,198],[-90.38753,38.81376,198],[-90.3875,38.81375,198],[-90.3875,38.81373,197],[-90.38751,38.8137,197],[-90.38753,38.81367,197],[-90.38755,38.81364,196],[-90.38757,38.81362,196],[-90.38759,38.81359,196],[-90.38761,38.81355,196],[-90.38761,38.81352,196],[-90.38761,38.8135,195],[-90.38762,38.81347,195],[-90.38761,38.81343,195],[-90.38761,38.8134,195],[-90.38763,38.81337,195],[-90.38767,38.81336,195],[-90.3877,38.81337,195],[-90.38774,38.81338,196],[-90.38778,38.81337,196],[-90.38781,38.81335,196],[-90.38784,38.81332,195],[-90.38789,38.81331,195],[-90.38793,38.81328,195],[-90.38797,38.81326,194],[-90.38801,38.81323,194],[-90.38804,38.81321,193],[-90.38807,38.81317,192],[-90.3881,38.81314,191],[-90.38811,38.81311,190],[-90.38811,38.81306,189],[-90.3881,38.81302,189],[-90.3881,38.81298,189],[-90.38812,38.81294,188],[-90.38813,38.81291,187],[-90.38812,38.81288,187],[-90.38813,38.81284,186],[-90.38814,38.81281,186],[-90.38817,38.81279,184],[-90.3882,38.8128,184],[-90.38824,38.81281,183],[-90.38827,38.81283,182],[-90.3883,38.81285,182],[-90.38833,38.81286,181],[-90.38837,38.81286,180],[-90.3884,38.81284,178],[-90.38842,38.81282,177],[-90.38846,38.81279,175],[-90.3885,38.81276,173],[-90.38852,38.81272,172],[-90.38854,38.81268,171],[-90.38857,38.81265,170],[-90.3886,38.81262,169],[-90.38864,38.81259,168],[-90.38868,38.81257,168],[-90.38873,38.81255,167],[-90.38872,38.81251,167],[-90.38869,38.81248,167],[-90.38871,38.81244,166],[-90.38874,38.8124,165],[-90.38878,38.81237,164],[-90.38881,38.81234,163],[-90.38884,38.81231,163],[-90.38887,38.81228,162],[-90.38889,38.81224,162],[-90.38888,38.81219,161],[-90.38885,38.81215,161],[-90.3888,38.81211,161],[-90.38877,38.81208,160],[-90.38874,38.81204,160],[-90.38872,38.81201,160],[-90.38871,38.81196,160],[-90.38868,38.81193,160],[-90.38867,38.81189,161],[-90.38868,38.81184,161],[-90.3887,38.81181,161],[-90.38873,38.81177,161],[-90.38877,38.81174,161],[-90.38881,38.81172,160],[-90.38884,38.8117,160],[-90.38888,38.81166,160],[-90.38889,38.81163,159],[-90.38894,38.81165,158],[-90.38899,38.81163,156],[-90.38904,38.81162,155],[-90.38908,38.8116,154],[-90.38912,38.81158,153],[-90.38916,38.81155,152],[-90.38921,38.81152,152],[-90.38926,38.8115,152],[-90.38931,38.81151,152],[-90.38936,38.81151,152],[-90.38941,38.81148,152],[-90.38944,38.81145,152],[-90.38946,38.8114,152],[-90.38948,38.81137,151],[-90.3895,38.81133,151],[-90.38953,38.81129,151],[-90.38957,38.81126,151],[-90.38962,38.81125,151],[-90.38968,38.81125,150],[-90.38974,38.81124,150],[-90.3898,38.81123,149],[-90.38985,38.81121,148],[-90.3899,38.8112,147],[-90.38995,38.8112,147],[-90.38999,38.81123,146],[-90.39002,38.81125,145],[-90.39008,38.81126,145],[-90.39013,38.81125,144],[-90.39015,38.81122,144],[-90.39016,38.8112,144],[-90.39019,38.8112,144],[-90.39023,38.81121,143],[-90.39027,38.81122,143],[-90.39032,38.81121,142],[-90.39036,38.81122,142],[-90.39039,38.81125,142],[-90.39041,38.81129,142],[-90.39043,38.81131,142],[-90.39047,38.81132,142],[-90.39051,38.81133,142],[-90.39055,38.81133,142],[-90.39058,38.81133,142],[-90.39063,38.81132,142],[-90.39066,38.8113,142],[-90.39069,38.81129,142],[-90.39073,38.81127,142],[-90.39077,38.81126,142],[-90.3908,38.81126,142],[-90.39084,38.81128,142],[-90.39085,38.81131,142],[-90.39087,38.81133,142],[-90.39089,38.81136,142],[-90.39093,38.81138,142],[-90.39097,38.81141,142],[-90.391,38.81145,142],[-90.39102,38.81148,142],[-90.39104,38.81152,143],[-90.39102,38.81156,144],[-90.39099,38.8116,144],[-90.39093,38.81163,145],[-90.39089,38.81165,146],[-90.39085,38.81168,147],[-90.39082,38.81171,147],[-90.3908,38.81175,147],[-90.39079,38.81179,147],[-90.39079,38.81183,148],[-90.3908,38.81187,148],[-90.39082,38.81189,148],[-90.39085,38.81192,148],[-90.39086,38.81195,149],[-90.39085,38.81199,149],[-90.39086,38.81202,149],[-90.39084,38.81205,149],[-90.39081,38.81208,149],[-90.3908,38.81211,149],[-90.3908,38.81215,149],[-90.39082,38.81219,149],[-90.39082,38.81223,149],[-90.39084,38.81226,149],[-90.39084,38.81229,148],[-90.39085,38.81233,147],[-90.39085,38.81236,146],[-90.39087,38.81239,146],[-90.39089,38.81242,145],[-90.39091,38.81246,144],[-90.39092,38.81249,143],[-90.39092,38.81252,143],[-90.3909,38.81255,144],[-90.39091,38.81259,145],[-90.39092,38.81262,145],[-90.39095,38.81264,146],[-90.39098,38.81266,146],[-90.39101,38.8127,146],[-90.391,38.81273,147],[-90.39098,38.81277,148],[-90.39096,38.81282,150],[-90.39098,38.81286,150],[-90.39101,38.81289,151],[-90.39104,38.81293,151],[-90.39098,38.81295,152],[-90.39094,38.81297,153],[-90.39096,38.813,153],[-90.39101,38.81302,153],[-90.39105,38.81304,154],[-90.39108,38.81307,154],[-90.3911,38.8131,154],[-90.3911,38.81315,154],[-90.39113,38.81319,154],[-90.39116,38.81322,153],[-90.39121,38.81326,153],[-90.39125,38.81328,152],[-90.3913,38.81331,152],[-90.39134,38.81333,151],[-90.39139,38.81335,150],[-90.39143,38.81338,150],[-90.39147,38.81341,149],[-90.39152,38.81343,148],[-90.39156,38.81346,147],[-90.39157,38.8135,146],[-90.39157,38.81354,146],[-90.39158,38.81358,145],[-90.3916,38.81362,144],[-90.39163,38.81367,144],[-90.39165,38.81371,145],[-90.39168,38.81376,145],[-90.39172,38.8138,144],[-90.39177,38.81383,143],[-90.39181,38.81385,142],[-90.39185,38.81388,141],[-90.39189,38.81392,141],[-90.39192,38.81395,141],[-90.39196,38.81399,142],[-90.39199,38.81402,143],[-90.39203,38.81405,145],[-90.39208,38.81406,145],[-90.39214,38.81407,145],[-90.39217,38.8141,146],[-90.3922,38.81411,147],[-90.39224,38.8141,146],[-90.39227,38.81408,145],[-90.3923,38.81406,144],[-90.39234,38.81405,144],[-90.39238,38.81403,143],[-90.39241,38.81401,142],[-90.39242,38.81399,141],[-90.39245,38.81396,140],[-90.39247,38.81393,139],[-90.39249,38.8139,138],[-90.39253,38.81389,138],[-90.39254,38.81386,138],[-90.39254,38.81383,138],[-90.39254,38.81379,138],[-90.39256,38.81375,138],[-90.39258,38.81371,138],[-90.3926,38.81368,138],[-90.39261,38.81365,138],[-90.39263,38.81362,138],[-90.39266,38.81358,138],[-90.39268,38.81355,137],[-90.3927,38.81351,137],[-90.39272,38.81347,136],[-90.39275,38.81344,136],[-90.39279,38.81341,135],[-90.39282,38.81338,135],[-90.39286,38.81335,134],[-90.39289,38.81332,134],[-90.39293,38.81329,133],[-90.39298,38.81326,133],[-90.39302,38.81323,133],[-90.39304,38.8132,133],[-90.39307,38.81316,132],[-90.3931,38.81313,132],[-90.39314,38.8131,132],[-90.39318,38.81307,132],[-90.39323,38.81306,132],[-90.39327,38.81303,133],[-90.39331,38.813,133],[-90.39335,38.81298,133],[-90.3934,38.81296,133],[-90.39344,38.81294,133],[-90.39348,38.81292,133],[-90.39352,38.81289,133],[-90.39356,38.81287,133],[-90.39361,38.81284,133],[-90.39365,38.81282,133],[-90.3937,38.8128,133],[-90.39375,38.81278,133],[-90.3938,38.81276,134],[-90.39385,38.81275,134],[-90.39389,38.81273,134],[-90.39393,38.8127,134],[-90.39395,38.81266,135],[-90.39397,38.81262,135],[-90.394,38.81258,135],[-90.39404,38.81255,136],[-90.39408,38.81252,136],[-90.39411,38.81249,137],[-90.39413,38.81246,137],[-90.39416,38.81243,137],[-90.3942,38.8124,137],[-90.39423,38.81237,137],[-90.39425,38.81233,137],[-90.39428,38.8123,137],[-90.39432,38.81229,137],[-90.39436,38.81227,137],[-90.39441,38.81224,137],[-90.39444,38.81222,138],[-90.39448,38.81219,137],[-90.39448,38.81216,137],[-90.39451,38.81215,137],[-90.39455,38.81214,137],[-90.39458,38.81212,137],[-90.39462,38.8121,136],[-90.39466,38.81208,136],[-90.39469,38.81205,136],[-90.39472,38.81203,136],[-90.39475,38.81201,136],[-90.39478,38.81199,136],[-90.39481,38.81197,136],[-90.39482,38.81194,136],[-90.39484,38.8119,135],[-90.39486,38.81186,135],[-90.39489,38.81183,134],[-90.39492,38.8118,134],[-90.39496,38.81177,133],[-90.39501,38.81176,133],[-90.39504,38.81175,133],[-90.39508,38.81173,133],[-90.39511,38.8117,133],[-90.39515,38.81168,133],[-90.39518,38.81165,132],[-90.39519,38.81162,132],[-90.3952,38.8116,132],[-90.39522,38.81157,132],[-90.39523,38.81154,132],[-90.3952,38.81155,132]]],
        "bbox": [
          -90.38644,
          38.81936,
          -90.39523,
          38.8112
        ]
      },
      "properties": {
        "name": "10.17.2020"
      }
    }
  ]
}