{
  "type": "FeatureCollection",
  "features": [
    {
      "type": "Feature",
      "geometry": {
        "type": "MultiLineString",
        "coordinates": [[[-90.39496,38.81167,133],[-90.39495,38.8117,133],[-90.39491,38.81175,133],[-90.39489,38.81178,134],[-90.39487,38.81181,134],[-90.39484,38.81183,135],[-90.39481,38.81186,135],[-90.39478,38.81188,135],[-90.39475,38.81191,136],[-90.39472,38.81194,136],[-90.39469,38.81196,137],[-90.39465,38.81198,137],[-90.39463,38.812,137],[-90.3946,38.81202,137],[-90.39456,38.81205,137],[-90.39454,38.81207,137],[-90.39452,38.81209,137],[-90.39449,38.81212,137],[-90.39447,38.81214,137],[-90.39445,38.81218,137],[-90.39443,38.8122,138],[-90.39438,38.81223,137],[-90.39436,38.81225,137],[-90.39432,38.81228,137],[-90.39429,38.8123,137],[-90.39426,38.81233,137],[-90.39423,38.81236,137],[-90.3942,38.81238,137],[-90.39418,38.81241,137],[-90.39415,38.81244,137],[-90.39412,38.81246,137],[-90.3941,38.81249,137],[-90.39407,38.81251,136],[-90.39403,38.81254,136],[-90.394,38.81256,136],[-90.39397,38.81257,136],[-90.39394,38.81259,135],[-90.39392,38.81261,135],[-90.39388,38.81264,135],[-90.39384,38.81267,135],[-90.39381,38.81269,134],[-90.39378,38.81271,134],[-90.39375,38.81272,134],[-90.39372,38.81275,134],[-90.39367,38.81277,134],[-90.39364,38.81278,133],[-90.3936,38.8128,133],[-90.39357,38.81281,133],[-90.39353,38.81283,133],[-90.39351,38.81285,133],[-90.39348,38.81288,133],[-90.39345,38.81289,133],[-90.39341,38.81291,133],[-90.39337,38.81293,133],[-90.39334,38.81295,133],[-90.39331,38.81296,133],[-90.39328,38.81298,133],[-90.39324,38.813,133],[-90.39322,38.81305,133],[-90.39316,38.81307,132],[-90.39312,38.81313,132],[-90.39309,38.81315,132],[-90.39305,38.81316,133],[-90.39301,38.81318,133],[-90.39296,38.8132,133],[-90.39292,38.81324,133],[-90.39287,38.81327,134],[-90.39284,38.81331,134],[-90.39281,38.81336,135],[-90.39277,38.81339,135],[-90.39274,38.81342,136],[-90.39273,38.81345,136],[-90.39272,38.81348,136],[-90.3927,38.8135,137],[-90.39267,38.81353,137],[-90.39265,38.81356,138],[-90.39263,38.8136,138],[-90.39261,38.81363,138],[-90.39258,38.81366,138],[-90.39256,38.8137,138],[-90.39255,38.81373,138],[-90.39254,38.81376,138],[-90.39252,38.81379,138],[-90.39249,38.8138,138],[-90.39247,38.81383,137],[-90.39245,38.81386,137],[-90.39247,38.81388,137],[-90.39245,38.81391,138],[-90.39242,38.81393,138],[-90.3924,38.81396,139],[-90.39237,38.81398,140],[-90.39234,38.814,141],[-90.39231,38.81402,142],[-90.39227,38.81404,143],[-90.39223,38.81405,143],[-90.3922,38.81405,143],[-90.39217,38.81403,142],[-90.39215,38.81401,141],[-90.39212,38.81399,140],[-90.39207,38.81398,140],[-90.39203,38.81396,140],[-90.392,38.81395,140],[-90.39197,38.81392,139],[-90.39194,38.8139,138],[-90.3919,38.81388,139],[-90.39187,38.81386,140],[-90.39183,38.81384,142],[-90.3918,38.81382,142],[-90.39176,38.8138,143],[-90.39173,38.81378,144],[-90.39172,38.81374,144],[-90.39172,38.81371,143],[-90.39172,38.81367,143],[-90.39171,38.81364,143],[-90.3917,38.81361,142],[-90.39169,38.81357,143],[-90.39169,38.81354,143],[-90.39169,38.8135,144],[-90.39169,38.81346,144],[-90.39168,38.81342,145],[-90.39168,38.81339,146],[-90.39163,38.81334,147],[-90.39161,38.8133,147],[-90.39156,38.81326,147],[-90.3915,38.81324,148],[-90.39144,38.81321,149],[-90.39143,38.81316,149],[-90.39141,38.81311,149],[-90.39136,38.8131,150],[-90.39135,38.81308,150],[-90.39132,38.8131,151],[-90.39129,38.81304,151],[-90.39127,38.81301,150],[-90.39127,38.81298,149],[-90.39126,38.81294,148],[-90.39124,38.8129,148],[-90.39124,38.81285,146],[-90.39123,38.81282,146],[-90.39119,38.8128,146],[-90.39114,38.81278,146],[-90.39112,38.81274,146],[-90.3911,38.8127,145],[-90.39108,38.81266,144],[-90.39106,38.81262,144],[-90.39105,38.81258,143],[-90.39105,38.81254,142],[-90.39107,38.8125,141],[-90.39107,38.81246,142],[-90.39106,38.81243,143],[-90.39105,38.81239,144],[-90.39103,38.81235,145],[-90.39101,38.81231,147],[-90.391,38.81226,148],[-90.39097,38.81222,149],[-90.39093,38.81219,149],[-90.39092,38.81214,149],[-90.39094,38.81211,149],[-90.39094,38.81206,149],[-90.39095,38.81203,150],[-90.39097,38.81199,150],[-90.39098,38.81195,150],[-90.39098,38.81191,150],[-90.39098,38.81186,149],[-90.39098,38.81181,148],[-90.39098,38.81177,147],[-90.39098,38.81173,146],[-90.39101,38.8117,146],[-90.39106,38.81167,145],[-90.39109,38.81164,144],[-90.39112,38.81161,144],[-90.39115,38.81158,143],[-90.39115,38.81154,142],[-90.39114,38.8115,142],[-90.39112,38.81146,141],[-90.3911,38.81141,141],[-90.39108,38.81137,141],[-90.39105,38.81134,140],[-90.39101,38.81131,141],[-90.39098,38.81127,140],[-90.39095,38.81125,140],[-90.39092,38.81121,140],[-90.3909,38.81118,140],[-90.39086,38.81117,141],[-90.39082,38.81118,141],[-90.39078,38.81118,141],[-90.39076,38.8112,141],[-90.39072,38.81122,142],[-90.39069,38.81124,142],[-90.39065,38.81125,142],[-90.39061,38.81126,142],[-90.39058,38.81127,142],[-90.39052,38.81126,142],[-90.39048,38.81125,142],[-90.39044,38.81124,142],[-90.39041,38.81123,142],[-90.39036,38.81122,142],[-90.39033,38.81123,142],[-90.39029,38.81123,142],[-90.39025,38.81124,143],[-90.3902,38.81123,143],[-90.39016,38.81122,144],[-90.39012,38.81121,144],[-90.39008,38.81121,145],[-90.39004,38.8112,145],[-90.38999,38.81118,146],[-90.38995,38.81118,147],[-90.38991,38.81118,147],[-90.38987,38.8112,148],[-90.38984,38.81121,148],[-90.38979,38.81122,149],[-90.38974,38.81123,150],[-90.3897,38.81124,150],[-90.38966,38.81124,150],[-90.38962,38.81123,151],[-90.38959,38.81124,151],[-90.38955,38.81125,151],[-90.38952,38.81127,151],[-90.38949,38.8113,151],[-90.38948,38.81132,151],[-90.38946,38.81135,151],[-90.38944,38.81138,152],[-90.38941,38.81141,152],[-90.38937,38.81142,152],[-90.38933,38.81143,152],[-90.38928,38.81144,152],[-90.38925,38.81145,152],[-90.38921,38.81146,152],[-90.38917,38.81148,152],[-90.38913,38.81149,152],[-90.38909,38.81151,153],[-90.38906,38.81152,154],[-90.38902,38.81153,155],[-90.38898,38.81155,156],[-90.38892,38.81156,158],[-90.38888,38.81156,159],[-90.38884,38.81158,160],[-90.38881,38.8116,161],[-90.38881,38.81163,161],[-90.38879,38.81165,161],[-90.38876,38.81168,162],[-90.38874,38.8117,162],[-90.3887,38.81171,162],[-90.38867,38.81174,163],[-90.38865,38.81176,163],[-90.38863,38.81179,163],[-90.38862,38.81182,163],[-90.38861,38.81186,162],[-90.38862,38.81188,162],[-90.38865,38.81191,161],[-90.38868,38.81193,160],[-90.38869,38.81196,160],[-90.38871,38.81199,160],[-90.38874,38.81202,160],[-90.38877,38.81203,160],[-90.38881,38.81204,159],[-90.38882,38.81208,160],[-90.38882,38.81211,160],[-90.38883,38.81214,161],[-90.38882,38.81218,161],[-90.38879,38.81221,162],[-90.38876,38.81225,163],[-90.38874,38.81227,163],[-90.3887,38.8123,164],[-90.38867,38.81231,164],[-90.38864,38.81233,165],[-90.38863,38.81237,166],[-90.38863,38.8124,166],[-90.38862,38.81243,167],[-90.38863,38.81246,167],[-90.38864,38.81249,168],[-90.38862,38.81252,168],[-90.3886,38.81255,169],[-90.38859,38.81258,169],[-90.38858,38.81261,170],[-90.38856,38.81264,171],[-90.38853,38.81267,172],[-90.3885,38.81268,173],[-90.38846,38.8127,174],[-90.38844,38.81272,175],[-90.3884,38.81273,176],[-90.3884,38.81276,177],[-90.38837,38.81278,178],[-90.38836,38.81281,179],[-90.38832,38.81281,180],[-90.38828,38.8128,181],[-90.38824,38.8128,183],[-90.3882,38.81282,184],[-90.38815,38.81284,186],[-90.38812,38.81284,186],[-90.38809,38.81287,188],[-90.38808,38.8129,188],[-90.38808,38.81293,189],[-90.38807,38.81296,189],[-90.38807,38.813,190],[-90.38807,38.81303,190],[-90.38806,38.81306,190],[-90.38805,38.81309,191],[-90.38804,38.81312,192],[-90.38802,38.81315,192],[-90.38801,38.81317,193],[-90.38799,38.81321,193],[-90.38796,38.81323,194],[-90.38794,38.81325,194],[-90.38791,38.81328,195],[-90.38788,38.81329,195],[-90.38784,38.81331,195],[-90.38786,38.81328,195],[-90.38788,38.81326,195],[-90.38791,38.81328,195],[-90.38792,38.81333,195],[-90.38792,38.81336,196],[-90.38788,38.81337,196],[-90.38785,38.81337,196],[-90.38781,38.81336,196],[-90.38777,38.81334,195],[-90.38772,38.81333,195],[-90.38767,38.81332,195],[-90.38762,38.81331,194],[-90.38758,38.81335,194],[-90.38755,38.8134,194],[-90.38754,38.81345,195],[-90.38751,38.81349,195],[-90.38749,38.81352,195],[-90.3875,38.81355,195],[-90.38752,38.81358,195],[-90.38753,38.81362,196],[-90.38753,38.81365,196],[-90.38751,38.81367,196],[-90.3875,38.8137,197],[-90.38749,38.81374,197],[-90.38749,38.81376,198],[-90.38747,38.8138,198],[-90.38747,38.81384,199],[-90.38749,38.81387,199],[-90.38752,38.8139,200],[-90.38755,38.81392,200],[-90.38757,38.81394,200],[-90.3876,38.81395,200],[-90.38764,38.81396,200],[-90.38768,38.81397,200],[-90.38772,38.81398,200],[-90.38777,38.81398,200],[-90.38781,38.81399,199],[-90.38785,38.81399,199],[-90.38789,38.814,199],[-90.38794,38.81399,199],[-90.38797,38.81399,199],[-90.38801,38.81398,199],[-90.38805,38.81399,199],[-90.38809,38.81399,199],[-90.38812,38.81399,199],[-90.38816,38.81399,198],[-90.3882,38.81399,198],[-90.38825,38.814,198],[-90.38829,38.81401,198],[-90.38833,38.81402,198],[-90.38837,38.81404,198],[-90.38841,38.81406,197],[-90.38845,38.81407,197],[-90.38849,38.81408,197],[-90.38853,38.81408,197],[-90.38857,38.81409,196],[-90.38861,38.81411,196],[-90.38864,38.81412,196],[-90.38868,38.81413,195],[-90.38872,38.81414,195],[-90.38875,38.81416,194],[-90.38878,38.81417,194],[-90.38881,38.81419,194],[-90.38885,38.81421,193],[-90.38889,38.81422,192],[-90.38893,38.81423,192],[-90.38897,38.81424,192],[-90.38901,38.81424,192],[-90.38906,38.81425,192],[-90.3891,38.81426,192],[-90.38915,38.81426,192],[-90.38919,38.81427,192],[-90.38924,38.81429,191],[-90.38927,38.8143,191],[-90.38931,38.81431,190],[-90.38935,38.81432,190],[-90.38938,38.81434,189],[-90.38941,38.81436,189],[-90.38943,38.81438,189],[-90.38944,38.81441,189],[-90.38946,38.81443,189],[-90.38947,38.81446,189],[-90.38947,38.81449,190],[-90.38947,38.81453,190],[-90.38947,38.81457,190],[-90.38947,38.8146,190],[-90.38946,38.81463,190],[-90.38946,38.81466,190],[-90.38946,38.81469,190],[-90.38946,38.81472,191],[-90.38946,38.81475,190],[-90.38946,38.81479,190],[-90.38946,38.81482,189],[-90.38947,38.81486,189],[-90.38947,38.81489,189],[-90.38949,38.81493,188],[-90.3895,38.81495,188],[-90.38953,38.81497,188],[-90.38957,38.815,188],[-90.3896,38.81501,188],[-90.38962,38.81504,187],[-90.38964,38.81507,187],[-90.38967,38.8151,186],[-90.38969,38.81513,186],[-90.38972,38.81515,185],[-90.38975,38.81518,185],[-90.38978,38.8152,184],[-90.3898,38.81522,184],[-90.38983,38.81524,183],[-90.38984,38.81527,182],[-90.38988,38.81529,182],[-90.38991,38.8153,181],[-90.38995,38.81531,181],[-90.38999,38.81533,181],[-90.39001,38.81534,180],[-90.39006,38.81537,180],[-90.3901,38.81539,180],[-90.39014,38.81541,179],[-90.39018,38.81542,179],[-90.39021,38.81544,179],[-90.39025,38.81546,179],[-90.39029,38.81547,179],[-90.39033,38.81548,179],[-90.39036,38.81549,179],[-90.3904,38.8155,180],[-90.39044,38.8155,180],[-90.39049,38.8155,181],[-90.39052,38.8155,181],[-90.39057,38.8155,182],[-90.39061,38.81551,182],[-90.39065,38.81551,183],[-90.39069,38.81551,183],[-90.39072,38.8155,184],[-90.39077,38.8155,184],[-90.39082,38.8155,185],[-90.39086,38.8155,185],[-90.3909,38.8155,185],[-90.39094,38.81549,185],[-90.39097,38.81549,185],[-90.39102,38.81549,185],[-90.39107,38.81549,186],[-90.39111,38.81549,186],[-90.39114,38.81549,186],[-90.39118,38.8155,185],[-90.39122,38.81551,185],[-90.39125,38.81551,185],[-90.39129,38.8155,185],[-90.39133,38.8155,185],[-90.39137,38.81551,185],[-90.3914,38.81552,184],[-90.39144,38.81554,184],[-90.39148,38.81557,184],[-90.39151,38.81559,183],[-90.39154,38.81561,183],[-90.39157,38.81563,182],[-90.3916,38.81565,182],[-90.39164,38.81567,181],[-90.39166,38.81569,181],[-90.39169,38.81571,180],[-90.39172,38.81573,179],[-90.39176,38.81572,178],[-90.39179,38.8157,178],[-90.39182,38.8157,177],[-90.39186,38.81569,177],[-90.39186,38.81571,176],[-90.39184,38.81569,177],[-90.39179,38.8157,178],[-90.39178,38.81574,178],[-90.3918,38.81576,177],[-90.39181,38.81579,176],[-90.39182,38.81582,175],[-90.39182,38.81585,175],[-90.39183,38.81589,174],[-90.39182,38.81592,173],[-90.39181,38.81596,173],[-90.3918,38.81599,172],[-90.39179,38.81602,172],[-90.39178,38.81605,172],[-90.39178,38.81608,171],[-90.39177,38.81612,170],[-90.39176,38.81614,170],[-90.39175,38.81618,169],[-90.39173,38.81621,168],[-90.39171,38.81624,168],[-90.3917,38.81628,166],[-90.39169,38.8163,166],[-90.39169,38.81633,165],[-90.39169,38.81636,164],[-90.39168,38.81639,163],[-90.39165,38.8164,164],[-90.39162,38.81642,164],[-90.3916,38.81645,163],[-90.39158,38.81648,163],[-90.39156,38.81651,162],[-90.39153,38.81654,162],[-90.39152,38.81656,162],[-90.39151,38.81659,161],[-90.39149,38.81662,161],[-90.39146,38.81664,161],[-90.39142,38.81666,161],[-90.39139,38.81667,161],[-90.39137,38.81669,161],[-90.39134,38.81672,161],[-90.39131,38.81674,160],[-90.39128,38.81676,160],[-90.39124,38.81678,160],[-90.39121,38.81679,160],[-90.39117,38.81681,160],[-90.39113,38.81681,161],[-90.3911,38.8168,162],[-90.39107,38.81677,163],[-90.39103,38.81675,164],[-90.39099,38.81674,164],[-90.39095,38.81673,165],[-90.39092,38.81671,165],[-90.39088,38.81672,165],[-90.39087,38.81675,165],[-90.39086,38.81678,164],[-90.39086,38.81681,164],[-90.39083,38.81683,164],[-90.39079,38.81683,164],[-90.39075,38.81683,164],[-90.39072,38.81684,164],[-90.39069,38.81687,164],[-90.39065,38.81689,164],[-90.39062,38.8169,164],[-90.39058,38.81692,165],[-90.39054,38.81693,165],[-90.3905,38.81692,165],[-90.39046,38.81691,166],[-90.39043,38.81689,166],[-90.39041,38.81687,166],[-90.39038,38.81685,167],[-90.39041,38.81687,166],[-90.39045,38.81688,166],[-90.39049,38.8169,165],[-90.39051,38.81693,165],[-90.39053,38.81696,164],[-90.39055,38.81698,163],[-90.39056,38.81701,162],[-90.39057,38.81704,161],[-90.39057,38.81707,160],[-90.39055,38.8171,159],[-90.39054,38.81713,159],[-90.39053,38.81716,158],[-90.39054,38.81719,157],[-90.39055,38.81722,156],[-90.39055,38.81725,155],[-90.39053,38.81728,154],[-90.39056,38.81731,152],[-90.39056,38.81733,152],[-90.39058,38.81736,150],[-90.39058,38.81739,149],[-90.39057,38.81742,148],[-90.39055,38.81744,148],[-90.39056,38.81747,147],[-90.39057,38.8175,145],[-90.39058,38.81753,144],[-90.39059,38.81756,144],[-90.39058,38.81759,143],[-90.39056,38.81762,143],[-90.39056,38.81765,142],[-90.3906,38.81766,141],[-90.39062,38.81767,141],[-90.39064,38.8177,140],[-90.39067,38.81772,139],[-90.39068,38.81775,139],[-90.39069,38.81778,138],[-90.39071,38.8178,138],[-90.39074,38.81782,137],[-90.39076,38.81786,136],[-90.39076,38.81789,136],[-90.39075,38.81792,136],[-90.39074,38.81795,135],[-90.39071,38.81796,136],[-90.39072,38.81793,136],[-90.39075,38.81795,135],[-90.39071,38.81794,136],[-90.3907,38.81791,136],[-90.39067,38.81789,137],[-90.39064,38.81787,137],[-90.39061,38.81785,138],[-90.39059,38.81781,139],[-90.39056,38.8178,139],[-90.39052,38.8178,140],[-90.39048,38.8178,140],[-90.39044,38.81781,140],[-90.39041,38.81782,141],[-90.39037,38.81784,141],[-90.39034,38.81785,141],[-90.3903,38.81787,141],[-90.39027,38.81789,141],[-90.39022,38.8179,142],[-90.39018,38.81791,142],[-90.39014,38.81792,143],[-90.3901,38.81793,143],[-90.39007,38.81794,144],[-90.39003,38.81795,144],[-90.38999,38.81797,144],[-90.38995,38.81799,144],[-90.38991,38.81801,145],[-90.38987,38.81803,145],[-90.38985,38.81805,145],[-90.38982,38.81806,145],[-90.38981,38.81803,146],[-90.38981,38.818,146],[-90.38977,38.81799,147],[-90.38939,38.81803,148],[-90.38936,38.81804,148],[-90.38932,38.81804,148],[-90.38928,38.81803,149],[-90.38924,38.81802,150],[-90.38919,38.81802,150],[-90.38914,38.81803,151],[-90.3891,38.81804,152],[-90.38908,38.81806,152],[-90.38905,38.81808,151],[-90.38901,38.81808,153],[-90.38898,38.81808,153],[-90.38894,38.81808,154],[-90.38892,38.81811,153],[-90.38891,38.81814,153],[-90.38888,38.81816,153],[-90.38885,38.81818,152],[-90.38882,38.8182,152],[-90.38879,38.81822,152],[-90.38875,38.81823,152],[-90.38872,38.81823,153],[-90.38868,38.81821,154],[-90.38864,38.81823,154],[-90.38863,38.81826,153],[-90.38859,38.81828,152],[-90.38855,38.81829,152],[-90.38853,38.81832,150],[-90.3885,38.81834,149],[-90.38847,38.81836,148],[-90.38843,38.81836,148],[-90.3884,38.81838,148],[-90.38837,38.81841,146],[-90.38836,38.81844,145],[-90.38836,38.81847,144],[-90.38836,38.8185,142],[-90.38833,38.81852,141],[-90.38829,38.81855,141],[-90.38828,38.81858,139],[-90.38827,38.81861,138],[-90.38823,38.81864,139],[-90.38821,38.81865,139],[-90.38817,38.81868,139],[-90.38814,38.81869,140],[-90.3881,38.81871,140],[-90.38806,38.81872,140],[-90.38802,38.81873,141],[-90.38798,38.81874,141],[-90.38794,38.81877,141],[-90.38791,38.81879,141],[-90.38787,38.81881,142],[-90.38784,38.81883,142],[-90.38781,38.81884,142],[-90.38777,38.81885,142],[-90.38773,38.81886,142],[-90.3877,38.81887,142],[-90.38767,38.81889,141],[-90.38764,38.8189,141],[-90.3876,38.81891,141],[-90.38756,38.81893,140],[-90.38754,38.81896,139],[-90.38751,38.81899,138],[-90.38748,38.81901,138],[-90.38746,38.81903,137],[-90.38745,38.81907,136],[-90.38742,38.8191,135],[-90.38738,38.81912,134],[-90.38735,38.81914,133],[-90.38732,38.81916,132],[-90.38729,38.81918,132],[-90.38727,38.8192,132],[-90.38728,38.81923,132],[-90.38726,38.81925,132],[-90.38727,38.81929,132],[-90.38727,38.81926,132],[-90.38716,38.81926,132],[-90.38712,38.81928,132],[-90.38708,38.81929,132],[-90.38703,38.8193,132],[-90.38698,38.81931,132],[-90.38694,38.81932,132],[-90.38691,38.81934,132],[-90.38688,38.81936,132],[-90.38684,38.81937,132],[-90.3868,38.81939,132],[-90.38678,38.81941,132],[-90.38675,38.81944,132],[-90.38671,38.81945,131],[-90.38668,38.81947,131],[-90.38667,38.8195,131],[-90.3867,38.81952,131],[-90.38671,38.81955,131],[-90.38669,38.81958,131],[-90.38666,38.81958,131],[-90.38664,38.81955,131],[-90.38665,38.81953,131],[-90.38669,38.81957,131],[-90.38665,38.81954,131],[-90.38654,38.81955,131],[-90.3865,38.81956,131],[-90.38647,38.81958,131],[-90.38643,38.81959,131],[-90.38639,38.8196,131],[-90.38634,38.81962,131],[-90.3863,38.81964,131],[-90.38626,38.81966,131],[-90.38624,38.81968,131],[-90.3862,38.8197,131],[-90.38617,38.8197,131],[-90.3862,38.81971,131],[-90.38616,38.81971,131],[-90.38612,38.81971,131],[-90.38608,38.81971,131],[-90.38604,38.81971,131],[-90.386,38.81972,131],[-90.38596,38.81972,131],[-90.38592,38.81972,131],[-90.38589,38.8197,131],[-90.38584,38.81969,132],[-90.3858,38.8197,131],[-90.38576,38.8197,131],[-90.3857,38.81969,132],[-90.38564,38.81967,133],[-90.38558,38.81967,133],[-90.38551,38.81968,132],[-90.38546,38.81971,131],[-90.38541,38.81974,131],[-90.38535,38.81976,131],[-90.38529,38.81977,131],[-90.38524,38.81979,131],[-90.38518,38.81978,131],[-90.38513,38.81978,131],[-90.38506,38.81979,131],[-90.385,38.81979,131],[-90.38495,38.81977,132],[-90.38488,38.81975,134],[-90.38481,38.81976,136],[-90.38476,38.81974,139],[-90.38471,38.81974,140],[-90.38466,38.81975,139],[-90.38461,38.8197,140],[-90.38454,38.8197,140],[-90.38459,38.81977,138],[-90.38461,38.81979,138],[-90.38458,38.81981,137],[-90.38457,38.81984,136],[-90.38457,38.81981,137],[-90.3846,38.81979,138],[-90.38459,38.81976,139],[-90.38471,38.81976,139],[-90.38475,38.81978,138],[-90.38478,38.81976,137],[-90.3848,38.81973,137],[-90.38488,38.81973,135],[-90.38492,38.81973,133],[-90.38496,38.81972,132],[-90.385,38.81973,131],[-90.38503,38.81973,131],[-90.38507,38.81973,131],[-90.38511,38.81972,131],[-90.38515,38.8197,131],[-90.38518,38.81969,132],[-90.38522,38.81969,132],[-90.38526,38.81968,132],[-90.3853,38.81966,133],[-90.38533,38.81967,133],[-90.38537,38.81968,132],[-90.38541,38.81966,133],[-90.38545,38.81965,133],[-90.38548,38.81967,133],[-90.38548,38.8197,131],[-90.38552,38.81971,131],[-90.38556,38.8197,131],[-90.3856,38.81969,132],[-90.38564,38.81968,132],[-90.38567,38.81968,132],[-90.38571,38.81968,132],[-90.38588,38.81968,132],[-90.38592,38.81968,132],[-90.38595,38.8197,131],[-90.38599,38.81971,131],[-90.38603,38.81971,131],[-90.38607,38.8197,131],[-90.38612,38.81969,131],[-90.38616,38.81968,132],[-90.3862,38.81967,131],[-90.38624,38.81966,131],[-90.38627,38.81965,131],[-90.38631,38.81964,131],[-90.38634,38.81961,131],[-90.38638,38.81959,131],[-90.38641,38.81957,131],[-90.38644,38.81957,131],[-90.38648,38.81956,131],[-90.38651,38.81955,131],[-90.38655,38.81954,131],[-90.38659,38.81952,131],[-90.38662,38.8195,131],[-90.38665,38.81948,131],[-90.38665,38.81945,131],[-90.38665,38.81942,132],[-90.38668,38.81941,132],[-90.38671,38.8194,132],[-90.38674,38.81938,132],[-90.38678,38.81936,133],[-90.38681,38.81934,133],[-90.38685,38.81933,132],[-90.38689,38.81932,132],[-90.38692,38.81931,132],[-90.38696,38.8193,132],[-90.387,38.81928,132],[-90.38703,38.81926,132],[-90.38706,38.81924,132],[-90.38711,38.81923,132],[-90.38714,38.81922,132],[-90.38719,38.81919,132],[-90.38722,38.81918,132],[-90.38725,38.81917,132],[-90.38729,38.81915,132],[-90.38732,38.81914,133],[-90.38736,38.81911,134],[-90.38739,38.81909,135],[-90.38742,38.81907,136],[-90.38743,38.81904,137],[-90.38743,38.81901,138],[-90.38745,38.81898,139],[-90.38747,38.81896,139],[-90.38749,38.81892,141],[-90.38751,38.81889,141],[-90.38754,38.81887,142],[-90.38758,38.81886,142],[-90.38762,38.81884,143],[-90.38765,38.81883,143],[-90.38768,38.81882,143],[-90.38771,38.81881,143],[-90.38774,38.81879,143],[-90.38777,38.81877,143],[-90.38781,38.81875,143],[-90.38783,38.81872,143],[-90.38785,38.81869,143],[-90.38789,38.81868,143],[-90.38793,38.81867,143],[-90.38797,38.81866,142],[-90.38801,38.81865,142],[-90.38805,38.81864,141],[-90.3881,38.81863,141],[-90.38814,38.81862,140],[-90.38817,38.81861,140],[-90.3882,38.81858,141],[-90.38822,38.81855,141],[-90.38825,38.81853,142],[-90.38828,38.81851,142],[-90.3883,38.81849,143],[-90.38832,38.81846,144],[-90.38834,38.81844,145],[-90.38837,38.81842,146],[-90.38842,38.81839,147],[-90.38845,38.81837,148],[-90.38848,38.81835,149],[-90.38851,38.81833,150],[-90.38853,38.81829,152],[-90.38855,38.81827,152],[-90.38858,38.81826,153],[-90.38862,38.81825,153],[-90.38867,38.81824,153],[-90.3887,38.81823,153],[-90.38874,38.81821,153],[-90.38878,38.81819,153],[-90.3888,38.81816,154],[-90.38883,38.81813,155],[-90.38884,38.81811,155],[-90.38885,38.81808,156],[-90.3889,38.81807,156],[-90.38894,38.81807,155],[-90.38897,38.81807,154],[-90.38901,38.81806,153],[-90.38905,38.81805,153],[-90.38908,38.81803,153],[-90.38912,38.81801,152],[-90.38915,38.818,152],[-90.38919,38.818,151],[-90.38921,38.81797,152],[-90.38925,38.81797,151],[-90.3893,38.81797,150],[-90.38934,38.81797,150],[-90.38939,38.81797,149],[-90.38943,38.81796,149],[-90.38947,38.81796,149],[-90.3895,38.81797,148],[-90.38953,38.81799,148],[-90.38958,38.81798,148],[-90.38961,38.81798,148],[-90.38965,38.81797,148],[-90.38969,38.81797,148],[-90.38972,38.81797,148],[-90.38977,38.81796,147],[-90.3898,38.81795,147],[-90.38984,38.81794,147],[-90.38988,38.81794,146],[-90.38992,38.81793,146],[-90.38995,38.81793,145],[-90.38999,38.81792,145],[-90.39002,38.8179,145],[-90.39005,38.81787,145],[-90.39009,38.81786,145],[-90.39014,38.81785,144],[-90.39018,38.81784,143],[-90.39021,38.81782,143],[-90.39024,38.81781,143],[-90.39028,38.81779,142],[-90.39032,38.81779,142],[-90.39037,38.81778,141],[-90.3904,38.81778,141],[-90.39044,38.81776,141],[-90.39045,38.81773,142],[-90.39048,38.81771,142],[-90.39051,38.81771,141],[-90.39053,38.81774,141],[-90.39056,38.81776,140],[-90.39058,38.81772,141],[-90.39058,38.81769,141],[-90.39058,38.81766,142],[-90.3906,38.81763,142],[-90.39062,38.81761,142],[-90.39065,38.81759,142],[-90.39067,38.81757,142],[-90.3907,38.81755,142],[-90.39074,38.81752,142],[-90.39076,38.8175,143],[-90.39079,38.81747,143],[-90.39082,38.81745,143],[-90.39085,38.81743,144],[-90.39087,38.8174,144],[-90.39088,38.81738,145],[-90.3909,38.81735,145],[-90.39092,38.81733,146],[-90.39096,38.8173,146],[-90.39099,38.81728,146],[-90.39102,38.81724,147],[-90.39106,38.81721,147],[-90.39108,38.81718,148],[-90.39112,38.81715,148],[-90.39116,38.81712,149],[-90.3912,38.81708,150],[-90.39123,38.81705,151],[-90.39127,38.81702,151],[-90.39131,38.81701,151],[-90.39136,38.81701,150],[-90.3914,38.817,150],[-90.39144,38.81698,150],[-90.39147,38.81696,150],[-90.39152,38.81697,149],[-90.39155,38.817,147],[-90.39158,38.81701,146],[-90.39161,38.81704,145],[-90.39161,38.81706,144],[-90.3916,38.8171,142],[-90.39158,38.81712,142],[-90.3916,38.81709,143],[-90.39163,38.81707,143],[-90.39166,38.81705,143],[-90.39169,38.81703,144],[-90.39171,38.81701,145],[-90.39175,38.817,146],[-90.39179,38.817,146],[-90.39177,38.81703,144],[-90.39176,38.81705,144],[-90.39172,38.81705,143],[-90.39173,38.81702,145],[-90.39174,38.81699,146],[-90.39175,38.81696,147],[-90.39176,38.81693,148],[-90.39177,38.8169,149],[-90.39178,38.81686,150],[-90.39179,38.81683,150],[-90.3918,38.8168,151],[-90.39181,38.81677,151],[-90.39182,38.81674,151],[-90.39184,38.81671,152],[-90.39186,38.81669,152],[-90.39188,38.81667,152],[-90.39192,38.81666,151],[-90.39196,38.81665,151],[-90.39199,38.81663,150],[-90.39201,38.8166,150],[-90.39204,38.81659,150],[-90.39207,38.81657,150],[-90.39211,38.81655,149],[-90.39214,38.81652,149],[-90.39216,38.8165,149],[-90.39217,38.81647,149],[-90.39218,38.81644,149],[-90.3922,38.81642,149],[-90.3922,38.81638,149],[-90.39223,38.81637,149],[-90.39223,38.81633,150],[-90.39224,38.8163,151],[-90.39225,38.81627,152],[-90.39228,38.81625,151],[-90.39231,38.81623,151],[-90.39233,38.81621,151],[-90.39234,38.81617,152],[-90.39235,38.81615,152],[-90.39238,38.81613,152],[-90.39241,38.81611,151],[-90.39245,38.8161,150],[-90.39247,38.81607,149],[-90.39248,38.81604,149],[-90.39249,38.81601,149],[-90.39252,38.81598,148],[-90.39255,38.81597,147],[-90.39259,38.81596,145],[-90.39263,38.81599,144],[-90.39265,38.81601,144],[-90.39269,38.81601,142],[-90.39273,38.81601,141],[-90.39276,38.81601,140],[-90.39273,38.81602,141],[-90.39269,38.81603,142],[-90.39265,38.81602,144],[-90.39262,38.81588,145],[-90.3926,38.81585,145],[-90.3926,38.81582,146],[-90.3926,38.81579,146],[-90.39259,38.81576,147],[-90.39259,38.81573,148],[-90.39259,38.81569,149],[-90.39261,38.81565,149],[-90.39263,38.8156,149],[-90.39268,38.81559,148],[-90.39274,38.81556,146],[-90.39279,38.81552,145],[-90.39287,38.8155,144],[-90.39295,38.81547,142],[-90.39301,38.81543,142],[-90.39308,38.81541,141],[-90.39314,38.81537,140],[-90.39319,38.81533,141],[-90.39322,38.81527,141],[-90.39322,38.81522,142],[-90.39325,38.81519,141],[-90.39326,38.81523,141],[-90.3932,38.81515,143],[-90.39318,38.81506,144],[-90.39318,38.81498,145],[-90.39313,38.81492,145],[-90.39311,38.81487,145],[-90.39307,38.81483,146],[-90.39303,38.81478,146],[-90.39299,38.81474,147],[-90.39295,38.81467,148],[-90.39291,38.81462,149],[-90.3929,38.81458,149],[-90.39287,38.81455,150],[-90.39284,38.81453,151],[-90.3928,38.81451,152],[-90.39277,38.81449,152],[-90.39273,38.81448,153],[-90.3927,38.81446,153],[-90.39267,38.81444,154],[-90.39264,38.81441,153],[-90.3926,38.81439,153],[-90.39257,38.81438,153],[-90.39254,38.81435,153],[-90.39251,38.81432,153],[-90.39246,38.8143,152],[-90.39242,38.81429,152],[-90.39238,38.81428,152],[-90.39234,38.81426,152],[-90.3923,38.81425,152],[-90.39228,38.81422,151],[-90.39226,38.81419,151],[-90.39225,38.81416,150],[-90.39223,38.81414,149],[-90.39222,38.81411,147],[-90.39222,38.81407,144],[-90.3922,38.81403,142],[-90.39218,38.814,140],[-90.39217,38.81398,139],[-90.3922,38.81395,137],[-90.39221,38.81393,135],[-90.39224,38.8139,134],[-90.39227,38.81388,134],[-90.39229,38.81385,134],[-90.39231,38.81383,135],[-90.39234,38.81381,136],[-90.39237,38.81379,136],[-90.39239,38.81376,137],[-90.39241,38.81374,137],[-90.39244,38.81371,138],[-90.39246,38.81369,138],[-90.39248,38.81366,138],[-90.39249,38.81363,138],[-90.3925,38.8136,138],[-90.39252,38.81356,138],[-90.39255,38.81353,138],[-90.39257,38.81351,137],[-90.39258,38.81346,137],[-90.39263,38.81342,136],[-90.39271,38.81339,136],[-90.3928,38.81333,134],[-90.39288,38.81327,134],[-90.39299,38.81325,133],[-90.39307,38.81318,132],[-90.39311,38.81311,132],[-90.39318,38.81305,133],[-90.39327,38.81301,133],[-90.39333,38.81297,133],[-90.39337,38.81293,133],[-90.39341,38.81289,133],[-90.39346,38.81287,133],[-90.3935,38.81284,133],[-90.39355,38.81281,134],[-90.39358,38.81279,134],[-90.39362,38.81275,134],[-90.39366,38.81272,134],[-90.39368,38.81269,134],[-90.39372,38.81266,135],[-90.39375,38.81264,135],[-90.3938,38.81261,135],[-90.39384,38.81259,135],[-90.39389,38.81256,136],[-90.39392,38.81254,136],[-90.39395,38.81253,136],[-90.39399,38.8125,137],[-90.39404,38.81248,137],[-90.39407,38.81245,137],[-90.3941,38.81242,137],[-90.39412,38.81239,137],[-90.39414,38.81236,137],[-90.39416,38.81233,137],[-90.39419,38.8123,137],[-90.39422,38.81228,137],[-90.39426,38.81225,137],[-90.39429,38.81222,138],[-90.39433,38.81218,138],[-90.39436,38.81215,138],[-90.3944,38.81212,138],[-90.39444,38.8121,138],[-90.39447,38.81207,137],[-90.39452,38.81203,137],[-90.39455,38.812,137],[-90.39459,38.81197,137],[-90.39461,38.81194,137],[-90.39465,38.8119,136],[-90.39469,38.81187,136],[-90.39473,38.81184,135],[-90.39476,38.81181,135],[-90.39479,38.81179,134]]],
        "bbox": [
          -90.38454,
          38.81984,
          -90.39496,
          38.81117
        ]
      },
      "properties": {
        "name": "7.18.2020"
      }
    }
  ]
}