{
  "type": "FeatureCollection",
  "features": [
    {
      "type": "Feature",
      "geometry": {
        "type": "MultiLineString",
        "coordinates": [[[-90.39493,38.81175,133],[-90.39489,38.81176,134],[-90.39486,38.81177,134],[-90.39483,38.8118,134],[-90.39479,38.81183,135],[-90.39476,38.81185,135],[-90.39474,38.81188,136],[-90.39471,38.8119,136],[-90.39468,38.81192,136],[-90.39466,38.81194,137],[-90.39463,38.81197,137],[-90.3946,38.81199,137],[-90.39457,38.81201,137],[-90.39453,38.81204,137],[-90.3945,38.81206,137],[-90.39447,38.81209,137],[-90.39443,38.81212,138],[-90.3944,38.81214,138],[-90.39437,38.81217,138],[-90.39434,38.8122,138],[-90.39431,38.81223,137],[-90.39428,38.81225,137],[-90.39425,38.81228,137],[-90.39422,38.81231,137],[-90.39419,38.81234,137],[-90.39415,38.81236,137],[-90.39411,38.81239,137],[-90.39408,38.81242,137],[-90.39405,38.81244,137],[-90.39401,38.81247,137],[-90.39398,38.8125,137],[-90.39394,38.81252,136],[-90.39391,38.81255,136],[-90.39387,38.81257,136],[-90.39383,38.8126,135],[-90.3938,38.81262,135],[-90.39376,38.81264,135],[-90.39373,38.81267,134],[-90.39369,38.81269,134],[-90.39365,38.81272,134],[-90.39362,38.81274,134],[-90.39358,38.81277,134],[-90.39355,38.81279,134],[-90.39352,38.8128,134],[-90.39348,38.81283,134],[-90.39345,38.81284,134],[-90.3934,38.81285,134],[-90.39336,38.81287,134],[-90.39333,38.81289,134],[-90.3933,38.81291,134],[-90.39326,38.81293,133],[-90.39322,38.81296,133],[-90.39319,38.81298,133],[-90.39315,38.81301,133],[-90.39312,38.81304,133],[-90.39309,38.81307,132],[-90.39306,38.8131,132],[-90.39302,38.81312,133],[-90.39298,38.81314,133],[-90.39294,38.81316,133],[-90.3929,38.81319,133],[-90.39287,38.81322,134],[-90.39283,38.81325,134],[-90.3928,38.81327,134],[-90.39276,38.81331,135],[-90.39274,38.81333,135],[-90.39273,38.81335,135],[-90.3927,38.81338,136],[-90.39266,38.81341,136],[-90.39263,38.81344,136],[-90.3926,38.81347,137],[-90.39257,38.81351,137],[-90.39255,38.81354,138],[-90.39254,38.81357,138],[-90.39253,38.8136,138],[-90.39252,38.81362,138],[-90.3925,38.81365,138],[-90.39249,38.81368,138],[-90.39248,38.8137,138],[-90.39247,38.81373,138],[-90.39245,38.81375,138],[-90.39244,38.81378,137],[-90.39242,38.8138,137],[-90.39241,38.81383,136],[-90.39239,38.81386,136],[-90.39236,38.81389,135],[-90.39233,38.81392,136],[-90.39231,38.81396,138],[-90.39229,38.81399,140],[-90.39227,38.81402,141],[-90.39223,38.81405,143],[-90.3922,38.81406,144],[-90.39216,38.81406,144],[-90.39213,38.81403,143],[-90.39211,38.814,141],[-90.39207,38.81398,140],[-90.39204,38.81395,139],[-90.39201,38.81392,138],[-90.39197,38.81389,137],[-90.39194,38.81387,138],[-90.39191,38.81385,139],[-90.39188,38.81383,140],[-90.39186,38.81381,141],[-90.39183,38.81379,142],[-90.3918,38.81378,142],[-90.39178,38.81375,143],[-90.39176,38.81373,143],[-90.39174,38.8137,143],[-90.39171,38.81367,143],[-90.3917,38.81365,143],[-90.39168,38.81363,143],[-90.39165,38.8136,143],[-90.39164,38.81356,144],[-90.39163,38.81353,144],[-90.39162,38.8135,145],[-90.39161,38.81346,146],[-90.39159,38.81343,147],[-90.39158,38.8134,147],[-90.39155,38.81338,148],[-90.39152,38.81335,148],[-90.39149,38.81334,149],[-90.39145,38.81333,150],[-90.39142,38.81331,150],[-90.39138,38.81329,150],[-90.39136,38.81327,151],[-90.39134,38.81325,151],[-90.39131,38.81322,151],[-90.39127,38.81319,152],[-90.39125,38.81315,152],[-90.39123,38.81312,152],[-90.39121,38.81309,152],[-90.39119,38.81305,152],[-90.39118,38.81301,151],[-90.39116,38.81298,151],[-90.39115,38.81294,150],[-90.39113,38.81291,150],[-90.39111,38.81287,149],[-90.39109,38.81284,148],[-90.39107,38.81282,148],[-90.39105,38.8128,148],[-90.39104,38.81277,147],[-90.39103,38.81273,147],[-90.39103,38.8127,146],[-90.39102,38.81266,145],[-90.39103,38.81262,144],[-90.39104,38.81259,143],[-90.39104,38.81256,143],[-90.39103,38.81253,142],[-90.39103,38.81249,142],[-90.39102,38.81246,142],[-90.39102,38.81243,143],[-90.39102,38.8124,144],[-90.39099,38.81237,145],[-90.39097,38.81234,146],[-90.39094,38.81231,147],[-90.39092,38.81228,148],[-90.3909,38.81224,149],[-90.39089,38.81221,149],[-90.39088,38.81217,149],[-90.39087,38.81213,149],[-90.39088,38.81209,149],[-90.39089,38.81205,149],[-90.39091,38.81202,149],[-90.39093,38.81198,149],[-90.39093,38.81195,150],[-90.39094,38.81192,149],[-90.39094,38.81189,149],[-90.39093,38.81185,148],[-90.39093,38.81181,148],[-90.39094,38.81177,147],[-90.39096,38.81174,147],[-90.39098,38.8117,146],[-90.391,38.81167,145],[-90.39103,38.81164,145],[-90.39107,38.81162,144],[-90.3911,38.8116,144],[-90.39113,38.81157,143],[-90.39114,38.81153,142],[-90.39114,38.81149,141],[-90.39112,38.81146,141],[-90.3911,38.81142,141],[-90.39106,38.8114,141],[-90.39103,38.81137,141],[-90.39099,38.81135,141],[-90.39096,38.81133,141],[-90.39093,38.8113,141],[-90.39091,38.81128,141],[-90.39088,38.81125,141],[-90.39086,38.81122,141],[-90.39083,38.8112,141],[-90.39079,38.81119,141],[-90.39074,38.81121,141],[-90.39071,38.81122,142],[-90.39068,38.81124,142],[-90.39065,38.81125,142],[-90.39062,38.81127,142],[-90.39058,38.81128,142],[-90.39054,38.81129,142],[-90.39049,38.81127,142],[-90.39046,38.81125,142],[-90.39043,38.81122,142],[-90.3904,38.8112,142],[-90.39036,38.81119,142],[-90.39032,38.81118,142],[-90.39027,38.81118,143],[-90.39022,38.81118,143],[-90.39017,38.81118,144],[-90.39012,38.81118,144],[-90.39008,38.81117,145],[-90.39003,38.81116,146],[-90.38998,38.81115,147],[-90.38994,38.81114,147],[-90.38989,38.81114,148],[-90.38984,38.81115,149],[-90.3898,38.81117,149],[-90.38977,38.81119,149],[-90.38973,38.8112,150],[-90.38968,38.8112,150],[-90.38965,38.81119,151],[-90.38961,38.81118,151],[-90.38957,38.81116,151],[-90.38953,38.81116,151],[-90.38948,38.81118,151],[-90.38946,38.81121,151],[-90.38944,38.81125,152],[-90.38942,38.81128,152],[-90.38939,38.81131,152],[-90.38937,38.81134,152],[-90.38935,38.81137,152],[-90.38933,38.8114,152],[-90.38929,38.81141,152],[-90.38924,38.8114,152],[-90.3892,38.81139,152],[-90.38916,38.81139,152],[-90.38912,38.81141,152],[-90.38909,38.81144,153],[-90.38906,38.81146,154],[-90.38903,38.81148,155],[-90.389,38.81151,156],[-90.38897,38.81153,156],[-90.38894,38.81154,157],[-90.3889,38.81154,158],[-90.38886,38.81154,159],[-90.38883,38.81154,160],[-90.38879,38.81155,161],[-90.38876,38.81155,161],[-90.38871,38.81155,162],[-90.38868,38.81158,163],[-90.38867,38.81163,163],[-90.38866,38.81167,164],[-90.38866,38.81171,163],[-90.38863,38.81173,163],[-90.3886,38.81175,164],[-90.38858,38.81178,164],[-90.38856,38.81181,164],[-90.38854,38.81184,164],[-90.38854,38.81188,163],[-90.38854,38.81191,163],[-90.38856,38.81195,163],[-90.38861,38.81197,162],[-90.38864,38.812,161],[-90.38866,38.81202,161],[-90.38868,38.81206,161],[-90.3887,38.81208,161],[-90.38874,38.8121,161],[-90.38878,38.81211,161],[-90.38879,38.81214,161],[-90.38878,38.81217,162],[-90.38878,38.8122,162],[-90.38876,38.81224,163],[-90.38873,38.81226,163],[-90.3887,38.81229,164],[-90.38867,38.81231,164],[-90.38863,38.81232,165],[-90.38859,38.81232,166],[-90.38857,38.81235,167],[-90.38856,38.81238,167],[-90.38855,38.81241,168],[-90.38855,38.81244,169],[-90.38857,38.81247,169],[-90.38859,38.8125,169],[-90.38859,38.81254,169],[-90.38858,38.81256,169],[-90.38855,38.81259,170],[-90.38853,38.81261,171],[-90.38851,38.81264,172],[-90.38848,38.81266,173],[-90.38844,38.81267,174],[-90.38841,38.81268,175],[-90.38838,38.81269,176],[-90.38835,38.8127,177],[-90.38831,38.81271,179],[-90.38828,38.81272,180],[-90.38824,38.81273,181],[-90.38821,38.81274,182],[-90.38817,38.81275,184],[-90.38813,38.81277,185],[-90.3881,38.81278,186],[-90.38806,38.81279,187],[-90.38803,38.8128,188],[-90.38802,38.81283,188],[-90.38802,38.81287,189],[-90.388,38.8129,189],[-90.388,38.81293,189],[-90.38801,38.81297,190],[-90.38801,38.813,190],[-90.38799,38.81304,191],[-90.38798,38.81308,191],[-90.38798,38.81311,192],[-90.38797,38.81314,192],[-90.38796,38.81317,193],[-90.38794,38.81319,193],[-90.38792,38.81322,194],[-90.38789,38.81325,194],[-90.38787,38.81327,195],[-90.38784,38.81329,195],[-90.3878,38.81329,195],[-90.38776,38.8133,195],[-90.38772,38.8133,195],[-90.38768,38.8133,195],[-90.38765,38.8133,194],[-90.3876,38.81331,194],[-90.38759,38.81334,194],[-90.38759,38.81336,194],[-90.38758,38.8134,195],[-90.38758,38.81344,195],[-90.38757,38.81348,195],[-90.38756,38.81351,195],[-90.38754,38.81354,195],[-90.38753,38.81357,195],[-90.38752,38.8136,196],[-90.38752,38.81363,196],[-90.38751,38.81366,196],[-90.38751,38.81369,197],[-90.3875,38.81372,197],[-90.38749,38.81375,197],[-90.38748,38.81378,198],[-90.38748,38.81382,198],[-90.38748,38.81385,199],[-90.38751,38.81388,199],[-90.38754,38.8139,200],[-90.38758,38.81392,200],[-90.38762,38.81394,200],[-90.38765,38.81397,200],[-90.38769,38.81398,200],[-90.38774,38.81398,200],[-90.38778,38.81398,199],[-90.38782,38.81399,199],[-90.38786,38.81399,199],[-90.38791,38.81398,199],[-90.38795,38.81397,199],[-90.38799,38.81396,199],[-90.38804,38.81396,199],[-90.38808,38.81396,199],[-90.38813,38.81396,198],[-90.38817,38.81396,198],[-90.38822,38.81396,198],[-90.38825,38.81397,198],[-90.38829,38.81399,198],[-90.38833,38.814,198],[-90.38837,38.81401,198],[-90.38841,38.81403,197],[-90.38845,38.81404,197],[-90.38849,38.81405,197],[-90.38853,38.81407,197],[-90.38857,38.81409,196],[-90.38861,38.8141,196],[-90.38865,38.81411,196],[-90.38869,38.81412,195],[-90.38872,38.81414,195],[-90.38871,38.81416,195],[-90.38871,38.81419,195],[-90.38871,38.81422,195],[-90.38873,38.81425,195],[-90.38876,38.81427,194],[-90.38879,38.81425,194],[-90.38881,38.81423,194],[-90.38884,38.81421,193],[-90.38889,38.81421,192],[-90.38893,38.81421,192],[-90.38897,38.81421,192],[-90.38902,38.81421,192],[-90.38906,38.81421,192],[-90.3891,38.81422,192],[-90.38914,38.81423,192],[-90.38918,38.81425,192],[-90.38921,38.81427,191],[-90.38925,38.81428,191],[-90.38929,38.81429,190],[-90.38932,38.81431,190],[-90.38935,38.81432,190],[-90.38939,38.81434,189],[-90.38943,38.81436,189],[-90.38946,38.81439,189],[-90.38948,38.81442,189],[-90.3895,38.81445,189],[-90.38951,38.81449,190],[-90.3895,38.81452,190],[-90.38949,38.81456,190],[-90.38948,38.8146,190],[-90.38947,38.81463,190],[-90.38947,38.81466,190],[-90.38946,38.8147,190],[-90.38945,38.81474,190],[-90.38944,38.81477,190],[-90.38944,38.8148,190],[-90.38945,38.81483,189],[-90.38947,38.81487,189],[-90.38948,38.8149,189],[-90.3895,38.81494,188],[-90.38952,38.81497,188],[-90.38955,38.81499,188],[-90.38958,38.81502,188],[-90.38961,38.81504,187],[-90.38963,38.81507,187],[-90.38966,38.81509,187],[-90.38969,38.81512,186],[-90.38973,38.81514,185],[-90.38976,38.81516,185],[-90.38979,38.81518,184],[-90.38983,38.8152,184],[-90.38986,38.81522,183],[-90.3899,38.81524,183],[-90.38993,38.81526,182],[-90.38997,38.81528,182],[-90.39,38.8153,181],[-90.39004,38.81532,181],[-90.39008,38.81533,181],[-90.39011,38.81535,180],[-90.39015,38.81536,180],[-90.39019,38.81537,180],[-90.39022,38.81538,180],[-90.39026,38.8154,180],[-90.3903,38.81541,180],[-90.39034,38.81542,180],[-90.39038,38.81544,180],[-90.39042,38.81545,181],[-90.39045,38.81547,181],[-90.39049,38.81548,181],[-90.39053,38.81549,182],[-90.39058,38.81549,182],[-90.39062,38.8155,183],[-90.39065,38.8155,183],[-90.39069,38.81551,183],[-90.39073,38.81552,184],[-90.39077,38.81552,184],[-90.39082,38.81551,185],[-90.39086,38.81552,185],[-90.3909,38.81551,185],[-90.39094,38.81551,185],[-90.39099,38.81549,185],[-90.39103,38.81548,186],[-90.39107,38.81546,186],[-90.3911,38.81545,186],[-90.39114,38.81545,186],[-90.39118,38.81545,186],[-90.39121,38.81545,186],[-90.39126,38.81545,185],[-90.39131,38.81545,185],[-90.39136,38.81545,185],[-90.3914,38.81546,185],[-90.39144,38.81548,184],[-90.39148,38.8155,184],[-90.39151,38.81552,184],[-90.39154,38.81555,183],[-90.39158,38.81558,183],[-90.39162,38.8156,182],[-90.39165,38.81563,182],[-90.39169,38.81565,181],[-90.39173,38.81565,180],[-90.39177,38.81564,179],[-90.39181,38.81564,179],[-90.39185,38.81564,178],[-90.39188,38.81566,177],[-90.39192,38.81567,176],[-90.39195,38.81568,174],[-90.39197,38.81571,173],[-90.39198,38.81574,172],[-90.39202,38.81575,170],[-90.39198,38.81576,171],[-90.39196,38.81578,172],[-90.39195,38.81576,173],[-90.39195,38.81573,173]],[[-90.39193,38.81567,175],[-90.39189,38.81566,176],[-90.39193,38.81567,175],[-90.39192,38.81564,176],[-90.39193,38.81561,177],[-90.39194,38.81558,177],[-90.39197,38.81556,176],[-90.39199,38.81554,175],[-90.392,38.8155,175],[-90.39202,38.81547,174],[-90.39202,38.81544,174],[-90.39202,38.81541,174],[-90.39199,38.81538,175],[-90.39198,38.81535,175],[-90.39196,38.81531,175],[-90.39195,38.81528,175],[-90.39194,38.81525,175],[-90.39195,38.81522,173],[-90.39197,38.81519,172],[-90.39198,38.81515,170],[-90.39199,38.81512,169],[-90.39199,38.81508,167],[-90.39198,38.81505,166],[-90.39197,38.81502,166],[-90.39195,38.815,165],[-90.39193,38.81497,166],[-90.39191,38.81495,166],[-90.3919,38.81492,166],[-90.39189,38.8149,166],[-90.3919,38.81486,165],[-90.39192,38.81483,164],[-90.39192,38.8148,164],[-90.39191,38.81477,164],[-90.39189,38.81474,164],[-90.39188,38.8147,164],[-90.39188,38.81466,164],[-90.39187,38.81463,163],[-90.39186,38.81461,163],[-90.39184,38.81458,164],[-90.39182,38.81456,164],[-90.3918,38.81453,164],[-90.39179,38.81449,164],[-90.39179,38.81445,163],[-90.3918,38.81441,162],[-90.39181,38.81438,161],[-90.39182,38.81435,159],[-90.39182,38.81432,159],[-90.39182,38.81429,158],[-90.39183,38.81426,157],[-90.39183,38.81423,156],[-90.39182,38.8142,155],[-90.39181,38.81418,155],[-90.39186,38.81417,154],[-90.39189,38.81417,153],[-90.39193,38.81415,151],[-90.39194,38.81413,150],[-90.39198,38.81412,149],[-90.39202,38.81411,148],[-90.39206,38.81411,148],[-90.3921,38.81409,147],[-90.39214,38.81409,146],[-90.39218,38.81408,145],[-90.39223,38.81409,146],[-90.39227,38.81412,148],[-90.39228,38.81415,149],[-90.3923,38.81418,150],[-90.39233,38.81421,151],[-90.39236,38.81424,151],[-90.3924,38.81426,152],[-90.39245,38.81428,152],[-90.39248,38.81429,152],[-90.39251,38.81432,153],[-90.39253,38.81434,153],[-90.39257,38.81436,153],[-90.3926,38.81439,153],[-90.39263,38.81441,153],[-90.39266,38.81444,154],[-90.3927,38.81447,153],[-90.39273,38.81449,153],[-90.39275,38.8145,153],[-90.3928,38.81452,152],[-90.39283,38.81454,151],[-90.39287,38.81456,150],[-90.39289,38.81458,150],[-90.39291,38.81461,149],[-90.39293,38.81463,149],[-90.39294,38.81466,148],[-90.39295,38.8147,148],[-90.39295,38.81474,148],[-90.39295,38.81477,148],[-90.39295,38.81481,148],[-90.39295,38.81484,148],[-90.39296,38.81487,148],[-90.39298,38.8149,148],[-90.393,38.81493,148],[-90.39303,38.81496,147],[-90.39306,38.81499,147],[-90.39308,38.81503,147],[-90.3931,38.81505,146],[-90.39312,38.81508,145],[-90.39314,38.8151,145],[-90.39316,38.81514,144],[-90.39316,38.81517,144],[-90.39315,38.81521,144],[-90.39314,38.81524,144],[-90.39311,38.81527,144],[-90.39307,38.8153,145],[-90.39304,38.81533,144],[-90.39302,38.81535,144],[-90.39298,38.81537,144],[-90.39295,38.81539,145],[-90.39291,38.81541,145],[-90.39287,38.81542,146],[-90.39283,38.81543,147],[-90.3928,38.81543,148],[-90.39276,38.81544,148],[-90.39273,38.81546,149],[-90.3927,38.81547,149],[-90.39267,38.8155,150],[-90.39265,38.81553,150],[-90.39262,38.81555,151],[-90.39259,38.81558,151],[-90.39257,38.81561,151],[-90.39256,38.81565,151],[-90.39256,38.81568,150],[-90.39258,38.81571,149],[-90.3926,38.81575,147],[-90.39261,38.81578,146],[-90.39261,38.8158,146],[-90.39262,38.81584,145],[-90.39262,38.81588,145],[-90.39263,38.81591,144],[-90.39263,38.81595,144],[-90.39263,38.81599,144],[-90.39262,38.81603,145],[-90.39259,38.81606,145],[-90.39256,38.81608,146],[-90.39252,38.8161,148],[-90.39249,38.81612,149],[-90.39245,38.81613,150],[-90.3924,38.81615,151],[-90.39237,38.81617,151],[-90.39235,38.8162,151],[-90.39233,38.81623,151],[-90.3923,38.81625,151],[-90.39229,38.81628,150],[-90.39228,38.81631,150],[-90.39227,38.81634,149],[-90.39227,38.81638,148],[-90.39228,38.81641,147],[-90.39227,38.81645,147],[-90.39224,38.81648,147],[-90.39221,38.81651,147],[-90.39219,38.81654,148],[-90.39217,38.81656,148],[-90.39213,38.81658,148],[-90.39209,38.81659,149],[-90.39206,38.81662,149],[-90.39203,38.81665,149],[-90.392,38.81667,150],[-90.39198,38.81671,150],[-90.39196,38.81674,150],[-90.39193,38.81676,150],[-90.3919,38.81679,150],[-90.39187,38.81681,150],[-90.39183,38.81684,150],[-90.3918,38.81686,150],[-90.39176,38.81689,149],[-90.39172,38.81691,149],[-90.39169,38.81694,148],[-90.39165,38.81695,148],[-90.39161,38.81696,148],[-90.39157,38.81698,148],[-90.39152,38.81699,148],[-90.39148,38.817,148],[-90.39144,38.81701,149],[-90.39141,38.81703,148],[-90.39137,38.81705,148],[-90.39134,38.81707,148],[-90.3913,38.8171,147],[-90.39126,38.81712,147],[-90.39121,38.81713,148],[-90.39117,38.81714,148],[-90.39113,38.81716,148],[-90.39109,38.81717,148],[-90.39106,38.8172,147],[-90.39104,38.81723,147],[-90.391,38.81726,146],[-90.39097,38.81729,146],[-90.39095,38.81732,145],[-90.39091,38.81735,145],[-90.39087,38.81735,146],[-90.39082,38.81734,147],[-90.39078,38.81734,148],[-90.39074,38.81737,147],[-90.3907,38.81739,147],[-90.39066,38.81741,147],[-90.39061,38.81741,148],[-90.39057,38.81742,148],[-90.39055,38.8174,149],[-90.39055,38.81737,150],[-90.39056,38.81734,151],[-90.39056,38.81731,152],[-90.39054,38.81728,154],[-90.39055,38.81726,154],[-90.39057,38.81723,155],[-90.39054,38.81721,156],[-90.39053,38.81718,157],[-90.39052,38.81715,158],[-90.39053,38.81712,159],[-90.39054,38.81709,160],[-90.39056,38.81707,160],[-90.39055,38.81704,161],[-90.39053,38.81701,163],[-90.39051,38.81698,164],[-90.3905,38.81695,165],[-90.3905,38.81692,165],[-90.39049,38.81689,166],[-90.39047,38.81686,166],[-90.39044,38.81684,166],[-90.39042,38.81682,167],[-90.3904,38.81679,167],[-90.39038,38.81676,167],[-90.39037,38.81674,168],[-90.39036,38.81671,168],[-90.39033,38.81668,168],[-90.3903,38.81666,168],[-90.39028,38.81663,169],[-90.39027,38.81661,169],[-90.39024,38.81658,169],[-90.39021,38.81657,169],[-90.3902,38.81654,170],[-90.39019,38.81651,170],[-90.39019,38.81648,170],[-90.39019,38.81645,171],[-90.39015,38.81643,171],[-90.39011,38.81642,171],[-90.3901,38.8164,171],[-90.39007,38.81638,171],[-90.39003,38.81638,171],[-90.38998,38.81637,171],[-90.38994,38.81637,170],[-90.38991,38.81638,170],[-90.38987,38.81638,170],[-90.38983,38.81636,170],[-90.3898,38.81635,170],[-90.38977,38.81633,170],[-90.38975,38.8163,171],[-90.38972,38.81628,171],[-90.3897,38.81625,171],[-90.38967,38.81622,171],[-90.38963,38.81621,171],[-90.38959,38.8162,171],[-90.38957,38.81623,171],[-90.38957,38.81626,170],[-90.38958,38.81629,170],[-90.38957,38.81632,170],[-90.38954,38.81633,169],[-90.38952,38.81636,169],[-90.38953,38.8164,169],[-90.38954,38.81643,169],[-90.38956,38.81647,168],[-90.38958,38.8165,168],[-90.38961,38.81653,168],[-90.38963,38.81655,168],[-90.38963,38.81658,168],[-90.38964,38.81661,168],[-90.38966,38.81664,167],[-90.38967,38.81667,167],[-90.38969,38.8167,167],[-90.3897,38.81674,166],[-90.38972,38.81676,166],[-90.38976,38.81679,166],[-90.3898,38.8168,166],[-90.38984,38.81682,166],[-90.38986,38.81684,165],[-90.38989,38.81687,165],[-90.38992,38.8169,165],[-90.38993,38.81693,164],[-90.38994,38.81697,164],[-90.38995,38.81701,163],[-90.38996,38.81704,162],[-90.38997,38.81707,161],[-90.38997,38.8171,161],[-90.38997,38.81713,160],[-90.39,38.81716,159],[-90.39002,38.8172,158],[-90.39004,38.81722,157],[-90.39006,38.81726,156],[-90.39008,38.81729,156],[-90.3901,38.81732,155],[-90.39013,38.81735,154],[-90.39015,38.81738,153],[-90.39018,38.8174,152],[-90.3902,38.81744,151],[-90.39021,38.81747,150],[-90.39022,38.8175,149],[-90.39026,38.81751,149],[-90.3903,38.81752,148],[-90.39034,38.8175,148],[-90.39037,38.81748,148],[-90.39041,38.81747,148],[-90.39045,38.81747,148],[-90.39049,38.81747,147],[-90.39052,38.81748,147],[-90.39055,38.8175,146],[-90.39055,38.81754,145],[-90.39054,38.81757,144],[-90.39057,38.81755,144],[-90.3906,38.81753,144],[-90.39061,38.8175,145],[-90.39063,38.81747,145],[-90.39064,38.81744,146],[-90.39068,38.81742,146],[-90.39072,38.81741,146],[-90.39076,38.8174,146],[-90.3908,38.81738,146],[-90.39083,38.81737,146],[-90.39088,38.81737,145],[-90.39092,38.81738,144],[-90.39096,38.81737,144],[-90.39099,38.81735,144],[-90.39101,38.81733,144],[-90.39104,38.8173,145],[-90.39106,38.81727,145],[-90.39109,38.81725,145],[-90.39111,38.81722,146],[-90.39116,38.8172,146],[-90.39121,38.81719,145],[-90.39124,38.81717,145],[-90.39129,38.81716,145],[-90.39132,38.81714,145],[-90.39136,38.81713,145],[-90.39139,38.81712,145],[-90.39143,38.8171,145],[-90.39147,38.81707,146],[-90.3915,38.81705,146],[-90.39154,38.81703,146],[-90.39158,38.81702,146],[-90.39162,38.81701,146],[-90.39166,38.81699,146],[-90.3917,38.81697,147],[-90.39174,38.81696,147],[-90.39178,38.81694,148],[-90.39181,38.81692,148],[-90.39184,38.81689,149],[-90.39187,38.81686,149],[-90.3919,38.81683,150],[-90.39194,38.81681,150],[-90.39197,38.81678,149],[-90.392,38.81676,149],[-90.39202,38.81673,149],[-90.39204,38.81669,149],[-90.39206,38.81666,149],[-90.39209,38.81664,148],[-90.39212,38.81661,148],[-90.39215,38.81658,148],[-90.39218,38.81656,148],[-90.39222,38.81654,147],[-90.39224,38.8165,147],[-90.39226,38.81647,147],[-90.39229,38.81643,147],[-90.39231,38.8164,146],[-90.39235,38.81638,146],[-90.39237,38.81635,146],[-90.39238,38.81632,147],[-90.39237,38.81629,148],[-90.39236,38.81626,149],[-90.39238,38.81624,149],[-90.39239,38.81621,150],[-90.39242,38.81619,149],[-90.39245,38.81617,149],[-90.39247,38.81615,149],[-90.3925,38.81614,148],[-90.39254,38.81613,147],[-90.39259,38.81611,145],[-90.39262,38.81609,145],[-90.39265,38.81607,144],[-90.39266,38.81603,143],[-90.39267,38.81599,143],[-90.39267,38.81595,143],[-90.39267,38.81592,143],[-90.39266,38.81588,143],[-90.39265,38.81585,144],[-90.39264,38.81581,144],[-90.39263,38.81578,145],[-90.39261,38.81574,147],[-90.3926,38.81571,148],[-90.39259,38.81569,149],[-90.39259,38.81565,150],[-90.3926,38.81561,150],[-90.39263,38.81558,150],[-90.39266,38.81555,149],[-90.39269,38.81553,148],[-90.39272,38.8155,148],[-90.39276,38.81548,147],[-90.39281,38.81546,146],[-90.39284,38.81545,146],[-90.39287,38.81544,145],[-90.39292,38.81543,144],[-90.39296,38.81541,144],[-90.393,38.81539,143],[-90.39303,38.81536,144],[-90.39306,38.81533,144],[-90.39308,38.8153,144],[-90.3931,38.81527,145],[-90.39312,38.81524,144],[-90.39313,38.81521,144],[-90.39315,38.81517,144],[-90.39316,38.81514,144],[-90.39314,38.81511,145],[-90.39312,38.81508,145],[-90.3931,38.81505,146],[-90.39308,38.81502,147],[-90.39306,38.81499,147],[-90.39304,38.81496,147],[-90.39301,38.81493,147],[-90.39299,38.8149,148],[-90.39298,38.81486,148],[-90.39298,38.81484,147],[-90.39299,38.81481,147],[-90.39299,38.81478,147],[-90.39299,38.81475,147],[-90.39298,38.81471,147],[-90.39297,38.81467,148],[-90.39297,38.81464,148],[-90.39295,38.81461,148],[-90.39293,38.81458,149],[-90.3929,38.81455,150],[-90.39286,38.81453,150],[-90.39282,38.8145,151],[-90.39279,38.81449,152],[-90.39275,38.81447,153],[-90.39271,38.81444,153],[-90.39267,38.81441,153],[-90.39265,38.81439,153],[-90.39262,38.81437,153],[-90.3926,38.81435,152],[-90.39256,38.81432,152],[-90.39254,38.8143,152],[-90.39251,38.81429,152],[-90.39247,38.81428,152],[-90.39244,38.81426,152],[-90.3924,38.81425,151],[-90.39236,38.81423,151],[-90.39233,38.81421,151],[-90.3923,38.81418,150],[-90.39227,38.81416,150],[-90.39225,38.81413,148],[-90.39224,38.81409,146],[-90.39225,38.81406,144],[-90.39228,38.81404,143],[-90.39231,38.81402,142],[-90.39233,38.81399,140],[-90.39235,38.81397,139],[-90.39237,38.81394,138],[-90.3924,38.81391,137],[-90.39241,38.81388,136],[-90.39243,38.81385,137],[-90.39246,38.81382,137],[-90.39249,38.81378,138],[-90.39251,38.81376,138],[-90.39254,38.81373,138],[-90.39255,38.8137,138],[-90.39257,38.81366,138],[-90.39258,38.81363,138],[-90.39261,38.8136,138],[-90.39264,38.81357,138],[-90.39266,38.81354,137],[-90.39269,38.81351,137],[-90.39272,38.81347,136],[-90.39274,38.81344,136],[-90.39276,38.81341,135],[-90.39279,38.81338,135],[-90.39282,38.81335,134],[-90.39285,38.81333,134],[-90.39288,38.8133,134],[-90.3929,38.81327,134],[-90.39292,38.81324,133],[-90.39295,38.81321,133],[-90.39297,38.81318,133],[-90.393,38.81315,133],[-90.39303,38.81313,133],[-90.39307,38.8131,132],[-90.39311,38.81308,132],[-90.39314,38.81305,133],[-90.39317,38.81303,133],[-90.3932,38.81301,133],[-90.39323,38.81298,133],[-90.39326,38.81296,133],[-90.3933,38.81294,133],[-90.39333,38.81292,133],[-90.39338,38.8129,133],[-90.39341,38.81288,133],[-90.39345,38.81286,134],[-90.39348,38.81284,134],[-90.39352,38.81282,134],[-90.39356,38.8128,134],[-90.3936,38.81278,134],[-90.39363,38.81276,134],[-90.39367,38.81274,134],[-90.3937,38.81271,134],[-90.39373,38.81268,134],[-90.39376,38.81266,135],[-90.3938,38.81264,135],[-90.39383,38.81261,135],[-90.39386,38.81259,135],[-90.3939,38.81256,136],[-90.39393,38.81254,136],[-90.39396,38.81251,136],[-90.39399,38.8125,137],[-90.39402,38.81247,137],[-90.39405,38.81245,137],[-90.39408,38.81242,137],[-90.39411,38.8124,137],[-90.39414,38.81237,137],[-90.39417,38.81235,137],[-90.3942,38.81232,137],[-90.39422,38.8123,137],[-90.39424,38.81227,137],[-90.39427,38.81225,137],[-90.39431,38.81223,137],[-90.39433,38.81219,138],[-90.39436,38.81217,138],[-90.39439,38.81214,138],[-90.39443,38.81212,138],[-90.39446,38.8121,137],[-90.3945,38.81208,137],[-90.39453,38.81206,137],[-90.39457,38.81203,137],[-90.3946,38.81201,137],[-90.39463,38.81198,137],[-90.39466,38.81195,137],[-90.39469,38.81193,136],[-90.39472,38.8119,136],[-90.39474,38.81188,136],[-90.39477,38.81185,135],[-90.3948,38.81182,135],[-90.39483,38.81179,134],[-90.39487,38.81177,134],[-90.3949,38.81175,134],[-90.39495,38.81172,133],[-90.39497,38.81171,133],[-90.395,38.81169,133]]],
        "bbox": [
          -90.38748,
          38.81757,
          -90.395,
          38.81114
        ]
      },
      "properties": {
        "name": "3.19.2024"
      }
    }
  ]
}