{
  "type": "FeatureCollection",
  "features": [
    {
      "type": "Feature",
      "geometry": {
        "type": "MultiLineString",
        "coordinates": [[[-90.39069,38.81077,139],[-90.3907,38.81079,139],[-90.39072,38.81083,138],[-90.39074,38.81085,138],[-90.39077,38.81087,138],[-90.3908,38.8109,138],[-90.39082,38.81093,139],[-90.39083,38.81096,139],[-90.39084,38.81099,139],[-90.39083,38.81102,140],[-90.39083,38.81105,140],[-90.39083,38.81108,140],[-90.39084,38.81111,140],[-90.39084,38.81114,141],[-90.39085,38.81117,141],[-90.39085,38.8112,141],[-90.39083,38.81122,141],[-90.3908,38.81124,141],[-90.39077,38.81125,142],[-90.39073,38.81125,142],[-90.3907,38.81124,142],[-90.39066,38.81124,142],[-90.39062,38.81126,142],[-90.39059,38.81126,142],[-90.39055,38.81125,142],[-90.39051,38.81124,142],[-90.39047,38.81123,142],[-90.39044,38.81122,142],[-90.3904,38.81121,142],[-90.39037,38.8112,142],[-90.39033,38.81119,142],[-90.39029,38.81118,142],[-90.39025,38.81119,143],[-90.39022,38.81119,143],[-90.39018,38.81119,144],[-90.39014,38.81119,144],[-90.39011,38.81118,145],[-90.39007,38.81118,145],[-90.39003,38.81117,146],[-90.38999,38.81117,146],[-90.38995,38.81116,147],[-90.38991,38.81116,148],[-90.38988,38.81117,148],[-90.38984,38.81119,148],[-90.3898,38.8112,149],[-90.38977,38.81121,149],[-90.38972,38.81121,150],[-90.38968,38.8112,150],[-90.38965,38.81119,151],[-90.38962,38.81118,151],[-90.38958,38.81117,151],[-90.38955,38.81118,151],[-90.38952,38.81119,151],[-90.3895,38.81122,151],[-90.38948,38.81125,151],[-90.38947,38.81128,151],[-90.38944,38.8113,152],[-90.38942,38.81132,152],[-90.38941,38.81135,152],[-90.38939,38.81137,152],[-90.38936,38.8114,152],[-90.38932,38.81141,152],[-90.38928,38.8114,152],[-90.38925,38.81139,152],[-90.38921,38.81139,152],[-90.38918,38.81142,152],[-90.38916,38.81144,152],[-90.38914,38.81146,152],[-90.38911,38.81148,153],[-90.38907,38.8115,154],[-90.38904,38.81152,155],[-90.38901,38.81153,156],[-90.38898,38.81154,156],[-90.38894,38.81155,157],[-90.3889,38.81157,158],[-90.38887,38.81157,159],[-90.38883,38.81158,160],[-90.38879,38.81158,161],[-90.38875,38.81158,162],[-90.38872,38.81157,162],[-90.38869,38.81159,163],[-90.38869,38.81162,163],[-90.3887,38.81165,163],[-90.38869,38.81168,163],[-90.38867,38.8117,163],[-90.38865,38.81173,163],[-90.38863,38.81175,163],[-90.3886,38.81177,163],[-90.38858,38.8118,163],[-90.38857,38.81183,163],[-90.38855,38.81186,163],[-90.38855,38.81189,163],[-90.38855,38.81192,163],[-90.38857,38.81194,162],[-90.3886,38.81196,162],[-90.38863,38.81198,161],[-90.38866,38.812,161],[-90.38867,38.81203,161],[-90.38869,38.81206,161],[-90.38871,38.81208,161],[-90.38875,38.81209,161],[-90.38878,38.8121,161],[-90.3888,38.81213,161],[-90.3888,38.81216,161],[-90.3888,38.8122,162],[-90.3888,38.81223,162],[-90.38879,38.81225,163],[-90.38877,38.81228,163],[-90.38874,38.8123,164],[-90.38872,38.81233,164],[-90.38869,38.81234,165],[-90.38865,38.81235,165],[-90.38861,38.81235,166],[-90.38859,38.81237,167],[-90.38859,38.8124,167],[-90.38859,38.81243,168],[-90.38859,38.81246,168],[-90.3886,38.81249,168],[-90.38861,38.81251,169],[-90.38861,38.81254,169],[-90.3886,38.81257,169],[-90.38858,38.81259,170],[-90.38857,38.81262,170],[-90.38857,38.81265,170],[-90.38855,38.81268,171],[-90.38852,38.81269,172],[-90.38848,38.8127,173],[-90.38845,38.81271,174],[-90.38842,38.81272,176],[-90.38839,38.81274,177],[-90.38835,38.81276,179],[-90.38831,38.81276,180],[-90.38828,38.81276,181],[-90.38824,38.81276,182],[-90.38821,38.81276,183],[-90.38817,38.81277,184],[-90.38814,38.81279,185],[-90.3881,38.8128,187],[-90.38807,38.81281,187],[-90.38805,38.81283,188],[-90.38805,38.81286,188],[-90.38805,38.81288,189],[-90.38805,38.81291,189],[-90.38803,38.81294,189],[-90.38803,38.81297,190],[-90.38803,38.813,190],[-90.38803,38.81303,190],[-90.38804,38.81306,191],[-90.38803,38.81309,191],[-90.38803,38.81312,192],[-90.38801,38.81315,192],[-90.38799,38.81317,193],[-90.38798,38.8132,193],[-90.38798,38.81322,194],[-90.38794,38.81324,194],[-90.38792,38.81326,194],[-90.38792,38.81329,195],[-90.38789,38.8133,195],[-90.38785,38.81331,195],[-90.38781,38.81332,195],[-90.38778,38.81332,195],[-90.38774,38.81332,195],[-90.3877,38.81333,195],[-90.38767,38.81333,195],[-90.38763,38.81332,194],[-90.3876,38.81334,194],[-90.38759,38.81336,194],[-90.3876,38.81339,195],[-90.38761,38.81342,195],[-90.38762,38.81345,195],[-90.38762,38.81348,195],[-90.38761,38.81351,196],[-90.3876,38.81354,196],[-90.38758,38.81356,196],[-90.38757,38.81359,196],[-90.38757,38.81363,196],[-90.38756,38.81365,196],[-90.38756,38.81369,197],[-90.38754,38.81372,197],[-90.38753,38.81374,197],[-90.38753,38.81378,198],[-90.38753,38.8138,198],[-90.38752,38.81383,199],[-90.38753,38.81386,199],[-90.38756,38.81389,199],[-90.38759,38.8139,200],[-90.38763,38.81391,200],[-90.38766,38.81392,200],[-90.38769,38.81393,200],[-90.38769,38.81396,200],[-90.38774,38.81397,200],[-90.38777,38.81398,200],[-90.38779,38.814,199],[-90.38783,38.814,199],[-90.38787,38.814,199],[-90.38791,38.814,199],[-90.38795,38.81399,199],[-90.38799,38.81398,199],[-90.38802,38.81397,199],[-90.38806,38.81396,199],[-90.3881,38.81394,199],[-90.38813,38.81394,198],[-90.38817,38.81393,198],[-90.38821,38.81393,198],[-90.38824,38.81393,198],[-90.38828,38.81394,198],[-90.38832,38.81394,198],[-90.38835,38.81396,198],[-90.38838,38.81398,197],[-90.38841,38.81399,197],[-90.38844,38.81402,197],[-90.38848,38.81403,197],[-90.38851,38.81405,197],[-90.38854,38.81406,196],[-90.38858,38.81407,196],[-90.38861,38.81408,196],[-90.38865,38.81409,195],[-90.38868,38.8141,195],[-90.38872,38.81411,195],[-90.38875,38.81412,194],[-90.38879,38.81413,194],[-90.38883,38.81414,193],[-90.38886,38.81415,193],[-90.38889,38.81417,192],[-90.38893,38.81418,192],[-90.38897,38.81418,192],[-90.389,38.81419,192],[-90.38904,38.81419,192],[-90.38908,38.81419,192],[-90.38912,38.81419,192],[-90.38916,38.8142,192],[-90.3892,38.81421,192],[-90.38923,38.81422,191],[-90.38925,38.81424,191],[-90.38928,38.81426,191],[-90.38931,38.81428,190],[-90.38934,38.81429,190],[-90.38937,38.81431,189],[-90.38941,38.81432,189],[-90.38945,38.81433,189],[-90.38948,38.81435,188],[-90.38951,38.81436,188],[-90.38953,38.81439,189],[-90.38954,38.81442,189],[-90.38956,38.81445,189],[-90.38956,38.81448,189],[-90.38956,38.8145,189],[-90.38955,38.81453,190],[-90.38954,38.81456,190],[-90.38953,38.81459,190],[-90.38952,38.81462,190],[-90.38952,38.81465,190],[-90.38953,38.81468,191],[-90.38952,38.81471,191],[-90.38952,38.81474,191],[-90.38952,38.81477,190],[-90.38952,38.8148,190],[-90.38952,38.81483,190],[-90.38953,38.81486,189],[-90.38954,38.81489,189],[-90.38955,38.81492,189],[-90.38956,38.81495,188],[-90.38957,38.81498,188],[-90.38959,38.815,188],[-90.38963,38.81502,188],[-90.38966,38.81504,188],[-90.38968,38.81506,187],[-90.38971,38.81508,187],[-90.38974,38.8151,186],[-90.38977,38.81512,186],[-90.38979,38.81514,185],[-90.38982,38.81516,185],[-90.38984,38.81518,184],[-90.38987,38.8152,184],[-90.3899,38.81522,183],[-90.38993,38.81523,183],[-90.38996,38.81525,182],[-90.38999,38.81527,182],[-90.39002,38.81529,181],[-90.39006,38.8153,181],[-90.39008,38.81532,181],[-90.39011,38.81534,180],[-90.39015,38.81535,180],[-90.39018,38.81537,180],[-90.39022,38.81538,180],[-90.39026,38.81538,180],[-90.39029,38.81539,180],[-90.39032,38.8154,180],[-90.39036,38.81541,180],[-90.39039,38.81542,181],[-90.39043,38.81544,181],[-90.39046,38.81546,181],[-90.3905,38.81547,181],[-90.39053,38.81548,182],[-90.39058,38.81548,182],[-90.39061,38.81548,183],[-90.39065,38.81549,183],[-90.39068,38.81549,183],[-90.39073,38.8155,184],[-90.39076,38.81551,184],[-90.39081,38.81551,185],[-90.39084,38.81551,185],[-90.39088,38.81551,185],[-90.39092,38.8155,185],[-90.39095,38.81549,185],[-90.39099,38.81549,185],[-90.39103,38.81548,186],[-90.39107,38.81546,186],[-90.3911,38.81545,186],[-90.39113,38.81543,186],[-90.39117,38.81542,186],[-90.3912,38.81542,186],[-90.39124,38.81542,186],[-90.39128,38.81543,185],[-90.39131,38.81544,185],[-90.39135,38.81544,185],[-90.39138,38.81545,185],[-90.39142,38.81546,184],[-90.39145,38.81547,184],[-90.39148,38.81549,184],[-90.39152,38.81551,183],[-90.39154,38.81553,183],[-90.39157,38.81555,183],[-90.39159,38.81557,183],[-90.39162,38.8156,182],[-90.39164,38.81562,182],[-90.39166,38.81564,182],[-90.39168,38.81567,181],[-90.39172,38.81569,180],[-90.39175,38.81569,179],[-90.39178,38.81571,178],[-90.39183,38.8157,177],[-90.39187,38.81569,176],[-90.39191,38.81568,176],[-90.39195,38.81568,174],[-90.39198,38.81567,173],[-90.39201,38.81569,172],[-90.39203,38.81571,170],[-90.392,38.81571,172],[-90.39196,38.8157,174],[-90.39194,38.81567,175],[-90.39193,38.81564,176],[-90.39193,38.81561,177],[-90.39194,38.81558,177],[-90.39195,38.81555,177],[-90.39198,38.81553,176],[-90.39199,38.81551,175],[-90.392,38.81548,175],[-90.39202,38.81546,174],[-90.39202,38.81543,174],[-90.392,38.81541,175],[-90.39198,38.81538,175],[-90.39196,38.81536,176],[-90.39194,38.81533,176],[-90.39192,38.81531,176],[-90.39192,38.81528,176],[-90.39192,38.81526,175],[-90.39194,38.81523,174],[-90.39196,38.81521,173],[-90.39199,38.81519,171],[-90.392,38.81516,170],[-90.39201,38.81513,168],[-90.39201,38.8151,167],[-90.39201,38.81507,166],[-90.39199,38.81504,166],[-90.39197,38.81502,166],[-90.39196,38.81499,165],[-90.39194,38.81497,165],[-90.39192,38.81494,166],[-90.39191,38.81491,166],[-90.39192,38.81489,165],[-90.39194,38.81486,164],[-90.39194,38.81483,164],[-90.39193,38.8148,164],[-90.39191,38.81478,164],[-90.39189,38.81475,164],[-90.39188,38.81472,164],[-90.39188,38.8147,164],[-90.39188,38.81466,164],[-90.39188,38.81463,163],[-90.39187,38.8146,163],[-90.39185,38.81458,163],[-90.39182,38.81456,164],[-90.39179,38.81454,164],[-90.39178,38.81451,164],[-90.39178,38.81448,164],[-90.39178,38.81445,163],[-90.39178,38.81442,163],[-90.39177,38.8144,162],[-90.39177,38.81437,161],[-90.39178,38.81434,160],[-90.39178,38.81431,160],[-90.39178,38.81428,159],[-90.3918,38.81426,158],[-90.39179,38.81423,157],[-90.39178,38.81421,157],[-90.39178,38.81418,156],[-90.39181,38.81417,155],[-90.39185,38.81418,154],[-90.39188,38.81418,154],[-90.39192,38.81418,152],[-90.39195,38.81417,152],[-90.39194,38.81414,150],[-90.39195,38.81411,149],[-90.39198,38.81411,148],[-90.39202,38.81412,149],[-90.39205,38.81411,148],[-90.3921,38.81411,148],[-90.39213,38.8141,147],[-90.39216,38.81409,146],[-90.3922,38.81408,145],[-90.39223,38.81407,144],[-90.39226,38.81409,146],[-90.39228,38.81411,147],[-90.3923,38.81414,149],[-90.39231,38.81417,150],[-90.39233,38.8142,151],[-90.39235,38.81423,151],[-90.39238,38.81425,151],[-90.39241,38.81427,152],[-90.39244,38.81428,152],[-90.39248,38.81429,152],[-90.39252,38.81431,152],[-90.39255,38.81432,152],[-90.39259,38.81434,152],[-90.39262,38.81435,152],[-90.39265,38.81436,152],[-90.39269,38.81436,152],[-90.39268,38.81439,152],[-90.3927,38.81441,153],[-90.39272,38.81444,153],[-90.39274,38.81447,153],[-90.39276,38.81449,153],[-90.39278,38.81451,152],[-90.39281,38.81454,152],[-90.39285,38.81455,151],[-90.39288,38.81457,150],[-90.39291,38.81459,149],[-90.39293,38.81461,149],[-90.39295,38.81463,148],[-90.39296,38.81466,148],[-90.39297,38.81469,148],[-90.39298,38.81472,147],[-90.39298,38.81475,147],[-90.39297,38.81478,148],[-90.39297,38.81481,148],[-90.39297,38.81484,148],[-90.39296,38.81486,148],[-90.39297,38.8149,148],[-90.39299,38.81492,148],[-90.393,38.81494,148],[-90.39303,38.81496,147],[-90.39305,38.81499,147],[-90.39307,38.81501,147],[-90.39309,38.81504,146],[-90.39311,38.81507,146],[-90.39312,38.81509,145],[-90.39315,38.81511,145],[-90.39316,38.81514,144],[-90.39318,38.81517,143],[-90.39317,38.8152,143],[-90.39315,38.81522,144],[-90.39313,38.81525,144],[-90.39311,38.81528,144],[-90.39309,38.8153,144],[-90.39307,38.81533,144],[-90.39305,38.81535,143],[-90.39301,38.81538,143],[-90.39298,38.81539,144],[-90.39295,38.81541,144],[-90.39292,38.81542,145],[-90.39289,38.81544,145],[-90.39286,38.81545,145],[-90.39283,38.81547,145],[-90.3928,38.81549,146],[-90.39281,38.81551,145],[-90.39278,38.81554,145],[-90.39274,38.81556,146],[-90.39271,38.81557,147],[-90.39267,38.81558,148],[-90.39263,38.81559,150],[-90.39261,38.81562,150],[-90.3926,38.81565,149],[-90.3926,38.8157,148],[-90.3926,38.81573,148],[-90.39261,38.81575,147],[-90.39263,38.81578,145],[-90.39264,38.81581,144],[-90.39265,38.81584,144],[-90.39265,38.81587,144],[-90.39266,38.8159,143],[-90.39267,38.81593,143],[-90.39267,38.81596,143],[-90.39267,38.81599,143],[-90.39267,38.81602,143],[-90.39267,38.81605,143],[-90.39266,38.81608,143],[-90.39264,38.8161,144],[-90.39261,38.81612,145],[-90.39258,38.81613,146],[-90.39254,38.81615,146],[-90.3925,38.81616,147],[-90.39247,38.81617,148],[-90.39243,38.81618,149],[-90.3924,38.8162,149],[-90.39239,38.81623,149],[-90.39239,38.81626,148],[-90.3924,38.81623,149],[-90.39241,38.8162,149],[-90.39244,38.81619,149],[-90.39246,38.81617,148],[-90.39249,38.81615,148],[-90.39252,38.81613,148],[-90.39254,38.81611,147],[-90.39257,38.81609,146],[-90.3926,38.81607,145],[-90.39262,38.81604,145],[-90.39264,38.81602,144],[-90.39265,38.81598,144],[-90.39266,38.81595,143],[-90.39267,38.81593,143],[-90.39269,38.8159,142],[-90.39268,38.81587,143],[-90.39267,38.81584,143],[-90.39265,38.81582,144],[-90.39264,38.81579,145],[-90.39263,38.81576,146],[-90.39262,38.81573,147],[-90.3926,38.8157,148],[-90.39261,38.81567,149],[-90.39261,38.81564,149],[-90.39261,38.81562,150],[-90.39263,38.81559,150],[-90.39265,38.81557,149],[-90.39268,38.81554,149],[-90.39269,38.81551,149],[-90.39271,38.81548,149],[-90.39273,38.81546,149],[-90.39276,38.81545,148],[-90.3928,38.81543,148],[-90.39284,38.81542,147],[-90.39287,38.8154,147],[-90.3929,38.81538,146],[-90.39293,38.81537,146],[-90.39297,38.81536,145],[-90.39301,38.81535,144],[-90.39304,38.81533,144],[-90.39306,38.81532,144],[-90.39309,38.81529,144],[-90.39311,38.81527,144],[-90.39312,38.81524,144],[-90.39314,38.81522,144],[-90.39315,38.81519,144],[-90.39316,38.81516,144],[-90.39317,38.81513,144],[-90.39316,38.8151,144],[-90.39314,38.81507,145],[-90.39311,38.81505,146],[-90.39309,38.81503,147],[-90.39306,38.81501,147],[-90.39304,38.81498,147],[-90.39302,38.81496,148],[-90.393,38.81493,148],[-90.39298,38.8149,148],[-90.39297,38.81488,148],[-90.39296,38.81485,148],[-90.39295,38.81482,148],[-90.39296,38.81479,148],[-90.39297,38.81476,148],[-90.39297,38.81473,147],[-90.39296,38.8147,148],[-90.39295,38.81467,148],[-90.39293,38.81464,149],[-90.39292,38.81462,149],[-90.39289,38.81459,150],[-90.39287,38.81457,150],[-90.39284,38.81455,151],[-90.39281,38.81453,152],[-90.39277,38.81451,152],[-90.39274,38.8145,153],[-90.39271,38.81448,153],[-90.39268,38.81446,154],[-90.39266,38.81444,154],[-90.39264,38.81442,153],[-90.39261,38.81439,153],[-90.39259,38.81437,153],[-90.39256,38.81436,153],[-90.39252,38.81434,153],[-90.39249,38.81433,153],[-90.39245,38.81432,153],[-90.39242,38.81431,153],[-90.39238,38.81429,152],[-90.39235,38.81428,152],[-90.39233,38.81426,152],[-90.39231,38.81423,151],[-90.39229,38.8142,151],[-90.39228,38.81417,150],[-90.39227,38.81414,149],[-90.39224,38.81412,148],[-90.39222,38.8141,146],[-90.3922,38.81407,145],[-90.39218,38.81405,143],[-90.39215,38.81403,142],[-90.39212,38.814,141],[-90.39209,38.81399,141],[-90.39206,38.81398,141],[-90.39203,38.81395,139],[-90.39199,38.81394,139],[-90.39196,38.81392,139],[-90.39192,38.8139,139],[-90.39189,38.81387,140],[-90.39186,38.81385,141],[-90.39183,38.81384,142],[-90.39181,38.81382,142],[-90.39179,38.81379,142],[-90.39176,38.81377,143],[-90.39173,38.81375,144],[-90.39171,38.81373,144],[-90.39169,38.81371,144],[-90.39167,38.81368,144],[-90.39165,38.81366,144],[-90.39163,38.81363,144],[-90.39161,38.8136,144],[-90.3916,38.81357,145],[-90.39159,38.81354,145],[-90.3916,38.81351,145],[-90.39158,38.81349,146],[-90.39158,38.81346,146],[-90.39158,38.81343,147],[-90.39156,38.8134,147],[-90.39154,38.81338,148],[-90.39151,38.81336,149],[-90.39147,38.81335,149],[-90.39144,38.81334,150],[-90.3914,38.81333,150],[-90.39137,38.81332,151],[-90.39134,38.8133,151],[-90.39132,38.81327,151],[-90.3913,38.81325,152],[-90.39127,38.81322,152],[-90.39125,38.8132,152],[-90.39123,38.81318,152],[-90.39121,38.81315,152],[-90.39119,38.81312,153],[-90.39117,38.81309,153],[-90.39116,38.81306,153],[-90.39115,38.81303,152],[-90.39114,38.813,152],[-90.39111,38.81297,151],[-90.39109,38.81294,151],[-90.39108,38.81291,150],[-90.39106,38.81289,150],[-90.39105,38.81286,149],[-90.39104,38.81283,149],[-90.39102,38.8128,148],[-90.39101,38.81277,148],[-90.39102,38.81274,147],[-90.39102,38.81271,146],[-90.39102,38.81268,146],[-90.391,38.81266,145],[-90.39099,38.81263,145],[-90.39098,38.8126,144],[-90.39097,38.81257,144],[-90.39097,38.81255,143],[-90.39097,38.81252,142],[-90.39096,38.81249,142],[-90.39096,38.81246,143],[-90.39096,38.81243,144],[-90.39095,38.8124,145],[-90.39093,38.81238,145],[-90.3909,38.81235,146],[-90.3909,38.81232,147],[-90.3909,38.81229,148],[-90.3909,38.81227,148],[-90.3909,38.81224,149],[-90.39089,38.81221,149],[-90.39089,38.81218,149],[-90.39088,38.81215,149],[-90.39087,38.81212,149],[-90.39087,38.81209,149],[-90.39088,38.81206,149],[-90.39089,38.81204,149],[-90.3909,38.81201,149],[-90.39091,38.81198,149],[-90.39092,38.81195,149],[-90.39092,38.81192,149],[-90.39092,38.81189,149],[-90.39092,38.81186,148],[-90.39092,38.81183,148],[-90.39091,38.8118,148],[-90.39091,38.81177,147],[-90.39092,38.81175,147],[-90.39094,38.81172,147],[-90.39096,38.81169,146],[-90.39098,38.81167,145],[-90.39101,38.81165,145],[-90.39104,38.81163,145],[-90.39107,38.81161,144],[-90.39109,38.81158,143],[-90.3911,38.81155,143],[-90.39111,38.81153,143],[-90.39111,38.8115,142],[-90.3911,38.81147,142],[-90.39109,38.81145,142],[-90.39107,38.81142,141],[-90.39104,38.8114,141],[-90.39102,38.81138,141],[-90.39099,38.81135,141],[-90.39096,38.81133,141],[-90.39093,38.81131,141],[-90.39091,38.81129,141],[-90.39089,38.81127,141],[-90.39086,38.81125,141],[-90.39085,38.81122,141],[-90.39084,38.81119,141],[-90.39084,38.81116,141],[-90.39085,38.81114,141],[-90.39086,38.81111,140],[-90.39086,38.81108,140],[-90.39086,38.81104,139],[-90.39086,38.81102,139],[-90.39086,38.81098,139],[-90.39085,38.81095,139],[-90.39083,38.81092,138],[-90.3908,38.8109,138],[-90.39078,38.81087,138],[-90.39075,38.81085,138],[-90.39074,38.81082,138]]],
        "bbox": [
          -90.38752,
          38.81626,
          -90.39318,
          38.81077
        ]
      },
      "properties": {
        "name": "2.28.2025"
      }
    }
  ]
}