{
  "type": "FeatureCollection",
  "features": [
    {
      "type": "Feature",
      "geometry": {
        "type": "MultiLineString",
        "coordinates": [[[-90.39087,38.81101,139],[-90.39084,38.81103,140],[-90.39084,38.81107,140],[-90.39083,38.8111,140],[-90.39083,38.81114,141],[-90.39083,38.81117,141],[-90.39082,38.8112,141],[-90.39081,38.81122,141],[-90.39078,38.81124,142],[-90.39074,38.81126,142],[-90.3907,38.81127,142],[-90.39067,38.81128,142],[-90.39063,38.8113,142],[-90.39059,38.81131,142],[-90.39054,38.81131,142],[-90.3905,38.8113,142],[-90.39046,38.81129,142],[-90.39042,38.81127,142],[-90.39039,38.81125,142],[-90.39035,38.81123,142],[-90.39032,38.81122,142],[-90.39028,38.81121,142],[-90.39025,38.81121,143],[-90.3902,38.81122,143],[-90.39017,38.81122,144],[-90.39012,38.81121,144],[-90.39008,38.81121,145],[-90.39004,38.8112,145],[-90.39,38.8112,146],[-90.38996,38.8112,146],[-90.38992,38.81119,147],[-90.38988,38.81119,148],[-90.38984,38.8112,148],[-90.38981,38.81122,149],[-90.38977,38.81123,149],[-90.38972,38.81123,150],[-90.38968,38.81122,150],[-90.38964,38.81122,151],[-90.3896,38.81121,151],[-90.38956,38.8112,151],[-90.38953,38.81121,151],[-90.3895,38.81124,151],[-90.38949,38.81127,151],[-90.38948,38.8113,151],[-90.38945,38.81132,151],[-90.38943,38.81135,152],[-90.38941,38.81138,152],[-90.38938,38.8114,152],[-90.38935,38.81142,152],[-90.3893,38.81142,152],[-90.38925,38.8114,152],[-90.38922,38.81141,152],[-90.38919,38.81143,152],[-90.38917,38.81147,152],[-90.38915,38.81149,152],[-90.38912,38.81151,153],[-90.38909,38.81154,153],[-90.38904,38.81155,155],[-90.38901,38.81156,156],[-90.38897,38.81157,157],[-90.38893,38.81158,158],[-90.3889,38.8116,159],[-90.38887,38.81161,159],[-90.38883,38.81162,160],[-90.38879,38.81163,161],[-90.38877,38.81165,162],[-90.38878,38.81168,161],[-90.38875,38.8117,162],[-90.38872,38.81173,162],[-90.38869,38.81175,162],[-90.38866,38.81178,162],[-90.38863,38.8118,163],[-90.38862,38.81183,163],[-90.3886,38.81186,163],[-90.3886,38.81189,162],[-90.38861,38.81192,162],[-90.38863,38.81194,161],[-90.38867,38.81196,161],[-90.38869,38.81199,161],[-90.38871,38.81202,161],[-90.38873,38.81204,160],[-90.38877,38.81206,160],[-90.3888,38.81208,160],[-90.38881,38.81211,160],[-90.38882,38.81214,161],[-90.38882,38.81217,161],[-90.38882,38.8122,162],[-90.3888,38.81223,162],[-90.38878,38.81226,163],[-90.38875,38.81229,163],[-90.38873,38.81232,164],[-90.3887,38.81234,165],[-90.38867,38.81236,165],[-90.38864,38.81238,166],[-90.38863,38.81241,167],[-90.38862,38.81244,167],[-90.38863,38.81247,168],[-90.38865,38.81249,168],[-90.38866,38.81252,168],[-90.38865,38.81255,168],[-90.38864,38.81258,168],[-90.38862,38.81261,169],[-90.38861,38.81263,169],[-90.3886,38.81266,169],[-90.38857,38.81268,170],[-90.38853,38.8127,172],[-90.3885,38.81271,173],[-90.38847,38.81273,174],[-90.38845,38.81275,175],[-90.38841,38.81276,176],[-90.38838,38.81277,178],[-90.38835,38.81278,179],[-90.38831,38.8128,180],[-90.38827,38.81281,182],[-90.38824,38.8128,183],[-90.3882,38.81281,184],[-90.38817,38.81282,185],[-90.38814,38.81284,186],[-90.3881,38.81286,187],[-90.38806,38.81286,188],[-90.38807,38.81289,188],[-90.38809,38.81292,188],[-90.38807,38.81294,189],[-90.38807,38.81298,189],[-90.38808,38.813,189],[-90.38808,38.81304,190],[-90.38807,38.81307,190],[-90.38806,38.81309,191],[-90.38805,38.81312,192],[-90.38804,38.81315,192],[-90.38802,38.81318,193],[-90.388,38.8132,193],[-90.38798,38.81323,194],[-90.38796,38.81325,194],[-90.38793,38.81328,195],[-90.38792,38.8133,195],[-90.38789,38.81332,195],[-90.38785,38.81334,196],[-90.38782,38.81335,196],[-90.38778,38.81336,196],[-90.38775,38.81336,195],[-90.3877,38.81336,195],[-90.38766,38.81335,195],[-90.38762,38.81335,194],[-90.38758,38.81336,194],[-90.38759,38.81339,195],[-90.3876,38.81342,195],[-90.38761,38.81345,195],[-90.38761,38.81348,195],[-90.3876,38.8135,195],[-90.38759,38.81353,196],[-90.38758,38.81357,196],[-90.38758,38.81359,196],[-90.38757,38.81362,196],[-90.38756,38.81366,197],[-90.38755,38.81368,197],[-90.38754,38.81371,197],[-90.38753,38.81374,197],[-90.38752,38.81377,198],[-90.38752,38.8138,198],[-90.38752,38.81383,199],[-90.38754,38.81386,199],[-90.38757,38.81388,199],[-90.38761,38.81389,199],[-90.38764,38.81391,200],[-90.38767,38.81392,200],[-90.3877,38.81395,200],[-90.38774,38.81395,200],[-90.38778,38.81395,199],[-90.38782,38.81394,199],[-90.38786,38.81394,199],[-90.3879,38.81394,199],[-90.38794,38.81393,199],[-90.38798,38.81393,199],[-90.38802,38.81393,199],[-90.38807,38.81392,199],[-90.38811,38.81392,198],[-90.38815,38.81392,198],[-90.38819,38.81394,198],[-90.38824,38.81395,198],[-90.38828,38.81396,198],[-90.38833,38.81398,198],[-90.38838,38.814,197],[-90.38842,38.81401,197],[-90.38846,38.81402,197],[-90.38849,38.81404,197],[-90.38853,38.81405,196],[-90.38857,38.81406,196],[-90.38861,38.81407,196],[-90.38864,38.81408,195],[-90.38869,38.81408,195],[-90.38872,38.8141,194],[-90.38876,38.81411,194],[-90.3888,38.81412,193],[-90.38885,38.81413,193],[-90.38889,38.81415,192],[-90.38892,38.81416,192],[-90.38896,38.81418,192],[-90.389,38.81418,192],[-90.38905,38.81419,192],[-90.38909,38.81419,192],[-90.38913,38.81421,192],[-90.38916,38.81422,192],[-90.3892,38.81424,192],[-90.38924,38.81426,191],[-90.38928,38.81428,191],[-90.38931,38.81429,190],[-90.38936,38.81431,190],[-90.38939,38.81433,189],[-90.38943,38.81435,189],[-90.38947,38.81437,189],[-90.3895,38.8144,189],[-90.38953,38.81442,189],[-90.38955,38.81445,189],[-90.38955,38.81448,189],[-90.38954,38.81452,190],[-90.38954,38.81455,190],[-90.38953,38.81458,190],[-90.38953,38.81462,190],[-90.38954,38.81466,190],[-90.38953,38.81469,191],[-90.38953,38.81472,191],[-90.38954,38.81476,190],[-90.38954,38.81479,190],[-90.38955,38.81483,190],[-90.38955,38.81486,189],[-90.38956,38.81489,189],[-90.38958,38.81493,189],[-90.38961,38.81496,189],[-90.38964,38.81498,188],[-90.38968,38.81501,188],[-90.3897,38.81503,188],[-90.38973,38.81506,187],[-90.38976,38.81508,187],[-90.38979,38.8151,186],[-90.38982,38.81512,186],[-90.38985,38.81514,185],[-90.38988,38.81516,185],[-90.38991,38.81519,184],[-90.38995,38.81521,183],[-90.38998,38.81523,183],[-90.39001,38.81525,182],[-90.39005,38.81527,182],[-90.39008,38.81529,181],[-90.39012,38.81531,181],[-90.39016,38.81533,181],[-90.3902,38.81534,181],[-90.39024,38.81535,180],[-90.39028,38.81536,180],[-90.39032,38.81537,181],[-90.39035,38.81539,181],[-90.39038,38.8154,181],[-90.39042,38.81542,181],[-90.39046,38.81543,181],[-90.3905,38.81544,182],[-90.39054,38.81545,182],[-90.39058,38.81545,183],[-90.39062,38.81545,183],[-90.39066,38.81546,183],[-90.3907,38.81547,184],[-90.39074,38.81547,184],[-90.39079,38.81548,185],[-90.39083,38.81548,185],[-90.39088,38.81548,185],[-90.39091,38.81547,185],[-90.39095,38.81546,185],[-90.39099,38.81545,186],[-90.39102,38.81543,186],[-90.39106,38.81542,186],[-90.3911,38.8154,186],[-90.39115,38.8154,186],[-90.39118,38.8154,186],[-90.39123,38.81541,186],[-90.39127,38.81541,185],[-90.39132,38.81541,185],[-90.39136,38.81542,185],[-90.39141,38.81543,185],[-90.39144,38.81544,184],[-90.39148,38.81546,184],[-90.39151,38.81548,183],[-90.39155,38.8155,183],[-90.39158,38.81553,183],[-90.3916,38.81556,183],[-90.39163,38.81559,182],[-90.39167,38.81561,182],[-90.3917,38.81564,181],[-90.39172,38.81566,180],[-90.39177,38.81567,179],[-90.3918,38.81566,178],[-90.39185,38.81565,177],[-90.39189,38.81566,176],[-90.39192,38.81567,176],[-90.39194,38.81564,176],[-90.39192,38.81561,177],[-90.39193,38.81558,177],[-90.39193,38.81555,178],[-90.39192,38.81552,178],[-90.39192,38.81549,177],[-90.39193,38.81545,177],[-90.39192,38.81541,177],[-90.39191,38.81538,177],[-90.3919,38.81535,177],[-90.39188,38.81531,177],[-90.39188,38.81528,177],[-90.39189,38.81525,175],[-90.3919,38.81522,174],[-90.39192,38.81519,173],[-90.39192,38.81516,172],[-90.39193,38.81512,170],[-90.39193,38.81508,169],[-90.39193,38.81504,167],[-90.39191,38.81502,168],[-90.39189,38.81499,167],[-90.39186,38.81497,168],[-90.39184,38.81494,169],[-90.39184,38.81491,168],[-90.39185,38.81488,167],[-90.39187,38.81485,166],[-90.39187,38.81482,166],[-90.39186,38.81479,166],[-90.39185,38.81477,166],[-90.39184,38.81474,166],[-90.39183,38.81471,166],[-90.39183,38.81468,165],[-90.39183,38.81464,165],[-90.39182,38.81461,164],[-90.39181,38.81458,164],[-90.39178,38.81456,165],[-90.39176,38.81453,165],[-90.39176,38.8145,165],[-90.39175,38.81447,165],[-90.39175,38.81444,164],[-90.39174,38.81441,163],[-90.39174,38.81438,163],[-90.39175,38.81435,162],[-90.39175,38.81432,161],[-90.39176,38.81429,159],[-90.39176,38.81426,159],[-90.39177,38.81424,158],[-90.39179,38.81422,157],[-90.39182,38.81419,155],[-90.39182,38.81416,154],[-90.39185,38.81414,153],[-90.39187,38.81412,151],[-90.39188,38.81409,150],[-90.39193,38.81409,148],[-90.39197,38.81409,147],[-90.39201,38.81409,147],[-90.39205,38.81409,147],[-90.39209,38.81409,147],[-90.39212,38.81408,146],[-90.39216,38.81407,145],[-90.3922,38.81406,144],[-90.39216,38.81408,145],[-90.39213,38.81409,146],[-90.39208,38.81411,148],[-90.39205,38.81413,149],[-90.39201,38.81415,150],[-90.39197,38.81416,151],[-90.39194,38.81417,152],[-90.3919,38.81418,153],[-90.39192,38.81421,153],[-90.39189,38.81423,155],[-90.39187,38.81425,156],[-90.39186,38.81428,157],[-90.39183,38.8143,158],[-90.39183,38.81432,158],[-90.39183,38.81435,159],[-90.39184,38.81438,160],[-90.39185,38.81441,160],[-90.39186,38.81444,161],[-90.39186,38.81447,161],[-90.39187,38.8145,161],[-90.39187,38.81453,162],[-90.3919,38.81455,161],[-90.39192,38.81458,161],[-90.39193,38.8146,161],[-90.39194,38.81464,162],[-90.39194,38.81467,162],[-90.39194,38.8147,162],[-90.39195,38.81473,162],[-90.39196,38.81476,163],[-90.39198,38.81478,162],[-90.39198,38.81481,163],[-90.39197,38.81484,163],[-90.39195,38.81487,164],[-90.39192,38.81489,165],[-90.39192,38.81492,165],[-90.39194,38.81495,165],[-90.39196,38.81497,165],[-90.39198,38.815,165],[-90.392,38.81503,165],[-90.39202,38.81506,166],[-90.39202,38.81509,167],[-90.39201,38.81512,168],[-90.392,38.81515,169],[-90.392,38.81519,171],[-90.39199,38.81522,172],[-90.39197,38.81525,174],[-90.39196,38.81528,175],[-90.39196,38.81531,175],[-90.39197,38.81533,175],[-90.39199,38.81536,175],[-90.392,38.8154,174],[-90.39201,38.81543,174],[-90.39201,38.81546,174],[-90.39201,38.8155,174],[-90.39199,38.81552,175],[-90.39199,38.81556,175],[-90.39197,38.81558,176],[-90.39195,38.81561,176],[-90.39195,38.81565,175],[-90.39194,38.81568,175],[-90.3919,38.81569,176],[-90.39186,38.81569,177],[-90.39182,38.81569,177],[-90.39178,38.8157,178],[-90.39175,38.81572,179],[-90.39173,38.81574,179],[-90.39174,38.81577,178],[-90.39176,38.8158,177],[-90.39178,38.81583,176],[-90.39177,38.81586,176],[-90.39177,38.81589,175],[-90.39177,38.81593,174],[-90.39176,38.81595,174],[-90.39175,38.81599,174],[-90.39174,38.81602,173],[-90.39173,38.81605,173],[-90.39172,38.81609,172],[-90.39171,38.81612,172],[-90.39171,38.81615,171],[-90.3917,38.81618,170],[-90.39169,38.81621,169],[-90.39169,38.81625,168],[-90.39167,38.81627,168],[-90.39166,38.81631,166],[-90.39165,38.81634,166],[-90.39161,38.81637,166],[-90.39159,38.81639,165],[-90.39157,38.81642,165],[-90.39155,38.81644,165],[-90.39153,38.81647,164],[-90.39152,38.81649,164],[-90.39149,38.81652,164],[-90.39147,38.81656,163],[-90.39145,38.81658,163],[-90.39143,38.81661,162],[-90.3914,38.81663,162],[-90.39137,38.81665,162],[-90.39133,38.81666,163],[-90.39132,38.81669,162],[-90.39129,38.81671,162],[-90.39127,38.81674,161],[-90.39125,38.81677,160],[-90.39122,38.81678,161],[-90.3912,38.8168,160],[-90.39117,38.81683,160],[-90.39114,38.81684,160],[-90.39111,38.81685,160],[-90.39108,38.81685,161],[-90.39104,38.81685,161],[-90.39101,38.81683,162],[-90.391,38.81681,162],[-90.39096,38.81679,163],[-90.39093,38.81678,164],[-90.3909,38.81676,164],[-90.39087,38.81675,165],[-90.39086,38.81678,164],[-90.39088,38.8168,164],[-90.39086,38.81682,164],[-90.39083,38.81684,163],[-90.3908,38.81686,163],[-90.39077,38.81687,163],[-90.39073,38.81687,164],[-90.39069,38.81686,164],[-90.39066,38.81687,164],[-90.39063,38.81689,164],[-90.39059,38.8169,165],[-90.39056,38.81692,165],[-90.39054,38.81694,165],[-90.3905,38.81696,164],[-90.39051,38.81699,163],[-90.39053,38.817,163],[-90.39055,38.81703,162],[-90.39058,38.81705,161],[-90.39057,38.81709,160],[-90.39056,38.81711,159],[-90.39053,38.81713,159],[-90.39053,38.81716,158],[-90.39052,38.81719,157],[-90.39054,38.81721,156],[-90.39056,38.81724,155],[-90.39054,38.81726,154],[-90.39051,38.81728,154],[-90.3905,38.81731,153],[-90.39053,38.8173,153],[-90.39056,38.81728,153],[-90.39057,38.8173,152],[-90.3906,38.81731,152],[-90.39062,38.81734,150],[-90.39062,38.81738,149],[-90.3906,38.81741,148],[-90.39058,38.81743,148],[-90.39054,38.81745,147],[-90.39051,38.81747,147],[-90.39051,38.81744,148],[-90.39051,38.81741,149],[-90.39052,38.81738,150],[-90.39054,38.81734,151],[-90.39051,38.81733,152],[-90.39048,38.81734,152],[-90.39044,38.81733,152],[-90.39041,38.81732,153],[-90.39042,38.8173,154],[-90.39045,38.81731,153],[-90.39043,38.81729,154],[-90.39041,38.81732,153],[-90.39041,38.81729,154],[-90.39043,38.81726,155],[-90.39044,38.81723,156],[-90.39043,38.8172,157],[-90.39044,38.81718,157],[-90.39044,38.81715,158],[-90.39042,38.81712,159],[-90.39043,38.81709,161],[-90.39045,38.81706,161],[-90.39046,38.81704,162],[-90.39044,38.81701,163],[-90.39042,38.81698,164],[-90.39041,38.81695,165],[-90.39041,38.81692,166],[-90.39042,38.81689,166],[-90.39046,38.81687,166],[-90.3905,38.81685,166],[-90.39053,38.81684,166],[-90.39056,38.81682,166],[-90.39061,38.8168,166],[-90.39064,38.81679,166],[-90.39068,38.81678,165],[-90.39072,38.81677,165],[-90.39076,38.81677,165],[-90.3908,38.81677,165],[-90.39083,38.81676,165],[-90.39085,38.81673,165],[-90.39087,38.8167,166],[-90.39088,38.81668,166],[-90.39092,38.81666,166],[-90.39096,38.81666,166],[-90.391,38.81666,166],[-90.39104,38.81665,166],[-90.39107,38.81667,166],[-90.3911,38.81669,165],[-90.39112,38.81671,164],[-90.39114,38.81674,163],[-90.39116,38.81677,162],[-90.39116,38.81674,163],[-90.39119,38.81674,162],[-90.39123,38.81673,162],[-90.39126,38.81672,162],[-90.39127,38.8167,162],[-90.39128,38.81667,163],[-90.39131,38.81665,163],[-90.39134,38.81662,164],[-90.39137,38.8166,164],[-90.3914,38.81658,164],[-90.39143,38.81657,164],[-90.39145,38.81654,164],[-90.39146,38.81651,165],[-90.39148,38.81648,165],[-90.3915,38.81645,166],[-90.39152,38.81642,166],[-90.39153,38.8164,167],[-90.39156,38.81637,167],[-90.39159,38.81634,167],[-90.39162,38.81631,167],[-90.39163,38.81628,168],[-90.39163,38.81625,169],[-90.39164,38.81622,170],[-90.39164,38.81619,171],[-90.39164,38.81616,172],[-90.39166,38.81613,173],[-90.39166,38.8161,174],[-90.39167,38.81606,175],[-90.39168,38.81603,175],[-90.39169,38.816,175],[-90.39169,38.81597,176],[-90.3917,38.81594,176],[-90.3917,38.81591,177],[-90.39171,38.81587,178],[-90.39171,38.81584,178],[-90.3917,38.81581,179],[-90.39168,38.81577,180],[-90.39167,38.81574,180],[-90.39167,38.81571,181],[-90.39169,38.81568,181],[-90.39172,38.81566,180],[-90.39177,38.81566,179],[-90.39182,38.81566,178],[-90.39186,38.81566,177],[-90.3919,38.81566,176],[-90.39191,38.81563,177],[-90.3919,38.8156,177],[-90.39192,38.81557,178],[-90.39193,38.81554,178],[-90.39193,38.81551,177],[-90.39193,38.81548,177],[-90.39193,38.81545,177],[-90.39193,38.81541,177],[-90.39192,38.81538,177],[-90.39191,38.81535,177],[-90.39189,38.81532,177],[-90.39187,38.8153,177],[-90.39186,38.81527,176],[-90.39187,38.81524,175],[-90.3919,38.81521,174],[-90.39191,38.81517,172],[-90.39191,38.81514,171],[-90.39192,38.81511,170],[-90.39192,38.81507,169],[-90.39191,38.81504,168],[-90.39189,38.81501,168],[-90.39188,38.81498,168],[-90.39186,38.81495,168],[-90.39185,38.81492,168],[-90.39185,38.81489,167],[-90.39187,38.81486,166],[-90.39188,38.81483,166],[-90.39187,38.8148,166],[-90.39185,38.81477,166],[-90.39184,38.81474,166],[-90.39183,38.81471,166],[-90.39182,38.81469,166],[-90.39183,38.81465,165],[-90.39182,38.81462,165],[-90.3918,38.81459,165],[-90.39179,38.81456,165],[-90.39177,38.81453,165],[-90.39176,38.8145,165],[-90.39176,38.81447,164],[-90.39175,38.81444,164],[-90.39175,38.81441,163],[-90.39174,38.81438,163],[-90.39175,38.81435,162],[-90.39175,38.81432,161],[-90.39176,38.8143,160],[-90.39175,38.81427,159],[-90.39175,38.81424,159],[-90.39178,38.81422,157],[-90.39181,38.81421,156],[-90.39183,38.81418,155],[-90.39185,38.81415,153],[-90.39186,38.81412,151],[-90.39188,38.81409,150],[-90.39191,38.81409,149],[-90.39196,38.81408,147],[-90.392,38.81408,147],[-90.39204,38.81408,146],[-90.39207,38.81407,146],[-90.39212,38.81406,145],[-90.39216,38.81406,144],[-90.3922,38.81405,143],[-90.39218,38.81408,145],[-90.39215,38.8141,147],[-90.39212,38.81411,147],[-90.39208,38.81412,148],[-90.39205,38.81413,149],[-90.39202,38.81416,151],[-90.39198,38.81417,151],[-90.39194,38.81417,152],[-90.3919,38.81417,153],[-90.39189,38.8142,154],[-90.39187,38.81422,155],[-90.39187,38.81425,156],[-90.39185,38.81428,157],[-90.39183,38.8143,158],[-90.39183,38.81433,159],[-90.39183,38.81436,160],[-90.39184,38.81439,160],[-90.39185,38.81442,160],[-90.39185,38.81445,161],[-90.39186,38.81448,161],[-90.39187,38.81451,162],[-90.39188,38.81454,162],[-90.39192,38.81455,161],[-90.39195,38.81458,160],[-90.39195,38.81461,161],[-90.39194,38.81464,162],[-90.39193,38.81467,162],[-90.39194,38.8147,162],[-90.39196,38.81473,162],[-90.39197,38.81476,162],[-90.39197,38.81479,163],[-90.39197,38.81483,163],[-90.39195,38.81486,164],[-90.39192,38.81488,165],[-90.39192,38.81491,165],[-90.39193,38.81494,165],[-90.39196,38.81497,165],[-90.39198,38.815,165],[-90.392,38.81502,165],[-90.39202,38.81505,165],[-90.39202,38.81508,166],[-90.39201,38.81511,168],[-90.392,38.81514,169],[-90.39198,38.81518,171],[-90.39197,38.81521,172],[-90.39196,38.81523,173],[-90.39195,38.81526,175],[-90.39196,38.81529,175],[-90.39197,38.81532,175],[-90.39199,38.81535,175],[-90.392,38.81538,174],[-90.39202,38.81541,174],[-90.39202,38.81544,174],[-90.39201,38.81547,174],[-90.392,38.8155,175],[-90.39199,38.81553,175],[-90.39198,38.81557,175],[-90.39195,38.81559,176],[-90.39194,38.81563,176],[-90.39193,38.81566,176],[-90.3919,38.81568,176],[-90.39186,38.81569,177],[-90.39183,38.8157,177],[-90.39179,38.8157,178],[-90.39176,38.81571,179],[-90.39173,38.81572,179],[-90.39169,38.81571,180],[-90.39165,38.81569,181],[-90.39162,38.81566,182],[-90.39159,38.81563,182],[-90.39157,38.81561,183],[-90.39154,38.81559,183],[-90.3915,38.81557,183],[-90.39147,38.81555,184],[-90.39144,38.81553,184],[-90.39141,38.8155,184],[-90.39138,38.81549,185],[-90.39134,38.81548,185],[-90.3913,38.81547,185],[-90.39126,38.81547,185],[-90.39121,38.81547,185],[-90.39118,38.81547,186],[-90.39114,38.81547,186],[-90.3911,38.81547,186],[-90.39106,38.81548,186],[-90.39102,38.8155,185],[-90.39098,38.81552,185],[-90.39095,38.81553,185],[-90.39091,38.81554,185],[-90.39087,38.81555,185],[-90.39082,38.81555,184],[-90.39077,38.81555,184],[-90.39073,38.81555,183],[-90.39069,38.81554,183],[-90.39065,38.81554,183],[-90.3906,38.81554,182],[-90.39056,38.81552,182],[-90.39052,38.81552,181],[-90.39048,38.81551,181],[-90.39044,38.81551,180],[-90.39041,38.81549,180],[-90.39037,38.81548,180],[-90.39033,38.81546,179],[-90.3903,38.81545,179],[-90.39026,38.81544,179],[-90.39022,38.81543,179],[-90.39018,38.81543,179],[-90.39014,38.81542,179],[-90.39011,38.8154,179],[-90.39007,38.81539,180],[-90.39003,38.81537,180],[-90.39,38.81536,180],[-90.38997,38.81534,181],[-90.38994,38.81532,181],[-90.3899,38.8153,181],[-90.38988,38.81528,182],[-90.38984,38.81526,182],[-90.38981,38.81524,183],[-90.38979,38.81522,184],[-90.38975,38.8152,184],[-90.38972,38.81518,185],[-90.3897,38.81516,185],[-90.38967,38.81513,186],[-90.38964,38.81511,186],[-90.38961,38.81509,187],[-90.38959,38.81507,187],[-90.38956,38.81504,187],[-90.38954,38.81502,188],[-90.38951,38.81499,188],[-90.38949,38.81497,188],[-90.38948,38.81494,188],[-90.38947,38.8149,189],[-90.38946,38.81487,189],[-90.38944,38.81483,189],[-90.38944,38.8148,190],[-90.38943,38.81476,190],[-90.38944,38.81473,190],[-90.38944,38.81469,190],[-90.38943,38.81466,190],[-90.38943,38.81462,190],[-90.38943,38.81458,190],[-90.38944,38.81455,190],[-90.38945,38.81452,190],[-90.38946,38.81449,190],[-90.38946,38.81445,189],[-90.38944,38.81442,189],[-90.38942,38.81439,189],[-90.38939,38.81436,189],[-90.38936,38.81435,190],[-90.38933,38.81433,190],[-90.3893,38.81432,190],[-90.38926,38.81431,191],[-90.38922,38.81429,191],[-90.38919,38.81428,192],[-90.38915,38.81427,192],[-90.38912,38.81425,192],[-90.38908,38.81424,192],[-90.38904,38.81423,192],[-90.389,38.81423,192],[-90.38896,38.81422,192],[-90.38891,38.81422,192],[-90.38887,38.81422,193],[-90.38882,38.81421,194],[-90.38879,38.8142,194],[-90.38875,38.81418,195],[-90.38872,38.81417,195],[-90.38869,38.81415,195],[-90.38865,38.81414,196],[-90.38861,38.81413,196],[-90.38857,38.81412,196],[-90.38854,38.81411,197],[-90.3885,38.8141,197],[-90.38846,38.81408,197],[-90.38842,38.81407,197],[-90.38838,38.81405,198],[-90.38834,38.81403,198],[-90.3883,38.81401,198],[-90.38827,38.814,198],[-90.38823,38.81398,198],[-90.38819,38.81396,198],[-90.38815,38.81396,198],[-90.38811,38.81396,199],[-90.38807,38.81397,199],[-90.38803,38.81397,199],[-90.38799,38.81398,199],[-90.38795,38.81399,199],[-90.38792,38.81399,199],[-90.38787,38.814,199],[-90.38782,38.814,199],[-90.38778,38.814,199],[-90.38774,38.814,200],[-90.38769,38.814,200],[-90.38764,38.81399,200],[-90.38761,38.81395,200],[-90.38758,38.81393,200],[-90.38754,38.81391,200],[-90.38751,38.81389,199],[-90.38749,38.81385,199],[-90.38748,38.81383,199],[-90.38749,38.8138,198],[-90.38749,38.81376,198],[-90.3875,38.81372,197],[-90.38751,38.81369,197],[-90.38752,38.81365,196],[-90.38752,38.81362,196],[-90.38752,38.81358,195],[-90.38752,38.81355,195],[-90.38753,38.81351,195],[-90.38753,38.81348,195],[-90.38754,38.81345,195],[-90.38754,38.81342,194],[-90.38754,38.81339,194],[-90.38754,38.81336,194],[-90.38754,38.81333,194],[-90.38757,38.8133,194],[-90.38762,38.8133,194],[-90.38766,38.8133,194],[-90.3877,38.8133,195],[-90.38774,38.81329,195],[-90.38778,38.81329,195],[-90.38782,38.81329,195],[-90.38786,38.81328,195],[-90.38788,38.81326,195],[-90.3879,38.81323,194],[-90.38792,38.8132,194],[-90.38795,38.81317,193],[-90.38796,38.81315,193],[-90.38797,38.81311,192],[-90.38797,38.81309,192],[-90.38799,38.81306,191],[-90.388,38.81303,191],[-90.38802,38.813,190],[-90.38801,38.81297,190],[-90.38801,38.81293,189],[-90.38801,38.8129,189],[-90.38802,38.81287,189],[-90.38802,38.81283,188],[-90.38802,38.8128,188],[-90.38805,38.81279,188],[-90.38809,38.81278,186],[-90.38813,38.81277,185],[-90.38817,38.81275,184],[-90.3882,38.81273,182],[-90.38823,38.81272,181],[-90.38828,38.81272,180],[-90.38832,38.81272,179],[-90.38835,38.8127,177],[-90.38839,38.81269,176],[-90.38843,38.81268,175],[-90.38845,38.81266,174],[-90.38847,38.81263,173],[-90.3885,38.81262,172],[-90.38853,38.8126,171],[-90.38854,38.81257,170],[-90.38855,38.81254,170],[-90.38857,38.81251,169],[-90.38859,38.81248,169],[-90.38858,38.81245,168],[-90.38856,38.81243,168],[-90.38855,38.81239,168],[-90.38856,38.81236,167],[-90.38858,38.81233,166],[-90.3886,38.8123,165],[-90.38864,38.81228,164],[-90.38867,38.81228,164],[-90.38871,38.81226,163],[-90.38874,38.81224,163],[-90.38876,38.81221,162],[-90.38877,38.81218,162],[-90.38877,38.81215,161],[-90.38875,38.81212,161],[-90.38873,38.81209,161],[-90.38871,38.81207,161],[-90.38867,38.81206,162],[-90.38864,38.81204,162],[-90.38862,38.81201,162],[-90.3886,38.81198,162],[-90.38857,38.81195,162],[-90.38854,38.81194,163],[-90.38851,38.81191,164],[-90.3885,38.81188,164],[-90.3885,38.81185,164],[-90.38851,38.81182,164],[-90.38852,38.81179,164],[-90.38854,38.81176,164],[-90.38857,38.81174,164],[-90.38859,38.81171,164],[-90.38862,38.81169,164],[-90.38865,38.81167,164],[-90.38869,38.81165,163],[-90.38872,38.81164,163],[-90.38875,38.81162,162],[-90.38876,38.81159,161],[-90.38877,38.81156,161],[-90.38879,38.81154,161],[-90.38883,38.81154,160],[-90.38886,38.81154,159],[-90.3889,38.81153,158],[-90.38894,38.81152,157],[-90.38898,38.8115,156],[-90.38902,38.8115,155],[-90.38905,38.81149,154],[-90.38909,38.81147,153],[-90.38912,38.81145,153],[-90.38914,38.81143,152],[-90.38916,38.8114,152],[-90.38919,38.81138,152],[-90.38924,38.81137,152],[-90.38928,38.81137,152],[-90.38933,38.81137,152],[-90.38937,38.81137,152],[-90.3894,38.81134,152],[-90.38941,38.81131,152],[-90.38943,38.81128,152],[-90.38945,38.81125,151],[-90.38947,38.81122,151],[-90.3895,38.81119,151],[-90.38953,38.81117,151],[-90.38958,38.81116,151],[-90.38962,38.81116,151],[-90.38967,38.81117,151],[-90.3897,38.81118,150],[-90.38974,38.81118,150],[-90.38979,38.81118,149],[-90.38982,38.81117,149],[-90.38986,38.81115,148],[-90.38989,38.81114,148],[-90.38993,38.81114,147],[-90.38997,38.81114,147],[-90.39002,38.81115,146],[-90.39006,38.81115,145],[-90.3901,38.81116,145],[-90.39014,38.81116,144],[-90.39018,38.81117,144],[-90.39022,38.81117,143],[-90.39026,38.81117,143],[-90.3903,38.81116,142],[-90.39034,38.81117,142],[-90.39037,38.81119,142],[-90.39042,38.8112,142],[-90.39045,38.81121,142],[-90.39049,38.81123,142],[-90.39052,38.81124,142],[-90.39056,38.81125,142],[-90.39059,38.81126,142],[-90.39063,38.81125,142],[-90.39066,38.81123,142],[-90.39069,38.81121,142],[-90.39072,38.81119,141],[-90.39076,38.81118,141],[-90.39079,38.81116,141],[-90.3908,38.81112,141],[-90.39081,38.81109,140],[-90.39082,38.81106,140],[-90.39082,38.81103,140],[-90.39082,38.81099,139],[-90.39081,38.81096,139],[-90.3908,38.81093,139],[-90.39079,38.8109,138],[-90.39078,38.81087,138],[-90.39078,38.81081,138]]],
        "bbox": [
          -90.38748,
          38.81747,
          -90.3922,
          38.81081
        ]
      },
      "properties": {
        "name": "2.6.2023"
      }
    }
  ]
}