{
  "type": "FeatureCollection",
  "features": [
    {
      "type": "Feature",
      "geometry": {
        "type": "MultiLineString",
        "coordinates": [[[-90.3908,38.81091,139],[-90.39081,38.81094,139],[-90.39081,38.81098,139],[-90.39081,38.81102,140],[-90.39081,38.81105,140],[-90.39081,38.81109,140],[-90.39081,38.81112,141],[-90.39081,38.81115,141],[-90.39082,38.81118,141],[-90.39085,38.81121,141],[-90.39087,38.81124,141],[-90.39089,38.81126,141],[-90.39091,38.81129,141],[-90.39093,38.81131,141],[-90.39096,38.81134,141],[-90.39097,38.81137,141],[-90.39099,38.8114,142],[-90.39101,38.81143,142],[-90.39104,38.81146,142],[-90.39105,38.81149,142],[-90.39106,38.81153,143],[-90.39106,38.81156,143],[-90.39105,38.8116,144],[-90.39103,38.81163,145],[-90.391,38.81164,145],[-90.39098,38.81166,145],[-90.39095,38.81168,146],[-90.39092,38.81171,146],[-90.3909,38.81174,147],[-90.39089,38.81177,147],[-90.39089,38.81181,148],[-90.3909,38.81185,148],[-90.3909,38.81188,148],[-90.3909,38.81191,149],[-90.39091,38.81194,149],[-90.39094,38.81195,150],[-90.39099,38.81196,150],[-90.39094,38.81196,150],[-90.3909,38.81198,149],[-90.39088,38.812,149],[-90.39087,38.81203,149],[-90.39086,38.81206,149],[-90.39085,38.81209,149],[-90.39086,38.81213,149],[-90.39085,38.81216,149],[-90.39085,38.8122,149],[-90.39086,38.81223,149],[-90.39087,38.81226,149],[-90.39087,38.81229,148],[-90.39088,38.81232,147],[-90.39089,38.81235,146],[-90.39091,38.81238,145],[-90.39093,38.81241,145],[-90.39094,38.81244,144],[-90.39094,38.81248,143],[-90.39094,38.81252,143],[-90.39095,38.81255,143],[-90.39096,38.81259,144],[-90.39096,38.81262,145],[-90.39097,38.81266,146],[-90.39099,38.81269,146],[-90.39099,38.81273,147],[-90.39099,38.81277,148],[-90.391,38.81281,149],[-90.39102,38.81284,149],[-90.39105,38.81286,149],[-90.39107,38.81289,150],[-90.39108,38.81293,151],[-90.39109,38.81296,151],[-90.3911,38.81299,152],[-90.39112,38.81302,152],[-90.39114,38.81304,153],[-90.39116,38.81307,153],[-90.39116,38.8131,153],[-90.39118,38.81313,153],[-90.3912,38.81315,153],[-90.39123,38.81318,152],[-90.39126,38.81321,152],[-90.39128,38.81323,152],[-90.39131,38.81326,151],[-90.39134,38.81329,151],[-90.39138,38.8133,151],[-90.39142,38.81331,150],[-90.39146,38.81332,149],[-90.3915,38.81334,149],[-90.39153,38.81336,148],[-90.39155,38.81339,148],[-90.39156,38.81343,147],[-90.39157,38.81346,147],[-90.39157,38.81349,146],[-90.39159,38.81351,146],[-90.39159,38.81349,146],[-90.39158,38.81346,146],[-90.39156,38.81343,147],[-90.39158,38.81347,146],[-90.39159,38.8135,146],[-90.39159,38.81354,145],[-90.3916,38.81357,145],[-90.39162,38.81361,144],[-90.39165,38.81364,144],[-90.39169,38.81367,143],[-90.39172,38.81369,143],[-90.39174,38.81372,143],[-90.39177,38.81374,143],[-90.39179,38.81376,142],[-90.39182,38.81378,142],[-90.39185,38.81381,141],[-90.39187,38.81383,140],[-90.3919,38.81385,139],[-90.39193,38.81387,138],[-90.39196,38.8139,138],[-90.39198,38.81393,139],[-90.39201,38.81396,140],[-90.39204,38.81398,141],[-90.39208,38.81399,141],[-90.39211,38.81401,142],[-90.39214,38.81402,142],[-90.39217,38.81404,143],[-90.39221,38.81405,143],[-90.39224,38.81407,144],[-90.39227,38.81409,146],[-90.39229,38.81412,148],[-90.39232,38.81415,149],[-90.39235,38.81418,150],[-90.39239,38.81421,151],[-90.39243,38.81423,151],[-90.39247,38.81425,151],[-90.39251,38.81426,151],[-90.39255,38.81425,151],[-90.39253,38.81428,152],[-90.39256,38.8143,152],[-90.3926,38.81433,152],[-90.39263,38.81435,152],[-90.39265,38.81438,153],[-90.39268,38.81441,153],[-90.39271,38.81444,153],[-90.39274,38.81448,153],[-90.39277,38.8145,152],[-90.3928,38.81453,152],[-90.39282,38.81455,151],[-90.39285,38.81457,150],[-90.39287,38.81459,150],[-90.39289,38.81461,149],[-90.3929,38.81464,149],[-90.39291,38.81467,149],[-90.39292,38.8147,148],[-90.39292,38.81473,148],[-90.39293,38.81476,148],[-90.39293,38.8148,148],[-90.39294,38.81484,148],[-90.39295,38.81487,148],[-90.39296,38.8149,148],[-90.39298,38.81493,148],[-90.393,38.81496,148],[-90.39302,38.81499,148],[-90.39305,38.81501,147],[-90.39307,38.81504,147],[-90.39309,38.81508,146],[-90.39311,38.81511,145],[-90.39314,38.81513,145],[-90.39317,38.81515,144],[-90.39321,38.81516,143],[-90.39324,38.81518,142],[-90.39325,38.8152,141],[-90.39323,38.81523,142],[-90.3932,38.81524,142],[-90.39315,38.81525,143],[-90.39311,38.81526,144],[-90.39307,38.81528,145],[-90.39304,38.8153,145],[-90.39301,38.81532,145],[-90.39298,38.81534,145],[-90.39295,38.81535,146],[-90.39291,38.81536,147],[-90.39287,38.81536,148],[-90.39284,38.81537,148],[-90.39279,38.81538,149],[-90.39275,38.8154,150],[-90.39272,38.81543,150],[-90.39269,38.81546,150],[-90.39266,38.81548,151],[-90.39264,38.8155,151],[-90.39261,38.81553,152],[-90.3926,38.81556,151],[-90.39257,38.81559,152],[-90.39255,38.81562,152],[-90.39255,38.81566,151],[-90.39255,38.8157,150],[-90.39256,38.81574,149],[-90.39258,38.81577,147],[-90.39259,38.8158,146],[-90.3926,38.81582,146],[-90.39261,38.81586,145],[-90.39262,38.81588,145],[-90.39264,38.81591,144],[-90.39263,38.81595,144],[-90.39262,38.81598,145],[-90.39261,38.81601,145],[-90.39259,38.81604,145],[-90.39257,38.81606,146],[-90.39254,38.81608,147],[-90.3925,38.81611,148],[-90.39247,38.81611,149],[-90.39243,38.81612,150],[-90.3924,38.81614,151],[-90.39237,38.81616,151],[-90.39235,38.81619,151],[-90.39233,38.81621,151],[-90.39234,38.81624,150],[-90.39234,38.81622,151],[-90.39237,38.81619,151],[-90.39239,38.81617,151],[-90.39242,38.81613,151],[-90.39245,38.81612,150],[-90.39248,38.81611,149],[-90.39252,38.81609,148],[-90.39255,38.81607,147],[-90.39258,38.81605,146],[-90.39261,38.81602,145],[-90.39262,38.81599,145],[-90.39262,38.81595,145],[-90.39262,38.81592,145],[-90.39263,38.81589,144],[-90.39262,38.81586,145],[-90.39261,38.81582,145],[-90.39261,38.81578,146],[-90.3926,38.81575,147],[-90.39259,38.81573,148],[-90.39258,38.8157,149],[-90.39258,38.81567,150],[-90.39259,38.81563,150],[-90.39261,38.81561,150],[-90.39266,38.81559,148],[-90.39269,38.81557,148],[-90.39271,38.81555,147],[-90.39274,38.81552,147],[-90.39278,38.81549,146],[-90.39281,38.81547,146],[-90.39283,38.81544,146],[-90.39286,38.81543,146],[-90.39291,38.81541,145],[-90.39295,38.81539,145],[-90.39299,38.81537,144],[-90.39303,38.81535,144],[-90.39306,38.81532,144],[-90.39308,38.81529,144],[-90.39311,38.81526,144],[-90.39313,38.81524,144],[-90.39315,38.81521,144],[-90.39316,38.81519,144],[-90.39317,38.81516,144],[-90.39317,38.81513,144],[-90.39316,38.8151,144],[-90.39315,38.81507,145],[-90.39313,38.81504,146],[-90.3931,38.81501,147],[-90.39308,38.81497,147],[-90.39306,38.81495,147],[-90.39304,38.81492,147],[-90.39301,38.81489,147],[-90.39299,38.81485,147],[-90.39297,38.81482,148],[-90.39297,38.81478,148],[-90.39298,38.81475,147],[-90.39297,38.81472,147],[-90.39296,38.81468,148],[-90.39296,38.81465,148],[-90.39295,38.81462,148],[-90.39294,38.81458,149],[-90.39292,38.81455,149],[-90.39288,38.81452,150],[-90.39285,38.8145,151],[-90.39282,38.81449,151],[-90.39279,38.81447,152],[-90.39276,38.81445,153],[-90.39274,38.81443,153],[-90.39271,38.8144,152],[-90.39268,38.81437,152],[-90.39265,38.81434,152],[-90.39261,38.81432,152],[-90.39258,38.81431,152],[-90.39255,38.81429,152],[-90.39252,38.81428,152],[-90.39249,38.81426,152],[-90.39246,38.81424,151],[-90.39243,38.81422,151],[-90.39241,38.8142,150],[-90.39237,38.81418,150],[-90.39234,38.81417,150],[-90.3923,38.81415,149],[-90.39228,38.81412,148],[-90.39226,38.81408,145],[-90.39225,38.81404,143],[-90.39224,38.814,140],[-90.39225,38.81397,138],[-90.39221,38.81398,139],[-90.39217,38.81397,138],[-90.39214,38.81396,138],[-90.39209,38.81394,138],[-90.39205,38.81393,138],[-90.39202,38.81392,138],[-90.39198,38.81389,137],[-90.39195,38.81387,138],[-90.39192,38.81384,139],[-90.39188,38.81382,140],[-90.39185,38.81381,141],[-90.39181,38.81379,142],[-90.39178,38.81377,143],[-90.39175,38.81375,143],[-90.39172,38.81372,143],[-90.3917,38.81369,143],[-90.39169,38.81366,143],[-90.39167,38.81363,143],[-90.39165,38.8136,143],[-90.39164,38.81357,144],[-90.39163,38.81354,144],[-90.39163,38.81351,145],[-90.39162,38.81347,146],[-90.39161,38.81343,146],[-90.3916,38.8134,147],[-90.39159,38.81337,147],[-90.39157,38.81334,148],[-90.39154,38.81332,148],[-90.39151,38.8133,148],[-90.39147,38.81329,149],[-90.39144,38.81328,149],[-90.39139,38.81326,150],[-90.39135,38.81323,151],[-90.39132,38.8132,151],[-90.39128,38.81318,151],[-90.39125,38.81316,152],[-90.39124,38.81313,152],[-90.39122,38.8131,152],[-90.3912,38.81307,152],[-90.39118,38.81304,152],[-90.39117,38.81301,152],[-90.39115,38.81298,151],[-90.39113,38.81295,151],[-90.39111,38.81291,150],[-90.3911,38.81288,149],[-90.39108,38.81286,149],[-90.39108,38.81282,148],[-90.39106,38.81279,148],[-90.39105,38.81277,147],[-90.39103,38.81273,147],[-90.39102,38.8127,146],[-90.39101,38.81267,146],[-90.39101,38.81265,145],[-90.39101,38.81262,144],[-90.391,38.81259,144],[-90.391,38.81255,143],[-90.391,38.81251,142],[-90.39099,38.81247,143],[-90.39098,38.81244,143],[-90.39098,38.81241,144],[-90.39097,38.81239,145],[-90.39095,38.81236,146],[-90.39093,38.81233,147],[-90.39092,38.81229,148],[-90.39091,38.81226,148],[-90.3909,38.81224,149],[-90.3909,38.8122,149],[-90.3909,38.81216,149],[-90.3909,38.81212,149],[-90.39091,38.81209,149],[-90.39092,38.81206,149],[-90.39093,38.81203,149],[-90.39094,38.81199,150],[-90.39094,38.81197,150],[-90.39094,38.81192,149],[-90.39094,38.81189,149],[-90.39093,38.81186,148],[-90.39093,38.81183,148],[-90.39092,38.8118,148],[-90.39093,38.81176,147],[-90.39094,38.81173,147],[-90.39096,38.81171,146],[-90.39099,38.81169,146],[-90.39102,38.81165,145],[-90.39104,38.81163,145],[-90.39107,38.8116,144],[-90.39109,38.81158,143],[-90.39112,38.81154,143],[-90.39112,38.8115,142],[-90.39112,38.81147,142],[-90.39111,38.81144,141],[-90.39109,38.81141,141],[-90.39106,38.81139,141],[-90.39104,38.81137,141],[-90.39102,38.81135,141],[-90.39099,38.81133,141],[-90.39096,38.8113,141],[-90.39093,38.81127,141],[-90.3909,38.81124,141],[-90.39088,38.81121,141],[-90.39086,38.81118,141],[-90.39084,38.81115,141],[-90.39084,38.81112,141],[-90.39084,38.81109,140],[-90.39086,38.81105,140],[-90.39087,38.81102,139],[-90.39089,38.81098,139],[-90.3909,38.81095,138],[-90.3909,38.81091,138],[-90.39089,38.81088,138],[-90.39089,38.81085,137],[-90.39088,38.81082,137],[-90.39086,38.81079,138],[-90.39084,38.81075,138],[-90.39082,38.81073,138],[-90.3908,38.8107,139],[-90.39079,38.81067,139],[-90.39079,38.81064,139],[-90.39079,38.81066,139]]],
        "bbox": [
          -90.39079,
          38.81624,
          -90.39325,
          38.81064
        ]
      },
      "properties": {
        "name": "7.25.2024"
      }
    }
  ]
}