{
  "type": "FeatureCollection",
  "features": [
    {
      "type": "Feature",
      "geometry": {
        "type": "MultiLineString",
        "coordinates": [[[-90.39079,38.81084,138],[-90.39079,38.81087,138],[-90.39079,38.81089,138],[-90.39081,38.81093,139],[-90.39083,38.81095,139],[-90.39085,38.81098,139],[-90.39087,38.811,139],[-90.39087,38.81103,139],[-90.39087,38.81107,140],[-90.39087,38.8111,140],[-90.39087,38.81113,140],[-90.39087,38.81117,141],[-90.39086,38.8112,141],[-90.39084,38.81122,141],[-90.39081,38.81124,141],[-90.39078,38.81126,142],[-90.39075,38.81127,142],[-90.39071,38.81129,142],[-90.39067,38.8113,142],[-90.39062,38.81132,142],[-90.39058,38.81132,142],[-90.39054,38.81131,142],[-90.3905,38.81129,142],[-90.39048,38.81127,142],[-90.39045,38.81125,142],[-90.39042,38.81123,142],[-90.39038,38.81122,142],[-90.39035,38.81121,142],[-90.39031,38.8112,142],[-90.39027,38.81121,143],[-90.39023,38.81122,143],[-90.39019,38.81121,144],[-90.39015,38.8112,144],[-90.39011,38.8112,145],[-90.39006,38.81119,145],[-90.39002,38.81118,146],[-90.38998,38.81117,146],[-90.38994,38.81118,147],[-90.38991,38.8112,147],[-90.38987,38.81122,148],[-90.38984,38.81124,148],[-90.38979,38.81124,149],[-90.38976,38.81124,149],[-90.38971,38.81122,150],[-90.38967,38.81121,150],[-90.38962,38.81121,151],[-90.38958,38.81121,151],[-90.38955,38.81123,151],[-90.38954,38.81126,151],[-90.38952,38.81129,151],[-90.38949,38.81131,151],[-90.38948,38.81134,151],[-90.38946,38.81137,151],[-90.38944,38.8114,152],[-90.3894,38.81142,152],[-90.38936,38.81142,152],[-90.38933,38.81142,152],[-90.38928,38.81142,152],[-90.38925,38.81145,152],[-90.38922,38.81147,152],[-90.38919,38.81149,152],[-90.38916,38.81152,152],[-90.38913,38.81154,152],[-90.38909,38.81156,153],[-90.38906,38.81157,154],[-90.38902,38.81158,155],[-90.38899,38.8116,156],[-90.38896,38.81161,157],[-90.38892,38.81162,158],[-90.38888,38.81163,159],[-90.38886,38.81165,160],[-90.38885,38.81168,160],[-90.38882,38.8117,160],[-90.38879,38.81172,161],[-90.38876,38.81175,161],[-90.38874,38.81177,161],[-90.38871,38.81179,161],[-90.38868,38.81181,162],[-90.38867,38.81183,162],[-90.38866,38.81186,162],[-90.38865,38.81189,161],[-90.38867,38.81192,161],[-90.38871,38.81193,160],[-90.38873,38.81195,159],[-90.38876,38.81198,159],[-90.38879,38.81201,159],[-90.38882,38.81202,159],[-90.38885,38.81204,159],[-90.38888,38.81207,159],[-90.38888,38.8121,159],[-90.38887,38.81214,160],[-90.38886,38.81217,161],[-90.38884,38.8122,161],[-90.38883,38.81222,162],[-90.38881,38.81226,162],[-90.38879,38.81229,163],[-90.38878,38.81232,163],[-90.38874,38.81233,164],[-90.38871,38.81236,165],[-90.38869,38.81239,165],[-90.38868,38.81242,166],[-90.38869,38.81244,166],[-90.38872,38.81247,166],[-90.3887,38.8125,167],[-90.38869,38.81253,167],[-90.38868,38.81255,167],[-90.38867,38.81258,168],[-90.38866,38.81261,168],[-90.38865,38.81264,168],[-90.38862,38.81267,169],[-90.38859,38.81269,170],[-90.38857,38.81271,171],[-90.38854,38.81273,172],[-90.38851,38.81275,173],[-90.38847,38.81276,174],[-90.38843,38.81277,176],[-90.3884,38.81279,177],[-90.38836,38.8128,179],[-90.38832,38.81279,180],[-90.38828,38.81279,181],[-90.38825,38.8128,182],[-90.38822,38.81282,183],[-90.3882,38.81284,184],[-90.38816,38.81286,186],[-90.38812,38.81287,187],[-90.38814,38.8129,187],[-90.38813,38.81292,187],[-90.38813,38.81295,188],[-90.38813,38.81299,188],[-90.38813,38.81302,188],[-90.38813,38.81305,189],[-90.38811,38.81307,190],[-90.3881,38.8131,190],[-90.38809,38.81313,191],[-90.38807,38.81315,192],[-90.38805,38.81318,193],[-90.38803,38.8132,193],[-90.388,38.81322,194],[-90.38797,38.81325,194],[-90.38795,38.81328,195],[-90.38792,38.8133,195],[-90.38789,38.81332,195],[-90.38786,38.81334,196],[-90.38782,38.81335,196],[-90.38778,38.81336,196],[-90.38774,38.81336,195],[-90.3877,38.81336,195],[-90.38766,38.81336,195],[-90.38764,38.81339,195],[-90.38764,38.81341,195],[-90.38764,38.81345,195],[-90.38764,38.81347,195],[-90.38763,38.8135,196],[-90.38762,38.81353,196],[-90.38762,38.81357,196],[-90.38761,38.8136,196],[-90.3876,38.81363,196],[-90.3876,38.81366,197],[-90.38759,38.8137,197],[-90.38758,38.81373,198],[-90.38757,38.81376,198],[-90.38756,38.81379,198],[-90.38756,38.81383,199],[-90.38759,38.81385,199],[-90.38763,38.81387,199],[-90.38766,38.81388,199],[-90.3877,38.8139,200],[-90.38773,38.81391,200],[-90.38776,38.81392,200],[-90.38781,38.81393,199],[-90.38785,38.81392,199],[-90.3879,38.81392,199],[-90.38794,38.81392,199],[-90.38798,38.81391,199],[-90.38802,38.81391,199],[-90.38806,38.8139,199],[-90.3881,38.81389,198],[-90.38813,38.81389,198],[-90.38818,38.81389,198],[-90.38822,38.81389,198],[-90.38826,38.8139,198],[-90.3883,38.81391,198],[-90.38834,38.81393,198],[-90.38838,38.81394,197],[-90.38843,38.81396,197],[-90.38847,38.81397,196],[-90.38851,38.81399,196],[-90.38855,38.814,196],[-90.38858,38.81402,196],[-90.38862,38.81404,195],[-90.38865,38.81405,195],[-90.38869,38.81406,195],[-90.38873,38.81408,194],[-90.38877,38.81409,194],[-90.3888,38.8141,193],[-90.38885,38.81412,193],[-90.3889,38.81413,192],[-90.38894,38.81414,192],[-90.38898,38.81415,192],[-90.38901,38.81416,192],[-90.38905,38.81417,192],[-90.38908,38.81418,192],[-90.38913,38.81419,192],[-90.38918,38.8142,192],[-90.38922,38.8142,191],[-90.38926,38.81421,191],[-90.3893,38.81423,190],[-90.38935,38.81425,189],[-90.38938,38.81426,189],[-90.38941,38.81427,189],[-90.38945,38.81429,188],[-90.38948,38.81431,188],[-90.38952,38.81433,188],[-90.38955,38.81435,188],[-90.38958,38.81438,188],[-90.38959,38.8144,188],[-90.38959,38.81444,189],[-90.38959,38.81448,189],[-90.38958,38.81451,189],[-90.38958,38.81454,190],[-90.38958,38.81457,190],[-90.38957,38.8146,190],[-90.38957,38.81464,190],[-90.38956,38.81467,191],[-90.38956,38.81471,191],[-90.38956,38.81474,191],[-90.38957,38.81478,190],[-90.38957,38.81482,190],[-90.38958,38.81485,190],[-90.3896,38.81489,189],[-90.38962,38.81492,189],[-90.38965,38.81495,189],[-90.38968,38.81497,189],[-90.38971,38.81499,189],[-90.38975,38.81502,188],[-90.38978,38.81504,188],[-90.38982,38.81507,187],[-90.38986,38.81509,186],[-90.3899,38.81511,186],[-90.38993,38.81513,185],[-90.38996,38.81516,185],[-90.38999,38.81519,184],[-90.39003,38.81521,183],[-90.39006,38.81522,183],[-90.39009,38.81524,182],[-90.39012,38.81526,182],[-90.39015,38.81528,181],[-90.39019,38.81529,181],[-90.39023,38.81531,181],[-90.39028,38.81532,181],[-90.39032,38.81534,181],[-90.39036,38.81535,181],[-90.3904,38.81536,181],[-90.39045,38.81537,182],[-90.39049,38.81539,182],[-90.39052,38.81542,182],[-90.39056,38.81543,182],[-90.39061,38.81543,183],[-90.39064,38.81544,183],[-90.39068,38.81545,184],[-90.39072,38.81546,184],[-90.39077,38.81546,185],[-90.39081,38.81546,185],[-90.39086,38.81546,185],[-90.39091,38.81546,185],[-90.39095,38.81545,186],[-90.39098,38.81544,186],[-90.39102,38.81543,186],[-90.39106,38.81541,186],[-90.3911,38.8154,186],[-90.39114,38.81538,186],[-90.39118,38.81538,186],[-90.39122,38.81538,186],[-90.39127,38.81539,186],[-90.39131,38.81539,185],[-90.39135,38.8154,185],[-90.39138,38.8154,185],[-90.39142,38.81541,185],[-90.39146,38.81542,184],[-90.3915,38.81543,183],[-90.39154,38.81544,183],[-90.39157,38.81547,183],[-90.3916,38.8155,183],[-90.39162,38.81552,183],[-90.39165,38.81554,182],[-90.39168,38.81555,182],[-90.39171,38.81558,181],[-90.39173,38.8156,181],[-90.39177,38.81562,180],[-90.3918,38.81564,179],[-90.39184,38.81564,178],[-90.39188,38.81562,177],[-90.39192,38.81563,176],[-90.39196,38.81564,175],[-90.39197,38.81561,175],[-90.39196,38.81558,176],[-90.39197,38.81555,176],[-90.39196,38.81552,177],[-90.39195,38.81549,177],[-90.39196,38.81546,176],[-90.39197,38.81543,176],[-90.39197,38.81539,176],[-90.39196,38.81537,176],[-90.39195,38.81533,176],[-90.39193,38.81531,176],[-90.39192,38.81527,176],[-90.39192,38.81524,174],[-90.39193,38.81521,173],[-90.39194,38.81518,172],[-90.39195,38.81513,170],[-90.39195,38.8151,169],[-90.39195,38.81506,167],[-90.39195,38.81503,166],[-90.39193,38.81499,166],[-90.39192,38.81497,166],[-90.3919,38.81494,166],[-90.39188,38.81491,167],[-90.39187,38.81487,167],[-90.39188,38.81483,166],[-90.3919,38.81481,165],[-90.3919,38.81478,165],[-90.3919,38.81474,164],[-90.39189,38.81471,164],[-90.39189,38.81468,163],[-90.39189,38.81465,163],[-90.39189,38.81462,163],[-90.39189,38.81459,162],[-90.39187,38.81456,162],[-90.39183,38.81454,163],[-90.39181,38.81451,163],[-90.39181,38.81448,163],[-90.3918,38.81445,163],[-90.3918,38.81442,162],[-90.39179,38.81438,161],[-90.39178,38.81435,161],[-90.39178,38.81433,160],[-90.39178,38.8143,159],[-90.39179,38.81427,158],[-90.39179,38.81424,157],[-90.39178,38.81421,157],[-90.39176,38.81418,156],[-90.39179,38.81416,155],[-90.39183,38.81415,154],[-90.39186,38.81415,153],[-90.3919,38.81414,151],[-90.39191,38.81411,150],[-90.3919,38.81409,149],[-90.39192,38.81406,147],[-90.39196,38.81406,146],[-90.39201,38.81406,146],[-90.39205,38.81406,145],[-90.39209,38.81405,144],[-90.39212,38.81404,143],[-90.39216,38.81404,143],[-90.39214,38.81406,144],[-90.39211,38.81408,146],[-90.39207,38.8141,147],[-90.39204,38.81412,149],[-90.39201,38.81414,150],[-90.39197,38.81416,151],[-90.39195,38.81417,152],[-90.39195,38.8142,152],[-90.39194,38.81423,153],[-90.39192,38.81425,154],[-90.39189,38.81427,156],[-90.39189,38.8143,156],[-90.39189,38.81433,157],[-90.3919,38.81436,158],[-90.39191,38.81439,158],[-90.39192,38.81442,158],[-90.39193,38.81445,159],[-90.39194,38.81448,159],[-90.39195,38.81451,159],[-90.39196,38.81453,159],[-90.39197,38.81456,160],[-90.39199,38.81458,160],[-90.392,38.81461,160],[-90.39201,38.81465,160],[-90.39202,38.81467,160],[-90.39203,38.8147,161],[-90.39205,38.81473,161],[-90.39206,38.81476,161],[-90.39206,38.81478,161],[-90.39205,38.81481,161],[-90.39204,38.81484,162],[-90.39201,38.81487,163],[-90.392,38.8149,163],[-90.392,38.81492,163],[-90.39202,38.81495,163],[-90.39204,38.81498,163],[-90.39205,38.81501,163],[-90.39207,38.81504,164],[-90.39207,38.81508,165],[-90.39207,38.81511,166],[-90.39207,38.81514,167],[-90.39206,38.81517,168],[-90.39206,38.8152,170],[-90.39204,38.81523,171],[-90.39204,38.81526,172],[-90.39203,38.81529,173],[-90.39203,38.81533,173],[-90.39204,38.81536,173],[-90.39205,38.81539,173],[-90.39206,38.81542,172],[-90.39206,38.81545,172],[-90.39206,38.81548,172],[-90.39205,38.81551,173],[-90.39205,38.81554,173],[-90.39205,38.81557,173],[-90.39202,38.81559,173],[-90.392,38.81561,174],[-90.39199,38.81564,174],[-90.39198,38.81566,174],[-90.39196,38.81569,174],[-90.39192,38.8157,175],[-90.39188,38.8157,176],[-90.39184,38.81571,177],[-90.3918,38.81572,177],[-90.39177,38.81574,178],[-90.39178,38.81577,177],[-90.3918,38.8158,176],[-90.3918,38.81583,176],[-90.3918,38.81586,175],[-90.3918,38.81589,174],[-90.3918,38.81592,174],[-90.3918,38.81595,173],[-90.39179,38.81599,172],[-90.39178,38.81601,173],[-90.39177,38.81605,172],[-90.39176,38.81608,171],[-90.39175,38.81611,171],[-90.39174,38.81614,170],[-90.39174,38.81617,169],[-90.39173,38.8162,168],[-90.39171,38.81623,168],[-90.3917,38.81627,167],[-90.39169,38.81631,166],[-90.39168,38.81634,165],[-90.39166,38.81637,164],[-90.39163,38.8164,164],[-90.39161,38.81642,164],[-90.3916,38.81645,163],[-90.39157,38.81648,163],[-90.39155,38.81651,163],[-90.39153,38.81654,162],[-90.39151,38.81657,162],[-90.39148,38.81661,161],[-90.39146,38.81663,161],[-90.39143,38.81665,161],[-90.3914,38.81667,161],[-90.39137,38.81669,161],[-90.39135,38.81671,161],[-90.39132,38.81673,160],[-90.3913,38.81676,160],[-90.39128,38.81678,160],[-90.39125,38.8168,159],[-90.39122,38.81682,159],[-90.3912,38.81685,159],[-90.39117,38.81687,159],[-90.39113,38.81685,160],[-90.39109,38.81683,161],[-90.39106,38.8168,162],[-90.39104,38.81677,163],[-90.39101,38.81675,164],[-90.39099,38.81673,164],[-90.39095,38.81672,165],[-90.39091,38.81672,165],[-90.39089,38.81675,165],[-90.39088,38.81678,164],[-90.39086,38.81681,164],[-90.39084,38.81684,163],[-90.39081,38.81686,163],[-90.39077,38.81686,164],[-90.39073,38.81687,164],[-90.39069,38.81688,164],[-90.39066,38.8169,164],[-90.39062,38.81692,164],[-90.39059,38.81693,164],[-90.39056,38.81695,164],[-90.39053,38.81697,164],[-90.39054,38.817,163],[-90.39057,38.81703,161],[-90.3906,38.81704,161],[-90.39062,38.81707,160],[-90.3906,38.8171,159],[-90.39058,38.81712,158],[-90.39055,38.81715,158],[-90.39054,38.81718,157],[-90.39053,38.8172,156],[-90.39056,38.81722,156],[-90.39056,38.81725,155],[-90.39055,38.81728,153],[-90.39059,38.81728,153],[-90.39062,38.8173,152],[-90.39065,38.81731,151],[-90.39065,38.81734,150],[-90.39065,38.81737,149],[-90.39066,38.8174,147],[-90.39068,38.81743,146],[-90.39063,38.81742,147],[-90.39059,38.81741,148],[-90.39056,38.81739,149],[-90.39053,38.81736,151],[-90.3905,38.81735,151],[-90.39049,38.81732,152],[-90.39049,38.81728,154],[-90.39046,38.81727,154],[-90.39046,38.81724,155],[-90.39045,38.81721,156],[-90.39044,38.81718,157],[-90.39044,38.81715,158],[-90.39044,38.81712,159],[-90.39044,38.81709,160],[-90.39046,38.81706,161],[-90.39048,38.81704,162],[-90.39049,38.81701,163],[-90.39047,38.81698,164],[-90.39046,38.81695,165],[-90.39044,38.81692,166],[-90.39043,38.81689,166],[-90.39044,38.81687,166],[-90.39048,38.81686,166],[-90.39051,38.81684,166],[-90.39054,38.81682,166],[-90.39056,38.8168,166],[-90.3906,38.81679,166],[-90.39063,38.81678,166],[-90.39067,38.81677,166],[-90.39072,38.81676,166],[-90.39077,38.81676,165],[-90.39081,38.81677,165],[-90.39083,38.81674,165],[-90.39085,38.81672,165],[-90.39087,38.81669,166],[-90.39088,38.81666,166],[-90.3909,38.81664,167],[-90.39094,38.81664,167],[-90.39098,38.81665,166],[-90.39102,38.81666,166],[-90.39106,38.81667,166],[-90.3911,38.81668,165],[-90.39114,38.81669,164],[-90.39117,38.81671,163],[-90.39119,38.81674,162],[-90.39123,38.81676,161],[-90.39119,38.81674,162],[-90.39121,38.81672,162],[-90.39123,38.8167,163],[-90.39125,38.81667,163],[-90.39127,38.81664,164],[-90.39128,38.81661,165],[-90.3913,38.81659,165],[-90.39133,38.81657,165],[-90.39137,38.81655,165],[-90.3914,38.81654,165],[-90.39142,38.81651,166],[-90.39144,38.81649,166],[-90.39147,38.81646,166],[-90.39149,38.81643,167],[-90.3915,38.8164,167],[-90.39151,38.81637,168],[-90.39153,38.81634,168],[-90.39156,38.81632,168],[-90.39158,38.81631,168],[-90.3916,38.81628,169],[-90.39161,38.81625,169],[-90.39162,38.81622,170],[-90.39164,38.81619,171],[-90.39165,38.81616,172],[-90.39165,38.81613,173],[-90.39166,38.8161,174],[-90.39167,38.81607,174],[-90.39168,38.81603,175],[-90.39168,38.816,176],[-90.39169,38.81597,176],[-90.39169,38.81594,176],[-90.3917,38.81591,177],[-90.39171,38.81588,177],[-90.39171,38.81585,178],[-90.39171,38.81582,178],[-90.39171,38.81579,179],[-90.3917,38.81576,179],[-90.3917,38.81573,180],[-90.39169,38.8157,180],[-90.39169,38.81567,181],[-90.39171,38.81565,181],[-90.39176,38.81564,180],[-90.39182,38.81564,178],[-90.39185,38.81564,178],[-90.3919,38.81565,176],[-90.39193,38.81565,176],[-90.39194,38.81562,176],[-90.39193,38.81559,177],[-90.39193,38.81556,178],[-90.39194,38.81553,177],[-90.39194,38.8155,177],[-90.39195,38.81547,177],[-90.39195,38.81543,176],[-90.39194,38.8154,176],[-90.39193,38.81537,176],[-90.39192,38.81534,176],[-90.39191,38.81531,176],[-90.39189,38.81528,176],[-90.39189,38.81525,175],[-90.3919,38.81521,174],[-90.39191,38.81519,173],[-90.39192,38.81516,172],[-90.39194,38.81512,170],[-90.39194,38.81509,169],[-90.39194,38.81505,167],[-90.39194,38.81502,167],[-90.39192,38.81499,166],[-90.39191,38.81497,166],[-90.39188,38.81495,167],[-90.39186,38.81492,167],[-90.39185,38.8149,167],[-90.39185,38.81487,167],[-90.39187,38.81484,166],[-90.39189,38.8148,165],[-90.3919,38.81478,165],[-90.39187,38.81475,165],[-90.39186,38.81472,165],[-90.39186,38.81469,164],[-90.39186,38.81466,164],[-90.39187,38.81463,163],[-90.39186,38.81461,163],[-90.39184,38.81458,164],[-90.39182,38.81455,164],[-90.3918,38.81453,164],[-90.39179,38.8145,164],[-90.39178,38.81447,164],[-90.39178,38.81443,163],[-90.39177,38.8144,162],[-90.39177,38.81437,161],[-90.39177,38.81434,161],[-90.39175,38.81431,160],[-90.39175,38.81428,160],[-90.39177,38.81426,158],[-90.39177,38.81423,158],[-90.39175,38.8142,157],[-90.39178,38.81418,156],[-90.39182,38.81417,155],[-90.39186,38.81416,153],[-90.39189,38.81415,152],[-90.39189,38.81412,151],[-90.3919,38.81409,149],[-90.39193,38.81408,148],[-90.39197,38.81407,147],[-90.39202,38.81407,146],[-90.39206,38.81406,145],[-90.3921,38.81405,144],[-90.39214,38.81405,144],[-90.39211,38.81406,145],[-90.39208,38.81409,147],[-90.39205,38.81412,149],[-90.39201,38.81414,150],[-90.39197,38.81415,151],[-90.39194,38.81417,152],[-90.39195,38.8142,152],[-90.39194,38.81422,153],[-90.39192,38.81425,154],[-90.3919,38.81428,156],[-90.39188,38.8143,157],[-90.39187,38.81433,158],[-90.39187,38.81436,159],[-90.39188,38.81439,159],[-90.39189,38.81442,159],[-90.3919,38.81445,160],[-90.39191,38.81448,160],[-90.39192,38.81451,160],[-90.39194,38.81454,160],[-90.39196,38.81457,160],[-90.39198,38.8146,160],[-90.39198,38.81463,161],[-90.39198,38.81466,161],[-90.392,38.8147,161],[-90.39202,38.81473,161],[-90.39203,38.81476,161],[-90.39203,38.81478,161],[-90.39203,38.81481,162],[-90.39201,38.81484,162],[-90.39199,38.81487,163],[-90.39198,38.81489,163],[-90.392,38.81492,163],[-90.39202,38.81495,163],[-90.39204,38.81498,163],[-90.39205,38.81501,163],[-90.39208,38.81504,163],[-90.39208,38.81508,165],[-90.39207,38.81511,166],[-90.39206,38.81514,167],[-90.39206,38.81517,168],[-90.39205,38.8152,170],[-90.39203,38.81523,171],[-90.39202,38.81525,172],[-90.39202,38.81529,173],[-90.39203,38.81532,173],[-90.39204,38.81535,173],[-90.39204,38.81538,173],[-90.39205,38.81541,173],[-90.39206,38.81544,172],[-90.39205,38.81548,173],[-90.39203,38.8155,174],[-90.39203,38.81553,174],[-90.39203,38.81556,174],[-90.39199,38.81558,175],[-90.39199,38.81561,174],[-90.39198,38.81565,174],[-90.39196,38.81567,174],[-90.39192,38.81568,175],[-90.39189,38.81569,176],[-90.39184,38.8157,177],[-90.39179,38.81571,178],[-90.39175,38.81571,179],[-90.39171,38.81571,180],[-90.39168,38.81569,181],[-90.39165,38.81567,181],[-90.39162,38.81565,182],[-90.3916,38.81563,182],[-90.39156,38.8156,183],[-90.39153,38.81558,183],[-90.3915,38.81556,184],[-90.39146,38.81553,184],[-90.39144,38.81551,184],[-90.39139,38.81549,185],[-90.39135,38.81548,185],[-90.39131,38.81548,185],[-90.39126,38.81547,185],[-90.39121,38.81547,185],[-90.39116,38.81547,186],[-90.39111,38.81548,186],[-90.39107,38.81549,186],[-90.39103,38.8155,185],[-90.39099,38.81551,185],[-90.39095,38.81553,185],[-90.39091,38.81554,185],[-90.39087,38.81555,185],[-90.39082,38.81555,184],[-90.39078,38.81555,184],[-90.39074,38.81555,184],[-90.3907,38.81554,183],[-90.39066,38.81554,183],[-90.39062,38.81553,182],[-90.39057,38.81553,182],[-90.39053,38.81553,181],[-90.39049,38.81552,181],[-90.39045,38.8155,181],[-90.39042,38.81548,180],[-90.39038,38.81546,180],[-90.39034,38.81545,180],[-90.3903,38.81544,179],[-90.39026,38.81542,179],[-90.39022,38.81541,179],[-90.39019,38.8154,180],[-90.39015,38.81539,180],[-90.39011,38.81538,180],[-90.39007,38.81536,180],[-90.39004,38.81534,180],[-90.39,38.81532,181],[-90.38998,38.8153,181],[-90.38995,38.81528,182],[-90.38991,38.81526,182],[-90.38988,38.81524,183],[-90.38986,38.81521,184],[-90.38982,38.81519,184],[-90.38978,38.81517,185],[-90.38975,38.81514,185],[-90.38972,38.81512,186],[-90.38969,38.8151,186],[-90.38966,38.81508,187],[-90.38963,38.81506,187],[-90.38961,38.81504,187],[-90.38958,38.81501,188],[-90.38956,38.81498,188],[-90.38954,38.81495,188],[-90.38953,38.81492,189],[-90.38952,38.8149,189],[-90.3895,38.81487,189],[-90.38948,38.81484,189],[-90.38946,38.81481,190],[-90.38945,38.81478,190],[-90.38944,38.81474,190],[-90.38943,38.8147,190],[-90.38944,38.81467,190],[-90.38944,38.81463,190],[-90.38944,38.8146,190],[-90.38945,38.81457,190],[-90.38945,38.81454,190],[-90.38946,38.81451,190],[-90.38946,38.81447,190],[-90.38945,38.81445,189],[-90.38945,38.81441,189],[-90.38943,38.81439,189],[-90.38941,38.81436,189],[-90.38938,38.81435,190],[-90.38934,38.81433,190],[-90.38931,38.81432,190],[-90.38927,38.8143,191],[-90.38923,38.81429,191],[-90.3892,38.81428,192],[-90.38916,38.81426,192],[-90.38913,38.81424,192],[-90.38909,38.81423,192],[-90.38905,38.81423,192],[-90.38901,38.81423,192],[-90.38897,38.81422,192],[-90.38893,38.81422,192],[-90.38889,38.81421,192],[-90.38885,38.8142,193],[-90.38881,38.81419,194],[-90.38877,38.81418,194],[-90.38873,38.81417,195],[-90.3887,38.81416,195],[-90.38866,38.81415,196],[-90.38862,38.81414,196],[-90.38858,38.81412,196],[-90.38855,38.81411,197],[-90.3885,38.8141,197],[-90.38847,38.81408,197],[-90.38843,38.81406,197],[-90.3884,38.81405,198],[-90.38836,38.81403,198],[-90.38833,38.81401,198],[-90.3883,38.81398,198],[-90.38826,38.81397,198],[-90.38821,38.81397,198],[-90.38817,38.81396,198],[-90.38813,38.81396,198],[-90.38809,38.81396,199],[-90.38805,38.81397,199],[-90.38801,38.81397,199],[-90.38797,38.81398,199],[-90.38794,38.81398,199],[-90.38789,38.81399,199],[-90.38785,38.814,199],[-90.3878,38.814,199],[-90.38776,38.81401,200],[-90.38772,38.81401,200],[-90.38767,38.81401,200],[-90.38764,38.81399,200],[-90.38762,38.81395,200],[-90.38759,38.81393,200],[-90.38756,38.8139,200],[-90.38752,38.81388,199],[-90.38749,38.81384,199],[-90.38748,38.81382,198],[-90.38748,38.81378,198],[-90.38749,38.81374,197],[-90.38749,38.81371,197],[-90.3875,38.81368,196],[-90.3875,38.81365,196],[-90.38751,38.81362,196],[-90.38752,38.81359,195],[-90.38753,38.81357,195],[-90.38753,38.81353,195],[-90.38754,38.8135,195],[-90.38756,38.81347,195],[-90.38757,38.81344,195],[-90.38757,38.81341,195],[-90.38756,38.81337,194],[-90.38756,38.81334,194],[-90.38756,38.81331,194],[-90.38759,38.81329,194],[-90.38762,38.81328,194],[-90.38766,38.81328,194],[-90.3877,38.81328,194],[-90.38775,38.81328,195],[-90.38778,38.81327,195],[-90.38782,38.81327,195],[-90.38786,38.81326,195],[-90.38789,38.81324,194],[-90.3879,38.81321,194],[-90.38791,38.81318,193],[-90.38794,38.81316,193],[-90.38795,38.81313,192],[-90.38796,38.8131,192],[-90.38798,38.81307,191],[-90.38799,38.81304,191],[-90.388,38.813,190],[-90.388,38.81297,190],[-90.38799,38.81293,190],[-90.38799,38.81291,189],[-90.388,38.81288,189],[-90.38801,38.81284,188],[-90.38801,38.81281,188],[-90.38802,38.81278,188],[-90.38806,38.81276,187],[-90.38809,38.81275,186],[-90.38814,38.81274,184],[-90.38817,38.81272,183],[-90.38821,38.81271,182],[-90.38824,38.8127,181],[-90.38828,38.81271,180],[-90.38832,38.81271,179],[-90.38836,38.81269,177],[-90.38839,38.81267,176],[-90.38843,38.81267,175],[-90.38845,38.81265,174],[-90.38847,38.81263,173],[-90.3885,38.81262,172],[-90.38853,38.8126,171],[-90.38855,38.81258,170],[-90.38854,38.81255,170],[-90.38854,38.81252,170],[-90.38855,38.81249,170],[-90.38857,38.81247,169],[-90.38858,38.81244,168],[-90.38857,38.8124,167],[-90.38854,38.81238,168],[-90.38854,38.81234,167],[-90.38855,38.81231,166],[-90.38857,38.81228,165],[-90.3886,38.81226,164],[-90.38865,38.81226,164],[-90.38869,38.81226,164],[-90.38873,38.81225,163],[-90.38874,38.81222,163],[-90.38875,38.81219,162],[-90.38877,38.81216,162],[-90.38877,38.81213,161],[-90.38875,38.8121,161],[-90.38874,38.81207,161],[-90.38871,38.81204,161],[-90.38868,38.81203,161],[-90.38864,38.81202,162],[-90.38862,38.81199,162],[-90.3886,38.81196,162],[-90.38858,38.81194,162],[-90.38855,38.81193,163],[-90.38853,38.8119,163],[-90.38853,38.81186,164],[-90.38854,38.81183,164],[-90.38856,38.81179,164],[-90.38857,38.81176,164],[-90.3886,38.81173,164],[-90.38862,38.8117,164],[-90.38865,38.81167,164],[-90.38868,38.81164,163],[-90.3887,38.81162,163],[-90.38873,38.8116,162],[-90.38875,38.81157,162],[-90.38876,38.81154,161],[-90.38877,38.81151,161],[-90.38881,38.81151,160],[-90.38885,38.81152,159],[-90.38889,38.81151,158],[-90.38893,38.8115,157],[-90.38896,38.81149,156],[-90.38899,38.81148,156],[-90.38903,38.81147,155],[-90.38906,38.81146,154],[-90.3891,38.81144,153],[-90.38913,38.81142,152],[-90.38916,38.8114,152],[-90.38918,38.81137,152],[-90.38921,38.81134,152],[-90.38927,38.81133,152],[-90.38931,38.81134,152],[-90.38935,38.81135,152],[-90.38939,38.81134,152],[-90.3894,38.81131,152],[-90.38941,38.81128,152],[-90.38943,38.81124,152],[-90.38945,38.81122,151],[-90.38947,38.81119,151],[-90.38948,38.81116,151],[-90.3895,38.81113,151],[-90.38954,38.81112,151],[-90.38957,38.81112,151],[-90.38961,38.81113,151],[-90.38966,38.81114,151],[-90.3897,38.81115,150],[-90.38974,38.81116,150],[-90.38978,38.81116,149],[-90.38983,38.81114,149],[-90.38986,38.81112,148],[-90.3899,38.81111,148],[-90.38995,38.81111,147],[-90.39,38.81112,146],[-90.39004,38.81112,146],[-90.39008,38.81113,145],[-90.39013,38.81113,145],[-90.39017,38.81114,144],[-90.39021,38.81115,143],[-90.39025,38.81115,143],[-90.39029,38.81114,142],[-90.39034,38.81114,142],[-90.39039,38.81116,142],[-90.39043,38.81117,142],[-90.39047,38.8112,142],[-90.3905,38.81121,142],[-90.39054,38.81123,142],[-90.39057,38.81124,142],[-90.39061,38.81124,142],[-90.39065,38.81123,142],[-90.39067,38.81121,142],[-90.3907,38.81118,141],[-90.39074,38.81117,141],[-90.39077,38.81117,141],[-90.39081,38.81115,141],[-90.39082,38.81112,141],[-90.39083,38.81109,140],[-90.39082,38.81106,140],[-90.39081,38.81102,140],[-90.39081,38.81099,139],[-90.3908,38.81096,139],[-90.39079,38.81093,139],[-90.39079,38.8109,138],[-90.39079,38.81087,138],[-90.39078,38.81083,138],[-90.3908,38.81079,138]]],
        "bbox": [
          -90.38748,
          38.81743,
          -90.39216,
          38.81079
        ]
      },
      "properties": {
        "name": "2.12.2024"
      }
    }
  ]
}