{
  "type": "FeatureCollection",
  "features": [
    {
      "type": "Feature",
      "geometry": {
        "type": "MultiLineString",
        "coordinates": [[[-90.3951,38.8116,132],[-90.3951,38.81163,132],[-90.39508,38.81165,132],[-90.39505,38.81167,133],[-90.39502,38.8117,133],[-90.39498,38.81172,133],[-90.39493,38.81173,133],[-90.39489,38.81174,134],[-90.39486,38.81177,134],[-90.39483,38.8118,134],[-90.3948,38.81183,135],[-90.39476,38.81186,135],[-90.39473,38.81188,136],[-90.39471,38.8119,136],[-90.39468,38.81193,137],[-90.39465,38.81196,137],[-90.39462,38.81198,137],[-90.39459,38.81201,137],[-90.39455,38.81203,137],[-90.39452,38.81205,137],[-90.3945,38.81208,137],[-90.39448,38.8121,137],[-90.39445,38.81213,137],[-90.39442,38.81215,138],[-90.39439,38.81217,138],[-90.39434,38.81219,138],[-90.39432,38.81222,138],[-90.3943,38.81224,137],[-90.39429,38.81227,137],[-90.39427,38.8123,137],[-90.39425,38.81232,137],[-90.39421,38.81234,137],[-90.39418,38.81236,137],[-90.39415,38.81238,137],[-90.39412,38.81239,137],[-90.39408,38.81241,137],[-90.39405,38.81243,137],[-90.39402,38.81245,137],[-90.39401,38.81247,137],[-90.39399,38.8125,137],[-90.39397,38.81253,136],[-90.39393,38.81255,136],[-90.3939,38.81256,136],[-90.39387,38.81258,136],[-90.39382,38.8126,135],[-90.39379,38.81262,135],[-90.39376,38.81264,135],[-90.39373,38.81266,135],[-90.3937,38.81269,134],[-90.39367,38.81271,134],[-90.39365,38.81273,134],[-90.39362,38.81275,134],[-90.39359,38.81278,134],[-90.39355,38.8128,134],[-90.39352,38.81282,134],[-90.3935,38.81283,134],[-90.39345,38.81285,134],[-90.3934,38.81287,134],[-90.39336,38.81287,134],[-90.39332,38.81286,134],[-90.39329,38.81284,134],[-90.39325,38.81282,134],[-90.39321,38.8128,134],[-90.39318,38.81278,134],[-90.39316,38.81276,134],[-90.39314,38.81273,134],[-90.3931,38.81271,134],[-90.39306,38.81269,134],[-90.39302,38.81267,134],[-90.39299,38.81266,134],[-90.39294,38.81263,134],[-90.39291,38.81261,134],[-90.39287,38.8126,134],[-90.39285,38.81258,134],[-90.39281,38.81256,134],[-90.39278,38.81253,134],[-90.39275,38.81251,134],[-90.39271,38.81249,134],[-90.39268,38.81248,134],[-90.39265,38.81246,134],[-90.39261,38.81243,134],[-90.39258,38.81241,135],[-90.39256,38.81239,135],[-90.39252,38.81236,135],[-90.39249,38.81234,135],[-90.39246,38.81232,135],[-90.39243,38.81229,135],[-90.3924,38.81228,135],[-90.39236,38.81225,135],[-90.39233,38.81222,135],[-90.39229,38.8122,135],[-90.39226,38.81218,135],[-90.39221,38.81217,136],[-90.39217,38.81216,136],[-90.39214,38.81215,136],[-90.3921,38.81213,136],[-90.39207,38.81212,136],[-90.39202,38.81212,137],[-90.39198,38.81212,137],[-90.39195,38.81212,137],[-90.39191,38.81214,137],[-90.39189,38.81216,137],[-90.39188,38.81219,137],[-90.39185,38.81222,137],[-90.39183,38.81225,137],[-90.39181,38.81227,137],[-90.39179,38.81231,136],[-90.39177,38.81234,136],[-90.39175,38.81237,136],[-90.39172,38.81239,136],[-90.3917,38.81241,135],[-90.39167,38.81243,135],[-90.39164,38.81245,135],[-90.39161,38.81248,135],[-90.39158,38.8125,135],[-90.39156,38.81254,136],[-90.39155,38.81258,136],[-90.39155,38.81263,137],[-90.39154,38.81265,138],[-90.39152,38.81269,139],[-90.39153,38.81272,139],[-90.39154,38.81275,140],[-90.39158,38.81278,140],[-90.39161,38.81279,140],[-90.39166,38.81279,139],[-90.39169,38.81279,138],[-90.39172,38.8128,138],[-90.39176,38.81282,138],[-90.39179,38.81285,138],[-90.39183,38.81288,138],[-90.39187,38.8129,137],[-90.39189,38.81292,137],[-90.39193,38.81294,137],[-90.39195,38.81296,137],[-90.39198,38.81298,137],[-90.39202,38.813,137],[-90.39206,38.81303,137],[-90.39208,38.81305,137],[-90.39211,38.81307,137],[-90.39214,38.81309,137],[-90.39217,38.81311,137],[-90.3922,38.81313,137],[-90.39224,38.81314,137],[-90.39227,38.81316,137],[-90.3923,38.81318,137],[-90.39234,38.8132,137],[-90.39237,38.81323,137],[-90.39241,38.81325,137],[-90.39244,38.81327,137],[-90.39248,38.81328,136],[-90.39251,38.8133,136],[-90.39254,38.81332,136],[-90.39258,38.81334,136],[-90.39262,38.81335,136],[-90.39266,38.81337,136],[-90.3927,38.81339,136],[-90.39272,38.81342,136],[-90.3927,38.81345,136],[-90.39267,38.81347,137],[-90.39265,38.81349,137],[-90.39262,38.81352,137],[-90.39259,38.81356,138],[-90.39258,38.81358,138],[-90.39258,38.81362,138],[-90.39257,38.81364,138],[-90.39255,38.81368,138],[-90.39254,38.81371,138],[-90.39252,38.81374,138],[-90.39251,38.81377,138],[-90.39248,38.8138,138],[-90.39246,38.81383,137],[-90.39244,38.81386,137],[-90.39243,38.81389,136],[-90.39241,38.81392,137],[-90.39238,38.81394,138],[-90.39236,38.81397,139],[-90.39235,38.81399,140],[-90.39233,38.81402,142],[-90.3923,38.81404,143],[-90.39227,38.81407,145],[-90.39223,38.81409,146],[-90.39219,38.81408,145],[-90.39216,38.81404,143],[-90.39214,38.81401,141],[-90.39212,38.81398,140],[-90.3921,38.81395,138],[-90.39206,38.81392,137],[-90.39203,38.81391,137],[-90.39199,38.81388,137],[-90.39196,38.81385,138],[-90.39194,38.81383,138],[-90.3919,38.81381,140],[-90.39187,38.81379,141],[-90.39184,38.81377,141],[-90.39181,38.81375,142],[-90.39178,38.81373,142],[-90.39175,38.81371,143],[-90.39172,38.81369,143],[-90.39168,38.81366,143],[-90.39167,38.81363,143],[-90.39164,38.81359,143],[-90.39162,38.81357,144],[-90.39161,38.81354,145],[-90.3916,38.8135,145],[-90.3916,38.81347,146],[-90.39159,38.81344,146],[-90.39158,38.81341,147],[-90.39157,38.81337,147],[-90.39155,38.81334,148],[-90.39152,38.81331,148],[-90.39148,38.81329,149],[-90.39145,38.81328,149],[-90.39141,38.81328,150],[-90.39137,38.81327,151],[-90.39134,38.81325,151],[-90.39131,38.81323,151],[-90.39128,38.8132,152],[-90.39125,38.81317,152],[-90.39122,38.81315,152],[-90.3912,38.81312,152],[-90.39118,38.81309,153],[-90.39117,38.81306,153],[-90.39116,38.81303,152],[-90.39115,38.81301,152],[-90.39114,38.81297,151],[-90.39112,38.81293,150],[-90.39109,38.8129,150],[-90.39107,38.81286,149],[-90.39105,38.81283,149],[-90.39102,38.81281,149],[-90.391,38.81278,148],[-90.39102,38.81274,147],[-90.39103,38.81271,146],[-90.39103,38.81268,145],[-90.39102,38.81265,145],[-90.39102,38.81262,144],[-90.39103,38.81259,143],[-90.39103,38.81255,143],[-90.39103,38.81252,142],[-90.39102,38.81248,142],[-90.391,38.81245,143],[-90.39098,38.81241,144],[-90.39096,38.81237,145],[-90.39094,38.81234,146],[-90.39092,38.81231,147],[-90.3909,38.81228,148],[-90.39089,38.81225,149],[-90.39089,38.81222,149],[-90.39088,38.81218,149],[-90.39088,38.81215,149],[-90.39087,38.81211,149],[-90.39087,38.81209,149],[-90.39088,38.81205,149],[-90.39089,38.81202,149],[-90.39091,38.81199,149],[-90.39092,38.81196,149],[-90.39092,38.81193,149],[-90.39092,38.8119,149],[-90.39092,38.81187,149],[-90.39092,38.81183,148],[-90.39091,38.81181,148],[-90.3909,38.81178,147],[-90.39089,38.81175,147],[-90.3909,38.81172,147],[-90.39092,38.81169,146],[-90.39096,38.81166,145],[-90.39099,38.81163,145],[-90.39103,38.81161,144],[-90.39106,38.81159,144],[-90.39109,38.81157,143],[-90.3911,38.81153,143],[-90.3911,38.8115,142],[-90.39109,38.81147,142],[-90.39107,38.81144,142],[-90.39104,38.81141,141],[-90.39102,38.81139,141],[-90.39099,38.81137,141],[-90.39096,38.81134,141],[-90.39092,38.81132,141],[-90.39089,38.8113,141],[-90.39087,38.81126,141],[-90.39085,38.81123,141],[-90.39083,38.8112,141],[-90.3908,38.81118,141],[-90.3908,38.81114,141],[-90.39081,38.8111,140],[-90.39079,38.81106,140],[-90.3908,38.8111,141],[-90.3908,38.81113,141],[-90.39082,38.8111,140],[-90.39082,38.81107,140],[-90.39082,38.81104,140],[-90.39082,38.811,139],[-90.39082,38.81097,139],[-90.39081,38.81094,139],[-90.3908,38.81091,139],[-90.39077,38.81088,138],[-90.39074,38.81086,138],[-90.39071,38.81085,139],[-90.39066,38.81083,139],[-90.39062,38.81081,139],[-90.39058,38.8108,139],[-90.39054,38.81079,139],[-90.39049,38.81077,140],[-90.39045,38.81076,140],[-90.3904,38.81074,140],[-90.39034,38.81074,140],[-90.3903,38.81074,140],[-90.39025,38.81074,141],[-90.39021,38.81074,141],[-90.39015,38.81074,141],[-90.39012,38.81074,141],[-90.39007,38.81074,142],[-90.39002,38.81074,142],[-90.38996,38.81074,143],[-90.38992,38.81074,143],[-90.38987,38.81073,143],[-90.38983,38.81072,143],[-90.38979,38.81072,144],[-90.38974,38.81072,144],[-90.3897,38.81072,145],[-90.38966,38.81071,145],[-90.38962,38.81071,145],[-90.38957,38.8107,145],[-90.38953,38.81067,145],[-90.38949,38.81065,144],[-90.38944,38.81064,144],[-90.38941,38.81063,144],[-90.38937,38.81061,144],[-90.38933,38.81058,144],[-90.3893,38.81056,144],[-90.38929,38.81052,143],[-90.38928,38.81049,143],[-90.38927,38.81046,143],[-90.38925,38.81044,143],[-90.38923,38.8104,143],[-90.38922,38.81036,143],[-90.38922,38.81033,143],[-90.38922,38.8103,142],[-90.38921,38.81027,142],[-90.3892,38.81023,143],[-90.3892,38.8102,143],[-90.38919,38.81017,143],[-90.38917,38.81014,143],[-90.38915,38.8101,143],[-90.38914,38.81008,144],[-90.38912,38.81004,144],[-90.38911,38.81002,145],[-90.38911,38.80999,145],[-90.3891,38.80995,145],[-90.38909,38.80991,145],[-90.38908,38.80988,145],[-90.38908,38.80985,145],[-90.38907,38.80982,145],[-90.38905,38.80978,145],[-90.38904,38.80976,145],[-90.38902,38.80973,145],[-90.389,38.80971,145],[-90.38898,38.80969,145],[-90.38896,38.80966,145],[-90.38894,38.80964,145],[-90.38892,38.80961,145],[-90.3889,38.80959,145],[-90.38888,38.80957,145],[-90.38886,38.80955,145],[-90.38885,38.80952,145],[-90.38883,38.80949,145],[-90.38881,38.80946,145],[-90.38878,38.80943,144],[-90.38878,38.8094,144],[-90.38876,38.80937,144],[-90.38874,38.80933,143],[-90.38873,38.80931,143],[-90.38872,38.80928,143],[-90.38871,38.80925,142],[-90.38868,38.80922,142],[-90.38867,38.80919,142],[-90.38866,38.80916,141],[-90.38865,38.80914,141],[-90.38864,38.80911,141],[-90.38863,38.80908,141],[-90.38862,38.80905,141],[-90.38862,38.80903,141],[-90.38861,38.809,141],[-90.38861,38.80896,141],[-90.3886,38.80893,141],[-90.38859,38.8089,141],[-90.38858,38.80888,141],[-90.38857,38.80884,141],[-90.38857,38.80881,141],[-90.38856,38.80878,142],[-90.38856,38.80875,142],[-90.38855,38.80873,142],[-90.38854,38.8087,142],[-90.38853,38.80867,142],[-90.38852,38.80864,142],[-90.38852,38.80861,142],[-90.38851,38.80859,143],[-90.3885,38.80856,143],[-90.38849,38.80853,143],[-90.38849,38.8085,143],[-90.38848,38.80848,143],[-90.38848,38.80845,143],[-90.38847,38.80842,143],[-90.38847,38.80839,143],[-90.38846,38.80836,143],[-90.38846,38.80834,143],[-90.38846,38.80831,143],[-90.38846,38.80828,142],[-90.38846,38.80824,142],[-90.38845,38.80821,142],[-90.38845,38.80818,142],[-90.38845,38.80815,142],[-90.38844,38.80813,142],[-90.38843,38.80809,141],[-90.38843,38.80806,141],[-90.38842,38.80803,141],[-90.38841,38.808,142],[-90.38841,38.80796,142],[-90.38841,38.80792,142],[-90.3884,38.80789,142],[-90.3884,38.80786,142],[-90.38838,38.80782,143],[-90.38836,38.8078,143],[-90.38835,38.80776,143],[-90.38834,38.80773,143],[-90.38833,38.80769,143],[-90.38832,38.80765,143],[-90.38831,38.80763,143],[-90.3883,38.80759,143],[-90.38829,38.80755,143],[-90.38828,38.80753,143],[-90.38827,38.80749,143],[-90.38826,38.80746,143],[-90.38826,38.80742,143],[-90.38825,38.80738,143],[-90.38824,38.80734,143],[-90.38823,38.8073,143],[-90.38822,38.80727,143],[-90.38822,38.80723,143],[-90.38821,38.8072,143],[-90.3882,38.80716,142],[-90.3882,38.80712,142],[-90.38818,38.80708,141],[-90.38817,38.80704,141],[-90.38817,38.807,141],[-90.38816,38.80698,141],[-90.38815,38.80695,140],[-90.38815,38.80692,140],[-90.38814,38.80688,140],[-90.38813,38.80684,140],[-90.38812,38.80681,140],[-90.38811,38.80677,140],[-90.38811,38.80674,140],[-90.38811,38.80671,140],[-90.3881,38.80667,139],[-90.3881,38.80664,140],[-90.38808,38.8066,140],[-90.38808,38.80657,140],[-90.38808,38.80654,141],[-90.38807,38.80652,141],[-90.38807,38.80649,141],[-90.38806,38.80646,141],[-90.38805,38.80643,142],[-90.38804,38.8064,142],[-90.38802,38.80636,142],[-90.38801,38.80632,143],[-90.38801,38.8063,143],[-90.38801,38.80627,143],[-90.38801,38.80622,143],[-90.388,38.80619,143],[-90.388,38.80617,143],[-90.38799,38.80613,143],[-90.38798,38.8061,144],[-90.38797,38.80606,144],[-90.38796,38.80602,144],[-90.38796,38.80599,144],[-90.38796,38.80596,144],[-90.38795,38.80592,144],[-90.38795,38.80589,144],[-90.38795,38.80586,144],[-90.38795,38.80583,144],[-90.38794,38.8058,144],[-90.38793,38.80577,144],[-90.38792,38.80574,143],[-90.38791,38.80571,143],[-90.3879,38.80568,143],[-90.38789,38.80565,142],[-90.38789,38.80562,142],[-90.38788,38.80559,142],[-90.38788,38.80556,141],[-90.38787,38.80553,141],[-90.38787,38.8055,141],[-90.38786,38.80547,142],[-90.38786,38.80544,142],[-90.38785,38.80541,142],[-90.38785,38.80538,142],[-90.38784,38.80534,143],[-90.38783,38.80531,143],[-90.38781,38.80528,143],[-90.3878,38.80524,143],[-90.3878,38.80521,144],[-90.3878,38.80518,144],[-90.3878,38.80515,144],[-90.38779,38.80512,144],[-90.38779,38.80508,144],[-90.38778,38.80505,144],[-90.38778,38.80503,144],[-90.38778,38.80499,144],[-90.38778,38.80496,144],[-90.38778,38.80493,144],[-90.38777,38.80489,144],[-90.38776,38.80486,144],[-90.38776,38.80484,144],[-90.38776,38.80481,143],[-90.38776,38.80477,143],[-90.38775,38.80474,143],[-90.38774,38.80471,143],[-90.38773,38.80468,143],[-90.38772,38.80464,143],[-90.38772,38.80461,143],[-90.38771,38.80457,143],[-90.3877,38.80454,143],[-90.3877,38.80451,143],[-90.38767,38.80448,143],[-90.38766,38.80446,143],[-90.38763,38.80444,144],[-90.3876,38.80442,144],[-90.38755,38.80442,145],[-90.38752,38.80441,145],[-90.38748,38.8044,146],[-90.38744,38.80439,147],[-90.38741,38.80438,147],[-90.38736,38.80437,148],[-90.38733,38.80436,149],[-90.38729,38.80435,149],[-90.38726,38.80433,150],[-90.38723,38.80432,150],[-90.38719,38.80429,151],[-90.38718,38.80426,151],[-90.38717,38.80422,152],[-90.38714,38.80418,152],[-90.38713,38.80415,152],[-90.38712,38.80411,153],[-90.3871,38.80409,153],[-90.38708,38.80406,153],[-90.38707,38.80402,153],[-90.38707,38.80399,153],[-90.38707,38.80396,153],[-90.38707,38.80393,153],[-90.38709,38.80391,153],[-90.38711,38.80388,153],[-90.38712,38.80385,154],[-90.38714,38.80382,154],[-90.38713,38.80379,155],[-90.3871,38.80377,155],[-90.38708,38.80374,156],[-90.38706,38.80371,157],[-90.38704,38.80368,157],[-90.38703,38.80365,158],[-90.38704,38.80361,158],[-90.38706,38.80357,159],[-90.38707,38.80355,159],[-90.38707,38.80351,159],[-90.38706,38.80348,159],[-90.38706,38.80346,159],[-90.38705,38.80342,159],[-90.38704,38.80338,159],[-90.38704,38.80335,159],[-90.38702,38.80332,159],[-90.38699,38.8033,159],[-90.38696,38.80328,159],[-90.38695,38.80325,158],[-90.38692,38.80322,157],[-90.38689,38.8032,157],[-90.38686,38.80318,157],[-90.38682,38.80317,157],[-90.38679,38.80315,156],[-90.38676,38.80313,156],[-90.38674,38.8031,156],[-90.38673,38.80307,155],[-90.38673,38.80304,155],[-90.38675,38.80302,155],[-90.38677,38.803,155],[-90.38677,38.80296,155],[-90.38675,38.80294,155],[-90.38674,38.8029,155],[-90.38673,38.80288,156],[-90.3867,38.80284,156],[-90.38668,38.80281,156],[-90.38671,38.80283,156],[-90.38667,38.80284,156],[-90.38667,38.80281,156],[-90.38663,38.80282,157],[-90.38659,38.80281,158],[-90.38657,38.80278,158],[-90.38654,38.80277,159],[-90.38651,38.80274,160],[-90.38647,38.80273,161],[-90.38643,38.80272,162],[-90.38639,38.80273,163],[-90.38634,38.80272,164],[-90.38631,38.80271,164],[-90.38626,38.80269,165],[-90.38622,38.80268,166],[-90.38618,38.80267,166],[-90.38614,38.80267,167],[-90.38611,38.80268,167],[-90.38607,38.80271,168],[-90.38603,38.80273,168],[-90.386,38.80275,168],[-90.38596,38.80273,168],[-90.38594,38.8027,168],[-90.38594,38.80267,167],[-90.38593,38.80264,167],[-90.38593,38.80261,167],[-90.38592,38.80257,167],[-90.38588,38.80256,167],[-90.38583,38.80256,167],[-90.38579,38.80257,168],[-90.38577,38.8026,168],[-90.38574,38.80262,168],[-90.3857,38.80264,168],[-90.38566,38.80266,168],[-90.38563,38.80267,168],[-90.3856,38.80269,168],[-90.38558,38.80272,168],[-90.38555,38.80274,168],[-90.38551,38.80275,168],[-90.38552,38.80279,168],[-90.38551,38.80282,168],[-90.38549,38.80284,168],[-90.38546,38.80287,168],[-90.38545,38.80289,168],[-90.38544,38.80293,168],[-90.38544,38.80296,167],[-90.38545,38.80299,167],[-90.38547,38.80303,166],[-90.38547,38.80308,166],[-90.38546,38.80311,167],[-90.38544,38.80314,167],[-90.38543,38.80317,168],[-90.38543,38.8032,168],[-90.38546,38.80322,168],[-90.3855,38.80323,168],[-90.38552,38.80327,169],[-90.38552,38.8033,169],[-90.38553,38.80333,170],[-90.38554,38.80336,170],[-90.38554,38.8034,170],[-90.38552,38.80343,171],[-90.38551,38.80347,172],[-90.38553,38.80351,172],[-90.38552,38.80354,172],[-90.38556,38.80355,173],[-90.3856,38.80354,172],[-90.38564,38.80354,172],[-90.38568,38.80353,171],[-90.38572,38.80353,171],[-90.38576,38.80354,171],[-90.38579,38.80356,171],[-90.38582,38.80357,171],[-90.38586,38.80357,170],[-90.38589,38.80359,170],[-90.38584,38.80361,171],[-90.38582,38.80363,172],[-90.38581,38.80366,173],[-90.3858,38.8037,174],[-90.38583,38.80372,174],[-90.38585,38.80375,174],[-90.38587,38.80378,174],[-90.38585,38.80381,175],[-90.38584,38.80383,176],[-90.38583,38.80386,177],[-90.38583,38.80389,177],[-90.38584,38.80392,177],[-90.38584,38.80396,176],[-90.38585,38.80399,175],[-90.38588,38.80401,174],[-90.38591,38.80402,173],[-90.38594,38.80405,171],[-90.38598,38.80408,170],[-90.38602,38.8041,168],[-90.38605,38.80412,167],[-90.38605,38.80416,167],[-90.38607,38.80419,166],[-90.38611,38.80421,165],[-90.38614,38.80424,164],[-90.38617,38.80426,164],[-90.38621,38.80427,163],[-90.38625,38.80427,162],[-90.38629,38.80428,161],[-90.38633,38.80428,161],[-90.38634,38.80431,161],[-90.38634,38.80434,161],[-90.38636,38.80437,161],[-90.38638,38.80439,161],[-90.38642,38.80441,161],[-90.38646,38.80442,161],[-90.38648,38.80444,161],[-90.38651,38.80448,161],[-90.38654,38.8045,160],[-90.38658,38.80451,160],[-90.3866,38.80452,160],[-90.38664,38.80453,160],[-90.38668,38.80453,159],[-90.3867,38.80455,159],[-90.38673,38.80457,159],[-90.38676,38.80458,158],[-90.38679,38.80459,158],[-90.38683,38.80461,157],[-90.38686,38.80462,156],[-90.38691,38.80463,155],[-90.38694,38.80465,155],[-90.38695,38.80468,155],[-90.38697,38.8047,154],[-90.38701,38.80471,154],[-90.38705,38.80471,153],[-90.38711,38.8047,152],[-90.38716,38.80469,151],[-90.3872,38.80468,151],[-90.38725,38.80467,150],[-90.38729,38.80466,149],[-90.38734,38.80467,149],[-90.38737,38.80473,148],[-90.38739,38.80476,148],[-90.3874,38.80479,148],[-90.38739,38.80483,148],[-90.38737,38.80486,149],[-90.38736,38.80489,149],[-90.38738,38.80493,149],[-90.38739,38.80496,149],[-90.38739,38.80499,149],[-90.38739,38.80502,149],[-90.38738,38.80504,149],[-90.38736,38.80507,149],[-90.38735,38.80509,148],[-90.38737,38.80513,148],[-90.38739,38.80515,148],[-90.3874,38.80519,147],[-90.3874,38.80522,147],[-90.38739,38.80525,147],[-90.38741,38.80528,147],[-90.38742,38.80531,147],[-90.38743,38.80534,147],[-90.38746,38.80537,147],[-90.38748,38.80539,147],[-90.38748,38.80542,147],[-90.38747,38.80546,147],[-90.38746,38.80548,148],[-90.38747,38.80552,148],[-90.38749,38.80555,148],[-90.38749,38.80558,148],[-90.38749,38.80562,149],[-90.38751,38.80565,149],[-90.38754,38.80568,149],[-90.38756,38.8057,149],[-90.38758,38.80573,149],[-90.38761,38.80577,149],[-90.38763,38.8058,150],[-90.38764,38.80583,150],[-90.38761,38.80586,150],[-90.38762,38.80589,151],[-90.38764,38.80591,150],[-90.38767,38.80592,150],[-90.38767,38.80596,150],[-90.38766,38.80599,151],[-90.38766,38.80602,151],[-90.38766,38.80606,151],[-90.38766,38.80609,151],[-90.38765,38.80613,151],[-90.38764,38.80617,151],[-90.38763,38.80621,152],[-90.38762,38.80625,152],[-90.38762,38.80628,152],[-90.38763,38.8063,152],[-90.38765,38.80633,151],[-90.38765,38.80637,151],[-90.38764,38.8064,151],[-90.38764,38.80643,152],[-90.38765,38.80646,151],[-90.38767,38.80649,151],[-90.38769,38.80652,151],[-90.38771,38.80655,151],[-90.38773,38.80658,150],[-90.38774,38.80661,150],[-90.38776,38.80664,150],[-90.38776,38.80667,150],[-90.38776,38.8067,150],[-90.38775,38.80672,150],[-90.38776,38.80677,150],[-90.38778,38.8068,150],[-90.38778,38.80683,150],[-90.38777,38.80687,150],[-90.38776,38.8069,151],[-90.38776,38.80693,151],[-90.38776,38.80696,151],[-90.38777,38.80699,151],[-90.38779,38.80703,150],[-90.38782,38.80705,150],[-90.38787,38.80706,148],[-90.3879,38.80705,147],[-90.38794,38.80704,146],[-90.38798,38.80703,145],[-90.38802,38.80703,144],[-90.38806,38.80702,143],[-90.3881,38.80702,142],[-90.38813,38.80699,141],[-90.38817,38.80698,141],[-90.38821,38.80699,140],[-90.38825,38.80701,139],[-90.38828,38.80704,139],[-90.38829,38.80708,139],[-90.3883,38.80712,140],[-90.3883,38.80715,140],[-90.3883,38.80718,141],[-90.38829,38.80722,141],[-90.38828,38.80725,142],[-90.38827,38.80729,142],[-90.38826,38.80733,142],[-90.38827,38.80736,142],[-90.38828,38.80739,142],[-90.38828,38.80743,142],[-90.38828,38.80746,142],[-90.38827,38.80749,143],[-90.38828,38.80753,143],[-90.38828,38.80756,143],[-90.38829,38.80759,143],[-90.3883,38.80762,143],[-90.38831,38.80765,143],[-90.38832,38.80768,143],[-90.38833,38.8077,143],[-90.38834,38.80773,143],[-90.38835,38.80776,143],[-90.38837,38.80779,143],[-90.38838,38.80781,143],[-90.38838,38.80784,143],[-90.38839,38.80788,142],[-90.3884,38.80792,142],[-90.38841,38.80794,142],[-90.38841,38.80798,142],[-90.38842,38.80802,141],[-90.38842,38.80805,141],[-90.38843,38.80809,141],[-90.38844,38.80812,141],[-90.38845,38.80815,142],[-90.38846,38.80818,142],[-90.38846,38.80822,142],[-90.38846,38.80826,142],[-90.38846,38.80829,142],[-90.38846,38.80832,143],[-90.38847,38.80835,143],[-90.38847,38.80839,143],[-90.38847,38.80842,143],[-90.38848,38.80846,143],[-90.38849,38.80849,143],[-90.38849,38.80852,143],[-90.3885,38.80855,143],[-90.38852,38.80859,142],[-90.38853,38.80863,142],[-90.38853,38.80866,142],[-90.38854,38.8087,142],[-90.38856,38.80874,142],[-90.38857,38.80876,141],[-90.38857,38.8088,141],[-90.38858,38.80883,141],[-90.38858,38.80887,141],[-90.38859,38.8089,141],[-90.38859,38.80893,141],[-90.3886,38.80896,141],[-90.3886,38.80899,141],[-90.38862,38.80903,141],[-90.38863,38.80906,141],[-90.38864,38.80909,141],[-90.38865,38.80912,141],[-90.38867,38.80916,141],[-90.38868,38.8092,142],[-90.38869,38.80923,142],[-90.3887,38.80926,143],[-90.38872,38.8093,143],[-90.38873,38.80932,143],[-90.38875,38.80936,144],[-90.38876,38.80939,144],[-90.38877,38.80942,144],[-90.38878,38.80945,145],[-90.3888,38.80948,145],[-90.38882,38.8095,145],[-90.38884,38.80953,145],[-90.38887,38.80956,145],[-90.38888,38.8096,145],[-90.38889,38.80962,145],[-90.38891,38.80965,146],[-90.38893,38.80967,146],[-90.38896,38.8097,145],[-90.38899,38.80973,145],[-90.38901,38.80976,145],[-90.38903,38.80978,145],[-90.38904,38.80981,145],[-90.38907,38.80984,145],[-90.38908,38.80987,145],[-90.38909,38.80991,145],[-90.3891,38.80994,145],[-90.38911,38.80998,145],[-90.38912,38.81002,144],[-90.38913,38.81005,144],[-90.38914,38.81008,144],[-90.38914,38.81011,144],[-90.38915,38.81014,143],[-90.38916,38.81018,143],[-90.38918,38.81022,143],[-90.38918,38.81026,143],[-90.38919,38.81029,143],[-90.38921,38.81032,143],[-90.38922,38.81035,143],[-90.38923,38.81038,143],[-90.38925,38.81041,143],[-90.38926,38.81044,143],[-90.38928,38.81047,143],[-90.3893,38.81049,143],[-90.38934,38.81052,143],[-90.38936,38.81055,143],[-90.3894,38.81056,143],[-90.38943,38.81059,143],[-90.38946,38.81061,144],[-90.3895,38.81064,144],[-90.38953,38.81065,144],[-90.38957,38.81066,144],[-90.38962,38.81067,144],[-90.38967,38.81068,144],[-90.38971,38.81068,144],[-90.38975,38.81069,144],[-90.38979,38.8107,143],[-90.38983,38.81071,143],[-90.38987,38.81072,143],[-90.38992,38.81073,143],[-90.38997,38.81073,142],[-90.39001,38.81073,142],[-90.39005,38.81073,142],[-90.39009,38.81073,141],[-90.39014,38.81074,141],[-90.39019,38.81074,141],[-90.39023,38.81075,141],[-90.39028,38.81075,141],[-90.39032,38.81075,140],[-90.39037,38.81076,140],[-90.39042,38.81076,140],[-90.39047,38.81077,140],[-90.39051,38.81078,140],[-90.39056,38.81079,139],[-90.3906,38.8108,139],[-90.39064,38.81081,139],[-90.39069,38.81083,139],[-90.39072,38.81085,138],[-90.39075,38.81087,138],[-90.39078,38.81089,138],[-90.39081,38.81091,138],[-90.39083,38.81094,139],[-90.39084,38.81097,139],[-90.39084,38.81101,139],[-90.39083,38.81105,140],[-90.39084,38.81108,140],[-90.39084,38.81111,140],[-90.39083,38.81115,141],[-90.39081,38.81118,141],[-90.39076,38.81119,141],[-90.39071,38.81119,141],[-90.39067,38.8112,142],[-90.39064,38.81122,142],[-90.39061,38.81124,142],[-90.39057,38.81125,142],[-90.39054,38.81126,142],[-90.3905,38.81126,142],[-90.39047,38.81124,142],[-90.39045,38.81122,142],[-90.39041,38.8112,142],[-90.39038,38.81118,142],[-90.39035,38.81116,142],[-90.39031,38.81115,142],[-90.39026,38.81114,143],[-90.39022,38.81116,143],[-90.39019,38.81117,144],[-90.39015,38.81118,144],[-90.39011,38.81117,145],[-90.39007,38.81116,145],[-90.39004,38.81116,146],[-90.38999,38.81115,146],[-90.38994,38.81114,147],[-90.3899,38.81114,148],[-90.38987,38.81112,148],[-90.38984,38.81113,149],[-90.38981,38.81116,149],[-90.38978,38.81118,149],[-90.38975,38.8112,150],[-90.38971,38.8112,150],[-90.38968,38.81119,150],[-90.38964,38.81117,151],[-90.3896,38.81116,151],[-90.38956,38.81115,151],[-90.38952,38.81115,151],[-90.38948,38.81115,151],[-90.38946,38.81118,151],[-90.38945,38.81122,151],[-90.38944,38.81126,152],[-90.38943,38.81129,152],[-90.38941,38.81133,152],[-90.3894,38.81136,152],[-90.38938,38.81139,152],[-90.38935,38.81141,152],[-90.38931,38.8114,152],[-90.38926,38.81138,152],[-90.38923,38.81136,152],[-90.38919,38.81136,152],[-90.38916,38.81138,152],[-90.38914,38.81141,152],[-90.38913,38.81144,152],[-90.3891,38.81147,153],[-90.38907,38.81149,154],[-90.38904,38.81151,155],[-90.389,38.81152,156],[-90.38897,38.81152,156],[-90.38893,38.81152,157],[-90.38889,38.81153,158],[-90.38884,38.81154,160],[-90.38881,38.81154,160],[-90.38877,38.81155,161],[-90.38877,38.81159,161],[-90.38877,38.81161,161],[-90.38873,38.81163,162],[-90.3887,38.81165,163],[-90.38867,38.81167,163],[-90.38865,38.81169,164],[-90.38863,38.81172,163],[-90.3886,38.81176,164],[-90.38859,38.81179,163],[-90.38857,38.81182,163],[-90.38856,38.81186,163],[-90.38856,38.81189,163],[-90.3886,38.81191,162],[-90.38862,38.81194,161],[-90.38866,38.81196,161],[-90.38868,38.81198,161],[-90.3887,38.81201,161],[-90.38874,38.81201,160],[-90.3887,38.812,160],[-90.38874,38.81202,160],[-90.38876,38.81204,160],[-90.38878,38.81206,160],[-90.3888,38.8121,160],[-90.3888,38.81213,161],[-90.3888,38.81216,161],[-90.38879,38.81219,162],[-90.38878,38.81222,162],[-90.38877,38.81224,163],[-90.38876,38.81227,163],[-90.38872,38.81229,164],[-90.38868,38.8123,164],[-90.38864,38.8123,165],[-90.38861,38.81231,165],[-90.3886,38.81234,166],[-90.3886,38.81237,166],[-90.38859,38.8124,167],[-90.38863,38.81242,167],[-90.38863,38.81245,167],[-90.38863,38.81248,168],[-90.38862,38.81251,168],[-90.38859,38.81254,169],[-90.38856,38.81256,170],[-90.38855,38.81259,170],[-90.38855,38.81263,171],[-90.38853,38.81266,172],[-90.38849,38.81266,173],[-90.38845,38.81266,174],[-90.38841,38.81268,175],[-90.38838,38.8127,177],[-90.38835,38.81271,178],[-90.38832,38.81269,178],[-90.38828,38.8127,179],[-90.38827,38.81273,180],[-90.38823,38.81272,181],[-90.3882,38.81274,183],[-90.38817,38.81276,184],[-90.38813,38.81277,185],[-90.38811,38.81279,186],[-90.38807,38.81279,187],[-90.38803,38.81278,188],[-90.38803,38.81281,188],[-90.38804,38.81284,188],[-90.38806,38.81287,188],[-90.38805,38.81289,189],[-90.38803,38.81292,189],[-90.38804,38.81296,190],[-90.38804,38.813,190],[-90.38803,38.81304,191],[-90.38802,38.81309,191],[-90.38798,38.81314,192],[-90.38795,38.81319,193],[-90.38796,38.81326,194],[-90.3879,38.81326,194],[-90.38787,38.81328,195],[-90.38782,38.81327,195],[-90.38779,38.81328,195],[-90.38775,38.81329,195],[-90.38771,38.81329,195],[-90.38768,38.81329,194],[-90.38764,38.81329,194],[-90.38759,38.81329,194],[-90.38757,38.81332,194],[-90.38758,38.81335,194],[-90.38759,38.81338,194],[-90.3876,38.8134,195],[-90.38761,38.81343,195],[-90.38761,38.81346,195],[-90.38759,38.8135,195],[-90.38758,38.81353,195],[-90.38758,38.81356,196],[-90.38757,38.81359,196],[-90.38755,38.81362,196],[-90.38754,38.81365,196],[-90.38753,38.81368,197],[-90.38753,38.8137,197],[-90.38752,38.81373,197],[-90.38751,38.81376,198],[-90.38749,38.81379,198],[-90.38749,38.81382,198],[-90.3875,38.81385,199],[-90.38753,38.81387,199],[-90.38756,38.81389,199],[-90.38758,38.81391,200],[-90.38761,38.81394,200],[-90.38764,38.81394,200],[-90.38768,38.81394,200],[-90.38771,38.81396,200],[-90.38775,38.81396,200],[-90.3878,38.81396,199],[-90.38784,38.81395,199],[-90.38789,38.81394,199],[-90.38793,38.81394,199],[-90.38798,38.81394,199],[-90.38802,38.81393,199],[-90.38806,38.81392,199],[-90.3881,38.81392,198],[-90.38814,38.81391,198],[-90.38818,38.81391,198],[-90.38822,38.81393,198],[-90.38827,38.81394,198],[-90.3883,38.81397,198],[-90.38833,38.81398,198],[-90.38838,38.814,197],[-90.38841,38.81401,197],[-90.38845,38.81402,197],[-90.38849,38.81403,197],[-90.38852,38.81406,197],[-90.38855,38.81408,196],[-90.38859,38.8141,196],[-90.38863,38.81411,196],[-90.38867,38.81412,195],[-90.3887,38.81413,195],[-90.38874,38.81413,194],[-90.38878,38.81412,194],[-90.38882,38.81413,193],[-90.38886,38.81416,193],[-90.38889,38.81418,192],[-90.38893,38.81418,192],[-90.38897,38.81418,192],[-90.389,38.81418,192],[-90.38904,38.81419,192],[-90.38909,38.81419,192],[-90.38913,38.8142,192],[-90.38917,38.81422,192],[-90.38921,38.81424,192],[-90.38924,38.81426,191],[-90.38927,38.81428,191],[-90.3893,38.81431,190],[-90.38935,38.81432,190],[-90.38939,38.81433,189],[-90.38943,38.81435,189],[-90.38946,38.81437,189],[-90.38949,38.81439,189],[-90.38951,38.81441,189],[-90.38954,38.81444,189],[-90.38955,38.81447,189],[-90.38955,38.8145,189],[-90.38954,38.81454,190],[-90.38954,38.81457,190],[-90.38953,38.81461,190],[-90.38954,38.81465,190],[-90.38955,38.81469,191],[-90.38955,38.81473,191],[-90.38956,38.81476,191],[-90.38957,38.81479,190],[-90.38958,38.81482,190],[-90.38957,38.81485,190],[-90.38956,38.81489,189],[-90.38959,38.81491,189],[-90.3896,38.81495,189],[-90.38962,38.81498,188],[-90.38964,38.81501,188],[-90.38968,38.81503,188],[-90.3897,38.81505,187],[-90.38973,38.81508,187],[-90.38976,38.8151,186],[-90.38978,38.81513,186],[-90.38981,38.81514,185],[-90.38985,38.81515,185],[-90.38989,38.81518,184],[-90.38991,38.81521,183],[-90.38994,38.81523,183],[-90.38998,38.81526,182],[-90.39001,38.81527,182],[-90.39004,38.81529,181],[-90.39008,38.8153,181],[-90.39012,38.81531,181],[-90.39016,38.81533,181],[-90.3902,38.81535,180],[-90.39024,38.81535,180],[-90.39028,38.81537,180],[-90.39032,38.81538,180],[-90.39036,38.81539,181],[-90.3904,38.8154,181],[-90.39043,38.81542,181],[-90.39047,38.81544,181],[-90.3905,38.81545,182],[-90.39054,38.81546,182],[-90.39058,38.81547,182],[-90.39062,38.81548,183],[-90.39066,38.81549,183],[-90.3907,38.81548,184],[-90.39075,38.81547,184],[-90.39079,38.81547,185],[-90.39082,38.81549,185],[-90.39087,38.8155,185],[-90.39092,38.8155,185],[-90.39096,38.8155,185],[-90.391,38.81548,185],[-90.39103,38.81547,186],[-90.39107,38.81545,186],[-90.39112,38.81543,186],[-90.39115,38.8154,186],[-90.39118,38.81539,186],[-90.39122,38.81539,186],[-90.39126,38.81539,186],[-90.39129,38.8154,185],[-90.39134,38.81541,185],[-90.39139,38.81542,185],[-90.39142,38.81543,185],[-90.39145,38.81545,184],[-90.39149,38.81547,184],[-90.39152,38.8155,183],[-90.39155,38.81553,183],[-90.39158,38.81556,183],[-90.39159,38.81558,183],[-90.39162,38.81561,182],[-90.39165,38.81563,182],[-90.39168,38.81565,181],[-90.39171,38.81565,181],[-90.39175,38.81565,180],[-90.39179,38.81564,179],[-90.39182,38.81564,178],[-90.39187,38.81564,177],[-90.3919,38.81563,177],[-90.3919,38.8156,177],[-90.39194,38.81558,177],[-90.39193,38.81555,178],[-90.39193,38.81553,178],[-90.3919,38.81551,178],[-90.39192,38.81548,177],[-90.39195,38.81546,177],[-90.39196,38.81543,176],[-90.39195,38.81541,176],[-90.39194,38.81538,176],[-90.39194,38.81535,176],[-90.39194,38.81531,176],[-90.39192,38.81529,176],[-90.39191,38.81525,175],[-90.39192,38.81522,174],[-90.39193,38.81519,173],[-90.39195,38.81516,171],[-90.39196,38.81513,170],[-90.39197,38.8151,169],[-90.39199,38.81508,167],[-90.392,38.81505,166],[-90.39199,38.81502,165],[-90.39197,38.81499,165],[-90.39194,38.81497,165],[-90.39191,38.81493,166],[-90.39189,38.81491,166],[-90.39187,38.81487,167],[-90.39188,38.81484,166],[-90.39191,38.8148,165],[-90.39191,38.81476,164],[-90.3919,38.81473,164],[-90.39189,38.8147,164],[-90.39189,38.81467,163],[-90.39188,38.81465,163],[-90.39188,38.81462,163],[-90.39188,38.81458,162],[-90.39185,38.81453,162],[-90.39182,38.81451,163],[-90.39179,38.81449,164],[-90.39179,38.81446,163],[-90.3918,38.81443,162],[-90.3918,38.81441,162],[-90.3918,38.81438,161],[-90.3918,38.81435,160],[-90.39179,38.81432,159],[-90.39181,38.8143,159],[-90.39179,38.81427,158],[-90.39178,38.81424,158],[-90.39177,38.81421,157],[-90.39177,38.81418,156],[-90.39179,38.81416,155],[-90.39183,38.81416,154],[-90.39186,38.81415,153],[-90.39191,38.81415,152],[-90.39195,38.81416,151],[-90.39193,38.81412,150],[-90.3919,38.81409,149],[-90.3919,38.81406,147],[-90.39193,38.81405,146],[-90.39197,38.81407,147],[-90.39201,38.81408,147],[-90.39205,38.81409,147],[-90.39209,38.8141,147],[-90.39215,38.8141,147],[-90.39218,38.81409,146],[-90.39222,38.8141,146],[-90.39227,38.8141,146],[-90.3923,38.81408,145],[-90.39233,38.81409,146],[-90.39234,38.81405,144],[-90.39236,38.81402,142],[-90.39238,38.81399,141],[-90.3924,38.81396,139],[-90.39241,38.81393,138],[-90.39243,38.8139,137],[-90.39244,38.81387,137],[-90.39246,38.81384,137],[-90.39248,38.81381,138],[-90.3925,38.81379,138],[-90.39252,38.81375,138],[-90.39252,38.81372,138],[-90.39252,38.81369,138],[-90.39252,38.81366,138],[-90.39253,38.81362,138],[-90.39255,38.8136,138],[-90.39259,38.81357,138],[-90.39262,38.81354,137],[-90.39264,38.81351,137],[-90.39266,38.81348,137],[-90.39268,38.81345,136],[-90.3927,38.81343,136],[-90.39273,38.8134,136],[-90.39276,38.81336,135],[-90.39279,38.81334,134],[-90.39281,38.81332,134],[-90.39284,38.81329,134],[-90.39287,38.81326,134],[-90.3929,38.81324,133],[-90.39293,38.81321,133],[-90.39297,38.81319,133],[-90.393,38.81317,133],[-90.39303,38.81314,133],[-90.39306,38.81312,132],[-90.3931,38.8131,132],[-90.39312,38.81307,132],[-90.39315,38.81305,133],[-90.39318,38.81303,133],[-90.39321,38.81301,133],[-90.39324,38.81299,133],[-90.39327,38.81297,133],[-90.3933,38.81294,133],[-90.39333,38.81293,133],[-90.39336,38.81291,133],[-90.39339,38.81289,134],[-90.39342,38.81287,134],[-90.39345,38.81285,134],[-90.39349,38.81283,134],[-90.39353,38.81281,134],[-90.39357,38.81279,134],[-90.3936,38.81278,134],[-90.39364,38.81275,134],[-90.39366,38.81273,134],[-90.39368,38.81271,134],[-90.39371,38.81268,134],[-90.39373,38.81266,135],[-90.39376,38.81264,135],[-90.39379,38.81262,135],[-90.39383,38.81261,135],[-90.39386,38.81259,135],[-90.39389,38.81256,136],[-90.39393,38.81254,136],[-90.39396,38.81252,136],[-90.39398,38.81249,137],[-90.394,38.81247,137],[-90.39403,38.81245,137],[-90.39407,38.81243,137],[-90.3941,38.81241,137],[-90.39413,38.81238,137],[-90.39416,38.81235,137],[-90.39419,38.81232,137],[-90.39423,38.81229,137],[-90.39426,38.81226,137],[-90.3943,38.81224,137],[-90.39433,38.81222,138],[-90.39436,38.81219,138],[-90.39439,38.81215,138],[-90.39442,38.81212,138],[-90.39445,38.8121,137],[-90.3945,38.81207,137],[-90.39453,38.81205,137],[-90.39456,38.81202,137],[-90.3946,38.81199,137],[-90.39464,38.81197,137],[-90.39467,38.81195,137],[-90.3947,38.81192,136],[-90.39473,38.8119,136],[-90.39476,38.81188,136],[-90.39479,38.81185,135],[-90.39481,38.81183,135],[-90.39484,38.8118,134],[-90.39486,38.81178,134],[-90.39488,38.81176,134],[-90.39491,38.81174,133],[-90.39495,38.81172,133],[-90.39498,38.8117,133],[-90.395,38.81169,133]]],
        "bbox": [
          -90.38543,
          38.81565,
          -90.3951,
          38.80256
        ]
      },
      "properties": {
        "name": "9.7.2024A"
      }
    }
  ]
}