{
  "type": "FeatureCollection",
  "features": [
    {
      "type": "Feature",
      "geometry": {
        "type": "MultiLineString",
        "coordinates": [[[-90.39538,38.81137,133],[-90.39541,38.81134,133],[-90.39544,38.81131,133],[-90.39546,38.81129,133],[-90.39548,38.81126,133],[-90.39547,38.8113,133],[-90.39547,38.81132,133],[-90.39547,38.81136,133],[-90.39547,38.81139,133],[-90.39545,38.81141,133],[-90.39542,38.81144,133],[-90.39538,38.81148,133],[-90.39536,38.8115,133],[-90.39532,38.81152,133],[-90.39528,38.81154,133],[-90.39525,38.81156,132],[-90.39522,38.81158,132],[-90.39519,38.81161,132],[-90.39514,38.81163,132],[-90.39511,38.81165,132],[-90.39507,38.81167,133],[-90.39503,38.8117,133],[-90.39499,38.81172,133],[-90.39496,38.81175,133],[-90.39492,38.81176,134],[-90.39489,38.81179,134],[-90.39487,38.81181,134],[-90.39484,38.81184,135],[-90.39482,38.81186,135],[-90.39478,38.81188,135],[-90.39475,38.8119,136],[-90.39473,38.81192,136],[-90.39471,38.81195,137],[-90.39468,38.81197,137],[-90.39466,38.81199,137],[-90.39463,38.81201,137],[-90.39461,38.81204,137],[-90.39458,38.81207,137],[-90.39456,38.8121,137],[-90.39454,38.81212,137],[-90.39451,38.81214,137],[-90.39448,38.81216,137],[-90.39445,38.81218,137],[-90.39441,38.81221,138],[-90.39439,38.81224,137],[-90.39436,38.81227,137],[-90.39433,38.8123,137],[-90.3943,38.81232,137],[-90.39426,38.81235,137],[-90.39423,38.81237,137],[-90.39421,38.81239,137],[-90.39419,38.81241,137],[-90.39415,38.81244,137],[-90.39413,38.81246,137],[-90.3941,38.81249,137],[-90.39407,38.81252,136],[-90.39405,38.81254,136],[-90.39402,38.81256,136],[-90.394,38.81258,135],[-90.39396,38.8126,135],[-90.39392,38.81263,135],[-90.39389,38.81265,135],[-90.39385,38.81268,135],[-90.39382,38.81269,134],[-90.39379,38.81271,134],[-90.39376,38.81274,134],[-90.39373,38.81276,134],[-90.39371,38.81278,133],[-90.39368,38.81279,133],[-90.39363,38.81279,133],[-90.39359,38.81278,134],[-90.39355,38.81278,134],[-90.39358,38.8128,133],[-90.39355,38.81282,133],[-90.3935,38.81284,133],[-90.39346,38.81286,133],[-90.39343,38.81288,133],[-90.39338,38.81289,134],[-90.39335,38.81292,133],[-90.39332,38.81294,133],[-90.39329,38.81296,133],[-90.39327,38.81298,133],[-90.39324,38.813,133],[-90.39322,38.81302,133],[-90.39318,38.81306,132],[-90.39316,38.81308,132],[-90.39313,38.81311,132],[-90.39311,38.81313,132],[-90.39308,38.81316,132],[-90.39306,38.81319,132],[-90.39304,38.81321,133],[-90.39302,38.81323,133],[-90.39298,38.81327,133],[-90.39296,38.81329,133],[-90.39293,38.81332,133],[-90.39289,38.81334,134],[-90.39285,38.81336,134],[-90.39283,38.81339,135],[-90.39279,38.81342,135],[-90.39276,38.81344,136],[-90.39273,38.81346,136],[-90.39271,38.81349,137],[-90.39268,38.81351,137],[-90.39266,38.81354,137],[-90.39264,38.81357,138],[-90.39263,38.81359,138],[-90.39262,38.81363,138],[-90.39261,38.81365,138],[-90.39259,38.81368,138],[-90.39257,38.81371,138],[-90.39254,38.81373,138],[-90.39252,38.81376,138],[-90.3925,38.81379,138],[-90.39248,38.81383,137],[-90.39246,38.81385,137],[-90.39245,38.81388,137],[-90.39244,38.81391,138],[-90.39243,38.81394,139],[-90.39241,38.81397,140],[-90.39239,38.814,141],[-90.39237,38.81402,142],[-90.39234,38.81405,144],[-90.39231,38.81407,145],[-90.39232,38.8141,146],[-90.39233,38.81413,148],[-90.39235,38.81415,149],[-90.39239,38.81418,150],[-90.39237,38.8142,151],[-90.3924,38.81422,151],[-90.39244,38.81422,151],[-90.39248,38.81425,151],[-90.39251,38.81428,152],[-90.39255,38.81429,152],[-90.3926,38.81428,151],[-90.39263,38.81426,150],[-90.39267,38.81425,149],[-90.39271,38.81427,149],[-90.39274,38.81428,149],[-90.39277,38.81431,150],[-90.3928,38.81433,150],[-90.39282,38.81436,150],[-90.39284,38.81439,150],[-90.39286,38.81441,150],[-90.3929,38.81443,150],[-90.39294,38.81445,149],[-90.39297,38.81449,148],[-90.39301,38.81452,147],[-90.39305,38.81454,146],[-90.39309,38.81455,145],[-90.39311,38.81458,145],[-90.39308,38.81461,145],[-90.39306,38.81465,146],[-90.39306,38.81469,146],[-90.39306,38.81472,145],[-90.39307,38.81475,145],[-90.39307,38.81479,146],[-90.39308,38.81483,146],[-90.39308,38.81486,146],[-90.39309,38.8149,146],[-90.39311,38.81494,146],[-90.39312,38.81496,146],[-90.39314,38.81499,146],[-90.39315,38.81502,145],[-90.39317,38.81505,145],[-90.39319,38.81508,144],[-90.3932,38.81512,143],[-90.39322,38.81514,143],[-90.39324,38.81517,142],[-90.39323,38.8152,142],[-90.39321,38.81524,142],[-90.39318,38.81527,142],[-90.39316,38.81529,143],[-90.39315,38.81532,142],[-90.39312,38.81534,142],[-90.39309,38.81536,142],[-90.39305,38.81538,142],[-90.39301,38.8154,143],[-90.39297,38.81542,143],[-90.39296,38.81544,143],[-90.39292,38.81544,144],[-90.39287,38.81543,146],[-90.39283,38.81544,146],[-90.3928,38.81546,147],[-90.39278,38.81548,147],[-90.39277,38.81551,146],[-90.39275,38.81554,146],[-90.39272,38.81556,147],[-90.3927,38.81559,147],[-90.39268,38.81561,147],[-90.39265,38.81562,148],[-90.39266,38.81565,147],[-90.39269,38.81567,146],[-90.39271,38.8157,144],[-90.39273,38.81574,143],[-90.39274,38.81576,142],[-90.39275,38.81579,141],[-90.39276,38.81583,140],[-90.39276,38.81587,140],[-90.39277,38.81591,140],[-90.39278,38.81594,140],[-90.39278,38.81597,140],[-90.39278,38.816,140],[-90.39278,38.81604,140],[-90.39276,38.81607,140],[-90.39274,38.81609,141],[-90.39272,38.81612,141],[-90.3927,38.81614,142],[-90.39267,38.81615,142],[-90.39264,38.81617,143],[-90.39261,38.81619,144],[-90.39256,38.8162,145],[-90.39252,38.8162,146],[-90.39248,38.81622,147],[-90.39245,38.81623,147],[-90.39242,38.81625,148],[-90.39242,38.81628,147],[-90.3924,38.8163,147],[-90.39238,38.81633,147],[-90.3924,38.81635,146],[-90.39242,38.81638,145],[-90.39242,38.81641,144],[-90.39239,38.81644,144],[-90.39235,38.81647,145],[-90.39233,38.8165,145],[-90.39231,38.81652,145],[-90.39228,38.81655,145],[-90.39226,38.81659,146],[-90.39224,38.81662,146],[-90.39221,38.81665,146],[-90.39218,38.81667,146],[-90.39216,38.81671,147],[-90.39214,38.81673,147],[-90.3921,38.81673,148],[-90.39206,38.81673,148],[-90.39202,38.81675,149],[-90.39201,38.81678,149],[-90.39197,38.81678,149],[-90.39195,38.81681,149],[-90.39193,38.81685,149],[-90.3919,38.81688,149],[-90.39189,38.81691,149],[-90.39188,38.81693,148],[-90.39187,38.81696,148],[-90.39187,38.81699,146],[-90.39185,38.81702,145],[-90.39181,38.81704,144],[-90.39178,38.81705,144],[-90.39175,38.81706,143],[-90.39171,38.81706,143],[-90.39166,38.81706,143],[-90.39162,38.81707,143],[-90.39157,38.81709,143],[-90.39153,38.8171,143],[-90.39149,38.81711,144],[-90.39146,38.81713,143],[-90.39143,38.81715,143],[-90.39141,38.81718,142],[-90.39137,38.81719,142],[-90.39133,38.8172,143],[-90.39129,38.81723,142],[-90.39126,38.81725,142],[-90.39124,38.81728,142],[-90.3912,38.8173,142],[-90.39118,38.81733,142],[-90.39116,38.81736,141],[-90.39114,38.81739,141],[-90.3911,38.8174,141],[-90.39107,38.81741,141],[-90.39104,38.81743,141],[-90.391,38.81744,141],[-90.39097,38.81747,141],[-90.39094,38.8175,140],[-90.39091,38.81752,140],[-90.39087,38.81751,141],[-90.39084,38.81753,141],[-90.39082,38.81755,141],[-90.3908,38.81758,140],[-90.39082,38.8176,140],[-90.39083,38.81763,139],[-90.39082,38.81766,139],[-90.39078,38.81767,139],[-90.39075,38.81768,139],[-90.39072,38.8177,139],[-90.39068,38.81771,140],[-90.39063,38.81772,140],[-90.3906,38.81773,140],[-90.39056,38.81774,140],[-90.39053,38.81775,140],[-90.3905,38.81778,140],[-90.39046,38.81778,141],[-90.39042,38.81779,141],[-90.39038,38.81779,141],[-90.39034,38.8178,142],[-90.39032,38.81782,142],[-90.39028,38.81784,142],[-90.39024,38.81787,142],[-90.39021,38.81789,142],[-90.39016,38.8179,143],[-90.39012,38.8179,143],[-90.39008,38.81791,144],[-90.39003,38.81793,144],[-90.38999,38.81794,145],[-90.38995,38.81794,145],[-90.3899,38.81795,146],[-90.38987,38.81796,146],[-90.38983,38.81797,146],[-90.3898,38.81798,147],[-90.38976,38.81797,147],[-90.38972,38.81799,147],[-90.38969,38.818,147],[-90.38965,38.81801,147],[-90.38961,38.81802,147],[-90.38957,38.81803,147],[-90.38954,38.81804,147],[-90.3895,38.81805,147],[-90.38947,38.81803,147],[-90.38943,38.81802,147],[-90.38939,38.81801,148],[-90.38935,38.81802,148],[-90.38931,38.81801,149],[-90.38927,38.81801,150],[-90.38923,38.81801,150],[-90.38919,38.81802,150],[-90.38916,38.81803,150],[-90.38911,38.81803,152],[-90.38908,38.81804,152],[-90.38904,38.81805,153],[-90.389,38.81807,153],[-90.38896,38.81808,154],[-90.38892,38.81807,155],[-90.38888,38.81808,156],[-90.38888,38.81811,155],[-90.38888,38.81814,153],[-90.38886,38.81817,153],[-90.38884,38.8182,152],[-90.38882,38.81823,151],[-90.38879,38.81824,151],[-90.38875,38.81825,151],[-90.38872,38.81827,151],[-90.38868,38.81828,151],[-90.38864,38.81828,152],[-90.3886,38.8183,151],[-90.38859,38.81833,150],[-90.38857,38.81835,149],[-90.38854,38.81838,148],[-90.38851,38.81839,147],[-90.38848,38.81841,146],[-90.38844,38.81843,145],[-90.3884,38.81844,145],[-90.38839,38.81846,144],[-90.3884,38.8185,142],[-90.38839,38.81852,141],[-90.38839,38.81855,140],[-90.38836,38.81858,139],[-90.38834,38.81861,138],[-90.38831,38.81863,138],[-90.38828,38.81865,138],[-90.38824,38.81865,139],[-90.38819,38.81866,139],[-90.38815,38.81867,140],[-90.38812,38.81868,140],[-90.38808,38.81869,140],[-90.38804,38.81871,141],[-90.38801,38.81872,141],[-90.38797,38.81873,141],[-90.38794,38.81875,141],[-90.38792,38.81878,141],[-90.38788,38.8188,142],[-90.38784,38.81882,142],[-90.38781,38.81884,142],[-90.38777,38.81885,142],[-90.38775,38.81887,142],[-90.38771,38.81889,141],[-90.38767,38.81891,141],[-90.38763,38.81892,141],[-90.3876,38.81894,140],[-90.38757,38.81897,139],[-90.38755,38.819,138],[-90.38752,38.81903,137],[-90.38751,38.81905,136],[-90.3875,38.81908,135],[-90.38747,38.81911,134],[-90.38744,38.81912,134],[-90.3874,38.81913,133],[-90.38736,38.81913,133],[-90.38732,38.81912,134],[-90.38729,38.81912,134],[-90.38725,38.81915,132],[-90.38723,38.81917,132],[-90.38719,38.81919,132],[-90.38715,38.81921,132],[-90.38712,38.81923,132],[-90.38709,38.81926,132],[-90.38706,38.81927,132],[-90.38702,38.81929,132],[-90.38698,38.81929,132],[-90.38696,38.81931,132],[-90.38692,38.81933,132],[-90.38689,38.81934,132],[-90.38685,38.81936,132],[-90.38682,38.81938,132],[-90.3868,38.8194,132],[-90.38678,38.81943,132],[-90.38675,38.81945,131],[-90.38672,38.81947,131],[-90.38669,38.81948,131],[-90.38666,38.8195,131],[-90.38662,38.81951,131],[-90.38658,38.81952,131],[-90.38655,38.81953,131],[-90.38651,38.81954,131],[-90.38647,38.81954,131],[-90.38643,38.81954,131],[-90.3864,38.81956,131],[-90.38636,38.81957,131],[-90.38633,38.81958,131],[-90.38628,38.81958,132],[-90.38625,38.81959,132],[-90.38621,38.8196,133],[-90.38617,38.8196,133],[-90.38612,38.81961,134],[-90.38608,38.81961,134],[-90.38604,38.81963,133],[-90.386,38.81964,133],[-90.38596,38.81965,133],[-90.38592,38.81965,133],[-90.38589,38.81965,133],[-90.38584,38.81966,133],[-90.3858,38.81966,133],[-90.38577,38.81965,133],[-90.38573,38.81967,133],[-90.38571,38.81969,132],[-90.38571,38.81966,133],[-90.38568,38.81964,134],[-90.38571,38.81963,134],[-90.38575,38.81962,135],[-90.38579,38.81963,134],[-90.38583,38.81965,133],[-90.38587,38.81965,133],[-90.38591,38.81965,133],[-90.38595,38.81965,133],[-90.38598,38.81964,133],[-90.38602,38.81963,134],[-90.38605,38.81962,134],[-90.38609,38.81961,134],[-90.38613,38.81961,133],[-90.38616,38.81961,133],[-90.3862,38.8196,133],[-90.38624,38.81959,133],[-90.38628,38.81959,132],[-90.38633,38.81959,131],[-90.38636,38.81957,131],[-90.3864,38.81955,131],[-90.38644,38.81955,131],[-90.38647,38.81954,131],[-90.38651,38.81952,131],[-90.38654,38.81952,131],[-90.38658,38.81951,131],[-90.38661,38.81951,131],[-90.38665,38.8195,131],[-90.38669,38.8195,131],[-90.38672,38.81952,131],[-90.38674,38.8195,131],[-90.38678,38.81949,131],[-90.38681,38.81946,131],[-90.38683,38.81943,132],[-90.38682,38.8194,132],[-90.38684,38.81937,132],[-90.38687,38.81935,132],[-90.38691,38.81934,132],[-90.38694,38.81933,132],[-90.38697,38.81931,132],[-90.38701,38.8193,132],[-90.38704,38.81929,132],[-90.38708,38.81929,132],[-90.38712,38.81928,132],[-90.38716,38.81926,132],[-90.38718,38.81923,132],[-90.38722,38.81923,132],[-90.38726,38.81921,132],[-90.38728,38.81919,132],[-90.38731,38.81916,132],[-90.38734,38.81914,133],[-90.38738,38.81913,133],[-90.38742,38.81911,134],[-90.38745,38.81908,135],[-90.38747,38.81906,136],[-90.38748,38.81902,137],[-90.38749,38.81899,138],[-90.38752,38.81897,139],[-90.38753,38.81894,140],[-90.38756,38.81891,141],[-90.38759,38.81889,141],[-90.38764,38.81889,141],[-90.38767,38.81888,142],[-90.3877,38.81886,142],[-90.38774,38.81885,142],[-90.38778,38.81884,142],[-90.38781,38.81883,142],[-90.38784,38.81881,142],[-90.38787,38.81879,142],[-90.3879,38.81876,142],[-90.38792,38.81874,142],[-90.38795,38.81872,142],[-90.38799,38.8187,141],[-90.38802,38.81869,141],[-90.38806,38.81868,141],[-90.3881,38.81867,140],[-90.38815,38.81866,140],[-90.38818,38.81865,139],[-90.38821,38.81863,139],[-90.38825,38.81861,139],[-90.38828,38.81859,139],[-90.38829,38.81856,140],[-90.38834,38.81854,141],[-90.38838,38.81853,141],[-90.3884,38.8185,142],[-90.38843,38.81848,143],[-90.38845,38.81846,144],[-90.38847,38.81842,146],[-90.3885,38.8184,147],[-90.38853,38.81839,147],[-90.38856,38.81837,148],[-90.38858,38.81834,149],[-90.38861,38.81831,151],[-90.38863,38.81828,152],[-90.38867,38.81827,151],[-90.38871,38.81827,151],[-90.38875,38.81826,151],[-90.38878,38.81824,151],[-90.38882,38.81822,151],[-90.38885,38.8182,152],[-90.38887,38.81817,152],[-90.3889,38.81815,152],[-90.38893,38.81813,152],[-90.38895,38.8181,153],[-90.38898,38.81809,153],[-90.38901,38.81811,151],[-90.38904,38.81812,150],[-90.38908,38.81812,149],[-90.3891,38.81809,150],[-90.38913,38.81807,150],[-90.38916,38.81805,150],[-90.38919,38.81804,150],[-90.38923,38.81804,149],[-90.38927,38.81804,149],[-90.3893,38.81803,149],[-90.38933,38.81801,149],[-90.38937,38.81801,148],[-90.38941,38.81802,148],[-90.38945,38.81803,147],[-90.38949,38.81801,147],[-90.38953,38.81799,148],[-90.38956,38.81798,148],[-90.38959,38.81796,148],[-90.38962,38.81794,148],[-90.38965,38.81792,149],[-90.38968,38.8179,149],[-90.3897,38.81788,149],[-90.38974,38.81787,149],[-90.38978,38.81786,149],[-90.38982,38.81785,148],[-90.38986,38.81785,148],[-90.38989,38.81786,147],[-90.38989,38.81783,148],[-90.38992,38.8178,148],[-90.38996,38.81779,148],[-90.38999,38.81777,148],[-90.39002,38.81774,148],[-90.39005,38.81772,147],[-90.39009,38.81773,147],[-90.39012,38.81773,146],[-90.39016,38.81772,146],[-90.39019,38.8177,146],[-90.39022,38.81768,145],[-90.39022,38.81765,146],[-90.39025,38.81763,146],[-90.39029,38.81762,146],[-90.39033,38.81761,146],[-90.39036,38.8176,145],[-90.39037,38.81758,146],[-90.39033,38.81758,146],[-90.39029,38.81758,147],[-90.39025,38.81757,147],[-90.39021,38.81757,148],[-90.39018,38.81757,148],[-90.39019,38.81754,149],[-90.39022,38.81752,149],[-90.39023,38.81749,149],[-90.39027,38.81749,149],[-90.39032,38.81748,149],[-90.39035,38.81747,149],[-90.39039,38.81746,149],[-90.39043,38.81747,148],[-90.39047,38.81746,148],[-90.3905,38.81744,148],[-90.39053,38.81743,148],[-90.39052,38.8174,149],[-90.39048,38.8174,150],[-90.39045,38.8174,150],[-90.39042,38.81739,151],[-90.39039,38.81736,152],[-90.39036,38.81734,153],[-90.39037,38.81732,153],[-90.39041,38.81734,152],[-90.39044,38.81737,151],[-90.39047,38.81739,150],[-90.39051,38.8174,149],[-90.39054,38.81743,148],[-90.39057,38.81745,147],[-90.39059,38.81743,148],[-90.3906,38.81739,149],[-90.3906,38.81736,150],[-90.39059,38.81733,151],[-90.39056,38.81731,152],[-90.39057,38.81728,153],[-90.3906,38.81726,153],[-90.3906,38.81723,154],[-90.39061,38.8172,155],[-90.39061,38.81716,157],[-90.39061,38.81713,158],[-90.39062,38.8171,159],[-90.39062,38.81707,160],[-90.39063,38.81703,161],[-90.39062,38.817,162],[-90.39059,38.81698,163],[-90.39057,38.81695,164],[-90.39056,38.81693,165],[-90.39055,38.8169,165],[-90.39054,38.81687,165],[-90.39057,38.81686,165],[-90.3906,38.81684,165],[-90.39064,38.81683,165],[-90.39068,38.81683,165],[-90.39073,38.81683,164],[-90.39076,38.81684,164],[-90.3908,38.81684,164],[-90.39084,38.81685,163],[-90.39087,38.81686,163],[-90.39091,38.81685,162],[-90.39091,38.81682,163],[-90.39089,38.8168,164],[-90.39087,38.81677,164],[-90.39089,38.81675,165],[-90.39089,38.81678,164],[-90.39092,38.81675,164],[-90.39095,38.81671,165],[-90.39096,38.81668,166],[-90.39097,38.81671,165],[-90.39098,38.81675,164],[-90.39099,38.81677,163],[-90.39103,38.81678,163],[-90.39106,38.81682,162],[-90.39109,38.81684,161],[-90.39113,38.81686,160],[-90.39116,38.81685,159],[-90.39118,38.81682,160],[-90.3912,38.8168,160],[-90.39122,38.81678,161],[-90.39126,38.81677,160],[-90.39129,38.81675,160],[-90.39131,38.81673,161],[-90.39134,38.81671,161],[-90.39136,38.81668,161],[-90.39139,38.81666,162],[-90.39141,38.81664,162],[-90.39145,38.81663,161],[-90.39146,38.81666,160],[-90.39144,38.81668,160],[-90.39143,38.81666,161],[-90.39145,38.81662,162],[-90.39147,38.8166,162],[-90.39149,38.81657,162],[-90.39149,38.81654,163],[-90.39148,38.81657,163],[-90.39151,38.81655,162],[-90.39154,38.81653,162],[-90.39158,38.81651,162],[-90.39158,38.81648,163],[-90.39159,38.81645,164],[-90.39161,38.81642,164],[-90.39163,38.81639,164],[-90.39165,38.81637,165],[-90.39167,38.81634,165],[-90.39168,38.81632,166],[-90.39168,38.81629,167],[-90.3917,38.81625,168],[-90.39171,38.81622,168],[-90.39172,38.81619,169],[-90.39172,38.81616,170],[-90.39173,38.81613,171],[-90.39174,38.8161,172],[-90.39175,38.81607,172],[-90.39176,38.81603,173],[-90.39177,38.816,173],[-90.39178,38.81596,174],[-90.39178,38.81592,174],[-90.39178,38.81589,175],[-90.39178,38.81585,176],[-90.39177,38.81582,177],[-90.39177,38.81579,177],[-90.39175,38.81575,178],[-90.39176,38.81572,178],[-90.39179,38.8157,178],[-90.39183,38.81569,177],[-90.39187,38.81568,177],[-90.3919,38.81568,176],[-90.39194,38.81568,175],[-90.39197,38.81569,174],[-90.39201,38.8157,171],[-90.39198,38.81569,173],[-90.39193,38.81568,175],[-90.39188,38.81568,176],[-90.39184,38.81569,177],[-90.3918,38.81571,178],[-90.39176,38.81572,178],[-90.39172,38.81572,179],[-90.39168,38.81569,181],[-90.39166,38.81566,181],[-90.39164,38.81564,182],[-90.39161,38.81561,182],[-90.39158,38.81558,183],[-90.39155,38.81556,183],[-90.39151,38.81555,184],[-90.39148,38.81553,184],[-90.39144,38.8155,184],[-90.39142,38.81549,184],[-90.39137,38.81547,185],[-90.39133,38.81546,185],[-90.39129,38.81546,185],[-90.39126,38.81546,185],[-90.39122,38.81547,185],[-90.39117,38.81547,186],[-90.39112,38.81548,186],[-90.39109,38.81549,186],[-90.39104,38.81551,185],[-90.39101,38.81552,185],[-90.39098,38.81554,185],[-90.39094,38.81555,185],[-90.39089,38.81556,185],[-90.39085,38.81556,185],[-90.3908,38.81556,184],[-90.39075,38.81555,184],[-90.39071,38.81555,183],[-90.39067,38.81555,183],[-90.39063,38.81554,182],[-90.3906,38.81554,182],[-90.39056,38.81552,182],[-90.39052,38.81552,181],[-90.39047,38.81551,181],[-90.39043,38.81549,180],[-90.39041,38.81547,180],[-90.39037,38.81546,180],[-90.39033,38.81544,180],[-90.39029,38.81543,179],[-90.39026,38.81543,179],[-90.39022,38.81541,179],[-90.39017,38.8154,180],[-90.39013,38.81539,180],[-90.3901,38.81537,180],[-90.39006,38.81536,180],[-90.39002,38.81534,180],[-90.38999,38.81533,181],[-90.38995,38.8153,181],[-90.38992,38.81528,182],[-90.38989,38.81526,182],[-90.38985,38.81524,183],[-90.38982,38.81521,184],[-90.3898,38.81518,184],[-90.38978,38.81515,185],[-90.38975,38.81513,186],[-90.38972,38.81511,186],[-90.38969,38.81508,187],[-90.38966,38.81506,187],[-90.38963,38.81504,187],[-90.3896,38.81502,188],[-90.38957,38.81499,188],[-90.38956,38.81496,188],[-90.38954,38.81492,189],[-90.38953,38.81489,189],[-90.38953,38.81486,189],[-90.38951,38.81483,190],[-90.3895,38.81479,190],[-90.3895,38.81476,190],[-90.3895,38.81473,191],[-90.38951,38.8147,191],[-90.38952,38.81467,190],[-90.38954,38.81463,190],[-90.38954,38.81459,190],[-90.38953,38.81456,190],[-90.38952,38.81452,190],[-90.38952,38.81449,189],[-90.38952,38.81446,189],[-90.3895,38.81443,189],[-90.38948,38.8144,189],[-90.38946,38.81438,189],[-90.38943,38.81436,189],[-90.38939,38.81434,189],[-90.38936,38.81433,190],[-90.38932,38.81431,190],[-90.38928,38.8143,191],[-90.38924,38.81429,191],[-90.38919,38.81428,192],[-90.38915,38.81426,192],[-90.38912,38.81424,192],[-90.38909,38.81423,192],[-90.38905,38.81422,192],[-90.38899,38.81422,192],[-90.38895,38.81422,192],[-90.3889,38.81421,192],[-90.38886,38.81419,193],[-90.38883,38.81418,193],[-90.38879,38.81416,194],[-90.38875,38.81414,194],[-90.38872,38.81412,195],[-90.38868,38.81412,195],[-90.38863,38.81411,196],[-90.38859,38.8141,196],[-90.38856,38.81409,196],[-90.38852,38.81408,197],[-90.38849,38.81406,197],[-90.38846,38.81404,197],[-90.38842,38.81402,197],[-90.38838,38.814,197],[-90.38835,38.81399,198],[-90.38831,38.81398,198],[-90.38828,38.81397,198],[-90.38824,38.81396,198],[-90.38821,38.81395,198],[-90.38817,38.81395,198],[-90.38812,38.81395,198],[-90.38808,38.81395,199],[-90.38803,38.81395,199],[-90.38799,38.81395,199],[-90.38795,38.81396,199],[-90.38792,38.81397,199],[-90.38788,38.81397,199],[-90.38784,38.81398,199],[-90.3878,38.81397,199],[-90.38776,38.81396,200],[-90.38773,38.81395,200],[-90.38769,38.81393,200],[-90.38765,38.81391,200],[-90.38761,38.81389,199],[-90.38758,38.81387,199],[-90.38756,38.81385,199],[-90.38752,38.81383,199],[-90.3875,38.8138,198],[-90.3875,38.81377,198],[-90.3875,38.81373,197],[-90.38751,38.8137,197],[-90.38751,38.81366,196],[-90.38752,38.81363,196],[-90.38752,38.8136,196],[-90.38753,38.81356,195],[-90.38754,38.81353,195],[-90.38755,38.81351,195],[-90.38757,38.81348,195],[-90.38758,38.81345,195],[-90.38759,38.81341,195],[-90.38758,38.81337,194],[-90.38759,38.81333,194],[-90.38763,38.81332,194],[-90.38767,38.81331,195],[-90.38771,38.81329,195],[-90.38775,38.81329,195],[-90.38778,38.81328,195],[-90.38782,38.81328,195],[-90.38786,38.81327,195],[-90.3879,38.81327,195],[-90.38794,38.81326,194],[-90.38797,38.81324,194],[-90.38797,38.81321,194],[-90.38799,38.81319,193],[-90.38801,38.81316,193],[-90.38802,38.81314,192],[-90.38804,38.81311,192],[-90.38805,38.81309,191],[-90.38806,38.81306,190],[-90.38807,38.81302,190],[-90.38808,38.81299,189],[-90.38808,38.81296,189],[-90.38808,38.81292,188],[-90.38808,38.81289,188],[-90.38809,38.81286,187],[-90.38809,38.81283,187],[-90.38809,38.8128,187],[-90.38811,38.81277,186],[-90.38814,38.81275,185],[-90.38817,38.81274,183],[-90.3882,38.81273,182],[-90.38824,38.81271,181],[-90.38827,38.8127,180],[-90.3883,38.81269,179],[-90.38834,38.81269,178],[-90.38838,38.8127,177],[-90.38842,38.8127,175],[-90.38845,38.81268,174],[-90.38849,38.81268,173],[-90.38853,38.81268,172],[-90.38854,38.81265,171],[-90.38856,38.81263,170],[-90.38859,38.81261,170],[-90.38861,38.81259,169],[-90.38861,38.81256,169],[-90.38862,38.81252,168],[-90.38863,38.8125,168],[-90.38865,38.81248,168],[-90.38867,38.81245,167],[-90.38867,38.81242,166],[-90.38865,38.8124,166],[-90.38864,38.81236,166],[-90.38866,38.81234,165],[-90.38867,38.8123,164],[-90.38869,38.81227,164],[-90.38871,38.81226,163],[-90.38875,38.81226,163],[-90.38879,38.81225,163],[-90.38881,38.81221,162],[-90.38883,38.81219,161],[-90.38886,38.81217,161],[-90.38886,38.81215,160],[-90.38885,38.81212,160],[-90.38882,38.81209,160],[-90.38879,38.81207,160],[-90.38876,38.81206,160],[-90.38873,38.81203,160],[-90.38871,38.81201,160],[-90.38869,38.81198,161],[-90.38867,38.81196,161],[-90.38865,38.81193,161],[-90.38863,38.8119,162],[-90.38862,38.81187,162],[-90.38863,38.81183,162],[-90.38865,38.8118,162],[-90.38867,38.81176,162],[-90.38869,38.81174,162],[-90.38872,38.81171,162],[-90.38874,38.81169,162],[-90.38877,38.81167,162],[-90.38879,38.81164,161],[-90.38881,38.81162,161],[-90.38883,38.81158,160],[-90.38883,38.81154,160],[-90.38887,38.81153,159],[-90.38891,38.81153,158],[-90.38894,38.81153,157],[-90.38899,38.81152,156],[-90.38903,38.8115,155],[-90.38906,38.81149,154],[-90.3891,38.81148,153],[-90.38913,38.81147,152],[-90.38918,38.81147,152],[-90.38921,38.81146,152],[-90.38923,38.81144,152],[-90.38925,38.81141,152],[-90.38927,38.81138,152],[-90.3893,38.81136,152],[-90.38934,38.81135,152],[-90.38938,38.81136,152],[-90.38942,38.81136,152],[-90.38944,38.81134,152],[-90.38945,38.8113,151],[-90.38947,38.81128,151],[-90.38949,38.81124,151],[-90.38952,38.81122,151],[-90.38955,38.81121,151],[-90.38959,38.8112,151],[-90.38964,38.81119,151],[-90.38968,38.81119,150],[-90.38973,38.8112,150],[-90.38976,38.8112,150],[-90.3898,38.81119,149],[-90.38983,38.81118,149],[-90.38988,38.81116,148],[-90.38993,38.81116,147],[-90.38996,38.81116,147],[-90.39001,38.81117,146],[-90.39006,38.81117,145],[-90.3901,38.81118,145],[-90.39015,38.81118,144],[-90.3902,38.81119,143],[-90.39024,38.81119,143],[-90.39029,38.81119,142],[-90.39033,38.8112,142],[-90.39037,38.8112,142],[-90.39041,38.81122,142],[-90.39044,38.81124,142],[-90.39048,38.81126,142],[-90.39053,38.81127,142],[-90.39057,38.81127,142],[-90.39061,38.81128,142],[-90.39065,38.81126,142],[-90.39069,38.81125,142],[-90.39073,38.81123,142],[-90.39077,38.81121,141],[-90.3908,38.81121,141],[-90.39084,38.8112,141],[-90.39087,38.81119,141],[-90.39089,38.81122,141],[-90.39091,38.81125,141],[-90.39094,38.81128,141],[-90.39097,38.81131,141],[-90.39098,38.81133,141],[-90.39101,38.81136,141],[-90.39105,38.81138,141],[-90.39107,38.81141,141],[-90.3911,38.81143,141],[-90.39112,38.81147,142],[-90.39113,38.8115,142],[-90.39114,38.81153,142],[-90.39113,38.81157,143],[-90.39111,38.8116,144],[-90.39109,38.81163,144],[-90.39106,38.81166,145],[-90.39103,38.81168,145],[-90.391,38.81171,146],[-90.39098,38.81174,147],[-90.39096,38.81178,147],[-90.39095,38.81182,148],[-90.39095,38.81185,148],[-90.39095,38.81188,149],[-90.39096,38.81192,150],[-90.39097,38.81195,150],[-90.39097,38.81198,150],[-90.39097,38.81201,150],[-90.39096,38.81204,150],[-90.39096,38.81207,150],[-90.39095,38.8121,149],[-90.39094,38.81214,149],[-90.39093,38.81216,149],[-90.39092,38.81219,149],[-90.3909,38.81223,149],[-90.39088,38.81226,148],[-90.39086,38.81229,148],[-90.39088,38.81232,147],[-90.39091,38.81234,146],[-90.39094,38.81236,146],[-90.39098,38.81238,145],[-90.39102,38.81241,144],[-90.39103,38.81244,143],[-90.39102,38.81247,142],[-90.39102,38.8125,141],[-90.39103,38.81254,142],[-90.39103,38.81257,143],[-90.39104,38.81261,144],[-90.39105,38.81264,144],[-90.39106,38.81267,145],[-90.39108,38.8127,145],[-90.39108,38.81273,146],[-90.39108,38.81276,147],[-90.39108,38.81279,147],[-90.39109,38.81282,148],[-90.39111,38.81284,148],[-90.39113,38.81287,149],[-90.39115,38.8129,149],[-90.39117,38.81293,150],[-90.3912,38.81296,150],[-90.39122,38.81299,150],[-90.39123,38.81302,151],[-90.39125,38.81306,152],[-90.39127,38.8131,151],[-90.3913,38.81313,151],[-90.39133,38.81315,151],[-90.39137,38.81317,150],[-90.39139,38.81319,150],[-90.3914,38.81322,150],[-90.39142,38.81325,150],[-90.39145,38.81327,149],[-90.39149,38.81328,149],[-90.39152,38.8133,148],[-90.39155,38.81332,148],[-90.39158,38.81334,148],[-90.39161,38.81337,147],[-90.39164,38.81339,146],[-90.39167,38.81342,145],[-90.39168,38.81345,145],[-90.39168,38.81348,144],[-90.39169,38.81351,144],[-90.3917,38.81354,143],[-90.3917,38.81357,143],[-90.39172,38.81361,142],[-90.39174,38.81363,142],[-90.39177,38.81366,142],[-90.39179,38.81368,142],[-90.39181,38.81371,142],[-90.39184,38.81374,141],[-90.39186,38.81376,141],[-90.39189,38.81378,140],[-90.39193,38.81378,139],[-90.39195,38.81376,139],[-90.39195,38.81373,139],[-90.39194,38.8137,140],[-90.39193,38.81367,140],[-90.39193,38.8137,140],[-90.39191,38.81372,140],[-90.39192,38.81375,139],[-90.39194,38.81378,139],[-90.39193,38.81382,139],[-90.39193,38.81385,138],[-90.39197,38.81388,137],[-90.39201,38.81389,136],[-90.39204,38.81391,137],[-90.39207,38.81393,138],[-90.3921,38.81396,139],[-90.39214,38.81397,139],[-90.39219,38.81399,140],[-90.39222,38.81401,140],[-90.39227,38.81402,141],[-90.39232,38.81403,142],[-90.39235,38.81401,141],[-90.39236,38.81398,140],[-90.39237,38.81396,139],[-90.39241,38.81395,139],[-90.39243,38.81393,138],[-90.39245,38.8139,137],[-90.39246,38.81386,137],[-90.39247,38.81383,137],[-90.39249,38.8138,138],[-90.39252,38.81377,138],[-90.39253,38.81373,138],[-90.39254,38.81371,138],[-90.39255,38.81367,138],[-90.39257,38.81363,138],[-90.39258,38.8136,138],[-90.39261,38.81357,138],[-90.39263,38.81355,137],[-90.39265,38.81352,137],[-90.39267,38.81349,137],[-90.39268,38.81346,136],[-90.39267,38.81343,136],[-90.39264,38.81341,136],[-90.39261,38.81339,136],[-90.39257,38.81338,136],[-90.39254,38.81335,136],[-90.39251,38.81333,136],[-90.39247,38.81332,137],[-90.39243,38.8133,137],[-90.3924,38.81327,137],[-90.39236,38.81325,137],[-90.39233,38.81323,137],[-90.3923,38.8132,137],[-90.39226,38.81317,137],[-90.39223,38.81316,137],[-90.39223,38.81313,137],[-90.39221,38.81316,137],[-90.3922,38.81313,137],[-90.39215,38.81311,137],[-90.39211,38.81309,138],[-90.39207,38.81307,138],[-90.39203,38.81304,138],[-90.39201,38.81303,138],[-90.39199,38.813,137],[-90.39196,38.81298,137],[-90.39192,38.81296,137],[-90.39189,38.81294,138],[-90.39186,38.81292,138],[-90.39181,38.8129,138],[-90.39177,38.81289,139],[-90.39173,38.81287,139],[-90.39169,38.81285,139],[-90.39165,38.81283,140],[-90.39161,38.81282,140],[-90.39157,38.8128,140],[-90.39154,38.81278,140],[-90.39151,38.81276,140],[-90.39149,38.81273,140],[-90.39148,38.8127,139],[-90.39148,38.81266,139],[-90.39149,38.81264,138],[-90.39152,38.8126,137],[-90.39154,38.81258,137],[-90.39156,38.81255,136],[-90.39159,38.81252,135],[-90.39161,38.81249,135],[-90.39164,38.81246,135],[-90.39166,38.81243,135],[-90.39168,38.8124,136],[-90.3917,38.81238,136],[-90.39173,38.81236,136],[-90.39175,38.81234,136],[-90.39177,38.81231,136],[-90.3918,38.81228,137],[-90.39183,38.81224,137],[-90.39186,38.81222,137],[-90.39188,38.8122,137],[-90.39192,38.81216,137],[-90.39196,38.81214,137],[-90.392,38.81213,137],[-90.39204,38.81213,137],[-90.39208,38.81214,136],[-90.39212,38.81214,136],[-90.39217,38.81216,136],[-90.39221,38.81218,136],[-90.39225,38.8122,135],[-90.39229,38.81222,135],[-90.39232,38.81223,135],[-90.39237,38.81225,135],[-90.39241,38.81226,135],[-90.3924,38.81229,135],[-90.3924,38.81232,135],[-90.39241,38.81235,135],[-90.39245,38.81237,135],[-90.39248,38.81238,135],[-90.39251,38.8124,135],[-90.39254,38.81243,135],[-90.39256,38.81245,135],[-90.3926,38.81246,135],[-90.39263,38.81248,134],[-90.39267,38.81249,134],[-90.3927,38.81251,134],[-90.39274,38.81252,134],[-90.39277,38.81253,134],[-90.39282,38.81255,134],[-90.39285,38.81257,134],[-90.39289,38.81259,134],[-90.39293,38.81261,134],[-90.39297,38.81263,134],[-90.39301,38.81265,134],[-90.39305,38.81267,134],[-90.39309,38.81269,134],[-90.39312,38.81271,134],[-90.39316,38.81274,134],[-90.39319,38.81276,134],[-90.39322,38.81278,134],[-90.39325,38.8128,134],[-90.39328,38.81283,134],[-90.39332,38.81285,134],[-90.39336,38.81287,134],[-90.39341,38.81288,133],[-90.39345,38.81288,133],[-90.39349,38.81286,133],[-90.39353,38.81284,133],[-90.39356,38.81282,133],[-90.39359,38.81279,133],[-90.39362,38.81277,134],[-90.39365,38.81274,134],[-90.39369,38.81272,134],[-90.39371,38.8127,134],[-90.39374,38.81267,134],[-90.39378,38.81265,135],[-90.39382,38.81265,135],[-90.39385,38.81263,135],[-90.39387,38.81261,135],[-90.39391,38.81258,136],[-90.39394,38.81256,136],[-90.39397,38.81254,136],[-90.394,38.81251,136],[-90.39403,38.81248,137],[-90.39406,38.81245,137],[-90.39409,38.81242,137],[-90.39412,38.81239,137],[-90.39415,38.81237,137],[-90.39418,38.81235,137],[-90.3942,38.81233,137],[-90.39423,38.81231,137],[-90.39426,38.81229,137],[-90.39428,38.81227,137],[-90.39431,38.81224,137],[-90.39434,38.81221,138],[-90.39437,38.81219,138],[-90.3944,38.81216,138],[-90.39444,38.81214,138],[-90.39447,38.81211,137],[-90.3945,38.81208,137],[-90.39452,38.81206,137],[-90.39456,38.81203,137],[-90.39458,38.81201,137],[-90.39461,38.81199,137],[-90.39463,38.81196,137],[-90.39466,38.81193,137],[-90.39469,38.81191,136],[-90.39472,38.81189,136],[-90.39476,38.81187,135],[-90.39479,38.81184,135],[-90.39482,38.81182,135],[-90.39484,38.8118,134],[-90.39487,38.81177,134],[-90.3949,38.81174,134],[-90.39494,38.81172,133],[-90.39498,38.8117,133],[-90.39501,38.81168,133],[-90.39504,38.81166,132],[-90.39508,38.81165,132],[-90.39511,38.81164,132],[-90.39515,38.81162,132],[-90.39518,38.8116,132],[-90.39521,38.81159,132],[-90.39525,38.81157,132],[-90.39528,38.81155,133],[-90.39532,38.81153,133],[-90.39536,38.81151,133],[-90.39539,38.81148,133],[-90.39542,38.81146,133],[-90.39545,38.81144,133],[-90.39548,38.81142,133],[-90.39551,38.8114,133],[-90.39554,38.81137,133],[-90.39558,38.81135,133],[-90.3956,38.81132,133],[-90.39557,38.81132,133],[-90.39554,38.81135,133],[-90.39551,38.81138,133],[-90.39548,38.81141,133],[-90.39545,38.81144,133],[-90.39542,38.81147,133],[-90.39539,38.8115,133],[-90.39536,38.81153,133],[-90.39533,38.81155,133],[-90.3953,38.81158,133],[-90.39527,38.81161,132],[-90.39524,38.81163,132],[-90.3952,38.81165,132],[-90.39517,38.81168,133],[-90.39514,38.8117,133],[-90.39511,38.81173,133]]],
        "bbox": [
          -90.38568,
          38.81969,
          -90.3956,
          38.81116
        ]
      },
      "properties": {
        "name": "2.15.2020"
      }
    }
  ]
}