{
  "type": "FeatureCollection",
  "features": [
    {
      "type": "Feature",
      "geometry": {
        "type": "MultiLineString",
        "coordinates": [[[-90.39489,38.81174,134],[-90.39486,38.81177,134],[-90.39483,38.8118,134],[-90.39481,38.81184,135],[-90.39477,38.81186,135],[-90.39473,38.81188,136],[-90.39469,38.8119,136],[-90.39464,38.81192,137],[-90.39463,38.81195,137],[-90.39456,38.812,137],[-90.39452,38.81206,137],[-90.39449,38.8121,137],[-90.39444,38.81213,138],[-90.39439,38.81215,138],[-90.39435,38.81214,138],[-90.39431,38.81217,138],[-90.39429,38.8122,138],[-90.39426,38.81224,137],[-90.39422,38.81227,137],[-90.39418,38.81228,137],[-90.39414,38.8123,137],[-90.3941,38.81232,137],[-90.39407,38.81234,137],[-90.39403,38.81235,137],[-90.394,38.81237,137],[-90.39399,38.8124,137],[-90.39397,38.81243,137],[-90.39396,38.81246,137],[-90.39395,38.8125,137],[-90.39392,38.81253,136],[-90.39389,38.81256,136],[-90.39388,38.81259,135],[-90.39386,38.81262,135],[-90.39382,38.81264,135],[-90.39378,38.81266,135],[-90.39375,38.81268,134],[-90.39371,38.8127,134],[-90.39368,38.81271,134],[-90.39363,38.81271,134],[-90.39358,38.81272,134],[-90.39354,38.81274,134],[-90.39351,38.81276,134],[-90.39348,38.81279,134],[-90.39344,38.81282,134],[-90.39341,38.81284,134],[-90.39337,38.81287,134],[-90.39333,38.81288,134],[-90.3933,38.81291,134],[-90.39328,38.81293,133],[-90.39326,38.81296,133],[-90.39324,38.81298,133],[-90.39321,38.81301,133],[-90.39306,38.81305,133],[-90.39301,38.81308,133],[-90.39293,38.8131,133],[-90.3929,38.81311,133],[-90.39286,38.81313,133],[-90.39284,38.81315,134],[-90.39282,38.81318,134],[-90.39279,38.8132,134],[-90.39277,38.81324,134],[-90.39275,38.81328,134],[-90.39272,38.81332,135],[-90.39264,38.81335,136],[-90.39257,38.81336,136],[-90.39251,38.81337,137],[-90.39247,38.8134,137],[-90.39252,38.81343,137],[-90.3925,38.81347,137],[-90.39249,38.81353,138],[-90.39249,38.81363,138],[-90.39249,38.81366,138],[-90.39249,38.8137,138],[-90.39248,38.81373,138],[-90.39246,38.81378,137],[-90.39245,38.81381,137],[-90.39243,38.81385,137],[-90.39241,38.81388,136],[-90.39239,38.81392,137],[-90.39237,38.81395,138],[-90.39236,38.81399,141],[-90.39233,38.81403,142],[-90.39229,38.81405,143],[-90.39224,38.81403,142],[-90.39218,38.81401,141],[-90.39213,38.81398,140],[-90.39208,38.81395,139],[-90.39205,38.81392,137],[-90.39203,38.8139,137],[-90.392,38.81387,137],[-90.39198,38.81384,137],[-90.39195,38.81381,138],[-90.39191,38.81378,140],[-90.39187,38.81376,141],[-90.39183,38.81373,141],[-90.39178,38.8137,142],[-90.39174,38.81366,142],[-90.39172,38.81362,142],[-90.3917,38.81358,143],[-90.39168,38.81354,143],[-90.39168,38.8135,144],[-90.39165,38.81347,145],[-90.39163,38.81344,146],[-90.39161,38.81341,146],[-90.39159,38.81338,147],[-90.39159,38.81333,148],[-90.39153,38.81328,148],[-90.39147,38.81323,149],[-90.39142,38.81318,149],[-90.39135,38.81314,150],[-90.39129,38.81312,151],[-90.39125,38.81309,152],[-90.39121,38.81306,152],[-90.39119,38.81302,151],[-90.39116,38.81298,151],[-90.39116,38.81294,150],[-90.39117,38.81291,149],[-90.39116,38.81287,148],[-90.39115,38.81282,147],[-90.39116,38.81278,146],[-90.39115,38.81273,145],[-90.39112,38.81268,144],[-90.39108,38.81262,143],[-90.39106,38.81256,142],[-90.39102,38.8125,141],[-90.39097,38.81245,143],[-90.39094,38.81239,145],[-90.39092,38.81233,147],[-90.39091,38.81227,148],[-90.39091,38.8122,149],[-90.3909,38.81214,149],[-90.3909,38.81207,149],[-90.39091,38.812,149],[-90.39094,38.81193,149],[-90.39095,38.81187,149],[-90.39098,38.8118,148],[-90.39103,38.81173,146],[-90.39108,38.81168,145],[-90.39111,38.81163,144],[-90.39112,38.81157,143],[-90.3911,38.81151,142],[-90.39107,38.81145,142],[-90.39106,38.81139,141],[-90.39102,38.81134,141],[-90.39098,38.81129,141],[-90.39092,38.81124,141],[-90.39087,38.8112,141],[-90.39083,38.81116,141],[-90.39078,38.81112,141],[-90.39082,38.81108,140],[-90.39082,38.81105,140],[-90.39082,38.81101,139],[-90.39081,38.81099,139],[-90.39081,38.81096,139],[-90.39079,38.81093,139],[-90.39078,38.81091,139],[-90.39076,38.81088,138],[-90.39074,38.81085,138],[-90.39071,38.81082,138],[-90.39067,38.8108,139],[-90.39064,38.81079,139],[-90.3906,38.81077,139],[-90.39057,38.81077,139],[-90.39054,38.81075,139],[-90.3905,38.81075,139],[-90.39046,38.81074,140],[-90.39042,38.81072,140],[-90.39038,38.81071,140],[-90.39034,38.8107,140],[-90.3903,38.8107,140],[-90.39026,38.8107,140],[-90.39021,38.8107,140],[-90.39018,38.8107,141],[-90.39012,38.8107,141],[-90.39008,38.8107,141],[-90.39003,38.81071,142],[-90.39,38.81071,142],[-90.38996,38.81073,142],[-90.38991,38.81072,143],[-90.38988,38.81069,143],[-90.38984,38.81067,143],[-90.38979,38.81065,143],[-90.38975,38.81063,143],[-90.3897,38.8106,142],[-90.38964,38.81059,142],[-90.38959,38.81058,142],[-90.38954,38.81057,142],[-90.38949,38.81056,142],[-90.38944,38.81054,142],[-90.38941,38.81052,143],[-90.38937,38.81048,143],[-90.38935,38.81045,143],[-90.38933,38.81042,143],[-90.38931,38.81038,143],[-90.38929,38.81036,143],[-90.38927,38.81033,142],[-90.38925,38.8103,142],[-90.38925,38.81027,142],[-90.38924,38.81024,142],[-90.38923,38.81021,143],[-90.38921,38.81018,143],[-90.38919,38.81016,143],[-90.38918,38.81013,143],[-90.38917,38.8101,143],[-90.38916,38.81007,143],[-90.38916,38.81004,144],[-90.38915,38.81001,144],[-90.38915,38.80997,144],[-90.38914,38.80994,144],[-90.38912,38.80991,144],[-90.38911,38.80989,145],[-90.38911,38.80986,144],[-90.3891,38.80983,145],[-90.38908,38.80979,145],[-90.38905,38.80976,145],[-90.38903,38.80974,145],[-90.389,38.8097,145],[-90.38899,38.80967,145],[-90.38895,38.80964,145],[-90.38893,38.80961,145],[-90.3889,38.80959,145],[-90.38887,38.80957,145],[-90.38887,38.80953,145],[-90.38889,38.80949,144],[-90.38889,38.80945,144],[-90.38886,38.80942,144],[-90.38882,38.80939,144],[-90.38878,38.80935,143],[-90.38874,38.80932,143],[-90.38872,38.80929,143],[-90.38871,38.80925,142],[-90.38871,38.80921,142],[-90.38869,38.80918,141],[-90.38868,38.80914,141],[-90.38867,38.8091,141],[-90.38864,38.80905,141],[-90.38862,38.80901,141],[-90.38861,38.80897,141],[-90.3886,38.80892,141],[-90.3886,38.80889,141],[-90.38861,38.80885,141],[-90.38859,38.8088,141],[-90.38858,38.80876,141],[-90.38857,38.80873,141],[-90.38856,38.80868,142],[-90.38853,38.80865,142],[-90.38852,38.80862,142],[-90.38852,38.80858,142],[-90.38852,38.80855,142],[-90.38852,38.80851,142],[-90.38852,38.80848,142],[-90.38852,38.80845,142],[-90.38852,38.80842,142],[-90.38851,38.80839,142],[-90.3885,38.80836,142],[-90.38848,38.80833,142],[-90.38848,38.8083,142],[-90.38848,38.80827,142],[-90.38848,38.80824,142],[-90.38847,38.80821,142],[-90.38846,38.80818,142],[-90.38845,38.80815,142],[-90.38844,38.80812,141],[-90.38844,38.80809,141],[-90.38844,38.80806,141],[-90.38844,38.80803,141],[-90.38843,38.808,141],[-90.38841,38.80797,142],[-90.38839,38.80794,142],[-90.38839,38.80791,142],[-90.38838,38.80788,142],[-90.38837,38.80784,143],[-90.38836,38.80781,143],[-90.38836,38.80778,143],[-90.38835,38.80775,143],[-90.38834,38.80772,143],[-90.38833,38.80769,143],[-90.38832,38.80766,143],[-90.38831,38.80763,143],[-90.38831,38.8076,143],[-90.38831,38.80757,142],[-90.3883,38.80754,143],[-90.38828,38.80751,143],[-90.38826,38.80749,143],[-90.38825,38.80745,143],[-90.38824,38.80741,143],[-90.38823,38.80738,143],[-90.38822,38.80736,143],[-90.38821,38.80732,143],[-90.38821,38.80729,143],[-90.38821,38.80726,143],[-90.3882,38.80723,143],[-90.38822,38.8072,142],[-90.38825,38.80718,141],[-90.38826,38.80715,141],[-90.38826,38.80712,140],[-90.38826,38.80708,140],[-90.38825,38.80705,140],[-90.38824,38.80702,140],[-90.38823,38.80698,139],[-90.38822,38.80696,139],[-90.38821,38.80693,139],[-90.3882,38.8069,139],[-90.38821,38.80687,139],[-90.38822,38.80684,138],[-90.38823,38.8068,137],[-90.38822,38.80676,137],[-90.3882,38.80673,137],[-90.38819,38.8067,137],[-90.38817,38.80667,138],[-90.38815,38.80664,138],[-90.38813,38.80661,139],[-90.38812,38.80658,139],[-90.38812,38.80655,140],[-90.38811,38.80651,140],[-90.38808,38.80648,141],[-90.38807,38.80645,141],[-90.38808,38.80642,141],[-90.38809,38.80639,141],[-90.3881,38.80635,141],[-90.38811,38.80632,141],[-90.38812,38.80629,140],[-90.38812,38.80625,140],[-90.38812,38.80622,140],[-90.38811,38.80618,140],[-90.3881,38.80615,141],[-90.3881,38.80611,141],[-90.38808,38.80609,141],[-90.38804,38.80605,142],[-90.38802,38.80603,142],[-90.38798,38.806,144],[-90.38799,38.80604,143],[-90.38802,38.8061,142],[-90.38803,38.80614,142],[-90.38805,38.80618,142],[-90.38807,38.80621,141],[-90.3881,38.80624,141],[-90.38806,38.80627,141],[-90.38802,38.80628,142],[-90.38799,38.8063,143],[-90.38797,38.80633,144],[-90.38797,38.80636,144],[-90.38797,38.80639,144],[-90.38798,38.80642,144],[-90.388,38.80645,143],[-90.38802,38.80647,142],[-90.38804,38.8065,142],[-90.38803,38.80653,142],[-90.38801,38.80656,142],[-90.38801,38.80659,142],[-90.38801,38.80662,142],[-90.38801,38.80665,142],[-90.38802,38.80669,142],[-90.38805,38.80672,141],[-90.38807,38.80674,141],[-90.38809,38.80678,140],[-90.3881,38.80682,141],[-90.38809,38.80686,141],[-90.38808,38.80689,142],[-90.38807,38.80694,142],[-90.38808,38.80698,142],[-90.3881,38.80702,142],[-90.38812,38.80705,142],[-90.38813,38.80709,143],[-90.38814,38.80713,143],[-90.38816,38.80716,143],[-90.38817,38.8072,143],[-90.38817,38.80724,144],[-90.38818,38.80729,144],[-90.38818,38.80734,144],[-90.38821,38.80737,144],[-90.38823,38.80741,143],[-90.38824,38.80745,143],[-90.38827,38.80749,143],[-90.38829,38.80753,143],[-90.38828,38.80757,143],[-90.38829,38.80761,143],[-90.3883,38.80765,143],[-90.38831,38.80769,143],[-90.38832,38.80773,143],[-90.38834,38.80777,143],[-90.38835,38.80781,143],[-90.38836,38.80785,143],[-90.38837,38.80789,143],[-90.38838,38.80793,142],[-90.38839,38.80798,142],[-90.38841,38.80803,141],[-90.38838,38.80806,142],[-90.38839,38.8081,142],[-90.3884,38.80815,142],[-90.38841,38.80818,142],[-90.38841,38.80822,143],[-90.38841,38.80826,143],[-90.3884,38.8083,144],[-90.3884,38.80834,144],[-90.38841,38.80838,144],[-90.38842,38.80841,144],[-90.38843,38.80846,144],[-90.38844,38.8085,144],[-90.38845,38.80854,144],[-90.38847,38.80858,143],[-90.38847,38.80862,143],[-90.38848,38.80866,143],[-90.38849,38.8087,143],[-90.3885,38.80875,143],[-90.38852,38.80879,142],[-90.38853,38.80883,142],[-90.38854,38.80887,142],[-90.38855,38.80893,142],[-90.38856,38.80898,142],[-90.38857,38.80902,142],[-90.38857,38.80906,142],[-90.38858,38.8091,142],[-90.38859,38.80914,142],[-90.38861,38.80917,142],[-90.38862,38.80921,142],[-90.38862,38.80925,143],[-90.38863,38.80929,144],[-90.38865,38.80932,144],[-90.38868,38.80936,144],[-90.38871,38.8094,145],[-90.38873,38.80944,145],[-90.38874,38.80948,146],[-90.38876,38.80952,146],[-90.38881,38.80956,146],[-90.38883,38.8096,146],[-90.38886,38.80964,146],[-90.3889,38.80967,146],[-90.38892,38.8097,146],[-90.38895,38.80974,146],[-90.38898,38.80977,146],[-90.38901,38.80981,146],[-90.38901,38.80984,146],[-90.38902,38.80989,146],[-90.38903,38.80992,146],[-90.38905,38.80994,146],[-90.38909,38.80996,145],[-90.38912,38.80996,144],[-90.38913,38.80998,144],[-90.38915,38.81001,144],[-90.38915,38.81005,144],[-90.38917,38.81008,143],[-90.38919,38.81012,143],[-90.3892,38.81015,143],[-90.38921,38.81019,143],[-90.38921,38.81023,143],[-90.38921,38.81031,143],[-90.38917,38.81033,143],[-90.38913,38.81034,144],[-90.38914,38.81037,144],[-90.38915,38.8104,144],[-90.38917,38.81043,144],[-90.38919,38.81047,144],[-90.38923,38.8105,144],[-90.38926,38.81052,144],[-90.38929,38.81054,144],[-90.38932,38.81056,143],[-90.38935,38.81059,144],[-90.38937,38.81061,144],[-90.38942,38.81064,144],[-90.38947,38.81065,144],[-90.38953,38.81067,145],[-90.38958,38.81069,145],[-90.38962,38.81071,145],[-90.38967,38.81074,145],[-90.38973,38.81074,145],[-90.38978,38.81075,144],[-90.38984,38.81075,144],[-90.38989,38.81076,144],[-90.38995,38.81076,143],[-90.39001,38.81077,143],[-90.39006,38.81078,142],[-90.39011,38.81079,142],[-90.39016,38.81079,142],[-90.3902,38.81078,141],[-90.39024,38.81076,141],[-90.39028,38.81077,141],[-90.39033,38.81078,141],[-90.39039,38.8108,140],[-90.39045,38.81082,140],[-90.3905,38.81083,140],[-90.39055,38.81085,140],[-90.39059,38.81087,140],[-90.39064,38.81089,139],[-90.39069,38.81091,139],[-90.39073,38.81094,139],[-90.39078,38.81096,139],[-90.39079,38.811,140],[-90.39078,38.81104,140],[-90.39077,38.81107,140],[-90.39078,38.8111,141],[-90.39077,38.81114,141],[-90.39077,38.81116,141],[-90.39079,38.81119,141],[-90.39081,38.81121,141],[-90.39082,38.81124,141],[-90.39086,38.81126,141],[-90.39085,38.81123,141],[-90.3908,38.81122,141],[-90.39076,38.81124,142],[-90.3907,38.81125,142],[-90.39066,38.81126,142],[-90.39061,38.81127,142],[-90.39056,38.81126,142],[-90.3905,38.81126,142],[-90.39045,38.81125,142],[-90.3904,38.81123,142],[-90.39036,38.8112,142],[-90.39031,38.81118,142],[-90.39026,38.81117,143],[-90.39022,38.81115,143],[-90.39016,38.81115,144],[-90.39011,38.81116,145],[-90.39005,38.81118,145],[-90.39,38.81118,146],[-90.38995,38.81116,147],[-90.3899,38.81115,148],[-90.38985,38.81116,148],[-90.38979,38.81117,149],[-90.38973,38.81117,150],[-90.3897,38.81113,151],[-90.38964,38.81113,151],[-90.38959,38.81115,151],[-90.38955,38.81118,151],[-90.38952,38.81121,151],[-90.38948,38.81123,151],[-90.38944,38.81126,152],[-90.38943,38.8113,152],[-90.38937,38.8113,152],[-90.38932,38.81132,152],[-90.38928,38.81135,152],[-90.38922,38.81138,152],[-90.38919,38.81142,152],[-90.38913,38.81144,152],[-90.38907,38.81145,154],[-90.38902,38.81148,155],[-90.38897,38.81148,156],[-90.38893,38.8115,157],[-90.38888,38.81151,159],[-90.38884,38.81153,160],[-90.3888,38.81157,161],[-90.38875,38.81159,162],[-90.38872,38.81163,162],[-90.38869,38.81165,163],[-90.38866,38.81169,163],[-90.38864,38.81173,163],[-90.38862,38.81177,163],[-90.38861,38.81182,163],[-90.38861,38.81186,162],[-90.38861,38.81195,162]],[[-90.38808,38.81389,198],[-90.38815,38.81391,198],[-90.38819,38.81392,198],[-90.38823,38.81393,198],[-90.38827,38.81395,198],[-90.38832,38.81396,198],[-90.38837,38.81398,198],[-90.38842,38.814,197],[-90.38846,38.81402,197],[-90.38851,38.81404,196],[-90.38855,38.81406,196],[-90.38858,38.81409,196],[-90.38863,38.81411,196],[-90.38868,38.81413,195],[-90.38874,38.81417,195],[-90.3888,38.81419,194],[-90.38884,38.81421,193],[-90.38888,38.81422,193],[-90.38893,38.81422,192],[-90.38899,38.81423,192],[-90.38904,38.81424,192],[-90.38909,38.81426,192],[-90.38914,38.8143,192],[-90.3892,38.81433,192],[-90.3894,38.81436,189],[-90.38943,38.81438,189],[-90.38945,38.8144,189],[-90.38947,38.81443,189],[-90.38949,38.81448,190],[-90.38949,38.81453,190],[-90.38948,38.81458,190],[-90.3895,38.8146,190],[-90.38951,38.8147,191],[-90.38952,38.81475,190],[-90.38952,38.81478,190],[-90.38953,38.81482,190],[-90.38954,38.81485,189],[-90.38955,38.81488,189],[-90.38955,38.81491,189],[-90.38955,38.81494,189],[-90.38957,38.81497,188],[-90.38957,38.815,188],[-90.38957,38.81503,188],[-90.38961,38.81506,187],[-90.38965,38.81511,186],[-90.38969,38.81514,186],[-90.38972,38.81516,185],[-90.38975,38.81519,184],[-90.3898,38.81524,183],[-90.38984,38.81527,182],[-90.38988,38.8153,182],[-90.38993,38.81533,181],[-90.38998,38.81535,180],[-90.39003,38.81538,180],[-90.3901,38.8154,179],[-90.39015,38.81541,179],[-90.39021,38.81542,179],[-90.39027,38.81542,179],[-90.39033,38.81544,180],[-90.39038,38.81546,180],[-90.39043,38.81545,181],[-90.39049,38.81544,182],[-90.39055,38.81544,182],[-90.39061,38.81546,183],[-90.39065,38.81549,183],[-90.39072,38.8155,184],[-90.39077,38.81551,184],[-90.39083,38.81551,185],[-90.39089,38.81551,185],[-90.39094,38.81552,185],[-90.39099,38.81552,185],[-90.39105,38.81553,185],[-90.39111,38.81551,186],[-90.39117,38.8155,186],[-90.39123,38.8155,185],[-90.39128,38.8155,185],[-90.39133,38.8155,185],[-90.39139,38.81549,185],[-90.39144,38.81549,184],[-90.39151,38.8155,183],[-90.39155,38.81553,183],[-90.39157,38.81557,183],[-90.39157,38.81562,182],[-90.39158,38.81567,182],[-90.39159,38.81571,181],[-90.39163,38.81574,181],[-90.39169,38.81576,180],[-90.39172,38.81573,179],[-90.39175,38.81571,179],[-90.39179,38.8157,178],[-90.39184,38.8157,177],[-90.39189,38.8157,176],[-90.39192,38.81566,176],[-90.39197,38.81565,174],[-90.39196,38.81569,174]]],
        "bbox": [
          -90.38797,
          38.81576,
          -90.39489,
          38.806
        ]
      },
      "properties": {
        "name": "9.26.2019"
      }
    }
  ]
}