{
  "type": "FeatureCollection",
  "features": [
    {
      "type": "Feature",
      "geometry": {
        "type": "MultiLineString",
        "coordinates": [[[-90.39505,38.81164,132],[-90.39503,38.81166,132],[-90.39499,38.81169,133],[-90.39496,38.81172,133],[-90.39493,38.81174,133],[-90.39489,38.81177,134],[-90.39487,38.8118,134],[-90.39484,38.81183,135],[-90.39481,38.81186,135],[-90.39478,38.81189,136],[-90.39474,38.81192,136],[-90.39472,38.81194,136],[-90.39469,38.81196,137],[-90.39467,38.81198,137],[-90.39464,38.812,137],[-90.39462,38.81203,137],[-90.39459,38.81205,137],[-90.39455,38.81208,137],[-90.39452,38.8121,137],[-90.3945,38.81212,137],[-90.39447,38.81214,137],[-90.39443,38.81216,138],[-90.3944,38.81218,138],[-90.39438,38.8122,138],[-90.39435,38.81222,138],[-90.39433,38.81224,137],[-90.3943,38.81226,137],[-90.39428,38.81229,137],[-90.39425,38.81232,137],[-90.39422,38.81234,137],[-90.3942,38.81236,137],[-90.39416,38.81238,137],[-90.39412,38.81241,137],[-90.39408,38.81245,137],[-90.39403,38.81248,137],[-90.39398,38.8125,137],[-90.39394,38.81253,136],[-90.39391,38.81257,136],[-90.39386,38.8126,135],[-90.39382,38.81264,135],[-90.39378,38.81267,135],[-90.39375,38.8127,134],[-90.39372,38.81274,134],[-90.39368,38.81276,134],[-90.39364,38.81278,133],[-90.39359,38.81279,133],[-90.39355,38.81281,134],[-90.39351,38.81283,133],[-90.39347,38.81285,133],[-90.39343,38.81288,133],[-90.39339,38.81289,134],[-90.39334,38.81289,134],[-90.3933,38.81286,134],[-90.39328,38.81284,134],[-90.39326,38.81282,134],[-90.39324,38.8128,134],[-90.3932,38.81278,134],[-90.39317,38.81276,134],[-90.39314,38.81274,134],[-90.39312,38.81271,134],[-90.39307,38.81269,134],[-90.39304,38.81267,134],[-90.39303,38.81264,134],[-90.39301,38.81261,134],[-90.39297,38.81259,134],[-90.39294,38.81256,134],[-90.3929,38.81254,134],[-90.39286,38.81253,134],[-90.39282,38.81251,134],[-90.39278,38.81249,133],[-90.39273,38.81247,134],[-90.39269,38.81245,134],[-90.39266,38.81242,134],[-90.39261,38.81241,134],[-90.39257,38.81239,135],[-90.39253,38.81238,135],[-90.39249,38.81237,135],[-90.39246,38.81237,135],[-90.39241,38.81236,135],[-90.39238,38.81233,135],[-90.39236,38.8123,135],[-90.39234,38.81227,135],[-90.3923,38.81224,135],[-90.39226,38.81223,135],[-90.39222,38.8122,136],[-90.39218,38.81218,136],[-90.39213,38.81217,136],[-90.39208,38.81216,136],[-90.39203,38.81216,137],[-90.39199,38.81217,137],[-90.39194,38.81219,137],[-90.3919,38.81222,137],[-90.39187,38.81225,137],[-90.39184,38.81229,136],[-90.39181,38.81231,136],[-90.39177,38.81235,136],[-90.39173,38.81239,136],[-90.39168,38.81242,135],[-90.39165,38.81245,135],[-90.39161,38.81249,135],[-90.39159,38.81252,135],[-90.39157,38.81257,136],[-90.39154,38.81261,137],[-90.39151,38.81265,138],[-90.39149,38.81269,139],[-90.39149,38.81273,140],[-90.39151,38.81277,141],[-90.39155,38.8128,141],[-90.3916,38.81282,140],[-90.39165,38.81284,140],[-90.39169,38.81286,139],[-90.39173,38.81289,139],[-90.39178,38.81292,139],[-90.39182,38.81295,139],[-90.39186,38.81297,138],[-90.39191,38.81299,138],[-90.39195,38.81301,138],[-90.39199,38.81303,138],[-90.39203,38.81306,138],[-90.39207,38.81307,138],[-90.39212,38.81309,138],[-90.39216,38.81312,137],[-90.39221,38.81315,137],[-90.39225,38.81316,137],[-90.39231,38.81319,137],[-90.39235,38.81322,137],[-90.39238,38.81326,137],[-90.39242,38.81329,137],[-90.39246,38.81332,137],[-90.3925,38.81334,137],[-90.39254,38.81338,137],[-90.39257,38.81342,137],[-90.39262,38.81345,137],[-90.39265,38.81347,137],[-90.39268,38.8135,137],[-90.39266,38.81353,137],[-90.39262,38.81355,138],[-90.39258,38.81357,138],[-90.39256,38.8136,138],[-90.39255,38.81363,138],[-90.39252,38.81366,138],[-90.39251,38.81369,138],[-90.39251,38.81373,138],[-90.39251,38.81376,138],[-90.39249,38.81379,138],[-90.39246,38.81383,137],[-90.39244,38.81386,137],[-90.39241,38.81389,136],[-90.3924,38.81392,137],[-90.39239,38.81395,139],[-90.39238,38.81399,141],[-90.39237,38.81401,142],[-90.39235,38.81404,143],[-90.39232,38.81406,144],[-90.39229,38.81408,145],[-90.39224,38.81409,146],[-90.3922,38.81408,145],[-90.39216,38.81405,143],[-90.39215,38.81403,142],[-90.39211,38.814,141],[-90.39207,38.81399,141],[-90.39204,38.81396,140],[-90.39201,38.81393,139],[-90.39198,38.8139,137],[-90.39195,38.81387,138],[-90.39191,38.81385,139],[-90.39187,38.81384,140],[-90.39183,38.81382,142],[-90.3918,38.81379,142],[-90.39178,38.81377,143],[-90.39176,38.81374,143],[-90.39174,38.81371,143],[-90.39173,38.81368,143],[-90.3917,38.81365,143],[-90.39168,38.81363,143],[-90.39166,38.81361,143],[-90.39164,38.81358,144],[-90.39163,38.81356,144],[-90.39162,38.81352,145],[-90.39162,38.81349,145],[-90.39161,38.81347,146],[-90.39161,38.81343,146],[-90.39159,38.81339,147],[-90.39155,38.81337,148],[-90.39152,38.81336,148],[-90.39148,38.81335,149],[-90.39145,38.81334,150],[-90.39141,38.81331,150],[-90.39138,38.81329,150],[-90.39134,38.81326,151],[-90.39131,38.81323,151],[-90.39126,38.81319,152],[-90.39123,38.81316,152],[-90.3912,38.81313,153],[-90.39118,38.81309,153],[-90.39118,38.81305,152],[-90.39118,38.81301,151],[-90.39117,38.81298,151],[-90.39114,38.81295,150],[-90.39111,38.81293,150],[-90.39108,38.81289,150],[-90.39106,38.81287,149],[-90.39105,38.81284,149],[-90.39103,38.8128,148],[-90.39103,38.81277,148],[-90.39103,38.81273,147],[-90.39103,38.8127,146],[-90.39102,38.81267,145],[-90.39101,38.81264,145],[-90.39101,38.81261,144],[-90.391,38.81258,144],[-90.39099,38.81255,143],[-90.39099,38.81251,142],[-90.391,38.81248,142],[-90.391,38.81245,143],[-90.39099,38.81242,144],[-90.39097,38.81239,145],[-90.39094,38.81235,146],[-90.39093,38.81232,147],[-90.39093,38.81229,148],[-90.39092,38.81226,148],[-90.39089,38.81223,149],[-90.39087,38.8122,149],[-90.39089,38.81217,149],[-90.39091,38.81214,149],[-90.39093,38.8121,149],[-90.39094,38.81207,149],[-90.39094,38.81203,149],[-90.39094,38.812,150],[-90.39093,38.81197,150],[-90.39093,38.81193,149],[-90.39093,38.8119,149],[-90.39092,38.81187,149],[-90.39092,38.81183,148],[-90.39092,38.8118,148],[-90.39093,38.81176,147],[-90.39095,38.81173,147],[-90.39097,38.8117,146],[-90.391,38.81167,145],[-90.39102,38.81164,145],[-90.39105,38.81161,144],[-90.39107,38.81158,144],[-90.39109,38.81155,143],[-90.39109,38.81152,143],[-90.39108,38.81148,142],[-90.39105,38.81145,142],[-90.39103,38.81142,142],[-90.391,38.81139,141],[-90.39097,38.81136,141],[-90.39094,38.81133,141],[-90.39092,38.8113,141],[-90.39089,38.81127,141],[-90.39087,38.81123,141],[-90.39085,38.81119,141],[-90.39085,38.81115,141],[-90.39085,38.81112,140],[-90.39086,38.81108,140],[-90.39086,38.81103,139],[-90.39085,38.81099,139],[-90.39084,38.81096,139],[-90.39083,38.81093,139],[-90.3908,38.8109,138],[-90.39077,38.81088,138],[-90.39074,38.81086,138],[-90.39071,38.81085,139],[-90.39067,38.81083,139],[-90.39063,38.81082,139],[-90.39059,38.81081,139],[-90.39055,38.8108,139],[-90.39051,38.8108,140],[-90.39047,38.81078,140],[-90.39044,38.81077,140],[-90.39041,38.81076,140],[-90.39036,38.81075,140],[-90.39031,38.81074,140],[-90.39028,38.81075,141],[-90.39024,38.81075,141],[-90.3902,38.81075,141],[-90.39016,38.81075,141],[-90.39012,38.81075,142],[-90.39009,38.81075,142],[-90.39004,38.81075,142],[-90.38999,38.81075,142],[-90.38995,38.81075,143],[-90.3899,38.81074,143],[-90.38986,38.81074,144],[-90.38983,38.81073,144],[-90.38978,38.81072,144],[-90.38973,38.81071,144],[-90.3897,38.8107,144],[-90.38965,38.81069,144],[-90.3896,38.81069,145],[-90.38955,38.81069,145],[-90.38951,38.81069,145],[-90.38947,38.81068,145],[-90.38944,38.81066,145],[-90.38941,38.81064,145],[-90.38938,38.81062,144],[-90.38934,38.81059,144],[-90.38931,38.81056,144],[-90.38927,38.81053,144],[-90.38926,38.81049,143],[-90.38925,38.81045,143],[-90.38924,38.81042,143],[-90.38922,38.81038,143],[-90.38927,38.81037,143],[-90.3893,38.81035,142],[-90.38933,38.81032,142],[-90.38929,38.81028,142],[-90.38925,38.81027,142],[-90.38921,38.81024,142],[-90.38918,38.8102,143],[-90.38916,38.81016,143],[-90.38915,38.81012,143],[-90.38915,38.81007,144],[-90.38914,38.81003,144],[-90.38914,38.81,144],[-90.38914,38.80996,144],[-90.38913,38.80993,144],[-90.38911,38.80989,145],[-90.38908,38.80984,145],[-90.38906,38.8098,145],[-90.38904,38.80975,145],[-90.38901,38.80971,145],[-90.38897,38.80968,145],[-90.38893,38.80964,145],[-90.38891,38.8096,145],[-90.38888,38.80956,145],[-90.38885,38.80952,145],[-90.38881,38.80948,145],[-90.38878,38.80943,144],[-90.38876,38.80939,144],[-90.38873,38.80935,144],[-90.3887,38.8093,143],[-90.38869,38.80926,143],[-90.38867,38.80922,142],[-90.38865,38.80917,141],[-90.38864,38.80914,141],[-90.38861,38.8091,141],[-90.38859,38.80905,142],[-90.38859,38.80902,141],[-90.38859,38.80898,141],[-90.38858,38.80894,141],[-90.38857,38.8089,141],[-90.38856,38.80886,141],[-90.38855,38.80882,142],[-90.38853,38.80877,142],[-90.38852,38.80873,142],[-90.38851,38.80868,143],[-90.3885,38.80864,143],[-90.38849,38.80859,143],[-90.38849,38.80855,143],[-90.38849,38.8085,143],[-90.38849,38.80846,143],[-90.38849,38.80843,142],[-90.38849,38.80838,142],[-90.38849,38.80833,142],[-90.38849,38.80828,142],[-90.38848,38.80823,142],[-90.38847,38.80819,141],[-90.38845,38.80815,142],[-90.38844,38.80811,141],[-90.38843,38.80807,141],[-90.38844,38.80802,141],[-90.38844,38.80798,141],[-90.38844,38.80793,141],[-90.38844,38.80788,142],[-90.38844,38.80784,142],[-90.38844,38.8078,142],[-90.38843,38.80776,142],[-90.38842,38.80772,142],[-90.3884,38.80767,142],[-90.38839,38.80763,142],[-90.38837,38.80759,142],[-90.38835,38.80755,142],[-90.38834,38.80751,141],[-90.38833,38.80746,141],[-90.38831,38.80741,142],[-90.3883,38.80738,142],[-90.38829,38.80733,142],[-90.38827,38.80729,142],[-90.38826,38.80725,142],[-90.38825,38.80722,142],[-90.38825,38.80718,141],[-90.38826,38.80714,141],[-90.38825,38.8071,140],[-90.38824,38.80707,140],[-90.38824,38.80703,140],[-90.38824,38.807,139],[-90.38824,38.80697,139],[-90.38823,38.80694,139],[-90.38823,38.80691,138],[-90.38822,38.80688,138],[-90.38822,38.80685,138],[-90.38822,38.80682,138],[-90.38822,38.8068,138],[-90.38822,38.80677,137],[-90.38821,38.80674,137],[-90.38819,38.80671,137],[-90.38817,38.80668,138],[-90.38815,38.80664,138],[-90.38814,38.80661,139],[-90.38814,38.80658,139],[-90.38813,38.80655,139],[-90.38812,38.80652,140],[-90.38811,38.80649,140],[-90.38811,38.80646,140],[-90.3881,38.80642,141],[-90.38808,38.80639,141],[-90.38806,38.80636,141],[-90.38805,38.80633,142],[-90.38805,38.8063,142],[-90.38805,38.80627,142],[-90.38806,38.80624,141],[-90.38805,38.80621,142],[-90.38805,38.80618,142],[-90.38805,38.80615,142],[-90.38805,38.80612,142],[-90.38803,38.80609,142],[-90.38802,38.80606,142],[-90.38801,38.80603,143],[-90.38801,38.806,143],[-90.38801,38.80596,143],[-90.38801,38.80592,143],[-90.38801,38.80587,143],[-90.38801,38.80584,143],[-90.388,38.80579,142],[-90.38797,38.80575,143],[-90.38794,38.80571,143],[-90.38793,38.80566,142],[-90.3879,38.80561,142],[-90.38789,38.80557,141],[-90.38788,38.80553,141],[-90.38788,38.80549,141],[-90.38787,38.80545,142],[-90.38786,38.80542,142],[-90.38788,38.80539,142],[-90.3879,38.80535,142],[-90.3879,38.80531,142],[-90.38789,38.80527,142],[-90.38789,38.80524,142],[-90.38788,38.8052,143],[-90.38786,38.80517,143],[-90.38784,38.80514,143],[-90.38782,38.80511,144],[-90.38781,38.80507,144],[-90.38779,38.80504,144],[-90.38779,38.80501,144],[-90.38778,38.80498,144],[-90.38778,38.80494,144],[-90.38778,38.80491,144],[-90.38777,38.80487,144],[-90.38777,38.80483,143],[-90.38777,38.8048,143],[-90.38777,38.80476,143],[-90.38777,38.80473,143],[-90.38777,38.80469,142],[-90.38776,38.80465,143],[-90.38775,38.80462,143],[-90.38774,38.80458,143],[-90.38773,38.80455,143],[-90.38771,38.80452,143],[-90.38769,38.80449,143],[-90.38766,38.80447,143],[-90.38764,38.80445,143],[-90.38761,38.80443,144],[-90.38758,38.80441,145],[-90.38754,38.80439,145],[-90.3875,38.80438,146],[-90.38745,38.80437,147],[-90.3874,38.80437,148],[-90.38736,38.80437,148],[-90.38732,38.80436,149],[-90.3873,38.80433,149],[-90.3873,38.8043,149],[-90.38732,38.80427,149],[-90.38734,38.80424,149],[-90.38736,38.80421,148],[-90.38739,38.80419,148],[-90.38743,38.80418,147],[-90.38746,38.80416,147],[-90.38748,38.80413,147],[-90.38748,38.80409,147],[-90.38748,38.80406,147],[-90.38746,38.80402,148],[-90.38745,38.80399,148],[-90.38743,38.80395,149],[-90.38742,38.80392,149],[-90.38741,38.80389,149],[-90.3874,38.80386,150],[-90.38739,38.80383,151],[-90.38739,38.80381,152],[-90.38738,38.80377,153],[-90.38736,38.80373,155],[-90.38735,38.80371,155],[-90.38734,38.80368,156],[-90.38737,38.8037,155],[-90.38741,38.80371,155],[-90.38744,38.80373,154],[-90.38746,38.80376,153],[-90.38747,38.8038,151],[-90.38747,38.80385,149],[-90.38747,38.80388,148],[-90.38747,38.80391,148],[-90.38747,38.80396,148],[-90.38748,38.80399,147],[-90.38748,38.80402,147],[-90.38748,38.80405,147],[-90.38748,38.80409,147],[-90.38748,38.80412,147],[-90.38748,38.80415,147],[-90.38747,38.80418,147],[-90.38746,38.80421,147],[-90.38744,38.80424,147],[-90.3874,38.80426,148],[-90.38736,38.80428,148],[-90.38733,38.8043,149],[-90.38731,38.80433,149],[-90.3873,38.80436,149],[-90.38731,38.8044,149],[-90.38734,38.80443,148],[-90.38738,38.80443,148],[-90.38743,38.80444,147],[-90.38748,38.80445,146],[-90.38754,38.80447,145],[-90.38759,38.80448,144],[-90.38762,38.80451,144],[-90.38766,38.80453,144],[-90.3877,38.80456,143],[-90.38775,38.80459,142],[-90.38775,38.80463,143],[-90.38774,38.80467,143],[-90.38774,38.80472,143],[-90.38773,38.80476,143],[-90.38773,38.8048,144],[-90.38774,38.80484,144],[-90.38775,38.80488,144],[-90.38777,38.80492,144],[-90.38778,38.80496,144],[-90.38778,38.805,144],[-90.38778,38.80504,144],[-90.38778,38.80509,144],[-90.38778,38.80513,144],[-90.38778,38.80517,144],[-90.38779,38.80521,144],[-90.3878,38.80525,143],[-90.3878,38.8053,143],[-90.38781,38.80534,143],[-90.38782,38.80538,143],[-90.38784,38.80543,142],[-90.38785,38.80548,142],[-90.38786,38.80553,141],[-90.38787,38.80557,141],[-90.38787,38.80562,142],[-90.38788,38.80568,143],[-90.38791,38.80572,143],[-90.38794,38.80575,143],[-90.38796,38.80579,143],[-90.38797,38.80584,144],[-90.38796,38.80587,144],[-90.38795,38.80591,144],[-90.38795,38.80594,144],[-90.38795,38.80597,144],[-90.38796,38.80601,144],[-90.38797,38.80604,144],[-90.38798,38.80608,144],[-90.38799,38.80612,143],[-90.38801,38.80616,143],[-90.38801,38.80618,143],[-90.38802,38.80622,142],[-90.38802,38.80626,142],[-90.38802,38.80629,142],[-90.38802,38.80632,142],[-90.38803,38.80636,142],[-90.38804,38.80639,142],[-90.38805,38.80642,142],[-90.38806,38.80646,141],[-90.38806,38.80649,141],[-90.38807,38.80652,141],[-90.38808,38.80655,140],[-90.38808,38.80658,140],[-90.38808,38.80661,140],[-90.38809,38.80664,140],[-90.3881,38.80667,139],[-90.38812,38.8067,139],[-90.38813,38.80672,139],[-90.38814,38.80675,139],[-90.38814,38.80678,139],[-90.38814,38.8068,140],[-90.38815,38.80683,139],[-90.38815,38.80687,140],[-90.38816,38.80691,140],[-90.38817,38.80694,140],[-90.38818,38.80697,140],[-90.38818,38.807,140],[-90.38819,38.80704,141],[-90.3882,38.80708,141],[-90.38821,38.80713,142],[-90.38823,38.80717,142],[-90.38824,38.80721,142],[-90.38824,38.80725,142],[-90.38824,38.80731,143],[-90.38825,38.80735,143],[-90.38825,38.80739,143],[-90.38826,38.80743,143],[-90.38826,38.80747,143],[-90.38827,38.80753,143],[-90.38828,38.80757,143],[-90.38829,38.8076,143],[-90.38831,38.80764,143],[-90.38833,38.80768,143],[-90.38836,38.80771,143],[-90.38838,38.80775,143],[-90.3884,38.80779,143],[-90.38842,38.80783,142],[-90.38844,38.80786,142],[-90.38844,38.8079,141],[-90.38845,38.80794,141],[-90.38845,38.80798,141],[-90.38846,38.80802,141],[-90.38845,38.80807,141],[-90.38843,38.80812,142],[-90.38842,38.80816,142],[-90.38841,38.80821,143],[-90.38842,38.80824,143],[-90.38843,38.80828,143],[-90.38844,38.80832,143],[-90.38845,38.80837,143],[-90.38846,38.80841,143],[-90.38847,38.80846,143],[-90.38848,38.8085,143],[-90.3885,38.80855,143],[-90.38852,38.80859,142],[-90.38853,38.80864,142],[-90.38854,38.80869,142],[-90.38854,38.80873,142],[-90.38853,38.80877,142],[-90.38854,38.80881,142],[-90.38856,38.80885,141],[-90.38858,38.80889,141],[-90.3886,38.80893,141],[-90.38861,38.80897,141],[-90.38861,38.80901,141],[-90.38862,38.80905,141],[-90.38864,38.80909,141],[-90.38866,38.80913,141],[-90.38869,38.80916,141],[-90.38872,38.8092,142],[-90.38875,38.80924,142],[-90.38877,38.80928,142],[-90.38877,38.80933,143],[-90.38878,38.80938,144],[-90.38881,38.80942,144],[-90.38883,38.80946,144],[-90.38885,38.8095,145],[-90.38888,38.80954,145],[-90.38891,38.80958,145],[-90.38893,38.80961,145],[-90.38896,38.80965,145],[-90.389,38.80969,145],[-90.38902,38.80972,145],[-90.38904,38.80977,145],[-90.38906,38.80981,145],[-90.38908,38.80985,145],[-90.3891,38.80989,145],[-90.38912,38.80993,144],[-90.38913,38.80997,144],[-90.38915,38.81001,144],[-90.38916,38.81005,143],[-90.38917,38.81009,143],[-90.38917,38.81014,143],[-90.38917,38.81018,143],[-90.38918,38.81022,143],[-90.38921,38.81026,142],[-90.3892,38.81028,142],[-90.3892,38.81032,143],[-90.38919,38.81035,143],[-90.38919,38.81038,143],[-90.38919,38.81041,143],[-90.3892,38.81044,143],[-90.38921,38.81046,144],[-90.38924,38.81049,144],[-90.38926,38.81053,144],[-90.38928,38.81056,144],[-90.38931,38.8106,144],[-90.38933,38.81061,145],[-90.38936,38.81063,145],[-90.38939,38.81065,145],[-90.38943,38.81067,145],[-90.38946,38.81069,145],[-90.38949,38.8107,145],[-90.38953,38.8107,145],[-90.38957,38.81071,145],[-90.38961,38.81071,145],[-90.38965,38.81072,145],[-90.38969,38.81073,145],[-90.38972,38.81073,145],[-90.38976,38.81074,144],[-90.38979,38.81075,144],[-90.38983,38.81075,144],[-90.38987,38.81076,144],[-90.38992,38.81077,143],[-90.38996,38.81078,143],[-90.39,38.81078,143],[-90.39003,38.81078,143],[-90.39007,38.81078,142],[-90.39011,38.81077,142],[-90.39015,38.81077,142],[-90.3902,38.81077,141],[-90.39024,38.81077,141],[-90.39028,38.81077,141],[-90.39032,38.81077,141],[-90.39036,38.81077,140],[-90.39039,38.81077,140],[-90.39043,38.81077,140],[-90.39047,38.81077,140],[-90.39051,38.81078,140],[-90.39055,38.81079,139],[-90.39058,38.81079,139],[-90.39062,38.8108,139],[-90.39066,38.8108,139],[-90.3907,38.81081,138],[-90.39073,38.81082,138],[-90.39077,38.81084,138],[-90.39081,38.81086,138],[-90.39085,38.81087,138],[-90.39089,38.81089,138],[-90.3909,38.81093,138],[-90.3909,38.81096,138],[-90.39089,38.81099,139],[-90.39088,38.81101,139],[-90.39087,38.81104,139],[-90.39086,38.81107,140],[-90.39085,38.8111,140],[-90.39084,38.81113,141],[-90.39082,38.81116,141],[-90.39081,38.81119,141],[-90.3908,38.81121,141],[-90.39076,38.81121,141],[-90.39072,38.81122,142],[-90.39069,38.81124,142],[-90.39065,38.81125,142],[-90.39062,38.81126,142],[-90.39057,38.81126,142],[-90.39053,38.81125,142],[-90.3905,38.81123,142],[-90.39046,38.81121,142],[-90.39042,38.8112,142],[-90.39038,38.8112,142],[-90.39033,38.81121,142],[-90.39028,38.81121,142],[-90.39024,38.81121,143],[-90.3902,38.81121,143],[-90.39017,38.8112,144],[-90.39013,38.8112,144],[-90.39008,38.8112,145],[-90.39004,38.8112,145],[-90.38999,38.81119,146],[-90.38996,38.8112,146],[-90.38993,38.81121,147],[-90.38989,38.81123,147],[-90.38985,38.81124,148],[-90.3898,38.81124,149],[-90.38973,38.81123,150],[-90.38969,38.81122,150],[-90.38963,38.81122,151],[-90.38958,38.81123,151],[-90.38953,38.81125,151],[-90.38949,38.81127,151],[-90.38944,38.81129,152],[-90.3894,38.81131,152],[-90.38936,38.81135,152],[-90.38932,38.81138,152],[-90.38928,38.81138,152],[-90.38923,38.81138,152],[-90.38928,38.81138,152],[-90.38923,38.81138,152],[-90.38919,38.81139,152],[-90.38916,38.81142,152],[-90.38912,38.81145,153],[-90.38907,38.81147,154],[-90.38903,38.81148,155],[-90.38898,38.81149,156],[-90.38893,38.8115,157],[-90.38889,38.81154,158],[-90.38884,38.81155,160],[-90.3888,38.81159,161],[-90.38877,38.81162,161],[-90.38873,38.81165,162],[-90.38868,38.81167,163],[-90.38864,38.81169,164],[-90.38859,38.81171,164],[-90.38856,38.81175,164],[-90.38854,38.81179,164],[-90.38853,38.81183,164],[-90.38854,38.81187,163],[-90.38856,38.81191,163],[-90.38858,38.81195,162],[-90.3886,38.81199,162],[-90.38862,38.81203,162],[-90.38865,38.81206,162],[-90.3887,38.81208,161],[-90.38874,38.8121,161],[-90.38877,38.81215,161],[-90.38877,38.81219,162],[-90.38877,38.81223,162],[-90.38875,38.81227,163],[-90.38872,38.8123,164],[-90.38868,38.81231,164],[-90.38863,38.81233,165],[-90.38859,38.81235,166],[-90.38858,38.81239,167],[-90.38857,38.81243,168],[-90.38856,38.81248,169],[-90.38852,38.81252,171],[-90.3885,38.81255,171],[-90.3885,38.8126,172],[-90.38848,38.81263,173],[-90.38845,38.81267,174],[-90.38842,38.8127,175],[-90.38838,38.81273,177],[-90.38834,38.81275,179],[-90.38829,38.81277,181],[-90.38824,38.81278,182],[-90.38819,38.81279,184],[-90.38814,38.8128,185],[-90.38808,38.8128,187],[-90.38809,38.81284,187],[-90.3881,38.81288,187],[-90.38809,38.81292,188],[-90.38808,38.81296,189],[-90.38806,38.813,190],[-90.38804,38.81304,190],[-90.38802,38.81307,191],[-90.38801,38.81311,192],[-90.38799,38.81315,192],[-90.38796,38.81319,193],[-90.38795,38.81322,194],[-90.38792,38.81326,194],[-90.38788,38.81328,195],[-90.38783,38.8133,195],[-90.38778,38.8133,195],[-90.38772,38.8133,195],[-90.38767,38.81331,195],[-90.38762,38.81331,194],[-90.38759,38.81334,194],[-90.38759,38.81338,194],[-90.38759,38.81342,195],[-90.38758,38.81346,195],[-90.38757,38.81349,195],[-90.38756,38.81353,195],[-90.38756,38.81357,196],[-90.38755,38.81361,196],[-90.38753,38.81365,196],[-90.38751,38.81369,197],[-90.38749,38.81373,197],[-90.38749,38.81377,198],[-90.38749,38.81382,198],[-90.38751,38.81386,199],[-90.38754,38.81389,199],[-90.38757,38.81392,200],[-90.38761,38.81394,200],[-90.38764,38.81397,200],[-90.38765,38.814,200],[-90.38769,38.814,200],[-90.38774,38.81401,200],[-90.38778,38.81401,199],[-90.38782,38.81402,199],[-90.38785,38.81401,199],[-90.38789,38.814,199],[-90.38792,38.81399,199],[-90.38795,38.81398,199],[-90.38799,38.81398,199],[-90.38804,38.81397,199],[-90.38809,38.81397,199],[-90.38813,38.81396,198],[-90.38816,38.81396,198],[-90.3882,38.81396,198],[-90.38824,38.81396,198],[-90.38828,38.81398,198],[-90.38832,38.81397,198],[-90.38836,38.81395,197],[-90.38842,38.81396,197],[-90.38848,38.81399,196],[-90.38851,38.81402,196],[-90.38855,38.81405,196],[-90.3886,38.81407,196],[-90.38864,38.8141,196],[-90.38869,38.81412,195],[-90.38874,38.81415,195],[-90.38878,38.81418,194],[-90.38882,38.8142,194],[-90.38887,38.81421,193],[-90.38892,38.81422,192],[-90.38897,38.81422,192],[-90.38902,38.81422,192],[-90.38906,38.81423,192],[-90.38911,38.81425,192],[-90.38915,38.81428,192],[-90.3892,38.8143,192],[-90.38924,38.81431,191],[-90.38931,38.81433,190],[-90.38934,38.81434,190],[-90.38939,38.81436,189],[-90.38942,38.81438,189],[-90.38946,38.81439,189],[-90.38949,38.8144,189],[-90.38953,38.81441,189],[-90.38952,38.81445,189],[-90.38952,38.81448,189],[-90.38954,38.8145,189],[-90.38954,38.81454,190],[-90.38953,38.81457,190],[-90.38953,38.8146,190],[-90.38952,38.81464,190],[-90.38952,38.81467,190],[-90.38952,38.8147,191],[-90.38951,38.81473,191],[-90.38949,38.81475,190],[-90.38949,38.81478,190],[-90.3895,38.81481,190],[-90.38949,38.81484,189],[-90.3895,38.81488,189],[-90.38951,38.81492,189],[-90.38952,38.81495,188],[-90.38954,38.81498,188],[-90.38956,38.81501,188],[-90.38959,38.81503,188],[-90.38961,38.81505,187],[-90.38964,38.81507,187],[-90.38967,38.8151,186],[-90.38971,38.81513,186],[-90.38975,38.81514,185],[-90.38979,38.81515,185],[-90.38982,38.81517,185],[-90.38984,38.81519,184],[-90.38987,38.81522,183],[-90.38991,38.81523,183],[-90.38995,38.81524,183],[-90.38998,38.81527,182],[-90.39001,38.81529,181],[-90.39007,38.81531,181],[-90.39011,38.81533,181],[-90.39015,38.81536,180],[-90.39019,38.81538,180],[-90.39024,38.81541,180],[-90.3903,38.81543,180],[-90.39036,38.81544,180],[-90.3904,38.81546,180],[-90.39045,38.81546,181],[-90.3905,38.81545,182],[-90.39054,38.81545,182],[-90.39059,38.81547,182],[-90.39063,38.81549,183],[-90.39068,38.8155,183],[-90.39072,38.81552,183],[-90.39077,38.81554,184],[-90.39082,38.81555,184],[-90.39087,38.81555,185],[-90.39092,38.81556,185],[-90.39097,38.81556,185],[-90.39103,38.81555,185],[-90.39108,38.81553,186],[-90.39113,38.81551,186],[-90.39118,38.81549,185],[-90.39122,38.81547,185],[-90.39127,38.81547,185],[-90.39133,38.81548,185],[-90.39138,38.81549,185],[-90.39142,38.8155,184],[-90.39147,38.81552,184],[-90.3915,38.81555,184],[-90.39153,38.81559,183],[-90.39156,38.81562,182],[-90.39158,38.81566,182],[-90.39161,38.8157,181],[-90.39164,38.81572,181],[-90.39168,38.81573,180],[-90.39172,38.81574,179],[-90.39173,38.81577,178],[-90.39174,38.8158,178],[-90.39176,38.81583,177],[-90.39176,38.81586,176],[-90.39176,38.81589,176],[-90.39177,38.81592,175],[-90.39178,38.81595,174],[-90.39177,38.81598,173],[-90.39176,38.81601,173],[-90.39176,38.81605,172],[-90.39175,38.81608,172],[-90.39174,38.81611,171],[-90.39173,38.81614,171],[-90.39174,38.81616,170],[-90.39174,38.8162,168],[-90.39173,38.81623,167],[-90.39173,38.81626,166],[-90.3917,38.81625,168],[-90.39167,38.81626,168],[-90.39164,38.81628,168],[-90.39164,38.81631,167],[-90.39164,38.81634,166],[-90.39164,38.81636,165],[-90.39168,38.81636,164],[-90.39165,38.81638,164],[-90.39163,38.81641,164],[-90.3916,38.81644,164],[-90.39157,38.81647,163],[-90.39154,38.81649,164],[-90.39152,38.81652,163],[-90.3915,38.81654,163],[-90.39146,38.81655,164],[-90.39143,38.81655,164],[-90.3914,38.81657,164],[-90.39144,38.8166,162],[-90.39143,38.81664,161],[-90.39138,38.81665,162],[-90.39134,38.81666,162],[-90.3913,38.81669,162],[-90.39127,38.81671,162],[-90.39125,38.81674,161],[-90.39121,38.81676,161],[-90.39117,38.81679,161],[-90.39116,38.81683,160],[-90.39111,38.81684,160],[-90.39108,38.81681,162],[-90.39107,38.81677,163],[-90.39103,38.81677,163],[-90.391,38.81675,164],[-90.39097,38.81673,165],[-90.39094,38.81671,165],[-90.39089,38.8167,166],[-90.39085,38.81671,166],[-90.39082,38.81673,165],[-90.39081,38.81676,165],[-90.3908,38.81679,164],[-90.3908,38.81682,164],[-90.39078,38.81685,164],[-90.39074,38.81685,164],[-90.39071,38.81687,164],[-90.39066,38.81687,164],[-90.39062,38.81686,165],[-90.39059,38.81687,165],[-90.39056,38.81689,165],[-90.39052,38.81691,165],[-90.39049,38.81692,165],[-90.39046,38.81695,165],[-90.39045,38.81698,164],[-90.39047,38.81701,163],[-90.39049,38.81704,162],[-90.39049,38.81707,161],[-90.39049,38.8171,160],[-90.39048,38.81712,159],[-90.39046,38.81715,158],[-90.39045,38.81718,157],[-90.39045,38.81721,156],[-90.39046,38.81723,156],[-90.39046,38.81726,155],[-90.39047,38.81729,153],[-90.3905,38.81731,153],[-90.39052,38.81734,151],[-90.39052,38.81737,150],[-90.39054,38.81739,150],[-90.39055,38.81743,148],[-90.39055,38.81746,147],[-90.39052,38.81748,147],[-90.39048,38.81749,147],[-90.39044,38.81749,147],[-90.39041,38.81751,147],[-90.3904,38.81755,146],[-90.3904,38.81758,145],[-90.3904,38.81761,145],[-90.39037,38.81763,145],[-90.39033,38.81763,145],[-90.39029,38.81764,145],[-90.39025,38.81764,146],[-90.39022,38.81766,146],[-90.39019,38.81768,146],[-90.39017,38.81771,146],[-90.39015,38.81774,145],[-90.39013,38.81776,145],[-90.39009,38.81778,146],[-90.39006,38.81779,146],[-90.39001,38.8178,147],[-90.38997,38.81781,147],[-90.38992,38.81782,148],[-90.38988,38.81783,148],[-90.38984,38.81784,148],[-90.3898,38.81785,149],[-90.38976,38.81785,149],[-90.38972,38.81786,149],[-90.38968,38.81788,149],[-90.38965,38.8179,149],[-90.38962,38.81791,149],[-90.38958,38.81792,149],[-90.38955,38.81793,149],[-90.38956,38.81796,148],[-90.38956,38.81799,148],[-90.38951,38.81798,148],[-90.38947,38.81798,148],[-90.38942,38.81798,148],[-90.38937,38.81797,149],[-90.38932,38.81797,150],[-90.38928,38.81798,150],[-90.38922,38.818,151],[-90.38917,38.818,151],[-90.38911,38.818,153],[-90.38908,38.81803,153],[-90.38911,38.81801,153],[-90.38916,38.818,151],[-90.3892,38.81799,151],[-90.38924,38.81798,151],[-90.38928,38.81797,151],[-90.38932,38.81797,150],[-90.38937,38.81797,149],[-90.38941,38.81797,149],[-90.38946,38.81798,148],[-90.3895,38.81799,148],[-90.38953,38.81801,147],[-90.38955,38.81803,147],[-90.38959,38.81805,147],[-90.38963,38.81804,147],[-90.38965,38.81802,147],[-90.38967,38.81799,148],[-90.38967,38.81796,148],[-90.3897,38.81794,148],[-90.38975,38.81793,148],[-90.3898,38.81793,147],[-90.38985,38.81793,147],[-90.3899,38.81791,146],[-90.38995,38.81788,146],[-90.39,38.81786,146],[-90.39006,38.81787,145],[-90.39012,38.81785,144],[-90.39016,38.81783,144],[-90.3902,38.81779,144],[-90.39024,38.81775,144],[-90.39029,38.81773,143],[-90.39034,38.81773,143],[-90.39038,38.81771,143],[-90.39042,38.8177,143],[-90.39046,38.8177,142],[-90.3905,38.81771,142],[-90.39053,38.81773,141],[-90.39057,38.81774,140],[-90.39061,38.81774,140],[-90.39064,38.81771,140],[-90.39068,38.81769,140],[-90.39071,38.81766,140],[-90.39069,38.81764,141],[-90.39065,38.81763,142],[-90.39061,38.81765,142],[-90.39059,38.81767,141],[-90.39057,38.8177,141],[-90.39053,38.81769,142],[-90.39049,38.81767,143],[-90.39046,38.81765,143],[-90.39045,38.81762,144],[-90.39044,38.81758,145],[-90.39045,38.81755,146],[-90.39045,38.81751,146],[-90.39046,38.81748,147],[-90.3905,38.81747,147],[-90.39054,38.81748,146],[-90.39058,38.8175,145],[-90.39063,38.8175,144],[-90.39068,38.8175,144],[-90.39071,38.8175,143],[-90.39075,38.81749,143],[-90.3908,38.81748,143],[-90.39083,38.81746,143],[-90.39086,38.81743,143],[-90.39089,38.81741,144],[-90.39091,38.81739,144],[-90.39095,38.81737,144],[-90.39099,38.81738,143],[-90.39103,38.81738,143],[-90.39105,38.81736,143],[-90.39107,38.81734,143],[-90.39109,38.8173,144],[-90.39111,38.81728,144],[-90.39114,38.81726,144],[-90.39117,38.81725,144],[-90.39121,38.81724,143],[-90.39125,38.81721,143],[-90.39129,38.81718,144],[-90.39132,38.81715,145],[-90.39138,38.81713,145],[-90.39143,38.81711,145],[-90.39149,38.81709,145],[-90.39154,38.81709,144],[-90.39159,38.81708,143],[-90.39163,38.81706,144],[-90.39167,38.81704,144],[-90.39172,38.81702,145],[-90.39176,38.81699,146],[-90.39178,38.81695,148],[-90.3918,38.81691,149],[-90.39184,38.81688,149],[-90.39188,38.81686,149],[-90.39191,38.81684,149],[-90.39194,38.81682,149],[-90.39197,38.8168,149],[-90.392,38.81678,149],[-90.39203,38.81676,149],[-90.39206,38.81673,148],[-90.3921,38.8167,148],[-90.39212,38.81668,147],[-90.39215,38.81665,147],[-90.39218,38.81662,147],[-90.39222,38.81661,146],[-90.39224,38.81659,146],[-90.39226,38.81655,146],[-90.39227,38.81652,146],[-90.39228,38.81648,146],[-90.3923,38.81645,146],[-90.39232,38.81643,146],[-90.39234,38.8164,146],[-90.39234,38.81637,146],[-90.39232,38.81634,148],[-90.39233,38.81631,148],[-90.39234,38.81627,149],[-90.39236,38.81625,149],[-90.3924,38.81623,149],[-90.39243,38.81621,148],[-90.39245,38.81618,149],[-90.39248,38.81617,148],[-90.39253,38.81616,146],[-90.39257,38.81615,145],[-90.3926,38.81613,145],[-90.39263,38.81611,144],[-90.39266,38.81607,143],[-90.39267,38.81604,143],[-90.39267,38.816,143],[-90.39266,38.81597,143],[-90.39265,38.81593,144],[-90.39265,38.8159,144],[-90.39264,38.81587,144],[-90.39263,38.81584,144],[-90.39262,38.81582,145],[-90.39259,38.81578,147],[-90.39258,38.81573,148],[-90.3926,38.81569,148],[-90.39261,38.81565,149],[-90.39263,38.81562,149],[-90.39265,38.8156,149],[-90.39269,38.81556,148],[-90.3927,38.81554,148],[-90.39271,38.81551,148],[-90.39275,38.81549,147],[-90.39279,38.81548,146],[-90.39283,38.81547,145],[-90.39286,38.81545,145],[-90.3929,38.81543,145],[-90.39294,38.81541,144],[-90.39297,38.81539,144],[-90.393,38.81536,144],[-90.39302,38.81534,144],[-90.39305,38.81532,144],[-90.39308,38.8153,144],[-90.3931,38.81527,145],[-90.39312,38.81524,144],[-90.39314,38.8152,144],[-90.39317,38.81518,143],[-90.39317,38.81515,144],[-90.39317,38.81512,144],[-90.39314,38.81508,145],[-90.39312,38.81506,146],[-90.3931,38.81503,146],[-90.39307,38.81501,147],[-90.39305,38.81499,147],[-90.39302,38.81495,147],[-90.39299,38.81491,148],[-90.39297,38.81488,148],[-90.39295,38.81484,148],[-90.39293,38.8148,148],[-90.39292,38.81476,148],[-90.39291,38.81472,149],[-90.39289,38.81468,149],[-90.39287,38.81464,150],[-90.39285,38.81461,150],[-90.39281,38.81457,151],[-90.39277,38.81455,152],[-90.39273,38.81452,153],[-90.39269,38.81449,153],[-90.39267,38.81446,154],[-90.39264,38.81443,154],[-90.3926,38.81439,153],[-90.39256,38.81437,153],[-90.39251,38.81435,153],[-90.39247,38.81433,153],[-90.39243,38.81431,153],[-90.39239,38.81428,152],[-90.39235,38.81426,152],[-90.39232,38.81422,151],[-90.39229,38.81418,150],[-90.39226,38.81415,149],[-90.39224,38.81412,148],[-90.39226,38.81409,146],[-90.39229,38.81407,145],[-90.39233,38.81405,143],[-90.39236,38.81403,143],[-90.39238,38.814,141],[-90.3924,38.81397,140],[-90.39242,38.81395,139],[-90.39244,38.81392,138],[-90.39245,38.81389,137],[-90.39246,38.81386,137],[-90.39247,38.81383,137],[-90.3925,38.8138,138],[-90.39251,38.81376,138],[-90.39252,38.81373,138],[-90.39252,38.8137,138],[-90.39253,38.81367,138],[-90.39254,38.81363,138],[-90.39256,38.8136,138],[-90.39258,38.81357,138],[-90.3926,38.81354,138],[-90.39262,38.81352,137],[-90.39265,38.81349,137],[-90.39267,38.81346,136],[-90.39269,38.81344,136],[-90.39272,38.81342,136],[-90.39275,38.8134,135],[-90.39278,38.81338,135],[-90.39281,38.81336,135],[-90.39284,38.81334,134],[-90.39286,38.81331,134],[-90.39288,38.81328,134],[-90.39291,38.81325,133],[-90.39295,38.81323,133],[-90.39299,38.8132,133],[-90.39302,38.81318,133],[-90.39305,38.81316,133],[-90.39308,38.81313,132],[-90.39311,38.81311,132],[-90.39315,38.81308,132],[-90.39319,38.81306,132],[-90.39323,38.81303,133],[-90.39327,38.81301,133],[-90.3933,38.81298,133],[-90.39333,38.81296,133],[-90.39337,38.81294,133],[-90.39341,38.81292,133],[-90.39344,38.81291,133],[-90.39349,38.81289,133],[-90.39353,38.81287,133],[-90.39356,38.81286,133],[-90.39359,38.81284,133],[-90.39363,38.81281,133],[-90.39366,38.81278,133],[-90.39368,38.81276,134],[-90.39372,38.81273,134],[-90.39375,38.81271,134],[-90.39377,38.81269,134],[-90.3938,38.81267,135],[-90.39383,38.81264,135],[-90.39386,38.81262,135],[-90.3939,38.8126,135],[-90.39393,38.81258,136],[-90.39396,38.81256,136],[-90.39399,38.81254,136],[-90.39402,38.81252,136],[-90.39405,38.8125,137],[-90.39407,38.81248,137],[-90.39411,38.81245,137],[-90.39414,38.81244,137],[-90.39417,38.81241,137],[-90.3942,38.81239,137],[-90.39423,38.81237,137],[-90.39425,38.81234,137],[-90.39428,38.81231,137],[-90.39431,38.81228,137],[-90.39433,38.81226,137],[-90.39436,38.81224,137],[-90.39439,38.81222,138],[-90.39441,38.8122,138],[-90.39444,38.81218,138],[-90.39447,38.81216,137],[-90.3945,38.81213,137],[-90.39453,38.81211,137],[-90.39456,38.81208,137],[-90.3946,38.81205,137],[-90.39463,38.81203,137],[-90.39466,38.81201,137],[-90.39468,38.81199,137],[-90.39471,38.81196,137],[-90.39474,38.81193,136],[-90.39476,38.8119,136],[-90.39478,38.81187,135],[-90.39482,38.81185,135],[-90.39484,38.81183,135],[-90.39487,38.81181,134],[-90.3949,38.81179,134],[-90.39493,38.81177,134],[-90.39496,38.81175,133],[-90.395,38.81173,133],[-90.39503,38.81171,133],[-90.39505,38.81168,133],[-90.39506,38.81165,132]]],
        "bbox": [
          -90.3873,
          38.81805,
          -90.39506,
          38.80368
        ]
      },
      "properties": {
        "name": "4.9.2023"
      }
    }
  ]
}